{"type":"FeatureCollection","features":[{"type":"Feature","geometry":{"type":"Polygon","coordinates":[[[-122.3337,37.84037],[-122.27787,37.82695],[-122.27846,37.82886],[-122.27561,37.83643],[-122.27882,37.83724],[-122.28449,37.83671],[-122.28874,37.84999],[-122.3337,37.84037]]]},"properties":{"GEOID":"0622594","NAME":"Emeryville city","BASENAME":"Emeryville","STATE":"06","PLACE":"22594"}},{"type":"Feature","geometry":{"type":"Polygon","coordinates":[[[-122.37312,37.88388],[-122.37378,37.88373],[-122.36778,37.86673],[-122.30853,37.88221],[-122.30333,37.88217],[-122.29671,37.88352],[-122.29445,37.88258],[-122.2916,37.88326],[-122.28296,37.88242],[-122.28185,37.88503],[-122.28274,37.88538],[-122.28164,37.88849],[-122.28241,37.89117],[-122.28705,37.89092],[-122.28669,37.89851],[-122.28957,37.89749],[-122.29654,37.89893],[-122.30017,37.89794],[-122.30218,37.89852],[-122.31298,37.89732],[-122.37312,37.88388]]]},"properties":{"GEOID":"0600674","NAME":"Albany city","BASENAME":"Albany","STATE":"06","PLACE":"00674"}},{"type":"Feature","geometry":{"type":"Polygon","coordinates":[[[-122.24929,37.82291],[-122.24348,37.81866],[-122.21507,37.81224],[-122.2132,37.81451],[-122.21282,37.8164],[-122.21018,37.81861],[-122.21964,37.82451],[-122.22223,37.82728],[-122.22267,37.82885],[-122.22724,37.8329],[-122.22771,37.83233],[-122.22915,37.83314],[-122.23079,37.83272],[-122.23139,37.83146],[-122.24362,37.83003],[-122.24426,37.82832],[-122.24768,37.82624],[-122.24929,37.82291]]]},"properties":{"GEOID":"0656938","NAME":"Piedmont city","BASENAME":"Piedmont","STATE":"06","PLACE":"56938"}},{"type":"Feature","geometry":{"type":"Polygon","coordinates":[[[-122.34052,37.80166],[-122.34102,37.80183],[-122.28088,37.70723],[-122.25576,37.70711],[-122.24961,37.71244],[-122.26027,37.71757],[-122.24791,37.72837],[-122.23618,37.71985],[-122.22834,37.72773],[-122.22677,37.72766],[-122.2265,37.74808],[-122.22338,37.74804],[-122.22421,37.76281],[-122.22658,37.76693],[-122.23803,37.77236],[-122.24354,37.77628],[-122.24482,37.77912],[-122.24522,37.78303],[-122.24659,37.78468],[-122.25268,37.78699],[-122.26006,37.78449],[-122.27967,37.79342],[-122.28597,37.79362],[-122.29598,37.79193],[-122.3058,37.79257],[-122.32851,37.79749],[-122.34052,37.80166]]]},"properties":{"GEOID":"0600562","NAME":"Alameda city","BASENAME":"Alameda","STATE":"06","PLACE":"00562"}},{"type":"Feature","geometry":{"type":"Polygon","coordinates":[[[-122.36778,37.86673],[-122.35588,37.83573],[-122.28612,37.85053],[-122.28357,37.85064],[-122.2819,37.84697],[-122.27619,37.84773],[-122.2758,37.84587],[-122.26914,37.84674],[-122.26951,37.84858],[-122.26837,37.84877],[-122.26896,37.85162],[-122.26357,37.85255],[-122.25335,37.85383],[-122.25292,37.85077],[-122.23418,37.85238],[-122.23476,37.85779],[-122.24161,37.85707],[-122.24272,37.85793],[-122.2426,37.85872],[-122.24463,37.85901],[-122.24401,37.86073],[-122.24553,37.86404],[-122.24462,37.86472],[-122.24553,37.86624],[-122.2446,37.8674],[-122.24691,37.88535],[-122.24926,37.88697],[-122.24954,37.88931],[-122.25029,37.88983],[-122.24903,37.89076],[-122.24967,37.89282],[-122.25105,37.89382],[-122.253,37.89381],[-122.25268,37.89502],[-122.2537,37.89619],[-122.25594,37.89603],[-122.25693,37.89984],[-122.25842,37.89898],[-122.25968,37.89988],[-122.26078,37.89966],[-122.26129,37.90139],[-122.26395,37.90373],[-122.27035,37.90439],[-122.27154,37.90494],[-122.27108,37.90582],[-122.27787,37.90315],[-122.27728,37.90172],[-122.27878,37.90074],[-122.28364,37.9],[-122.28669,37.89851],[-122.28705,37.89092],[-122.28241,37.89117],[-122.28166,37.88866],[-122.28274,37.88538],[-122.28185,37.88503],[-122.28296,37.88242],[-122.2916,37.88326],[-122.29445,37.88258],[-122.29671,37.88352],[-122.30333,37.88217],[-122.30853,37.88221],[-122.36778,37.86673]]]},"properties":{"GEOID":"0606000","NAME":"Berkeley city","BASENAME":"Berkeley","STATE":"06","PLACE":"06000"}},{"type":"Feature","geometry":{"type":"Polygon","coordinates":[[[-122.20936,37.71118],[-122.20048,37.69259],[-122.19228,37.68273],[-122.19155,37.68333],[-122.18058,37.67066],[-122.17529,37.67074],[-122.17679,37.6694],[-122.17069,37.67081],[-122.17063,37.6674],[-122.1636,37.66712],[-122.1575,37.66962],[-122.15506,37.67114],[-122.15556,37.674],[-122.15434,37.67474],[-122.15472,37.67516],[-122.14498,37.67972],[-122.14381,37.68172],[-122.14051,37.6842],[-122.13139,37.6852],[-122.129,37.68439],[-122.13235,37.68671],[-122.1301,37.68674],[-122.13013,37.69112],[-122.12841,37.69107],[-122.12965,37.69219],[-122.12953,37.69746],[-122.1284,37.69823],[-122.12478,37.69578],[-122.12476,37.69823],[-122.12251,37.69861],[-122.12254,37.70111],[-122.12928,37.70586],[-122.12426,37.70983],[-122.12899,37.71253],[-122.13115,37.71491],[-122.12398,37.71642],[-122.12504,37.71899],[-122.12369,37.7193],[-122.12724,37.72983],[-122.13123,37.73043],[-122.13235,37.73173],[-122.13038,37.73341],[-122.13444,37.73431],[-122.13669,37.73187],[-122.13898,37.73093],[-122.14071,37.73718],[-122.14605,37.7428],[-122.14767,37.74114],[-122.16416,37.73594],[-122.16562,37.73776],[-122.17156,37.735],[-122.16977,37.73221],[-122.17424,37.73114],[-122.17031,37.72773],[-122.17129,37.72801],[-122.1727,37.72681],[-122.17434,37.72665],[-122.17544,37.72531],[-122.18384,37.72568],[-122.18688,37.72783],[-122.19038,37.72889],[-122.19193,37.72729],[-122.19282,37.7277],[-122.19614,37.72601],[-122.1968,37.72675],[-122.19805,37.72623],[-122.19627,37.72331],[-122.189,37.71789],[-122.19291,37.71673],[-122.1934,37.71783],[-122.19471,37.71754],[-122.19442,37.71583],[-122.19703,37.71583],[-122.20217,37.71298],[-122.20936,37.71118]]]},"properties":{"GEOID":"0668084","NAME":"San Leandro city","BASENAME":"San Leandro","STATE":"06","PLACE":"68084"}},{"type":"Feature","geometry":{"type":"Polygon","coordinates":[[[-122.07089,37.51902],[-122.07001,37.51756],[-122.06738,37.51828],[-122.06452,37.51302],[-122.06094,37.5141],[-122.06084,37.51483],[-122.05575,37.51422],[-122.05533,37.51026],[-122.05403,37.50845],[-122.05505,37.50408],[-122.05748,37.49912],[-122.05085,37.49762],[-122.05078,37.49647],[-122.04112,37.49353],[-122.03831,37.4937],[-122.0353,37.49239],[-122.03223,37.48935],[-122.03035,37.48947],[-122.02924,37.48816],[-122.03018,37.48725],[-122.03026,37.48267],[-122.02708,37.47861],[-122.02585,37.47898],[-122.02528,37.48241],[-122.02314,37.48469],[-122.0198,37.48459],[-122.01381,37.48165],[-122.00975,37.48898],[-122.01079,37.49235],[-122.01008,37.49344],[-122.00591,37.49462],[-121.99952,37.49331],[-121.99628,37.49829],[-121.99202,37.49807],[-121.99797,37.50389],[-121.99475,37.514],[-121.98777,37.52243],[-122.01538,37.53709],[-122.02868,37.55413],[-122.03851,37.56341],[-122.04463,37.55658],[-122.06733,37.54023],[-122.06468,37.53469],[-122.06809,37.52417],[-122.06134,37.52327],[-122.06047,37.52158],[-122.07089,37.51902]]]},"properties":{"GEOID":"0650916","NAME":"Newark city","BASENAME":"Newark","STATE":"06","PLACE":"50916"}},{"type":"Feature","geometry":{"type":"Polygon","coordinates":[[[-121.9878,37.70932],[-121.98759,37.70051],[-121.97931,37.699],[-121.97733,37.69994],[-121.97554,37.69873],[-121.96982,37.69776],[-121.9685,37.69845],[-121.96516,37.69796],[-121.9643,37.69863],[-121.95908,37.69897],[-121.93734,37.69872],[-121.93523,37.70056],[-121.93282,37.6992],[-121.92541,37.70086],[-121.92419,37.70253],[-121.92275,37.70303],[-121.92034,37.70199],[-121.87425,37.70179],[-121.87226,37.70182],[-121.87224,37.70257],[-121.86659,37.70152],[-121.83338,37.70121],[-121.83347,37.70923],[-121.83244,37.70923],[-121.83255,37.72374],[-121.8416,37.72377],[-121.84161,37.73096],[-121.85065,37.73096],[-121.85073,37.74494],[-121.95511,37.71972],[-121.95074,37.71703],[-121.95096,37.71557],[-121.95288,37.71602],[-121.95355,37.71421],[-121.95308,37.71339],[-121.95083,37.71286],[-121.95426,37.71079],[-121.95249,37.70936],[-121.9528,37.70759],[-121.95624,37.70837],[-121.96022,37.71079],[-121.96027,37.7089],[-121.96152,37.7084],[-121.96949,37.70971],[-121.9878,37.70932]]]},"properties":{"GEOID":"0620018","NAME":"Dublin city","BASENAME":"Dublin","STATE":"06","PLACE":"20018"}},{"type":"Feature","geometry":{"type":"Polygon","coordinates":[[[-121.95496,37.69884],[-121.95495,37.69672],[-121.94746,37.69477],[-121.95128,37.6919],[-121.95131,37.68741],[-121.94224,37.68761],[-121.94225,37.68391],[-121.94107,37.6839],[-121.94102,37.67923],[-121.93387,37.67695],[-121.93304,37.67753],[-121.93195,37.6771],[-121.93181,37.66469],[-121.92512,37.6647],[-121.9251,37.667],[-121.9184,37.66695],[-121.91921,37.66839],[-121.91093,37.66995],[-121.91007,37.66777],[-121.91811,37.66627],[-121.91476,37.66322],[-121.91447,37.6614],[-121.92294,37.66164],[-121.92291,37.6574],[-121.92385,37.6574],[-121.9216,37.65282],[-121.92052,37.65282],[-121.9204,37.65027],[-121.91472,37.65025],[-121.91481,37.63393],[-121.91279,37.63249],[-121.9107,37.63248],[-121.90948,37.6262],[-121.905,37.6241],[-121.90125,37.62038],[-121.89701,37.62198],[-121.89856,37.62268],[-121.88993,37.62573],[-121.88976,37.62266],[-121.88866,37.62193],[-121.88296,37.6233],[-121.88391,37.62651],[-121.88282,37.62665],[-121.88284,37.62725],[-121.88462,37.6296],[-121.88633,37.6296],[-121.88583,37.62875],[-121.90136,37.62546],[-121.90203,37.62725],[-121.90558,37.62965],[-121.90568,37.63243],[-121.89714,37.63744],[-121.89714,37.6418],[-121.89327,37.63972],[-121.89528,37.64178],[-121.89161,37.64673],[-121.88825,37.64361],[-121.88627,37.64],[-121.88592,37.63883],[-121.88682,37.63842],[-121.88672,37.63714],[-121.88208,37.63702],[-121.87895,37.63607],[-121.87825,37.63755],[-121.87543,37.6374],[-121.87444,37.63979],[-121.87749,37.63995],[-121.87721,37.64067],[-121.87585,37.64045],[-121.87707,37.64104],[-121.8765,37.64268],[-121.8663,37.63999],[-121.8663,37.6379],[-121.87095,37.6379],[-121.87059,37.63497],[-121.86702,37.63492],[-121.86702,37.63349],[-121.87125,37.63243],[-121.87132,37.63133],[-121.87219,37.63139],[-121.87205,37.62949],[-121.8707,37.62949],[-121.87067,37.62411],[-121.86044,37.62405],[-121.86044,37.62533],[-121.8569,37.62514],[-121.86011,37.62952],[-121.85515,37.62952],[-121.85514,37.64731],[-121.83325,37.63372],[-121.83341,37.6538],[-121.82847,37.65386],[-121.82846,37.65203],[-121.82375,37.65206],[-121.82387,37.64181],[-121.82178,37.64178],[-121.81717,37.63666],[-121.8152,37.63555],[-121.8145,37.63487],[-121.8145,37.63175],[-121.80846,37.62678],[-121.8129,37.62177],[-121.81001,37.62005],[-121.80807,37.62547],[-121.80228,37.62947],[-121.80173,37.63512],[-121.79932,37.63707],[-121.79898,37.63995],[-121.80026,37.64305],[-121.80464,37.64777],[-121.80567,37.6522],[-121.81415,37.65542],[-121.82115,37.65548],[-121.82382,37.65715],[-121.82383,37.65953],[-121.82612,37.65968],[-121.83071,37.66303],[-121.83764,37.66527],[-121.83007,37.66576],[-121.83003,37.6675],[-121.83347,37.66804],[-121.83344,37.67299],[-121.85358,37.67078],[-121.8537,37.67142],[-121.83758,37.67317],[-121.83754,37.67886],[-121.8468,37.67577],[-121.85733,37.67603],[-121.85757,37.68203],[-121.86206,37.68201],[-121.86182,37.69129],[-121.85424,37.69124],[-121.85424,37.69376],[-121.84828,37.69368],[-121.84792,37.69877],[-121.8495,37.70135],[-121.86659,37.70152],[-121.87224,37.70257],[-121.87226,37.70182],[-121.87425,37.70179],[-121.92034,37.70199],[-121.92275,37.70303],[-121.92419,37.70253],[-121.92541,37.70086],[-121.93282,37.6992],[-121.93523,37.70056],[-121.93734,37.69872],[-121.95496,37.69884]],[[-121.85994,37.66351],[-121.8599,37.66558],[-121.85663,37.66569],[-121.85661,37.66481],[-121.85591,37.6648],[-121.85673,37.66279],[-121.85904,37.66285],[-121.85865,37.66375],[-121.85994,37.66351]]]},"properties":{"GEOID":"0657792","NAME":"Pleasanton city","BASENAME":"Pleasanton","STATE":"06","PLACE":"57792"}},{"type":"Feature","geometry":{"type":"Polygon","coordinates":[[[-122.09676,37.58298],[-122.09459,37.57942],[-122.09156,37.57968],[-122.09,37.57848],[-122.0868,37.57838],[-122.08591,37.57415],[-122.08314,37.57529],[-122.08278,37.57457],[-122.08555,37.57335],[-122.08363,37.56968],[-122.08446,37.56774],[-122.08936,37.56452],[-122.09079,37.56466],[-122.09062,37.56632],[-122.09171,37.56739],[-122.09516,37.56672],[-122.09549,37.56504],[-122.0927,37.56302],[-122.09304,37.56264],[-122.08026,37.56139],[-122.07137,37.56302],[-122.06885,37.5643],[-122.06022,37.57399],[-122.06282,37.58476],[-122.0621,37.58561],[-122.06428,37.58679],[-122.06046,37.5918],[-122.05673,37.59263],[-122.05035,37.58349],[-122.04716,37.58651],[-122.0422,37.588],[-122.03451,37.58657],[-122.03204,37.58504],[-122.02384,37.57703],[-122.01831,37.57443],[-122.016,37.57568],[-122.0132,37.5807],[-122.01104,37.58063],[-122.00836,37.57903],[-122.00587,37.58648],[-121.97837,37.60668],[-121.95764,37.58949],[-121.95698,37.59147],[-121.95207,37.59716],[-121.94971,37.59811],[-121.94979,37.60721],[-121.94427,37.6072],[-121.94426,37.60966],[-121.94026,37.61166],[-121.93977,37.61417],[-121.94383,37.61644],[-121.94266,37.61819],[-121.94242,37.62136],[-121.94528,37.62131],[-121.94527,37.62243],[-121.94439,37.62254],[-121.94568,37.62754],[-121.94676,37.62727],[-121.94855,37.6297],[-121.95005,37.62903],[-121.95007,37.63145],[-121.95156,37.63286],[-121.95511,37.63292],[-121.95523,37.62862],[-121.96072,37.62857],[-121.9606,37.63637],[-121.98653,37.63602],[-121.98698,37.62207],[-121.99629,37.62177],[-122.01746,37.63429],[-122.02208,37.63196],[-122.01852,37.62895],[-122.02963,37.62066],[-122.02383,37.61545],[-122.02822,37.61345],[-122.02324,37.60905],[-122.0345,37.60906],[-122.03094,37.60593],[-122.03482,37.60596],[-122.04145,37.61164],[-122.0433,37.61227],[-122.04383,37.60596],[-122.05869,37.60603],[-122.05937,37.60391],[-122.06879,37.6057],[-122.06641,37.61314],[-122.0782,37.61343],[-122.08342,37.61003],[-122.08853,37.60931],[-122.08717,37.60783],[-122.09127,37.6],[-122.09093,37.59417],[-122.09203,37.59255],[-122.09166,37.58505],[-122.09676,37.58298]]]},"properties":{"GEOID":"0681204","NAME":"Union City city","BASENAME":"Union City","STATE":"06","PLACE":"81204"}},{"type":"Feature","geometry":{"type":"Polygon","coordinates":[[[-121.84825,37.69408],[-121.84817,37.69269],[-121.83674,37.69275],[-121.83642,37.69116],[-121.83,37.69134],[-121.83001,37.68968],[-121.81457,37.68952],[-121.81497,37.68013],[-121.80521,37.68017],[-121.80549,37.66555],[-121.80476,37.66497],[-121.80547,37.66428],[-121.80624,37.65312],[-121.80473,37.64794],[-121.80016,37.6429],[-121.79894,37.63959],[-121.79932,37.63707],[-121.80151,37.63545],[-121.80198,37.63417],[-121.80176,37.62857],[-121.78641,37.62857],[-121.7864,37.63521],[-121.78175,37.63166],[-121.7777,37.63469],[-121.77981,37.63677],[-121.77889,37.63763],[-121.78303,37.64194],[-121.78305,37.64009],[-121.78632,37.64011],[-121.78373,37.64303],[-121.78288,37.64528],[-121.74975,37.64517],[-121.74973,37.64978],[-121.76202,37.6498],[-121.76202,37.65662],[-121.76807,37.65663],[-121.76805,37.65797],[-121.75895,37.65795],[-121.75862,37.66175],[-121.74965,37.66249],[-121.74959,37.66921],[-121.7472,37.66855],[-121.75343,37.67256],[-121.75135,37.67257],[-121.75128,37.67383],[-121.7474,37.67382],[-121.74741,37.67246],[-121.74202,37.67244],[-121.74191,37.66517],[-121.7374,37.66513],[-121.73748,37.67242],[-121.73976,37.67243],[-121.7398,37.67618],[-121.73639,37.67617],[-121.73644,37.67985],[-121.7267,37.67977],[-121.72671,37.67838],[-121.7307,37.67806],[-121.73072,37.67439],[-121.72761,37.67447],[-121.72761,37.67372],[-121.73039,37.67379],[-121.72994,37.66874],[-121.72865,37.66873],[-121.72864,37.66983],[-121.72769,37.66983],[-121.7277,37.66873],[-121.7264,37.66873],[-121.72611,37.6715],[-121.72498,37.67095],[-121.72588,37.67091],[-121.72569,37.66873],[-121.72379,37.66884],[-121.7238,37.67001],[-121.719,37.67001],[-121.71883,37.66508],[-121.71883,37.66836],[-121.71692,37.66835],[-121.7169,37.6665],[-121.71346,37.66833],[-121.70575,37.66752],[-121.702,37.66859],[-121.7012,37.66503],[-121.70121,37.67233],[-121.70011,37.6725],[-121.69976,37.67542],[-121.69673,37.67792],[-121.69699,37.69942],[-121.70076,37.69975],[-121.69705,37.70348],[-121.69698,37.70707],[-121.69866,37.70967],[-121.69765,37.71238],[-121.69865,37.71492],[-121.69702,37.71517],[-121.69688,37.71777],[-121.70007,37.71725],[-121.70123,37.71831],[-121.70436,37.71811],[-121.70929,37.71561],[-121.70932,37.71697],[-121.71059,37.71695],[-121.71067,37.72331],[-121.70078,37.72338],[-121.70601,37.7282],[-121.706,37.72678],[-121.7107,37.72632],[-121.71178,37.73074],[-121.71949,37.73061],[-121.71959,37.72699],[-121.72418,37.72696],[-121.72712,37.72701],[-121.72709,37.73062],[-121.72875,37.73063],[-121.72874,37.73219],[-121.73012,37.7322],[-121.73013,37.73063],[-121.74655,37.73067],[-121.74656,37.7293],[-121.75161,37.72929],[-121.75169,37.70896],[-121.75732,37.70897],[-121.75711,37.70411],[-121.75004,37.70415],[-121.7481,37.70295],[-121.75155,37.70256],[-121.75167,37.7019],[-121.74757,37.70056],[-121.74764,37.69963],[-121.75691,37.69923],[-121.75701,37.70171],[-121.75563,37.70247],[-121.75953,37.70264],[-121.76742,37.70084],[-121.76746,37.70161],[-121.77051,37.70104],[-121.77844,37.69722],[-121.77924,37.70006],[-121.78542,37.69953],[-121.78926,37.70018],[-121.78931,37.70124],[-121.79094,37.7012],[-121.79177,37.71606],[-121.79803,37.71626],[-121.7995,37.71363],[-121.80473,37.71046],[-121.80594,37.7113],[-121.80773,37.71652],[-121.8142,37.71651],[-121.81423,37.7072],[-121.8233,37.70725],[-121.82338,37.7009],[-121.84608,37.70087],[-121.84805,37.69992],[-121.84825,37.69408]],[[-121.80525,37.65199],[-121.80523,37.65595],[-121.79985,37.65502],[-121.79248,37.65085],[-121.78914,37.65012],[-121.78588,37.64702],[-121.78589,37.64603],[-121.78325,37.6452],[-121.78879,37.6447],[-121.78823,37.64505],[-121.78892,37.64567],[-121.79184,37.64574],[-121.80525,37.65199]],[[-121.79876,37.69722],[-121.79876,37.69902],[-121.7955,37.70033],[-121.79552,37.69722],[-121.79876,37.69722]]]},"properties":{"GEOID":"0641992","NAME":"Livermore city","BASENAME":"Livermore","STATE":"06","PLACE":"41992"}},{"type":"Feature","geometry":{"type":"Polygon","coordinates":[[[-122.14917,37.54584],[-122.10957,37.49764],[-122.08147,37.47784],[-122.05124,37.45901],[-122.04782,37.45901],[-122.03618,37.46497],[-122.02542,37.46563],[-122.02115,37.46507],[-121.99667,37.46724],[-121.99267,37.46464],[-121.98001,37.46089],[-121.97507,37.46064],[-121.96416,37.46315],[-121.95931,37.46352],[-121.9496,37.46141],[-121.94641,37.46336],[-121.94709,37.46742],[-121.94645,37.46859],[-121.94491,37.46916],[-121.94414,37.46812],[-121.94423,37.46582],[-121.94109,37.46495],[-121.93924,37.46249],[-121.93603,37.46293],[-121.93499,37.46246],[-121.93473,37.46052],[-121.9312,37.46064],[-121.93113,37.45739],[-121.93271,37.45684],[-121.93263,37.45515],[-121.92844,37.45739],[-121.92746,37.4567],[-121.92785,37.45526],[-121.92504,37.45419],[-121.91089,37.46149],[-121.91133,37.46224],[-121.90131,37.46496],[-121.89765,37.46697],[-121.89086,37.46798],[-121.88935,37.4701],[-121.88774,37.47094],[-121.88116,37.47108],[-121.87947,37.47217],[-121.87745,37.47518],[-121.8752,37.47522],[-121.87369,37.47784],[-121.87091,37.47934],[-121.87011,37.48073],[-121.87213,37.48332],[-121.87449,37.48908],[-121.87328,37.49109],[-121.87661,37.50036],[-121.88078,37.50789],[-121.88113,37.51336],[-121.87907,37.52885],[-121.87815,37.53024],[-121.88312,37.53614],[-121.88733,37.53898],[-121.88754,37.54404],[-121.89067,37.54794],[-121.89361,37.5502],[-121.89932,37.54659],[-121.90481,37.55011],[-121.90734,37.54927],[-121.90957,37.55501],[-121.91507,37.55625],[-121.9143,37.55717],[-121.91483,37.55747],[-121.9145,37.56077],[-121.91646,37.5603],[-121.91652,37.56103],[-121.91883,37.56097],[-121.9185,37.55983],[-121.92373,37.55773],[-121.92378,37.5604],[-121.91941,37.56043],[-121.9205,37.56436],[-121.92016,37.56595],[-121.92315,37.56822],[-121.92571,37.56809],[-121.92583,37.56943],[-121.92762,37.57148],[-121.93174,37.57274],[-121.93325,37.57586],[-121.93331,37.57713],[-121.93132,37.57629],[-121.92994,37.57851],[-121.92604,37.57979],[-121.92713,37.58125],[-121.92561,37.58235],[-121.92837,37.58438],[-121.92812,37.58595],[-121.93027,37.58622],[-121.93277,37.59173],[-121.93559,37.59097],[-121.93693,37.59178],[-121.93813,37.59506],[-121.93801,37.59767],[-121.93972,37.59886],[-121.94412,37.59758],[-121.94863,37.59816],[-121.95149,37.59763],[-121.95698,37.59147],[-121.95764,37.58949],[-121.97837,37.60668],[-122.00587,37.58648],[-122.00836,37.57903],[-122.01104,37.58063],[-122.0132,37.5807],[-122.016,37.57568],[-122.01831,37.57443],[-122.02384,37.57703],[-122.03204,37.58504],[-122.03451,37.58657],[-122.0422,37.588],[-122.04716,37.58651],[-122.05035,37.58349],[-122.05673,37.59263],[-122.06046,37.5918],[-122.06428,37.58679],[-122.0621,37.58561],[-122.06282,37.58476],[-122.06022,37.57399],[-122.07008,37.56345],[-122.08026,37.56139],[-122.09304,37.56264],[-122.0945,37.56193],[-122.09707,37.56427],[-122.09962,37.5649],[-122.10059,37.56467],[-122.10169,37.56229],[-122.10436,37.56392],[-122.1073,37.56137],[-122.11002,37.56047],[-122.11108,37.56138],[-122.11013,37.56555],[-122.12087,37.56904],[-122.12431,37.56918],[-122.1288,37.56685],[-122.13172,37.56289],[-122.14917,37.54584]],[[-122.07019,37.51786],[-122.07089,37.51902],[-122.06047,37.52158],[-122.06134,37.52327],[-122.06809,37.52417],[-122.06468,37.53469],[-122.06733,37.54023],[-122.04463,37.55658],[-122.03851,37.56341],[-122.02868,37.55413],[-122.01538,37.53709],[-121.98777,37.52243],[-121.99475,37.514],[-121.99797,37.50389],[-121.99202,37.49807],[-121.99628,37.49829],[-121.99952,37.49331],[-122.00591,37.49462],[-122.01008,37.49344],[-122.01079,37.49235],[-122.00975,37.48898],[-122.01381,37.48165],[-122.0198,37.48459],[-122.02314,37.48469],[-122.02528,37.48241],[-122.02585,37.47898],[-122.02708,37.47861],[-122.03026,37.48267],[-122.03018,37.48725],[-122.02924,37.48816],[-122.03035,37.48947],[-122.03223,37.48935],[-122.0353,37.49239],[-122.03831,37.4937],[-122.04112,37.49353],[-122.05078,37.49647],[-122.05085,37.49762],[-122.05748,37.49912],[-122.05505,37.50408],[-122.05403,37.50845],[-122.05533,37.51026],[-122.05575,37.51422],[-122.06084,37.51483],[-122.06094,37.5141],[-122.06431,37.51296],[-122.06738,37.51828],[-122.07019,37.51786]]]},"properties":{"GEOID":"0626000","NAME":"Fremont city","BASENAME":"Fremont","STATE":"06","PLACE":"26000"}},{"type":"Feature","geometry":{"type":"Polygon","coordinates":[[[-122.35588,37.83573],[-122.34688,37.81143],[-122.34102,37.80183],[-122.32851,37.79749],[-122.3058,37.79257],[-122.29598,37.79193],[-122.28597,37.79362],[-122.27824,37.79313],[-122.26822,37.78774],[-122.26006,37.78449],[-122.25396,37.78678],[-122.25133,37.78688],[-122.24576,37.78393],[-122.24482,37.77912],[-122.24354,37.77628],[-122.24173,37.77471],[-122.22865,37.76831],[-122.22529,37.76542],[-122.22394,37.76084],[-122.22338,37.74804],[-122.2265,37.74808],[-122.22677,37.72766],[-122.22834,37.72773],[-122.23618,37.71985],[-122.24791,37.72837],[-122.26027,37.71757],[-122.24961,37.71244],[-122.25576,37.70711],[-122.28088,37.70723],[-122.21872,37.63171],[-122.17529,37.67074],[-122.18058,37.67066],[-122.19155,37.68333],[-122.19228,37.68273],[-122.20048,37.69259],[-122.20973,37.71109],[-122.20217,37.71298],[-122.19703,37.71583],[-122.19442,37.71583],[-122.19471,37.71754],[-122.1934,37.71783],[-122.19291,37.71673],[-122.189,37.71789],[-122.19627,37.72331],[-122.19805,37.72623],[-122.1968,37.72675],[-122.19614,37.72601],[-122.19282,37.7277],[-122.19193,37.72729],[-122.19038,37.72889],[-122.18688,37.72783],[-122.18384,37.72568],[-122.17544,37.72531],[-122.17434,37.72665],[-122.1727,37.72681],[-122.17129,37.72801],[-122.17031,37.72773],[-122.17424,37.73114],[-122.16977,37.73221],[-122.17156,37.735],[-122.16562,37.73776],[-122.16416,37.73594],[-122.14767,37.74114],[-122.14605,37.7428],[-122.14071,37.73718],[-122.13898,37.73093],[-122.13669,37.73187],[-122.13486,37.73432],[-122.13062,37.73369],[-122.13049,37.73277],[-122.13235,37.73173],[-122.13123,37.73043],[-122.12546,37.72976],[-122.12446,37.72859],[-122.12217,37.72939],[-122.12121,37.73181],[-122.11882,37.73227],[-122.11509,37.73528],[-122.1148,37.74185],[-122.11613,37.75026],[-122.12409,37.76109],[-122.13181,37.77534],[-122.13375,37.77732],[-122.13318,37.77767],[-122.13401,37.77848],[-122.13455,37.77814],[-122.14371,37.78739],[-122.1418,37.78975],[-122.14324,37.79035],[-122.14332,37.79302],[-122.15229,37.79308],[-122.15226,37.79647],[-122.15667,37.79648],[-122.15949,37.79742],[-122.15842,37.79802],[-122.1597,37.80006],[-122.16232,37.80002],[-122.16163,37.80144],[-122.16415,37.80293],[-122.16504,37.80518],[-122.16765,37.80578],[-122.17053,37.80465],[-122.17052,37.80269],[-122.16841,37.80094],[-122.16839,37.79913],[-122.17596,37.8027],[-122.17531,37.80353],[-122.17695,37.80471],[-122.17814,37.80396],[-122.17881,37.80454],[-122.17916,37.80498],[-122.17587,37.80749],[-122.17416,37.81027],[-122.17547,37.81459],[-122.18122,37.81934],[-122.18558,37.82073],[-122.18687,37.82208],[-122.18573,37.82537],[-122.18702,37.82754],[-122.18669,37.82988],[-122.18382,37.83435],[-122.18512,37.83735],[-122.18877,37.83774],[-122.19527,37.84163],[-122.19511,37.8436],[-122.20076,37.84744],[-122.2031,37.85119],[-122.2089,37.85194],[-122.21087,37.85423],[-122.21041,37.85507],[-122.21193,37.85695],[-122.21983,37.86477],[-122.22142,37.86547],[-122.21979,37.86733],[-122.21637,37.86908],[-122.21764,37.87225],[-122.2198,37.87349],[-122.22362,37.87857],[-122.22884,37.88102],[-122.23868,37.88333],[-122.24197,37.88193],[-122.24691,37.88535],[-122.2446,37.8674],[-122.24553,37.86624],[-122.24462,37.86472],[-122.24553,37.86404],[-122.24401,37.86073],[-122.24463,37.85901],[-122.2426,37.85872],[-122.24272,37.85793],[-122.24161,37.85707],[-122.23476,37.85779],[-122.23418,37.85238],[-122.25292,37.85077],[-122.25335,37.85383],[-122.26357,37.85255],[-122.26896,37.85162],[-122.26837,37.84877],[-122.26951,37.84858],[-122.26914,37.84674],[-122.2758,37.84587],[-122.27619,37.84773],[-122.2819,37.84697],[-122.28357,37.85064],[-122.28874,37.84999],[-122.28449,37.83671],[-122.27882,37.83724],[-122.27561,37.83643],[-122.27846,37.82886],[-122.27787,37.82695],[-122.3337,37.84037],[-122.35588,37.83573]],[[-122.24939,37.82285],[-122.24768,37.82624],[-122.24426,37.82832],[-122.24362,37.83003],[-122.23139,37.83146],[-122.23079,37.83272],[-122.22915,37.83314],[-122.22771,37.83233],[-122.22724,37.8329],[-122.22267,37.82885],[-122.22223,37.82728],[-122.21964,37.82451],[-122.21018,37.81861],[-122.21282,37.8164],[-122.2132,37.81451],[-122.21507,37.81224],[-122.24348,37.81866],[-122.24939,37.82285]]]},"properties":{"GEOID":"0653000","NAME":"Oakland city","BASENAME":"Oakland","STATE":"06","PLACE":"53000"}},{"type":"Feature","geometry":{"type":"Polygon","coordinates":[[[-122.21814,37.63215],[-122.21872,37.63171],[-122.14917,37.54584],[-122.12646,37.56853],[-122.12087,37.56904],[-122.11013,37.56555],[-122.11108,37.56138],[-122.10963,37.56044],[-122.1073,37.56137],[-122.10436,37.56392],[-122.10169,37.56229],[-122.10059,37.56467],[-122.09962,37.5649],[-122.09707,37.56427],[-122.0945,37.56193],[-122.0927,37.56302],[-122.09549,37.56504],[-122.09516,37.56672],[-122.09171,37.56739],[-122.09011,37.56441],[-122.08446,37.56774],[-122.08363,37.56968],[-122.08555,37.57335],[-122.08278,37.57457],[-122.08314,37.57529],[-122.08591,37.57415],[-122.0868,37.57838],[-122.09,37.57848],[-122.09156,37.57968],[-122.09459,37.57942],[-122.09676,37.58298],[-122.09166,37.58505],[-122.09203,37.59255],[-122.09093,37.59417],[-122.09127,37.6],[-122.08717,37.60783],[-122.08853,37.60931],[-122.08342,37.61003],[-122.0782,37.61343],[-122.06641,37.61314],[-122.06879,37.6057],[-122.05937,37.60391],[-122.05869,37.60603],[-122.04383,37.60596],[-122.0433,37.61227],[-122.04145,37.61164],[-122.03482,37.60596],[-122.03094,37.60593],[-122.0345,37.60906],[-122.02324,37.60905],[-122.02822,37.61345],[-122.02383,37.61545],[-122.03362,37.62424],[-122.03163,37.62471],[-122.03076,37.62653],[-122.03253,37.62747],[-122.03159,37.62861],[-122.03251,37.63303],[-122.03629,37.63316],[-122.03827,37.63692],[-122.04145,37.63805],[-122.04077,37.63982],[-122.04353,37.64293],[-122.04448,37.64288],[-122.04374,37.64444],[-122.04964,37.64466],[-122.05175,37.64587],[-122.05097,37.64746],[-122.04859,37.64646],[-122.0434,37.64717],[-122.04265,37.649],[-122.01979,37.6356],[-122.01828,37.63563],[-122.01841,37.64263],[-122.00918,37.64278],[-122.00914,37.64106],[-122.01368,37.63931],[-122.01364,37.63569],[-121.99741,37.63584],[-121.99729,37.6325],[-122.00129,37.63225],[-122.0011,37.6286],[-122.00509,37.62845],[-122.00508,37.62698],[-121.99629,37.62177],[-121.98698,37.62207],[-121.98662,37.6507],[-121.99616,37.65048],[-121.9968,37.66154],[-121.99645,37.66538],[-121.99573,37.66536],[-121.99654,37.66696],[-121.99894,37.66793],[-121.99895,37.66934],[-121.98777,37.6695],[-121.98815,37.66549],[-121.98594,37.66551],[-121.98209,37.66869],[-121.97651,37.67058],[-121.96874,37.66984],[-121.96864,37.66571],[-121.94973,37.66561],[-121.94984,37.65085],[-121.93548,37.65103],[-121.93415,37.65181],[-121.93103,37.65025],[-121.9204,37.65027],[-121.92052,37.65282],[-121.9216,37.65282],[-121.92385,37.6574],[-121.92291,37.6574],[-121.92294,37.6647],[-121.93181,37.66469],[-121.93182,37.66571],[-121.94062,37.66566],[-121.94063,37.66905],[-121.94983,37.66902],[-121.95061,37.67642],[-121.97192,37.67625],[-121.97188,37.68031],[-121.99659,37.68009],[-121.99656,37.67923],[-122.00328,37.67915],[-122.00323,37.67576],[-122.01044,37.67477],[-122.00685,37.67457],[-122.0054,37.67367],[-122.00993,37.66635],[-122.0178,37.66149],[-122.02397,37.66208],[-122.02525,37.65865],[-122.02754,37.65576],[-122.03018,37.65632],[-122.03661,37.65867],[-122.03265,37.65945],[-122.03238,37.66073],[-122.03117,37.66049],[-122.03116,37.66142],[-122.02783,37.66231],[-122.02723,37.66343],[-122.02801,37.66748],[-122.04101,37.66445],[-122.04086,37.66538],[-122.04632,37.66476],[-122.04736,37.66569],[-122.04923,37.66526],[-122.0529,37.66693],[-122.05429,37.66642],[-122.05538,37.66776],[-122.05931,37.66634],[-122.06023,37.66753],[-122.0659,37.66872],[-122.0649,37.67167],[-122.07302,37.67306],[-122.0663,37.67488],[-122.06693,37.67604],[-122.06464,37.67576],[-122.06447,37.67665],[-122.0655,37.67733],[-122.06433,37.67804],[-122.06509,37.68021],[-122.06206,37.68191],[-122.05932,37.68169],[-122.05796,37.68321],[-122.0586,37.68518],[-122.05674,37.68534],[-122.0569,37.68687],[-122.062,37.68596],[-122.0626,37.68388],[-122.06382,37.68375],[-122.06491,37.68479],[-122.06437,37.68541],[-122.06511,37.68555],[-122.06704,37.68381],[-122.06816,37.6848],[-122.069,37.68357],[-122.0703,37.68412],[-122.07121,37.68324],[-122.07039,37.68143],[-122.07273,37.68078],[-122.07331,37.68209],[-122.0741,37.68213],[-122.0764,37.67881],[-122.07724,37.67992],[-122.07812,37.67944],[-122.07912,37.6808],[-122.07993,37.68076],[-122.08076,37.68211],[-122.08376,37.6815],[-122.08718,37.68253],[-122.0867,37.68293],[-122.09125,37.6857],[-122.09043,37.68616],[-122.08944,37.68555],[-122.08794,37.68726],[-122.08638,37.68764],[-122.08643,37.68911],[-122.08811,37.68855],[-122.08849,37.68961],[-122.09151,37.68932],[-122.09172,37.68992],[-122.09305,37.68857],[-122.09171,37.68667],[-122.093,37.68563],[-122.09122,37.68369],[-122.09169,37.68287],[-122.09015,37.68288],[-122.0921,37.68123],[-122.09225,37.67896],[-122.09354,37.67916],[-122.0945,37.67821],[-122.09308,37.67667],[-122.09383,37.67456],[-122.09688,37.67816],[-122.09757,37.67786],[-122.09773,37.67705],[-122.09501,37.67518],[-122.09984,37.67322],[-122.09825,37.67076],[-122.09535,37.67194],[-122.09498,37.67137],[-122.09596,37.66857],[-122.09764,37.6684],[-122.0979,37.66759],[-122.09898,37.66789],[-122.09879,37.66735],[-122.10034,37.66741],[-122.10049,37.6668],[-122.10727,37.67273],[-122.10895,37.67152],[-122.10343,37.66665],[-122.1066,37.66708],[-122.10813,37.66632],[-122.10906,37.66812],[-122.10979,37.6672],[-122.10922,37.66626],[-122.11205,37.66611],[-122.11262,37.66704],[-122.11263,37.66607],[-122.11814,37.6656],[-122.12075,37.66978],[-122.12343,37.66871],[-122.12314,37.66807],[-122.1279,37.66786],[-122.12768,37.66518],[-122.13447,37.66457],[-122.13437,37.6628],[-122.13927,37.66253],[-122.14375,37.66335],[-122.14592,37.66568],[-122.15086,37.66278],[-122.15243,37.66395],[-122.16155,37.66381],[-122.16383,37.6675],[-122.17063,37.6674],[-122.17069,37.67081],[-122.17679,37.6694],[-122.21814,37.63215]]]},"properties":{"GEOID":"0633000","NAME":"Hayward city","BASENAME":"Hayward","STATE":"06","PLACE":"33000"}}]}