{"type":"FeatureCollection","features":[{"type":"Feature","geometry":{"type":"Polygon","coordinates":[[[-120.83033,38.41995],[-120.82877,38.41738],[-120.82218,38.41382],[-120.81785,38.41691],[-120.8173,38.42098],[-120.81783,38.42267],[-120.82237,38.42271],[-120.82243,38.42396],[-120.83033,38.41995]]]},"properties":{"GEOID":"0601514","NAME":"Amador City city","BASENAME":"Amador City","STATE":"06","PLACE":"01514"}},{"type":"Feature","geometry":{"type":"MultiPolygon","coordinates":[[[[-120.89029,38.48099],[-120.89032,38.47923],[-120.88557,38.47931],[-120.88564,38.47598],[-120.8827,38.47586],[-120.88105,38.47439],[-120.88128,38.46847],[-120.87431,38.46837],[-120.87361,38.46694],[-120.86863,38.46763],[-120.86848,38.46836],[-120.85406,38.46828],[-120.85648,38.46452],[-120.85357,38.4646],[-120.85353,38.46825],[-120.85268,38.46824],[-120.85118,38.47062],[-120.85035,38.47064],[-120.85009,38.47189],[-120.84215,38.47179],[-120.84198,38.47613],[-120.84069,38.47545],[-120.83936,38.47243],[-120.83837,38.47242],[-120.83742,38.47043],[-120.83635,38.4702],[-120.83431,38.47087],[-120.83534,38.47361],[-120.83139,38.47408],[-120.82978,38.477],[-120.8285,38.47776],[-120.82958,38.47852],[-120.82945,38.48251],[-120.83904,38.48244],[-120.83959,38.47896],[-120.84192,38.47897],[-120.84189,38.48263],[-120.84401,38.48262],[-120.8464,38.48631],[-120.85305,38.48632],[-120.85298,38.49722],[-120.85764,38.49724],[-120.8581,38.47911],[-120.86269,38.47911],[-120.86237,38.4714],[-120.86737,38.47196],[-120.86736,38.48009],[-120.87223,38.4822],[-120.87735,38.48299],[-120.8778,38.47935],[-120.88099,38.47936],[-120.88096,38.48382],[-120.88261,38.48494],[-120.88504,38.48292],[-120.89024,38.48292],[-120.89029,38.48099]],[[-120.85513,38.48026],[-120.85484,38.48027],[-120.85465,38.47971],[-120.85513,38.48026]]],[[[-120.84138,38.48211],[-120.84129,38.4819],[-120.84108,38.48199],[-120.84138,38.48211]]]]},"properties":{"GEOID":"0657834","NAME":"Plymouth city","BASENAME":"Plymouth","STATE":"06","PLACE":"57834"}},{"type":"Feature","geometry":{"type":"Polygon","coordinates":[[[-120.8364,38.37191],[-120.84029,38.3713],[-120.83582,38.3635],[-120.83446,38.36445],[-120.83307,38.36332],[-120.83048,38.36396],[-120.82897,38.3633],[-120.82747,38.36048],[-120.82517,38.35912],[-120.82421,38.3606],[-120.8236,38.35884],[-120.82123,38.35967],[-120.81934,38.36424],[-120.81662,38.36785],[-120.81062,38.37271],[-120.80875,38.37403],[-120.80093,38.37375],[-120.80256,38.3783],[-120.80196,38.37757],[-120.80061,38.37782],[-120.80101,38.37889],[-120.79922,38.37849],[-120.79918,38.3761],[-120.79614,38.37881],[-120.79324,38.37986],[-120.79249,38.38126],[-120.79316,38.38204],[-120.79496,38.38163],[-120.79538,38.38249],[-120.79618,38.38226],[-120.79772,38.38459],[-120.79862,38.38813],[-120.79671,38.38814],[-120.7981,38.39198],[-120.79615,38.39247],[-120.79682,38.39345],[-120.79443,38.39368],[-120.79454,38.39512],[-120.79401,38.39374],[-120.79196,38.39481],[-120.78983,38.39483],[-120.78866,38.3941],[-120.78874,38.39281],[-120.78529,38.39288],[-120.78623,38.39468],[-120.7852,38.3956],[-120.78544,38.40106],[-120.79012,38.40188],[-120.79615,38.3981],[-120.79775,38.39814],[-120.80068,38.39999],[-120.80342,38.40025],[-120.80348,38.399],[-120.80542,38.39816],[-120.81014,38.40365],[-120.81244,38.4029],[-120.81725,38.40314],[-120.81746,38.40082],[-120.81625,38.39934],[-120.81782,38.39931],[-120.81642,38.3953],[-120.81743,38.39508],[-120.81748,38.39633],[-120.81956,38.39778],[-120.81808,38.39595],[-120.81816,38.39471],[-120.80864,38.39485],[-120.81279,38.39345],[-120.81176,38.39121],[-120.81283,38.39106],[-120.81252,38.38978],[-120.81138,38.39],[-120.81081,38.38858],[-120.81018,38.38899],[-120.80676,38.38113],[-120.80855,38.38099],[-120.80857,38.37805],[-120.81791,38.37764],[-120.81791,38.37371],[-120.82255,38.37419],[-120.82323,38.371],[-120.8364,38.37191]]]},"properties":{"GEOID":"0677392","NAME":"Sutter Creek city","BASENAME":"Sutter Creek","STATE":"06","PLACE":"77392"}},{"type":"Feature","geometry":{"type":"Polygon","coordinates":[[[-120.79867,38.35936],[-120.79716,38.35745],[-120.79787,38.35465],[-120.79188,38.35378],[-120.78578,38.35145],[-120.7821,38.35126],[-120.78076,38.34859],[-120.7764,38.34851],[-120.77782,38.34483],[-120.78998,38.34501],[-120.78998,38.33746],[-120.78078,38.33754],[-120.78078,38.33012],[-120.77145,38.33017],[-120.77155,38.33544],[-120.76245,38.3373],[-120.7624,38.33042],[-120.75785,38.33042],[-120.75783,38.33381],[-120.75586,38.33346],[-120.75546,38.3344],[-120.75327,38.33468],[-120.75334,38.33215],[-120.75078,38.33135],[-120.75016,38.33387],[-120.75104,38.33392],[-120.75079,38.34038],[-120.75773,38.34134],[-120.75804,38.34285],[-120.75951,38.34419],[-120.75801,38.34524],[-120.75878,38.34618],[-120.75726,38.34668],[-120.7581,38.34793],[-120.75762,38.35891],[-120.76231,38.35454],[-120.76222,38.3594],[-120.76637,38.35944],[-120.76406,38.36172],[-120.76306,38.36512],[-120.76345,38.36649],[-120.76642,38.36605],[-120.76793,38.36659],[-120.76877,38.36612],[-120.76966,38.36294],[-120.77157,38.36296],[-120.77154,38.36513],[-120.77391,38.36565],[-120.77495,38.36735],[-120.77377,38.36771],[-120.77547,38.36796],[-120.77475,38.368],[-120.77559,38.37052],[-120.77742,38.37033],[-120.78102,38.37198],[-120.77745,38.36854],[-120.77589,38.36796],[-120.7755,38.36362],[-120.77772,38.36383],[-120.77682,38.3647],[-120.77803,38.36567],[-120.77873,38.36365],[-120.78074,38.36436],[-120.78073,38.36298],[-120.78304,38.36302],[-120.78468,38.36572],[-120.78606,38.36514],[-120.78587,38.36409],[-120.78963,38.36312],[-120.78823,38.36126],[-120.78964,38.36109],[-120.78935,38.35932],[-120.79043,38.35775],[-120.79574,38.3583],[-120.797,38.36017],[-120.79867,38.35936]]]},"properties":{"GEOID":"0636980","NAME":"Jackson city","BASENAME":"Jackson","STATE":"06","PLACE":"36980"}},{"type":"Feature","geometry":{"type":"Polygon","coordinates":[[[-120.96709,38.35426],[-120.9616,38.35464],[-120.95854,38.35389],[-120.96011,38.3486],[-120.95631,38.34793],[-120.95546,38.35021],[-120.94589,38.3477],[-120.94516,38.34615],[-120.94433,38.34766],[-120.94451,38.34477],[-120.94257,38.34569],[-120.9423,38.34655],[-120.94067,38.34641],[-120.94269,38.34543],[-120.94358,38.34182],[-120.94736,38.3382],[-120.93504,38.33807],[-120.9346,38.34137],[-120.93423,38.34041],[-120.93199,38.33972],[-120.9287,38.34046],[-120.92873,38.33952],[-120.92414,38.33942],[-120.92403,38.34672],[-120.92271,38.34672],[-120.9256,38.34908],[-120.92564,38.35237],[-120.92791,38.35355],[-120.92761,38.3552],[-120.92876,38.355],[-120.92879,38.36797],[-120.92714,38.36797],[-120.92717,38.36891],[-120.92879,38.36892],[-120.92859,38.3829],[-120.94389,38.38293],[-120.95041,38.38373],[-120.95092,38.38138],[-120.95205,38.38115],[-120.95142,38.37729],[-120.95193,38.37397],[-120.95765,38.37491],[-120.95961,38.36872],[-120.96058,38.36912],[-120.96439,38.36518],[-120.96468,38.36314],[-120.95888,38.36204],[-120.96111,38.35551],[-120.96654,38.35659],[-120.96709,38.35426]]]},"properties":{"GEOID":"0636672","NAME":"Ione city","BASENAME":"Ione","STATE":"06","PLACE":"36672"}}]}