{"type":"FeatureCollection","features":[{"type":"Feature","geometry":{"type":"Polygon","coordinates":[[[-121.72586,39.40701],[-121.72573,39.39944],[-121.71616,39.39943],[-121.71622,39.40675],[-121.71045,39.40664],[-121.70995,39.40513],[-121.70778,39.40506],[-121.70819,39.40837],[-121.70483,39.40913],[-121.7042,39.41056],[-121.70211,39.41058],[-121.70276,39.41235],[-121.70226,39.41341],[-121.7034,39.41411],[-121.7027,39.41424],[-121.70291,39.41497],[-121.69755,39.41497],[-121.69776,39.42496],[-121.70707,39.41737],[-121.70786,39.42191],[-121.71103,39.42195],[-121.71055,39.4188],[-121.71434,39.41776],[-121.71508,39.41841],[-121.71462,39.41694],[-121.71635,39.41688],[-121.71624,39.40929],[-121.7177,39.4093],[-121.71763,39.40719],[-121.72288,39.40714],[-121.72293,39.40858],[-121.72504,39.40858],[-121.72499,39.407],[-121.72586,39.40701]]]},"properties":{"GEOID":"0606560","NAME":"Biggs city","BASENAME":"Biggs","STATE":"06","PLACE":"06560"}},{"type":"Feature","geometry":{"type":"Polygon","coordinates":[[[-121.71832,39.36151],[-121.71822,39.358],[-121.7101,39.35767],[-121.71009,39.3556],[-121.70429,39.35566],[-121.70426,39.35388],[-121.7019,39.3539],[-121.70195,39.35568],[-121.6992,39.35572],[-121.69924,39.35653],[-121.69726,39.35577],[-121.69679,39.3576],[-121.69679,39.35576],[-121.69494,39.3558],[-121.69716,39.35405],[-121.69712,39.34993],[-121.69592,39.34856],[-121.68782,39.3488],[-121.68786,39.35048],[-121.68521,39.35113],[-121.68602,39.35573],[-121.68434,39.35578],[-121.68441,39.35677],[-121.68708,39.35683],[-121.68707,39.35799],[-121.68322,39.35943],[-121.68368,39.36325],[-121.68161,39.36395],[-121.67868,39.37047],[-121.68327,39.37046],[-121.68331,39.37222],[-121.68544,39.37225],[-121.68546,39.37383],[-121.68789,39.37387],[-121.6879,39.37049],[-121.69709,39.37044],[-121.69891,39.37536],[-121.7007,39.37564],[-121.70187,39.37798],[-121.70566,39.37823],[-121.70668,39.37753],[-121.70667,39.36667],[-121.71608,39.36664],[-121.71604,39.36303],[-121.71732,39.36302],[-121.71717,39.36155],[-121.71832,39.36151]],[[-121.70658,39.36854],[-121.70658,39.37018],[-121.70489,39.37024],[-121.70486,39.36852],[-121.70658,39.36854]]]},"properties":{"GEOID":"0631260","NAME":"Gridley city","BASENAME":"Gridley","STATE":"06","PLACE":"31260"}},{"type":"Feature","geometry":{"type":"Polygon","coordinates":[[[-121.63982,39.47428],[-121.63978,39.47284],[-121.63697,39.4727],[-121.63553,39.47364],[-121.63362,39.47187],[-121.63379,39.47298],[-121.63144,39.47386],[-121.63145,39.47611],[-121.62903,39.47638],[-121.62904,39.47863],[-121.62699,39.47868],[-121.62698,39.48058],[-121.62454,39.48049],[-121.62068,39.48423],[-121.6183,39.48491],[-121.60919,39.48509],[-121.60904,39.49373],[-121.60454,39.49369],[-121.60462,39.49791],[-121.57844,39.49779],[-121.57853,39.49372],[-121.57715,39.49054],[-121.5777,39.48518],[-121.5754,39.48515],[-121.57549,39.47738],[-121.56803,39.47641],[-121.56811,39.47094],[-121.569,39.47094],[-121.56898,39.46761],[-121.57225,39.46762],[-121.57225,39.46494],[-121.56883,39.46607],[-121.56899,39.46488],[-121.5682,39.46484],[-121.56815,39.44156],[-121.55419,39.44221],[-121.55439,39.45299],[-121.55798,39.45306],[-121.55968,39.46408],[-121.55841,39.46441],[-121.55839,39.46542],[-121.5598,39.46796],[-121.55546,39.4734],[-121.55454,39.47345],[-121.55428,39.47826],[-121.55238,39.48196],[-121.55324,39.48516],[-121.55218,39.48924],[-121.55118,39.48946],[-121.54959,39.49312],[-121.54163,39.49327],[-121.54159,39.49214],[-121.54007,39.49214],[-121.54015,39.49381],[-121.53844,39.49145],[-121.5305,39.49143],[-121.53049,39.4897],[-121.51824,39.489],[-121.51653,39.49011],[-121.51662,39.49185],[-121.5149,39.491],[-121.51398,39.49134],[-121.51441,39.49474],[-121.51659,39.49477],[-121.51652,39.4969],[-121.51754,39.49688],[-121.51752,39.49831],[-121.52093,39.49763],[-121.52257,39.49871],[-121.52172,39.49933],[-121.52314,39.5008],[-121.5223,39.50051],[-121.52166,39.50137],[-121.52256,39.5026],[-121.52431,39.50267],[-121.52348,39.50487],[-121.5262,39.50466],[-121.52619,39.50936],[-121.52459,39.51081],[-121.52387,39.50973],[-121.52253,39.50978],[-121.52063,39.51146],[-121.51896,39.51046],[-121.51638,39.51035],[-121.51629,39.51168],[-121.5114,39.51168],[-121.51148,39.50815],[-121.51225,39.50874],[-121.51301,39.50815],[-121.51184,39.50727],[-121.51182,39.50595],[-121.51073,39.50782],[-121.50725,39.50625],[-121.50717,39.50775],[-121.50425,39.50783],[-121.50334,39.50955],[-121.50365,39.51218],[-121.50822,39.51798],[-121.50773,39.51974],[-121.50713,39.51894],[-121.50262,39.5188],[-121.50266,39.52276],[-121.50762,39.52261],[-121.50712,39.52461],[-121.5166,39.52431],[-121.51659,39.52619],[-121.52725,39.52547],[-121.52836,39.52601],[-121.52833,39.52536],[-121.53063,39.52497],[-121.53052,39.52426],[-121.53416,39.52471],[-121.53549,39.52355],[-121.53654,39.52383],[-121.53661,39.52326],[-121.5352,39.52298],[-121.53681,39.5224],[-121.53681,39.52109],[-121.5345,39.51965],[-121.53771,39.51945],[-121.53906,39.5204],[-121.54015,39.51893],[-121.54729,39.51874],[-121.55014,39.51701],[-121.55045,39.51783],[-121.54941,39.51841],[-121.55027,39.5191],[-121.54755,39.52404],[-121.54851,39.52523],[-121.54714,39.52484],[-121.54638,39.52616],[-121.55047,39.52738],[-121.55245,39.52953],[-121.55227,39.52804],[-121.56498,39.53105],[-121.56781,39.53102],[-121.56942,39.53254],[-121.56818,39.53255],[-121.5681,39.5363],[-121.575,39.53868],[-121.57521,39.53426],[-121.57625,39.53488],[-121.58171,39.53486],[-121.57914,39.53112],[-121.58394,39.53066],[-121.59332,39.52822],[-121.5948,39.52651],[-121.59477,39.52408],[-121.58815,39.52409],[-121.58815,39.52211],[-121.58503,39.52202],[-121.58499,39.52408],[-121.57645,39.52408],[-121.57621,39.52192],[-121.57839,39.52191],[-121.5784,39.52073],[-121.57645,39.52065],[-121.57658,39.51829],[-121.57525,39.51759],[-121.57498,39.51525],[-121.57262,39.51556],[-121.57249,39.51463],[-121.57401,39.51183],[-121.57646,39.51105],[-121.57783,39.50835],[-121.57855,39.50474],[-121.57845,39.49822],[-121.60464,39.49821],[-121.60498,39.50024],[-121.607,39.5003],[-121.60701,39.50246],[-121.60502,39.50245],[-121.60492,39.5046],[-121.60041,39.50457],[-121.60039,39.50566],[-121.59893,39.50566],[-121.59893,39.50673],[-121.60491,39.50674],[-121.6049,39.50787],[-121.60904,39.5079],[-121.60906,39.5098],[-121.62222,39.50913],[-121.62229,39.49862],[-121.63188,39.49859],[-121.6319,39.49785],[-121.63542,39.49785],[-121.63539,39.49377],[-121.63198,39.49381],[-121.63256,39.47992],[-121.63571,39.47842],[-121.63572,39.47768],[-121.63835,39.47624],[-121.63982,39.47428]],[[-121.5265,39.52537],[-121.52606,39.52557],[-121.52569,39.52562],[-121.5265,39.52537]]]},"properties":{"GEOID":"0654386","NAME":"Oroville city","BASENAME":"Oroville","STATE":"06","PLACE":"54386"}},{"type":"Feature","geometry":{"type":"Polygon","coordinates":[[[-121.6553,39.73563],[-121.65565,39.72995],[-121.65495,39.72823],[-121.65554,39.72745],[-121.65469,39.7273],[-121.65521,39.72599],[-121.64332,39.72645],[-121.64091,39.72577],[-121.62229,39.72539],[-121.58083,39.72538],[-121.58077,39.73118],[-121.56793,39.73104],[-121.56552,39.73036],[-121.56445,39.73183],[-121.56569,39.73384],[-121.56578,39.75605],[-121.56787,39.76374],[-121.5664,39.76408],[-121.56655,39.76725],[-121.56841,39.76723],[-121.56847,39.766],[-121.56974,39.77061],[-121.57003,39.77732],[-121.568,39.77731],[-121.5681,39.77969],[-121.57013,39.77964],[-121.57023,39.78633],[-121.56921,39.78635],[-121.56911,39.79132],[-121.57025,39.79131],[-121.57236,39.79857],[-121.57808,39.79849],[-121.57803,39.80013],[-121.57972,39.80154],[-121.58346,39.80037],[-121.58318,39.79974],[-121.58806,39.79969],[-121.58831,39.79735],[-121.59357,39.79197],[-121.62211,39.77948],[-121.62211,39.78055],[-121.62622,39.78049],[-121.6261,39.77799],[-121.62807,39.77864],[-121.62807,39.77732],[-121.63564,39.77731],[-121.63568,39.77161],[-121.65527,39.75531],[-121.6553,39.73563]]]},"properties":{"GEOID":"0655520","NAME":"Paradise town","BASENAME":"Paradise","STATE":"06","PLACE":"55520"}},{"type":"Feature","geometry":{"type":"MultiPolygon","coordinates":[[[[-121.89822,39.77185],[-121.89818,39.76794],[-121.88782,39.76809],[-121.8859,39.76916],[-121.87731,39.76098],[-121.87663,39.75996],[-121.87851,39.75884],[-121.87358,39.75404],[-121.87777,39.75153],[-121.87921,39.75299],[-121.881,39.75192],[-121.88295,39.75075],[-121.88147,39.74928],[-121.88337,39.74816],[-121.88626,39.751],[-121.88813,39.74991],[-121.88285,39.74474],[-121.88351,39.74438],[-121.88203,39.74374],[-121.88347,39.74175],[-121.88367,39.74003],[-121.8816,39.73901],[-121.88196,39.73101],[-121.88175,39.73285],[-121.87939,39.73285],[-121.87957,39.73087],[-121.86874,39.73097],[-121.86831,39.73033],[-121.86774,39.73088],[-121.8676,39.72444],[-121.86304,39.72708],[-121.85919,39.7269],[-121.85698,39.72487],[-121.85551,39.7254],[-121.855,39.72249],[-121.85384,39.72264],[-121.85333,39.71975],[-121.85199,39.71985],[-121.85308,39.71809],[-121.85087,39.7176],[-121.85145,39.71617],[-121.85065,39.71741],[-121.84966,39.71658],[-121.84946,39.71715],[-121.84544,39.71624],[-121.84687,39.71484],[-121.84394,39.71419],[-121.84186,39.71936],[-121.83241,39.71105],[-121.82208,39.71132],[-121.8266,39.706],[-121.82165,39.70099],[-121.81091,39.70783],[-121.81073,39.71037],[-121.81299,39.71326],[-121.81101,39.71213],[-121.80439,39.71166],[-121.80419,39.71086],[-121.79698,39.70804],[-121.79346,39.70788],[-121.78589,39.70107],[-121.78525,39.70146],[-121.78082,39.69988],[-121.77854,39.70153],[-121.77841,39.70259],[-121.78955,39.70491],[-121.78725,39.70485],[-121.78732,39.70761],[-121.78878,39.70796],[-121.78723,39.70899],[-121.79033,39.70886],[-121.79035,39.70948],[-121.7873,39.71012],[-121.78736,39.7113],[-121.79126,39.71051],[-121.7913,39.71171],[-121.784,39.71308],[-121.77785,39.71307],[-121.77799,39.72626],[-121.77333,39.72633],[-121.77333,39.73215],[-121.76883,39.73205],[-121.76609,39.73324],[-121.76685,39.73354],[-121.76604,39.73424],[-121.76632,39.73509],[-121.77342,39.73361],[-121.77346,39.73638],[-121.75917,39.73898],[-121.75937,39.74083],[-121.75002,39.74083],[-121.75001,39.74247],[-121.7544,39.75124],[-121.77822,39.74543],[-121.77836,39.75559],[-121.77361,39.75564],[-121.77355,39.75924],[-121.75461,39.75892],[-121.75476,39.76999],[-121.75015,39.76992],[-121.75021,39.77176],[-121.74944,39.77206],[-121.73575,39.77708],[-121.73189,39.77693],[-121.73026,39.78078],[-121.72805,39.78246],[-121.72724,39.78475],[-121.72458,39.78727],[-121.7225,39.79213],[-121.72276,39.79545],[-121.721,39.79547],[-121.71665,39.80284],[-121.7138,39.80615],[-121.71237,39.81393],[-121.73177,39.81351],[-121.73214,39.80551],[-121.73481,39.8055],[-121.74527,39.79907],[-121.74576,39.79643],[-121.75866,39.78183],[-121.76823,39.77774],[-121.78252,39.77604],[-121.79253,39.7699],[-121.79361,39.76988],[-121.79286,39.77039],[-121.79597,39.77703],[-121.80352,39.78447],[-121.80699,39.78385],[-121.84218,39.78328],[-121.84394,39.7854],[-121.84405,39.79043],[-121.84138,39.79046],[-121.84188,39.79135],[-121.84407,39.79133],[-121.84418,39.79921],[-121.84832,39.79922],[-121.84887,39.80025],[-121.84901,39.81192],[-121.85355,39.81184],[-121.85354,39.81128],[-121.85569,39.81092],[-121.8553,39.81043],[-121.85694,39.81018],[-121.85727,39.80737],[-121.85999,39.80759],[-121.86015,39.80612],[-121.8616,39.80612],[-121.86298,39.80837],[-121.86295,39.81178],[-121.86571,39.81175],[-121.87058,39.81753],[-121.87363,39.81679],[-121.87536,39.81458],[-121.87631,39.8148],[-121.87779,39.81353],[-121.87237,39.80678],[-121.87237,39.80423],[-121.87028,39.80425],[-121.86761,39.80109],[-121.86759,39.78911],[-121.87149,39.78908],[-121.86759,39.78872],[-121.86734,39.78015],[-121.87138,39.78276],[-121.87421,39.78307],[-121.88051,39.7864],[-121.88133,39.78487],[-121.88516,39.78414],[-121.89188,39.79081],[-121.89502,39.79223],[-121.89591,39.79155],[-121.89424,39.79155],[-121.89417,39.78988],[-121.89561,39.78985],[-121.88826,39.78311],[-121.89282,39.77851],[-121.89375,39.77548],[-121.89553,39.77305],[-121.89822,39.77185]],[[-121.80376,39.73962],[-121.80258,39.74065],[-121.80359,39.74696],[-121.80033,39.74841],[-121.79992,39.74727],[-121.79805,39.74814],[-121.79718,39.74255],[-121.80021,39.74143],[-121.7999,39.74037],[-121.80376,39.73962]],[[-121.79885,39.75425],[-121.79578,39.75816],[-121.78985,39.76249],[-121.78971,39.76412],[-121.7838,39.76556],[-121.78727,39.76184],[-121.78821,39.76203],[-121.78751,39.7615],[-121.79284,39.75365],[-121.79654,39.75503],[-121.79705,39.75442],[-121.79558,39.75373],[-121.79602,39.75311],[-121.79885,39.75425]],[[-121.78452,39.76474],[-121.77794,39.76718],[-121.77664,39.76333],[-121.77712,39.76236],[-121.78147,39.76226],[-121.78149,39.76311],[-121.78452,39.76474]]],[[[-121.91222,39.69916],[-121.91203,39.68757],[-121.91086,39.68754],[-121.90742,39.68929],[-121.90749,39.70054],[-121.91222,39.69916]]]]},"properties":{"GEOID":"0613014","NAME":"Chico city","BASENAME":"Chico","STATE":"06","PLACE":"13014"}}]}