{"type":"FeatureCollection","features":[{"type":"Feature","geometry":{"type":"Polygon","coordinates":[[[-120.57268,38.08597],[-120.57272,38.08353],[-120.56961,38.08319],[-120.56945,38.07544],[-120.56864,38.07557],[-120.57027,38.07468],[-120.57057,38.07117],[-120.56991,38.07371],[-120.56786,38.07466],[-120.5679,38.07032],[-120.56874,38.06954],[-120.56552,38.06664],[-120.56476,38.06392],[-120.55925,38.06077],[-120.54167,38.06274],[-120.53965,38.05945],[-120.54283,38.05854],[-120.54201,38.0568],[-120.54415,38.05401],[-120.54147,38.05149],[-120.54139,38.04657],[-120.53967,38.04545],[-120.53938,38.04408],[-120.53479,38.04393],[-120.53486,38.04531],[-120.53421,38.04553],[-120.53399,38.0438],[-120.52747,38.04491],[-120.52769,38.04724],[-120.53109,38.05066],[-120.53292,38.05078],[-120.53687,38.05506],[-120.5327,38.06826],[-120.53106,38.0765],[-120.53217,38.07821],[-120.53296,38.07821],[-120.53301,38.07653],[-120.53544,38.07734],[-120.5372,38.07642],[-120.54027,38.07632],[-120.54056,38.08],[-120.53875,38.08388],[-120.53743,38.08491],[-120.53889,38.08602],[-120.53753,38.08778],[-120.54171,38.08498],[-120.54977,38.08146],[-120.54977,38.08505],[-120.55219,38.08515],[-120.55227,38.08711],[-120.56694,38.08683],[-120.56934,38.09173],[-120.57071,38.09297],[-120.5726,38.093],[-120.57267,38.08809],[-120.57026,38.08682],[-120.57268,38.08597]]]},"properties":{"GEOID":"0602112","NAME":"Angels city","BASENAME":"Angels","STATE":"06","PLACE":"02112"}}]}