{"type":"FeatureCollection","features":[{"type":"Feature","geometry":{"type":"MultiPolygon","coordinates":[[[[-122.03713,39.20336],[-122.03714,39.20256],[-122.03225,39.2025],[-122.03234,39.19818],[-122.02302,39.20241],[-122.02323,39.19922],[-122.02707,39.19814],[-122.02571,39.19434],[-122.0231,39.19088],[-122.02307,39.19755],[-122.01487,39.19752],[-122.01548,39.1986],[-122.01828,39.1986],[-122.01738,39.20083],[-122.01573,39.20149],[-122.01439,39.20495],[-122.01484,39.20545],[-122.01138,39.20518],[-122.01185,39.20442],[-122.01303,39.20464],[-122.01339,39.2037],[-122.0124,39.20349],[-122.01381,39.20017],[-122.0111,39.20014],[-122.01453,39.19114],[-122.01465,39.18788],[-122.01078,39.18785],[-122.01068,39.18043],[-122.00527,39.18061],[-121.99974,39.17807],[-121.99993,39.16596],[-121.99747,39.16593],[-121.9975,39.16438],[-121.99576,39.16438],[-121.99561,39.16941],[-121.98324,39.16938],[-121.98924,39.176],[-122.00223,39.19895],[-121.99994,39.19963],[-122.00063,39.20086],[-121.99821,39.20097],[-121.99915,39.20449],[-121.99986,39.20464],[-121.9993,39.20612],[-121.99657,39.2055],[-121.99626,39.20631],[-122.00156,39.20766],[-122.00184,39.20665],[-122.00331,39.20703],[-122.00158,39.21156],[-121.99745,39.21062],[-121.99831,39.20885],[-121.98899,39.20668],[-121.9882,39.2087],[-121.99367,39.21292],[-121.99498,39.21317],[-121.99585,39.21098],[-121.99705,39.21117],[-122.00129,39.21235],[-122.00045,39.21396],[-122.00436,39.21553],[-122.01086,39.21612],[-122.01269,39.21697],[-122.01174,39.21933],[-122.00749,39.22206],[-122.00841,39.22619],[-122.00747,39.22834],[-122.00428,39.23031],[-121.9997,39.23018],[-121.99884,39.23183],[-122.00359,39.23572],[-122.00813,39.23362],[-122.00857,39.23574],[-122.0156,39.23152],[-122.01439,39.22623],[-122.01616,39.2248],[-122.01535,39.22107],[-122.01598,39.22158],[-122.01783,39.22083],[-122.01652,39.21829],[-122.01815,39.2183],[-122.02007,39.21292],[-122.02096,39.21311],[-122.02133,39.21211],[-122.02042,39.21191],[-122.021,39.21038],[-122.02169,39.21112],[-122.02195,39.21046],[-122.02121,39.20991],[-122.03686,39.20991],[-122.03713,39.20336]]],[[[-122.03141,39.18169],[-122.03142,39.18036],[-122.02675,39.18031],[-122.02672,39.18803],[-122.03137,39.18809],[-122.03141,39.18169]]]]},"properties":{"GEOID":"0614946","NAME":"Colusa city","BASENAME":"Colusa","STATE":"06","PLACE":"14946"}},{"type":"Feature","geometry":{"type":"Polygon","coordinates":[[[-122.1767,39.15266],[-122.17736,39.15259],[-122.16269,39.1525],[-122.16263,39.15039],[-122.16133,39.15031],[-122.16134,39.14518],[-122.15742,39.14516],[-122.15741,39.14733],[-122.15149,39.1473],[-122.15158,39.14247],[-122.14686,39.14247],[-122.14684,39.14509],[-122.14289,39.14504],[-122.14464,39.14765],[-122.14645,39.14767],[-122.14646,39.1487],[-122.14404,39.14965],[-122.1364,39.13826],[-122.13602,39.13405],[-122.13279,39.12663],[-122.13281,39.12303],[-122.1116,39.12312],[-122.11163,39.13759],[-122.11614,39.13758],[-122.11608,39.14503],[-122.13269,39.14498],[-122.13265,39.17317],[-122.12988,39.17422],[-122.16035,39.17432],[-122.15474,39.1658],[-122.15707,39.16478],[-122.1565,39.16364],[-122.1719,39.15427],[-122.1767,39.15266]]]},"properties":{"GEOID":"0685586","NAME":"Williams city","BASENAME":"Williams","STATE":"06","PLACE":"85586"}}]}