{"type":"FeatureCollection","features":[{"type":"Feature","geometry":{"type":"Polygon","coordinates":[[[-122.35858,37.95081],[-122.34741,37.95032],[-122.34682,37.95628],[-122.34253,37.95535],[-122.34032,37.95248],[-122.33885,37.95342],[-122.33351,37.95166],[-122.33239,37.94907],[-122.32485,37.94918],[-122.32323,37.9498],[-122.32208,37.952],[-122.32605,37.95489],[-122.32605,37.95855],[-122.32274,37.95833],[-122.32317,37.95967],[-122.31843,37.96036],[-122.31947,37.96382],[-122.32374,37.96324],[-122.32446,37.96536],[-122.32313,37.96643],[-122.3295,37.96299],[-122.33701,37.96365],[-122.33701,37.96932],[-122.34008,37.97228],[-122.34201,37.97201],[-122.34217,37.97362],[-122.34283,37.9737],[-122.34125,37.97796],[-122.33833,37.98156],[-122.34671,37.98156],[-122.34671,37.98076],[-122.35295,37.9799],[-122.35734,37.96332],[-122.35858,37.95081]]]},"properties":{"GEOID":"0668294","NAME":"San Pablo city","BASENAME":"San Pablo","STATE":"06","PLACE":"68294"}},{"type":"Feature","geometry":{"type":"Polygon","coordinates":[[[-122.32332,37.9311],[-122.3207,37.9273],[-122.32069,37.91924],[-122.31485,37.91908],[-122.31264,37.91599],[-122.31176,37.91599],[-122.30525,37.90645],[-122.30432,37.90441],[-122.30989,37.90202],[-122.30917,37.90084],[-122.30705,37.9025],[-122.30663,37.90151],[-122.30732,37.90065],[-122.30541,37.89816],[-122.30017,37.89794],[-122.29598,37.89893],[-122.28957,37.89749],[-122.28817,37.89784],[-122.28863,37.90356],[-122.29104,37.90415],[-122.28846,37.90562],[-122.28906,37.90908],[-122.28718,37.90991],[-122.28908,37.91425],[-122.28255,37.9189],[-122.28112,37.91874],[-122.2867,37.92425],[-122.28965,37.92531],[-122.2918,37.92726],[-122.29127,37.92763],[-122.29186,37.92839],[-122.29064,37.92925],[-122.29224,37.93069],[-122.29709,37.93204],[-122.30358,37.9382],[-122.32032,37.93834],[-122.32038,37.93112],[-122.32332,37.9311]]]},"properties":{"GEOID":"0621796","NAME":"El Cerrito city","BASENAME":"El Cerrito","STATE":"06","PLACE":"21796"}},{"type":"Feature","geometry":{"type":"Polygon","coordinates":[[[-121.95647,37.95176],[-121.95092,37.9485],[-121.95094,37.94124],[-121.94427,37.94123],[-121.94426,37.93734],[-121.94601,37.93736],[-121.94486,37.93398],[-121.94191,37.934],[-121.94189,37.93195],[-121.94067,37.93195],[-121.94001,37.93397],[-121.9381,37.93397],[-121.93859,37.9267],[-121.93273,37.92667],[-121.93264,37.92179],[-121.92735,37.92188],[-121.92649,37.92082],[-121.91898,37.92081],[-121.91898,37.92347],[-121.91437,37.92234],[-121.91434,37.91977],[-121.91219,37.92101],[-121.91171,37.92439],[-121.91441,37.92497],[-121.91462,37.95514],[-121.93933,37.95586],[-121.94466,37.95413],[-121.94749,37.95082],[-121.951,37.95193],[-121.95247,37.95362],[-121.95169,37.95425],[-121.9524,37.95565],[-121.95652,37.95253],[-121.95647,37.95176]]]},"properties":{"GEOID":"0613882","NAME":"Clayton city","BASENAME":"Clayton","STATE":"06","PLACE":"13882"}},{"type":"Feature","geometry":{"type":"Polygon","coordinates":[[[-122.39078,38.02958],[-122.39138,38.02882],[-122.33102,38.00378],[-122.32455,38.00675],[-122.3164,38.01209],[-122.31334,38.01138],[-122.31456,38.00421],[-122.31767,38.00323],[-122.31665,38.0026],[-122.31865,38.00171],[-122.316,37.99698],[-122.3152,37.99705],[-122.31534,37.99783],[-122.31417,37.99742],[-122.31203,37.9985],[-122.30729,37.99283],[-122.31386,37.9903],[-122.31373,37.98901],[-122.31583,37.9856],[-122.31188,37.98379],[-122.30745,37.98779],[-122.30833,37.98852],[-122.30758,37.98946],[-122.30096,37.98956],[-122.30047,37.98588],[-122.29952,37.98577],[-122.29607,37.98696],[-122.29585,37.98622],[-122.29458,37.98735],[-122.29184,37.98632],[-122.29186,37.98796],[-122.29369,37.98903],[-122.29201,37.98886],[-122.29199,37.98964],[-122.29134,37.98958],[-122.29072,37.98938],[-122.29071,37.98724],[-122.28874,37.98727],[-122.28838,37.988],[-122.28623,37.98675],[-122.28848,37.9843],[-122.28767,37.98336],[-122.2839,37.98317],[-122.28391,37.98199],[-122.28195,37.98204],[-122.28232,37.98341],[-122.28091,37.9836],[-122.27886,37.98238],[-122.27886,37.98062],[-122.26782,37.97413],[-122.26028,37.97288],[-122.2561,37.97514],[-122.25608,37.97695],[-122.25791,37.97694],[-122.25764,37.97762],[-122.25616,37.97718],[-122.25581,37.9779],[-122.25729,37.97849],[-122.2562,37.98123],[-122.25082,37.98146],[-122.25003,37.98317],[-122.2478,37.98353],[-122.24787,37.98199],[-122.24561,37.98158],[-122.24353,37.982],[-122.2431,37.98305],[-122.23943,37.98352],[-122.23778,37.98265],[-122.236,37.98341],[-122.24981,37.99201],[-122.25368,37.99361],[-122.25954,37.99176],[-122.26507,37.99187],[-122.27488,37.99506],[-122.27808,38.00004],[-122.28214,38.00039],[-122.27904,38.00325],[-122.28165,38.00411],[-122.28448,38.00888],[-122.28587,38.00841],[-122.2847,38.00945],[-122.28759,38.0083],[-122.29078,38.00862],[-122.29476,38.01336],[-122.2931,38.01523],[-122.29767,38.01516],[-122.37666,38.0476],[-122.39078,38.02958]]]},"properties":{"GEOID":"0657288","NAME":"Pinole city","BASENAME":"Pinole","STATE":"06","PLACE":"57288"}},{"type":"Feature","geometry":{"type":"Polygon","coordinates":[[[-122.37598,38.04847],[-122.37666,38.0476],[-122.29767,38.01516],[-122.2931,38.01523],[-122.29476,38.01336],[-122.29034,38.00817],[-122.2847,38.00945],[-122.28587,38.00841],[-122.28448,38.00888],[-122.28165,38.00411],[-122.27904,38.00325],[-122.28214,38.00039],[-122.27808,38.00004],[-122.27488,37.99506],[-122.26891,37.99273],[-122.25954,37.99176],[-122.25368,37.99361],[-122.24981,37.99201],[-122.236,37.98341],[-122.23389,37.98576],[-122.23075,37.98765],[-122.22823,37.99263],[-122.23191,37.99395],[-122.23105,37.99639],[-122.20962,37.99617],[-122.20966,38.00761],[-122.21423,38.00709],[-122.22215,38.00785],[-122.22757,38.00905],[-122.2298,38.01038],[-122.23114,38.00212],[-122.2333,38.00236],[-122.23489,38.00449],[-122.2365,38.00373],[-122.2391,38.00722],[-122.24807,38.00868],[-122.27574,38.03595],[-122.27688,38.06125],[-122.34745,38.07326],[-122.37598,38.04847]]]},"properties":{"GEOID":"0633308","NAME":"Hercules city","BASENAME":"Hercules","STATE":"06","PLACE":"33308"}},{"type":"Feature","geometry":{"type":"Polygon","coordinates":[[[-122.10437,37.97273],[-122.10201,37.97151],[-122.10231,37.96983],[-122.09883,37.96712],[-122.09379,37.95993],[-122.09235,37.95995],[-122.09245,37.95806],[-122.09092,37.9565],[-122.09186,37.9565],[-122.09281,37.95511],[-122.10239,37.95498],[-122.10105,37.95302],[-122.09893,37.95188],[-122.10097,37.95088],[-122.09849,37.94744],[-122.09762,37.94775],[-122.09751,37.94697],[-122.09674,37.94704],[-122.09682,37.94788],[-122.09191,37.94781],[-122.09436,37.94676],[-122.09381,37.9461],[-122.09511,37.9445],[-122.0942,37.9417],[-122.09308,37.94192],[-122.09321,37.94082],[-122.08956,37.94087],[-122.08958,37.93676],[-122.0907,37.9354],[-122.08965,37.9337],[-122.08694,37.93368],[-122.08677,37.93277],[-122.08645,37.92786],[-122.08875,37.92726],[-122.088,37.92526],[-122.08586,37.92615],[-122.07351,37.92634],[-122.0735,37.93335],[-122.0614,37.93264],[-122.06159,37.93173],[-122.05499,37.93253],[-122.05476,37.93477],[-122.05684,37.93472],[-122.05687,37.93667],[-122.05897,37.93666],[-122.05965,37.93854],[-122.05631,37.93845],[-122.05598,37.93943],[-122.05453,37.93946],[-122.05502,37.93669],[-122.05279,37.93669],[-122.05139,37.94277],[-122.04979,37.94268],[-122.04978,37.94558],[-122.05241,37.94844],[-122.05385,37.95184],[-122.05237,37.95922],[-122.05652,37.96553],[-122.06108,37.96219],[-122.06028,37.9597],[-122.06113,37.95966],[-122.06318,37.97034],[-122.06071,37.97066],[-122.06282,37.97372],[-122.06404,37.97405],[-122.06457,37.9758],[-122.06373,37.9755],[-122.06597,37.98184],[-122.07408,37.98116],[-122.07786,37.98232],[-122.07891,37.9815],[-122.07718,37.98148],[-122.0771,37.97984],[-122.07576,37.97935],[-122.07659,37.97885],[-122.07713,37.97936],[-122.07788,37.97587],[-122.10007,37.97598],[-122.10437,37.97273]],[[-122.08171,37.97331],[-122.08171,37.97458],[-122.08032,37.97557],[-122.07797,37.97524],[-122.07526,37.97636],[-122.07358,37.97484],[-122.07367,37.97132],[-122.07442,37.97111],[-122.0749,37.96929],[-122.07599,37.96934],[-122.07724,37.97045],[-122.07654,37.97157],[-122.07768,37.9717],[-122.07653,37.97223],[-122.07558,37.9714],[-122.07584,37.97212],[-122.07471,37.97304],[-122.07529,37.97376],[-122.07401,37.97447],[-122.07511,37.97582],[-122.07998,37.97497],[-122.08171,37.97331]]]},"properties":{"GEOID":"0657764","NAME":"Pleasant Hill city","BASENAME":"Pleasant Hill","STATE":"06","PLACE":"57764"}},{"type":"Feature","geometry":{"type":"Polygon","coordinates":[[[-122.15853,37.8419],[-122.15601,37.83747],[-122.15577,37.83181],[-122.14558,37.82513],[-122.1431,37.82147],[-122.13853,37.82288],[-122.13493,37.82186],[-122.13292,37.82261],[-122.13292,37.82382],[-122.1317,37.82358],[-122.13202,37.82297],[-122.12717,37.82095],[-122.1249,37.81852],[-122.125,37.81427],[-122.12653,37.81424],[-122.12662,37.8127],[-122.11454,37.8102],[-122.11396,37.80834],[-122.11135,37.80838],[-122.11227,37.81017],[-122.11402,37.80979],[-122.11574,37.81247],[-122.11383,37.81832],[-122.11232,37.81983],[-122.1037,37.8198],[-122.10369,37.82411],[-122.09919,37.82409],[-122.09924,37.83248],[-122.09571,37.83246],[-122.09507,37.83502],[-122.09397,37.83527],[-122.09678,37.83686],[-122.09789,37.83843],[-122.09461,37.83807],[-122.09163,37.84199],[-122.09017,37.8421],[-122.08783,37.85095],[-122.10818,37.85071],[-122.10448,37.85393],[-122.10244,37.85803],[-122.10615,37.85799],[-122.10647,37.86259],[-122.10973,37.86461],[-122.10974,37.86648],[-122.1082,37.86777],[-122.10677,37.86776],[-122.10713,37.86886],[-122.10569,37.87193],[-122.10675,37.87258],[-122.11105,37.87279],[-122.11343,37.87474],[-122.11587,37.87462],[-122.11621,37.87364],[-122.12543,37.87254],[-122.12838,37.87352],[-122.12841,37.875],[-122.13379,37.87479],[-122.13379,37.8757],[-122.13607,37.87572],[-122.1361,37.8721],[-122.14179,37.87213],[-122.14183,37.8685],[-122.14434,37.86804],[-122.14257,37.86711],[-122.14429,37.86564],[-122.14471,37.86359],[-122.14436,37.8627],[-122.14368,37.86339],[-122.14264,37.86256],[-122.1426,37.85264],[-122.14178,37.85128],[-122.1407,37.85102],[-122.14008,37.85172],[-122.13944,37.84904],[-122.14075,37.84895],[-122.14054,37.84786],[-122.1425,37.84727],[-122.14073,37.84376],[-122.14164,37.84298],[-122.1422,37.84341],[-122.14604,37.83887],[-122.14869,37.83919],[-122.15674,37.84364],[-122.15853,37.8419]]]},"properties":{"GEOID":"0649187","NAME":"Moraga town","BASENAME":"Moraga","STATE":"06","PLACE":"49187"}},{"type":"Feature","geometry":{"type":"Polygon","coordinates":[[[-122.22525,37.89034],[-122.22064,37.88186],[-122.21671,37.87896],[-122.21143,37.87879],[-122.19296,37.88404],[-122.18976,37.88104],[-122.18718,37.88015],[-122.18723,37.87814],[-122.19117,37.87779],[-122.19129,37.87417],[-122.19279,37.87353],[-122.19224,37.87105],[-122.19587,37.86897],[-122.19824,37.86932],[-122.19894,37.8682],[-122.20253,37.8687],[-122.20115,37.8679],[-122.20341,37.8676],[-122.20317,37.86647],[-122.1952,37.86619],[-122.19394,37.86556],[-122.19369,37.86441],[-122.19255,37.86423],[-122.19138,37.86274],[-122.19499,37.85671],[-122.18916,37.85316],[-122.18859,37.85043],[-122.17478,37.85055],[-122.1749,37.84691],[-122.16778,37.84649],[-122.16402,37.84337],[-122.15853,37.8419],[-122.15674,37.84364],[-122.14869,37.83919],[-122.14604,37.83887],[-122.1422,37.84341],[-122.14164,37.84298],[-122.14073,37.84376],[-122.1425,37.84727],[-122.14054,37.84786],[-122.14075,37.84895],[-122.13944,37.84904],[-122.13957,37.84983],[-122.14032,37.85195],[-122.1407,37.85102],[-122.14178,37.85128],[-122.1426,37.85264],[-122.14264,37.86256],[-122.14368,37.86339],[-122.14436,37.8627],[-122.14471,37.86359],[-122.14429,37.86564],[-122.14257,37.86711],[-122.14425,37.86852],[-122.15668,37.8716],[-122.15668,37.87263],[-122.15555,37.87263],[-122.15548,37.88117],[-122.16324,37.88113],[-122.16169,37.88309],[-122.16499,37.88468],[-122.16502,37.89058],[-122.16409,37.89078],[-122.16505,37.89196],[-122.16522,37.90949],[-122.16094,37.90948],[-122.16091,37.91304],[-122.16679,37.91704],[-122.17528,37.91535],[-122.17696,37.91814],[-122.18554,37.91884],[-122.19261,37.92018],[-122.1957,37.92155],[-122.19754,37.91901],[-122.19986,37.91751],[-122.20019,37.91429],[-122.20369,37.90913],[-122.20542,37.90832],[-122.21001,37.90863],[-122.21113,37.90725],[-122.21039,37.90587],[-122.21409,37.9039],[-122.21142,37.90145],[-122.20709,37.90172],[-122.21079,37.8995],[-122.20688,37.89611],[-122.21054,37.89364],[-122.21255,37.89352],[-122.21455,37.89606],[-122.21664,37.89555],[-122.22525,37.89034]]]},"properties":{"GEOID":"0654232","NAME":"Orinda city","BASENAME":"Orinda","STATE":"06","PLACE":"54232"}},{"type":"Feature","geometry":{"type":"MultiPolygon","coordinates":[[[[-122.15815,38.02488],[-122.14843,38.0209],[-122.14872,38.01015],[-122.14641,38.01012],[-122.14645,38.00939],[-122.14297,38.00718],[-122.14315,38.00585],[-122.14423,38.00587],[-122.14496,38.00209],[-122.14668,37.99974],[-122.14453,37.99734],[-122.14592,37.99674],[-122.14443,37.99387],[-122.14533,37.99375],[-122.14555,37.99277],[-122.14464,37.99133],[-122.1454,37.99051],[-122.14495,37.98939],[-122.14319,37.98792],[-122.13962,37.98763],[-122.13982,37.97262],[-122.1406,37.97262],[-122.14061,37.97176],[-122.14108,37.97454],[-122.14543,37.97454],[-122.147,37.97283],[-122.14794,37.97386],[-122.14886,37.97328],[-122.14898,37.97269],[-122.14726,37.97224],[-122.14991,37.97188],[-122.14877,37.97124],[-122.14902,37.97054],[-122.1478,37.97036],[-122.14875,37.9689],[-122.14784,37.96843],[-122.14858,37.96743],[-122.14778,37.96743],[-122.14797,37.96566],[-122.14372,37.9651],[-122.14367,37.96281],[-122.1417,37.96332],[-122.14177,37.96528],[-122.14025,37.96526],[-122.14017,37.96695],[-122.13817,37.96598],[-122.13755,37.96781],[-122.13582,37.96765],[-122.13493,37.96888],[-122.13429,37.97302],[-122.13538,37.97412],[-122.13488,37.97533],[-122.13575,37.97759],[-122.13036,37.977],[-122.12716,37.97513],[-122.12574,37.9791],[-122.12252,37.98032],[-122.12011,37.97764],[-122.11945,37.97526],[-122.12293,37.97659],[-122.12456,37.9722],[-122.11867,37.96921],[-122.12035,37.96778],[-122.11881,37.9663],[-122.12204,37.96252],[-122.11995,37.96141],[-122.12141,37.96033],[-122.11896,37.95973],[-122.11897,37.96032],[-122.11734,37.96031],[-122.11747,37.95356],[-122.1157,37.95356],[-122.11565,37.95591],[-122.11163,37.95539],[-122.11159,37.95655],[-122.10917,37.95782],[-122.10806,37.95682],[-122.1076,37.95924],[-122.10736,37.95828],[-122.10488,37.95867],[-122.10314,37.95496],[-122.09281,37.95511],[-122.09186,37.9565],[-122.09092,37.9565],[-122.09245,37.95806],[-122.09235,37.95995],[-122.09379,37.95993],[-122.09883,37.96712],[-122.10142,37.96957],[-122.10367,37.97015],[-122.10291,37.97188],[-122.10437,37.97273],[-122.10007,37.97598],[-122.07975,37.97606],[-122.07917,37.98338],[-122.07578,37.98342],[-122.07581,37.98508],[-122.07694,37.98611],[-122.07671,37.99054],[-122.07521,37.99419],[-122.07736,37.99602],[-122.07683,37.99877],[-122.07886,37.99975],[-122.07911,38.00154],[-122.08097,38.00182],[-122.08339,37.99948],[-122.08446,38.00012],[-122.08312,38.00143],[-122.08655,38.0022],[-122.086,38.00293],[-122.08705,38.00409],[-122.08938,38.00282],[-122.09046,38.00409],[-122.09147,38.00176],[-122.08796,38.00181],[-122.08693,37.99963],[-122.09472,37.99766],[-122.09446,37.99978],[-122.09371,38.00033],[-122.09712,38.0003],[-122.0972,38.0025],[-122.09957,38.00248],[-122.09958,38.00386],[-122.10183,38.00385],[-122.10187,38.00541],[-122.09882,38.00568],[-122.09884,38.00682],[-122.10067,38.00683],[-122.10072,38.01017],[-122.10633,38.01226],[-122.11087,38.01225],[-122.11071,38.00779],[-122.11316,38.00694],[-122.113,38.00605],[-122.11474,38.00569],[-122.11487,38.00485],[-122.11691,38.00487],[-122.12052,38.00637],[-122.12082,38.0072],[-122.1212,38.00664],[-122.1231,38.00741],[-122.12468,38.00711],[-122.12491,38.00834],[-122.12079,38.0104],[-122.12116,38.01218],[-122.11923,38.0128],[-122.11922,38.01399],[-122.12744,38.01628],[-122.13042,38.02017],[-122.11193,38.02165],[-122.11193,38.02557],[-122.11139,38.02575],[-122.11199,38.0266],[-122.0985,38.02657],[-122.08988,38.02878],[-122.09121,38.03178],[-122.09429,38.0309],[-122.09337,38.03402],[-122.0944,38.03495],[-122.09793,38.03392],[-122.09761,38.04159],[-122.09621,38.04192],[-122.09978,38.04701],[-122.12099,38.03799],[-122.12397,38.03572],[-122.13154,38.03449],[-122.13937,38.03218],[-122.14687,38.03173],[-122.14667,38.02358],[-122.15156,38.02363],[-122.15815,38.02488]]],[[[-122.11418,38.0136],[-122.11418,38.01244],[-122.11106,38.01292],[-122.11106,38.01365],[-122.11418,38.0136]]]]},"properties":{"GEOID":"0646114","NAME":"Martinez city","BASENAME":"Martinez","STATE":"06","PLACE":"46114"}},{"type":"Feature","geometry":{"type":"Polygon","coordinates":[[[-121.75622,37.99221],[-121.74274,37.98234],[-121.73018,37.9688],[-121.67763,37.96884],[-121.67752,37.9857],[-121.67294,37.98575],[-121.67286,37.98879],[-121.67057,37.98878],[-121.67059,37.98695],[-121.66835,37.98694],[-121.66831,37.99065],[-121.65856,37.99065],[-121.64031,37.97603],[-121.62259,37.97622],[-121.62262,37.9785],[-121.62576,37.97854],[-121.62543,37.98763],[-121.62739,37.98861],[-121.6274,37.99041],[-121.62463,37.99037],[-121.62534,37.9962],[-121.62776,37.99725],[-121.62905,37.99596],[-121.62998,37.99796],[-121.62944,37.9996],[-121.62994,38.00109],[-121.63495,38.00056],[-121.63419,38.00553],[-121.64507,38.0081],[-121.65002,38.01145],[-121.65687,38.01157],[-121.6569,38.00938],[-121.65897,38.00939],[-121.65897,38.0119],[-121.67104,38.01213],[-121.67225,38.01149],[-121.67352,38.01211],[-121.67805,38.0108],[-121.68476,38.01351],[-121.68931,38.01338],[-121.69121,38.01057],[-121.69155,38.00534],[-121.69681,38.00734],[-121.69696,38.00638],[-121.71159,38.00658],[-121.71375,38.00786],[-121.71486,38.00728],[-121.71701,38.00972],[-121.71838,38.00899],[-121.7181,38.00806],[-121.72054,38.00878],[-121.72618,38.01298],[-121.7303,38.01322],[-121.73109,38.01514],[-121.73208,38.01454],[-121.73672,38.01574],[-121.7393,38.01714],[-121.74035,38.02005],[-121.7489,38.02026],[-121.75055,38.02108],[-121.75134,38.01243],[-121.75078,38.01224],[-121.75076,38.00908],[-121.75237,38.00933],[-121.75306,38.00524],[-121.75216,38.00492],[-121.7535,38.00314],[-121.75622,37.99221]]]},"properties":{"GEOID":"0653070","NAME":"Oakley city","BASENAME":"Oakley","STATE":"06","PLACE":"53070"}},{"type":"Feature","geometry":{"type":"Polygon","coordinates":[[[-122.16522,37.90949],[-122.16505,37.89196],[-122.16409,37.89078],[-122.16502,37.89058],[-122.16499,37.88468],[-122.16169,37.88309],[-122.16324,37.88113],[-122.15548,37.88117],[-122.15555,37.87263],[-122.15668,37.87263],[-122.15668,37.8716],[-122.14526,37.86852],[-122.14183,37.8685],[-122.14179,37.87213],[-122.1361,37.8721],[-122.13607,37.87572],[-122.13379,37.8757],[-122.13379,37.87479],[-122.12841,37.875],[-122.12838,37.87352],[-122.12543,37.87254],[-122.11621,37.87364],[-122.11587,37.87462],[-122.11343,37.87474],[-122.11105,37.87279],[-122.10569,37.87193],[-122.10713,37.86886],[-122.10677,37.86776],[-122.1082,37.86777],[-122.10974,37.86648],[-122.10973,37.86461],[-122.10647,37.86259],[-122.10615,37.85799],[-122.10244,37.85803],[-122.10448,37.85393],[-122.10818,37.85071],[-122.08783,37.85095],[-122.08823,37.84927],[-122.07962,37.84944],[-122.07998,37.85676],[-122.07805,37.85724],[-122.08306,37.86824],[-122.08947,37.87545],[-122.0897,37.88132],[-122.08807,37.88178],[-122.0915,37.88588],[-122.08638,37.88514],[-122.08608,37.88584],[-122.08838,37.88654],[-122.08703,37.8903],[-122.08362,37.89141],[-122.08202,37.89292],[-122.08262,37.89453],[-122.0822,37.89643],[-122.08306,37.89775],[-122.08508,37.89798],[-122.08602,37.89908],[-122.08545,37.89999],[-122.08392,37.90019],[-122.08464,37.90151],[-122.08358,37.90277],[-122.08418,37.9031],[-122.08396,37.90417],[-122.08066,37.90475],[-122.08063,37.90641],[-122.08222,37.90637],[-122.08227,37.90742],[-122.08471,37.90812],[-122.08657,37.9106],[-122.09905,37.91021],[-122.09843,37.91279],[-122.0997,37.9151],[-122.10001,37.91896],[-122.09707,37.92152],[-122.09627,37.92515],[-122.10387,37.925],[-122.10382,37.93019],[-122.1031,37.93019],[-122.10307,37.93189],[-122.09741,37.93187],[-122.0958,37.93378],[-122.09898,37.93658],[-122.1021,37.93722],[-122.10115,37.93939],[-122.10707,37.93827],[-122.1133,37.93249],[-122.11339,37.93151],[-122.11795,37.92984],[-122.11811,37.92411],[-122.12133,37.92396],[-122.12126,37.90944],[-122.1366,37.9095],[-122.13655,37.91349],[-122.1417,37.91351],[-122.1417,37.91598],[-122.14746,37.91457],[-122.15187,37.91238],[-122.1609,37.91451],[-122.1609,37.91364],[-122.16015,37.91344],[-122.16091,37.91304],[-122.16094,37.90948],[-122.16522,37.90949]]]},"properties":{"GEOID":"0639122","NAME":"Lafayette city","BASENAME":"Lafayette","STATE":"06","PLACE":"39122"}},{"type":"Feature","geometry":{"type":"Polygon","coordinates":[[[-121.76004,37.92494],[-121.76003,37.92313],[-121.75808,37.92313],[-121.75832,37.92181],[-121.75997,37.92123],[-121.75991,37.91784],[-121.75627,37.91834],[-121.75407,37.91963],[-121.75254,37.92172],[-121.75224,37.92496],[-121.75112,37.92501],[-121.75101,37.91455],[-121.75237,37.91396],[-121.75191,37.91327],[-121.75101,37.91384],[-121.751,37.90489],[-121.74774,37.90813],[-121.74205,37.90849],[-121.73828,37.91073],[-121.73459,37.91001],[-121.73369,37.91046],[-121.73239,37.90823],[-121.73273,37.90641],[-121.73054,37.90422],[-121.7314,37.90348],[-121.73407,37.90513],[-121.7366,37.90547],[-121.73915,37.90375],[-121.73263,37.9007],[-121.73283,37.8998],[-121.73556,37.90011],[-121.73861,37.89793],[-121.73856,37.89689],[-121.73699,37.89685],[-121.73743,37.89814],[-121.73657,37.89868],[-121.7328,37.89799],[-121.73252,37.89688],[-121.72952,37.89557],[-121.72945,37.89416],[-121.73029,37.89375],[-121.72971,37.89224],[-121.72558,37.89222],[-121.72517,37.89091],[-121.72081,37.88883],[-121.71952,37.89256],[-121.71779,37.89155],[-121.71754,37.89045],[-121.71364,37.88967],[-121.7118,37.89163],[-121.71621,37.89252],[-121.7172,37.89184],[-121.7179,37.89411],[-121.71612,37.89461],[-121.71775,37.89638],[-121.71669,37.89892],[-121.71848,37.90183],[-121.7168,37.90249],[-121.71545,37.90504],[-121.71454,37.91165],[-121.71595,37.91337],[-121.71467,37.91569],[-121.71432,37.91885],[-121.71266,37.91828],[-121.67798,37.91825],[-121.67792,37.93276],[-121.68321,37.93266],[-121.6832,37.93708],[-121.68388,37.93707],[-121.68424,37.94039],[-121.68416,37.95446],[-121.6823,37.95448],[-121.68225,37.96293],[-121.68818,37.96277],[-121.68899,37.96167],[-121.69454,37.96155],[-121.69437,37.96274],[-121.69548,37.96427],[-121.69145,37.96429],[-121.69143,37.96793],[-121.69612,37.96796],[-121.69835,37.96747],[-121.69837,37.96375],[-121.69959,37.96375],[-121.70027,37.95879],[-121.70531,37.95874],[-121.7058,37.96157],[-121.70473,37.96157],[-121.70434,37.96879],[-121.73018,37.9688],[-121.73239,37.97125],[-121.73242,37.96146],[-121.75078,37.96152],[-121.75102,37.93257],[-121.75549,37.93254],[-121.75555,37.92506],[-121.75336,37.92506],[-121.75337,37.92389],[-121.75694,37.92387],[-121.76004,37.92494]]]},"properties":{"GEOID":"0608142","NAME":"Brentwood city","BASENAME":"Brentwood","STATE":"06","PLACE":"08142"}},{"type":"Feature","geometry":{"type":"Polygon","coordinates":[[[-122.00502,37.77115],[-121.9992,37.76518],[-121.99264,37.76609],[-121.9943,37.76871],[-121.99248,37.76862],[-121.99204,37.76678],[-121.9904,37.76561],[-121.99197,37.76505],[-121.99084,37.7633],[-121.98536,37.76189],[-121.98724,37.76087],[-121.98919,37.76087],[-121.98807,37.7595],[-121.98647,37.75926],[-121.98608,37.75774],[-121.98486,37.75786],[-121.985,37.75706],[-121.97977,37.75621],[-121.97231,37.75299],[-121.96896,37.75331],[-121.96828,37.75143],[-121.96227,37.74957],[-121.96101,37.74616],[-121.96288,37.74583],[-121.96349,37.74673],[-121.96456,37.7465],[-121.96374,37.74519],[-121.96219,37.74473],[-121.96367,37.74414],[-121.96085,37.73997],[-121.96432,37.73865],[-121.96179,37.73659],[-121.9604,37.73673],[-121.95969,37.73581],[-121.95865,37.73621],[-121.94989,37.72233],[-121.95028,37.72142],[-121.94876,37.72128],[-121.91014,37.73046],[-121.90996,37.7323],[-121.91192,37.73466],[-121.9148,37.74388],[-121.91344,37.74745],[-121.89717,37.74746],[-121.8885,37.74138],[-121.88513,37.74268],[-121.88336,37.74236],[-121.8826,37.74543],[-121.88285,37.75285],[-121.87962,37.75755],[-121.88115,37.75863],[-121.881,37.76536],[-121.87919,37.76753],[-121.87915,37.76873],[-121.88002,37.76932],[-121.87898,37.77187],[-121.87701,37.77336],[-121.87698,37.77574],[-121.87849,37.77811],[-121.87811,37.78127],[-121.90066,37.7814],[-121.90064,37.78866],[-121.92377,37.78826],[-121.92371,37.79241],[-121.93278,37.79239],[-121.93284,37.7889],[-121.94194,37.78879],[-121.94194,37.79106],[-121.94648,37.79314],[-121.94645,37.79511],[-121.95091,37.79501],[-121.95111,37.78691],[-121.95479,37.78601],[-121.96689,37.78068],[-121.96859,37.78308],[-121.97708,37.77984],[-121.98075,37.78667],[-121.99658,37.78632],[-121.99673,37.78014],[-121.99932,37.77986],[-121.99844,37.77759],[-121.999,37.77738],[-121.99703,37.7753],[-121.99647,37.77308],[-122.00502,37.77115]]]},"properties":{"GEOID":"0668378","NAME":"San Ramon city","BASENAME":"San Ramon","STATE":"06","PLACE":"68378"}},{"type":"Feature","geometry":{"type":"Polygon","coordinates":[[[-122.02602,37.82002],[-122.02608,37.80906],[-122.00744,37.80835],[-122.0067,37.80978],[-122.00357,37.81074],[-122.0028,37.80885],[-122.00083,37.80971],[-122.00239,37.8083],[-122.0057,37.8083],[-122.00544,37.79329],[-121.99335,37.79365],[-121.99383,37.79062],[-121.9928,37.787],[-121.99214,37.78738],[-121.9912,37.78643],[-121.98075,37.78667],[-121.97708,37.77984],[-121.96859,37.78308],[-121.96689,37.78068],[-121.95479,37.78601],[-121.95111,37.78691],[-121.95102,37.795],[-121.94645,37.79511],[-121.94648,37.79314],[-121.94194,37.79106],[-121.94194,37.78879],[-121.93284,37.7889],[-121.93278,37.79239],[-121.92371,37.79241],[-121.92377,37.78826],[-121.90064,37.78866],[-121.90066,37.7814],[-121.8916,37.78137],[-121.8916,37.78862],[-121.89613,37.78864],[-121.89607,37.79988],[-121.90372,37.7998],[-121.9054,37.79936],[-121.90625,37.79811],[-121.90998,37.79905],[-121.91401,37.79845],[-121.92363,37.79959],[-121.92375,37.81008],[-121.9211,37.81734],[-121.93287,37.8171],[-121.93287,37.82635],[-121.95175,37.83194],[-121.95646,37.83193],[-121.9595,37.8333],[-121.96571,37.83384],[-121.96716,37.83549],[-121.96918,37.83588],[-121.96887,37.83727],[-121.96964,37.83731],[-121.96982,37.83817],[-121.976,37.83807],[-121.97552,37.83905],[-121.96707,37.84204],[-121.96527,37.84338],[-121.96666,37.84403],[-121.96586,37.84535],[-121.98684,37.84464],[-121.98672,37.83742],[-121.99693,37.83709],[-121.99703,37.84522],[-122.0047,37.84476],[-122.00919,37.8463],[-122.01282,37.84625],[-122.01326,37.84504],[-122.01568,37.84582],[-122.01603,37.84494],[-122.01526,37.84366],[-122.0141,37.84338],[-122.01491,37.84145],[-122.01633,37.8403],[-122.0171,37.84099],[-122.01934,37.83881],[-122.01701,37.83774],[-122.01712,37.83667],[-122.01569,37.83566],[-122.02035,37.83119],[-122.02139,37.8281],[-122.02238,37.82916],[-122.02595,37.82838],[-122.02394,37.82357],[-122.026,37.8236],[-122.02602,37.82002]]]},"properties":{"GEOID":"0617988","NAME":"Danville town","BASENAME":"Danville","STATE":"06","PLACE":"17988"}},{"type":"Feature","geometry":{"type":"Polygon","coordinates":[[[-122.10001,37.9174],[-122.09843,37.91279],[-122.09905,37.91021],[-122.07976,37.9104],[-122.07626,37.91155],[-122.07473,37.90925],[-122.07142,37.90982],[-122.06964,37.90928],[-122.07158,37.90746],[-122.07322,37.90704],[-122.07145,37.90419],[-122.07315,37.90455],[-122.07289,37.90329],[-122.08069,37.90321],[-122.08066,37.90475],[-122.08208,37.90492],[-122.08396,37.90417],[-122.08374,37.90315],[-122.08169,37.90319],[-122.0766,37.90092],[-122.07495,37.90126],[-122.07567,37.90059],[-122.07489,37.89998],[-122.07341,37.90019],[-122.07416,37.89821],[-122.07553,37.8976],[-122.0808,37.89833],[-122.08083,37.89683],[-122.07305,37.89506],[-122.07352,37.89382],[-122.07077,37.89367],[-122.07014,37.89466],[-122.06827,37.8923],[-122.06698,37.89313],[-122.0613,37.89074],[-122.06504,37.88949],[-122.06495,37.88851],[-122.06446,37.88906],[-122.06341,37.88862],[-122.06323,37.88615],[-122.06252,37.88633],[-122.06212,37.88485],[-122.06607,37.88348],[-122.0681,37.88145],[-122.07472,37.88147],[-122.07622,37.88329],[-122.07709,37.88287],[-122.07627,37.88063],[-122.08775,37.88188],[-122.0897,37.88132],[-122.08947,37.87545],[-122.08306,37.86824],[-122.07805,37.85724],[-122.07828,37.85578],[-122.06166,37.84587],[-122.06157,37.84298],[-122.05236,37.8425],[-122.05322,37.86334],[-122.05418,37.86429],[-122.05773,37.86419],[-122.05881,37.8649],[-122.05895,37.87159],[-122.06671,37.87399],[-122.06646,37.88014],[-122.05626,37.88166],[-122.05542,37.88038],[-122.05329,37.88168],[-122.05159,37.88166],[-122.04795,37.87547],[-122.04694,37.87592],[-122.04473,37.87415],[-122.04399,37.87174],[-122.04145,37.86932],[-122.04066,37.86982],[-122.03982,37.86869],[-122.03879,37.86872],[-122.03793,37.86625],[-122.03703,37.86571],[-122.03628,37.86571],[-122.03545,37.86784],[-122.02893,37.8679],[-122.0286,37.86584],[-122.02689,37.86632],[-122.02691,37.86716],[-122.02615,37.86649],[-122.02605,37.8734],[-122.02317,37.87195],[-122.02324,37.86641],[-122.02016,37.86631],[-122.02003,37.87352],[-122.01029,37.87187],[-122.01489,37.88053],[-121.99981,37.88434],[-122.0034,37.89442],[-122.00252,37.89476],[-122.00189,37.89988],[-122.00368,37.89896],[-122.00353,37.89968],[-122.00543,37.8994],[-122.00381,37.90134],[-122.00721,37.90196],[-122.0068,37.90335],[-122.00461,37.90303],[-122.00682,37.90561],[-122.00695,37.90786],[-122.00215,37.90775],[-122.00198,37.91324],[-121.99292,37.9136],[-121.99115,37.91237],[-121.98676,37.9138],[-121.98397,37.91378],[-121.98241,37.9156],[-121.98483,37.91753],[-121.98514,37.9189],[-121.98062,37.92235],[-121.98061,37.92386],[-121.98427,37.92584],[-121.98512,37.92833],[-121.98391,37.92871],[-121.98367,37.92978],[-121.98611,37.93321],[-121.98531,37.93434],[-122.002,37.94632],[-122.01745,37.93561],[-122.01912,37.93559],[-122.02631,37.93147],[-122.02902,37.93445],[-122.03378,37.932],[-122.03513,37.93347],[-122.0337,37.9342],[-122.03489,37.93555],[-122.0332,37.93642],[-122.03587,37.93939],[-122.04667,37.93384],[-122.04931,37.93673],[-122.05285,37.93669],[-122.05392,37.93005],[-122.04762,37.93342],[-122.04735,37.9329],[-122.0477,37.92796],[-122.04994,37.92326],[-122.04868,37.92314],[-122.04662,37.92093],[-122.05092,37.91784],[-122.05333,37.9176],[-122.05363,37.91833],[-122.05513,37.91715],[-122.05916,37.91705],[-122.05847,37.92079],[-122.05589,37.92078],[-122.05522,37.92465],[-122.05776,37.92465],[-122.05826,37.92194],[-122.0608,37.92184],[-122.05973,37.92448],[-122.06036,37.92448],[-122.06056,37.92646],[-122.06019,37.9317],[-122.06159,37.93173],[-122.0614,37.93264],[-122.0735,37.93335],[-122.07351,37.92634],[-122.0862,37.92608],[-122.08947,37.92494],[-122.08952,37.92143],[-122.09247,37.92083],[-122.09326,37.92249],[-122.09634,37.92123],[-122.09648,37.92058],[-122.09471,37.91933],[-122.09255,37.92033],[-122.09177,37.9173],[-122.10001,37.9174]],[[-122.05114,37.88805],[-122.05193,37.88851],[-122.04929,37.89132],[-122.04643,37.89096],[-122.04627,37.89178],[-122.04499,37.89177],[-122.04283,37.89114],[-122.04225,37.892],[-122.04103,37.89038],[-122.04192,37.88981],[-122.03771,37.88788],[-122.03832,37.88709],[-122.03714,37.88652],[-122.03523,37.8882],[-122.03984,37.89043],[-122.03935,37.89094],[-122.04059,37.89182],[-122.03945,37.89163],[-122.03661,37.89329],[-122.035,37.89537],[-122.02927,37.89227],[-122.02487,37.89088],[-122.02559,37.88984],[-122.02422,37.88915],[-122.02452,37.88825],[-122.02293,37.88589],[-122.01931,37.886],[-122.03151,37.88157],[-122.03165,37.87947],[-122.0374,37.87954],[-122.04596,37.88086],[-122.04656,37.88356],[-122.049,37.8833],[-122.05117,37.88682],[-122.04987,37.88733],[-122.05114,37.88805]],[[-122.05126,37.90831],[-122.05034,37.90868],[-122.03868,37.90562],[-122.03754,37.90726],[-122.0389,37.90811],[-122.0377,37.90994],[-122.03632,37.90899],[-122.03449,37.9108],[-122.03357,37.9103],[-122.03259,37.9112],[-122.02754,37.90874],[-122.02747,37.91052],[-122.02592,37.91104],[-122.02664,37.90248],[-122.03346,37.90426],[-122.03309,37.89903],[-122.03412,37.89856],[-122.03614,37.90024],[-122.03885,37.90096],[-122.03836,37.90271],[-122.03674,37.90314],[-122.03869,37.90527],[-122.04153,37.90462],[-122.0437,37.90547],[-122.0443,37.90656],[-122.04639,37.90558],[-122.04825,37.90673],[-122.04921,37.90652],[-122.05126,37.90831]],[[-122.04759,37.89613],[-122.04693,37.89743],[-122.0425,37.8978],[-122.04176,37.89848],[-122.04149,37.89731],[-122.03963,37.89576],[-122.04222,37.89456],[-122.04313,37.89511],[-122.04304,37.89364],[-122.0436,37.89428],[-122.04634,37.89439],[-122.04759,37.89613]]]},"properties":{"GEOID":"0683346","NAME":"Walnut Creek city","BASENAME":"Walnut Creek","STATE":"06","PLACE":"83346"}},{"type":"Feature","geometry":{"type":"Polygon","coordinates":[[[-121.98605,38.01711],[-121.98608,38.01425],[-121.9687,37.99735],[-121.9513,37.9871],[-121.94905,37.98986],[-121.94775,37.99762],[-121.94653,37.99772],[-121.94653,38.00541],[-121.94591,38.00594],[-121.9441,38.00543],[-121.9419,38.00677],[-121.94297,38.00761],[-121.94256,38.0094],[-121.94466,38.00983],[-121.94407,38.01107],[-121.94194,38.01117],[-121.94205,38.01209],[-121.9327,38.01214],[-121.93273,38.00503],[-121.9283,38.00508],[-121.92556,38.01172],[-121.9248,38.01144],[-121.92509,38.01095],[-121.92256,38.01063],[-121.92297,38.00922],[-121.92178,38.00909],[-121.92392,38.00518],[-121.92403,37.99798],[-121.9195,37.99796],[-121.91682,38.00262],[-121.9114,38.00265],[-121.91055,38.0039],[-121.90936,38.00394],[-121.90939,38.00524],[-121.90662,38.00525],[-121.90672,37.98361],[-121.89706,37.98369],[-121.8973,37.99079],[-121.89268,37.99084],[-121.89262,37.9884],[-121.89112,37.98904],[-121.89181,37.99082],[-121.86982,37.99043],[-121.8697,37.983],[-121.86048,37.98316],[-121.86059,37.99053],[-121.85194,37.99044],[-121.85094,37.99239],[-121.8479,37.99506],[-121.85089,37.99799],[-121.85603,37.998],[-121.85663,38.00525],[-121.85555,38.00924],[-121.84032,38.00498],[-121.83812,38.00549],[-121.83625,38.00487],[-121.83321,38.00749],[-121.8449,38.01001],[-121.84244,38.01311],[-121.84238,38.02047],[-121.83823,38.02427],[-121.83827,38.02908],[-121.84229,38.02834],[-121.84608,38.02898],[-121.85217,38.03226],[-121.84938,38.0353],[-121.85329,38.04291],[-121.86958,38.05441],[-121.87271,38.05184],[-121.87824,38.04932],[-121.89333,38.04618],[-121.91014,38.04496],[-121.92882,38.04713],[-121.92852,38.02993],[-121.93121,38.03062],[-121.93277,38.02997],[-121.93286,38.02664],[-121.92693,38.02662],[-121.92681,38.02534],[-121.92774,38.02533],[-121.92763,38.01872],[-121.93278,38.01858],[-121.93276,38.01676],[-121.93478,38.016],[-121.93876,38.01847],[-121.93993,38.01809],[-121.93947,38.01738],[-121.94023,38.0158],[-121.94194,38.01547],[-121.94192,38.0185],[-121.94744,38.01875],[-121.97174,38.02367],[-121.97925,38.02174],[-121.98005,38.02004],[-121.98335,38.01966],[-121.98605,38.01711]]]},"properties":{"GEOID":"0657456","NAME":"Pittsburg city","BASENAME":"Pittsburg","STATE":"06","PLACE":"57456"}},{"type":"Feature","geometry":{"type":"MultiPolygon","coordinates":[[[[-122.44148,37.9618],[-122.44098,37.95742],[-122.43228,37.92982],[-122.37378,37.88373],[-122.31298,37.89732],[-122.30541,37.89816],[-122.30732,37.90065],[-122.30663,37.90151],[-122.30705,37.9025],[-122.30863,37.90091],[-122.30989,37.90202],[-122.30432,37.90441],[-122.31176,37.91599],[-122.31264,37.91599],[-122.31485,37.91908],[-122.32069,37.91924],[-122.3207,37.9273],[-122.32332,37.9311],[-122.32038,37.93112],[-122.32032,37.93834],[-122.31685,37.93831],[-122.32095,37.94801],[-122.32286,37.94971],[-122.32209,37.95136],[-122.32059,37.95181],[-122.31631,37.95097],[-122.31607,37.95281],[-122.31139,37.95141],[-122.31141,37.95267],[-122.30811,37.95267],[-122.308,37.95166],[-122.30952,37.95166],[-122.3096,37.94812],[-122.31136,37.94882],[-122.31131,37.9456],[-122.31217,37.94492],[-122.31161,37.94408],[-122.3076,37.94273],[-122.30319,37.93912],[-122.30367,37.93797],[-122.29709,37.93204],[-122.29224,37.93069],[-122.29064,37.92925],[-122.29186,37.92839],[-122.29127,37.92763],[-122.2918,37.92726],[-122.28965,37.92531],[-122.2867,37.92425],[-122.27907,37.91689],[-122.27793,37.91474],[-122.27337,37.91105],[-122.27085,37.91365],[-122.27222,37.91508],[-122.27553,37.91618],[-122.27634,37.91797],[-122.27773,37.91777],[-122.27936,37.91961],[-122.27067,37.92392],[-122.27061,37.92138],[-122.25461,37.92058],[-122.27106,37.93981],[-122.26089,37.9457],[-122.26428,37.94602],[-122.26748,37.94786],[-122.27037,37.94692],[-122.27081,37.94764],[-122.26901,37.94875],[-122.26932,37.94962],[-122.2714,37.94862],[-122.27168,37.94908],[-122.26966,37.95006],[-122.27142,37.95289],[-122.2728,37.95351],[-122.27611,37.95128],[-122.2773,37.95177],[-122.27924,37.95394],[-122.27711,37.95554],[-122.27832,37.95647],[-122.28032,37.95516],[-122.28263,37.95773],[-122.28666,37.95907],[-122.2888,37.96105],[-122.29078,37.96138],[-122.29,37.96313],[-122.29066,37.96342],[-122.28955,37.9649],[-122.28817,37.9641],[-122.28442,37.96824],[-122.28367,37.96703],[-122.28316,37.96849],[-122.28044,37.96744],[-122.28207,37.96597],[-122.28167,37.96543],[-122.27921,37.96561],[-122.27936,37.96722],[-122.27653,37.96672],[-122.27681,37.96821],[-122.27413,37.96752],[-122.27158,37.96607],[-122.27174,37.96548],[-122.2755,37.96565],[-122.27726,37.96478],[-122.27856,37.96244],[-122.2779,37.96148],[-122.27903,37.96046],[-122.27727,37.95949],[-122.27575,37.96001],[-122.27244,37.9589],[-122.2716,37.95834],[-122.27215,37.95721],[-122.27014,37.95593],[-122.26867,37.95709],[-122.26671,37.95518],[-122.26417,37.95606],[-122.26031,37.9547],[-122.2597,37.95517],[-122.26152,37.95696],[-122.26273,37.95655],[-122.26743,37.958],[-122.26599,37.95928],[-122.26317,37.95937],[-122.25917,37.96236],[-122.25478,37.96335],[-122.2527,37.96],[-122.25186,37.96017],[-122.24757,37.95482],[-122.24345,37.95766],[-122.24708,37.9638],[-122.24634,37.96604],[-122.25006,37.96725],[-122.25342,37.96989],[-122.25697,37.96964],[-122.26069,37.97295],[-122.26782,37.97413],[-122.27439,37.97818],[-122.28335,37.97539],[-122.28603,37.97847],[-122.29038,37.97716],[-122.29127,37.97798],[-122.29384,37.97484],[-122.29609,37.97658],[-122.2982,37.97417],[-122.29653,37.97279],[-122.30227,37.96841],[-122.30182,37.96753],[-122.2997,37.96815],[-122.30014,37.96683],[-122.29813,37.96568],[-122.2965,37.96747],[-122.29754,37.96855],[-122.29568,37.9679],[-122.29378,37.9686],[-122.29377,37.9659],[-122.29286,37.966],[-122.29458,37.96448],[-122.29146,37.96413],[-122.29239,37.96145],[-122.29381,37.9611],[-122.29657,37.96227],[-122.29604,37.96383],[-122.29658,37.96415],[-122.29677,37.96333],[-122.29986,37.96305],[-122.30004,37.96227],[-122.30116,37.96218],[-122.30273,37.9621],[-122.30285,37.9634],[-122.30598,37.96358],[-122.30826,37.96305],[-122.30827,37.96002],[-122.31231,37.96001],[-122.31231,37.96088],[-122.3147,37.9614],[-122.31599,37.96085],[-122.31557,37.9594],[-122.31675,37.95908],[-122.31898,37.96478],[-122.31706,37.96563],[-122.31427,37.96556],[-122.3139,37.96745],[-122.3121,37.9681],[-122.3138,37.96811],[-122.31384,37.97633],[-122.30788,37.97711],[-122.30914,37.97966],[-122.30749,37.98143],[-122.30753,37.98375],[-122.30922,37.98375],[-122.30922,37.98281],[-122.31002,37.9828],[-122.32688,37.99178],[-122.32747,37.99102],[-122.33006,37.99219],[-122.33155,37.99085],[-122.3349,37.99468],[-122.33795,37.99447],[-122.33856,37.99584],[-122.33612,37.99648],[-122.33714,37.99887],[-122.32902,38.00051],[-122.33102,38.00378],[-122.38976,38.02814],[-122.43988,37.97395],[-122.4398,37.9707],[-122.3732,37.97143],[-122.37217,37.97255],[-122.36522,37.97259],[-122.36523,37.9686],[-122.36272,37.9686],[-122.36232,37.97398],[-122.35809,37.97374],[-122.35988,37.95474],[-122.36889,37.95472],[-122.36946,37.95405],[-122.36886,37.95404],[-122.36888,37.95039],[-122.37222,37.95042],[-122.3702,37.95405],[-122.37814,37.95405],[-122.37816,37.95639],[-122.37597,37.95654],[-122.37626,37.96581],[-122.37833,37.96579],[-122.37833,37.9678],[-122.44148,37.96802],[-122.44148,37.9618]],[[-122.35861,37.95045],[-122.35734,37.96332],[-122.35295,37.9799],[-122.34671,37.98076],[-122.34671,37.98156],[-122.33833,37.98156],[-122.34225,37.97561],[-122.34283,37.9737],[-122.34217,37.97362],[-122.34201,37.97201],[-122.34008,37.97228],[-122.33701,37.96932],[-122.33702,37.96777],[-122.33398,37.96636],[-122.3224,37.96767],[-122.32103,37.96608],[-122.32223,37.96529],[-122.32016,37.96555],[-122.31793,37.9587],[-122.32054,37.95674],[-122.3196,37.95562],[-122.31958,37.95686],[-122.31861,37.95667],[-122.31803,37.95493],[-122.31875,37.95404],[-122.3244,37.95385],[-122.32208,37.952],[-122.32323,37.9498],[-122.32485,37.94918],[-122.33239,37.94907],[-122.33351,37.95166],[-122.33885,37.95342],[-122.34032,37.95248],[-122.34253,37.95535],[-122.34682,37.95628],[-122.34741,37.95032],[-122.35861,37.95045]]],[[[-122.36688,37.96056],[-122.36476,37.9605],[-122.36477,37.962],[-122.36683,37.962],[-122.36688,37.96056]]]]},"properties":{"GEOID":"0660620","NAME":"Richmond city","BASENAME":"Richmond","STATE":"06","PLACE":"60620"}},{"type":"Feature","geometry":{"type":"Polygon","coordinates":[[[-122.06457,37.9758],[-122.06404,37.97405],[-122.06282,37.97372],[-122.06071,37.97066],[-122.06318,37.97034],[-122.06113,37.95966],[-122.06028,37.9597],[-122.06108,37.96219],[-122.05657,37.96553],[-122.05282,37.9603],[-122.05228,37.95849],[-122.0535,37.9558],[-122.05286,37.95562],[-122.0538,37.95162],[-122.05241,37.94844],[-122.04978,37.94558],[-122.04979,37.94268],[-122.05139,37.94277],[-122.05195,37.93949],[-122.04667,37.93384],[-122.03587,37.93939],[-122.0332,37.93642],[-122.03489,37.93555],[-122.0337,37.9342],[-122.03513,37.93347],[-122.03378,37.932],[-122.02902,37.93445],[-122.02631,37.93147],[-122.01912,37.93559],[-122.01745,37.93561],[-122.002,37.94632],[-121.98531,37.93434],[-121.98611,37.93321],[-121.98367,37.92978],[-121.98512,37.92776],[-121.98285,37.92476],[-121.98061,37.92386],[-121.98056,37.92697],[-121.96981,37.92682],[-121.96981,37.92581],[-121.96497,37.92508],[-121.96494,37.92688],[-121.96038,37.9269],[-121.96032,37.93764],[-121.95766,37.9376],[-121.95703,37.93407],[-121.94486,37.93398],[-121.94601,37.93736],[-121.94426,37.93734],[-121.94427,37.94123],[-121.95094,37.94124],[-121.95092,37.9485],[-121.95658,37.95163],[-121.95652,37.95253],[-121.9524,37.95565],[-121.95169,37.95425],[-121.95247,37.95362],[-121.951,37.95193],[-121.94695,37.95083],[-121.9441,37.95435],[-121.93933,37.95586],[-121.93283,37.95579],[-121.93302,37.96835],[-121.93538,37.9683],[-121.93532,37.96651],[-121.94044,37.96648],[-121.93914,37.9716],[-121.93914,37.97987],[-121.9687,37.99735],[-121.98772,38.01585],[-121.9964,38.01219],[-121.99729,38.01057],[-121.99804,38.01278],[-122.00215,38.01176],[-122.00878,38.01687],[-122.01052,38.01678],[-122.01247,38.01865],[-122.02283,38.02274],[-122.02621,38.02043],[-122.02778,38.02123],[-122.02746,38.02035],[-122.03396,38.02017],[-122.03424,38.01889],[-122.03263,38.01867],[-122.03191,38.01413],[-122.04236,38.01269],[-122.04215,38.0118],[-122.04606,38.01123],[-122.04541,38.00853],[-122.04647,38.00699],[-122.04839,38.00622],[-122.04803,38.00298],[-122.05003,38.00327],[-122.05394,38.0023],[-122.05326,38.00032],[-122.0561,37.99966],[-122.05715,37.99862],[-122.05078,37.98917],[-122.0506,37.98738],[-122.05253,37.98053],[-122.0559,37.9802],[-122.06155,37.9777],[-122.06405,37.97599],[-122.06373,37.9755],[-122.06457,37.9758]],[[-121.97157,37.97046],[-121.9686,37.97292],[-121.96765,37.97054],[-121.96836,37.96815],[-121.97157,37.97046]],[[-121.96826,37.97312],[-121.96388,37.97283],[-121.95957,37.96917],[-121.96066,37.96855],[-121.9585,37.96838],[-121.96191,37.96712],[-121.96261,37.96562],[-121.96066,37.96459],[-121.96078,37.96387],[-121.95993,37.96485],[-121.95915,37.96448],[-121.96162,37.9615],[-121.96352,37.96239],[-121.96293,37.96315],[-121.96407,37.96363],[-121.96458,37.96297],[-121.96825,37.96561],[-121.96737,37.96655],[-121.96827,37.96721],[-121.96735,37.96808],[-121.96804,37.96872],[-121.96744,37.9683],[-121.96647,37.96913],[-121.96752,37.9699],[-121.96685,37.97171],[-121.96826,37.97312]]]},"properties":{"GEOID":"0616000","NAME":"Concord city","BASENAME":"Concord","STATE":"06","PLACE":"16000"}},{"type":"Feature","geometry":{"type":"Polygon","coordinates":[[[-121.86059,37.99053],[-121.86048,37.98316],[-121.85128,37.98319],[-121.85127,37.96872],[-121.8376,37.96862],[-121.83759,37.96767],[-121.83352,37.96573],[-121.82255,37.96574],[-121.82174,37.96309],[-121.82405,37.95459],[-121.82095,37.95288],[-121.82394,37.95123],[-121.82405,37.93935],[-121.8054,37.93941],[-121.82404,37.9389],[-121.824,37.93537],[-121.81338,37.93216],[-121.80545,37.93224],[-121.80541,37.92938],[-121.78496,37.9219],[-121.77862,37.92085],[-121.77706,37.93119],[-121.778,37.93313],[-121.78722,37.93249],[-121.78724,37.93968],[-121.75082,37.93982],[-121.75078,37.96152],[-121.73242,37.96146],[-121.73239,37.97125],[-121.74344,37.98295],[-121.75064,37.98866],[-121.7564,37.99205],[-121.7535,38.00314],[-121.75216,38.00492],[-121.75306,38.00524],[-121.75237,38.00933],[-121.75076,38.00908],[-121.75077,38.01181],[-121.75088,38.01233],[-121.75715,38.01228],[-121.75717,38.01983],[-121.76424,38.01974],[-121.76533,38.01869],[-121.76749,38.01873],[-121.77217,38.01648],[-121.77957,38.0148],[-121.78993,38.01555],[-121.80026,38.01746],[-121.80013,38.02093],[-121.80127,38.02162],[-121.80931,38.02032],[-121.81567,38.02104],[-121.8313,38.03006],[-121.83827,38.02908],[-121.83823,38.02427],[-121.84238,38.02047],[-121.84244,38.01311],[-121.8449,38.01001],[-121.83321,38.00749],[-121.83625,38.00487],[-121.83812,38.00549],[-121.84032,38.00498],[-121.85555,38.00924],[-121.85663,38.00525],[-121.85603,37.998],[-121.85089,37.99799],[-121.8479,37.99506],[-121.85094,37.99239],[-121.85194,37.99044],[-121.86059,37.99053]],[[-121.85152,37.98694],[-121.85156,37.98928],[-121.84975,37.98975],[-121.84989,37.99045],[-121.84626,37.99048],[-121.84477,37.98933],[-121.84232,37.98934],[-121.84224,37.98554],[-121.85152,37.98694]],[[-121.82505,38.00597],[-121.82507,38.0111],[-121.81968,38.01084],[-121.8199,38.00471],[-121.82505,38.00597]]]},"properties":{"GEOID":"0602252","NAME":"Antioch city","BASENAME":"Antioch","STATE":"06","PLACE":"02252"}}]}