{"type":"FeatureCollection","features":[{"type":"Feature","geometry":{"type":"MultiPolygon","coordinates":[[[[-124.21771,41.75101],[-124.20785,41.74733],[-124.20587,41.74572],[-124.20411,41.74277],[-124.19841,41.74209],[-124.19494,41.73685],[-124.19102,41.73616],[-124.18965,41.73998],[-124.19081,41.74203],[-124.19021,41.74333],[-124.19038,41.75084],[-124.18575,41.74945],[-124.18363,41.75122],[-124.17863,41.74757],[-124.17692,41.74897],[-124.18356,41.75314],[-124.18532,41.75267],[-124.19055,41.75375],[-124.19043,41.76524],[-124.18935,41.76632],[-124.19069,41.76693],[-124.19139,41.76633],[-124.19248,41.76741],[-124.19511,41.76551],[-124.19694,41.76548],[-124.19729,41.7673],[-124.19887,41.76733],[-124.20054,41.77273],[-124.21023,41.77275],[-124.2103,41.76802],[-124.2092,41.76796],[-124.2092,41.76729],[-124.20435,41.76732],[-124.20413,41.76302],[-124.20199,41.76245],[-124.20129,41.76061],[-124.19976,41.76062],[-124.19863,41.7581],[-124.20494,41.75821],[-124.20509,41.7564],[-124.20764,41.75822],[-124.21471,41.75823],[-124.21457,41.75103],[-124.21771,41.75101]]],[[[-124.16012,41.8479],[-124.15141,41.84802],[-124.15131,41.85146],[-124.14265,41.85137],[-124.14195,41.85806],[-124.15437,41.85809],[-124.16012,41.8479]]]]},"properties":{"GEOID":"0617022","NAME":"Crescent City city","BASENAME":"Crescent City","STATE":"06","PLACE":"17022"}}]}