{"type":"FeatureCollection","features":[{"type":"Feature","geometry":{"type":"Polygon","coordinates":[[[-120.85096,38.73263],[-120.84882,38.73045],[-120.84935,38.72959],[-120.84845,38.72812],[-120.84534,38.72648],[-120.84264,38.72675],[-120.84242,38.72591],[-120.83869,38.72506],[-120.8376,38.72579],[-120.83721,38.72489],[-120.83573,38.72559],[-120.83519,38.72448],[-120.83711,38.72347],[-120.83686,38.7218],[-120.8343,38.72301],[-120.83363,38.72114],[-120.83523,38.71956],[-120.83629,38.71672],[-120.83577,38.71657],[-120.83472,38.71652],[-120.83435,38.71838],[-120.83255,38.71753],[-120.83228,38.71943],[-120.83004,38.72038],[-120.82756,38.7199],[-120.82552,38.72021],[-120.8257,38.72092],[-120.82474,38.72117],[-120.82247,38.72073],[-120.82132,38.72145],[-120.82146,38.72886],[-120.81831,38.72997],[-120.81635,38.72872],[-120.81118,38.72863],[-120.8111,38.72628],[-120.81281,38.72774],[-120.81455,38.72789],[-120.81376,38.72603],[-120.81503,38.72676],[-120.81581,38.72608],[-120.81332,38.72426],[-120.81094,38.72508],[-120.81052,38.723],[-120.80598,38.72328],[-120.80565,38.72176],[-120.80408,38.72151],[-120.80305,38.71958],[-120.80174,38.72039],[-120.80056,38.71921],[-120.79909,38.71916],[-120.79868,38.7212],[-120.79925,38.72198],[-120.79849,38.7222],[-120.79657,38.72197],[-120.7966,38.72088],[-120.7917,38.72085],[-120.79128,38.71904],[-120.78946,38.71865],[-120.78951,38.71972],[-120.78828,38.72068],[-120.78601,38.71967],[-120.78484,38.72055],[-120.78127,38.71875],[-120.77823,38.71963],[-120.77684,38.71879],[-120.77627,38.71701],[-120.77443,38.71637],[-120.77363,38.71694],[-120.77364,38.71592],[-120.77265,38.71595],[-120.77038,38.71211],[-120.76951,38.71383],[-120.76727,38.7142],[-120.76916,38.7169],[-120.7692,38.71954],[-120.76497,38.71961],[-120.76495,38.72125],[-120.76779,38.722],[-120.76426,38.72433],[-120.757,38.72436],[-120.75285,38.72619],[-120.75284,38.72682],[-120.7505,38.72679],[-120.75149,38.72904],[-120.75801,38.72918],[-120.75538,38.7311],[-120.75577,38.73319],[-120.75659,38.73366],[-120.75978,38.73304],[-120.76455,38.73352],[-120.76749,38.7344],[-120.76658,38.73679],[-120.77161,38.73567],[-120.7721,38.73693],[-120.77331,38.73695],[-120.77421,38.73834],[-120.77985,38.73817],[-120.77959,38.7389],[-120.78132,38.73987],[-120.78226,38.73802],[-120.78388,38.73753],[-120.78197,38.74012],[-120.78344,38.74079],[-120.78445,38.7396],[-120.78547,38.73995],[-120.78433,38.74145],[-120.7849,38.74281],[-120.78416,38.74323],[-120.78473,38.74311],[-120.78467,38.74482],[-120.78721,38.74478],[-120.78714,38.74846],[-120.79756,38.74868],[-120.79691,38.74772],[-120.79897,38.74739],[-120.79936,38.74798],[-120.80135,38.74648],[-120.80419,38.74662],[-120.804,38.74527],[-120.80249,38.74373],[-120.80063,38.74411],[-120.7997,38.74151],[-120.80305,38.74138],[-120.8078,38.7397],[-120.81037,38.74031],[-120.81041,38.73917],[-120.81172,38.73878],[-120.81073,38.73848],[-120.81074,38.73732],[-120.81693,38.74182],[-120.81925,38.74013],[-120.81883,38.73794],[-120.82035,38.73635],[-120.82218,38.73684],[-120.82258,38.73555],[-120.82051,38.73513],[-120.8207,38.73289],[-120.82228,38.73277],[-120.82299,38.73404],[-120.82378,38.73406],[-120.82393,38.73546],[-120.82259,38.73781],[-120.8236,38.73839],[-120.82596,38.73824],[-120.82646,38.73591],[-120.82727,38.73587],[-120.82687,38.738],[-120.82785,38.73922],[-120.82762,38.74088],[-120.82886,38.7413],[-120.83044,38.7362],[-120.83141,38.7367],[-120.83299,38.73874],[-120.8307,38.74312],[-120.83313,38.74325],[-120.83309,38.74212],[-120.83479,38.74269],[-120.8343,38.74049],[-120.83542,38.74023],[-120.83468,38.73856],[-120.83681,38.73682],[-120.83587,38.73672],[-120.83399,38.73313],[-120.83565,38.7327],[-120.83534,38.73175],[-120.838,38.72967],[-120.83906,38.73046],[-120.8394,38.72918],[-120.83872,38.72847],[-120.83965,38.72765],[-120.84338,38.72841],[-120.8412,38.72923],[-120.84256,38.73039],[-120.84252,38.73114],[-120.8414,38.73114],[-120.84135,38.73267],[-120.85096,38.73263]]]},"properties":{"GEOID":"0657540","NAME":"Placerville city","BASENAME":"Placerville","STATE":"06","PLACE":"57540"}},{"type":"Feature","geometry":{"type":"Polygon","coordinates":[[[-120.02265,38.93385],[-120.02213,38.90859],[-120.01304,38.90862],[-120.01307,38.90134],[-120.00383,38.90135],[-120.00383,38.89415],[-119.99949,38.89415],[-119.99974,38.88947],[-119.99897,38.88935],[-120.00037,38.88199],[-119.99755,38.88154],[-119.99424,38.89413],[-119.99264,38.89416],[-119.98827,38.90867],[-119.98665,38.90868],[-119.98505,38.9105],[-119.98505,38.91169],[-119.98698,38.91311],[-119.98939,38.91214],[-119.98991,38.91112],[-119.99191,38.91148],[-119.99277,38.90603],[-119.99448,38.9039],[-119.99823,38.9063],[-120.00144,38.91124],[-120.00128,38.91203],[-119.99862,38.91236],[-119.99852,38.91094],[-119.99454,38.91094],[-119.99461,38.91536],[-119.99382,38.91571],[-119.99455,38.91595],[-119.99396,38.91595],[-119.99303,38.91923],[-119.98886,38.92198],[-119.9874,38.92178],[-119.9857,38.91911],[-119.98334,38.91871],[-119.98447,38.91777],[-119.98271,38.91617],[-119.97474,38.92147],[-119.97473,38.9234],[-119.97127,38.92346],[-119.97125,38.92119],[-119.96962,38.92059],[-119.96916,38.91803],[-119.96661,38.91627],[-119.95255,38.91624],[-119.9526,38.93068],[-119.94161,38.93071],[-119.94316,38.93276],[-119.94109,38.93377],[-119.94282,38.93611],[-119.93864,38.93797],[-119.93605,38.93433],[-119.93674,38.93555],[-119.93459,38.9365],[-119.93462,38.93432],[-119.93012,38.9344],[-119.93009,38.9395],[-119.93103,38.93951],[-119.931,38.94677],[-119.94059,38.94681],[-119.93956,38.94962],[-119.94262,38.95003],[-119.93707,38.95514],[-119.9358,38.95494],[-119.94962,38.96426],[-119.95025,38.96084],[-119.95444,38.95457],[-119.95881,38.95089],[-119.96411,38.94831],[-119.97675,38.94491],[-119.99132,38.94308],[-120.00083,38.94308],[-120.00641,38.94064],[-120.00931,38.93758],[-120.01799,38.93662],[-120.01795,38.93392],[-120.02265,38.93385]]]},"properties":{"GEOID":"0673108","NAME":"South Lake Tahoe city","BASENAME":"South Lake Tahoe","STATE":"06","PLACE":"73108"}}]}