{"type":"FeatureCollection","features":[{"type":"Feature","geometry":{"type":"MultiPolygon","coordinates":[[[[-120.19984,36.6006],[-120.19981,36.59932],[-120.19724,36.59942],[-120.1972,36.60311],[-120.19052,36.60324],[-120.19047,36.6013],[-120.18805,36.6013],[-120.18803,36.5996],[-120.18331,36.59962],[-120.18327,36.59604],[-120.17337,36.5963],[-120.18272,36.60316],[-120.17865,36.60317],[-120.17891,36.6146],[-120.19744,36.61415],[-120.19745,36.60311],[-120.19978,36.603],[-120.19984,36.6006]]],[[[-120.21902,36.6025],[-120.21552,36.59128],[-120.21119,36.58874],[-120.21303,36.5915],[-120.21689,36.6025],[-120.21902,36.6025]]]]},"properties":{"GEOID":"0667126","NAME":"San Joaquin city","BASENAME":"San Joaquin","STATE":"06","PLACE":"67126"}},{"type":"Feature","geometry":{"type":"MultiPolygon","coordinates":[[[[-120.11252,36.20323],[-120.11238,36.19585],[-120.08555,36.19584],[-120.08566,36.21046],[-120.09458,36.21064],[-120.09459,36.21284],[-120.10181,36.21283],[-120.10182,36.21456],[-120.1036,36.21453],[-120.10355,36.21048],[-120.10804,36.21043],[-120.10797,36.20323],[-120.11252,36.20323]]],[[[-120.08273,36.2106],[-120.07656,36.2104],[-120.07655,36.20884],[-120.06768,36.2089],[-120.0677,36.21062],[-120.07456,36.21068],[-120.06822,36.211],[-120.06807,36.21596],[-120.08273,36.2106]]]]},"properties":{"GEOID":"0636084","NAME":"Huron city","BASENAME":"Huron","STATE":"06","PLACE":"36084"}},{"type":"Feature","geometry":{"type":"Polygon","coordinates":[[[-119.33851,36.61036],[-119.33515,36.60305],[-119.33172,36.60301],[-119.33166,36.61026],[-119.31809,36.61013],[-119.31816,36.61736],[-119.30481,36.61718],[-119.30475,36.63339],[-119.30597,36.63344],[-119.30697,36.63527],[-119.31367,36.63532],[-119.31364,36.63176],[-119.32082,36.63187],[-119.32117,36.63245],[-119.32256,36.63134],[-119.32454,36.63139],[-119.32261,36.62923],[-119.32263,36.62817],[-119.32699,36.62827],[-119.32703,36.6211],[-119.33156,36.62113],[-119.33161,36.61752],[-119.32946,36.61751],[-119.3294,36.61392],[-119.33162,36.61391],[-119.33165,36.61041],[-119.33851,36.61036]]]},"properties":{"GEOID":"0654008","NAME":"Orange Cove city","BASENAME":"Orange Cove","STATE":"06","PLACE":"54008"}},{"type":"Feature","geometry":{"type":"MultiPolygon","coordinates":[[[[-119.57488,36.59648],[-119.57488,36.59594],[-119.56756,36.59591],[-119.56751,36.59779],[-119.56576,36.59782],[-119.56577,36.5996],[-119.56299,36.59948],[-119.55985,36.59779],[-119.54789,36.59776],[-119.54785,36.60318],[-119.5433,36.60315],[-119.54332,36.60489],[-119.52103,36.60461],[-119.52092,36.61195],[-119.51633,36.61192],[-119.51627,36.61544],[-119.5209,36.61545],[-119.52084,36.61937],[-119.52981,36.61925],[-119.52987,36.61141],[-119.53306,36.61173],[-119.53417,36.61202],[-119.53424,36.6185],[-119.53645,36.61822],[-119.53679,36.61913],[-119.53811,36.61912],[-119.53873,36.61442],[-119.54327,36.6146],[-119.54294,36.61946],[-119.54395,36.61946],[-119.54765,36.62242],[-119.54767,36.61947],[-119.55672,36.61961],[-119.5568,36.605],[-119.56584,36.60511],[-119.56578,36.60132],[-119.57013,36.6013],[-119.57018,36.59964],[-119.57487,36.59957],[-119.57488,36.59648]]],[[[-119.52107,36.60025],[-119.51851,36.6002],[-119.51855,36.60175],[-119.52104,36.60175],[-119.52107,36.60025]]],[[[-119.52218,36.59974],[-119.52216,36.5974],[-119.52109,36.5974],[-119.52107,36.59972],[-119.52218,36.59974]]]]},"properties":{"GEOID":"0655856","NAME":"Parlier city","BASENAME":"Parlier","STATE":"06","PLACE":"55856"}},{"type":"Feature","geometry":{"type":"Polygon","coordinates":[[[-119.6958,36.61996],[-119.69574,36.61631],[-119.69123,36.61631],[-119.69126,36.61366],[-119.68687,36.61365],[-119.68681,36.61998],[-119.67698,36.62],[-119.66441,36.60849],[-119.6644,36.60536],[-119.65774,36.60538],[-119.65771,36.60279],[-119.65653,36.60181],[-119.64921,36.60138],[-119.64986,36.60902],[-119.65773,36.60899],[-119.6577,36.61197],[-119.66044,36.61227],[-119.65994,36.61328],[-119.66217,36.61264],[-119.66442,36.61471],[-119.66439,36.61793],[-119.66783,36.61796],[-119.67014,36.61992],[-119.66549,36.61991],[-119.67141,36.62532],[-119.66887,36.62534],[-119.66887,36.63084],[-119.66666,36.63086],[-119.66669,36.6336],[-119.66426,36.63351],[-119.6643,36.63085],[-119.65982,36.63084],[-119.65976,36.63446],[-119.66423,36.63449],[-119.66421,36.64174],[-119.67316,36.64176],[-119.67323,36.63703],[-119.67549,36.63701],[-119.67548,36.6364],[-119.67778,36.63644],[-119.67775,36.63992],[-119.68215,36.63999],[-119.68217,36.63823],[-119.69111,36.63821],[-119.69115,36.63614],[-119.68838,36.63565],[-119.69282,36.63444],[-119.68845,36.63401],[-119.68847,36.63242],[-119.68677,36.63239],[-119.68675,36.63095],[-119.68826,36.63095],[-119.6886,36.63203],[-119.6912,36.632],[-119.69121,36.63085],[-119.69343,36.63081],[-119.69345,36.62719],[-119.6912,36.62719],[-119.69122,36.61996],[-119.6958,36.61996]]]},"properties":{"GEOID":"0625436","NAME":"Fowler city","BASENAME":"Fowler","STATE":"06","PLACE":"25436"}},{"type":"Feature","geometry":{"type":"MultiPolygon","coordinates":[[[[-120.3959,36.75695],[-120.3913,36.75666],[-120.39131,36.74926],[-120.38858,36.74928],[-120.38857,36.74599],[-120.38698,36.74597],[-120.38742,36.72301],[-120.38047,36.72288],[-120.37832,36.72379],[-120.37809,36.73369],[-120.37939,36.73371],[-120.37939,36.73469],[-120.38449,36.73482],[-120.38436,36.74575],[-120.37539,36.7458],[-120.37543,36.74928],[-120.37394,36.74933],[-120.36883,36.74549],[-120.36876,36.74818],[-120.36599,36.74591],[-120.36408,36.74572],[-120.36416,36.75727],[-120.35773,36.75737],[-120.35765,36.76274],[-120.3641,36.76749],[-120.36428,36.77895],[-120.36928,36.77851],[-120.36989,36.77731],[-120.37297,36.77623],[-120.37421,36.77402],[-120.36841,36.76457],[-120.3681,36.75725],[-120.36871,36.75725],[-120.36881,36.76003],[-120.37073,36.76078],[-120.37302,36.76681],[-120.37623,36.76595],[-120.37529,36.76507],[-120.37488,36.76273],[-120.3781,36.76401],[-120.3843,36.77261],[-120.39225,36.76989],[-120.38675,36.76336],[-120.38752,36.764],[-120.39574,36.76389],[-120.3959,36.75695]]],[[[-120.3746,36.77986],[-120.37215,36.77841],[-120.37247,36.78023],[-120.3746,36.77986]]],[[[-120.37657,36.77497],[-120.37542,36.77266],[-120.37326,36.77614],[-120.37657,36.77497]]]]},"properties":{"GEOID":"0646828","NAME":"Mendota city","BASENAME":"Mendota","STATE":"06","PLACE":"46828"}},{"type":"Feature","geometry":{"type":"Polygon","coordinates":[[[-120.08751,36.72017],[-120.0694,36.71981],[-120.06947,36.71299],[-120.07402,36.71295],[-120.07408,36.70567],[-120.06954,36.7057],[-120.06958,36.70627],[-120.06441,36.70574],[-120.06436,36.71306],[-120.05154,36.71311],[-120.05152,36.71892],[-120.0508,36.71959],[-120.04243,36.71835],[-120.04241,36.7204],[-120.03671,36.72042],[-120.03669,36.72244],[-120.04241,36.72087],[-120.04231,36.7351],[-120.04761,36.73494],[-120.0476,36.73673],[-120.05142,36.73673],[-120.0514,36.73493],[-120.05364,36.73494],[-120.05365,36.73672],[-120.06012,36.73664],[-120.06009,36.73859],[-120.0669,36.73853],[-120.06682,36.73487],[-120.07374,36.73479],[-120.0737,36.73833],[-120.07821,36.73832],[-120.07826,36.73475],[-120.08285,36.73474],[-120.08284,36.73115],[-120.08395,36.73114],[-120.08391,36.72745],[-120.08296,36.72744],[-120.08296,36.72567],[-120.08742,36.72564],[-120.08751,36.72017]]]},"properties":{"GEOID":"0638226","NAME":"Kerman city","BASENAME":"Kerman","STATE":"06","PLACE":"38226"}},{"type":"Feature","geometry":{"type":"Polygon","coordinates":[[[-120.48933,36.8817],[-120.47173,36.87054],[-120.47343,36.86927],[-120.46778,36.86404],[-120.46901,36.86288],[-120.4638,36.85779],[-120.46982,36.85301],[-120.46697,36.8514],[-120.46371,36.85245],[-120.45952,36.85511],[-120.45451,36.85105],[-120.45283,36.84864],[-120.45082,36.8445],[-120.45622,36.84225],[-120.45753,36.84013],[-120.45961,36.83961],[-120.46232,36.83717],[-120.46197,36.83521],[-120.45766,36.83517],[-120.45774,36.83226],[-120.45103,36.83234],[-120.44772,36.82705],[-120.45433,36.82481],[-120.44947,36.82159],[-120.43923,36.82164],[-120.43919,36.8246],[-120.44493,36.83178],[-120.44778,36.8377],[-120.44698,36.83739],[-120.44566,36.83976],[-120.43679,36.83727],[-120.43631,36.83802],[-120.43479,36.83705],[-120.42983,36.84566],[-120.43352,36.85052],[-120.43526,36.85101],[-120.43836,36.84986],[-120.44034,36.85001],[-120.43853,36.85449],[-120.43949,36.85571],[-120.44737,36.85657],[-120.44903,36.85845],[-120.44855,36.86022],[-120.45289,36.85997],[-120.45549,36.86195],[-120.45568,36.86352],[-120.45286,36.8651],[-120.45073,36.86815],[-120.4503,36.87122],[-120.45738,36.87303],[-120.45931,36.87491],[-120.4592,36.8761],[-120.46118,36.87502],[-120.46289,36.87689],[-120.46736,36.87848],[-120.46829,36.88038],[-120.47553,36.88008],[-120.47398,36.87802],[-120.47643,36.87628],[-120.48933,36.8817]]]},"properties":{"GEOID":"0624134","NAME":"Firebaugh city","BASENAME":"Firebaugh","STATE":"06","PLACE":"24134"}},{"type":"Feature","geometry":{"type":"Polygon","coordinates":[[[-119.59433,36.54701],[-119.59404,36.54557],[-119.59208,36.54361],[-119.58403,36.53688],[-119.58411,36.5325],[-119.57894,36.53251],[-119.57483,36.52901],[-119.57518,36.52701],[-119.5729,36.52706],[-119.56832,36.52342],[-119.56831,36.52153],[-119.57073,36.52152],[-119.57072,36.51794],[-119.57535,36.51796],[-119.57524,36.51074],[-119.56156,36.51069],[-119.56145,36.50339],[-119.55358,36.50344],[-119.55353,36.50489],[-119.5479,36.50935],[-119.54628,36.50911],[-119.54627,36.51054],[-119.5385,36.51683],[-119.5391,36.51799],[-119.53884,36.53227],[-119.54033,36.53231],[-119.54037,36.53326],[-119.53879,36.53326],[-119.53879,36.53519],[-119.54327,36.5351],[-119.54319,36.53772],[-119.54796,36.53758],[-119.54796,36.53596],[-119.55222,36.53597],[-119.55225,36.53423],[-119.55534,36.53423],[-119.55538,36.53238],[-119.5626,36.53246],[-119.5626,36.52881],[-119.55923,36.5288],[-119.55928,36.52517],[-119.55686,36.52518],[-119.55687,36.52337],[-119.56395,36.52314],[-119.56629,36.52519],[-119.56603,36.52947],[-119.5696,36.52948],[-119.56981,36.5282],[-119.57542,36.53361],[-119.57514,36.5468],[-119.59433,36.54701]]]},"properties":{"GEOID":"0638562","NAME":"Kingsburg city","BASENAME":"Kingsburg","STATE":"06","PLACE":"38562"}},{"type":"Feature","geometry":{"type":"MultiPolygon","coordinates":[[[[-119.47004,36.59487],[-119.46993,36.59305],[-119.46868,36.5914],[-119.46525,36.5894],[-119.46078,36.58844],[-119.46056,36.58656],[-119.46658,36.58649],[-119.46659,36.58269],[-119.46948,36.58191],[-119.46958,36.57452],[-119.46753,36.57627],[-119.46645,36.57653],[-119.46643,36.57538],[-119.46311,36.57784],[-119.45778,36.57791],[-119.45754,36.57526],[-119.45328,36.57885],[-119.4488,36.57885],[-119.44882,36.5753],[-119.44436,36.57538],[-119.44432,36.5858],[-119.44257,36.58581],[-119.44041,36.58373],[-119.44036,36.587],[-119.4308,36.58274],[-119.43077,36.58078],[-119.42635,36.58076],[-119.42927,36.58244],[-119.42152,36.58236],[-119.42232,36.58587],[-119.41979,36.58579],[-119.41947,36.58837],[-119.41658,36.58949],[-119.42305,36.58962],[-119.42309,36.59327],[-119.42199,36.59329],[-119.42196,36.59502],[-119.42643,36.595],[-119.42642,36.59683],[-119.43093,36.59686],[-119.43092,36.60048],[-119.42639,36.60046],[-119.42641,36.5987],[-119.42195,36.5987],[-119.42193,36.60408],[-119.42625,36.60407],[-119.42624,36.60594],[-119.43088,36.60594],[-119.43085,36.61135],[-119.43979,36.61139],[-119.43978,36.60955],[-119.44363,36.60954],[-119.44096,36.61503],[-119.441,36.61868],[-119.4443,36.61869],[-119.44429,36.62231],[-119.44875,36.62233],[-119.44875,36.61871],[-119.4465,36.6187],[-119.44648,36.61486],[-119.44875,36.61487],[-119.44876,36.61407],[-119.45092,36.61455],[-119.4509,36.61871],[-119.45769,36.61873],[-119.45768,36.61147],[-119.46506,36.61146],[-119.46517,36.60706],[-119.46642,36.60481],[-119.46939,36.60443],[-119.4694,36.60255],[-119.46839,36.60254],[-119.46874,36.60161],[-119.46745,36.60165],[-119.46629,36.60358],[-119.46919,36.59886],[-119.47004,36.59487]]],[[[-119.45303,36.66948],[-119.45206,36.6681],[-119.45216,36.66229],[-119.44859,36.66227],[-119.44853,36.6737],[-119.45041,36.6737],[-119.45105,36.67676],[-119.45294,36.67678],[-119.45303,36.66948]]]]},"properties":{"GEOID":"0660242","NAME":"Reedley city","BASENAME":"Reedley","STATE":"06","PLACE":"60242"}},{"type":"Feature","geometry":{"type":"Polygon","coordinates":[[[-119.64629,36.59182],[-119.63744,36.58355],[-119.63766,36.57631],[-119.63102,36.57636],[-119.6308,36.57249],[-119.63317,36.57251],[-119.63317,36.57192],[-119.63094,36.57194],[-119.63095,36.56882],[-119.63539,36.56879],[-119.63536,36.56346],[-119.62875,36.56348],[-119.62876,36.55437],[-119.62427,36.5544],[-119.62423,36.55801],[-119.61979,36.55803],[-119.61976,36.55326],[-119.61864,36.55326],[-119.61436,36.55456],[-119.61342,36.5562],[-119.6108,36.55624],[-119.61084,36.55798],[-119.60964,36.55828],[-119.60618,36.55532],[-119.60639,36.54702],[-119.60202,36.54702],[-119.60199,36.53805],[-119.59755,36.53796],[-119.59754,36.53975],[-119.58844,36.54061],[-119.59429,36.5461],[-119.59433,36.54701],[-119.59089,36.54693],[-119.59896,36.55431],[-119.5951,36.55434],[-119.59516,36.56161],[-119.60179,36.56161],[-119.60176,36.56518],[-119.59296,36.56518],[-119.59297,36.57233],[-119.59735,36.57242],[-119.59733,36.57156],[-119.60176,36.57149],[-119.60179,36.57617],[-119.59569,36.57618],[-119.59568,36.57972],[-119.5929,36.57972],[-119.59288,36.58337],[-119.59914,36.58321],[-119.6003,36.58378],[-119.59926,36.58607],[-119.59505,36.59083],[-119.60181,36.59079],[-119.6018,36.59247],[-119.60616,36.59248],[-119.60615,36.59068],[-119.61061,36.59156],[-119.6106,36.58981],[-119.61742,36.59075],[-119.61741,36.59167],[-119.61517,36.59168],[-119.61512,36.5931],[-119.61969,36.59308],[-119.6197,36.59812],[-119.62574,36.5981],[-119.62642,36.59749],[-119.62632,36.59079],[-119.62406,36.59078],[-119.62524,36.58897],[-119.62639,36.58898],[-119.62639,36.58719],[-119.6292,36.58721],[-119.63017,36.58808],[-119.63603,36.58813],[-119.64102,36.59269],[-119.64638,36.59269],[-119.64629,36.59182]]]},"properties":{"GEOID":"0670882","NAME":"Selma city","BASENAME":"Selma","STATE":"06","PLACE":"70882"}},{"type":"Feature","geometry":{"type":"MultiPolygon","coordinates":[[[[-120.37576,36.14005],[-120.37572,36.13647],[-120.37235,36.13646],[-120.37226,36.12924],[-120.37022,36.12925],[-120.37437,36.12214],[-120.3725,36.12223],[-120.36995,36.12643],[-120.36909,36.12589],[-120.366,36.12928],[-120.32585,36.12954],[-120.32586,36.13668],[-120.34558,36.13665],[-120.34557,36.13751],[-120.34028,36.14188],[-120.33987,36.1436],[-120.33243,36.14165],[-120.32929,36.14331],[-120.32997,36.14388],[-120.33665,36.14393],[-120.33666,36.14543],[-120.33859,36.14571],[-120.33967,36.14766],[-120.33951,36.15354],[-120.34557,36.15353],[-120.34554,36.15837],[-120.35449,36.15833],[-120.35464,36.17686],[-120.35378,36.17998],[-120.35468,36.18017],[-120.36374,36.18004],[-120.36375,36.17269],[-120.36126,36.1728],[-120.36116,36.1666],[-120.35692,36.16664],[-120.35986,36.15883],[-120.36682,36.16545],[-120.36796,36.16545],[-120.36352,36.16063],[-120.3634,36.1545],[-120.37063,36.15452],[-120.37052,36.15108],[-120.3724,36.15103],[-120.37236,36.14012],[-120.37576,36.14005]]],[[[-120.25415,36.13708],[-120.2541,36.12275],[-120.23629,36.12298],[-120.23607,36.13727],[-120.25415,36.13708]]],[[[-120.28162,36.13692],[-120.28137,36.11544],[-120.27176,36.11536],[-120.27178,36.13698],[-120.28162,36.13692]]],[[[-120.30157,36.16728],[-120.29882,36.16483],[-120.3008,36.15568],[-120.2984,36.15517],[-120.29686,36.16048],[-120.29532,36.15942],[-120.29518,36.15161],[-120.29136,36.15162],[-120.29145,36.15728],[-120.28998,36.15617],[-120.28667,36.1589],[-120.29107,36.1624],[-120.29045,36.16293],[-120.29143,36.16373],[-120.29205,36.16319],[-120.29545,36.16576],[-120.29478,36.16834],[-120.29738,36.169],[-120.29782,36.16774],[-120.29941,36.16901],[-120.30157,36.16728]]]]},"properties":{"GEOID":"0614274","NAME":"Coalinga city","BASENAME":"Coalinga","STATE":"06","PLACE":"14274"}},{"type":"Feature","geometry":{"type":"MultiPolygon","coordinates":[[[[-119.58336,36.70676],[-119.58326,36.69945],[-119.57883,36.6995],[-119.57884,36.69224],[-119.57194,36.69228],[-119.57201,36.68857],[-119.57432,36.68857],[-119.57434,36.68495],[-119.56545,36.68495],[-119.56545,36.68859],[-119.56101,36.68857],[-119.56092,36.69045],[-119.55875,36.69046],[-119.55872,36.69224],[-119.55637,36.69225],[-119.55651,36.67774],[-119.54514,36.67774],[-119.5448,36.68123],[-119.53761,36.68127],[-119.53868,36.67921],[-119.53556,36.67923],[-119.53553,36.67747],[-119.53118,36.67751],[-119.53106,36.6813],[-119.5293,36.68126],[-119.52928,36.68842],[-119.53376,36.68847],[-119.53377,36.68964],[-119.5369,36.68893],[-119.53676,36.69248],[-119.54273,36.69246],[-119.53972,36.70654],[-119.54297,36.70676],[-119.54299,36.71412],[-119.54739,36.71405],[-119.54751,36.71851],[-119.55188,36.71851],[-119.55187,36.73589],[-119.56077,36.73593],[-119.56083,36.72841],[-119.55837,36.72842],[-119.55836,36.72659],[-119.56168,36.72657],[-119.56167,36.72474],[-119.55835,36.72476],[-119.55833,36.72126],[-119.57417,36.72115],[-119.57412,36.72037],[-119.57867,36.72031],[-119.57866,36.71574],[-119.58316,36.71573],[-119.58336,36.70676]]],[[[-119.54451,36.6485],[-119.54277,36.64293],[-119.53968,36.64122],[-119.53845,36.6412],[-119.53841,36.6448],[-119.53392,36.64476],[-119.53388,36.64833],[-119.54451,36.6485]]]]},"properties":{"GEOID":"0667056","NAME":"Sanger city","BASENAME":"Sanger","STATE":"06","PLACE":"67056"}},{"type":"Feature","geometry":{"type":"MultiPolygon","coordinates":[[[[-119.73268,36.80905],[-119.73174,36.80869],[-119.73166,36.79421],[-119.71813,36.79403],[-119.71812,36.78671],[-119.70916,36.78672],[-119.70916,36.80124],[-119.70028,36.80125],[-119.69989,36.79333],[-119.6999,36.79495],[-119.69556,36.79695],[-119.69557,36.80124],[-119.69107,36.80123],[-119.69113,36.79036],[-119.69994,36.79059],[-119.7003,36.79308],[-119.70025,36.78302],[-119.69115,36.78308],[-119.69109,36.78943],[-119.68215,36.78945],[-119.68213,36.79255],[-119.67008,36.79208],[-119.66363,36.78916],[-119.65311,36.78721],[-119.65044,36.78711],[-119.65053,36.79021],[-119.64596,36.79022],[-119.64595,36.78728],[-119.64186,36.78769],[-119.64028,36.78625],[-119.63881,36.78624],[-119.63043,36.78249],[-119.63029,36.78407],[-119.6279,36.78418],[-119.62789,36.7902],[-119.62166,36.79022],[-119.62147,36.7892],[-119.61926,36.78926],[-119.61927,36.79016],[-119.61475,36.79022],[-119.61478,36.79385],[-119.6193,36.79384],[-119.61929,36.80112],[-119.62384,36.80112],[-119.62385,36.80292],[-119.62589,36.80291],[-119.62596,36.80827],[-119.62794,36.80828],[-119.62794,36.81929],[-119.62994,36.81964],[-119.63001,36.82286],[-119.63692,36.8229],[-119.63692,36.82055],[-119.64014,36.82293],[-119.63837,36.82104],[-119.64144,36.82106],[-119.64145,36.8193],[-119.64594,36.81928],[-119.64592,36.82296],[-119.65492,36.82292],[-119.65492,36.82478],[-119.65718,36.82478],[-119.65719,36.82661],[-119.65602,36.82799],[-119.65492,36.82796],[-119.65493,36.82967],[-119.65668,36.82968],[-119.65667,36.83112],[-119.65744,36.83115],[-119.65744,36.83559],[-119.65498,36.83559],[-119.65498,36.8374],[-119.65601,36.8374],[-119.65537,36.83829],[-119.65643,36.83932],[-119.65606,36.84364],[-119.65928,36.84531],[-119.62453,36.86521],[-119.62806,36.86636],[-119.68851,36.86654],[-119.68854,36.85927],[-119.69075,36.85927],[-119.69077,36.85475],[-119.68855,36.85474],[-119.68854,36.85655],[-119.684,36.85699],[-119.68393,36.86392],[-119.68112,36.86324],[-119.68112,36.85923],[-119.67958,36.85923],[-119.67805,36.85923],[-119.67808,36.86357],[-119.67499,36.86392],[-119.67501,36.8602],[-119.6733,36.85965],[-119.67306,36.85711],[-119.67187,36.85555],[-119.67501,36.85557],[-119.67505,36.85195],[-119.70214,36.85201],[-119.70213,36.8593],[-119.69858,36.86171],[-119.69574,36.86255],[-119.69302,36.86603],[-119.69294,36.87389],[-119.70206,36.87386],[-119.70206,36.87059],[-119.70659,36.87025],[-119.70658,36.86661],[-119.72979,36.8668],[-119.72937,36.82444],[-119.72722,36.81992],[-119.72727,36.81215],[-119.72933,36.81214],[-119.73268,36.80905]]],[[[-119.70074,36.94338],[-119.69674,36.94002],[-119.69219,36.93999],[-119.69202,36.93897],[-119.6947,36.93792],[-119.69184,36.93807],[-119.69183,36.93902],[-119.68887,36.93979],[-119.68263,36.93968],[-119.67832,36.943],[-119.68073,36.94566],[-119.6816,36.94572],[-119.68878,36.94452],[-119.69171,36.9431],[-119.69156,36.9488],[-119.70066,36.94887],[-119.70074,36.94338]]],[[[-119.61479,36.79625],[-119.61478,36.79385],[-119.61209,36.79386],[-119.61207,36.79625],[-119.61479,36.79625]]]]},"properties":{"GEOID":"0614218","NAME":"Clovis city","BASENAME":"Clovis","STATE":"06","PLACE":"14218"}},{"type":"Feature","geometry":{"type":"MultiPolygon","coordinates":[[[[-119.93259,36.84446],[-119.93237,36.84321],[-119.9259,36.8398],[-119.90485,36.82253],[-119.90932,36.82535],[-119.91655,36.82585],[-119.91655,36.82052],[-119.9178,36.82049],[-119.91782,36.8224],[-119.9211,36.82236],[-119.9211,36.82055],[-119.9233,36.82051],[-119.92329,36.81787],[-119.92567,36.81777],[-119.9256,36.81231],[-119.92101,36.81149],[-119.921,36.80788],[-119.912,36.80794],[-119.91194,36.80317],[-119.90741,36.80352],[-119.90744,36.80068],[-119.9255,36.80074],[-119.92531,36.7825],[-119.92191,36.78248],[-119.92192,36.77886],[-119.91629,36.7789],[-119.91637,36.79343],[-119.90164,36.79349],[-119.90064,36.79531],[-119.89838,36.79532],[-119.89838,36.79352],[-119.89387,36.79353],[-119.89389,36.79533],[-119.89165,36.79535],[-119.89165,36.7899],[-119.90286,36.78985],[-119.90287,36.79167],[-119.90736,36.79165],[-119.90731,36.78257],[-119.89383,36.78261],[-119.89382,36.78172],[-119.88928,36.78174],[-119.88931,36.77903],[-119.88705,36.77903],[-119.88707,36.7812],[-119.88651,36.78121],[-119.88651,36.78003],[-119.88369,36.78004],[-119.88371,36.78265],[-119.88258,36.78266],[-119.8826,36.78358],[-119.88036,36.7836],[-119.88038,36.78632],[-119.87128,36.78635],[-119.87132,36.78815],[-119.8623,36.78818],[-119.86233,36.78638],[-119.86683,36.78638],[-119.86682,36.78454],[-119.86952,36.78452],[-119.8695,36.78369],[-119.87131,36.78363],[-119.87131,36.78277],[-119.86907,36.78237],[-119.86903,36.78008],[-119.86756,36.7791],[-119.86883,36.7791],[-119.86883,36.77744],[-119.87127,36.77743],[-119.8713,36.77822],[-119.87345,36.77753],[-119.87525,36.77834],[-119.87526,36.77724],[-119.8803,36.77724],[-119.8803,36.77907],[-119.88483,36.77904],[-119.88468,36.77539],[-119.88928,36.77539],[-119.88926,36.77175],[-119.8848,36.77177],[-119.88477,36.77355],[-119.88029,36.77361],[-119.88027,36.76815],[-119.88925,36.76811],[-119.88925,36.76994],[-119.89379,36.7699],[-119.89377,36.76815],[-119.88943,36.76817],[-119.89375,36.76808],[-119.89375,36.76627],[-119.88922,36.76629],[-119.88921,36.76536],[-119.88924,36.76085],[-119.89033,36.76086],[-119.89038,36.76448],[-119.89372,36.76446],[-119.89375,36.75716],[-119.89232,36.75716],[-119.89236,36.75876],[-119.89102,36.75876],[-119.89102,36.75726],[-119.88926,36.75798],[-119.88924,36.75726],[-119.88474,36.75728],[-119.88474,36.76085],[-119.88248,36.76091],[-119.8825,36.76456],[-119.88469,36.76454],[-119.88476,36.76631],[-119.88026,36.76633],[-119.88025,36.7609],[-119.8735,36.76092],[-119.87353,36.76362],[-119.87125,36.76364],[-119.87127,36.76815],[-119.86678,36.76821],[-119.86676,36.76448],[-119.86224,36.76452],[-119.86226,36.76988],[-119.86055,36.76988],[-119.86141,36.77375],[-119.86007,36.77373],[-119.86008,36.77187],[-119.85597,36.77188],[-119.85598,36.77461],[-119.85674,36.77461],[-119.85675,36.77544],[-119.85332,36.77552],[-119.85334,36.77732],[-119.84888,36.77731],[-119.8486,36.77555],[-119.84664,36.77556],[-119.84662,36.77375],[-119.85221,36.7737],[-119.85221,36.77261],[-119.85331,36.77259],[-119.85331,36.77004],[-119.85784,36.77035],[-119.85777,36.76825],[-119.8466,36.76829],[-119.84662,36.77005],[-119.84428,36.77007],[-119.84426,36.76469],[-119.84658,36.76467],[-119.84655,36.76288],[-119.84544,36.76288],[-119.84546,36.76105],[-119.84662,36.76104],[-119.84655,36.75557],[-119.84766,36.75556],[-119.84762,36.75197],[-119.84651,36.75197],[-119.8465,36.75014],[-119.84424,36.75017],[-119.84428,36.75745],[-119.83553,36.75745],[-119.83554,36.75565],[-119.83334,36.7554],[-119.83269,36.75383],[-119.83338,36.75384],[-119.83337,36.75166],[-119.83554,36.75106],[-119.83554,36.74626],[-119.84108,36.74626],[-119.84108,36.75016],[-119.8432,36.75015],[-119.84326,36.74625],[-119.85547,36.7463],[-119.85549,36.74277],[-119.85781,36.74275],[-119.85786,36.73913],[-119.85561,36.73915],[-119.85558,36.74056],[-119.8533,36.74086],[-119.85165,36.74092],[-119.85165,36.74017],[-119.84659,36.74029],[-119.84662,36.73917],[-119.84434,36.7392],[-119.84438,36.73568],[-119.85118,36.73561],[-119.85118,36.73224],[-119.85341,36.73222],[-119.85338,36.7356],[-119.85791,36.73555],[-119.85792,36.73191],[-119.8624,36.73187],[-119.86244,36.72827],[-119.84893,36.72837],[-119.84892,36.72952],[-119.84668,36.72955],[-119.84669,36.72838],[-119.84442,36.72839],[-119.84448,36.71389],[-119.83579,36.71394],[-119.83568,36.72302],[-119.82898,36.72304],[-119.82898,36.72129],[-119.82665,36.72131],[-119.82689,36.7067],[-119.83261,36.70668],[-119.83253,36.69939],[-119.83578,36.69936],[-119.83568,36.69215],[-119.82684,36.69219],[-119.82686,36.69579],[-119.82596,36.69579],[-119.82563,36.70671],[-119.80212,36.70686],[-119.80213,36.70315],[-119.80314,36.70318],[-119.8032,36.69955],[-119.80884,36.69953],[-119.80884,36.69403],[-119.81111,36.69399],[-119.81147,36.69215],[-119.79979,36.69216],[-119.79978,36.68935],[-119.79525,36.68954],[-119.79526,36.69104],[-119.7934,36.69104],[-119.79342,36.69229],[-119.78265,36.69225],[-119.78265,36.69162],[-119.78173,36.69162],[-119.78174,36.68685],[-119.77721,36.68684],[-119.77719,36.6779],[-119.75598,36.67781],[-119.75596,36.6761],[-119.75471,36.67612],[-119.75473,36.67068],[-119.73902,36.67068],[-119.73902,36.67249],[-119.73505,36.6725],[-119.73938,36.67611],[-119.74569,36.67614],[-119.74569,36.67792],[-119.75007,36.67792],[-119.75022,36.69238],[-119.74562,36.69241],[-119.74563,36.69604],[-119.73657,36.69605],[-119.73658,36.69875],[-119.74341,36.69877],[-119.74343,36.69968],[-119.74564,36.69965],[-119.74562,36.70242],[-119.74952,36.70235],[-119.75013,36.69996],[-119.75455,36.7003],[-119.75464,36.70596],[-119.75919,36.70596],[-119.75924,36.70365],[-119.75998,36.70365],[-119.76365,36.70688],[-119.76366,36.71271],[-119.76243,36.71341],[-119.76367,36.71342],[-119.76367,36.71415],[-119.76784,36.71414],[-119.76777,36.71656],[-119.77194,36.71676],[-119.77195,36.71978],[-119.76695,36.71976],[-119.76695,36.71842],[-119.75917,36.71777],[-119.75917,36.72057],[-119.7591,36.71993],[-119.75689,36.71994],[-119.75689,36.72139],[-119.75357,36.7214],[-119.75356,36.71773],[-119.75466,36.71775],[-119.75467,36.71413],[-119.7585,36.71416],[-119.75852,36.71212],[-119.75469,36.71212],[-119.75464,36.70596],[-119.74973,36.70682],[-119.73641,36.70697],[-119.73644,36.70331],[-119.7332,36.70343],[-119.73321,36.69982],[-119.73104,36.69991],[-119.73102,36.70356],[-119.72957,36.70364],[-119.7307,36.70722],[-119.70689,36.70753],[-119.7068,36.70968],[-119.703,36.70965],[-119.70297,36.7075],[-119.69995,36.70748],[-119.69996,36.71029],[-119.69438,36.71029],[-119.69439,36.71121],[-119.69372,36.71122],[-119.6933,36.70745],[-119.67302,36.70746],[-119.67302,36.70951],[-119.66971,36.70953],[-119.66973,36.71122],[-119.67756,36.71118],[-119.67758,36.71673],[-119.6821,36.71627],[-119.68216,36.72204],[-119.67307,36.72204],[-119.67304,36.71671],[-119.66857,36.71671],[-119.66857,36.71855],[-119.66407,36.71855],[-119.66414,36.72457],[-119.65951,36.72454],[-119.65951,36.72508],[-119.65657,36.72546],[-119.65834,36.72797],[-119.65976,36.72794],[-119.66102,36.72954],[-119.66705,36.72959],[-119.66706,36.7308],[-119.6686,36.73072],[-119.66859,36.73322],[-119.66405,36.73326],[-119.66406,36.7369],[-119.66861,36.73689],[-119.66851,36.7431],[-119.67032,36.74401],[-119.66855,36.74415],[-119.66852,36.74865],[-119.66396,36.74868],[-119.66394,36.75029],[-119.67302,36.75032],[-119.67303,36.75385],[-119.67645,36.75385],[-119.67645,36.75179],[-119.67812,36.75251],[-119.67811,36.75033],[-119.68197,36.75035],[-119.68201,36.75126],[-119.68268,36.75126],[-119.68267,36.75035],[-119.68651,36.75037],[-119.68653,36.75305],[-119.68809,36.75309],[-119.68887,36.75304],[-119.68887,36.75038],[-119.69108,36.75039],[-119.69108,36.75133],[-119.69224,36.75131],[-119.69222,36.75039],[-119.70014,36.75043],[-119.70036,36.7539],[-119.69808,36.7539],[-119.69813,36.75318],[-119.69693,36.75314],[-119.69693,36.75208],[-119.69563,36.75207],[-119.69569,36.75746],[-119.69742,36.75746],[-119.69742,36.75824],[-119.69678,36.75824],[-119.69678,36.75931],[-119.69565,36.75927],[-119.69557,36.76107],[-119.69111,36.76104],[-119.69107,36.76493],[-119.68781,36.76493],[-119.68779,36.77214],[-119.68221,36.77212],[-119.68213,36.76494],[-119.67309,36.76495],[-119.67308,36.76115],[-119.67984,36.76114],[-119.67981,36.7574],[-119.67077,36.75745],[-119.67083,36.76115],[-119.66633,36.76116],[-119.66638,36.76504],[-119.66861,36.76486],[-119.66858,36.77396],[-119.66405,36.77401],[-119.66403,36.76486],[-119.65956,36.76484],[-119.65955,36.76854],[-119.65692,36.77044],[-119.655,36.77036],[-119.65502,36.77213],[-119.65634,36.77213],[-119.65617,36.77569],[-119.655,36.77567],[-119.65502,36.7839],[-119.65051,36.78389],[-119.65051,36.78615],[-119.65502,36.78617],[-119.65502,36.78761],[-119.66363,36.78916],[-119.67008,36.79208],[-119.682,36.79256],[-119.68215,36.78945],[-119.69109,36.78943],[-119.69115,36.78308],[-119.70025,36.78302],[-119.7003,36.7851],[-119.70243,36.78339],[-119.70244,36.78671],[-119.71812,36.78671],[-119.71813,36.79403],[-119.73166,36.79421],[-119.73174,36.80869],[-119.73268,36.80905],[-119.72933,36.81214],[-119.72727,36.81215],[-119.72718,36.81942],[-119.72935,36.82416],[-119.72968,36.84942],[-119.73132,36.84941],[-119.73134,36.85215],[-119.72971,36.85223],[-119.72975,36.86316],[-119.73434,36.8631],[-119.73443,36.86669],[-119.72979,36.8668],[-119.72995,36.90036],[-119.73227,36.90503],[-119.72856,36.91051],[-119.74284,36.91033],[-119.74284,36.91117],[-119.74781,36.90948],[-119.75222,36.90552],[-119.75767,36.90293],[-119.76299,36.90257],[-119.76695,36.89702],[-119.76634,36.89568],[-119.76857,36.89567],[-119.77104,36.89391],[-119.7755,36.89279],[-119.77841,36.88814],[-119.78381,36.88816],[-119.78625,36.8901],[-119.78908,36.89011],[-119.78525,36.88562],[-119.78555,36.87981],[-119.78867,36.87606],[-119.79131,36.87648],[-119.79284,36.87544],[-119.79288,36.87621],[-119.79739,36.87495],[-119.80267,36.86583],[-119.81208,36.86376],[-119.81442,36.86147],[-119.81513,36.85996],[-119.81232,36.85721],[-119.81353,36.84991],[-119.82342,36.84833],[-119.83114,36.85171],[-119.83209,36.8491],[-119.83683,36.85018],[-119.8446,36.85041],[-119.84634,36.84978],[-119.84772,36.85036],[-119.84774,36.85153],[-119.84441,36.85088],[-119.84221,36.85685],[-119.84439,36.85681],[-119.84438,36.86058],[-119.84522,36.86052],[-119.84793,36.85882],[-119.85106,36.85288],[-119.85491,36.85138],[-119.85681,36.85313],[-119.85689,36.85205],[-119.85855,36.85404],[-119.85906,36.85281],[-119.85844,36.84971],[-119.86118,36.84726],[-119.86186,36.84768],[-119.86208,36.84671],[-119.86568,36.84562],[-119.86586,36.85113],[-119.87441,36.85202],[-119.87503,36.85376],[-119.87938,36.85551],[-119.87938,36.85629],[-119.88267,36.85873],[-119.88464,36.85925],[-119.88679,36.85805],[-119.88763,36.85373],[-119.88966,36.85194],[-119.89659,36.85252],[-119.90402,36.85155],[-119.9059,36.85043],[-119.90929,36.84627],[-119.91539,36.84496],[-119.91849,36.84512],[-119.92356,36.84783],[-119.92809,36.84848],[-119.93259,36.84446]],[[-119.66326,36.77213],[-119.66326,36.77399],[-119.66114,36.77396],[-119.66112,36.77213],[-119.66326,36.77213]],[[-119.87465,36.84266],[-119.87019,36.83945],[-119.87128,36.83862],[-119.87455,36.83856],[-119.87465,36.84266]],[[-119.82022,36.84747],[-119.81347,36.84953],[-119.81442,36.84767],[-119.82009,36.84468],[-119.82022,36.84747]],[[-119.87481,36.84451],[-119.87073,36.84283],[-119.86565,36.84345],[-119.8655,36.83803],[-119.8722,36.84286],[-119.87469,36.84315],[-119.87481,36.84451]],[[-119.80832,36.8342],[-119.8083,36.83492],[-119.80379,36.83496],[-119.80377,36.83368],[-119.8016,36.83371],[-119.8011,36.83193],[-119.80603,36.83189],[-119.80598,36.83008],[-119.8083,36.83008],[-119.80832,36.8342]],[[-119.73876,36.84187],[-119.73874,36.84465],[-119.73198,36.84476],[-119.73196,36.8412],[-119.73868,36.84125],[-119.73876,36.84187]],[[-119.72645,36.73953],[-119.72641,36.74318],[-119.71945,36.74314],[-119.71946,36.74245],[-119.72056,36.74246],[-119.72058,36.74124],[-119.71828,36.74123],[-119.71831,36.73951],[-119.72645,36.73953]],[[-119.84753,36.83993],[-119.84752,36.84078],[-119.83537,36.84083],[-119.83535,36.83906],[-119.83993,36.83904],[-119.83992,36.8382],[-119.84506,36.83746],[-119.84518,36.8395],[-119.84753,36.83993]],[[-119.76575,36.88101],[-119.75665,36.88116],[-119.75671,36.87752],[-119.76573,36.87749],[-119.76575,36.88101]],[[-119.73198,36.7216],[-119.72745,36.72184],[-119.72745,36.72491],[-119.7217,36.72498],[-119.7217,36.72211],[-119.72293,36.72205],[-119.72299,36.71836],[-119.73195,36.71799],[-119.73198,36.7216]],[[-119.86324,36.84414],[-119.85721,36.84743],[-119.85616,36.84702],[-119.85621,36.84796],[-119.85406,36.84968],[-119.85481,36.84718],[-119.85249,36.8469],[-119.85307,36.84587],[-119.8542,36.84701],[-119.85514,36.84664],[-119.85457,36.84346],[-119.85263,36.84398],[-119.85054,36.8487],[-119.84769,36.8471],[-119.84752,36.84156],[-119.85653,36.84124],[-119.85655,36.84239],[-119.85879,36.84241],[-119.85884,36.84416],[-119.86324,36.84414]],[[-119.71671,36.74107],[-119.71602,36.74108],[-119.71656,36.74199],[-119.71602,36.7468],[-119.71377,36.7468],[-119.71371,36.75018],[-119.70916,36.74924],[-119.70916,36.75042],[-119.70156,36.75042],[-119.70081,36.74953],[-119.70045,36.7477],[-119.70112,36.74708],[-119.70696,36.74691],[-119.70695,36.74588],[-119.70534,36.7459],[-119.70563,36.74316],[-119.70657,36.74315],[-119.70659,36.74399],[-119.70726,36.74398],[-119.70725,36.74315],[-119.70922,36.74314],[-119.70924,36.74044],[-119.71436,36.73952],[-119.71491,36.74094],[-119.71605,36.74027],[-119.71671,36.74107]],[[-119.84441,36.81094],[-119.84439,36.81548],[-119.83537,36.81499],[-119.83539,36.81734],[-119.83645,36.81734],[-119.83645,36.81911],[-119.841,36.8191],[-119.84098,36.82004],[-119.84217,36.82005],[-119.84172,36.82636],[-119.83997,36.82637],[-119.83999,36.82725],[-119.83553,36.82724],[-119.83554,36.82177],[-119.83306,36.82177],[-119.83309,36.82],[-119.83084,36.82],[-119.83078,36.8098],[-119.83226,36.80914],[-119.83581,36.81055],[-119.83935,36.81004],[-119.83984,36.80923],[-119.84167,36.80962],[-119.84169,36.81096],[-119.84441,36.81094]],[[-119.73187,36.75408],[-119.73185,36.7568],[-119.72957,36.75589],[-119.72956,36.75682],[-119.7273,36.7568],[-119.7273,36.75748],[-119.72295,36.75748],[-119.72298,36.75588],[-119.72528,36.7555],[-119.72531,36.75395],[-119.72274,36.75293],[-119.72277,36.75044],[-119.71824,36.75042],[-119.71826,36.75222],[-119.71704,36.75404],[-119.71362,36.75452],[-119.7137,36.75586],[-119.71824,36.75634],[-119.71606,36.75632],[-119.71608,36.75747],[-119.70921,36.75744],[-119.70916,36.75052],[-119.71551,36.75052],[-119.71602,36.74692],[-119.72733,36.74696],[-119.72735,36.7459],[-119.72815,36.7459],[-119.73013,36.74775],[-119.73187,36.74736],[-119.73187,36.75408]],[[-119.77087,36.77024],[-119.77076,36.77227],[-119.76787,36.77228],[-119.76789,36.77593],[-119.76369,36.77599],[-119.76369,36.7723],[-119.75571,36.77232],[-119.75445,36.7713],[-119.75448,36.76868],[-119.74994,36.76868],[-119.74991,36.7705],[-119.75215,36.77049],[-119.75215,36.7715],[-119.75445,36.77174],[-119.75239,36.77232],[-119.75445,36.77352],[-119.75442,36.77597],[-119.75216,36.77596],[-119.75256,36.77961],[-119.75017,36.7796],[-119.75022,36.77868],[-119.74533,36.77774],[-119.74536,36.77589],[-119.74079,36.77589],[-119.7408,36.77953],[-119.73854,36.77951],[-119.73851,36.78181],[-119.73626,36.78175],[-119.73681,36.78041],[-119.73627,36.77907],[-119.73169,36.77867],[-119.73173,36.77224],[-119.74536,36.77227],[-119.7454,36.76709],[-119.74789,36.76706],[-119.74782,36.76509],[-119.7528,36.76511],[-119.75313,36.766],[-119.75453,36.76622],[-119.75569,36.76511],[-119.76258,36.76503],[-119.76235,36.76576],[-119.76342,36.76646],[-119.7687,36.76637],[-119.77085,36.76829],[-119.77087,36.77024]],[[-119.83998,36.83719],[-119.83535,36.8372],[-119.83537,36.83541],[-119.8331,36.83545],[-119.83308,36.8346],[-119.83081,36.8351],[-119.83081,36.83096],[-119.82996,36.83098],[-119.82994,36.82999],[-119.82184,36.83],[-119.82194,36.83364],[-119.81733,36.83359],[-119.81733,36.83002],[-119.8107,36.83006],[-119.81056,36.82646],[-119.80948,36.82647],[-119.80886,36.8247],[-119.81124,36.82323],[-119.81184,36.82469],[-119.81736,36.82464],[-119.81736,36.82231],[-119.8151,36.8223],[-119.81507,36.82098],[-119.81293,36.821],[-119.81286,36.82282],[-119.80959,36.82283],[-119.80954,36.82148],[-119.80884,36.82149],[-119.80916,36.81983],[-119.81512,36.81918],[-119.81509,36.81559],[-119.80919,36.81561],[-119.80841,36.81199],[-119.80954,36.81199],[-119.80958,36.80964],[-119.81435,36.8089],[-119.81434,36.80975],[-119.81519,36.80975],[-119.81516,36.81196],[-119.81741,36.81193],[-119.8174,36.80881],[-119.8219,36.80886],[-119.8219,36.80958],[-119.82299,36.80957],[-119.82301,36.81193],[-119.82638,36.81189],[-119.8264,36.81487],[-119.82575,36.81487],[-119.82638,36.81552],[-119.82404,36.81553],[-119.82455,36.82374],[-119.82638,36.82374],[-119.82638,36.82682],[-119.82858,36.82681],[-119.83083,36.82413],[-119.83537,36.82456],[-119.83539,36.82909],[-119.83994,36.82904],[-119.83998,36.83719]],[[-119.71268,36.7377],[-119.71268,36.73874],[-119.71039,36.73842],[-119.7104,36.7395],[-119.70851,36.7395],[-119.70853,36.7403],[-119.70292,36.73956],[-119.70433,36.73829],[-119.70096,36.73836],[-119.70147,36.73688],[-119.70002,36.73686],[-119.70001,36.73384],[-119.69848,36.73385],[-119.69845,36.73266],[-119.70071,36.73342],[-119.70072,36.73112],[-119.69845,36.73255],[-119.69217,36.73294],[-119.6922,36.73626],[-119.68207,36.73688],[-119.68207,36.73565],[-119.67577,36.73563],[-119.67581,36.73694],[-119.67302,36.73694],[-119.67306,36.72772],[-119.68207,36.72772],[-119.68209,36.72227],[-119.70532,36.72224],[-119.70472,36.72185],[-119.70467,36.71635],[-119.70836,36.71636],[-119.7093,36.71672],[-119.70935,36.72862],[-119.71153,36.7286],[-119.71147,36.73589],[-119.70753,36.73588],[-119.70755,36.73656],[-119.71268,36.7377]],[[-119.8175,36.79303],[-119.81749,36.79384],[-119.81525,36.79395],[-119.81634,36.79427],[-119.81638,36.79527],[-119.81748,36.79529],[-119.81746,36.80615],[-119.81408,36.80655],[-119.81369,36.80757],[-119.81149,36.80721],[-119.81147,36.80836],[-119.81071,36.80837],[-119.81071,36.80573],[-119.80851,36.80574],[-119.80842,36.80839],[-119.80507,36.8084],[-119.80507,36.81105],[-119.8016,36.8112],[-119.8017,36.81385],[-119.80776,36.81382],[-119.80783,36.81562],[-119.80617,36.81562],[-119.80615,36.81655],[-119.80776,36.81681],[-119.80777,36.82192],[-119.8061,36.82192],[-119.80604,36.82471],[-119.80763,36.82471],[-119.80779,36.82645],[-119.80391,36.82647],[-119.80389,36.82831],[-119.79932,36.82829],[-119.79696,36.82881],[-119.79698,36.83009],[-119.79367,36.83012],[-119.79369,36.82651],[-119.7909,36.82616],[-119.79092,36.82503],[-119.79257,36.82531],[-119.7926,36.82289],[-119.79538,36.8229],[-119.79538,36.82475],[-119.79673,36.82473],[-119.7977,36.82377],[-119.79932,36.82386],[-119.79933,36.82288],[-119.8013,36.82287],[-119.80151,36.82108],[-119.79936,36.82107],[-119.79938,36.817],[-119.80044,36.8172],[-119.801,36.81565],[-119.80053,36.81393],[-119.79942,36.81382],[-119.80004,36.81501],[-119.79941,36.81567],[-119.79488,36.81568],[-119.79492,36.8121],[-119.79716,36.81207],[-119.79719,36.81115],[-119.79792,36.81114],[-119.79831,36.81208],[-119.79831,36.81142],[-119.79942,36.8114],[-119.79943,36.81052],[-119.79718,36.81033],[-119.79719,36.80847],[-119.79338,36.8085],[-119.79269,36.80744],[-119.79159,36.80746],[-119.79114,36.80131],[-119.79161,36.80057],[-119.79387,36.80084],[-119.79314,36.79947],[-119.79387,36.79766],[-119.79274,36.79768],[-119.79275,36.79586],[-119.79208,36.79587],[-119.79171,36.79458],[-119.79241,36.79456],[-119.79227,36.79371],[-119.79503,36.79403],[-119.79502,36.79495],[-119.79817,36.79491],[-119.79819,36.79581],[-119.79953,36.7958],[-119.79954,36.79037],[-119.80236,36.79034],[-119.80237,36.78675],[-119.80409,36.78673],[-119.80472,36.78489],[-119.80695,36.78488],[-119.81377,36.79023],[-119.81298,36.79025],[-119.81304,36.79205],[-119.81589,36.79201],[-119.8175,36.79303]]],[[[-119.9344,36.7059],[-119.93435,36.69164],[-119.91649,36.69174],[-119.91656,36.6772],[-119.90754,36.67725],[-119.90753,36.66268],[-119.90078,36.66274],[-119.90078,36.67001],[-119.89851,36.67002],[-119.89849,36.67735],[-119.88966,36.67738],[-119.88954,36.68461],[-119.88053,36.68466],[-119.88052,36.70377],[-119.88436,36.70375],[-119.88437,36.70641],[-119.9344,36.7059]]],[[[-119.70935,36.72862],[-119.70601,36.72861],[-119.70599,36.73043],[-119.70933,36.73044],[-119.70935,36.72862]]],[[[-119.69999,36.73098],[-119.6985,36.73058],[-119.69851,36.73114],[-119.69999,36.73098]]]]},"properties":{"GEOID":"0627000","NAME":"Fresno city","BASENAME":"Fresno","STATE":"06","PLACE":"27000"}}]}