{"type":"FeatureCollection","features":[{"type":"Feature","geometry":{"type":"Polygon","coordinates":[[[-122.21985,39.52426],[-122.21984,39.52307],[-122.21726,39.52362],[-122.21612,39.52294],[-122.21614,39.52117],[-122.21428,39.52043],[-122.21168,39.51533],[-122.20877,39.51537],[-122.20877,39.51409],[-122.21067,39.51412],[-122.20088,39.50249],[-122.19749,39.49669],[-122.19404,39.49497],[-122.19565,39.49373],[-122.19583,39.49132],[-122.19315,39.49133],[-122.19318,39.49498],[-122.18373,39.49489],[-122.18389,39.5096],[-122.19293,39.50958],[-122.19297,39.51126],[-122.19383,39.51126],[-122.19205,39.51208],[-122.18991,39.5165],[-122.18471,39.52039],[-122.18478,39.52188],[-122.18703,39.52188],[-122.18703,39.52418],[-122.19318,39.52421],[-122.1936,39.52783],[-122.1952,39.52898],[-122.19897,39.52897],[-122.19901,39.53141],[-122.21878,39.53146],[-122.21879,39.52669],[-122.21985,39.52426]]]},"properties":{"GEOID":"0685684","NAME":"Willows city","BASENAME":"Willows","STATE":"06","PLACE":"85684"}},{"type":"Feature","geometry":{"type":"Polygon","coordinates":[[[-122.21066,39.75308],[-122.21066,39.74966],[-122.2099,39.74965],[-122.21047,39.74742],[-122.2052,39.74744],[-122.2053,39.74059],[-122.20293,39.7401],[-122.20509,39.73877],[-122.20535,39.73674],[-122.20017,39.73674],[-122.20012,39.73876],[-122.19684,39.73883],[-122.19646,39.73296],[-122.19514,39.73319],[-122.19456,39.73607],[-122.1923,39.73598],[-122.19147,39.74014],[-122.1905,39.73958],[-122.1905,39.74013],[-122.18839,39.74011],[-122.18856,39.73755],[-122.18491,39.73822],[-122.18494,39.73638],[-122.17809,39.73639],[-122.17807,39.73773],[-122.17238,39.73774],[-122.16098,39.73318],[-122.15944,39.73471],[-122.15948,39.74368],[-122.16213,39.74373],[-122.16213,39.74711],[-122.16635,39.74717],[-122.16625,39.75079],[-122.17092,39.75084],[-122.17097,39.75436],[-122.17723,39.75458],[-122.17717,39.75402],[-122.18031,39.75545],[-122.18177,39.75428],[-122.18188,39.75567],[-122.18302,39.75564],[-122.18342,39.75264],[-122.18566,39.7538],[-122.18749,39.75299],[-122.19058,39.75443],[-122.18976,39.75525],[-122.18971,39.75812],[-122.18861,39.75811],[-122.19003,39.75986],[-122.19206,39.75996],[-122.1923,39.75443],[-122.19686,39.75449],[-122.19678,39.76087],[-122.2014,39.76178],[-122.20143,39.75828],[-122.20504,39.75831],[-122.20509,39.75468],[-122.21066,39.75469],[-122.21066,39.75308]]]},"properties":{"GEOID":"0654274","NAME":"Orland city","BASENAME":"Orland","STATE":"06","PLACE":"54274"}}]}