{"type":"FeatureCollection","features":[{"type":"Feature","geometry":{"type":"MultiPolygon","coordinates":[[[[-124.15332,41.05379],[-124.15126,41.05126],[-124.14966,41.05094],[-124.14452,41.05252],[-124.13785,41.05241],[-124.13776,41.05624],[-124.13328,41.05367],[-124.13323,41.05763],[-124.13749,41.0577],[-124.13687,41.05889],[-124.13804,41.05895],[-124.13801,41.06049],[-124.13701,41.06048],[-124.138,41.06083],[-124.13796,41.06197],[-124.13476,41.06007],[-124.13641,41.0619],[-124.13596,41.06224],[-124.13694,41.06255],[-124.136,41.06329],[-124.13584,41.06773],[-124.14149,41.06531],[-124.13997,41.06324],[-124.14909,41.06294],[-124.14931,41.05987],[-124.15104,41.05732],[-124.15216,41.05705],[-124.15332,41.05379]]],[[[-124.11493,41.04768],[-124.11411,41.0473],[-124.11352,41.04777],[-124.11493,41.04768]]],[[[-124.12237,41.05755],[-124.12187,41.05742],[-124.12161,41.05791],[-124.12237,41.05755]]]]},"properties":{"GEOID":"0680448","NAME":"Trinidad city","BASENAME":"Trinidad","STATE":"06","PLACE":"80448"}},{"type":"Feature","geometry":{"type":"MultiPolygon","coordinates":[[[[-124.00529,40.88784],[-124.00521,40.8787],[-124.00031,40.87846],[-123.99548,40.87539],[-123.99281,40.87539],[-123.99171,40.87916],[-123.99061,40.87918],[-123.99059,40.87749],[-123.98579,40.8775],[-123.98575,40.87965],[-123.98474,40.87926],[-123.98276,40.88022],[-123.98092,40.87969],[-123.98094,40.88039],[-123.97844,40.87935],[-123.97857,40.88098],[-123.98021,40.88257],[-123.98402,40.88304],[-123.98792,40.88548],[-123.99361,40.88619],[-123.99517,40.88708],[-123.99534,40.88605],[-123.9973,40.8845],[-123.99504,40.88221],[-123.99747,40.88033],[-123.99794,40.8829],[-124.00023,40.8829],[-124.00023,40.88652],[-124.0013,40.88768],[-124.00529,40.88784]]],[[[-123.97702,40.87549],[-123.97664,40.87535],[-123.97618,40.87546],[-123.97702,40.87549]]]]},"properties":{"GEOID":"0607162","NAME":"Blue Lake city","BASENAME":"Blue Lake","STATE":"06","PLACE":"07162"}},{"type":"Feature","geometry":{"type":"Polygon","coordinates":[[[-124.26944,40.58802],[-124.26909,40.56981],[-124.26055,40.56969],[-124.26038,40.56248],[-124.25481,40.56252],[-124.25524,40.59175],[-124.26235,40.5917],[-124.2622,40.58803],[-124.26944,40.58802]]]},"properties":{"GEOID":"0623910","NAME":"Ferndale city","BASENAME":"Ferndale","STATE":"06","PLACE":"23910"}},{"type":"Feature","geometry":{"type":"Polygon","coordinates":[[[-124.14038,40.5191],[-124.12911,40.51435],[-124.12952,40.51245],[-124.13054,40.51191],[-124.13048,40.50963],[-124.12085,40.51063],[-124.11938,40.50909],[-124.13478,40.50806],[-124.14002,40.50853],[-124.1399,40.50691],[-124.13196,40.5061],[-124.13192,40.5046],[-124.121,40.5047],[-124.12097,40.50108],[-124.11122,40.50112],[-124.11123,40.4975],[-124.12089,40.49788],[-124.12203,40.49516],[-124.12311,40.49547],[-124.12416,40.49854],[-124.12586,40.49896],[-124.12574,40.49348],[-124.12336,40.49305],[-124.12335,40.49154],[-124.11846,40.4902],[-124.11563,40.49021],[-124.11486,40.49124],[-124.1121,40.49107],[-124.11116,40.4903],[-124.10671,40.49034],[-124.10675,40.48932],[-124.10585,40.48917],[-124.10624,40.48809],[-124.09987,40.49185],[-124.0935,40.49437],[-124.0893,40.49986],[-124.08958,40.50267],[-124.09801,40.5083],[-124.10758,40.50994],[-124.1067,40.51081],[-124.11106,40.51201],[-124.10675,40.512],[-124.10685,40.51573],[-124.13042,40.51579],[-124.13524,40.5181],[-124.14038,40.5191]]]},"properties":{"GEOID":"0660900","NAME":"Rio Dell city","BASENAME":"Rio Dell","STATE":"06","PLACE":"60900"}},{"type":"Feature","geometry":{"type":"Polygon","coordinates":[[[-124.16874,40.60113],[-124.16862,40.59837],[-124.16551,40.5972],[-124.16552,40.59615],[-124.16209,40.59195],[-124.1619,40.58955],[-124.15842,40.58914],[-124.1568,40.58793],[-124.15669,40.586],[-124.16002,40.58684],[-124.1573,40.58295],[-124.15456,40.57648],[-124.15327,40.57648],[-124.15327,40.57752],[-124.15263,40.5774],[-124.14984,40.57452],[-124.14777,40.57557],[-124.14673,40.56299],[-124.14267,40.56301],[-124.1416,40.56488],[-124.1403,40.56387],[-124.1401,40.5626],[-124.12671,40.56297],[-124.12669,40.56142],[-124.12442,40.55996],[-124.12193,40.55574],[-124.12124,40.55575],[-124.12129,40.587],[-124.12323,40.58755],[-124.12459,40.58961],[-124.1258,40.59004],[-124.13057,40.5906],[-124.13327,40.58886],[-124.1344,40.58968],[-124.13303,40.5921],[-124.13006,40.59411],[-124.13145,40.59609],[-124.12629,40.59937],[-124.12236,40.5994],[-124.1223,40.6005],[-124.12482,40.60103],[-124.12604,40.60187],[-124.126,40.60291],[-124.13075,40.60296],[-124.13079,40.59935],[-124.13553,40.59937],[-124.13543,40.60471],[-124.13383,40.60474],[-124.13383,40.60658],[-124.13482,40.60659],[-124.13484,40.60754],[-124.13607,40.60799],[-124.13608,40.61034],[-124.13738,40.61034],[-124.13732,40.60662],[-124.14191,40.60659],[-124.14241,40.60448],[-124.1402,40.60476],[-124.14098,40.60357],[-124.14875,40.60293],[-124.14962,40.60402],[-124.14932,40.60657],[-124.15402,40.60655],[-124.15439,40.61017],[-124.15733,40.61013],[-124.1577,40.61093],[-124.16639,40.61062],[-124.16637,40.61003],[-124.16464,40.61006],[-124.16464,40.60906],[-124.16627,40.60904],[-124.16587,40.60285],[-124.16872,40.6027],[-124.16874,40.60113]]]},"properties":{"GEOID":"0625296","NAME":"Fortuna city","BASENAME":"Fortuna","STATE":"06","PLACE":"25296"}},{"type":"Feature","geometry":{"type":"Polygon","coordinates":[[[-124.20835,40.77103],[-124.20799,40.75879],[-124.19629,40.75895],[-124.19618,40.75671],[-124.19479,40.75578],[-124.20226,40.74669],[-124.20072,40.74491],[-124.19933,40.74757],[-124.19649,40.74831],[-124.19305,40.75142],[-124.19049,40.75626],[-124.19122,40.75812],[-124.19075,40.75926],[-124.18406,40.75911],[-124.18407,40.75975],[-124.18269,40.75975],[-124.18269,40.76091],[-124.1812,40.7609],[-124.18112,40.76421],[-124.18525,40.76421],[-124.18534,40.76565],[-124.18861,40.76644],[-124.18791,40.76844],[-124.18555,40.76844],[-124.18529,40.76915],[-124.18658,40.76917],[-124.18487,40.77215],[-124.18632,40.77213],[-124.18587,40.77332],[-124.16703,40.77325],[-124.16726,40.77178],[-124.16137,40.7719],[-124.16134,40.77114],[-124.1625,40.77115],[-124.16259,40.76951],[-124.16155,40.76944],[-124.16167,40.76419],[-124.16301,40.76419],[-124.16366,40.76509],[-124.16481,40.76507],[-124.16482,40.76419],[-124.16713,40.76419],[-124.16712,40.766],[-124.16944,40.76599],[-124.16948,40.7612],[-124.17201,40.76123],[-124.17206,40.75891],[-124.17324,40.75892],[-124.17331,40.75172],[-124.14967,40.75156],[-124.14962,40.75516],[-124.152,40.75518],[-124.15198,40.75691],[-124.15426,40.75693],[-124.15426,40.75883],[-124.15678,40.75887],[-124.15668,40.76592],[-124.15401,40.76595],[-124.154,40.77313],[-124.13969,40.77324],[-124.13951,40.8023],[-124.11538,40.80228],[-124.11074,40.80036],[-124.10947,40.80172],[-124.10805,40.8017],[-124.10675,40.80358],[-124.10474,40.80158],[-124.10211,40.80117],[-124.10215,40.80976],[-124.09729,40.80976],[-124.09724,40.81339],[-124.09246,40.81339],[-124.09245,40.81213],[-124.09123,40.81342],[-124.09103,40.81651],[-124.08966,40.81622],[-124.0911,40.81786],[-124.08954,40.81879],[-124.0905,40.81958],[-124.09182,40.81867],[-124.09252,40.82059],[-124.10537,40.81404],[-124.10683,40.8151],[-124.10322,40.8158],[-124.08829,40.82415],[-124.1047,40.82381],[-124.10391,40.82512],[-124.11325,40.8313],[-124.16168,40.8307],[-124.1699,40.82154],[-124.17465,40.81822],[-124.17886,40.81401],[-124.18656,40.80155],[-124.19072,40.79179],[-124.19129,40.78871],[-124.19363,40.78496],[-124.20397,40.7734],[-124.20835,40.77103]]]},"properties":{"GEOID":"0623042","NAME":"Eureka city","BASENAME":"Eureka","STATE":"06","PLACE":"23042"}},{"type":"Feature","geometry":{"type":"MultiPolygon","coordinates":[[[[-124.12173,40.85439],[-124.12124,40.83829],[-124.10854,40.83852],[-124.10332,40.84119],[-124.08168,40.84534],[-124.08179,40.83501],[-124.08008,40.83501],[-124.08161,40.83457],[-124.08203,40.83148],[-124.07445,40.83118],[-124.07301,40.8328],[-124.07286,40.83515],[-124.0715,40.8367],[-124.072,40.83708],[-124.0705,40.83741],[-124.07089,40.8378],[-124.07009,40.83846],[-124.07298,40.84017],[-124.07298,40.8423],[-124.06895,40.84234],[-124.06585,40.84073],[-124.06401,40.84266],[-124.0625,40.84304],[-124.06422,40.84495],[-124.06081,40.8463],[-124.06258,40.84701],[-124.06284,40.84969],[-124.06336,40.84969],[-124.06295,40.85245],[-124.06574,40.85325],[-124.06569,40.85515],[-124.06262,40.85486],[-124.06238,40.85731],[-124.05708,40.8567],[-124.05703,40.85775],[-124.0564,40.85775],[-124.05594,40.85697],[-124.05496,40.85709],[-124.05608,40.85496],[-124.05288,40.85475],[-124.053,40.85366],[-124.04329,40.85358],[-124.04333,40.86005],[-124.0462,40.86003],[-124.04621,40.86221],[-124.04786,40.86218],[-124.04791,40.86405],[-124.05184,40.86461],[-124.05044,40.86656],[-124.05141,40.86671],[-124.05142,40.86833],[-124.04336,40.86835],[-124.0432,40.87927],[-124.05761,40.87934],[-124.0575,40.88284],[-124.06536,40.88296],[-124.07129,40.88883],[-124.07219,40.88999],[-124.07233,40.89707],[-124.06712,40.89748],[-124.06713,40.90124],[-124.06559,40.90474],[-124.06631,40.90475],[-124.06772,40.90796],[-124.0699,40.9087],[-124.06836,40.91009],[-124.06431,40.91013],[-124.06807,40.91065],[-124.0724,40.90895],[-124.07433,40.90897],[-124.072,40.91062],[-124.072,40.91155],[-124.07626,40.90855],[-124.08108,40.90859],[-124.08111,40.905],[-124.08913,40.90496],[-124.08959,40.90409],[-124.09148,40.90375],[-124.09145,40.90058],[-124.0932,40.89625],[-124.09419,40.89613],[-124.09348,40.89557],[-124.09435,40.89322],[-124.09334,40.89266],[-124.09445,40.89001],[-124.09772,40.89081],[-124.09814,40.88975],[-124.09494,40.88896],[-124.09627,40.88405],[-124.09489,40.88372],[-124.09632,40.87991],[-124.09417,40.87926],[-124.09454,40.87657],[-124.09937,40.87775],[-124.09838,40.8805],[-124.10042,40.88106],[-124.10113,40.87574],[-124.10713,40.87576],[-124.10712,40.877],[-124.11075,40.87703],[-124.11078,40.8721],[-124.10591,40.8721],[-124.10591,40.87029],[-124.10115,40.87029],[-124.1008,40.86847],[-124.09965,40.86926],[-124.10015,40.87019],[-124.09907,40.87222],[-124.09624,40.87202],[-124.09866,40.86479],[-124.09636,40.86397],[-124.09638,40.85985],[-124.09919,40.86022],[-124.09995,40.86115],[-124.10427,40.86037],[-124.10695,40.85871],[-124.10935,40.85827],[-124.1102,40.85662],[-124.11584,40.85265],[-124.1186,40.85284],[-124.12173,40.85439]],[[-124.07018,40.86479],[-124.06939,40.86589],[-124.06982,40.8664],[-124.06904,40.86613],[-124.06842,40.86722],[-124.06734,40.86645],[-124.06254,40.8665],[-124.06247,40.87221],[-124.05285,40.87227],[-124.05283,40.86833],[-124.05212,40.86833],[-124.05255,40.86683],[-124.05196,40.86568],[-124.05287,40.86509],[-124.0556,40.8648],[-124.05655,40.86627],[-124.05604,40.86703],[-124.057,40.86794],[-124.05659,40.86846],[-124.05785,40.86843],[-124.05773,40.86463],[-124.07018,40.86479]]],[[[-124.00612,40.79002],[-124.00615,40.78861],[-124.00191,40.78596],[-124.00193,40.78079],[-123.98766,40.78073],[-123.98757,40.79189],[-123.99233,40.79182],[-123.99231,40.79551],[-124.006,40.79526],[-124.00612,40.79002]]]]},"properties":{"GEOID":"0602476","NAME":"Arcata city","BASENAME":"Arcata","STATE":"06","PLACE":"02476"}}]}