{"type":"FeatureCollection","features":[{"type":"Feature","geometry":{"type":"MultiPolygon","coordinates":[[[[-115.63015,33.03591],[-115.62588,33.03552],[-115.62588,33.03374],[-115.62488,33.03375],[-115.62485,33.03007],[-115.62156,33.03007],[-115.62161,33.03317],[-115.61731,33.03371],[-115.6173,33.03551],[-115.61615,33.0355],[-115.61514,33.03706],[-115.61294,33.0364],[-115.6129,33.03732],[-115.61729,33.03746],[-115.61728,33.04086],[-115.61279,33.04081],[-115.61278,33.0447],[-115.61941,33.04469],[-115.61942,33.04276],[-115.62159,33.04276],[-115.6216,33.04098],[-115.62592,33.04097],[-115.62592,33.04281],[-115.6301,33.04281],[-115.63015,33.03591]]],[[[-115.63012,33.04468],[-115.6301,33.04385],[-115.62689,33.04448],[-115.6269,33.04822],[-115.63008,33.04821],[-115.63012,33.04468]]]]},"properties":{"GEOID":"0684606","NAME":"Westmorland city","BASENAME":"Westmorland","STATE":"06","PLACE":"84606"}},{"type":"Feature","geometry":{"type":"Polygon","coordinates":[[[-115.39462,32.81278],[-115.39357,32.81157],[-115.39356,32.80983],[-115.38885,32.81051],[-115.38891,32.80722],[-115.38527,32.80718],[-115.38528,32.80899],[-115.38376,32.80901],[-115.38374,32.80735],[-115.38127,32.80737],[-115.38125,32.80557],[-115.37509,32.8055],[-115.37514,32.80335],[-115.37407,32.80334],[-115.37359,32.80227],[-115.372,32.8033],[-115.37272,32.80383],[-115.37159,32.80383],[-115.37163,32.80993],[-115.37128,32.80928],[-115.36911,32.80929],[-115.36911,32.81065],[-115.36731,32.81066],[-115.37042,32.81112],[-115.37043,32.81475],[-115.36284,32.81477],[-115.36286,32.81836],[-115.36357,32.81835],[-115.36357,32.8202],[-115.3652,32.8202],[-115.3652,32.81834],[-115.36632,32.81834],[-115.36938,32.81836],[-115.36941,32.82018],[-115.37059,32.82017],[-115.37056,32.81837],[-115.37279,32.81838],[-115.37282,32.82017],[-115.3777,32.82015],[-115.37772,32.81836],[-115.37897,32.81835],[-115.37894,32.82015],[-115.3802,32.82015],[-115.38019,32.81835],[-115.38208,32.81833],[-115.38258,32.81939],[-115.38332,32.81833],[-115.38901,32.81833],[-115.38892,32.81282],[-115.39462,32.81278]]]},"properties":{"GEOID":"0634246","NAME":"Holtville city","BASENAME":"Holtville","STATE":"06","PLACE":"34246"}},{"type":"Feature","geometry":{"type":"MultiPolygon","coordinates":[[[[-115.50825,33.17293],[-115.50824,33.16205],[-115.47592,33.16199],[-115.47592,33.17655],[-115.50825,33.17659],[-115.50825,33.17293]]],[[[-115.52771,33.12552],[-115.52771,33.11841],[-115.51468,33.1185],[-115.51478,33.11308],[-115.5126,33.11309],[-115.51262,33.11847],[-115.50936,33.11846],[-115.5094,33.11496],[-115.50616,33.11494],[-115.50616,33.11853],[-115.50192,33.11846],[-115.50191,33.13298],[-115.52771,33.13301],[-115.52771,33.12552]]],[[[-115.55378,33.15483],[-115.5536,33.14753],[-115.54496,33.1475],[-115.54494,33.15482],[-115.55378,33.15483]]]]},"properties":{"GEOID":"0609878","NAME":"Calipatria city","BASENAME":"Calipatria","STATE":"06","PLACE":"09878"}},{"type":"Feature","geometry":{"type":"Polygon","coordinates":[[[-115.59498,32.84016],[-115.59496,32.81829],[-115.56153,32.81834],[-115.56282,32.82173],[-115.56641,32.82175],[-115.56645,32.82559],[-115.56541,32.8256],[-115.55707,32.82542],[-115.55709,32.8183],[-115.5357,32.81836],[-115.5357,32.82546],[-115.55281,32.82544],[-115.55281,32.82922],[-115.55083,32.82921],[-115.55082,32.83284],[-115.56423,32.83286],[-115.56427,32.84009],[-115.55268,32.84003],[-115.55272,32.84738],[-115.56136,32.84748],[-115.56136,32.85467],[-115.55966,32.85469],[-115.55964,32.85827],[-115.56144,32.85826],[-115.56131,32.86182],[-115.56456,32.8619],[-115.5646,32.86922],[-115.57865,32.86916],[-115.57866,32.87645],[-115.5863,32.87639],[-115.58629,32.86562],[-115.57819,32.86555],[-115.57821,32.86188],[-115.57484,32.8619],[-115.57409,32.86559],[-115.57351,32.86562],[-115.57347,32.8619],[-115.57211,32.86191],[-115.57204,32.85657],[-115.57637,32.85658],[-115.57631,32.85475],[-115.57865,32.85475],[-115.57865,32.84744],[-115.58003,32.8474],[-115.57962,32.84557],[-115.58285,32.84557],[-115.58285,32.84378],[-115.57863,32.84378],[-115.57841,32.84018],[-115.5862,32.84018],[-115.58618,32.8467],[-115.58547,32.84738],[-115.58717,32.84738],[-115.58718,32.84558],[-115.58837,32.84558],[-115.58838,32.84738],[-115.59495,32.84738],[-115.59498,32.84016]]]},"properties":{"GEOID":"0636280","NAME":"Imperial city","BASENAME":"Imperial","STATE":"06","PLACE":"36280"}},{"type":"Feature","geometry":{"type":"MultiPolygon","coordinates":[[[[-115.56983,32.95851],[-115.56569,32.95995],[-115.56567,32.95627],[-115.53682,32.95622],[-115.53825,32.95185],[-115.53551,32.95189],[-115.53512,32.96144],[-115.5344,32.96344],[-115.50936,32.96342],[-115.50929,32.95967],[-115.50782,32.95966],[-115.50572,32.96354],[-115.50691,32.96388],[-115.50276,32.97078],[-115.50063,32.97071],[-115.50056,33.00105],[-115.52206,33.00103],[-115.52116,33.00376],[-115.5265,33.00373],[-115.52642,32.99376],[-115.53507,32.99375],[-115.53506,32.99738],[-115.53734,32.99736],[-115.53935,32.99656],[-115.53935,32.99377],[-115.54167,32.99175],[-115.54174,32.99079],[-115.54364,32.99074],[-115.54374,32.99338],[-115.54745,32.99018],[-115.55125,32.99018],[-115.55218,32.98901],[-115.55203,32.98781],[-115.55341,32.98653],[-115.5506,32.98653],[-115.54885,32.98842],[-115.54885,32.98652],[-115.55242,32.98355],[-115.55397,32.98392],[-115.55452,32.98163],[-115.55385,32.98164],[-115.55389,32.98056],[-115.55508,32.98021],[-115.55407,32.97593],[-115.55581,32.9745],[-115.55499,32.97274],[-115.55228,32.97195],[-115.55228,32.97073],[-115.55711,32.97075],[-115.55709,32.96345],[-115.56138,32.96348],[-115.56298,32.96121],[-115.56681,32.96038],[-115.56783,32.96198],[-115.56983,32.95851]]],[[[-115.51782,33.01605],[-115.51724,33.01551],[-115.51624,33.01667],[-115.5139,33.02145],[-115.51684,33.02212],[-115.51781,33.01978],[-115.51782,33.01605]]]]},"properties":{"GEOID":"0608058","NAME":"Brawley city","BASENAME":"Brawley","STATE":"06","PLACE":"08058"}},{"type":"Feature","geometry":{"type":"Polygon","coordinates":[[[-115.53357,32.66311],[-115.53349,32.66215],[-115.4741,32.66653],[-115.47396,32.68315],[-115.4568,32.68311],[-115.45679,32.68673],[-115.45549,32.68673],[-115.4599,32.69073],[-115.45668,32.69303],[-115.45667,32.69401],[-115.46523,32.69389],[-115.46516,32.69472],[-115.4671,32.69635],[-115.47172,32.69933],[-115.47571,32.70065],[-115.48251,32.70128],[-115.4825,32.7086],[-115.51688,32.70895],[-115.5079,32.68552],[-115.51611,32.6857],[-115.52041,32.68363],[-115.52215,32.68143],[-115.52452,32.6751],[-115.52467,32.67184],[-115.5278,32.67185],[-115.52828,32.67055],[-115.52743,32.67034],[-115.52967,32.66434],[-115.53357,32.66311]]]},"properties":{"GEOID":"0609710","NAME":"Calexico city","BASENAME":"Calexico","STATE":"06","PLACE":"09710"}},{"type":"Feature","geometry":{"type":"Polygon","coordinates":[[[-115.59502,32.77612],[-115.59501,32.77402],[-115.58625,32.77407],[-115.58627,32.76334],[-115.57799,32.76333],[-115.57818,32.77066],[-115.56936,32.77066],[-115.56891,32.74519],[-115.56461,32.74519],[-115.56468,32.75606],[-115.56061,32.75608],[-115.56094,32.76698],[-115.55999,32.76747],[-115.56096,32.76746],[-115.56103,32.76995],[-115.55864,32.76995],[-115.55859,32.76789],[-115.55644,32.76817],[-115.55643,32.76697],[-115.55212,32.76699],[-115.55197,32.76032],[-115.5477,32.75968],[-115.54752,32.75606],[-115.54332,32.75604],[-115.54353,32.76329],[-115.54454,32.7633],[-115.54415,32.76694],[-115.54042,32.76695],[-115.53521,32.75421],[-115.53494,32.75971],[-115.5261,32.75979],[-115.5268,32.78603],[-115.5254,32.78976],[-115.5225,32.79282],[-115.5184,32.79282],[-115.51845,32.79629],[-115.53567,32.7963],[-115.53569,32.80381],[-115.53983,32.80382],[-115.53983,32.80749],[-115.54847,32.80749],[-115.54847,32.80384],[-115.54892,32.80565],[-115.54914,32.80384],[-115.55032,32.80385],[-115.55031,32.80634],[-115.55162,32.80634],[-115.55162,32.80385],[-115.55555,32.80376],[-115.56153,32.81834],[-115.59496,32.81829],[-115.59497,32.81117],[-115.57864,32.8111],[-115.57864,32.80365],[-115.5787,32.79656],[-115.58623,32.79657],[-115.58624,32.79283],[-115.59499,32.79286],[-115.59502,32.77612]]]},"properties":{"GEOID":"0621782","NAME":"El Centro city","BASENAME":"El Centro","STATE":"06","PLACE":"21782"}}]}