{"type":"FeatureCollection","features":[{"type":"Feature","geometry":{"type":"MultiPolygon","coordinates":[[[[-118.41381,37.37328],[-118.41381,37.36853],[-118.40806,37.36854],[-118.40806,37.36383],[-118.40591,37.36383],[-118.40589,37.36311],[-118.40814,37.36302],[-118.40813,37.36187],[-118.40966,37.36139],[-118.40464,37.3614],[-118.40464,37.35984],[-118.4005,37.35983],[-118.40048,37.35856],[-118.39948,37.35858],[-118.39951,37.35698],[-118.39817,37.35699],[-118.39814,37.35547],[-118.39527,37.35552],[-118.39525,37.354],[-118.39131,37.35398],[-118.39132,37.35867],[-118.3795,37.3596],[-118.37846,37.35896],[-118.37845,37.35784],[-118.37693,37.35785],[-118.37697,37.3615],[-118.37705,37.35932],[-118.38607,37.35972],[-118.38153,37.35979],[-118.38152,37.36151],[-118.38602,37.36153],[-118.38609,37.36496],[-118.38811,37.36492],[-118.38853,37.3686],[-118.38617,37.3687],[-118.38628,37.3786],[-118.39534,37.37867],[-118.39532,37.3758],[-118.41381,37.37591],[-118.41381,37.37328]]],[[[-118.37699,37.35213],[-118.37699,37.34981],[-118.37206,37.34982],[-118.37212,37.35784],[-118.37693,37.35785],[-118.37699,37.35213]]],[[[-118.4487,37.36023],[-118.44714,37.36025],[-118.44714,37.36127],[-118.4487,37.36127],[-118.4487,37.36023]]],[[[-118.40462,37.35848],[-118.40461,37.35783],[-118.40371,37.35783],[-118.40372,37.3585],[-118.40462,37.35848]]]]},"properties":{"GEOID":"0606798","NAME":"Bishop city","BASENAME":"Bishop","STATE":"06","PLACE":"06798"}}]}