{"type":"FeatureCollection","features":[{"type":"Feature","geometry":{"type":"MultiPolygon","coordinates":[[[[-119.58994,36.10903],[-119.58986,36.09081],[-119.58119,36.09081],[-119.58103,36.0871],[-119.57201,36.08715],[-119.57192,36.07987],[-119.56306,36.07987],[-119.563,36.05077],[-119.55389,36.05079],[-119.55404,36.04211],[-119.53678,36.04202],[-119.53627,36.06895],[-119.53915,36.07254],[-119.55408,36.0726],[-119.55424,36.09618],[-119.55023,36.09616],[-119.55228,36.10158],[-119.55423,36.1016],[-119.55422,36.10345],[-119.55287,36.10344],[-119.55307,36.10408],[-119.55422,36.10395],[-119.55455,36.10843],[-119.55597,36.10756],[-119.56488,36.11124],[-119.56484,36.11233],[-119.56694,36.11323],[-119.56321,36.11378],[-119.56322,36.11466],[-119.56771,36.11447],[-119.56771,36.11625],[-119.56324,36.11619],[-119.56325,36.11801],[-119.56147,36.118],[-119.5622,36.11891],[-119.56779,36.11892],[-119.56781,36.11986],[-119.57084,36.11986],[-119.5716,36.12089],[-119.56651,36.12083],[-119.56713,36.12164],[-119.56528,36.12166],[-119.56663,36.12356],[-119.57466,36.12348],[-119.57203,36.11987],[-119.57555,36.1199],[-119.57551,36.11627],[-119.57669,36.11625],[-119.57665,36.11423],[-119.57429,36.11418],[-119.57425,36.10901],[-119.58101,36.10902],[-119.58104,36.11159],[-119.58441,36.11156],[-119.58439,36.10902],[-119.58994,36.10903]]],[[[-119.55029,36.111],[-119.55302,36.10893],[-119.54532,36.10893],[-119.54512,36.11428],[-119.55029,36.111]]],[[[-119.5643,36.12033],[-119.56399,36.11997],[-119.56353,36.11981],[-119.5643,36.12033]]],[[[-119.57202,36.13793],[-119.57199,36.13663],[-119.56314,36.1367],[-119.56315,36.13569],[-119.57192,36.13566],[-119.57194,36.13449],[-119.55422,36.13441],[-119.55421,36.1362],[-119.54972,36.13633],[-119.54974,36.13792],[-119.57202,36.13793]]],[[[-119.58101,36.08352],[-119.58101,36.07983],[-119.57507,36.07977],[-119.57508,36.08351],[-119.58101,36.08352]]]]},"properties":{"GEOID":"0616224","NAME":"Corcoran city","BASENAME":"Corcoran","STATE":"06","PLACE":"16224"}},{"type":"Feature","geometry":{"type":"MultiPolygon","coordinates":[[[[-119.84367,36.29401],[-119.84353,36.28394],[-119.80873,36.28399],[-119.8079,36.28469],[-119.80775,36.25822],[-119.80553,36.25475],[-119.79879,36.25467],[-119.79887,36.25821],[-119.79215,36.25827],[-119.79219,36.26188],[-119.78996,36.26191],[-119.78989,36.27645],[-119.78085,36.27647],[-119.78084,36.28626],[-119.77917,36.28626],[-119.77916,36.28732],[-119.77626,36.28729],[-119.77625,36.29133],[-119.76992,36.29137],[-119.76986,36.29418],[-119.7675,36.29944],[-119.76705,36.30651],[-119.76472,36.30687],[-119.76428,36.30789],[-119.76404,36.31207],[-119.76608,36.31694],[-119.76483,36.3208],[-119.77181,36.32077],[-119.77186,36.328],[-119.78077,36.32798],[-119.78078,36.32077],[-119.79428,36.32073],[-119.79426,36.31526],[-119.79649,36.31525],[-119.79652,36.31341],[-119.80813,36.31338],[-119.80772,36.30186],[-119.83484,36.30192],[-119.83493,36.29573],[-119.84367,36.29401]]],[[[-119.78062,36.38387],[-119.7794,36.38288],[-119.77825,36.3835],[-119.77666,36.38312],[-119.7753,36.38436],[-119.77213,36.38381],[-119.77125,36.3855],[-119.76946,36.38548],[-119.76941,36.38673],[-119.77067,36.38743],[-119.7706,36.38897],[-119.77178,36.3888],[-119.77704,36.38593],[-119.77947,36.38597],[-119.78062,36.38387]]]]},"properties":{"GEOID":"0641152","NAME":"Lemoore city","BASENAME":"Lemoore","STATE":"06","PLACE":"41152"}},{"type":"Feature","geometry":{"type":"Polygon","coordinates":[[[-120.16756,36.02167],[-120.16465,36.02098],[-120.1647,35.99983],[-120.15562,35.99998],[-120.15546,35.99266],[-120.12877,35.99294],[-120.12889,35.96393],[-120.11105,35.96431],[-120.1107,36.02184],[-120.09285,36.022],[-120.09316,36.05078],[-120.07535,36.05075],[-120.0754,36.07982],[-120.05732,36.07975],[-120.05731,36.09314],[-120.0574,36.0944],[-120.0584,36.09484],[-120.05868,36.09903],[-120.06233,36.10227],[-120.16756,36.02167]]]},"properties":{"GEOID":"0603302","NAME":"Avenal city","BASENAME":"Avenal","STATE":"06","PLACE":"03302"}},{"type":"Feature","geometry":{"type":"MultiPolygon","coordinates":[[[[-119.69102,36.35017],[-119.69101,36.32993],[-119.68411,36.32991],[-119.68413,36.32805],[-119.68199,36.32802],[-119.68201,36.32541],[-119.68326,36.32538],[-119.68322,36.32445],[-119.68651,36.32443],[-119.68652,36.3199],[-119.68753,36.31989],[-119.6875,36.31857],[-119.68984,36.31822],[-119.68743,36.31676],[-119.68901,36.31419],[-119.6888,36.30996],[-119.68198,36.30922],[-119.68195,36.31349],[-119.67837,36.31346],[-119.6784,36.30565],[-119.68298,36.30566],[-119.68279,36.30445],[-119.68535,36.29833],[-119.67276,36.29834],[-119.67278,36.30017],[-119.66831,36.30015],[-119.66826,36.29832],[-119.66211,36.2983],[-119.66197,36.29511],[-119.66321,36.29447],[-119.6636,36.29286],[-119.66356,36.29174],[-119.66261,36.29104],[-119.66372,36.29105],[-119.66335,36.28377],[-119.66335,36.29076],[-119.66202,36.29092],[-119.66329,36.29225],[-119.66304,36.29431],[-119.66159,36.29507],[-119.66157,36.2983],[-119.65944,36.29829],[-119.65937,36.29469],[-119.65716,36.29469],[-119.65706,36.29104],[-119.65489,36.29104],[-119.65486,36.26076],[-119.64586,36.26087],[-119.64592,36.26547],[-119.63691,36.26582],[-119.63696,36.27683],[-119.63839,36.2768],[-119.6384,36.27862],[-119.63695,36.27864],[-119.63694,36.28417],[-119.64156,36.28408],[-119.64151,36.28942],[-119.6459,36.28942],[-119.64592,36.29129],[-119.64358,36.29129],[-119.64344,36.29855],[-119.64708,36.29846],[-119.64887,36.30929],[-119.64594,36.3093],[-119.6459,36.30219],[-119.64144,36.30226],[-119.6414,36.30679],[-119.63922,36.30681],[-119.6389,36.31078],[-119.63552,36.31155],[-119.63553,36.31334],[-119.63248,36.31336],[-119.63248,36.31249],[-119.63135,36.31247],[-119.63134,36.31337],[-119.62795,36.31339],[-119.62797,36.30565],[-119.61896,36.30568],[-119.61893,36.31346],[-119.62343,36.31345],[-119.6234,36.31524],[-119.62541,36.31523],[-119.62571,36.317],[-119.62673,36.31701],[-119.62795,36.31888],[-119.62795,36.32064],[-119.62864,36.32064],[-119.62796,36.32322],[-119.62446,36.3234],[-119.62447,36.32253],[-119.62131,36.32257],[-119.62132,36.32161],[-119.61904,36.32161],[-119.61896,36.32318],[-119.60094,36.32531],[-119.60092,36.33195],[-119.60696,36.33102],[-119.60699,36.32796],[-119.61001,36.32796],[-119.60998,36.32496],[-119.6167,36.32497],[-119.61671,36.32568],[-119.61528,36.32568],[-119.61529,36.32797],[-119.62343,36.32798],[-119.62248,36.32969],[-119.62345,36.3297],[-119.62345,36.33059],[-119.62169,36.33062],[-119.6217,36.33231],[-119.62345,36.3323],[-119.62349,36.34475],[-119.62463,36.3499],[-119.62794,36.3499],[-119.62797,36.35544],[-119.62507,36.35546],[-119.62605,36.35727],[-119.62052,36.35725],[-119.6351,36.36547],[-119.63671,36.3676],[-119.63777,36.37193],[-119.63929,36.37192],[-119.63929,36.37012],[-119.6404,36.37011],[-119.64036,36.36572],[-119.64605,36.36571],[-119.64606,36.37191],[-119.65505,36.37184],[-119.65506,36.36948],[-119.6576,36.36946],[-119.65767,36.3706],[-119.65936,36.37182],[-119.67306,36.37175],[-119.67295,36.36448],[-119.68207,36.36442],[-119.68207,36.35718],[-119.68649,36.35715],[-119.68647,36.35348],[-119.69101,36.35354],[-119.69102,36.35017]]],[[[-119.64251,36.29314],[-119.6425,36.29134],[-119.64033,36.29139],[-119.64031,36.29314],[-119.64251,36.29314]]],[[[-119.67877,36.29332],[-119.67844,36.29102],[-119.67733,36.29104],[-119.67739,36.29338],[-119.67877,36.29332]]]]},"properties":{"GEOID":"0631960","NAME":"Hanford city","BASENAME":"Hanford","STATE":"06","PLACE":"31960"}}]}