{"type":"FeatureCollection","features":[{"type":"Feature","geometry":{"type":"Polygon","coordinates":[[[-122.93815,39.03648],[-122.93823,39.03325],[-122.93701,39.03328],[-122.93706,39.03509],[-122.93577,39.03506],[-122.9358,39.03325],[-122.93261,39.03322],[-122.93261,39.03039],[-122.93093,39.03039],[-122.9307,39.03314],[-122.9294,39.03316],[-122.9294,39.03155],[-122.92646,39.03152],[-122.92651,39.02889],[-122.92326,39.02883],[-122.92322,39.02697],[-122.92126,39.02697],[-122.92186,39.02585],[-122.92194,39.01807],[-122.93117,39.01807],[-122.93114,39.01452],[-122.93248,39.01296],[-122.93124,39.01202],[-122.93126,39.01103],[-122.9169,39.01077],[-122.91711,39.01441],[-122.91405,39.01433],[-122.91373,39.01568],[-122.91223,39.01639],[-122.91333,39.01699],[-122.91764,39.0236],[-122.91544,39.02342],[-122.9114,39.02494],[-122.91229,39.02664],[-122.91086,39.02737],[-122.91245,39.02991],[-122.91157,39.06244],[-122.91797,39.06226],[-122.91791,39.06328],[-122.91937,39.06299],[-122.91935,39.06227],[-122.93168,39.06241],[-122.93074,39.05572],[-122.93142,39.04951],[-122.9308,39.04045],[-122.93289,39.04046],[-122.9332,39.03641],[-122.93815,39.03648]]]},"properties":{"GEOID":"0639710","NAME":"Lakeport city","BASENAME":"Lakeport","STATE":"06","PLACE":"39710"}},{"type":"Feature","geometry":{"type":"Polygon","coordinates":[[[-122.69949,38.97838],[-122.69803,38.97664],[-122.69516,38.98021],[-122.69343,38.9804],[-122.69169,38.97932],[-122.68999,38.97993],[-122.69033,38.98068],[-122.68967,38.98086],[-122.68545,38.9791],[-122.68516,38.97754],[-122.68608,38.97566],[-122.68492,38.97692],[-122.68276,38.97725],[-122.67445,38.97395],[-122.67067,38.9706],[-122.6691,38.9703],[-122.66856,38.97146],[-122.66933,38.97147],[-122.66838,38.97181],[-122.66502,38.97031],[-122.66321,38.96803],[-122.66046,38.96734],[-122.65937,38.96908],[-122.65877,38.9676],[-122.65632,38.96798],[-122.65297,38.96501],[-122.65064,38.96517],[-122.65048,38.96307],[-122.65246,38.96105],[-122.64998,38.96007],[-122.64998,38.95853],[-122.64795,38.95494],[-122.64437,38.95348],[-122.6417,38.95044],[-122.64029,38.95055],[-122.63719,38.94885],[-122.63505,38.94414],[-122.63434,38.94406],[-122.63483,38.94155],[-122.63599,38.94138],[-122.63542,38.94133],[-122.6359,38.93884],[-122.6375,38.93658],[-122.64306,38.9362],[-122.63964,38.93083],[-122.63594,38.9319],[-122.63064,38.93208],[-122.62907,38.93006],[-122.6261,38.92957],[-122.62034,38.92723],[-122.61987,38.92632],[-122.61511,38.92523],[-122.6098,38.92588],[-122.60564,38.92246],[-122.59779,38.91975],[-122.58849,38.92519],[-122.58713,38.92712],[-122.57602,38.92677],[-122.57605,38.93192],[-122.60384,38.93228],[-122.60333,38.96172],[-122.61209,38.96161],[-122.61232,38.96929],[-122.60759,38.96937],[-122.60715,38.97632],[-122.60303,38.97634],[-122.60261,38.98325],[-122.61283,38.98331],[-122.6127,38.97637],[-122.61678,38.97634],[-122.61648,38.98017],[-122.62199,38.9801],[-122.6216,38.97643],[-122.62635,38.97646],[-122.62649,38.97263],[-122.63106,38.97267],[-122.63111,38.97626],[-122.63325,38.9763],[-122.63361,38.96909],[-122.64037,38.96921],[-122.6404,38.97201],[-122.64321,38.97196],[-122.65336,38.9798],[-122.65206,38.98181],[-122.65383,38.98202],[-122.65364,38.9833],[-122.6495,38.98337],[-122.64896,38.98471],[-122.65153,38.98719],[-122.65897,38.987],[-122.65901,38.99056],[-122.65599,38.99069],[-122.6592,38.99208],[-122.66068,38.99402],[-122.66328,38.9942],[-122.66323,38.99078],[-122.66791,38.99103],[-122.66808,38.99482],[-122.68013,38.99497],[-122.68256,38.99386],[-122.68645,38.99367],[-122.68639,38.98146],[-122.68775,38.98096],[-122.69068,38.98249],[-122.69145,38.9809],[-122.69254,38.98216],[-122.69438,38.9812],[-122.69812,38.9812],[-122.69949,38.97838]]]},"properties":{"GEOID":"0613945","NAME":"Clearlake city","BASENAME":"Clearlake","STATE":"06","PLACE":"13945"}}]}