{"type":"FeatureCollection","features":[{"type":"Feature","geometry":{"type":"MultiPolygon","coordinates":[[[[-120.67408,40.40484],[-120.67414,40.40358],[-120.66914,40.40337],[-120.66922,40.40222],[-120.66422,40.40208],[-120.66419,40.40125],[-120.66145,40.40161],[-120.66195,40.40474],[-120.66343,40.4048],[-120.66172,40.40591],[-120.65793,40.40534],[-120.65807,40.40418],[-120.65594,40.40393],[-120.65614,40.40211],[-120.64402,40.40179],[-120.65522,40.40779],[-120.65459,40.40851],[-120.65184,40.40694],[-120.64987,40.4094],[-120.6507,40.40977],[-120.64899,40.41347],[-120.64371,40.41107],[-120.64037,40.41087],[-120.64187,40.40929],[-120.64122,40.40766],[-120.63851,40.4075],[-120.63768,40.40562],[-120.63642,40.40627],[-120.63586,40.40535],[-120.634,40.40516],[-120.63208,40.40244],[-120.63061,40.40272],[-120.63219,40.40507],[-120.63073,40.40506],[-120.63021,40.40648],[-120.62291,40.40434],[-120.62284,40.4097],[-120.62451,40.41005],[-120.62577,40.4087],[-120.62512,40.41142],[-120.63143,40.41192],[-120.63168,40.41585],[-120.63273,40.41745],[-120.63818,40.42178],[-120.63457,40.42177],[-120.6376,40.42215],[-120.63745,40.4238],[-120.63899,40.42387],[-120.63914,40.42219],[-120.64412,40.42174],[-120.64414,40.42413],[-120.63999,40.42745],[-120.63538,40.42759],[-120.63541,40.42369],[-120.63051,40.42376],[-120.62957,40.42437],[-120.62998,40.43065],[-120.60701,40.43013],[-120.60666,40.45356],[-120.62493,40.45312],[-120.62488,40.4452],[-120.62948,40.44523],[-120.62953,40.43984],[-120.6308,40.43818],[-120.66717,40.43834],[-120.66726,40.43497],[-120.66524,40.43506],[-120.66545,40.43299],[-120.66705,40.43267],[-120.66599,40.42868],[-120.66696,40.4286],[-120.66545,40.42761],[-120.6675,40.42753],[-120.6671,40.42184],[-120.66904,40.4216],[-120.66906,40.42292],[-120.66992,40.42289],[-120.67003,40.42157],[-120.67099,40.42155],[-120.67103,40.41881],[-120.66695,40.41733],[-120.66716,40.41467],[-120.66494,40.41281],[-120.66592,40.40966],[-120.6689,40.40974],[-120.6691,40.40596],[-120.67402,40.40629],[-120.67408,40.40484]]],[[[-120.52605,40.41097],[-120.52601,40.40802],[-120.52131,40.40813],[-120.52123,40.40477],[-120.52597,40.40482],[-120.52602,40.39762],[-120.52043,40.39756],[-120.52037,40.39597],[-120.5127,40.39743],[-120.49297,40.39808],[-120.49308,40.41184],[-120.52604,40.41203],[-120.52605,40.41097]]],[[[-120.66115,40.36705],[-120.66075,40.36179],[-120.6571,40.36182],[-120.65705,40.36431],[-120.65443,40.36528],[-120.65466,40.36645],[-120.65203,40.36506],[-120.6507,40.36621],[-120.65156,40.36706],[-120.65176,40.37023],[-120.65245,40.37086],[-120.65408,40.37005],[-120.65625,40.37094],[-120.66115,40.36705]]]]},"properties":{"GEOID":"0677364","NAME":"Susanville city","BASENAME":"Susanville","STATE":"06","PLACE":"77364"}}]}