{"type":"FeatureCollection","features":[{"type":"Feature","geometry":{"type":"MultiPolygon","coordinates":[[[[-120.29286,37.11999],[-120.29283,37.10548],[-120.27857,37.10551],[-120.2779,37.10627],[-120.27384,37.10405],[-120.27145,37.10542],[-120.27345,37.10297],[-120.27022,37.10298],[-120.27022,37.10392],[-120.26578,37.10391],[-120.26605,37.09822],[-120.26117,37.09821],[-120.26117,37.09878],[-120.2589,37.09878],[-120.25889,37.09994],[-120.25674,37.1002],[-120.25673,37.09826],[-120.2476,37.09826],[-120.24763,37.09457],[-120.25219,37.09457],[-120.2522,37.09102],[-120.24767,37.09104],[-120.2477,37.08393],[-120.2204,37.08397],[-120.22039,37.09104],[-120.21569,37.09128],[-120.22001,37.09474],[-120.21424,37.09472],[-120.21806,37.10061],[-120.22983,37.10975],[-120.22606,37.11291],[-120.22045,37.11326],[-120.22017,37.13776],[-120.23202,37.13413],[-120.23424,37.13455],[-120.23706,37.13632],[-120.2422,37.13618],[-120.24587,37.13376],[-120.25242,37.1325],[-120.25512,37.13079],[-120.25679,37.12743],[-120.26516,37.12742],[-120.26624,37.12656],[-120.26731,37.12742],[-120.27215,37.12741],[-120.27229,37.12627],[-120.27882,37.12357],[-120.27881,37.12276],[-120.28003,37.12232],[-120.28567,37.12249],[-120.29011,37.12419],[-120.2927,37.12428],[-120.29286,37.11999]]],[[[-120.16599,37.11282],[-120.1659,37.09963],[-120.16483,37.09963],[-120.16477,37.09833],[-120.16598,37.09814],[-120.16568,37.08365],[-120.14712,37.08352],[-120.14704,37.11276],[-120.16599,37.11282]]]]},"properties":{"GEOID":"0613294","NAME":"Chowchilla city","BASENAME":"Chowchilla","STATE":"06","PLACE":"13294"}},{"type":"Feature","geometry":{"type":"MultiPolygon","coordinates":[[[[-120.14742,36.9821],[-120.14711,36.97056],[-120.14578,36.96979],[-120.13834,36.96821],[-120.13058,36.96825],[-120.12844,36.96771],[-120.12845,36.96668],[-120.11033,36.96656],[-120.11034,36.96013],[-120.10804,36.96011],[-120.10807,36.95281],[-120.10579,36.95281],[-120.10579,36.95493],[-120.10464,36.95493],[-120.10468,36.95281],[-120.10148,36.9528],[-120.10133,36.94557],[-120.09666,36.94553],[-120.09668,36.9431],[-120.10119,36.94311],[-120.1012,36.94188],[-120.09213,36.94188],[-120.09219,36.93474],[-120.08771,36.93473],[-120.08756,36.94022],[-120.08308,36.94189],[-120.08305,36.93835],[-120.06734,36.9381],[-120.06734,36.93469],[-120.0696,36.93468],[-120.06959,36.93098],[-120.05582,36.93104],[-120.05601,36.93835],[-120.04813,36.93823],[-120.04724,36.92883],[-120.04492,36.92926],[-120.03967,36.92767],[-120.03337,36.92734],[-120.0329,36.93605],[-120.02778,36.9317],[-120.01486,36.93186],[-120.01483,36.9344],[-120.01028,36.93437],[-120.01025,36.93803],[-120.03257,36.93811],[-120.03289,36.94168],[-120.03513,36.94169],[-120.03518,36.94538],[-120.03752,36.94538],[-120.03758,36.95264],[-120.03295,36.95261],[-120.03298,36.95983],[-120.03766,36.95982],[-120.03771,36.97075],[-120.03319,36.97075],[-120.0332,36.97395],[-120.03226,36.97439],[-120.03325,36.97439],[-120.03331,36.97907],[-120.04186,36.97421],[-120.0435,36.97553],[-120.04217,36.97864],[-120.04052,36.98002],[-120.0464,36.97998],[-120.0466,36.98174],[-120.04157,36.98171],[-120.04148,36.98677],[-120.05533,36.98684],[-120.05535,36.98848],[-120.05618,36.98848],[-120.05617,36.98414],[-120.05799,36.98415],[-120.058,36.98282],[-120.06319,36.98283],[-120.06321,36.99266],[-120.07425,36.99273],[-120.07424,36.98907],[-120.0761,36.98908],[-120.07553,36.98294],[-120.08372,36.98298],[-120.0875,36.98607],[-120.08751,36.98686],[-120.08873,36.98709],[-120.08763,36.98708],[-120.08772,36.9928],[-120.09249,36.9928],[-120.09242,37.00062],[-120.09751,36.99979],[-120.10253,37.00149],[-120.10826,37.0001],[-120.10819,36.99645],[-120.11943,36.99644],[-120.12865,37.00611],[-120.12858,36.99644],[-120.1473,36.9964],[-120.14742,36.9821]],[[-120.06957,36.94726],[-120.06506,36.9474],[-120.06505,36.94556],[-120.06953,36.94555],[-120.06957,36.94726]]],[[[-120.18366,36.94176],[-120.18359,36.93815],[-120.15605,36.93823],[-120.15605,36.94144],[-120.15825,36.94144],[-120.15822,36.94381],[-120.15605,36.94381],[-120.15606,36.94558],[-120.17465,36.94541],[-120.1746,36.9418],[-120.18366,36.94176]]]]},"properties":{"GEOID":"0645022","NAME":"Madera city","BASENAME":"Madera","STATE":"06","PLACE":"45022"}}]}