{"type":"FeatureCollection","features":[{"type":"Feature","geometry":{"type":"Polygon","coordinates":[[[-122.48805,37.87106],[-122.48888,37.86943],[-122.47255,37.86196],[-122.46368,37.85233],[-122.46338,37.85343],[-122.45728,37.85923],[-122.45155,37.86824],[-122.45689,37.87152],[-122.45701,37.87278],[-122.45955,37.87381],[-122.46007,37.87593],[-122.46251,37.87732],[-122.46655,37.88155],[-122.47237,37.88403],[-122.47229,37.88327],[-122.47843,37.88766],[-122.47975,37.88555],[-122.48126,37.88584],[-122.48238,37.88413],[-122.48088,37.88353],[-122.48805,37.87106]]]},"properties":{"GEOID":"0605164","NAME":"Belvedere city","BASENAME":"Belvedere","STATE":"06","PLACE":"05164"}},{"type":"Feature","geometry":{"type":"Polygon","coordinates":[[[-122.58263,37.96766],[-122.58264,37.96636],[-122.57777,37.96576],[-122.57899,37.96257],[-122.57555,37.95928],[-122.57227,37.9582],[-122.57385,37.95611],[-122.57017,37.95567],[-122.56871,37.95582],[-122.56876,37.95699],[-122.56772,37.95703],[-122.56359,37.95531],[-122.56061,37.95581],[-122.55796,37.95526],[-122.55608,37.95754],[-122.5533,37.95816],[-122.55373,37.95898],[-122.55102,37.96133],[-122.5481,37.95977],[-122.5449,37.9631],[-122.54269,37.96281],[-122.54047,37.96383],[-122.54525,37.96653],[-122.54519,37.96853],[-122.54846,37.97081],[-122.54863,37.97228],[-122.55042,37.97203],[-122.55239,37.97287],[-122.55246,37.97207],[-122.55493,37.97306],[-122.55647,37.97084],[-122.56081,37.97026],[-122.56059,37.96956],[-122.56649,37.96771],[-122.57289,37.96783],[-122.58057,37.96981],[-122.58263,37.96766]]]},"properties":{"GEOID":"0662980","NAME":"Ross town","BASENAME":"Ross","STATE":"06","PLACE":"62980"}},{"type":"Feature","geometry":{"type":"Polygon","coordinates":[[[-122.50976,37.85768],[-122.51017,37.85685],[-122.49381,37.84981],[-122.49128,37.84701],[-122.48808,37.84518],[-122.48759,37.84634],[-122.48671,37.8453],[-122.48411,37.8453],[-122.48313,37.84428],[-122.48135,37.84419],[-122.48055,37.8452],[-122.47505,37.84586],[-122.47597,37.84951],[-122.47482,37.85632],[-122.47506,37.85943],[-122.49395,37.86901],[-122.49481,37.87085],[-122.49555,37.87041],[-122.49534,37.87109],[-122.49842,37.87314],[-122.50154,37.87112],[-122.50556,37.8727],[-122.50599,37.87232],[-122.50527,37.87209],[-122.50709,37.87144],[-122.50693,37.86504],[-122.50507,37.8621],[-122.50976,37.85768]]]},"properties":{"GEOID":"0670364","NAME":"Sausalito city","BASENAME":"Sausalito","STATE":"06","PLACE":"70364"}},{"type":"Feature","geometry":{"type":"Polygon","coordinates":[[[-122.61717,37.97581],[-122.61555,37.97597],[-122.61539,37.97535],[-122.61416,37.97704],[-122.60919,37.97617],[-122.60822,37.97553],[-122.60853,37.97463],[-122.60129,37.9756],[-122.60107,37.97404],[-122.59893,37.97432],[-122.59802,37.97556],[-122.59063,37.97615],[-122.58863,37.97338],[-122.58717,37.97309],[-122.58728,37.97404],[-122.58986,37.97636],[-122.58138,37.97763],[-122.58218,37.97908],[-122.57935,37.98663],[-122.58189,37.98665],[-122.58671,37.9994],[-122.59301,37.99939],[-122.59602,37.99535],[-122.59709,37.99593],[-122.59442,37.99818],[-122.59477,38.00229],[-122.59407,38.00245],[-122.59643,38.00531],[-122.59513,38.00835],[-122.59876,38.00977],[-122.60211,38.00484],[-122.6057,38.00618],[-122.60786,38.00352],[-122.60748,38.00225],[-122.60827,38.00261],[-122.60903,38.00102],[-122.60455,38.00038],[-122.59837,37.9953],[-122.59869,37.99408],[-122.60342,37.99442],[-122.60357,37.99295],[-122.6005,37.99299],[-122.59999,37.99121],[-122.60676,37.98947],[-122.60479,37.9886],[-122.60124,37.98488],[-122.60215,37.98355],[-122.60121,37.98316],[-122.60188,37.98265],[-122.60082,37.98136],[-122.60315,37.98068],[-122.60345,37.98159],[-122.6044,37.9815],[-122.60362,37.97975],[-122.60476,37.98051],[-122.60876,37.98],[-122.60819,37.97935],[-122.6099,37.97953],[-122.61061,37.978],[-122.61412,37.97824],[-122.61527,37.97922],[-122.61717,37.97581]]]},"properties":{"GEOID":"0623168","NAME":"Fairfax town","BASENAME":"Fairfax","STATE":"06","PLACE":"23168"}},{"type":"Feature","geometry":{"type":"MultiPolygon","coordinates":[[[[-122.58671,37.9994],[-122.58189,37.98665],[-122.57935,37.98663],[-122.58218,37.97908],[-122.58138,37.97763],[-122.58579,37.97672],[-122.58079,37.97322],[-122.58067,37.96973],[-122.56845,37.96747],[-122.56059,37.96956],[-122.56081,37.97026],[-122.55647,37.97084],[-122.55493,37.97306],[-122.55091,37.97219],[-122.55131,37.97692],[-122.5504,37.9808],[-122.55734,37.98354],[-122.56097,37.97918],[-122.55905,37.98643],[-122.56107,37.98573],[-122.56503,37.98817],[-122.56658,37.99071],[-122.5673,37.99052],[-122.56792,37.99139],[-122.56729,37.9916],[-122.56819,37.99258],[-122.56761,37.99395],[-122.57096,37.99497],[-122.57197,37.99237],[-122.57402,37.99319],[-122.57404,37.99438],[-122.57317,37.99488],[-122.57362,37.99537],[-122.57175,37.99539],[-122.57235,37.99692],[-122.57168,37.99721],[-122.57235,37.99781],[-122.57136,37.99812],[-122.57155,37.99907],[-122.58671,37.9994]]],[[[-122.56593,37.99239],[-122.56399,37.99064],[-122.56447,37.98858],[-122.5633,37.98994],[-122.56287,37.98925],[-122.56178,37.98943],[-122.56174,37.99035],[-122.5606,37.98883],[-122.55832,37.98954],[-122.55752,37.99372],[-122.56075,37.99223],[-122.56246,37.99423],[-122.56593,37.99239]]]]},"properties":{"GEOID":"0664434","NAME":"San Anselmo town","BASENAME":"San Anselmo","STATE":"06","PLACE":"64434"}},{"type":"Feature","geometry":{"type":"Polygon","coordinates":[[[-122.55322,37.9277],[-122.55277,37.92167],[-122.53962,37.92212],[-122.53974,37.92516],[-122.53823,37.9251],[-122.53819,37.92412],[-122.5361,37.92415],[-122.53474,37.92583],[-122.53502,37.92684],[-122.53058,37.92769],[-122.53196,37.92933],[-122.52715,37.92934],[-122.52504,37.93088],[-122.52499,37.93157],[-122.52721,37.93225],[-122.52718,37.93389],[-122.52078,37.93443],[-122.52119,37.93845],[-122.51752,37.94022],[-122.51593,37.94187],[-122.51588,37.9404],[-122.51726,37.93804],[-122.51716,37.93508],[-122.51478,37.93634],[-122.51279,37.93869],[-122.51346,37.94311],[-122.509,37.9423],[-122.50138,37.94248],[-122.50239,37.94292],[-122.50174,37.94783],[-122.50498,37.9497],[-122.5058,37.95118],[-122.50862,37.95116],[-122.51177,37.95256],[-122.51719,37.95174],[-122.52033,37.95412],[-122.52256,37.95418],[-122.52328,37.95548],[-122.52843,37.9588],[-122.52789,37.95526],[-122.52854,37.95511],[-122.52746,37.95459],[-122.52593,37.95547],[-122.52639,37.95402],[-122.5277,37.95377],[-122.5271,37.95225],[-122.52484,37.95201],[-122.52485,37.95078],[-122.52297,37.95018],[-122.52397,37.94953],[-122.51866,37.94851],[-122.51782,37.94771],[-122.51898,37.94619],[-122.52026,37.94565],[-122.53369,37.95054],[-122.53446,37.94951],[-122.53387,37.94805],[-122.53608,37.9462],[-122.5333,37.94591],[-122.53324,37.94527],[-122.53407,37.94549],[-122.53407,37.94463],[-122.53482,37.94462],[-122.5372,37.94585],[-122.53854,37.9445],[-122.53958,37.94716],[-122.54494,37.949],[-122.54579,37.95161],[-122.54913,37.95017],[-122.54967,37.95077],[-122.54927,37.94856],[-122.55107,37.94793],[-122.54919,37.94533],[-122.54927,37.9442],[-122.54851,37.94434],[-122.54813,37.94294],[-122.54642,37.9421],[-122.54257,37.93548],[-122.55035,37.93443],[-122.55231,37.93339],[-122.55322,37.9277]]]},"properties":{"GEOID":"0640438","NAME":"Larkspur city","BASENAME":"Larkspur","STATE":"06","PLACE":"40438"}},{"type":"Feature","geometry":{"type":"Polygon","coordinates":[[[-122.53974,37.92516],[-122.53962,37.92212],[-122.53745,37.92085],[-122.53699,37.9213],[-122.53711,37.92041],[-122.53324,37.91782],[-122.53122,37.91782],[-122.52829,37.91604],[-122.52577,37.91712],[-122.51835,37.91776],[-122.51402,37.90856],[-122.51059,37.90782],[-122.51079,37.90943],[-122.50299,37.90932],[-122.50489,37.91193],[-122.49594,37.91173],[-122.49571,37.91563],[-122.48918,37.91533],[-122.48908,37.91793],[-122.48719,37.91875],[-122.48792,37.91985],[-122.48599,37.91991],[-122.48459,37.92098],[-122.48138,37.92083],[-122.48268,37.93286],[-122.48148,37.93592],[-122.48968,37.93572],[-122.49764,37.93842],[-122.50239,37.94172],[-122.50989,37.94143],[-122.50979,37.94049],[-122.51286,37.94222],[-122.51279,37.93869],[-122.51567,37.93575],[-122.51732,37.93535],[-122.51632,37.94057],[-122.52119,37.93845],[-122.52078,37.93443],[-122.52718,37.93389],[-122.52721,37.93225],[-122.52485,37.93115],[-122.52715,37.92934],[-122.53196,37.92933],[-122.53058,37.92769],[-122.53502,37.92684],[-122.53474,37.92583],[-122.5361,37.92415],[-122.53819,37.92412],[-122.53823,37.9251],[-122.53974,37.92516]]]},"properties":{"GEOID":"0616462","NAME":"Corte Madera town","BASENAME":"Corte Madera","STATE":"06","PLACE":"16462"}},{"type":"Feature","geometry":{"type":"Polygon","coordinates":[[[-122.50694,37.9046],[-122.50401,37.90075],[-122.5047,37.89918],[-122.49953,37.89821],[-122.49635,37.89513],[-122.49986,37.89365],[-122.49278,37.87543],[-122.48798,37.87433],[-122.48126,37.88584],[-122.47975,37.88555],[-122.47843,37.88766],[-122.47229,37.88327],[-122.47237,37.88403],[-122.46655,37.88155],[-122.46251,37.87732],[-122.46007,37.87593],[-122.45955,37.87381],[-122.45701,37.87278],[-122.45689,37.87152],[-122.45155,37.86824],[-122.45728,37.85923],[-122.44548,37.84243],[-122.41867,37.8525],[-122.43018,37.91842],[-122.48459,37.92098],[-122.48599,37.91991],[-122.48792,37.91985],[-122.48719,37.91875],[-122.48908,37.91793],[-122.48918,37.91533],[-122.48597,37.91494],[-122.48794,37.91451],[-122.48839,37.91311],[-122.48585,37.91313],[-122.48495,37.91399],[-122.48419,37.91233],[-122.48227,37.9111],[-122.48226,37.91004],[-122.48364,37.90961],[-122.48363,37.9088],[-122.48222,37.90817],[-122.48221,37.9067],[-122.47869,37.90541],[-122.48018,37.90446],[-122.48016,37.90351],[-122.48227,37.9035],[-122.48226,37.90504],[-122.48677,37.90791],[-122.48821,37.90808],[-122.48946,37.90655],[-122.4922,37.90565],[-122.49215,37.90679],[-122.49375,37.90712],[-122.49435,37.90807],[-122.4969,37.9056],[-122.4963,37.9069],[-122.49725,37.90917],[-122.49843,37.90917],[-122.49968,37.90756],[-122.50291,37.90686],[-122.50431,37.90587],[-122.50465,37.9045],[-122.50502,37.90556],[-122.50694,37.9046]],[[-122.48523,37.91945],[-122.48347,37.92092],[-122.4834,37.91992],[-122.48251,37.91991],[-122.48396,37.9186],[-122.48523,37.91945]],[[-122.48377,37.91828],[-122.4815,37.9199],[-122.47938,37.91986],[-122.48242,37.9176],[-122.48348,37.91739],[-122.48377,37.91828]],[[-122.48004,37.91588],[-122.47483,37.91909],[-122.47071,37.90755],[-122.47899,37.90841],[-122.47729,37.91036],[-122.47916,37.91184],[-122.48004,37.91588]],[[-122.47881,37.90282],[-122.46966,37.90479],[-122.46888,37.90375],[-122.4713,37.90214],[-122.4734,37.90195],[-122.47432,37.90038],[-122.47264,37.89952],[-122.47369,37.89888],[-122.47881,37.90282]],[[-122.47064,37.90018],[-122.46803,37.90194],[-122.46342,37.89816],[-122.45998,37.89656],[-122.46132,37.89484],[-122.46049,37.89541],[-122.45611,37.89389],[-122.44884,37.89408],[-122.44463,37.88835],[-122.4443,37.88643],[-122.43824,37.88228],[-122.43866,37.88048],[-122.44361,37.87638],[-122.44597,37.87765],[-122.44681,37.87949],[-122.45313,37.88142],[-122.45338,37.88223],[-122.44998,37.88603],[-122.46347,37.89369],[-122.46262,37.89448],[-122.46304,37.8965],[-122.46665,37.89546],[-122.46899,37.89583],[-122.47051,37.89777],[-122.46999,37.89905],[-122.47064,37.90018]]]},"properties":{"GEOID":"0678666","NAME":"Tiburon town","BASENAME":"Tiburon","STATE":"06","PLACE":"78666"}},{"type":"Feature","geometry":{"type":"Polygon","coordinates":[[[-122.57703,37.91052],[-122.57416,37.9074],[-122.57156,37.90694],[-122.57097,37.9075],[-122.56987,37.90606],[-122.56698,37.90583],[-122.56639,37.90469],[-122.56691,37.90393],[-122.56562,37.90317],[-122.56444,37.90348],[-122.56505,37.90193],[-122.56609,37.9018],[-122.56593,37.90102],[-122.56314,37.9028],[-122.56227,37.90159],[-122.56114,37.90202],[-122.5606,37.90124],[-122.55654,37.90268],[-122.55346,37.90109],[-122.54244,37.89964],[-122.54416,37.89792],[-122.54254,37.89835],[-122.54204,37.89675],[-122.53786,37.89689],[-122.53597,37.89517],[-122.53455,37.89525],[-122.53293,37.89255],[-122.53163,37.89194],[-122.53183,37.89114],[-122.5273,37.89009],[-122.52616,37.8879],[-122.52408,37.88638],[-122.5244,37.88715],[-122.52094,37.88936],[-122.51822,37.88668],[-122.51708,37.88692],[-122.51751,37.88948],[-122.51613,37.90127],[-122.51931,37.90382],[-122.51952,37.90568],[-122.52397,37.90583],[-122.52352,37.90736],[-122.51975,37.90731],[-122.51723,37.90839],[-122.51425,37.90802],[-122.51835,37.91776],[-122.52577,37.91712],[-122.52829,37.91604],[-122.53122,37.91782],[-122.53324,37.91782],[-122.53711,37.92041],[-122.53699,37.9213],[-122.53745,37.92085],[-122.5396,37.92212],[-122.55277,37.92167],[-122.55322,37.92758],[-122.55927,37.92767],[-122.56022,37.92946],[-122.56073,37.92772],[-122.56001,37.92541],[-122.56283,37.92532],[-122.56361,37.92443],[-122.56199,37.92342],[-122.56386,37.92327],[-122.56474,37.92241],[-122.56387,37.92133],[-122.56195,37.92111],[-122.56236,37.9201],[-122.56341,37.91998],[-122.56235,37.91847],[-122.56315,37.91841],[-122.564,37.92004],[-122.56982,37.92137],[-122.57001,37.91957],[-122.5665,37.91814],[-122.56684,37.91634],[-122.56871,37.91584],[-122.56815,37.91437],[-122.57069,37.91469],[-122.57134,37.91359],[-122.57218,37.91415],[-122.5731,37.91327],[-122.5724,37.91277],[-122.57378,37.91163],[-122.57588,37.91147],[-122.57703,37.91052]],[[-122.52618,37.90457],[-122.52579,37.90703],[-122.52405,37.90716],[-122.52618,37.90457]]]},"properties":{"GEOID":"0647710","NAME":"Mill Valley city","BASENAME":"Mill Valley","STATE":"06","PLACE":"47710"}},{"type":"Feature","geometry":{"type":"Polygon","coordinates":[[[-122.58877,38.02483],[-122.58972,38.02383],[-122.57097,38.0096],[-122.55737,37.99356],[-122.55075,37.99098],[-122.55075,37.98564],[-122.55148,37.9861],[-122.55266,37.98512],[-122.55383,37.9858],[-122.55245,37.98732],[-122.55349,37.98787],[-122.55254,37.9889],[-122.55484,37.99015],[-122.55832,37.98954],[-122.55951,37.98447],[-122.55736,37.98502],[-122.55643,37.98445],[-122.55745,37.98327],[-122.5504,37.9808],[-122.55131,37.97692],[-122.55091,37.97219],[-122.54863,37.97228],[-122.54846,37.97081],[-122.54519,37.96853],[-122.54525,37.96653],[-122.54252,37.96448],[-122.52899,37.95835],[-122.52843,37.9588],[-122.52328,37.95548],[-122.52256,37.95418],[-122.52033,37.95412],[-122.51627,37.95154],[-122.51399,37.95242],[-122.51513,37.95375],[-122.51513,37.95814],[-122.51313,37.96101],[-122.50942,37.958],[-122.50874,37.9538],[-122.51007,37.95218],[-122.50862,37.95116],[-122.5058,37.95118],[-122.50498,37.9497],[-122.50019,37.9469],[-122.49378,37.94559],[-122.49178,37.94601],[-122.48849,37.94454],[-122.48487,37.94455],[-122.48006,37.94293],[-122.43498,37.93682],[-122.44098,37.95742],[-122.44158,37.97082],[-122.47404,37.97114],[-122.47397,37.97431],[-122.47511,37.97433],[-122.47586,37.97556],[-122.47736,37.97394],[-122.48103,37.97501],[-122.48318,37.97806],[-122.48338,37.97976],[-122.4877,37.98213],[-122.48627,37.98439],[-122.48276,37.98285],[-122.48178,37.98347],[-122.48201,37.98442],[-122.47964,37.98363],[-122.47995,37.98115],[-122.47768,37.97979],[-122.47927,37.97867],[-122.47902,37.97805],[-122.47722,37.97783],[-122.47679,37.97853],[-122.4754,37.97776],[-122.47525,37.97833],[-122.4765,37.97868],[-122.47532,37.97892],[-122.47278,37.98264],[-122.46779,37.98484],[-122.46547,37.98707],[-122.46091,37.98811],[-122.45435,37.99101],[-122.45216,37.99089],[-122.45259,37.98975],[-122.44945,37.99009],[-122.45277,37.99795],[-122.45647,37.99687],[-122.45922,37.99733],[-122.46525,38.00043],[-122.47511,38.00227],[-122.48787,37.99576],[-122.49552,37.99767],[-122.50134,37.99683],[-122.50213,37.9986],[-122.50438,37.99818],[-122.50803,37.99588],[-122.51001,37.99708],[-122.51185,37.99672],[-122.51356,37.9955],[-122.51443,37.99352],[-122.51652,37.99302],[-122.51816,37.99135],[-122.52067,37.99186],[-122.52242,37.99402],[-122.52746,37.99651],[-122.52826,37.99495],[-122.52943,37.99593],[-122.52767,37.99734],[-122.52972,37.9993],[-122.52684,38.00151],[-122.52915,38.00328],[-122.52414,38.00626],[-122.52406,38.00803],[-122.5282,38.01005],[-122.52815,38.01338],[-122.52446,38.01484],[-122.51959,38.01433],[-122.51942,38.01611],[-122.51651,38.0211],[-122.51514,38.02132],[-122.50544,38.01818],[-122.5039,38.01832],[-122.50398,38.02217],[-122.5018,38.02221],[-122.50193,38.02582],[-122.50641,38.02575],[-122.50651,38.0291],[-122.51687,38.02521],[-122.51925,38.02621],[-122.52312,38.02399],[-122.52435,38.02206],[-122.53084,38.02614],[-122.53814,38.02491],[-122.53903,38.02117],[-122.54502,38.02497],[-122.55122,38.02707],[-122.55503,38.02689],[-122.55906,38.02545],[-122.56919,38.02522],[-122.57382,38.02689],[-122.57647,38.02534],[-122.58505,38.02539],[-122.58664,38.02748],[-122.58877,38.02483]],[[-122.55028,37.99171],[-122.54702,37.99542],[-122.54464,37.994],[-122.54102,37.99639],[-122.54088,37.99467],[-122.53967,37.99325],[-122.534,37.99195],[-122.53026,37.98988],[-122.53224,37.98876],[-122.53328,37.98672],[-122.53554,37.98761],[-122.53711,37.9869],[-122.5428,37.98842],[-122.54513,37.9881],[-122.54411,37.98899],[-122.55028,37.99171]],[[-122.5104,37.96813],[-122.5091,37.96931],[-122.50706,37.97413],[-122.50823,37.97607],[-122.50577,37.9782],[-122.50788,37.97887],[-122.50476,37.98014],[-122.50526,37.98047],[-122.50283,37.9823],[-122.49853,37.98219],[-122.49905,37.98055],[-122.49506,37.98184],[-122.49498,37.97786],[-122.49602,37.97802],[-122.49626,37.97691],[-122.49509,37.9774],[-122.49499,37.97539],[-122.49971,37.97279],[-122.50173,37.97021],[-122.50276,37.97031],[-122.50392,37.97188],[-122.50554,37.9712],[-122.50706,37.96982],[-122.50569,37.96787],[-122.50651,37.96721],[-122.50821,37.96687],[-122.5091,37.96809],[-122.5104,37.96813]]]},"properties":{"GEOID":"0668364","NAME":"San Rafael city","BASENAME":"San Rafael","STATE":"06","PLACE":"68364"}},{"type":"Feature","geometry":{"type":"Polygon","coordinates":[[[-122.62365,38.11129],[-122.62366,38.10997],[-122.62226,38.10998],[-122.6217,38.10922],[-122.62062,38.11051],[-122.61822,38.11064],[-122.61579,38.10877],[-122.61631,38.10574],[-122.61691,38.1057],[-122.61658,38.104],[-122.61548,38.10371],[-122.61651,38.1035],[-122.61691,38.1005],[-122.6182,38.09906],[-122.61532,38.0973],[-122.61642,38.0905],[-122.61331,38.08964],[-122.61096,38.0909],[-122.6066,38.09753],[-122.6084,38.09844],[-122.60687,38.10051],[-122.60619,38.10013],[-122.60552,38.10104],[-122.60632,38.10128],[-122.6049,38.10318],[-122.59896,38.10052],[-122.59949,38.09979],[-122.59848,38.09926],[-122.59803,38.10003],[-122.59291,38.0979],[-122.59175,38.09966],[-122.58983,38.09856],[-122.59325,38.09375],[-122.58751,38.09133],[-122.58708,38.09246],[-122.58574,38.09155],[-122.58499,38.09225],[-122.58549,38.09286],[-122.58402,38.09286],[-122.57901,38.09067],[-122.58022,38.09008],[-122.57935,38.08935],[-122.58333,38.08807],[-122.58659,38.08547],[-122.5844,38.06886],[-122.58805,38.06907],[-122.5942,38.06633],[-122.57461,38.04796],[-122.57112,38.04632],[-122.5543,38.04676],[-122.53957,38.04321],[-122.53561,38.04107],[-122.53077,38.04234],[-122.52755,38.04124],[-122.52718,38.04011],[-122.52173,38.03939],[-122.51928,38.04062],[-122.5206,38.05261],[-122.51546,38.05115],[-122.51417,38.04865],[-122.51401,38.04439],[-122.50803,38.04527],[-122.50663,38.04768],[-122.48996,38.04761],[-122.48136,38.06764],[-122.49669,38.07102],[-122.50059,38.06082],[-122.51159,38.06352],[-122.52096,38.07133],[-122.52158,38.07084],[-122.5243,38.07214],[-122.52574,38.07374],[-122.52729,38.07791],[-122.52858,38.07869],[-122.53486,38.07672],[-122.53762,38.07901],[-122.54035,38.07827],[-122.54275,38.07993],[-122.53453,38.08633],[-122.53385,38.08431],[-122.52823,38.08153],[-122.52755,38.08291],[-122.5291,38.08608],[-122.52848,38.08774],[-122.52318,38.08764],[-122.51785,38.0916],[-122.51481,38.09107],[-122.51226,38.0853],[-122.50919,38.08446],[-122.50613,38.08504],[-122.50241,38.08963],[-122.49378,38.09432],[-122.4927,38.10035],[-122.5014,38.1002],[-122.50077,38.10644],[-122.50816,38.1065],[-122.50712,38.10689],[-122.50732,38.10779],[-122.51282,38.1041],[-122.51362,38.10544],[-122.51847,38.10489],[-122.52545,38.10657],[-122.53307,38.09786],[-122.53472,38.09912],[-122.53427,38.10013],[-122.5351,38.10123],[-122.53381,38.10189],[-122.53523,38.10316],[-122.53422,38.10478],[-122.53769,38.10614],[-122.53918,38.10508],[-122.54077,38.10672],[-122.53929,38.10667],[-122.54106,38.10703],[-122.54117,38.10809],[-122.54461,38.10737],[-122.54622,38.10843],[-122.54614,38.11136],[-122.54273,38.11531],[-122.54898,38.11803],[-122.54349,38.12002],[-122.54305,38.12172],[-122.54104,38.12193],[-122.54219,38.12092],[-122.53697,38.11667],[-122.53574,38.11907],[-122.53344,38.12117],[-122.5338,38.1203],[-122.53261,38.1191],[-122.53567,38.11626],[-122.53393,38.11327],[-122.52905,38.11836],[-122.52658,38.11742],[-122.52492,38.11826],[-122.52467,38.1193],[-122.52205,38.11901],[-122.51816,38.12039],[-122.51905,38.12209],[-122.51655,38.1232],[-122.51777,38.13045],[-122.52337,38.13277],[-122.53351,38.13497],[-122.5406,38.13487],[-122.55095,38.13111],[-122.54407,38.12607],[-122.54574,38.11953],[-122.54971,38.11825],[-122.54737,38.11715],[-122.54739,38.11405],[-122.54893,38.11412],[-122.55046,38.11262],[-122.55572,38.1126],[-122.55812,38.11417],[-122.56119,38.1135],[-122.56205,38.11425],[-122.56396,38.11417],[-122.56406,38.11616],[-122.56044,38.11665],[-122.56414,38.11773],[-122.5653,38.12266],[-122.56327,38.12952],[-122.56325,38.13169],[-122.56371,38.1295],[-122.56526,38.12983],[-122.56405,38.1324],[-122.56431,38.14164],[-122.56884,38.14162],[-122.56889,38.13606],[-122.57776,38.1384],[-122.58049,38.13628],[-122.5921,38.14589],[-122.59909,38.14702],[-122.60734,38.14695],[-122.60879,38.14782],[-122.6089,38.13878],[-122.61182,38.1318],[-122.61377,38.12955],[-122.61472,38.12607],[-122.61675,38.12521],[-122.61849,38.12072],[-122.61908,38.12093],[-122.62045,38.11603],[-122.61335,38.11457],[-122.61625,38.11318],[-122.61981,38.11299],[-122.62042,38.11145],[-122.62365,38.11129]],[[-122.55334,38.06607],[-122.55174,38.06867],[-122.54718,38.06813],[-122.54468,38.06714],[-122.54488,38.06652],[-122.54377,38.06578],[-122.54219,38.0656],[-122.54197,38.06423],[-122.53957,38.06487],[-122.53618,38.06336],[-122.53415,38.06137],[-122.54071,38.06338],[-122.5436,38.06214],[-122.54299,38.06111],[-122.54394,38.05935],[-122.54616,38.06004],[-122.54634,38.05887],[-122.54825,38.05876],[-122.54837,38.05991],[-122.5496,38.05982],[-122.54979,38.06047],[-122.5485,38.06121],[-122.54862,38.0625],[-122.54993,38.06251],[-122.55011,38.06363],[-122.54884,38.06377],[-122.54901,38.06576],[-122.55334,38.06607]]]},"properties":{"GEOID":"0652582","NAME":"Novato city","BASENAME":"Novato","STATE":"06","PLACE":"52582"}}]}