{"type":"FeatureCollection","features":[{"type":"Feature","geometry":{"type":"MultiPolygon","coordinates":[[[[-123.72102,38.91866],[-123.7176,38.91688],[-123.71333,38.91654],[-123.71104,38.91556],[-123.70992,38.91345],[-123.71219,38.91162],[-123.71137,38.91024],[-123.70675,38.90885],[-123.70569,38.90751],[-123.69557,38.90751],[-123.69544,38.90371],[-123.69079,38.90379],[-123.69084,38.90735],[-123.68129,38.90746],[-123.6812,38.90382],[-123.67671,38.9038],[-123.67678,38.91251],[-123.67863,38.91328],[-123.67674,38.91325],[-123.67678,38.91466],[-123.68141,38.91466],[-123.6814,38.9115],[-123.68602,38.91123],[-123.6861,38.91848],[-123.72102,38.91866]]],[[[-123.72679,38.91864],[-123.72533,38.91664],[-123.72533,38.91836],[-123.72455,38.9172],[-123.72447,38.91795],[-123.72289,38.91859],[-123.72679,38.91864]]]]},"properties":{"GEOID":"0657876","NAME":"Point Arena city","BASENAME":"Point Arena","STATE":"06","PLACE":"57876"}},{"type":"Feature","geometry":{"type":"MultiPolygon","coordinates":[[[[-123.36433,39.40367],[-123.36432,39.39855],[-123.35492,39.3985],[-123.35363,39.39762],[-123.34971,39.39769],[-123.35009,39.39468],[-123.35087,39.394],[-123.35043,39.39245],[-123.35195,39.39029],[-123.35156,39.38768],[-123.34502,39.38779],[-123.34157,39.38113],[-123.34032,39.38125],[-123.3396,39.37957],[-123.34014,39.37943],[-123.3375,39.37769],[-123.33579,39.37757],[-123.33596,39.38771],[-123.33435,39.38522],[-123.33406,39.39512],[-123.33831,39.39513],[-123.33843,39.39871],[-123.34081,39.39869],[-123.34162,39.39646],[-123.34247,39.39869],[-123.34318,39.3987],[-123.34551,39.40238],[-123.3455,39.4035],[-123.34409,39.40374],[-123.34289,39.40543],[-123.34271,39.40787],[-123.34275,39.40957],[-123.34567,39.4095],[-123.34567,39.41115],[-123.34161,39.41072],[-123.34145,39.41268],[-123.34005,39.41272],[-123.33942,39.41411],[-123.34084,39.42043],[-123.3509,39.42025],[-123.35107,39.42382],[-123.35369,39.42374],[-123.3549,39.42018],[-123.36416,39.42005],[-123.36433,39.40367]]],[[[-123.30374,39.37146],[-123.30514,39.36967],[-123.29797,39.3697],[-123.29798,39.37193],[-123.30223,39.37263],[-123.30331,39.37252],[-123.30374,39.37146]]],[[[-123.37446,39.45196],[-123.37447,39.45113],[-123.37326,39.45113],[-123.374,39.44494],[-123.37334,39.44492],[-123.37327,39.44395],[-123.3713,39.44407],[-123.37182,39.44914],[-123.37089,39.44913],[-123.37184,39.45637],[-123.37442,39.45646],[-123.37446,39.45196]]]]},"properties":{"GEOID":"0685600","NAME":"Willits city","BASENAME":"Willits","STATE":"06","PLACE":"85600"}},{"type":"Feature","geometry":{"type":"MultiPolygon","coordinates":[[[[-123.82065,39.43943],[-123.81884,39.43722],[-123.81988,39.43716],[-123.81925,39.43598],[-123.81809,39.43646],[-123.81782,39.43411],[-123.81585,39.43066],[-123.81065,39.43057],[-123.80927,39.42873],[-123.81051,39.42807],[-123.807,39.42783],[-123.80717,39.42677],[-123.80946,39.42733],[-123.81031,39.42625],[-123.8136,39.4256],[-123.81702,39.42617],[-123.81693,39.42565],[-123.81872,39.42554],[-123.81762,39.42458],[-123.81909,39.42415],[-123.81684,39.4235],[-123.81682,39.42505],[-123.81176,39.42509],[-123.80889,39.42619],[-123.80888,39.42322],[-123.81287,39.42319],[-123.81288,39.41987],[-123.8112,39.41924],[-123.81123,39.41844],[-123.8092,39.41858],[-123.80761,39.41994],[-123.80682,39.4193],[-123.80551,39.41966],[-123.80573,39.42073],[-123.80321,39.42167],[-123.80582,39.4244],[-123.80555,39.42603],[-123.80681,39.42663],[-123.80656,39.42808],[-123.80371,39.42751],[-123.80301,39.42649],[-123.80319,39.42384],[-123.80112,39.42613],[-123.79599,39.42898],[-123.79691,39.43135],[-123.79561,39.43306],[-123.79559,39.43435],[-123.79623,39.43454],[-123.79214,39.43449],[-123.7929,39.43232],[-123.79128,39.43209],[-123.791,39.43386],[-123.78764,39.43466],[-123.78757,39.43635],[-123.78456,39.43636],[-123.78484,39.43814],[-123.78274,39.43813],[-123.78277,39.44168],[-123.78334,39.44168],[-123.78279,39.44311],[-123.78337,39.44312],[-123.78281,39.44501],[-123.78397,39.44502],[-123.78459,39.44166],[-123.78629,39.44168],[-123.78626,39.44261],[-123.78788,39.44307],[-123.78768,39.44422],[-123.78864,39.44424],[-123.78866,39.4468],[-123.79339,39.44635],[-123.79424,39.44798],[-123.80008,39.4511],[-123.80195,39.45316],[-123.80372,39.45419],[-123.80547,39.45387],[-123.8044,39.45442],[-123.80438,39.45553],[-123.80222,39.45493],[-123.80218,39.45765],[-123.8007,39.45683],[-123.80067,39.4593],[-123.80653,39.45951],[-123.80574,39.46314],[-123.80265,39.46304],[-123.80254,39.46699],[-123.80047,39.46623],[-123.79989,39.46758],[-123.79832,39.46785],[-123.80059,39.46966],[-123.80229,39.46889],[-123.80234,39.47021],[-123.80386,39.47031],[-123.80635,39.46625],[-123.80778,39.45827],[-123.80716,39.45433],[-123.80617,39.45394],[-123.80741,39.45427],[-123.80744,39.45764],[-123.80938,39.45888],[-123.81145,39.45557],[-123.81125,39.45474],[-123.81444,39.45382],[-123.81299,39.45079],[-123.81388,39.45012],[-123.8137,39.44869],[-123.8148,39.44816],[-123.8148,39.44605],[-123.81691,39.44486],[-123.8147,39.44433],[-123.81265,39.44286],[-123.8125,39.44173],[-123.81497,39.44058],[-123.81664,39.4381],[-123.81931,39.4398],[-123.82065,39.43943]]],[[[-123.75496,39.44056],[-123.7525,39.44083],[-123.75204,39.44396],[-123.75318,39.44392],[-123.75212,39.44211],[-123.75489,39.44198],[-123.75496,39.44056]]],[[[-123.77089,39.42552],[-123.76618,39.42541],[-123.7661,39.42894],[-123.77086,39.42884],[-123.77089,39.42552]]],[[[-123.77122,39.39852],[-123.77119,39.39731],[-123.7667,39.39659],[-123.76661,39.39223],[-123.7648,39.39189],[-123.76448,39.39521],[-123.77051,39.40022],[-123.77119,39.40024],[-123.77122,39.39852]]],[[[-123.78049,39.44432],[-123.78039,39.44173],[-123.77926,39.44173],[-123.77929,39.44358],[-123.78049,39.44432]]],[[[-123.79577,39.41832],[-123.79521,39.41747],[-123.79504,39.41813],[-123.79577,39.41832]]],[[[-123.80508,39.41926],[-123.80483,39.41889],[-123.80336,39.41896],[-123.80508,39.41926]]]]},"properties":{"GEOID":"0625058","NAME":"Fort Bragg city","BASENAME":"Fort Bragg","STATE":"06","PLACE":"25058"}},{"type":"Feature","geometry":{"type":"MultiPolygon","coordinates":[[[[-123.25505,39.13514],[-123.25505,39.13087],[-123.24567,39.13084],[-123.24571,39.12391],[-123.23213,39.12347],[-123.23203,39.12688],[-123.24124,39.12726],[-123.24107,39.13075],[-123.23647,39.13071],[-123.23652,39.13433],[-123.22339,39.13433],[-123.22336,39.13075],[-123.21719,39.13036],[-123.21461,39.13182],[-123.21483,39.13008],[-123.21348,39.13031],[-123.21328,39.12874],[-123.20431,39.12902],[-123.20442,39.12409],[-123.20172,39.12399],[-123.1985,39.1164],[-123.19721,39.11675],[-123.19799,39.11889],[-123.19636,39.11931],[-123.19579,39.11818],[-123.19507,39.12073],[-123.1958,39.1326],[-123.19209,39.13289],[-123.19222,39.13545],[-123.19116,39.13638],[-123.1925,39.13703],[-123.19535,39.13661],[-123.19589,39.14471],[-123.19322,39.14507],[-123.19287,39.14354],[-123.19152,39.14367],[-123.19224,39.14529],[-123.18849,39.14579],[-123.19114,39.15188],[-123.19651,39.15233],[-123.19777,39.15863],[-123.19253,39.15947],[-123.19333,39.16013],[-123.1923,39.16067],[-123.19502,39.16044],[-123.19799,39.16138],[-123.19791,39.15961],[-123.19896,39.15939],[-123.19893,39.15842],[-123.20361,39.15829],[-123.20367,39.15933],[-123.20594,39.15934],[-123.20556,39.16521],[-123.20942,39.16515],[-123.20985,39.1666],[-123.21082,39.16659],[-123.21073,39.16514],[-123.21209,39.16719],[-123.21122,39.16719],[-123.21138,39.16832],[-123.21215,39.16778],[-123.2271,39.1677],[-123.22701,39.16397],[-123.22489,39.1625],[-123.22831,39.16225],[-123.22834,39.16369],[-123.23037,39.16324],[-123.23327,39.16405],[-123.23266,39.14939],[-123.23714,39.14936],[-123.23702,39.14585],[-123.23249,39.14587],[-123.23215,39.13796],[-123.25504,39.13836],[-123.25505,39.13514]],[[-123.23616,39.14749],[-123.23435,39.14876],[-123.23466,39.14761],[-123.23616,39.14749]]],[[[-123.17432,39.17282],[-123.17411,39.17099],[-123.1687,39.16977],[-123.16679,39.16834],[-123.1523,39.16888],[-123.15251,39.17718],[-123.17432,39.17282]]],[[[-123.18509,39.14619],[-123.18474,39.14436],[-123.1838,39.14445],[-123.18494,39.1424],[-123.18077,39.14138],[-123.18205,39.14563],[-123.18155,39.14657],[-123.18509,39.14619]]],[[[-123.19488,39.1173],[-123.19199,39.11116],[-123.19357,39.11098],[-123.19337,39.1098],[-123.19151,39.11004],[-123.19051,39.10795],[-123.18648,39.10846],[-123.18628,39.10981],[-123.18256,39.11144],[-123.18271,39.11331],[-123.18452,39.11541],[-123.19076,39.1171],[-123.19227,39.11873],[-123.19488,39.1173]]]]},"properties":{"GEOID":"0681134","NAME":"Ukiah city","BASENAME":"Ukiah","STATE":"06","PLACE":"81134"}}]}