{"type":"FeatureCollection","features":[{"type":"Feature","geometry":{"type":"Polygon","coordinates":[[[-120.66302,36.98691],[-120.65759,36.98185],[-120.63455,36.98174],[-120.63451,36.98037],[-120.63297,36.98032],[-120.63297,36.97953],[-120.63317,36.97821],[-120.63543,36.97821],[-120.63545,36.97573],[-120.63467,36.97575],[-120.63467,36.97462],[-120.63095,36.97462],[-120.63093,36.97826],[-120.62649,36.97826],[-120.6265,36.97982],[-120.62226,36.97984],[-120.61754,36.98356],[-120.61759,36.98693],[-120.6216,36.98736],[-120.61759,36.98734],[-120.61759,36.98993],[-120.62223,36.98991],[-120.6222,36.99198],[-120.62728,36.99194],[-120.62731,36.99629],[-120.63113,36.99632],[-120.63111,36.99085],[-120.64088,36.99072],[-120.64085,36.98911],[-120.64469,36.98914],[-120.64471,36.98188],[-120.64891,36.98202],[-120.64889,36.98395],[-120.65416,36.98399],[-120.65416,36.98685],[-120.66302,36.98691]]]},"properties":{"GEOID":"0619612","NAME":"Dos Palos city","BASENAME":"Dos Palos","STATE":"06","PLACE":"19612"}},{"type":"Feature","geometry":{"type":"MultiPolygon","coordinates":[[[[-121.02051,37.2601],[-121.01693,37.25678],[-121.0163,37.2553],[-121.01254,37.25631],[-121.01282,37.24581],[-121.00345,37.24577],[-121.00349,37.23844],[-120.99433,37.23839],[-120.99439,37.2492],[-120.9851,37.24916],[-120.98518,37.25299],[-120.9944,37.25309],[-120.99443,37.26002],[-120.9672,37.26018],[-120.96738,37.25124],[-120.96314,37.25136],[-120.96304,37.24906],[-120.96084,37.24911],[-120.9608,37.25823],[-120.96373,37.25846],[-120.96376,37.26043],[-120.96192,37.2605],[-120.96181,37.26718],[-120.96622,37.26172],[-120.96946,37.26026],[-120.99913,37.26021],[-120.99963,37.26148],[-121.00793,37.2615],[-121.00806,37.26016],[-121.02051,37.2601]]],[[[-120.97835,37.2542],[-120.97832,37.25287],[-120.97357,37.25286],[-120.9736,37.25416],[-120.97835,37.2542]]]]},"properties":{"GEOID":"0631568","NAME":"Gustine city","BASENAME":"Gustine","STATE":"06","PLACE":"31568"}},{"type":"Feature","geometry":{"type":"MultiPolygon","coordinates":[[[[-120.74159,37.37869],[-120.73942,37.3785],[-120.73944,37.37495],[-120.72901,37.37493],[-120.72896,37.37385],[-120.72997,37.37375],[-120.72996,37.37134],[-120.7144,37.37137],[-120.71432,37.37503],[-120.70527,37.37501],[-120.7052,37.37823],[-120.71424,37.37852],[-120.71416,37.38219],[-120.70967,37.38237],[-120.70519,37.38073],[-120.70507,37.38407],[-120.70047,37.38405],[-120.7004,37.39297],[-120.70488,37.39299],[-120.70492,37.38955],[-120.70927,37.38955],[-120.70933,37.39681],[-120.72305,37.39676],[-120.72308,37.40432],[-120.72634,37.40744],[-120.72972,37.40782],[-120.7304,37.40639],[-120.73352,37.40518],[-120.7349,37.40312],[-120.73685,37.40244],[-120.73858,37.40026],[-120.74092,37.39983],[-120.74082,37.3979],[-120.73522,37.3926],[-120.7373,37.39161],[-120.73969,37.39456],[-120.74133,37.39262],[-120.73978,37.39086],[-120.74138,37.3898],[-120.74159,37.37869]]],[[[-120.75958,37.38946],[-120.7552,37.38928],[-120.75531,37.38576],[-120.75476,37.38574],[-120.75468,37.39273],[-120.75269,37.39332],[-120.75271,37.39547],[-120.75534,37.39475],[-120.75733,37.3932],[-120.75949,37.39346],[-120.75958,37.38946]]]]},"properties":{"GEOID":"0642006","NAME":"Livingston city","BASENAME":"Livingston","STATE":"06","PLACE":"42006"}},{"type":"Feature","geometry":{"type":"Polygon","coordinates":[[[-120.62992,37.35337],[-120.62674,37.35212],[-120.62594,37.34567],[-120.62367,37.34563],[-120.61895,37.33852],[-120.61682,37.33853],[-120.61687,37.34236],[-120.60775,37.33911],[-120.60753,37.33266],[-120.60507,37.33178],[-120.60407,37.33331],[-120.60034,37.33185],[-120.59805,37.33584],[-120.59984,37.33705],[-120.59838,37.33959],[-120.59663,37.33929],[-120.59599,37.34121],[-120.59415,37.34075],[-120.59412,37.34208],[-120.58815,37.33986],[-120.58202,37.33623],[-120.57708,37.33509],[-120.57709,37.3343],[-120.56903,37.33317],[-120.56693,37.33397],[-120.5672,37.33344],[-120.56547,37.33271],[-120.56293,37.3295],[-120.55894,37.32858],[-120.55878,37.3387],[-120.57023,37.33859],[-120.57009,37.34583],[-120.56681,37.34591],[-120.56682,37.34971],[-120.57673,37.34967],[-120.57667,37.35367],[-120.57073,37.35569],[-120.56857,37.35408],[-120.56861,37.35711],[-120.57666,37.3629],[-120.57656,37.3713],[-120.59076,37.37125],[-120.59658,37.37462],[-120.6013,37.37494],[-120.60209,37.37248],[-120.60042,37.37215],[-120.60035,37.37022],[-120.60276,37.37037],[-120.60368,37.36849],[-120.6078,37.36857],[-120.60819,37.36648],[-120.60921,37.36585],[-120.60918,37.36405],[-120.61202,37.36404],[-120.61098,37.36546],[-120.61347,37.3668],[-120.61478,37.37025],[-120.62614,37.36986],[-120.62621,37.36404],[-120.6225,37.36406],[-120.62204,37.36043],[-120.61872,37.36041],[-120.62164,37.35908],[-120.62019,37.35498],[-120.62603,37.35493],[-120.62992,37.35337]],[[-120.60101,37.34725],[-120.59976,37.34916],[-120.59801,37.34818],[-120.59903,37.34616],[-120.60101,37.34725]],[[-120.58538,37.34133],[-120.58508,37.34818],[-120.57923,37.34754],[-120.58018,37.3391],[-120.58243,37.3393],[-120.58538,37.34133]]]},"properties":{"GEOID":"0603162","NAME":"Atwater city","BASENAME":"Atwater","STATE":"06","PLACE":"03162"}},{"type":"Feature","geometry":{"type":"Polygon","coordinates":[[[-120.89252,37.05186],[-120.89069,37.04707],[-120.89032,37.04212],[-120.87216,37.0422],[-120.87208,37.04587],[-120.86518,37.04598],[-120.86515,37.04941],[-120.859,37.04948],[-120.85896,37.05014],[-120.85716,37.05042],[-120.85713,37.05225],[-120.85415,37.0519],[-120.85379,37.0437],[-120.84866,37.04371],[-120.84865,37.04235],[-120.83787,37.04237],[-120.83784,37.04549],[-120.83949,37.04554],[-120.83967,37.05515],[-120.8354,37.05489],[-120.83573,37.04223],[-120.82612,37.04209],[-120.82634,37.05331],[-120.8114,37.04621],[-120.80433,37.05585],[-120.78797,37.05557],[-120.78799,37.05625],[-120.79169,37.06009],[-120.80486,37.06062],[-120.82403,37.08469],[-120.81523,37.08462],[-120.80342,37.07249],[-120.79654,37.0725],[-120.79665,37.08498],[-120.82409,37.08504],[-120.82335,37.09009],[-120.83488,37.08994],[-120.83491,37.08483],[-120.83976,37.08524],[-120.83976,37.08432],[-120.85327,37.08433],[-120.85356,37.07668],[-120.85585,37.07663],[-120.85586,37.07371],[-120.86448,37.07369],[-120.8645,37.07157],[-120.86708,37.07115],[-120.86549,37.07044],[-120.86564,37.06682],[-120.87049,37.06683],[-120.87146,37.06806],[-120.87142,37.06968],[-120.87424,37.06972],[-120.87537,37.06449],[-120.87427,37.06196],[-120.87772,37.06199],[-120.87838,37.05683],[-120.89035,37.05689],[-120.89252,37.05186]]]},"properties":{"GEOID":"0644028","NAME":"Los Banos city","BASENAME":"Los Banos","STATE":"06","PLACE":"44028"}},{"type":"Feature","geometry":{"type":"Polygon","coordinates":[[[-120.54335,37.22862],[-120.52502,37.22862],[-120.52506,37.2218],[-120.52378,37.22264],[-120.52403,37.2242],[-120.52277,37.22502],[-120.52134,37.22802],[-120.52194,37.22983],[-120.52101,37.23031],[-120.521,37.23567],[-120.51119,37.2362],[-120.51098,37.24398],[-120.52403,37.24401],[-120.5239,37.25548],[-120.52852,37.25547],[-120.528,37.2729],[-120.52374,37.27309],[-120.52362,37.2808],[-120.51288,37.28072],[-120.50602,37.2746],[-120.50601,37.27552],[-120.50431,37.27551],[-120.50322,37.27382],[-120.49927,37.27399],[-120.49923,37.27895],[-120.50203,37.27891],[-120.50201,37.28084],[-120.50591,37.28081],[-120.50588,37.28437],[-120.5039,37.28433],[-120.50392,37.2833],[-120.50214,37.28325],[-120.50211,37.28445],[-120.50016,37.28444],[-120.50023,37.28819],[-120.49701,37.2882],[-120.49673,37.27693],[-120.48929,37.27686],[-120.48941,37.28021],[-120.48768,37.28019],[-120.48766,37.28099],[-120.48951,37.28096],[-120.48932,37.28685],[-120.48754,37.28684],[-120.48741,37.28823],[-120.48261,37.28816],[-120.48257,37.28721],[-120.48334,37.28721],[-120.48341,37.28111],[-120.48548,37.28108],[-120.48554,37.27697],[-120.48775,37.27697],[-120.48782,37.27362],[-120.46979,37.27325],[-120.46978,37.27693],[-120.47434,37.27705],[-120.47433,37.28075],[-120.47607,37.28079],[-120.47644,37.28277],[-120.47438,37.28258],[-120.47438,37.28436],[-120.48109,37.28449],[-120.481,37.28814],[-120.46753,37.28793],[-120.46746,37.29358],[-120.45867,37.28881],[-120.44351,37.27656],[-120.44347,37.27778],[-120.43824,37.27516],[-120.43804,37.27713],[-120.43728,37.27765],[-120.43443,37.27548],[-120.43348,37.27321],[-120.4064,37.2734],[-120.40634,37.28992],[-120.39952,37.29013],[-120.39943,37.29543],[-120.44266,37.29512],[-120.44938,37.29742],[-120.4494,37.29577],[-120.45034,37.29491],[-120.45484,37.29554],[-120.45306,37.29877],[-120.45613,37.29989],[-120.45605,37.30054],[-120.45064,37.30105],[-120.44685,37.30209],[-120.44686,37.303],[-120.44502,37.30301],[-120.4449,37.30759],[-120.44884,37.30794],[-120.44962,37.30912],[-120.45186,37.30946],[-120.45346,37.30819],[-120.45462,37.30823],[-120.45582,37.30663],[-120.46226,37.30819],[-120.46227,37.3119],[-120.46033,37.31219],[-120.4603,37.31395],[-120.46346,37.31527],[-120.4575,37.31574],[-120.4575,37.31412],[-120.45327,37.31406],[-120.45353,37.31086],[-120.45248,37.31001],[-120.4514,37.31001],[-120.45131,37.31264],[-120.44854,37.31264],[-120.44855,37.31411],[-120.44666,37.3137],[-120.44671,37.31167],[-120.44444,37.31166],[-120.44444,37.31343],[-120.44628,37.31377],[-120.44664,37.31537],[-120.44444,37.31535],[-120.4444,37.31846],[-120.43991,37.31847],[-120.43966,37.32363],[-120.43859,37.32493],[-120.43503,37.32425],[-120.43446,37.32526],[-120.43302,37.32543],[-120.43296,37.33192],[-120.45092,37.33186],[-120.45048,37.34668],[-120.45982,37.34668],[-120.45994,37.35375],[-120.46871,37.35374],[-120.46859,37.36098],[-120.43227,37.36103],[-120.43258,37.34679],[-120.39629,37.34669],[-120.39589,37.3564],[-120.39742,37.3567],[-120.39939,37.35553],[-120.40475,37.35745],[-120.40492,37.36123],[-120.40714,37.36419],[-120.40713,37.37647],[-120.41264,37.37648],[-120.42862,37.36483],[-120.43218,37.36407],[-120.4327,37.36123],[-120.46858,37.36121],[-120.46834,37.37569],[-120.49152,37.37551],[-120.49022,37.36107],[-120.49063,37.3682],[-120.48142,37.36823],[-120.48144,37.36489],[-120.47751,37.36493],[-120.4777,37.36111],[-120.486,37.3611],[-120.48607,37.3466],[-120.49903,37.34648],[-120.49878,37.34341],[-120.49691,37.34341],[-120.4991,37.34316],[-120.49916,37.33959],[-120.50431,37.33919],[-120.50445,37.33459],[-120.49896,37.33459],[-120.49895,37.33187],[-120.50454,37.33173],[-120.50487,37.32062],[-120.51033,37.32075],[-120.51329,37.3187],[-120.5197,37.31773],[-120.52274,37.3158],[-120.52276,37.31462],[-120.52118,37.31405],[-120.51555,37.31325],[-120.51225,37.31141],[-120.50904,37.31147],[-120.51011,37.30951],[-120.51226,37.31029],[-120.51004,37.30788],[-120.51399,37.3074],[-120.51403,37.2991],[-120.52318,37.29913],[-120.52332,37.29549],[-120.52777,37.2953],[-120.52768,37.29163],[-120.52348,37.29156],[-120.52405,37.27333],[-120.52869,37.27332],[-120.52889,37.25542],[-120.53056,37.25544],[-120.531,37.25293],[-120.53653,37.25225],[-120.53882,37.24684],[-120.54293,37.24389],[-120.5425,37.23405],[-120.54335,37.22862]],[[-120.4511,37.32246],[-120.45105,37.32455],[-120.44987,37.32459],[-120.44999,37.3227],[-120.4511,37.32246]],[[-120.49343,37.31577],[-120.49048,37.31631],[-120.49056,37.31734],[-120.48935,37.31734],[-120.48924,37.31427],[-120.49338,37.315],[-120.49343,37.31577]],[[-120.44846,37.32003],[-120.4482,37.32432],[-120.44472,37.32359],[-120.4447,37.32018],[-120.4442,37.32416],[-120.44291,37.32436],[-120.44289,37.32287],[-120.44179,37.32352],[-120.44193,37.3202],[-120.44846,37.32003]],[[-120.4478,37.28782],[-120.4471,37.29013],[-120.44486,37.29014],[-120.44485,37.29486],[-120.4335,37.29488],[-120.43355,37.2878],[-120.4478,37.28782]]]},"properties":{"GEOID":"0646898","NAME":"Merced city","BASENAME":"Merced","STATE":"06","PLACE":"46898"}}]}