{"type":"FeatureCollection","features":[{"type":"Feature","geometry":{"type":"MultiPolygon","coordinates":[[[[-120.57476,41.48106],[-120.57572,41.48051],[-120.57152,41.48039],[-120.56398,41.47754],[-120.56399,41.47994],[-120.56222,41.47685],[-120.56147,41.47678],[-120.56307,41.47994],[-120.53525,41.48001],[-120.53513,41.48747],[-120.52552,41.48738],[-120.5255,41.49073],[-120.53521,41.4909],[-120.53512,41.50182],[-120.55951,41.50191],[-120.55951,41.50579],[-120.56418,41.50576],[-120.56404,41.48731],[-120.5694,41.48872],[-120.57534,41.48877],[-120.57279,41.4835],[-120.57476,41.48106]]],[[[-120.56009,41.47144],[-120.55973,41.46869],[-120.5571,41.47105],[-120.55492,41.47671],[-120.55977,41.47676],[-120.56009,41.47144]]]]},"properties":{"GEOID":"0601444","NAME":"Alturas city","BASENAME":"Alturas","STATE":"06","PLACE":"01444"}}]}