{"type":"FeatureCollection","features":[{"type":"Feature","geometry":{"type":"MultiPolygon","coordinates":[[[[-119.0614,37.65783],[-119.06034,37.65598],[-119.05433,37.65118],[-119.05359,37.6464],[-119.05462,37.64513],[-119.05127,37.64342],[-119.04532,37.63705],[-119.03826,37.63277],[-119.03536,37.63265],[-119.03412,37.63103],[-119.03256,37.63053],[-119.03271,37.62865],[-119.0311,37.62697],[-119.03089,37.62089],[-119.03197,37.61884],[-119.03167,37.61544],[-119.03457,37.60454],[-119.03186,37.60004],[-119.02696,37.59574],[-119.02616,37.59344],[-119.00038,37.59341],[-119.00041,37.589],[-118.99617,37.58722],[-118.99271,37.58292],[-118.99061,37.58361],[-118.98949,37.58859],[-118.98847,37.58946],[-118.98761,37.58959],[-118.98674,37.58856],[-118.98117,37.58877],[-118.97566,37.59588],[-118.97417,37.59342],[-118.96846,37.58828],[-118.9678,37.58642],[-118.96078,37.58012],[-118.95983,37.58053],[-118.9501,37.59393],[-118.94692,37.59602],[-118.94662,37.63742],[-118.93724,37.63738],[-118.93701,37.65926],[-119.06067,37.65911],[-119.0614,37.65783]]],[[[-118.86232,37.63021],[-118.83952,37.62303],[-118.83448,37.62328],[-118.84171,37.62547],[-118.84147,37.62728],[-118.84224,37.62847],[-118.85143,37.631],[-118.85206,37.62915],[-118.86165,37.63121],[-118.86232,37.63021]]]]},"properties":{"GEOID":"0645358","NAME":"Mammoth Lakes town","BASENAME":"Mammoth Lakes","STATE":"06","PLACE":"45358"}}]}