{"type":"FeatureCollection","features":[{"type":"Feature","geometry":{"type":"Polygon","coordinates":[[[-121.88047,36.63247],[-121.881,36.63203],[-121.85977,36.6144],[-121.85511,36.61239],[-121.85495,36.61014],[-121.85213,36.61002],[-121.84703,36.61306],[-121.8416,36.62173],[-121.84117,36.62498],[-121.83929,36.62761],[-121.86566,36.64496],[-121.88047,36.63247]]]},"properties":{"GEOID":"0665112","NAME":"Sand City city","BASENAME":"Sand City","STATE":"06","PLACE":"65112"}},{"type":"Feature","geometry":{"type":"Polygon","coordinates":[[[-121.93176,36.54506],[-121.93172,36.54452],[-121.92921,36.54543],[-121.92481,36.5446],[-121.92303,36.54383],[-121.92297,36.54262],[-121.92109,36.54282],[-121.92062,36.54184],[-121.91931,36.5418],[-121.91806,36.54064],[-121.91654,36.54177],[-121.91595,36.5458],[-121.91674,36.54578],[-121.91526,36.54853],[-121.91398,36.55965],[-121.91366,36.56112],[-121.91266,36.56097],[-121.91346,36.56237],[-121.91972,36.56235],[-121.91845,36.56339],[-121.92185,36.5643],[-121.92186,36.56308],[-121.9227,36.56308],[-121.92357,36.56102],[-121.93176,36.55731],[-121.92939,36.54809],[-121.92981,36.54604],[-121.93176,36.54506]]]},"properties":{"GEOID":"0611250","NAME":"Carmel-by-the-Sea city","BASENAME":"Carmel-by-the-Sea","STATE":"06","PLACE":"11250"}},{"type":"Feature","geometry":{"type":"Polygon","coordinates":[[[-121.85131,36.59845],[-121.85013,36.59651],[-121.84571,36.59435],[-121.8451,36.59198],[-121.84063,36.59239],[-121.8341,36.5898],[-121.83052,36.5828],[-121.83165,36.58181],[-121.82775,36.58115],[-121.83025,36.58582],[-121.82664,36.58545],[-121.82664,36.58631],[-121.82944,36.58742],[-121.8289,36.58889],[-121.82769,36.58812],[-121.82541,36.5899],[-121.81481,36.582],[-121.80992,36.58227],[-121.81373,36.58832],[-121.81995,36.59355],[-121.82138,36.5969],[-121.84684,36.59714],[-121.85005,36.59974],[-121.85131,36.59845]]]},"properties":{"GEOID":"0618688","NAME":"Del Rey Oaks city","BASENAME":"Del Rey Oaks","STATE":"06","PLACE":"18688"}},{"type":"Feature","geometry":{"type":"MultiPolygon","coordinates":[[[[-121.45407,36.50881],[-121.44948,36.50501],[-121.45365,36.50235],[-121.44957,36.49836],[-121.44294,36.50277],[-121.44175,36.50201],[-121.44111,36.5025],[-121.42793,36.4918],[-121.42197,36.49378],[-121.42261,36.49535],[-121.41692,36.49665],[-121.41821,36.49931],[-121.4196,36.50037],[-121.42383,36.49796],[-121.42705,36.50498],[-121.43159,36.51093],[-121.43301,36.51173],[-121.43488,36.5152],[-121.43428,36.51549],[-121.43596,36.51761],[-121.43651,36.51814],[-121.4373,36.51761],[-121.44696,36.52716],[-121.45065,36.52424],[-121.4475,36.52142],[-121.44108,36.51805],[-121.44342,36.51574],[-121.44403,36.51623],[-121.45407,36.50881]]],[[[-121.48448,36.49343],[-121.48573,36.49263],[-121.47576,36.48881],[-121.4739,36.48741],[-121.47229,36.48723],[-121.4715,36.48906],[-121.47526,36.49081],[-121.4739,36.49128],[-121.47504,36.49141],[-121.47487,36.4936],[-121.47603,36.49326],[-121.47784,36.49569],[-121.47931,36.4948],[-121.48126,36.49637],[-121.48448,36.49343]]]]},"properties":{"GEOID":"0630392","NAME":"Gonzales city","BASENAME":"Gonzales","STATE":"06","PLACE":"30392"}},{"type":"Feature","geometry":{"type":"MultiPolygon","coordinates":[[[[-121.26362,36.34811],[-121.25682,36.3403],[-121.25623,36.33893],[-121.25703,36.33858],[-121.25653,36.33553],[-121.25802,36.33469],[-121.25292,36.32874],[-121.25656,36.3267],[-121.25533,36.32529],[-121.25719,36.32425],[-121.25331,36.31972],[-121.25697,36.31765],[-121.25824,36.31914],[-121.2601,36.31809],[-121.26135,36.3196],[-121.26321,36.31857],[-121.25812,36.3126],[-121.26,36.31154],[-121.25746,36.30858],[-121.24916,36.31319],[-121.24425,36.30748],[-121.23458,36.31285],[-121.22968,36.30866],[-121.222,36.3117],[-121.23189,36.3219],[-121.22866,36.32461],[-121.23158,36.32298],[-121.23285,36.32448],[-121.23083,36.32545],[-121.23229,36.32704],[-121.22675,36.33011],[-121.23186,36.33607],[-121.23922,36.33195],[-121.24049,36.33347],[-121.24509,36.33088],[-121.2542,36.33904],[-121.2489,36.34156],[-121.26126,36.35026],[-121.26362,36.34811]]],[[[-121.22576,36.34186],[-121.2245,36.34021],[-121.22309,36.34099],[-121.22416,36.34187],[-121.22057,36.34452],[-121.21832,36.34266],[-121.21699,36.34265],[-121.21178,36.3458],[-121.21854,36.34736],[-121.2222,36.34367],[-121.22576,36.34186]]]]},"properties":{"GEOID":"0630994","NAME":"Greenfield city","BASENAME":"Greenfield","STATE":"06","PLACE":"30994"}},{"type":"Feature","geometry":{"type":"Polygon","coordinates":[[[-121.94685,36.62249],[-121.94812,36.62101],[-121.94017,36.61705],[-121.939,36.61773],[-121.93475,36.61405],[-121.93309,36.61435],[-121.92929,36.61268],[-121.93224,36.60873],[-121.93158,36.60675],[-121.92981,36.60671],[-121.93282,36.60586],[-121.93354,36.60468],[-121.93285,36.60368],[-121.93729,36.60163],[-121.93406,36.59756],[-121.92323,36.6025],[-121.92214,36.60154],[-121.91689,36.60422],[-121.9212,36.6092],[-121.9018,36.61864],[-121.9019,36.62106],[-121.91607,36.63326],[-121.92847,36.64206],[-121.93567,36.64266],[-121.93901,36.64055],[-121.94173,36.63656],[-121.94272,36.63067],[-121.94685,36.62249]]]},"properties":{"GEOID":"0654848","NAME":"Pacific Grove city","BASENAME":"Pacific Grove","STATE":"06","PLACE":"54848"}},{"type":"Feature","geometry":{"type":"MultiPolygon","coordinates":[[[[-121.14701,36.20745],[-121.14434,36.20411],[-121.14044,36.20425],[-121.13987,36.20319],[-121.12613,36.19771],[-121.12817,36.19524],[-121.12837,36.19339],[-121.12632,36.19196],[-121.12342,36.19456],[-121.12451,36.19599],[-121.118,36.20169],[-121.11466,36.20116],[-121.11158,36.19935],[-121.1093,36.19974],[-121.10846,36.20093],[-121.11226,36.203],[-121.11233,36.20442],[-121.11672,36.2114],[-121.11552,36.21365],[-121.11243,36.21521],[-121.11474,36.21666],[-121.11602,36.21581],[-121.11973,36.22059],[-121.11335,36.22435],[-121.11022,36.2274],[-121.12147,36.2353],[-121.12343,36.23304],[-121.12516,36.23276],[-121.12699,36.23463],[-121.12862,36.23449],[-121.12921,36.22888],[-121.13054,36.22885],[-121.14212,36.22095],[-121.14114,36.2176],[-121.13793,36.21624],[-121.14004,36.21459],[-121.1403,36.21101],[-121.14523,36.20942],[-121.14701,36.20745]]],[[[-121.16635,36.24362],[-121.16779,36.24357],[-121.16319,36.22242],[-121.15892,36.21403],[-121.15136,36.21402],[-121.15213,36.22039],[-121.15137,36.22121],[-121.15241,36.22512],[-121.15581,36.22441],[-121.15537,36.22629],[-121.1568,36.22968],[-121.15577,36.22996],[-121.15587,36.23083],[-121.15707,36.23241],[-121.15822,36.23212],[-121.15802,36.23311],[-121.16217,36.23187],[-121.16288,36.23236],[-121.16609,36.24187],[-121.16571,36.24365],[-121.16635,36.24362]]]]},"properties":{"GEOID":"0638520","NAME":"King City city","BASENAME":"King City","STATE":"06","PLACE":"38520"}},{"type":"Feature","geometry":{"type":"MultiPolygon","coordinates":[[[[-121.33814,36.43432],[-121.33756,36.4316],[-121.33575,36.42912],[-121.32832,36.42426],[-121.3228,36.41859],[-121.3198,36.4115],[-121.3119,36.41101],[-121.31177,36.42358],[-121.30977,36.42352],[-121.30981,36.4256],[-121.30651,36.42508],[-121.3065,36.42913],[-121.31197,36.4291],[-121.31184,36.44153],[-121.31694,36.44155],[-121.31691,36.4451],[-121.33358,36.44517],[-121.33362,36.43675],[-121.33614,36.43676],[-121.33814,36.43432]]],[[[-121.32204,36.40202],[-121.32181,36.40129],[-121.31773,36.40318],[-121.31821,36.4061],[-121.31867,36.40383],[-121.32204,36.40202]]],[[[-121.3376,36.46341],[-121.3376,36.46176],[-121.33191,36.46192],[-121.33189,36.47196],[-121.33758,36.47027],[-121.3376,36.46341]]],[[[-121.36011,36.41752],[-121.35767,36.41512],[-121.35327,36.41782],[-121.34703,36.41907],[-121.33981,36.4153],[-121.3398,36.41733],[-121.33705,36.41976],[-121.33881,36.42072],[-121.33882,36.42219],[-121.3434,36.42399],[-121.35085,36.42651],[-121.35683,36.42685],[-121.3578,36.42669],[-121.36011,36.41752]]],[[[-121.39147,36.46704],[-121.37841,36.45849],[-121.36217,36.47423],[-121.36825,36.47431],[-121.36818,36.48892],[-121.39147,36.46704]]]]},"properties":{"GEOID":"0672520","NAME":"Soledad city","BASENAME":"Soledad","STATE":"06","PLACE":"72520"}},{"type":"Feature","geometry":{"type":"MultiPolygon","coordinates":[[[[-121.92711,36.6004],[-121.92665,36.59924],[-121.92098,36.59554],[-121.92024,36.59345],[-121.92078,36.59167],[-121.9188,36.5917],[-121.9197,36.58884],[-121.92099,36.58878],[-121.91859,36.58584],[-121.91881,36.58332],[-121.91778,36.58114],[-121.91531,36.57926],[-121.91459,36.5768],[-121.91143,36.57469],[-121.90731,36.57787],[-121.90588,36.57775],[-121.90647,36.57813],[-121.90425,36.5792],[-121.89464,36.57806],[-121.8924,36.58039],[-121.89094,36.58008],[-121.8906,36.57919],[-121.89174,36.57774],[-121.87401,36.57569],[-121.86898,36.57408],[-121.86952,36.57516],[-121.86759,36.57493],[-121.86785,36.57548],[-121.87128,36.5782],[-121.87375,36.57856],[-121.87246,36.581],[-121.87397,36.58195],[-121.87426,36.58481],[-121.87345,36.58508],[-121.87587,36.5882],[-121.87671,36.59156],[-121.87035,36.59253],[-121.87081,36.58876],[-121.86968,36.58735],[-121.86803,36.58614],[-121.8661,36.5876],[-121.86196,36.58566],[-121.86497,36.58315],[-121.86772,36.58588],[-121.86739,36.5845],[-121.8667,36.58442],[-121.8674,36.58152],[-121.86159,36.5742],[-121.85725,36.57402],[-121.85361,36.57834],[-121.85066,36.57834],[-121.85061,36.57983],[-121.85288,36.5798],[-121.85398,36.57835],[-121.8564,36.58358],[-121.84979,36.58398],[-121.84844,36.586],[-121.85454,36.58805],[-121.86187,36.58658],[-121.86357,36.58727],[-121.86303,36.58726],[-121.86354,36.58889],[-121.85818,36.5902],[-121.85666,36.5927],[-121.85224,36.59092],[-121.85169,36.59216],[-121.8529,36.5933],[-121.85144,36.59354],[-121.84583,36.59165],[-121.84645,36.5942],[-121.85013,36.59651],[-121.85099,36.59838],[-121.85558,36.60091],[-121.85629,36.6019],[-121.85587,36.60271],[-121.86013,36.60622],[-121.86014,36.6075],[-121.85779,36.60895],[-121.85767,36.61158],[-121.86334,36.61592],[-121.888,36.61529],[-121.88947,36.65458],[-121.90314,36.65425],[-121.9018,36.61864],[-121.9212,36.6092],[-121.91689,36.60422],[-121.92214,36.60154],[-121.92323,36.6025],[-121.92711,36.6004]],[[-121.86381,36.58243],[-121.86104,36.58536],[-121.85825,36.58419],[-121.8591,36.58296],[-121.85818,36.58259],[-121.85955,36.58162],[-121.86137,36.58179],[-121.86047,36.58304],[-121.86164,36.58363],[-121.86247,36.58166],[-121.86381,36.58243]]],[[[-121.84983,36.58306],[-121.83668,36.57917],[-121.83828,36.57461],[-121.83725,36.57381],[-121.83659,36.57474],[-121.83548,36.57464],[-121.83476,36.57671],[-121.83326,36.57705],[-121.83003,36.57619],[-121.82946,36.57694],[-121.82503,36.57771],[-121.81924,36.57338],[-121.80829,36.5715],[-121.80831,36.57637],[-121.80677,36.57627],[-121.80854,36.57704],[-121.80992,36.58227],[-121.81481,36.582],[-121.82541,36.5899],[-121.82769,36.58812],[-121.8289,36.58889],[-121.82944,36.58742],[-121.82664,36.58631],[-121.82664,36.58545],[-121.83025,36.58582],[-121.82797,36.58088],[-121.83105,36.58181],[-121.83697,36.58171],[-121.8463,36.585],[-121.84709,36.58344],[-121.84979,36.58398],[-121.84983,36.58306]]]]},"properties":{"GEOID":"0648872","NAME":"Monterey city","BASENAME":"Monterey","STATE":"06","PLACE":"48872"}},{"type":"Feature","geometry":{"type":"Polygon","coordinates":[[[-121.81991,36.68649],[-121.82076,36.68566],[-121.80831,36.67978],[-121.80798,36.67844],[-121.81407,36.66956],[-121.8165,36.66345],[-121.81738,36.65691],[-121.81598,36.65227],[-121.81436,36.65293],[-121.80133,36.65287],[-121.80133,36.65478],[-121.78975,36.6547],[-121.78972,36.66184],[-121.7757,36.66478],[-121.76653,36.67152],[-121.75674,36.66686],[-121.75044,36.67517],[-121.74508,36.67812],[-121.7481,36.67857],[-121.753,36.68098],[-121.75591,36.68709],[-121.75792,36.68604],[-121.75854,36.68703],[-121.75683,36.69626],[-121.78286,36.68716],[-121.78343,36.6891],[-121.77968,36.69887],[-121.78977,36.70226],[-121.79858,36.70663],[-121.80047,36.70288],[-121.80287,36.70382],[-121.80132,36.70772],[-121.80094,36.71203],[-121.7988,36.71202],[-121.80061,36.71391],[-121.79898,36.718],[-121.79988,36.723],[-121.79836,36.72503],[-121.80671,36.72853],[-121.81065,36.72851],[-121.81236,36.71393],[-121.81564,36.69894],[-121.81881,36.68806],[-121.81991,36.68649]]]},"properties":{"GEOID":"0645778","NAME":"Marina city","BASENAME":"Marina","STATE":"06","PLACE":"45778"}},{"type":"Feature","geometry":{"type":"Polygon","coordinates":[[[-121.87369,36.62577],[-121.87471,36.62476],[-121.85767,36.61158],[-121.85779,36.60895],[-121.86014,36.6075],[-121.86025,36.6064],[-121.85587,36.60271],[-121.85629,36.6019],[-121.85558,36.60091],[-121.8518,36.59863],[-121.85005,36.59974],[-121.84684,36.59714],[-121.84581,36.5971],[-121.80828,36.59681],[-121.79003,36.64385],[-121.78975,36.6547],[-121.80133,36.65478],[-121.80133,36.65287],[-121.81436,36.65293],[-121.81575,36.65239],[-121.81501,36.64997],[-121.81551,36.64857],[-121.82567,36.64211],[-121.83189,36.63645],[-121.83305,36.63422],[-121.84117,36.62498],[-121.8416,36.62173],[-121.84607,36.61417],[-121.85213,36.61002],[-121.85495,36.61014],[-121.85511,36.61239],[-121.85977,36.6144],[-121.87369,36.62577]]]},"properties":{"GEOID":"0670742","NAME":"Seaside city","BASENAME":"Seaside","STATE":"06","PLACE":"70742"}},{"type":"Feature","geometry":{"type":"MultiPolygon","coordinates":[[[[-121.6851,36.66681],[-121.6733,36.66231],[-121.67542,36.6586],[-121.66197,36.65338],[-121.66276,36.65081],[-121.66201,36.65055],[-121.66021,36.65572],[-121.64296,36.65177],[-121.63867,36.6528],[-121.6381,36.6526],[-121.64046,36.64835],[-121.6335,36.64581],[-121.63416,36.6447],[-121.62883,36.64412],[-121.61646,36.63973],[-121.61454,36.64186],[-121.61065,36.63903],[-121.60864,36.64248],[-121.61925,36.65009],[-121.61673,36.64996],[-121.61853,36.65306],[-121.6184,36.65631],[-121.61453,36.65673],[-121.6126,36.65796],[-121.59661,36.65122],[-121.59557,36.64992],[-121.59513,36.65059],[-121.5983,36.65379],[-121.59777,36.65404],[-121.59935,36.65622],[-121.59767,36.65703],[-121.5994,36.65928],[-121.59828,36.6598],[-121.59758,36.6617],[-121.59291,36.66368],[-121.60057,36.67227],[-121.59057,36.67804],[-121.59664,36.68557],[-121.57393,36.6985],[-121.59288,36.71902],[-121.60148,36.71967],[-121.60933,36.72234],[-121.60999,36.72026],[-121.62143,36.72097],[-121.6202,36.72411],[-121.61596,36.72816],[-121.62611,36.72907],[-121.63036,36.73096],[-121.63212,36.72761],[-121.65619,36.73443],[-121.65854,36.72451],[-121.65794,36.72177],[-121.665,36.72279],[-121.66921,36.71931],[-121.66387,36.71455],[-121.66327,36.71299],[-121.66414,36.71041],[-121.67252,36.70431],[-121.66964,36.70471],[-121.67049,36.70339],[-121.66824,36.70261],[-121.66984,36.70014],[-121.66863,36.69971],[-121.6694,36.69854],[-121.66826,36.69822],[-121.67117,36.69816],[-121.67181,36.69717],[-121.67053,36.69599],[-121.6713,36.69431],[-121.66843,36.69332],[-121.67268,36.68757],[-121.67368,36.68535],[-121.67258,36.68495],[-121.67307,36.68413],[-121.67501,36.68239],[-121.67502,36.67852],[-121.6851,36.66681]]],[[[-121.68591,36.6617],[-121.687,36.66049],[-121.6842,36.65901],[-121.68666,36.65604],[-121.68408,36.65895],[-121.68128,36.6577],[-121.68027,36.6589],[-121.68163,36.65855],[-121.68087,36.66017],[-121.68281,36.66129],[-121.68372,36.66494],[-121.68591,36.6617]]]]},"properties":{"GEOID":"0664224","NAME":"Salinas city","BASENAME":"Salinas","STATE":"06","PLACE":"64224"}}]}