{"type":"FeatureCollection","features":[{"type":"Feature","geometry":{"type":"Polygon","coordinates":[[[-122.38698,38.39466],[-122.38683,38.39104],[-122.38222,38.39107],[-122.3819,38.37988],[-122.37797,38.3821],[-122.37794,38.38717],[-122.37538,38.39066],[-122.37421,38.39117],[-122.3701,38.38578],[-122.35389,38.39301],[-122.35598,38.39528],[-122.35024,38.39985],[-122.36513,38.41339],[-122.36745,38.41154],[-122.36666,38.41029],[-122.37021,38.40825],[-122.36806,38.40648],[-122.36923,38.4055],[-122.36259,38.40021],[-122.36037,38.39736],[-122.36505,38.39525],[-122.3675,38.39849],[-122.37652,38.39462],[-122.38698,38.39466]]]},"properties":{"GEOID":"0686930","NAME":"Yountville city","BASENAME":"Yountville","STATE":"06","PLACE":"86930"}},{"type":"Feature","geometry":{"type":"Polygon","coordinates":[[[-122.60429,38.58366],[-122.60427,38.58083],[-122.60022,38.57854],[-122.59027,38.57399],[-122.57105,38.56734],[-122.56682,38.57499],[-122.56418,38.57403],[-122.56297,38.57268],[-122.56006,38.57209],[-122.55737,38.56925],[-122.55516,38.56877],[-122.55476,38.5703],[-122.56662,38.57536],[-122.5611,38.58536],[-122.56415,38.58612],[-122.57045,38.58521],[-122.57741,38.58903],[-122.58338,38.59807],[-122.59438,38.59113],[-122.59768,38.59437],[-122.59828,38.59398],[-122.59817,38.59162],[-122.59718,38.59211],[-122.59543,38.59045],[-122.60429,38.58366]]]},"properties":{"GEOID":"0609892","NAME":"Calistoga city","BASENAME":"Calistoga","STATE":"06","PLACE":"09892"}},{"type":"Feature","geometry":{"type":"MultiPolygon","coordinates":[[[[-122.49286,38.50773],[-122.49086,38.50663],[-122.48799,38.50689],[-122.48671,38.50627],[-122.48726,38.50402],[-122.49095,38.50432],[-122.49097,38.49462],[-122.4814,38.49466],[-122.48145,38.48787],[-122.47591,38.48648],[-122.46569,38.48677],[-122.46153,38.48969],[-122.45956,38.48801],[-122.44201,38.50101],[-122.44034,38.49866],[-122.43594,38.50194],[-122.43829,38.50282],[-122.44138,38.50541],[-122.44314,38.50537],[-122.45208,38.51038],[-122.45125,38.51075],[-122.4476,38.50915],[-122.4421,38.50892],[-122.44517,38.51008],[-122.44427,38.51228],[-122.43968,38.51293],[-122.4394,38.51986],[-122.44886,38.52004],[-122.44896,38.51609],[-122.44993,38.51609],[-122.44947,38.51314],[-122.45385,38.51344],[-122.45669,38.51119],[-122.45819,38.51144],[-122.45869,38.51442],[-122.46183,38.51449],[-122.46711,38.51876],[-122.47134,38.5189],[-122.47306,38.52087],[-122.48126,38.52299],[-122.49268,38.51398],[-122.4908,38.51255],[-122.49083,38.51048],[-122.49231,38.51104],[-122.4911,38.50887],[-122.49286,38.50773]]],[[[-122.49015,38.55879],[-122.49007,38.55515],[-122.48532,38.55515],[-122.48534,38.55361],[-122.48093,38.55363],[-122.48094,38.55588],[-122.47995,38.55606],[-122.47996,38.55875],[-122.49015,38.55879]]]]},"properties":{"GEOID":"0664140","NAME":"St. Helena city","BASENAME":"St. Helena","STATE":"06","PLACE":"64140"}},{"type":"Feature","geometry":{"type":"MultiPolygon","coordinates":[[[[-122.28386,38.20186],[-122.28391,38.19705],[-122.27853,38.19701],[-122.27865,38.18907],[-122.28169,38.18616],[-122.28232,38.18428],[-122.27673,38.18417],[-122.27682,38.18113],[-122.27188,38.18124],[-122.26956,38.16623],[-122.27918,38.16694],[-122.27917,38.16414],[-122.26803,38.16401],[-122.26687,38.16113],[-122.26472,38.16077],[-122.26474,38.15539],[-122.23201,38.15517],[-122.23023,38.15605],[-122.23119,38.15968],[-122.23077,38.16113],[-122.23443,38.16023],[-122.2346,38.16078],[-122.23286,38.16405],[-122.23193,38.16398],[-122.23164,38.16662],[-122.23468,38.16672],[-122.23686,38.16892],[-122.24129,38.16896],[-122.24184,38.17143],[-122.23866,38.17272],[-122.2399,38.17795],[-122.24266,38.17573],[-122.24102,38.17944],[-122.24342,38.19069],[-122.24706,38.19349],[-122.24707,38.19289],[-122.24886,38.1929],[-122.24943,38.19189],[-122.25067,38.18674],[-122.25173,38.18846],[-122.25485,38.18903],[-122.25487,38.19074],[-122.2528,38.19073],[-122.25491,38.19368],[-122.255,38.19512],[-122.25603,38.19517],[-122.25603,38.20455],[-122.2572,38.20454],[-122.25715,38.20576],[-122.25784,38.20575],[-122.25784,38.20635],[-122.25622,38.20637],[-122.25628,38.20764],[-122.26282,38.20471],[-122.26526,38.20832],[-122.2805,38.2055],[-122.28084,38.202],[-122.28386,38.20186]]],[[[-122.22773,38.2254],[-122.22773,38.22163],[-122.22628,38.22165],[-122.2263,38.22568],[-122.22773,38.2254]]]]},"properties":{"GEOID":"0601640","NAME":"American Canyon city","BASENAME":"American Canyon","STATE":"06","PLACE":"01640"}},{"type":"Feature","geometry":{"type":"MultiPolygon","coordinates":[[[[-122.35818,38.3028],[-122.35879,38.29935],[-122.33298,38.29162],[-122.33642,38.30432],[-122.33556,38.30354],[-122.33428,38.30413],[-122.33119,38.30358],[-122.33085,38.30206],[-122.32428,38.30189],[-122.32355,38.29932],[-122.32406,38.29701],[-122.3203,38.29456],[-122.32085,38.29352],[-122.31894,38.29288],[-122.31836,38.29396],[-122.3165,38.29296],[-122.31292,38.29328],[-122.31336,38.2926],[-122.31232,38.2926],[-122.31217,38.29191],[-122.31376,38.29124],[-122.31157,38.29122],[-122.31233,38.28777],[-122.31633,38.2874],[-122.31974,38.28196],[-122.30776,38.28191],[-122.30709,38.278],[-122.30588,38.27783],[-122.31054,38.27787],[-122.31054,38.27468],[-122.30577,38.27477],[-122.30588,38.2777],[-122.30246,38.27769],[-122.30131,38.27759],[-122.30099,38.27465],[-122.28393,38.27458],[-122.28658,38.27277],[-122.28745,38.2712],[-122.28628,38.2666],[-122.28508,38.26488],[-122.28688,38.26247],[-122.28723,38.2606],[-122.28349,38.25801],[-122.28341,38.2572],[-122.28144,38.25942],[-122.27869,38.26094],[-122.27775,38.26347],[-122.27331,38.26288],[-122.27094,38.26353],[-122.27907,38.25963],[-122.27888,38.2574],[-122.28238,38.2574],[-122.28345,38.25663],[-122.28306,38.25608],[-122.28439,38.25367],[-122.28414,38.24527],[-122.28548,38.24634],[-122.2881,38.24646],[-122.28962,38.24903],[-122.29464,38.25131],[-122.30266,38.26069],[-122.30679,38.25975],[-122.3057,38.24897],[-122.30341,38.24833],[-122.30763,38.24582],[-122.30333,38.24156],[-122.30829,38.2387],[-122.30603,38.23646],[-122.3073,38.23566],[-122.30351,38.232],[-122.30503,38.2293],[-122.30401,38.22747],[-122.29687,38.23173],[-122.28891,38.23316],[-122.28611,38.24429],[-122.28444,38.24387],[-122.28423,38.24458],[-122.28312,38.24454],[-122.27891,38.24361],[-122.27729,38.24365],[-122.27711,38.24508],[-122.27291,38.24391],[-122.27121,38.24441],[-122.27078,38.25029],[-122.27164,38.25447],[-122.27077,38.26396],[-122.27423,38.28051],[-122.26704,38.28006],[-122.26702,38.28057],[-122.26868,38.28019],[-122.26858,38.28122],[-122.27125,38.28192],[-122.26956,38.28269],[-122.26957,38.28439],[-122.26859,38.28439],[-122.26858,38.28205],[-122.26595,38.28128],[-122.26667,38.28348],[-122.26795,38.28348],[-122.26795,38.28556],[-122.26647,38.28558],[-122.26645,38.2846],[-122.26366,38.28455],[-122.26364,38.28346],[-122.26459,38.28369],[-122.26504,38.28235],[-122.26505,38.28],[-122.26259,38.2799],[-122.26147,38.2805],[-122.26167,38.28117],[-122.26004,38.2811],[-122.25993,38.2798],[-122.25584,38.27977],[-122.25584,38.2815],[-122.25496,38.2815],[-122.25491,38.28431],[-122.2558,38.2843],[-122.25493,38.28705],[-122.25598,38.28811],[-122.26407,38.28942],[-122.26407,38.29077],[-122.26335,38.29073],[-122.26335,38.29393],[-122.2581,38.29253],[-122.25694,38.29526],[-122.26122,38.29638],[-122.26187,38.29718],[-122.25989,38.30184],[-122.26122,38.30207],[-122.25819,38.30267],[-122.25765,38.30356],[-122.25813,38.30448],[-122.25912,38.3044],[-122.25963,38.30736],[-122.26238,38.30806],[-122.26265,38.30707],[-122.2643,38.30634],[-122.26667,38.30798],[-122.26757,38.31066],[-122.26583,38.31112],[-122.26633,38.31175],[-122.27089,38.31115],[-122.26954,38.31227],[-122.27048,38.31544],[-122.2723,38.31592],[-122.27226,38.31527],[-122.27448,38.31496],[-122.27437,38.3164],[-122.27315,38.31696],[-122.27387,38.31746],[-122.27327,38.31889],[-122.27087,38.31881],[-122.2707,38.31708],[-122.26972,38.31741],[-122.2699,38.31878],[-122.265,38.31909],[-122.26509,38.32288],[-122.26908,38.32265],[-122.27021,38.32192],[-122.2717,38.32298],[-122.27255,38.3219],[-122.27199,38.32069],[-122.27526,38.31971],[-122.27553,38.31696],[-122.27774,38.31653],[-122.28158,38.31862],[-122.28421,38.32529],[-122.28885,38.32475],[-122.29009,38.32904],[-122.2944,38.33643],[-122.29498,38.33553],[-122.29716,38.33492],[-122.29644,38.33405],[-122.29786,38.33334],[-122.29863,38.33425],[-122.30037,38.33329],[-122.30266,38.3362],[-122.30399,38.33545],[-122.30938,38.34243],[-122.31067,38.3418],[-122.31249,38.34413],[-122.31141,38.34473],[-122.31237,38.34598],[-122.31361,38.34531],[-122.31617,38.34868],[-122.31852,38.34741],[-122.31889,38.34801],[-122.32264,38.3468],[-122.32101,38.34371],[-122.32545,38.34227],[-122.3306,38.35088],[-122.33497,38.34951],[-122.3311,38.34647],[-122.3343,38.34542],[-122.33307,38.3439],[-122.33431,38.34346],[-122.32773,38.33615],[-122.33881,38.32984],[-122.33793,38.32895],[-122.34906,38.32548],[-122.34769,38.32369],[-122.3487,38.32276],[-122.34471,38.32497],[-122.34339,38.32325],[-122.33921,38.32562],[-122.33704,38.32271],[-122.33931,38.32138],[-122.33673,38.31862],[-122.33116,38.32188],[-122.32716,38.31787],[-122.33033,38.31726],[-122.32992,38.31521],[-122.33202,38.31607],[-122.33205,38.31692],[-122.3329,38.31656],[-122.33215,38.31547],[-122.33304,38.31482],[-122.33297,38.31369],[-122.33544,38.31335],[-122.33792,38.31397],[-122.33819,38.31597],[-122.33895,38.31523],[-122.33934,38.31649],[-122.34086,38.31657],[-122.34107,38.31573],[-122.34243,38.31559],[-122.34392,38.317],[-122.34357,38.31563],[-122.34483,38.31561],[-122.34588,38.31656],[-122.34482,38.31808],[-122.3468,38.3169],[-122.34955,38.31662],[-122.3506,38.31528],[-122.34921,38.31351],[-122.35065,38.3134],[-122.35008,38.31249],[-122.35062,38.31208],[-122.34983,38.31149],[-122.35026,38.31082],[-122.34896,38.31059],[-122.35034,38.3093],[-122.35736,38.30748],[-122.35818,38.3028]],[[-122.26941,38.29157],[-122.2694,38.29219],[-122.26787,38.29235],[-122.26941,38.29157]],[[-122.27531,38.29271],[-122.27397,38.29281],[-122.27383,38.29224],[-122.27518,38.29213],[-122.27531,38.29271]],[[-122.27037,38.28901],[-122.27029,38.28977],[-122.26934,38.28953],[-122.26932,38.28869],[-122.27037,38.28901]],[[-122.2717,38.2912],[-122.26942,38.29129],[-122.27072,38.2905],[-122.2717,38.2905],[-122.2717,38.2912]],[[-122.26704,38.2891],[-122.26662,38.29029],[-122.26522,38.28967],[-122.26704,38.2891]],[[-122.30729,38.30234],[-122.30725,38.30351],[-122.30678,38.3029],[-122.30598,38.30362],[-122.30507,38.30203],[-122.30625,38.30148],[-122.30729,38.30234]],[[-122.32211,38.31064],[-122.3198,38.31164],[-122.31993,38.31024],[-122.31872,38.30992],[-122.3212,38.30902],[-122.32211,38.31064]],[[-122.32157,38.30428],[-122.31971,38.3063],[-122.31892,38.30499],[-122.31984,38.30323],[-122.32157,38.30428]],[[-122.31784,38.31791],[-122.31717,38.31839],[-122.31754,38.31973],[-122.3161,38.31998],[-122.31574,38.31934],[-122.31337,38.32012],[-122.31292,38.31856],[-122.30869,38.31878],[-122.30808,38.31744],[-122.3093,38.31744],[-122.30808,38.31575],[-122.31,38.31507],[-122.30933,38.31355],[-122.31175,38.31386],[-122.31136,38.31196],[-122.31249,38.31136],[-122.31413,38.31267],[-122.31438,38.31351],[-122.31358,38.31383],[-122.31592,38.31323],[-122.31651,38.31539],[-122.31498,38.31642],[-122.31528,38.31745],[-122.3176,38.31703],[-122.31784,38.31791]]],[[[-122.2263,38.22568],[-122.22628,38.22165],[-122.22354,38.22104],[-122.22227,38.22173],[-122.22227,38.22572],[-122.2263,38.22568]]],[[[-122.31055,38.26984],[-122.31054,38.26883],[-122.3069,38.2692],[-122.30689,38.27068],[-122.30581,38.27064],[-122.30578,38.27289],[-122.30689,38.27287],[-122.30691,38.27122],[-122.30886,38.27205],[-122.30885,38.27279],[-122.3105,38.27285],[-122.31055,38.26984]]],[[[-122.28636,38.32786],[-122.28513,38.32625],[-122.28538,38.3255],[-122.28425,38.32534],[-122.28457,38.32582],[-122.28307,38.32734],[-122.28355,38.32936],[-122.28237,38.33018],[-122.28225,38.33142],[-122.28613,38.3295],[-122.28573,38.32873],[-122.28636,38.32786]]],[[[-122.26735,38.21162],[-122.26543,38.2087],[-122.26333,38.20867],[-122.2634,38.21157],[-122.26735,38.21162]]],[[[-122.27786,38.32747],[-122.27692,38.32511],[-122.27526,38.32536],[-122.27557,38.32656],[-122.27786,38.32747]]],[[[-122.30733,38.27346],[-122.30578,38.27345],[-122.30578,38.27455],[-122.30676,38.27454],[-122.30733,38.27346]]],[[[-122.31333,38.31282],[-122.31269,38.31198],[-122.31195,38.31248],[-122.31212,38.31304],[-122.31333,38.31282]]],[[[-122.34806,38.31794],[-122.34781,38.3177],[-122.34729,38.31741],[-122.34806,38.31794]]],[[[-122.2705,38.28228],[-122.27048,38.28209],[-122.27035,38.28198],[-122.2705,38.28228]]],[[[-122.26956,38.28166],[-122.26956,38.28152],[-122.26908,38.28153],[-122.26956,38.28166]]]]},"properties":{"GEOID":"0650258","NAME":"Napa city","BASENAME":"Napa","STATE":"06","PLACE":"50258"}}]}