{"type":"FeatureCollection","features":[{"type":"Feature","geometry":{"type":"MultiPolygon","coordinates":[[[[-121.03936,39.26637],[-121.03847,39.26446],[-121.03293,39.26444],[-121.03143,39.2655],[-121.03053,39.2647],[-121.03016,39.26222],[-121.03286,39.2618],[-121.03288,39.26022],[-121.03801,39.2589],[-121.03717,39.25498],[-121.03327,39.25145],[-121.03047,39.25029],[-121.03088,39.24812],[-121.02957,39.24813],[-121.02933,39.24631],[-121.03096,39.24364],[-121.02637,39.24637],[-121.02498,39.24835],[-121.02134,39.24678],[-121.01588,39.24709],[-121.01248,39.25256],[-121.01132,39.25256],[-121.01132,39.2519],[-121.01029,39.25234],[-121.01126,39.25315],[-121.01003,39.2532],[-121.01,39.25744],[-121.00925,39.25784],[-121.00977,39.2583],[-121.00919,39.25908],[-121.0102,39.26123],[-121.00884,39.26148],[-121.01017,39.26223],[-121.01061,39.26364],[-121.00837,39.26461],[-121.00968,39.26606],[-121.00957,39.2675],[-121.00877,39.26762],[-121.0101,39.26866],[-121.00871,39.26951],[-121.0097,39.27012],[-121.00911,39.27155],[-121.00991,39.27156],[-121.0069,39.27412],[-121.01147,39.27249],[-121.01603,39.26762],[-121.01702,39.26763],[-121.01732,39.2713],[-121.01987,39.27126],[-121.02006,39.26908],[-121.02152,39.26914],[-121.02173,39.27185],[-121.0223,39.27201],[-121.02184,39.27266],[-121.02352,39.27327],[-121.02499,39.27201],[-121.02531,39.27073],[-121.02461,39.27011],[-121.02574,39.26983],[-121.02587,39.27068],[-121.02823,39.27099],[-121.03001,39.2692],[-121.03639,39.27034],[-121.03701,39.26951],[-121.03553,39.26878],[-121.03656,39.26803],[-121.03616,39.26633],[-121.03936,39.26637]]],[[[-121.03876,39.27802],[-121.03875,39.27457],[-121.02706,39.2746],[-121.02715,39.27582],[-121.02494,39.27696],[-121.02606,39.27832],[-121.03876,39.27802]]]]},"properties":{"GEOID":"0650874","NAME":"Nevada City city","BASENAME":"Nevada City","STATE":"06","PLACE":"50874"}},{"type":"Feature","geometry":{"type":"MultiPolygon","coordinates":[[[[-121.0836,39.21476],[-121.08244,39.21326],[-121.08305,39.21322],[-121.08273,39.21224],[-121.08172,39.2123],[-121.07909,39.20866],[-121.07548,39.20906],[-121.07451,39.2084],[-121.07876,39.20353],[-121.08295,39.20152],[-121.08296,39.20079],[-121.07839,39.20055],[-121.07786,39.20282],[-121.07594,39.20328],[-121.07543,39.20535],[-121.0742,39.20653],[-121.07489,39.20748],[-121.07169,39.20924],[-121.07195,39.20829],[-121.06971,39.20729],[-121.06963,39.20255],[-121.06586,39.19979],[-121.06557,39.19817],[-121.06718,39.19674],[-121.06564,39.19377],[-121.06464,39.19365],[-121.06467,39.19512],[-121.06161,39.19514],[-121.06128,39.19219],[-121.06003,39.19176],[-121.05962,39.18809],[-121.05696,39.18799],[-121.05696,39.19164],[-121.05263,39.19148],[-121.05181,39.18837],[-121.05236,39.18434],[-121.04735,39.18457],[-121.04674,39.18205],[-121.04377,39.18161],[-121.04351,39.187],[-121.04695,39.18626],[-121.04734,39.1874],[-121.04651,39.19331],[-121.0456,39.19329],[-121.04545,39.19545],[-121.04655,39.19958],[-121.05012,39.19923],[-121.0561,39.2011],[-121.05777,39.20271],[-121.05776,39.20512],[-121.05902,39.20535],[-121.06016,39.20724],[-121.06005,39.20873],[-121.05781,39.20792],[-121.05787,39.20879],[-121.05518,39.20887],[-121.05588,39.21172],[-121.05441,39.21256],[-121.05045,39.21083],[-121.05147,39.20967],[-121.05076,39.20899],[-121.04902,39.20959],[-121.04929,39.21184],[-121.04956,39.21126],[-121.0518,39.21173],[-121.05274,39.21357],[-121.05404,39.21329],[-121.05414,39.21423],[-121.05244,39.2145],[-121.0531,39.21576],[-121.04962,39.21551],[-121.05118,39.21896],[-121.05002,39.21902],[-121.05005,39.2199],[-121.04637,39.21988],[-121.04528,39.22294],[-121.04089,39.22359],[-121.0388,39.22148],[-121.03388,39.22101],[-121.03469,39.21764],[-121.03006,39.21802],[-121.02693,39.21695],[-121.02356,39.21907],[-121.02565,39.22055],[-121.02638,39.22392],[-121.01933,39.22561],[-121.01578,39.22749],[-121.01095,39.22648],[-121.0091,39.22705],[-121.00913,39.23169],[-121.02341,39.23104],[-121.02348,39.23],[-121.02764,39.22801],[-121.03003,39.22796],[-121.03283,39.23101],[-121.03283,39.2319],[-121.02814,39.2323],[-121.02917,39.23665],[-121.03099,39.23726],[-121.03197,39.23854],[-121.03208,39.24143],[-121.03282,39.24166],[-121.03116,39.24297],[-121.03158,39.24337],[-121.03543,39.24334],[-121.03624,39.24235],[-121.03686,39.24334],[-121.03875,39.2432],[-121.03908,39.24412],[-121.04028,39.24391],[-121.04033,39.24176],[-121.04747,39.24169],[-121.04745,39.2437],[-121.05161,39.24211],[-121.04956,39.24073],[-121.04877,39.23812],[-121.05589,39.23809],[-121.05815,39.23933],[-121.0556,39.24097],[-121.05713,39.24324],[-121.06559,39.2435],[-121.07131,39.24279],[-121.07427,39.24375],[-121.07476,39.24304],[-121.07244,39.24151],[-121.06558,39.24147],[-121.06587,39.23552],[-121.06811,39.23534],[-121.06655,39.2321],[-121.06461,39.23209],[-121.06464,39.23136],[-121.06605,39.23099],[-121.06606,39.22579],[-121.06678,39.22575],[-121.06687,39.22433],[-121.06794,39.22424],[-121.06755,39.22304],[-121.06993,39.22416],[-121.0708,39.22702],[-121.07168,39.22702],[-121.0735,39.22271],[-121.07259,39.22209],[-121.07483,39.22217],[-121.07599,39.22319],[-121.07852,39.22281],[-121.07848,39.22087],[-121.07905,39.22085],[-121.08055,39.21469],[-121.0836,39.21476]]],[[[-121.0538,39.20834],[-121.05273,39.20808],[-121.05264,39.20884],[-121.05352,39.20908],[-121.0538,39.20834]]],[[[-121.07041,39.22992],[-121.06954,39.22916],[-121.0699,39.22729],[-121.06824,39.22783],[-121.0683,39.22677],[-121.06753,39.22678],[-121.06705,39.2294],[-121.06782,39.231],[-121.07041,39.22992]]]]},"properties":{"GEOID":"0630798","NAME":"Grass Valley city","BASENAME":"Grass Valley","STATE":"06","PLACE":"30798"}},{"type":"Feature","geometry":{"type":"Polygon","coordinates":[[[-120.30119,39.32135],[-120.30159,39.31637],[-120.14365,39.31641],[-120.1463,39.31767],[-120.1469,39.31687],[-120.15236,39.31931],[-120.15155,39.32066],[-120.15949,39.32414],[-120.15933,39.32704],[-120.15056,39.32346],[-120.14999,39.3244],[-120.14331,39.32144],[-120.14318,39.32977],[-120.13067,39.32923],[-120.13143,39.33032],[-120.11964,39.33086],[-120.12006,39.33301],[-120.11931,39.33425],[-120.11823,39.33446],[-120.11771,39.33632],[-120.11757,39.3443],[-120.11577,39.34429],[-120.11577,39.34098],[-120.10425,39.34106],[-120.1046,39.34463],[-120.07746,39.34491],[-120.07789,39.35979],[-120.08155,39.36009],[-120.0815,39.36369],[-120.08542,39.36373],[-120.08586,39.38732],[-120.09476,39.38499],[-120.10016,39.38065],[-120.11331,39.37497],[-120.11674,39.37258],[-120.11622,39.36799],[-120.13775,39.36786],[-120.13776,39.37485],[-120.14934,39.37472],[-120.15843,39.36814],[-120.16092,39.36729],[-120.16312,39.36759],[-120.17092,39.37247],[-120.18167,39.37258],[-120.18279,39.37009],[-120.18478,39.37],[-120.18473,39.3671],[-120.19576,39.36755],[-120.20217,39.3664],[-120.20702,39.36401],[-120.2086,39.36453],[-120.22041,39.36312],[-120.22518,39.36528],[-120.22798,39.36853],[-120.23222,39.36863],[-120.23648,39.37087],[-120.23652,39.37414],[-120.25484,39.37397],[-120.25471,39.35868],[-120.27334,39.35816],[-120.27354,39.34253],[-120.25407,39.34269],[-120.25437,39.34028],[-120.25614,39.34026],[-120.25618,39.33706],[-120.25354,39.33712],[-120.25373,39.33183],[-120.25837,39.33203],[-120.27408,39.32792],[-120.28819,39.33187],[-120.29221,39.33142],[-120.297,39.32831],[-120.29964,39.3285],[-120.30094,39.32979],[-120.30119,39.32135]]]},"properties":{"GEOID":"0680588","NAME":"Truckee town","BASENAME":"Truckee","STATE":"06","PLACE":"80588"}}]}