{"type":"FeatureCollection","features":[{"type":"Feature","geometry":{"type":"Polygon","coordinates":[[[-118.05883,33.8462],[-118.04982,33.84069],[-118.0498,33.83894],[-118.047,33.83897],[-118.04142,33.83554],[-118.04147,33.83901],[-118.03495,33.83907],[-118.03506,33.8406],[-118.03712,33.84058],[-118.03713,33.84178],[-118.0328,33.84182],[-118.03284,33.84456],[-118.02855,33.84459],[-118.02862,33.85089],[-118.03729,33.8508],[-118.03736,33.85366],[-118.03303,33.8537],[-118.03315,33.85877],[-118.02852,33.85881],[-118.02858,33.86625],[-118.0376,33.86601],[-118.03754,33.86237],[-118.04188,33.86233],[-118.04185,33.85872],[-118.04619,33.85869],[-118.04608,33.85361],[-118.0504,33.85354],[-118.05038,33.84987],[-118.05472,33.84982],[-118.05469,33.84622],[-118.05883,33.8462]]]},"properties":{"GEOID":"0640256","NAME":"La Palma city","BASENAME":"La Palma","STATE":"06","PLACE":"40256"}},{"type":"Feature","geometry":{"type":"Polygon","coordinates":[[[-117.82716,33.81458],[-117.82715,33.81381],[-117.82327,33.81383],[-117.82199,33.81221],[-117.81982,33.81226],[-117.8198,33.81044],[-117.82196,33.81042],[-117.82188,33.80231],[-117.82027,33.80232],[-117.82025,33.80596],[-117.81801,33.80598],[-117.81797,33.80234],[-117.8157,33.80226],[-117.8098,33.80703],[-117.80887,33.80705],[-117.80892,33.81068],[-117.80089,33.8109],[-117.80083,33.81307],[-117.79885,33.81312],[-117.79948,33.81439],[-117.80089,33.81447],[-117.8009,33.81814],[-117.79575,33.81771],[-117.79604,33.82334],[-117.79363,33.82453],[-117.79374,33.82634],[-117.79616,33.82929],[-117.80109,33.83194],[-117.80146,33.83073],[-117.80646,33.8297],[-117.81288,33.82496],[-117.818,33.82515],[-117.82428,33.82684],[-117.8242,33.82372],[-117.82626,33.82367],[-117.82387,33.81947],[-117.82,33.81955],[-117.81995,33.81772],[-117.82323,33.81763],[-117.8225,33.81466],[-117.82716,33.81458]]]},"properties":{"GEOID":"0682744","NAME":"Villa Park city","BASENAME":"Villa Park","STATE":"06","PLACE":"82744"}},{"type":"Feature","geometry":{"type":"Polygon","coordinates":[[[-118.01809,33.8063],[-118.01089,33.80415],[-118.01105,33.79919],[-118.00165,33.79923],[-118.00156,33.79195],[-117.99929,33.79197],[-117.99924,33.78834],[-117.995,33.78836],[-117.99503,33.78609],[-117.99301,33.78617],[-117.99299,33.78472],[-117.99713,33.78463],[-117.99716,33.78744],[-117.99889,33.78743],[-117.99872,33.77469],[-117.99288,33.77473],[-117.99287,33.77373],[-117.9894,33.77375],[-117.9883,33.77382],[-117.9884,33.78113],[-117.99028,33.78112],[-117.98957,33.78182],[-117.98958,33.78404],[-117.98842,33.78409],[-117.98841,33.78212],[-117.98678,33.78213],[-117.9868,33.78481],[-117.98408,33.78479],[-117.98412,33.78752],[-117.98237,33.78753],[-117.98238,33.78843],[-117.99065,33.78839],[-117.99069,33.79111],[-117.98851,33.79111],[-117.98853,33.79214],[-117.99177,33.7921],[-117.99177,33.79296],[-117.98859,33.79297],[-117.98882,33.80074],[-117.98443,33.8006],[-117.98446,33.80298],[-117.97728,33.80305],[-117.97731,33.80376],[-117.98009,33.80348],[-117.98012,33.80658],[-117.97567,33.80573],[-117.97666,33.80376],[-117.97564,33.80307],[-117.97565,33.8038],[-117.97396,33.80381],[-117.97398,33.80566],[-117.97192,33.80569],[-117.97193,33.80661],[-117.96757,33.80665],[-117.96758,33.80734],[-117.97529,33.80727],[-117.97193,33.80769],[-117.97195,33.8114],[-117.97574,33.81078],[-117.97577,33.8125],[-117.97639,33.81032],[-117.97794,33.8103],[-117.97796,33.81112],[-117.97847,33.8103],[-117.98015,33.81028],[-117.98018,33.81392],[-117.97579,33.81396],[-117.97581,33.81577],[-117.99551,33.81565],[-117.99549,33.8147],[-117.99767,33.81468],[-117.99766,33.81375],[-118.00578,33.81368],[-118.00287,33.81189],[-118.01191,33.81107],[-118.01181,33.80998],[-118.0107,33.80999],[-118.01068,33.80628],[-118.01809,33.8063]]]},"properties":{"GEOID":"0673962","NAME":"Stanton city","BASENAME":"Stanton","STATE":"06","PLACE":"73962"}},{"type":"Feature","geometry":{"type":"Polygon","coordinates":[[[-117.75695,33.6161],[-117.75735,33.61533],[-117.75406,33.61228],[-117.75636,33.6103],[-117.75173,33.60665],[-117.7516,33.59885],[-117.74806,33.59774],[-117.74298,33.60259],[-117.73984,33.60686],[-117.7338,33.60888],[-117.73559,33.6023],[-117.73448,33.5996],[-117.73262,33.59976],[-117.73243,33.60606],[-117.72912,33.60616],[-117.7257,33.60602],[-117.7254,33.60351],[-117.72324,33.60292],[-117.72265,33.59969],[-117.723,33.60313],[-117.72367,33.60313],[-117.72425,33.60537],[-117.72244,33.60712],[-117.7173,33.60142],[-117.71642,33.59762],[-117.708,33.59437],[-117.70687,33.59322],[-117.70155,33.59571],[-117.7016,33.5983],[-117.70346,33.60442],[-117.7059,33.60636],[-117.71072,33.60757],[-117.7125,33.60923],[-117.71285,33.61339],[-117.71027,33.61514],[-117.71438,33.621],[-117.73132,33.6211],[-117.7311,33.61748],[-117.73662,33.61727],[-117.7382,33.61633],[-117.73663,33.61397],[-117.73871,33.61306],[-117.73955,33.61439],[-117.7412,33.61472],[-117.74129,33.61572],[-117.74354,33.6148],[-117.74329,33.6174],[-117.74399,33.61916],[-117.74335,33.62101],[-117.74626,33.62116],[-117.74783,33.61899],[-117.75092,33.62051],[-117.75178,33.62229],[-117.75344,33.62337],[-117.75266,33.62571],[-117.75349,33.62666],[-117.75687,33.62533],[-117.75579,33.62332],[-117.75555,33.6205],[-117.75695,33.6161]]]},"properties":{"GEOID":"0639259","NAME":"Laguna Woods city","BASENAME":"Laguna Woods","STATE":"06","PLACE":"39259"}},{"type":"Feature","geometry":{"type":"Polygon","coordinates":[[[-118.09259,33.78682],[-118.09303,33.78612],[-118.08924,33.78502],[-118.08905,33.78804],[-118.08595,33.79688],[-118.08105,33.80293],[-118.07196,33.80303],[-118.07187,33.78496],[-118.06763,33.78495],[-118.06764,33.78132],[-118.04157,33.78113],[-118.04151,33.79212],[-118.03711,33.7921],[-118.03708,33.79452],[-118.03498,33.79451],[-118.03498,33.79567],[-118.03281,33.79567],[-118.03277,33.8007],[-118.03712,33.80071],[-118.03709,33.80305],[-118.05445,33.80315],[-118.05447,33.81039],[-118.06305,33.81042],[-118.06317,33.81968],[-118.07283,33.81486],[-118.08474,33.80291],[-118.08623,33.79688],[-118.09259,33.78682]]]},"properties":{"GEOID":"0643224","NAME":"Los Alamitos city","BASENAME":"Los Alamitos","STATE":"06","PLACE":"43224"}},{"type":"Feature","geometry":{"type":"Polygon","coordinates":[[[-117.88497,33.85363],[-117.8688,33.85774],[-117.87106,33.8609],[-117.87002,33.86114],[-117.87033,33.86202],[-117.8617,33.8633],[-117.86245,33.865],[-117.86719,33.86375],[-117.86771,33.86716],[-117.86515,33.86772],[-117.8653,33.86866],[-117.83711,33.86817],[-117.83706,33.86417],[-117.83126,33.86423],[-117.83124,33.86211],[-117.82835,33.86213],[-117.82831,33.86102],[-117.82341,33.8609],[-117.82342,33.86202],[-117.81843,33.86204],[-117.81852,33.86746],[-117.81626,33.87222],[-117.82614,33.87217],[-117.82609,33.8706],[-117.82846,33.87121],[-117.82848,33.87416],[-117.83147,33.8742],[-117.83143,33.87702],[-117.83432,33.87698],[-117.83436,33.87991],[-117.84159,33.87979],[-117.84156,33.88267],[-117.83439,33.88275],[-117.83436,33.87991],[-117.83147,33.87996],[-117.83153,33.88529],[-117.83734,33.88553],[-117.83796,33.89013],[-117.84178,33.89015],[-117.84165,33.88828],[-117.84443,33.88824],[-117.84583,33.90396],[-117.84218,33.904],[-117.84212,33.90329],[-117.83997,33.90317],[-117.84005,33.9066],[-117.84087,33.90659],[-117.84084,33.90531],[-117.8423,33.90523],[-117.84232,33.90629],[-117.84295,33.90627],[-117.84224,33.90656],[-117.84241,33.91015],[-117.84602,33.9067],[-117.846,33.90574],[-117.85508,33.90565],[-117.85513,33.90751],[-117.86388,33.9074],[-117.86386,33.90558],[-117.86813,33.90556],[-117.8681,33.90371],[-117.87245,33.90367],[-117.87238,33.8982],[-117.87578,33.89816],[-117.87577,33.89633],[-117.87675,33.89636],[-117.87672,33.89038],[-117.87413,33.89043],[-117.87305,33.89187],[-117.86544,33.88931],[-117.86738,33.88275],[-117.87374,33.88406],[-117.87461,33.8805],[-117.87696,33.88097],[-117.88497,33.85363]]]},"properties":{"GEOID":"0657526","NAME":"Placentia city","BASENAME":"Placentia","STATE":"06","PLACE":"57526"}},{"type":"Feature","geometry":{"type":"Polygon","coordinates":[[[-118.06332,33.83153],[-118.06305,33.81042],[-118.05447,33.81039],[-118.05445,33.80315],[-118.03709,33.80305],[-118.03712,33.80071],[-118.03277,33.8007],[-118.03281,33.79567],[-118.03498,33.79567],[-118.03498,33.79451],[-118.03708,33.79452],[-118.03711,33.7921],[-118.01109,33.792],[-118.01089,33.80415],[-118.01819,33.80631],[-118.01068,33.80628],[-118.0107,33.80999],[-118.02806,33.80983],[-118.0281,33.81703],[-118.01951,33.81717],[-118.0196,33.82544],[-118.01743,33.82545],[-118.01744,33.82636],[-118.01961,33.82634],[-118.01966,33.83081],[-118.02169,33.8308],[-118.02171,33.83189],[-118.03267,33.83179],[-118.03276,33.83821],[-118.03457,33.83808],[-118.03459,33.83907],[-118.04147,33.83901],[-118.04142,33.83554],[-118.047,33.83897],[-118.0498,33.83894],[-118.04982,33.84069],[-118.05892,33.8462],[-118.05899,33.83521],[-118.06069,33.83456],[-118.06332,33.83153]]]},"properties":{"GEOID":"0617750","NAME":"Cypress city","BASENAME":"Cypress","STATE":"06","PLACE":"17750"}},{"type":"Feature","geometry":{"type":"Polygon","coordinates":[[[-117.73233,33.49338],[-117.73226,33.48483],[-117.7278,33.48361],[-117.72521,33.48097],[-117.7219,33.4755],[-117.72185,33.47364],[-117.71978,33.47183],[-117.71557,33.46452],[-117.71502,33.4632],[-117.71571,33.4611],[-117.71462,33.45991],[-117.70805,33.4606],[-117.70472,33.45801],[-117.69136,33.45428],[-117.68986,33.45785],[-117.68952,33.46117],[-117.68134,33.46165],[-117.67535,33.45918],[-117.66538,33.45269],[-117.65663,33.44853],[-117.64485,33.44031],[-117.64519,33.4418],[-117.65011,33.44538],[-117.64749,33.44838],[-117.64909,33.45158],[-117.65132,33.44894],[-117.65727,33.45268],[-117.65698,33.45364],[-117.65997,33.45447],[-117.65545,33.4598],[-117.65361,33.46059],[-117.65469,33.46407],[-117.65638,33.46327],[-117.66766,33.46731],[-117.67371,33.46663],[-117.6757,33.47019],[-117.6762,33.46816],[-117.67934,33.46906],[-117.67814,33.47255],[-117.67937,33.47352],[-117.67813,33.47827],[-117.68537,33.48077],[-117.68409,33.48503],[-117.68259,33.48723],[-117.68733,33.4872],[-117.69906,33.49122],[-117.70239,33.49078],[-117.70671,33.48895],[-117.70936,33.48896],[-117.71355,33.49084],[-117.71712,33.49461],[-117.72162,33.4947],[-117.72566,33.49746],[-117.72976,33.49655],[-117.73068,33.49823],[-117.73227,33.49823],[-117.73226,33.49543],[-117.73118,33.49499],[-117.73233,33.49338]]]},"properties":{"GEOID":"0617946","NAME":"Dana Point city","BASENAME":"Dana Point","STATE":"06","PLACE":"17946"}},{"type":"Feature","geometry":{"type":"Polygon","coordinates":[[[-117.74626,33.62116],[-117.74335,33.62101],[-117.74399,33.61916],[-117.74329,33.6174],[-117.74354,33.6148],[-117.74129,33.61572],[-117.7412,33.61472],[-117.73955,33.61439],[-117.73871,33.61306],[-117.73663,33.61397],[-117.7382,33.61633],[-117.73662,33.61727],[-117.7311,33.61748],[-117.73132,33.6211],[-117.71438,33.621],[-117.71027,33.61514],[-117.71285,33.61339],[-117.7125,33.60923],[-117.71037,33.60739],[-117.70627,33.60651],[-117.70377,33.60475],[-117.70153,33.59792],[-117.70155,33.59571],[-117.70676,33.59321],[-117.708,33.59437],[-117.71649,33.59763],[-117.71604,33.59564],[-117.70896,33.58522],[-117.71066,33.58508],[-117.71176,33.58389],[-117.71047,33.5828],[-117.70976,33.58072],[-117.70692,33.57972],[-117.70539,33.57675],[-117.70539,33.57456],[-117.70095,33.57222],[-117.70082,33.56939],[-117.69284,33.5626],[-117.69185,33.55883],[-117.68547,33.55737],[-117.67645,33.56353],[-117.6764,33.57803],[-117.67322,33.57803],[-117.67449,33.59631],[-117.67532,33.59701],[-117.7034,33.61096],[-117.71013,33.61685],[-117.72089,33.62833],[-117.74122,33.63105],[-117.74312,33.62551],[-117.74626,33.62116]]]},"properties":{"GEOID":"0639220","NAME":"Laguna Hills city","BASENAME":"Laguna Hills","STATE":"06","PLACE":"39220"}},{"type":"Feature","geometry":{"type":"Polygon","coordinates":[[[-117.75717,33.58564],[-117.75631,33.58485],[-117.7548,33.58652],[-117.746,33.58234],[-117.74573,33.58036],[-117.74418,33.57946],[-117.74322,33.5773],[-117.74421,33.57493],[-117.74335,33.57417],[-117.74251,33.57587],[-117.74101,33.57548],[-117.742,33.57518],[-117.74244,33.57364],[-117.7408,33.57145],[-117.74333,33.56194],[-117.74003,33.56238],[-117.74013,33.55962],[-117.73843,33.55988],[-117.73823,33.55867],[-117.73646,33.55852],[-117.73643,33.55765],[-117.73508,33.55697],[-117.73695,33.55572],[-117.73683,33.55378],[-117.73866,33.55346],[-117.73724,33.54839],[-117.73614,33.54962],[-117.73515,33.5487],[-117.7336,33.54982],[-117.73127,33.54734],[-117.73013,33.54729],[-117.73,33.55017],[-117.72929,33.54921],[-117.72935,33.54503],[-117.72762,33.54451],[-117.72585,33.5442],[-117.72345,33.54594],[-117.72283,33.54906],[-117.7212,33.55036],[-117.72162,33.55112],[-117.71792,33.55624],[-117.71893,33.55872],[-117.71633,33.56105],[-117.71593,33.56601],[-117.71494,33.56791],[-117.7153,33.56974],[-117.71427,33.57122],[-117.70858,33.56927],[-117.70296,33.57151],[-117.70084,33.56977],[-117.70095,33.57222],[-117.70539,33.57456],[-117.70539,33.57675],[-117.70692,33.57972],[-117.70942,33.58035],[-117.71176,33.58389],[-117.71066,33.58508],[-117.70896,33.58522],[-117.71604,33.59564],[-117.7173,33.60142],[-117.72244,33.60712],[-117.72425,33.60537],[-117.72367,33.60313],[-117.723,33.60313],[-117.72265,33.59969],[-117.72324,33.60292],[-117.7254,33.60351],[-117.7257,33.60602],[-117.72912,33.60616],[-117.73243,33.60606],[-117.73262,33.59976],[-117.73448,33.5996],[-117.73559,33.6023],[-117.7338,33.60888],[-117.73924,33.60724],[-117.74797,33.59798],[-117.75038,33.59211],[-117.75717,33.58564]]]},"properties":{"GEOID":"0600947","NAME":"Aliso Viejo city","BASENAME":"Aliso Viejo","STATE":"06","PLACE":"00947"}},{"type":"Feature","geometry":{"type":"Polygon","coordinates":[[[-117.97657,33.91008],[-117.97657,33.90641],[-117.95,33.90647],[-117.94781,33.90844],[-117.94806,33.90894],[-117.94683,33.90907],[-117.94623,33.90832],[-117.94432,33.90901],[-117.9417,33.90861],[-117.94174,33.91371],[-117.93307,33.91372],[-117.93285,33.91471],[-117.93108,33.9111],[-117.9303,33.91122],[-117.93109,33.91207],[-117.9304,33.91554],[-117.93302,33.91554],[-117.93304,33.92461],[-117.92434,33.92461],[-117.92185,33.92346],[-117.91999,33.92462],[-117.91999,33.92825],[-117.92434,33.92825],[-117.92434,33.92984],[-117.9287,33.92984],[-117.9287,33.93187],[-117.91999,33.93188],[-117.91999,33.94276],[-117.91892,33.94284],[-117.91999,33.94608],[-117.9765,33.94605],[-117.97657,33.91008]]]},"properties":{"GEOID":"0639290","NAME":"La Habra city","BASENAME":"La Habra","STATE":"06","PLACE":"39290"}},{"type":"Feature","geometry":{"type":"Polygon","coordinates":[[[-117.82014,33.55598],[-117.81965,33.5536],[-117.8164,33.55373],[-117.81442,33.55242],[-117.81263,33.55469],[-117.80666,33.55237],[-117.80527,33.5506],[-117.80725,33.54855],[-117.8068,33.54786],[-117.80572,33.54829],[-117.80614,33.54699],[-117.80447,33.54608],[-117.80146,33.54651],[-117.79988,33.54449],[-117.79887,33.54547],[-117.79716,33.54526],[-117.79724,33.54466],[-117.79549,33.54532],[-117.79348,33.54418],[-117.79296,33.5429],[-117.79035,33.54324],[-117.78915,33.54221],[-117.78659,33.54236],[-117.78381,33.5409],[-117.77681,33.53179],[-117.77232,33.52808],[-117.77209,33.52676],[-117.77113,33.52698],[-117.76909,33.52535],[-117.7693,33.52469],[-117.76795,33.52488],[-117.76612,33.52337],[-117.76449,33.51954],[-117.76288,33.51907],[-117.76098,33.51637],[-117.76069,33.51333],[-117.76002,33.51435],[-117.75836,33.51422],[-117.75787,33.51253],[-117.75775,33.51337],[-117.75629,33.51308],[-117.75212,33.50931],[-117.75096,33.50644],[-117.74932,33.5058],[-117.74815,33.50453],[-117.74825,33.50352],[-117.74575,33.50123],[-117.74622,33.50059],[-117.74521,33.50067],[-117.7401,33.49541],[-117.7386,33.49193],[-117.73889,33.49065],[-117.73808,33.49059],[-117.73827,33.48952],[-117.73712,33.48951],[-117.7379,33.4886],[-117.73647,33.48894],[-117.73463,33.48823],[-117.73353,33.48669],[-117.73441,33.48458],[-117.73226,33.48488],[-117.73227,33.49411],[-117.73118,33.49499],[-117.73226,33.49543],[-117.73227,33.49813],[-117.73457,33.49816],[-117.73489,33.49882],[-117.73457,33.50282],[-117.73336,33.50282],[-117.73605,33.50552],[-117.73782,33.50554],[-117.73777,33.50659],[-117.73883,33.50738],[-117.73821,33.50818],[-117.73563,33.50712],[-117.73434,33.50993],[-117.73617,33.50959],[-117.73654,33.51132],[-117.7394,33.51078],[-117.74014,33.51152],[-117.73917,33.51282],[-117.74097,33.51281],[-117.74099,33.52527],[-117.74943,33.52523],[-117.74944,33.52712],[-117.75295,33.52714],[-117.75294,33.53052],[-117.75416,33.53052],[-117.75429,33.5417],[-117.74943,33.5416],[-117.74937,33.58194],[-117.76136,33.58182],[-117.7614,33.5828],[-117.75475,33.58764],[-117.75038,33.59211],[-117.74884,33.59524],[-117.74806,33.59774],[-117.7516,33.59885],[-117.75173,33.60665],[-117.75636,33.6103],[-117.75951,33.60667],[-117.76084,33.60302],[-117.76158,33.59961],[-117.76012,33.59442],[-117.76039,33.58848],[-117.76152,33.58345],[-117.76231,33.58336],[-117.76401,33.57429],[-117.76467,33.56425],[-117.77092,33.56357],[-117.77332,33.56134],[-117.77304,33.55996],[-117.77386,33.55852],[-117.77694,33.5592],[-117.77414,33.55686],[-117.77441,33.55602],[-117.78157,33.54891],[-117.78309,33.54903],[-117.78285,33.55122],[-117.7836,33.55264],[-117.78521,33.55216],[-117.78413,33.55078],[-117.78655,33.54874],[-117.79183,33.55196],[-117.79468,33.54924],[-117.80174,33.55412],[-117.80501,33.55082],[-117.8067,33.55273],[-117.81242,33.5549],[-117.81095,33.55638],[-117.81568,33.55873],[-117.81685,33.55683],[-117.81976,33.55679],[-117.82014,33.55598]]]},"properties":{"GEOID":"0639178","NAME":"Laguna Beach city","BASENAME":"Laguna Beach","STATE":"06","PLACE":"39178"}},{"type":"Feature","geometry":{"type":"Polygon","coordinates":[[[-118.0433,33.75831],[-118.04266,33.74967],[-118.03336,33.7562],[-118.03335,33.75529],[-118.02466,33.75534],[-118.02464,33.7539],[-118.0191,33.75395],[-118.01902,33.75086],[-118.0158,33.75089],[-118.01571,33.74434],[-118.00698,33.74444],[-118.00691,33.73735],[-117.99815,33.73738],[-117.9982,33.74103],[-117.99053,33.74108],[-117.99052,33.74018],[-117.98934,33.74019],[-117.9893,33.73746],[-117.99385,33.73746],[-117.99382,33.73533],[-117.99189,33.73381],[-117.98912,33.73383],[-117.98907,33.73028],[-117.98073,33.73034],[-117.98072,33.72663],[-117.98902,33.72658],[-117.98897,33.72287],[-117.97544,33.72294],[-117.97182,33.71984],[-117.97196,33.73028],[-117.9633,33.73035],[-117.96338,33.73264],[-117.94598,33.73248],[-117.94614,33.74292],[-117.94462,33.74293],[-117.94463,33.74369],[-117.9453,33.745],[-117.94617,33.74499],[-117.94623,33.7523],[-117.95925,33.7522],[-117.95922,33.74674],[-117.96139,33.74672],[-117.96127,33.7449],[-117.96355,33.74483],[-117.96357,33.74807],[-117.9614,33.74809],[-117.96142,33.75037],[-117.96033,33.75037],[-117.96034,33.75219],[-117.96143,33.75218],[-117.96146,33.75594],[-117.96364,33.75592],[-117.96367,33.75947],[-117.98107,33.75933],[-117.98113,33.76661],[-117.98982,33.76654],[-117.99232,33.77201],[-117.99425,33.772],[-117.99428,33.77385],[-118.04246,33.7741],[-118.04251,33.77055],[-118.04324,33.76948],[-118.0433,33.75831]],[[-117.99396,33.74455],[-117.99084,33.74469],[-117.99039,33.74199],[-117.99267,33.74198],[-117.99265,33.74288],[-117.99393,33.74287],[-117.99396,33.74455]],[[-117.98947,33.75019],[-117.98947,33.75107],[-117.98794,33.7511],[-117.98795,33.75203],[-117.97667,33.75209],[-117.97708,33.75072],[-117.97556,33.75028],[-117.97554,33.74845],[-117.97662,33.74844],[-117.97661,33.7448],[-117.98348,33.74471],[-117.98343,33.74113],[-117.9863,33.74039],[-117.98625,33.73747],[-117.98737,33.73747],[-117.98741,33.7411],[-117.98935,33.74109],[-117.98849,33.74161],[-117.98924,33.74226],[-117.98928,33.74469],[-117.98854,33.74517],[-117.98947,33.75019]],[[-117.98737,33.73385],[-117.98732,33.73566],[-117.9858,33.73567],[-117.98583,33.73748],[-117.98297,33.7375],[-117.9835,33.73654],[-117.98298,33.73387],[-117.98737,33.73385]]]},"properties":{"GEOID":"0684550","NAME":"Westminster city","BASENAME":"Westminster","STATE":"06","PLACE":"84550"}},{"type":"Feature","geometry":{"type":"Polygon","coordinates":[[[-117.98054,33.71422],[-117.98012,33.68678],[-117.94044,33.68681],[-117.91898,33.72024],[-117.91663,33.72522],[-117.91993,33.72526],[-117.92001,33.72749],[-117.91563,33.72753],[-117.91557,33.73286],[-117.92415,33.73284],[-117.92413,33.73099],[-117.93,33.73084],[-117.93659,33.73085],[-117.9374,33.73149],[-117.93731,33.73268],[-117.94164,33.73264],[-117.94166,33.73351],[-117.94383,33.73345],[-117.94381,33.73254],[-117.96338,33.73264],[-117.9633,33.73035],[-117.97196,33.73028],[-117.97178,33.71576],[-117.98054,33.71567],[-117.98054,33.71422]]]},"properties":{"GEOID":"0625380","NAME":"Fountain Valley city","BASENAME":"Fountain Valley","STATE":"06","PLACE":"25380"}},{"type":"Feature","geometry":{"type":"MultiPolygon","coordinates":[[[[-117.84462,33.71557],[-117.83764,33.71126],[-117.84325,33.70558],[-117.82656,33.69405],[-117.81996,33.7008],[-117.81418,33.69705],[-117.81539,33.69619],[-117.81255,33.69347],[-117.80841,33.69501],[-117.79981,33.7038],[-117.80377,33.70654],[-117.80369,33.71223],[-117.80219,33.71733],[-117.79793,33.72177],[-117.79498,33.71969],[-117.79344,33.721],[-117.79014,33.72439],[-117.78705,33.73034],[-117.7844,33.73268],[-117.77999,33.73491],[-117.76779,33.74725],[-117.76396,33.75844],[-117.76001,33.76364],[-117.75994,33.76943],[-117.75853,33.77361],[-117.76424,33.7735],[-117.76537,33.76995],[-117.77011,33.76579],[-117.77123,33.76643],[-117.77448,33.7632],[-117.77265,33.76297],[-117.77232,33.76213],[-117.7751,33.75981],[-117.77341,33.75862],[-117.78163,33.7504],[-117.78112,33.74864],[-117.78234,33.74742],[-117.78394,33.74683],[-117.78621,33.74864],[-117.79594,33.73887],[-117.79761,33.74005],[-117.80242,33.73524],[-117.80362,33.73675],[-117.802,33.73838],[-117.80463,33.74021],[-117.80355,33.7413],[-117.80597,33.74302],[-117.80359,33.7454],[-117.80442,33.74598],[-117.80513,33.74528],[-117.80762,33.74703],[-117.80622,33.74842],[-117.80954,33.75075],[-117.80587,33.75444],[-117.80676,33.75454],[-117.80942,33.75159],[-117.81102,33.75177],[-117.81131,33.75331],[-117.8113,33.75158],[-117.81015,33.75014],[-117.81202,33.75001],[-117.81203,33.75088],[-117.81332,33.75087],[-117.81342,33.75522],[-117.81432,33.7553],[-117.8143,33.74871],[-117.81848,33.74864],[-117.81842,33.75227],[-117.82243,33.75225],[-117.82247,33.75806],[-117.82028,33.75807],[-117.8203,33.75984],[-117.82041,33.76349],[-117.82272,33.76349],[-117.82272,33.76618],[-117.82021,33.76616],[-117.82014,33.76709],[-117.82708,33.76713],[-117.82711,33.76573],[-117.82815,33.7657],[-117.82815,33.76714],[-117.82983,33.76715],[-117.83006,33.77307],[-117.8314,33.77307],[-117.83144,33.75986],[-117.83026,33.75904],[-117.83223,33.74716],[-117.83413,33.74716],[-117.83413,33.74631],[-117.83497,33.7463],[-117.83383,33.74388],[-117.83811,33.74352],[-117.83811,33.74253],[-117.84034,33.7435],[-117.84033,33.742],[-117.84348,33.74197],[-117.84348,33.73882],[-117.84219,33.73882],[-117.84251,33.73377],[-117.83353,33.73384],[-117.83405,33.72604],[-117.84462,33.71557]]],[[[-117.78349,33.75219],[-117.78335,33.75209],[-117.7829,33.75202],[-117.78349,33.75219]]],[[[-117.7937,33.76943],[-117.79353,33.76892],[-117.79331,33.76902],[-117.7937,33.76943]]],[[[-117.79747,33.76871],[-117.79606,33.7694],[-117.7966,33.76972],[-117.79747,33.76871]]],[[[-117.80545,33.77755],[-117.80426,33.77746],[-117.80444,33.77797],[-117.80545,33.77755]]],[[[-117.80905,33.75942],[-117.80905,33.75914],[-117.80882,33.75908],[-117.80905,33.75942]]],[[[-117.81959,33.76638],[-117.81959,33.76636],[-117.81953,33.76631],[-117.81959,33.76638]]],[[[-117.8276,33.77084],[-117.8276,33.77074],[-117.82705,33.77074],[-117.8276,33.77084]]]]},"properties":{"GEOID":"0680854","NAME":"Tustin city","BASENAME":"Tustin","STATE":"06","PLACE":"80854"}},{"type":"Feature","geometry":{"type":"Polygon","coordinates":[[[-118.1178,33.73966],[-118.11654,33.73864],[-118.11558,33.73997],[-118.10734,33.73834],[-118.10908,33.73534],[-118.10709,33.73816],[-118.10263,33.73658],[-118.10023,33.73479],[-118.09666,33.73413],[-118.09577,33.73463],[-118.09223,33.73265],[-118.09147,33.73127],[-118.0919,33.72958],[-118.08874,33.7303],[-118.07985,33.72299],[-118.0778,33.72463],[-118.08005,33.72574],[-118.08251,33.7283],[-118.07654,33.7255],[-118.07057,33.72976],[-118.0417,33.72994],[-118.04191,33.74968],[-118.04266,33.74967],[-118.04332,33.75205],[-118.04324,33.76948],[-118.04251,33.77055],[-118.04277,33.77614],[-118.04157,33.78113],[-118.06764,33.78132],[-118.06763,33.78495],[-118.07187,33.78496],[-118.07216,33.78757],[-118.07273,33.78593],[-118.07618,33.78594],[-118.07626,33.78289],[-118.07578,33.7805],[-118.07206,33.78035],[-118.07217,33.77797],[-118.0803,33.7748],[-118.08633,33.7754],[-118.08912,33.77792],[-118.08924,33.78502],[-118.09303,33.78612],[-118.09671,33.77909],[-118.09706,33.77372],[-118.09233,33.76453],[-118.09197,33.75847],[-118.11324,33.74698],[-118.1178,33.73966]]]},"properties":{"GEOID":"0670686","NAME":"Seal Beach city","BASENAME":"Seal Beach","STATE":"06","PLACE":"70686"}},{"type":"Feature","geometry":{"type":"Polygon","coordinates":[[[-118.03736,33.85366],[-118.03729,33.8508],[-118.02862,33.85089],[-118.02855,33.84459],[-118.03284,33.84456],[-118.0328,33.84182],[-118.03713,33.84178],[-118.03712,33.84058],[-118.03506,33.8406],[-118.03457,33.83808],[-118.03276,33.83821],[-118.03267,33.83179],[-118.02171,33.83189],[-118.02169,33.8308],[-118.01966,33.83081],[-118.01961,33.82634],[-118.01744,33.82636],[-118.01743,33.82545],[-118.0196,33.82544],[-118.01951,33.81717],[-118.0281,33.81703],[-118.02806,33.80983],[-118.01727,33.80993],[-118.01735,33.81719],[-118.01473,33.81721],[-118.01475,33.81918],[-118.01605,33.81997],[-118.01094,33.82166],[-118.01096,33.82287],[-118.01379,33.82267],[-118.01381,33.82444],[-118.01508,33.82405],[-118.01475,33.82261],[-118.01739,33.82267],[-118.01649,33.82636],[-118.01417,33.82653],[-118.01419,33.82822],[-118.0131,33.82823],[-118.01312,33.83044],[-118.01093,33.83046],[-118.01098,33.83197],[-118.00774,33.83192],[-118.00776,33.83335],[-118.00663,33.83378],[-118.00225,33.83387],[-118.00226,33.83568],[-117.98608,33.83579],[-117.98569,33.83946],[-117.98049,33.83951],[-117.9805,33.84497],[-117.97833,33.845],[-117.97834,33.84681],[-117.9805,33.8468],[-117.98058,33.85403],[-117.98487,33.85393],[-117.98489,33.85768],[-117.98302,33.85772],[-117.98493,33.85908],[-117.97656,33.85911],[-117.97628,33.86456],[-117.98066,33.86454],[-117.98064,33.86],[-117.98504,33.85997],[-117.98507,33.86632],[-117.98215,33.86634],[-117.98215,33.86834],[-117.98218,33.86996],[-117.9851,33.86994],[-117.98515,33.87553],[-117.9764,33.87394],[-117.97663,33.89556],[-117.98968,33.89549],[-117.98966,33.89405],[-117.99222,33.89182],[-117.99404,33.88938],[-117.99406,33.88822],[-118.00286,33.88816],[-118.00275,33.88089],[-118.01147,33.88085],[-118.01138,33.87343],[-118.02878,33.87332],[-118.02852,33.85881],[-118.03315,33.85877],[-118.03303,33.8537],[-118.03736,33.85366]]]},"properties":{"GEOID":"0608786","NAME":"Buena Park city","BASENAME":"Buena Park","STATE":"06","PLACE":"08786"}},{"type":"Feature","geometry":{"type":"Polygon","coordinates":[[[-117.63745,33.59745],[-117.63715,33.59667],[-117.63019,33.59516],[-117.6288,33.59606],[-117.62649,33.5959],[-117.62369,33.59835],[-117.62309,33.60145],[-117.61777,33.60242],[-117.614,33.60138],[-117.6186,33.58731],[-117.61338,33.5861],[-117.60659,33.58912],[-117.60154,33.58977],[-117.60168,33.59453],[-117.59505,33.59892],[-117.5962,33.60617],[-117.59441,33.61058],[-117.59482,33.61386],[-117.59659,33.61399],[-117.5967,33.61966],[-117.59163,33.62566],[-117.59198,33.6266],[-117.58928,33.62997],[-117.58405,33.63931],[-117.57941,33.6424],[-117.57857,33.64193],[-117.5783,33.64281],[-117.57821,33.64113],[-117.574,33.63829],[-117.57298,33.63105],[-117.57099,33.62772],[-117.57085,33.6212],[-117.56903,33.61835],[-117.5701,33.61215],[-117.57356,33.60917],[-117.5663,33.61267],[-117.5659,33.61801],[-117.56019,33.62748],[-117.55887,33.63202],[-117.55928,33.63476],[-117.55511,33.64261],[-117.5555,33.64417],[-117.55625,33.64418],[-117.55624,33.65132],[-117.5521,33.65136],[-117.55202,33.65674],[-117.55441,33.65674],[-117.55411,33.65618],[-117.55496,33.65564],[-117.55581,33.65663],[-117.55526,33.65853],[-117.55621,33.65853],[-117.55623,33.66465],[-117.56494,33.66462],[-117.5649,33.65743],[-117.57625,33.65744],[-117.5765,33.65661],[-117.58275,33.6583],[-117.5836,33.65729],[-117.58699,33.65684],[-117.59882,33.64923],[-117.60009,33.64624],[-117.60224,33.64581],[-117.60375,33.65049],[-117.60495,33.651],[-117.60877,33.65564],[-117.60848,33.65741],[-117.60726,33.65798],[-117.60768,33.65934],[-117.60666,33.66488],[-117.62493,33.66984],[-117.62484,33.63994],[-117.62819,33.63997],[-117.62658,33.63681],[-117.6269,33.62224],[-117.62619,33.619],[-117.62775,33.6124],[-117.63409,33.59972],[-117.63745,33.59745]]]},"properties":{"GEOID":"0659587","NAME":"Rancho Santa Margarita city","BASENAME":"Rancho Santa Margarita","STATE":"06","PLACE":"59587"}},{"type":"Feature","geometry":{"type":"MultiPolygon","coordinates":[[[[-117.9287,33.93187],[-117.9287,33.92984],[-117.92434,33.92984],[-117.92434,33.92825],[-117.91999,33.92825],[-117.91999,33.92462],[-117.92185,33.92346],[-117.92434,33.9244],[-117.92433,33.92098],[-117.92216,33.921],[-117.92216,33.91739],[-117.91563,33.91736],[-117.91562,33.90834],[-117.91322,33.90837],[-117.91179,33.90676],[-117.88977,33.907],[-117.88973,33.90818],[-117.88796,33.90711],[-117.88551,33.90712],[-117.88502,33.91027],[-117.88705,33.90792],[-117.88896,33.90978],[-117.88857,33.91048],[-117.87672,33.91078],[-117.87678,33.90721],[-117.87483,33.90722],[-117.87502,33.90904],[-117.87265,33.90873],[-117.87142,33.9104],[-117.86392,33.90924],[-117.86388,33.9074],[-117.85513,33.90751],[-117.85508,33.90565],[-117.846,33.90574],[-117.84602,33.9067],[-117.84291,33.91012],[-117.83745,33.90986],[-117.83515,33.91427],[-117.83388,33.9134],[-117.83316,33.91373],[-117.83466,33.9154],[-117.83803,33.91568],[-117.8379,33.9166],[-117.83588,33.91692],[-117.83508,33.91844],[-117.80916,33.91802],[-117.80913,33.92238],[-117.80058,33.92141],[-117.80059,33.92496],[-117.79168,33.9249],[-117.79163,33.92846],[-117.78307,33.92837],[-117.78311,33.93925],[-117.77459,33.93921],[-117.77459,33.94014],[-117.78308,33.94626],[-117.80031,33.94663],[-117.8005,33.93593],[-117.80081,33.93405],[-117.80248,33.93382],[-117.80177,33.93233],[-117.81333,33.9324],[-117.81329,33.92872],[-117.81783,33.92877],[-117.81787,33.92052],[-117.82825,33.92064],[-117.8281,33.92788],[-117.83234,33.92794],[-117.83237,33.93163],[-117.83523,33.93163],[-117.83843,33.93025],[-117.84138,33.93046],[-117.84234,33.9317],[-117.84538,33.93173],[-117.8453,33.93537],[-117.84855,33.93541],[-117.84857,33.93423],[-117.87183,33.93559],[-117.87993,33.94031],[-117.88643,33.94157],[-117.88641,33.93687],[-117.88994,33.93575],[-117.89142,33.93654],[-117.89109,33.9371],[-117.89429,33.93668],[-117.89584,33.93854],[-117.89824,33.93837],[-117.89875,33.9393],[-117.90406,33.93919],[-117.90415,33.94222],[-117.90609,33.94277],[-117.90477,33.94408],[-117.90564,33.94529],[-117.90933,33.94601],[-117.90951,33.94539],[-117.91956,33.94764],[-117.91999,33.94508],[-117.91892,33.94284],[-117.91999,33.94276],[-117.91999,33.93188],[-117.9287,33.93187]]],[[[-117.8992,33.94143],[-117.89912,33.94125],[-117.89847,33.94114],[-117.8992,33.94143]]]]},"properties":{"GEOID":"0608100","NAME":"Brea city","BASENAME":"Brea","STATE":"06","PLACE":"08100"}},{"type":"Feature","geometry":{"type":"Polygon","coordinates":[[[-117.72676,33.63462],[-117.70532,33.61254],[-117.70166,33.6099],[-117.69466,33.60681],[-117.69283,33.60939],[-117.69285,33.61088],[-117.69588,33.613],[-117.69368,33.61635],[-117.68853,33.61954],[-117.66469,33.64107],[-117.66355,33.64076],[-117.66064,33.64404],[-117.65319,33.65636],[-117.64739,33.65876],[-117.64411,33.65856],[-117.64239,33.65992],[-117.64204,33.66222],[-117.63724,33.66299],[-117.62501,33.67171],[-117.6232,33.6748],[-117.62056,33.68327],[-117.62082,33.6859],[-117.62358,33.68589],[-117.62824,33.69285],[-117.63198,33.69534],[-117.63467,33.69863],[-117.63935,33.69961],[-117.64172,33.70224],[-117.64202,33.70378],[-117.64798,33.70618],[-117.65489,33.70667],[-117.67713,33.6861],[-117.71037,33.64663],[-117.71473,33.63866],[-117.71551,33.63924],[-117.71818,33.63735],[-117.71859,33.63665],[-117.71641,33.63553],[-117.71997,33.6289],[-117.72676,33.63462]]]},"properties":{"GEOID":"0639496","NAME":"Lake Forest city","BASENAME":"Lake Forest","STATE":"06","PLACE":"39496"}},{"type":"Feature","geometry":{"type":"Polygon","coordinates":[[[-117.95455,33.64373],[-117.95471,33.64318],[-117.94512,33.64334],[-117.94527,33.64779],[-117.94175,33.64782],[-117.94175,33.64329],[-117.94363,33.64333],[-117.94482,33.6405],[-117.93937,33.63242],[-117.93618,33.63245],[-117.93619,33.63336],[-117.93403,33.63338],[-117.93401,33.63247],[-117.93185,33.63249],[-117.93184,33.63158],[-117.92756,33.63214],[-117.92091,33.62749],[-117.91952,33.62888],[-117.91786,33.62773],[-117.91924,33.62633],[-117.91757,33.62517],[-117.9148,33.62796],[-117.91146,33.62564],[-117.89923,33.63795],[-117.90027,33.63911],[-117.89998,33.64003],[-117.90195,33.64089],[-117.89816,33.64471],[-117.89984,33.64588],[-117.89775,33.64797],[-117.89861,33.64858],[-117.89511,33.65203],[-117.89261,33.6503],[-117.89047,33.65236],[-117.89085,33.6532],[-117.8899,33.65294],[-117.8884,33.65445],[-117.89012,33.65565],[-117.88874,33.65704],[-117.88936,33.65747],[-117.89074,33.65608],[-117.89192,33.65666],[-117.89017,33.65701],[-117.891,33.65759],[-117.88763,33.66098],[-117.89435,33.66566],[-117.88921,33.67063],[-117.88702,33.66835],[-117.88504,33.66771],[-117.88227,33.66447],[-117.8792,33.6634],[-117.87528,33.66845],[-117.87601,33.66877],[-117.87328,33.67308],[-117.87383,33.67344],[-117.86401,33.68625],[-117.86857,33.68862],[-117.86865,33.69005],[-117.86748,33.69155],[-117.86822,33.69408],[-117.89216,33.69412],[-117.89217,33.6964],[-117.9194,33.69559],[-117.91946,33.70209],[-117.92953,33.70198],[-117.93928,33.68708],[-117.94226,33.68102],[-117.95069,33.65286],[-117.94906,33.65287],[-117.95084,33.6523],[-117.95334,33.64374],[-117.95455,33.64373]]]},"properties":{"GEOID":"0616532","NAME":"Costa Mesa city","BASENAME":"Costa Mesa","STATE":"06","PLACE":"16532"}},{"type":"Feature","geometry":{"type":"Polygon","coordinates":[[[-117.68663,33.48729],[-117.68259,33.48723],[-117.68409,33.48503],[-117.68537,33.48077],[-117.67813,33.47827],[-117.67937,33.47352],[-117.67814,33.47255],[-117.67934,33.46906],[-117.6762,33.46816],[-117.6757,33.47019],[-117.67371,33.46663],[-117.67296,33.46651],[-117.66645,33.46693],[-117.66455,33.4684],[-117.65452,33.46784],[-117.64885,33.46658],[-117.64264,33.47177],[-117.64269,33.47814],[-117.63804,33.48108],[-117.63326,33.48002],[-117.63307,33.47898],[-117.62553,33.47857],[-117.62056,33.48007],[-117.61074,33.47966],[-117.61714,33.49416],[-117.61592,33.49499],[-117.61668,33.49709],[-117.62095,33.50452],[-117.62229,33.50862],[-117.62264,33.51352],[-117.62012,33.51731],[-117.61981,33.51919],[-117.62631,33.51872],[-117.63067,33.51641],[-117.65125,33.52908],[-117.65057,33.52942],[-117.65214,33.53075],[-117.65332,33.53035],[-117.67413,33.54314],[-117.67441,33.54177],[-117.67772,33.54072],[-117.68052,33.54207],[-117.67961,33.54412],[-117.67997,33.54618],[-117.68196,33.54239],[-117.6815,33.54065],[-117.6821,33.53871],[-117.68434,33.53861],[-117.68352,33.53724],[-117.68492,33.53644],[-117.68479,33.53544],[-117.68338,33.5353],[-117.6829,33.5342],[-117.6836,33.53207],[-117.68262,33.53115],[-117.68363,33.52977],[-117.68264,33.52956],[-117.68225,33.52848],[-117.68316,33.5254],[-117.68256,33.52484],[-117.68472,33.52385],[-117.68018,33.52284],[-117.6799,33.52086],[-117.68101,33.51999],[-117.67916,33.51795],[-117.67905,33.51562],[-117.6797,33.51045],[-117.68092,33.50893],[-117.67704,33.50893],[-117.67878,33.50723],[-117.67754,33.50614],[-117.68388,33.50055],[-117.68607,33.49372],[-117.68418,33.49314],[-117.68663,33.48729]]]},"properties":{"GEOID":"0668028","NAME":"San Juan Capistrano city","BASENAME":"San Juan Capistrano","STATE":"06","PLACE":"68028"}},{"type":"Feature","geometry":{"type":"Polygon","coordinates":[[[-117.74015,33.51143],[-117.73921,33.51075],[-117.73654,33.51132],[-117.736,33.50951],[-117.73434,33.50993],[-117.73563,33.50712],[-117.73821,33.50818],[-117.73883,33.50738],[-117.73777,33.50659],[-117.73782,33.50554],[-117.73605,33.50552],[-117.73336,33.50282],[-117.73457,33.50282],[-117.73457,33.49816],[-117.73068,33.49823],[-117.72976,33.49655],[-117.72566,33.49746],[-117.72162,33.4947],[-117.71712,33.49461],[-117.71355,33.49084],[-117.70936,33.48896],[-117.70671,33.48895],[-117.70239,33.49078],[-117.69906,33.49122],[-117.68669,33.4871],[-117.68418,33.49314],[-117.68607,33.49372],[-117.68388,33.50055],[-117.67754,33.50614],[-117.67878,33.50723],[-117.67704,33.50893],[-117.68092,33.50893],[-117.67967,33.51058],[-117.67916,33.51795],[-117.68101,33.51999],[-117.6799,33.52086],[-117.68043,33.52323],[-117.68221,33.52294],[-117.68276,33.52384],[-117.68472,33.52385],[-117.68256,33.52484],[-117.68316,33.5254],[-117.68225,33.52848],[-117.68264,33.52956],[-117.68363,33.52977],[-117.68262,33.53115],[-117.6836,33.53207],[-117.6829,33.5342],[-117.68338,33.5353],[-117.68479,33.53544],[-117.68492,33.53644],[-117.68352,33.53724],[-117.68434,33.53861],[-117.6821,33.53871],[-117.6815,33.54065],[-117.68196,33.54239],[-117.67997,33.54618],[-117.67961,33.54412],[-117.68052,33.54207],[-117.67815,33.54072],[-117.67441,33.54177],[-117.67319,33.5504],[-117.67394,33.55941],[-117.67257,33.56849],[-117.67638,33.56863],[-117.67645,33.56353],[-117.68547,33.55737],[-117.69185,33.55883],[-117.69284,33.5626],[-117.70296,33.57151],[-117.70858,33.56927],[-117.71427,33.57122],[-117.7153,33.56974],[-117.71494,33.56791],[-117.71593,33.56601],[-117.71633,33.56105],[-117.71893,33.55872],[-117.71792,33.55624],[-117.72162,33.55112],[-117.7195,33.54941],[-117.72113,33.54319],[-117.72224,33.54343],[-117.72454,33.54182],[-117.72668,33.53887],[-117.73468,33.54031],[-117.73518,33.54165],[-117.737,33.53955],[-117.73826,33.53247],[-117.73315,33.52013],[-117.73668,33.51281],[-117.73917,33.51282],[-117.74015,33.51143]]]},"properties":{"GEOID":"0639248","NAME":"Laguna Niguel city","BASENAME":"Laguna Niguel","STATE":"06","PLACE":"39248"}},{"type":"Feature","geometry":{"type":"MultiPolygon","coordinates":[[[[-117.95771,33.62824],[-117.94116,33.62032],[-117.92854,33.60652],[-117.90269,33.60078],[-117.88391,33.59407],[-117.8776,33.5925],[-117.87265,33.5925],[-117.87004,33.58976],[-117.86861,33.58965],[-117.86526,33.58581],[-117.86441,33.58589],[-117.86423,33.58455],[-117.85708,33.58219],[-117.85373,33.5796],[-117.84745,33.57766],[-117.84106,33.57425],[-117.83592,33.56858],[-117.83427,33.56802],[-117.83301,33.56558],[-117.82913,33.564],[-117.82202,33.56995],[-117.82139,33.57185],[-117.82208,33.57404],[-117.81604,33.57605],[-117.81636,33.57664],[-117.81519,33.57771],[-117.8155,33.57998],[-117.81292,33.58221],[-117.81332,33.58458],[-117.8126,33.58676],[-117.80666,33.58877],[-117.80618,33.59011],[-117.80517,33.59013],[-117.8036,33.59701],[-117.80431,33.59981],[-117.8024,33.60467],[-117.80122,33.60546],[-117.79977,33.60366],[-117.79735,33.60441],[-117.79693,33.60266],[-117.7908,33.59615],[-117.78388,33.5951],[-117.7908,33.59725],[-117.79312,33.59883],[-117.79588,33.60368],[-117.79861,33.60595],[-117.80072,33.60654],[-117.79916,33.60708],[-117.80506,33.60919],[-117.8125,33.61042],[-117.81548,33.61186],[-117.81758,33.61376],[-117.82165,33.62033],[-117.82892,33.6238],[-117.83458,33.62857],[-117.84984,33.63366],[-117.85677,33.63841],[-117.85953,33.64253],[-117.86001,33.65138],[-117.8628,33.65757],[-117.85428,33.66613],[-117.8629,33.67166],[-117.86653,33.67081],[-117.87814,33.65974],[-117.88146,33.6615],[-117.87939,33.66359],[-117.88324,33.6654],[-117.88763,33.66098],[-117.88429,33.65866],[-117.89261,33.6503],[-117.89511,33.65203],[-117.89861,33.64858],[-117.89775,33.64797],[-117.89984,33.64588],[-117.89816,33.64471],[-117.90195,33.64089],[-117.89998,33.64003],[-117.90027,33.63911],[-117.89923,33.63795],[-117.91146,33.62564],[-117.9148,33.62796],[-117.91757,33.62517],[-117.91924,33.62633],[-117.91786,33.62773],[-117.91952,33.62888],[-117.92091,33.62749],[-117.92756,33.63214],[-117.93184,33.63158],[-117.93185,33.63249],[-117.93401,33.63247],[-117.93403,33.63338],[-117.93619,33.63336],[-117.93618,33.63245],[-117.93937,33.63242],[-117.94275,33.63743],[-117.94269,33.63242],[-117.94049,33.63241],[-117.94041,33.62371],[-117.94637,33.62534],[-117.9467,33.62972],[-117.94868,33.63247],[-117.9512,33.63005],[-117.95685,33.63115],[-117.95771,33.62824]]],[[[-117.9453,33.64567],[-117.94512,33.64334],[-117.94175,33.64329],[-117.94175,33.64782],[-117.94527,33.64779],[-117.9453,33.64567]]],[[[-117.95612,33.63376],[-117.9541,33.633],[-117.95359,33.63476],[-117.95571,33.63518],[-117.95612,33.63376]]]]},"properties":{"GEOID":"0651182","NAME":"Newport Beach city","BASENAME":"Newport Beach","STATE":"06","PLACE":"51182"}},{"type":"Feature","geometry":{"type":"Polygon","coordinates":[[[-117.9854,33.90277],[-117.98533,33.8956],[-117.97663,33.89556],[-117.9764,33.87394],[-117.98515,33.87553],[-117.9851,33.86994],[-117.98218,33.86996],[-117.98215,33.86834],[-117.98215,33.86634],[-117.98507,33.86632],[-117.98504,33.85997],[-117.98064,33.86],[-117.98066,33.86454],[-117.97628,33.86456],[-117.97626,33.86363],[-117.97656,33.85911],[-117.98491,33.8587],[-117.97649,33.85419],[-117.97513,33.85419],[-117.97466,33.85631],[-117.96794,33.85426],[-117.91989,33.85454],[-117.91988,33.86311],[-117.91108,33.86318],[-117.91106,33.86266],[-117.90687,33.86319],[-117.90671,33.85422],[-117.90237,33.85421],[-117.89728,33.85634],[-117.89369,33.85638],[-117.89372,33.85785],[-117.88935,33.85789],[-117.88938,33.85969],[-117.88313,33.85974],[-117.87696,33.88097],[-117.87461,33.8805],[-117.87374,33.88406],[-117.86738,33.88275],[-117.86544,33.88931],[-117.87305,33.89187],[-117.87413,33.89043],[-117.87672,33.89038],[-117.87675,33.89636],[-117.87577,33.89633],[-117.87578,33.89816],[-117.87238,33.8982],[-117.87245,33.90367],[-117.8681,33.90371],[-117.86813,33.90556],[-117.86386,33.90558],[-117.86392,33.90924],[-117.87142,33.9104],[-117.87265,33.90873],[-117.87502,33.90904],[-117.87483,33.90722],[-117.87678,33.90721],[-117.87672,33.91078],[-117.88857,33.91048],[-117.88896,33.90978],[-117.88705,33.90792],[-117.88502,33.91027],[-117.88551,33.90712],[-117.88796,33.90711],[-117.88973,33.90818],[-117.88977,33.907],[-117.91157,33.90671],[-117.91322,33.90837],[-117.91562,33.90834],[-117.91563,33.91736],[-117.92216,33.91739],[-117.92216,33.921],[-117.92433,33.92098],[-117.92434,33.92461],[-117.93304,33.92461],[-117.93302,33.91554],[-117.9304,33.91554],[-117.93109,33.91207],[-117.9303,33.91122],[-117.93108,33.9111],[-117.93285,33.91471],[-117.93307,33.91372],[-117.94174,33.91371],[-117.9417,33.90861],[-117.94432,33.90901],[-117.94623,33.90832],[-117.94683,33.90907],[-117.94806,33.90894],[-117.94781,33.90844],[-117.95,33.90647],[-117.97657,33.90641],[-117.97659,33.90281],[-117.9854,33.90277]]]},"properties":{"GEOID":"0628000","NAME":"Fullerton city","BASENAME":"Fullerton","STATE":"06","PLACE":"28000"}},{"type":"Feature","geometry":{"type":"MultiPolygon","coordinates":[[[[-117.84583,33.90396],[-117.84443,33.88824],[-117.84165,33.88828],[-117.84178,33.89015],[-117.83796,33.89013],[-117.83734,33.88553],[-117.83154,33.88559],[-117.83147,33.87996],[-117.83436,33.87991],[-117.83432,33.87698],[-117.83143,33.87702],[-117.83147,33.8742],[-117.82848,33.87416],[-117.82846,33.87121],[-117.82609,33.8706],[-117.82614,33.87217],[-117.81626,33.87222],[-117.81729,33.87019],[-117.81453,33.87092],[-117.81351,33.87027],[-117.80593,33.87192],[-117.80421,33.87417],[-117.80294,33.87406],[-117.7951,33.86855],[-117.79537,33.86773],[-117.79316,33.86554],[-117.79127,33.86556],[-117.79148,33.86977],[-117.79034,33.86974],[-117.78914,33.87116],[-117.78659,33.87143],[-117.78636,33.86645],[-117.78116,33.8661],[-117.78107,33.86348],[-117.778,33.86495],[-117.77194,33.8712],[-117.76893,33.87304],[-117.75917,33.87474],[-117.74583,33.87923],[-117.7458,33.87766],[-117.74834,33.87647],[-117.7491,33.87454],[-117.7469,33.87346],[-117.74456,33.87024],[-117.73571,33.87058],[-117.72376,33.86696],[-117.71245,33.86651],[-117.69725,33.8729],[-117.6888,33.87316],[-117.68358,33.87084],[-117.68419,33.87402],[-117.68567,33.87488],[-117.68503,33.8757],[-117.68756,33.87671],[-117.68788,33.8829],[-117.73255,33.91033],[-117.73259,33.90306],[-117.74651,33.90305],[-117.74599,33.89383],[-117.75182,33.89284],[-117.75635,33.89376],[-117.75657,33.89536],[-117.75861,33.89542],[-117.7589,33.90344],[-117.75342,33.90319],[-117.75334,33.91093],[-117.75779,33.91089],[-117.75771,33.91332],[-117.76217,33.9133],[-117.76958,33.90841],[-117.77971,33.90847],[-117.78031,33.90932],[-117.78337,33.90931],[-117.78338,33.90667],[-117.80068,33.90681],[-117.80066,33.90994],[-117.815,33.90996],[-117.815,33.90906],[-117.81968,33.90884],[-117.82144,33.90743],[-117.82313,33.90923],[-117.82412,33.90829],[-117.82529,33.90917],[-117.82445,33.91018],[-117.82675,33.91038],[-117.82591,33.91303],[-117.82212,33.91478],[-117.82708,33.91753],[-117.82675,33.91825],[-117.83508,33.91844],[-117.83588,33.91692],[-117.8379,33.9166],[-117.83803,33.91568],[-117.83466,33.9154],[-117.83316,33.91373],[-117.83388,33.9134],[-117.83515,33.91427],[-117.83692,33.91006],[-117.84242,33.91021],[-117.84224,33.90656],[-117.84295,33.90627],[-117.84232,33.90629],[-117.8423,33.90523],[-117.84084,33.90531],[-117.84087,33.90659],[-117.84005,33.9066],[-117.83997,33.90317],[-117.84212,33.90329],[-117.84218,33.904],[-117.84583,33.90396]],[[-117.80009,33.88791],[-117.80004,33.8886],[-117.7952,33.88863],[-117.7955,33.88548],[-117.79009,33.88556],[-117.78972,33.88304],[-117.79214,33.88324],[-117.79193,33.87888],[-117.79267,33.87959],[-117.79215,33.87893],[-117.79326,33.87711],[-117.79273,33.87511],[-117.79371,33.87267],[-117.79488,33.87246],[-117.7949,33.87551],[-117.79727,33.87494],[-117.79686,33.87622],[-117.79775,33.87631],[-117.79805,33.87916],[-117.79998,33.88032],[-117.79912,33.88156],[-117.80009,33.88791]]],[[[-117.84161,33.88213],[-117.84159,33.87979],[-117.83436,33.87991],[-117.83439,33.88275],[-117.84156,33.88267],[-117.84161,33.88213]]]]},"properties":{"GEOID":"0686832","NAME":"Yorba Linda city","BASENAME":"Yorba Linda","STATE":"06","PLACE":"86832"}},{"type":"Feature","geometry":{"type":"Polygon","coordinates":[[[-117.69588,33.613],[-117.69285,33.61088],[-117.69283,33.60939],[-117.69466,33.60681],[-117.68751,33.60261],[-117.67739,33.59847],[-117.67449,33.59631],[-117.67322,33.57803],[-117.6764,33.57803],[-117.67638,33.56863],[-117.67257,33.56849],[-117.67394,33.55941],[-117.67319,33.5504],[-117.67413,33.54314],[-117.65899,33.53383],[-117.65902,33.55605],[-117.65494,33.5607],[-117.65398,33.56485],[-117.65049,33.57061],[-117.64276,33.57746],[-117.64006,33.58133],[-117.64195,33.58297],[-117.63845,33.58891],[-117.63914,33.59624],[-117.63784,33.59604],[-117.63709,33.59673],[-117.63745,33.59745],[-117.63409,33.59972],[-117.62775,33.6124],[-117.62619,33.619],[-117.6269,33.62224],[-117.62658,33.63681],[-117.62819,33.63997],[-117.62484,33.63994],[-117.62493,33.66984],[-117.62138,33.66888],[-117.61961,33.6728],[-117.6242,33.67276],[-117.62673,33.66992],[-117.63715,33.66304],[-117.64204,33.66222],[-117.64239,33.65992],[-117.64411,33.65856],[-117.64739,33.65876],[-117.65319,33.65636],[-117.66252,33.6418],[-117.66355,33.64076],[-117.66469,33.64107],[-117.68853,33.61954],[-117.69319,33.61689],[-117.69588,33.613]]]},"properties":{"GEOID":"0648256","NAME":"Mission Viejo city","BASENAME":"Mission Viejo","STATE":"06","PLACE":"48256"}},{"type":"Feature","geometry":{"type":"Polygon","coordinates":[[[-117.66644,33.46693],[-117.65638,33.46327],[-117.65469,33.46407],[-117.65361,33.46059],[-117.65545,33.4598],[-117.65997,33.45447],[-117.65698,33.45364],[-117.65727,33.45268],[-117.65132,33.44894],[-117.64909,33.45158],[-117.64749,33.44838],[-117.65011,33.44538],[-117.64519,33.4418],[-117.64453,33.44114],[-117.64487,33.44028],[-117.63247,33.43113],[-117.62723,33.42555],[-117.6222,33.42168],[-117.62033,33.41953],[-117.62357,33.41762],[-117.62029,33.41948],[-117.61373,33.41268],[-117.60242,33.39921],[-117.5962,33.3869],[-117.57851,33.45381],[-117.57332,33.45314],[-117.57334,33.45446],[-117.57173,33.45447],[-117.57199,33.45613],[-117.5712,33.45591],[-117.57118,33.45903],[-117.5721,33.45903],[-117.57119,33.46099],[-117.579,33.4647],[-117.57815,33.46562],[-117.57782,33.46899],[-117.57339,33.46899],[-117.57342,33.48342],[-117.57841,33.48344],[-117.57987,33.49083],[-117.58292,33.49077],[-117.58323,33.48944],[-117.58428,33.48883],[-117.58574,33.4889],[-117.5893,33.48669],[-117.59109,33.48695],[-117.59498,33.4835],[-117.61249,33.4835],[-117.61074,33.47966],[-117.62056,33.48007],[-117.62553,33.47857],[-117.63307,33.47898],[-117.63326,33.48002],[-117.63804,33.48108],[-117.64269,33.47814],[-117.64264,33.47177],[-117.64885,33.46658],[-117.65452,33.46784],[-117.66455,33.4684],[-117.66644,33.46693]]]},"properties":{"GEOID":"0665084","NAME":"San Clemente city","BASENAME":"San Clemente","STATE":"06","PLACE":"65084"}},{"type":"Feature","geometry":{"type":"Polygon","coordinates":[[[-118.04279,33.77419],[-117.99428,33.77385],[-117.99425,33.772],[-117.99232,33.77201],[-117.98982,33.76654],[-117.98113,33.76661],[-117.98107,33.75933],[-117.96367,33.75947],[-117.96364,33.75592],[-117.96146,33.75594],[-117.96143,33.75218],[-117.96034,33.75219],[-117.96033,33.75037],[-117.96142,33.75037],[-117.9614,33.74809],[-117.96357,33.74807],[-117.96355,33.74483],[-117.96127,33.7449],[-117.96139,33.74672],[-117.95922,33.74674],[-117.95925,33.7522],[-117.94623,33.7523],[-117.94617,33.74499],[-117.9453,33.745],[-117.94463,33.74369],[-117.94462,33.74293],[-117.94614,33.74292],[-117.94598,33.73248],[-117.94166,33.73351],[-117.94171,33.73713],[-117.94388,33.73707],[-117.94394,33.74138],[-117.94177,33.74139],[-117.94186,33.74871],[-117.9424,33.74871],[-117.94189,33.75234],[-117.93755,33.75238],[-117.93763,33.75963],[-117.93264,33.75968],[-117.93262,33.75787],[-117.93112,33.75908],[-117.93109,33.75788],[-117.93008,33.75788],[-117.9301,33.7597],[-117.91156,33.75982],[-117.91152,33.7562],[-117.91216,33.7562],[-117.90715,33.75312],[-117.90725,33.76349],[-117.90507,33.7635],[-117.90509,33.76458],[-117.90291,33.76474],[-117.90301,33.77262],[-117.90084,33.77263],[-117.90085,33.77347],[-117.89868,33.77379],[-117.89863,33.76899],[-117.89428,33.769],[-117.89435,33.77448],[-117.89743,33.77447],[-117.8975,33.78892],[-117.90468,33.78888],[-117.90413,33.7925],[-117.90629,33.7925],[-117.90624,33.79064],[-117.91053,33.79062],[-117.91048,33.78886],[-117.91489,33.78895],[-117.91499,33.79242],[-117.91724,33.79243],[-117.91735,33.79608],[-117.92387,33.79605],[-117.92405,33.79878],[-117.92828,33.79874],[-117.92823,33.79602],[-117.93259,33.79598],[-117.93257,33.79426],[-117.93474,33.79424],[-117.93472,33.79233],[-117.94124,33.7923],[-117.94134,33.79863],[-117.93706,33.79868],[-117.93706,33.80047],[-117.94137,33.80043],[-117.94142,33.80308],[-117.97192,33.80308],[-117.97192,33.80569],[-117.97349,33.80567],[-117.97242,33.80427],[-117.97297,33.80307],[-117.98446,33.80298],[-117.98443,33.8006],[-117.98882,33.80074],[-117.98856,33.79567],[-117.98421,33.79569],[-117.98414,33.79001],[-117.98661,33.78841],[-117.98238,33.78843],[-117.98237,33.78753],[-117.98412,33.78752],[-117.98408,33.78479],[-117.9868,33.78481],[-117.98678,33.78213],[-117.98841,33.78212],[-117.98842,33.78409],[-117.98958,33.78404],[-117.98957,33.78182],[-117.99028,33.78112],[-117.9884,33.78113],[-117.9883,33.77382],[-117.99287,33.77373],[-117.99288,33.77473],[-117.99872,33.77469],[-117.99889,33.78743],[-117.99716,33.78744],[-117.99713,33.78463],[-117.99299,33.78472],[-117.99301,33.78617],[-117.99503,33.78609],[-117.995,33.78836],[-117.99924,33.78834],[-117.99929,33.79197],[-118.00156,33.79195],[-118.00165,33.79923],[-118.01105,33.79919],[-118.01109,33.792],[-118.04151,33.79212],[-118.04158,33.78093],[-118.04279,33.77419]]]},"properties":{"GEOID":"0629000","NAME":"Garden Grove city","BASENAME":"Garden Grove","STATE":"06","PLACE":"29000"}},{"type":"Feature","geometry":{"type":"Polygon","coordinates":[[[-118.08256,33.72826],[-118.0778,33.72463],[-118.07985,33.72299],[-118.05936,33.70621],[-118.03731,33.68295],[-118.00371,33.65558],[-118.00633,33.65297],[-118.00364,33.65553],[-117.97464,33.63751],[-117.96371,33.63122],[-117.95996,33.62934],[-117.95959,33.62978],[-117.95455,33.64373],[-117.95385,33.64391],[-117.95204,33.65063],[-117.95131,33.65064],[-117.94513,33.67239],[-117.94576,33.67238],[-117.94472,33.67608],[-117.94044,33.68681],[-117.98012,33.68678],[-117.98054,33.71567],[-117.97178,33.71576],[-117.97192,33.71994],[-117.97544,33.72294],[-117.98897,33.72287],[-117.98902,33.72658],[-117.98072,33.72663],[-117.98073,33.73034],[-117.98907,33.73028],[-117.98912,33.73383],[-117.99189,33.73381],[-117.99382,33.73533],[-117.99391,33.74106],[-117.9982,33.74103],[-117.99815,33.73738],[-118.00691,33.73735],[-118.00698,33.74444],[-118.01571,33.74434],[-118.0158,33.75089],[-118.01902,33.75086],[-118.0191,33.75395],[-118.02464,33.7539],[-118.02466,33.75534],[-118.03335,33.75529],[-118.03336,33.7562],[-118.04193,33.75009],[-118.0417,33.72994],[-118.07057,33.72976],[-118.07654,33.7255],[-118.08256,33.72826]],[[-118.06396,33.71152],[-118.05209,33.71155],[-118.05206,33.71037],[-118.05025,33.70899],[-118.04556,33.70671],[-118.0426,33.70643],[-118.03894,33.70801],[-118.02094,33.6948],[-118.01669,33.69789],[-118.01504,33.69765],[-118.015,33.69367],[-118.01819,33.69277],[-118.01814,33.68914],[-118.02053,33.68912],[-118.02211,33.68638],[-118.02135,33.68638],[-118.02134,33.68548],[-118.02351,33.68546],[-118.02457,33.68364],[-118.02674,33.68362],[-118.02673,33.68271],[-118.03215,33.68266],[-118.03218,33.68018],[-118.05346,33.70241],[-118.06396,33.71152]],[[-118.04121,33.70961],[-118.04122,33.71025],[-118.03972,33.71027],[-118.0397,33.70863],[-118.04119,33.7086],[-118.04121,33.70961]]]},"properties":{"GEOID":"0636000","NAME":"Huntington Beach city","BASENAME":"Huntington Beach","STATE":"06","PLACE":"36000"}},{"type":"Feature","geometry":{"type":"Polygon","coordinates":[[[-117.94394,33.74138],[-117.94388,33.73707],[-117.94171,33.73713],[-117.94164,33.73264],[-117.93731,33.73268],[-117.9374,33.73149],[-117.93659,33.73085],[-117.92413,33.73099],[-117.92415,33.73284],[-117.91557,33.73286],[-117.91553,33.72936],[-117.91423,33.72861],[-117.91658,33.72265],[-117.92042,33.71557],[-117.92953,33.70198],[-117.91946,33.70209],[-117.9194,33.69559],[-117.89217,33.6964],[-117.89216,33.69412],[-117.86822,33.69408],[-117.86773,33.69194],[-117.85543,33.7047],[-117.84873,33.70008],[-117.83764,33.71126],[-117.84465,33.71555],[-117.83405,33.72604],[-117.83353,33.73384],[-117.84251,33.73377],[-117.84219,33.73882],[-117.84348,33.73882],[-117.84348,33.74197],[-117.84033,33.742],[-117.84034,33.7435],[-117.83811,33.74253],[-117.83811,33.74352],[-117.83383,33.74388],[-117.83497,33.7463],[-117.83413,33.74631],[-117.83413,33.74716],[-117.83223,33.74716],[-117.83026,33.75904],[-117.83144,33.75986],[-117.8314,33.77295],[-117.83901,33.77325],[-117.83901,33.7751],[-117.83574,33.77558],[-117.8401,33.77639],[-117.8401,33.77695],[-117.8488,33.77556],[-117.84881,33.77485],[-117.8533,33.77482],[-117.85716,33.77668],[-117.85999,33.77518],[-117.86732,33.77501],[-117.86729,33.77862],[-117.87615,33.77855],[-117.88197,33.78401],[-117.88477,33.78051],[-117.88812,33.77363],[-117.89435,33.77448],[-117.89428,33.769],[-117.89863,33.76899],[-117.89868,33.77379],[-117.90085,33.77347],[-117.90084,33.77263],[-117.90301,33.77262],[-117.90291,33.76474],[-117.90509,33.76458],[-117.90507,33.7635],[-117.90725,33.76349],[-117.90715,33.75312],[-117.91216,33.7562],[-117.91152,33.7562],[-117.91156,33.75982],[-117.9301,33.7597],[-117.93008,33.75788],[-117.93109,33.75788],[-117.93112,33.75908],[-117.93262,33.75787],[-117.93264,33.75968],[-117.93763,33.75963],[-117.93755,33.75238],[-117.94189,33.75234],[-117.9424,33.74871],[-117.94186,33.74871],[-117.94177,33.74139],[-117.94394,33.74138]]]},"properties":{"GEOID":"0669000","NAME":"Santa Ana city","BASENAME":"Santa Ana","STATE":"06","PLACE":"69000"}},{"type":"Feature","geometry":{"type":"Polygon","coordinates":[[[-117.90473,33.79073],[-117.90468,33.78888],[-117.8975,33.78892],[-117.89743,33.77447],[-117.89141,33.77446],[-117.88812,33.77363],[-117.88477,33.78051],[-117.88197,33.78401],[-117.87615,33.77855],[-117.86729,33.77862],[-117.86732,33.77501],[-117.85999,33.77518],[-117.85716,33.77668],[-117.8533,33.77482],[-117.84881,33.77485],[-117.8488,33.77556],[-117.8401,33.77695],[-117.8401,33.77639],[-117.83574,33.77558],[-117.83901,33.7751],[-117.83901,33.77325],[-117.8314,33.77295],[-117.82708,33.77324],[-117.82706,33.77506],[-117.8249,33.77506],[-117.82489,33.77686],[-117.82272,33.77687],[-117.82272,33.77379],[-117.82055,33.77379],[-117.82055,33.77505],[-117.82172,33.77505],[-117.82172,33.77592],[-117.81836,33.77592],[-117.81835,33.77348],[-117.81713,33.77348],[-117.81713,33.77686],[-117.81836,33.77685],[-117.81836,33.77864],[-117.81574,33.77868],[-117.81403,33.77841],[-117.81403,33.7735],[-117.80534,33.77352],[-117.8054,33.77796],[-117.80311,33.77794],[-117.8031,33.78483],[-117.80137,33.78591],[-117.79793,33.78589],[-117.79702,33.78445],[-117.79585,33.78451],[-117.79581,33.78769],[-117.79418,33.78768],[-117.79365,33.78496],[-117.795,33.78497],[-117.795,33.78396],[-117.78503,33.77995],[-117.78389,33.7803],[-117.78327,33.78236],[-117.782,33.78273],[-117.7808,33.78162],[-117.77938,33.78232],[-117.77895,33.78318],[-117.7799,33.7836],[-117.77923,33.78481],[-117.7798,33.78515],[-117.77749,33.78795],[-117.77553,33.78805],[-117.77174,33.7858],[-117.77313,33.78441],[-117.76215,33.77677],[-117.76424,33.7735],[-117.75854,33.77361],[-117.75801,33.77595],[-117.75712,33.77569],[-117.75377,33.77917],[-117.75082,33.78019],[-117.74883,33.7788],[-117.7472,33.7794],[-117.7457,33.77639],[-117.73672,33.76965],[-117.73097,33.76797],[-117.72978,33.76826],[-117.73001,33.76926],[-117.73357,33.77138],[-117.73345,33.77588],[-117.73439,33.77594],[-117.73436,33.77672],[-117.73795,33.77632],[-117.7384,33.77756],[-117.73894,33.78001],[-117.73842,33.78121],[-117.74047,33.78451],[-117.73744,33.78196],[-117.73757,33.78387],[-117.73562,33.78514],[-117.73495,33.78796],[-117.73683,33.78939],[-117.73625,33.79014],[-117.73708,33.79131],[-117.73996,33.78953],[-117.74158,33.79182],[-117.74325,33.7922],[-117.74585,33.79141],[-117.74685,33.79031],[-117.74872,33.79042],[-117.75311,33.79346],[-117.75601,33.79466],[-117.75817,33.79453],[-117.76005,33.79645],[-117.76205,33.79588],[-117.76195,33.79724],[-117.76403,33.79833],[-117.76667,33.80167],[-117.76609,33.80168],[-117.76615,33.82395],[-117.74708,33.82415],[-117.74585,33.82562],[-117.76075,33.82739],[-117.76299,33.82912],[-117.76141,33.83189],[-117.76282,33.83405],[-117.76521,33.8346],[-117.76753,33.83271],[-117.77251,33.83253],[-117.77641,33.83062],[-117.77776,33.83143],[-117.77846,33.8309],[-117.77919,33.83214],[-117.7839,33.83266],[-117.78392,33.83413],[-117.79263,33.83522],[-117.793,33.83613],[-117.79508,33.83553],[-117.79941,33.8362],[-117.80177,33.83877],[-117.80506,33.8377],[-117.80677,33.83876],[-117.80876,33.8373],[-117.81131,33.83751],[-117.81397,33.83619],[-117.81433,33.83829],[-117.81695,33.83711],[-117.82204,33.83778],[-117.82141,33.83625],[-117.82256,33.83588],[-117.82175,33.83397],[-117.82392,33.83376],[-117.82664,33.83539],[-117.82816,33.83786],[-117.83052,33.83725],[-117.83447,33.8391],[-117.83101,33.84213],[-117.83478,33.8428],[-117.8364,33.84713],[-117.84516,33.84682],[-117.85646,33.8433],[-117.85458,33.84209],[-117.85882,33.83907],[-117.85805,33.83757],[-117.85959,33.83711],[-117.85873,33.83493],[-117.86344,33.83546],[-117.86472,33.83395],[-117.87191,33.81286],[-117.87881,33.79945],[-117.88126,33.79305],[-117.88918,33.79362],[-117.88918,33.79612],[-117.89556,33.79613],[-117.89138,33.7919],[-117.89753,33.7901],[-117.8976,33.79251],[-117.90413,33.7925],[-117.90408,33.79073],[-117.90473,33.79073]],[[-117.85855,33.8351],[-117.85847,33.83604],[-117.85584,33.83635],[-117.85528,33.83529],[-117.85855,33.8351]],[[-117.84671,33.83605],[-117.84578,33.83882],[-117.84378,33.83714],[-117.84597,33.83692],[-117.84671,33.83605]],[[-117.84367,33.83791],[-117.84367,33.83885],[-117.84178,33.83885],[-117.84178,33.83785],[-117.84052,33.83884],[-117.83911,33.83884],[-117.83926,33.83791],[-117.83845,33.8384],[-117.83888,33.83662],[-117.84114,33.83613],[-117.84367,33.83791]],[[-117.82716,33.81457],[-117.8225,33.81466],[-117.82323,33.81763],[-117.81995,33.81772],[-117.82,33.81955],[-117.82387,33.81947],[-117.82626,33.82367],[-117.8242,33.82372],[-117.82428,33.82684],[-117.818,33.82515],[-117.81288,33.82496],[-117.80646,33.8297],[-117.80146,33.83073],[-117.80109,33.83194],[-117.79616,33.82929],[-117.79374,33.82634],[-117.79363,33.82453],[-117.79604,33.82334],[-117.79575,33.81771],[-117.8009,33.81814],[-117.80089,33.81447],[-117.79929,33.81422],[-117.79775,33.81038],[-117.80053,33.80927],[-117.80089,33.80811],[-117.80238,33.80805],[-117.8025,33.80725],[-117.80887,33.80676],[-117.80887,33.7987],[-117.81425,33.79871],[-117.81395,33.80096],[-117.81552,33.8022],[-117.81797,33.80234],[-117.81801,33.80598],[-117.82025,33.80596],[-117.82027,33.80232],[-117.82188,33.80231],[-117.82196,33.81042],[-117.8198,33.81044],[-117.81982,33.81226],[-117.82199,33.81221],[-117.82327,33.81383],[-117.82715,33.81381],[-117.82716,33.81457]],[[-117.80963,33.79122],[-117.8057,33.79139],[-117.80485,33.79277],[-117.8057,33.79322],[-117.80222,33.7932],[-117.80222,33.79229],[-117.79917,33.79224],[-117.79917,33.78863],[-117.80633,33.78865],[-117.80963,33.78776],[-117.80963,33.79122]],[[-117.80785,33.7986],[-117.80351,33.79868],[-117.80351,33.79685],[-117.80569,33.79684],[-117.8057,33.79504],[-117.80784,33.79506],[-117.80785,33.7986]],[[-117.79078,33.80407],[-117.78642,33.80562],[-117.78655,33.80645],[-117.78753,33.8062],[-117.78858,33.80706],[-117.78816,33.80792],[-117.78893,33.81003],[-117.78755,33.80982],[-117.78783,33.8106],[-117.78703,33.81049],[-117.78677,33.81133],[-117.78787,33.81192],[-117.78672,33.81206],[-117.78525,33.80969],[-117.78376,33.81035],[-117.78348,33.80919],[-117.78212,33.80929],[-117.78351,33.81358],[-117.77922,33.81418],[-117.77854,33.81308],[-117.77952,33.81272],[-117.77938,33.81196],[-117.77837,33.8121],[-117.77801,33.81024],[-117.77458,33.81072],[-117.77524,33.80781],[-117.77811,33.80798],[-117.77846,33.80587],[-117.78049,33.80624],[-117.77944,33.80479],[-117.77838,33.8048],[-117.77875,33.80375],[-117.77665,33.80376],[-117.7766,33.80302],[-117.77547,33.80377],[-117.77285,33.8038],[-117.77278,33.80161],[-117.77564,33.80156],[-117.77672,33.80297],[-117.78176,33.80187],[-117.78241,33.80141],[-117.78235,33.7967],[-117.78018,33.79664],[-117.78017,33.79482],[-117.78186,33.79338],[-117.78305,33.79421],[-117.78558,33.79293],[-117.78496,33.79629],[-117.78543,33.79912],[-117.78873,33.79954],[-117.79078,33.80407]]]},"properties":{"GEOID":"0653980","NAME":"Orange city","BASENAME":"Orange","STATE":"06","PLACE":"53980"}},{"type":"Feature","geometry":{"type":"Polygon","coordinates":[[[-118.01742,33.82446],[-118.01739,33.82267],[-118.01475,33.82261],[-118.01508,33.82405],[-118.01381,33.82444],[-118.01379,33.82267],[-118.01096,33.82287],[-118.01094,33.82173],[-118.01605,33.81997],[-118.01475,33.81918],[-118.01473,33.81721],[-118.01735,33.81719],[-118.01727,33.80993],[-118.01181,33.80998],[-118.01191,33.81107],[-118.00982,33.81091],[-118.00856,33.81183],[-118.00287,33.81189],[-118.00578,33.81368],[-117.99766,33.81375],[-117.99767,33.81468],[-117.99549,33.8147],[-117.99551,33.81565],[-117.97581,33.81577],[-117.97579,33.81396],[-117.98018,33.81392],[-117.98015,33.81028],[-117.97847,33.8103],[-117.97796,33.81112],[-117.97794,33.8103],[-117.97639,33.81032],[-117.97577,33.8125],[-117.97574,33.81078],[-117.97195,33.8114],[-117.97194,33.81036],[-117.96759,33.8104],[-117.96761,33.81823],[-117.96596,33.8189],[-117.96762,33.8198],[-117.96764,33.82766],[-117.96546,33.82768],[-117.96543,33.82499],[-117.96328,33.825],[-117.96328,33.824],[-117.96249,33.82401],[-117.96219,33.82685],[-117.96329,33.82684],[-117.96333,33.8288],[-117.95892,33.8289],[-117.95892,33.82764],[-117.9603,33.82763],[-117.96024,33.8257],[-117.96113,33.82569],[-117.96171,33.82429],[-117.96036,33.8232],[-117.96038,33.82209],[-117.95893,33.8221],[-117.95893,33.8214],[-117.96328,33.82135],[-117.96332,33.81772],[-117.96033,33.81775],[-117.96033,33.81708],[-117.95951,33.81707],[-117.95888,33.80678],[-117.96323,33.80673],[-117.96322,33.8031],[-117.94142,33.80308],[-117.94137,33.80043],[-117.93706,33.80047],[-117.93706,33.79868],[-117.94134,33.79863],[-117.94124,33.7923],[-117.93472,33.79233],[-117.93474,33.79424],[-117.93257,33.79426],[-117.93259,33.79598],[-117.92823,33.79602],[-117.92828,33.79874],[-117.92392,33.79878],[-117.92387,33.79605],[-117.91735,33.79608],[-117.91724,33.79243],[-117.91499,33.79242],[-117.91489,33.78895],[-117.91048,33.78886],[-117.91053,33.79062],[-117.90624,33.79064],[-117.90629,33.7925],[-117.8976,33.79251],[-117.89753,33.7901],[-117.89138,33.7919],[-117.89556,33.79613],[-117.88918,33.79612],[-117.88918,33.79362],[-117.88126,33.79305],[-117.87881,33.79945],[-117.87191,33.81286],[-117.86472,33.83395],[-117.85799,33.84173],[-117.86009,33.84277],[-117.85069,33.84713],[-117.84989,33.84536],[-117.84516,33.84682],[-117.8364,33.84713],[-117.83478,33.8428],[-117.83101,33.84213],[-117.83447,33.8391],[-117.83052,33.83725],[-117.82816,33.83786],[-117.82664,33.83539],[-117.82287,33.83354],[-117.82158,33.83452],[-117.82256,33.83588],[-117.82141,33.83625],[-117.82204,33.83778],[-117.81695,33.83711],[-117.81433,33.83829],[-117.81397,33.83619],[-117.81131,33.83751],[-117.80876,33.8373],[-117.80677,33.83876],[-117.80506,33.8377],[-117.80177,33.83877],[-117.79941,33.8362],[-117.79508,33.83553],[-117.793,33.83613],[-117.79263,33.83522],[-117.78392,33.83413],[-117.7839,33.83266],[-117.77919,33.83214],[-117.77846,33.8309],[-117.77776,33.83143],[-117.77641,33.83062],[-117.77251,33.83253],[-117.76753,33.83271],[-117.76521,33.8346],[-117.76282,33.83405],[-117.76141,33.83189],[-117.76299,33.82912],[-117.76075,33.82739],[-117.74717,33.82578],[-117.73236,33.84319],[-117.73183,33.84231],[-117.72904,33.84563],[-117.7273,33.84543],[-117.72518,33.84488],[-117.72428,33.84286],[-117.72233,33.84147],[-117.72134,33.83492],[-117.72033,33.83355],[-117.72064,33.82999],[-117.71865,33.83002],[-117.71474,33.82704],[-117.71402,33.8274],[-117.71422,33.82978],[-117.71349,33.83131],[-117.71417,33.83299],[-117.71288,33.8346],[-117.71285,33.83262],[-117.71078,33.83128],[-117.71083,33.83015],[-117.70905,33.82821],[-117.70646,33.82794],[-117.70673,33.8271],[-117.70575,33.82654],[-117.70521,33.82887],[-117.70267,33.829],[-117.70096,33.83354],[-117.69966,33.83443],[-117.70253,33.83674],[-117.70097,33.83831],[-117.70008,33.84156],[-117.69765,33.84363],[-117.6973,33.84518],[-117.70059,33.8477],[-117.70053,33.8495],[-117.69851,33.85025],[-117.69955,33.85078],[-117.69887,33.85145],[-117.69953,33.85193],[-117.69822,33.85291],[-117.69728,33.85618],[-117.69566,33.85505],[-117.69492,33.85661],[-117.69271,33.85505],[-117.69388,33.85389],[-117.69194,33.85253],[-117.69098,33.85349],[-117.6864,33.85405],[-117.68567,33.85473],[-117.68633,33.85753],[-117.68844,33.85902],[-117.68822,33.86035],[-117.68889,33.86093],[-117.68879,33.86251],[-117.68809,33.86271],[-117.68714,33.8624],[-117.6875,33.86174],[-117.68596,33.86187],[-117.68666,33.8602],[-117.68435,33.8579],[-117.68546,33.8568],[-117.68437,33.85639],[-117.68351,33.85725],[-117.68178,33.8564],[-117.6805,33.85767],[-117.68417,33.85925],[-117.68312,33.86179],[-117.67861,33.86081],[-117.67967,33.86321],[-117.67455,33.86213],[-117.67509,33.86917],[-117.68208,33.86984],[-117.68742,33.87277],[-117.69101,33.87328],[-117.69831,33.87273],[-117.70216,33.8704],[-117.71284,33.86643],[-117.72431,33.86704],[-117.73571,33.87058],[-117.74456,33.87024],[-117.7469,33.87346],[-117.7491,33.87454],[-117.74834,33.87647],[-117.7458,33.87766],[-117.74583,33.87923],[-117.75917,33.87474],[-117.76893,33.87304],[-117.77194,33.8712],[-117.77867,33.86449],[-117.78527,33.86256],[-117.79048,33.86235],[-117.79112,33.86556],[-117.79316,33.86554],[-117.79537,33.86773],[-117.7951,33.86855],[-117.79829,33.87047],[-117.79835,33.87124],[-117.80421,33.87417],[-117.80593,33.87192],[-117.81729,33.87019],[-117.81852,33.86746],[-117.81843,33.86204],[-117.82342,33.86202],[-117.82341,33.8609],[-117.82831,33.86102],[-117.82835,33.86213],[-117.83124,33.86211],[-117.83126,33.86423],[-117.83706,33.86417],[-117.83711,33.86817],[-117.8653,33.86866],[-117.86515,33.86772],[-117.86771,33.86716],[-117.86719,33.86375],[-117.86245,33.865],[-117.8617,33.8633],[-117.87033,33.86202],[-117.87002,33.86114],[-117.87106,33.8609],[-117.8688,33.85774],[-117.88498,33.85361],[-117.88313,33.85974],[-117.88938,33.85969],[-117.88935,33.85789],[-117.89372,33.85785],[-117.89369,33.85638],[-117.89728,33.85634],[-117.90214,33.85424],[-117.90671,33.85422],[-117.90687,33.86319],[-117.91106,33.86266],[-117.91108,33.86318],[-117.91988,33.86311],[-117.91989,33.85454],[-117.96794,33.85426],[-117.97466,33.85631],[-117.97513,33.85419],[-117.97649,33.85419],[-117.98302,33.85772],[-117.98489,33.85768],[-117.98487,33.85393],[-117.98058,33.85403],[-117.9805,33.8468],[-117.97834,33.84681],[-117.97833,33.845],[-117.9805,33.84497],[-117.98049,33.83951],[-117.98569,33.83946],[-117.98608,33.83579],[-118.00226,33.83568],[-118.00225,33.83387],[-118.00663,33.83378],[-118.00776,33.83335],[-118.00774,33.83192],[-118.01098,33.83197],[-118.01093,33.83046],[-118.01312,33.83044],[-118.0131,33.82823],[-118.01419,33.82822],[-118.01417,33.82653],[-118.01649,33.82636],[-118.01644,33.82448],[-118.01742,33.82446]]]},"properties":{"GEOID":"0602000","NAME":"Anaheim city","BASENAME":"Anaheim","STATE":"06","PLACE":"02000"}},{"type":"Feature","geometry":{"type":"Polygon","coordinates":[[[-117.86874,33.68964],[-117.86781,33.68774],[-117.86401,33.68625],[-117.86236,33.68885],[-117.86148,33.68846],[-117.86071,33.68967],[-117.85955,33.68916],[-117.86032,33.68795],[-117.85945,33.68756],[-117.86105,33.68503],[-117.85695,33.68312],[-117.86403,33.67174],[-117.86158,33.67119],[-117.85428,33.66613],[-117.8628,33.65757],[-117.86001,33.65138],[-117.85953,33.64253],[-117.85677,33.63841],[-117.84984,33.63366],[-117.83517,33.62889],[-117.82892,33.6238],[-117.82211,33.62071],[-117.81725,33.61336],[-117.81408,33.61104],[-117.80452,33.60903],[-117.79005,33.60347],[-117.78257,33.60215],[-117.77623,33.5996],[-117.77435,33.61839],[-117.75349,33.62666],[-117.75266,33.62571],[-117.75344,33.62337],[-117.75178,33.62229],[-117.75092,33.62051],[-117.74783,33.61899],[-117.74312,33.62551],[-117.74122,33.63105],[-117.72089,33.62833],[-117.72611,33.63334],[-117.7266,33.63471],[-117.71997,33.6289],[-117.71641,33.63553],[-117.71838,33.6371],[-117.71551,33.63924],[-117.71473,33.63866],[-117.71037,33.64663],[-117.69948,33.65941],[-117.70577,33.66381],[-117.69986,33.66715],[-117.69558,33.66416],[-117.67802,33.68502],[-117.68787,33.69196],[-117.69841,33.69802],[-117.70462,33.70084],[-117.7085,33.70149],[-117.71056,33.70357],[-117.71748,33.70694],[-117.72026,33.7098],[-117.72316,33.70933],[-117.72742,33.70389],[-117.73386,33.70797],[-117.73784,33.71151],[-117.73544,33.71553],[-117.73146,33.71795],[-117.72438,33.71799],[-117.71904,33.72004],[-117.71872,33.72531],[-117.71756,33.72844],[-117.71818,33.72995],[-117.71692,33.73287],[-117.70991,33.73466],[-117.70831,33.7367],[-117.70063,33.73867],[-117.70079,33.74011],[-117.70668,33.73883],[-117.70682,33.74049],[-117.71706,33.74853],[-117.72511,33.75125],[-117.73084,33.75434],[-117.73567,33.75077],[-117.73825,33.75405],[-117.7415,33.75391],[-117.74163,33.76074],[-117.74616,33.76314],[-117.74653,33.76475],[-117.75229,33.76743],[-117.74996,33.77153],[-117.75166,33.77365],[-117.75424,33.77362],[-117.75418,33.77065],[-117.75777,33.7706],[-117.75717,33.77247],[-117.75853,33.77361],[-117.75994,33.76943],[-117.76001,33.76364],[-117.76396,33.75844],[-117.76798,33.74703],[-117.77999,33.73491],[-117.7844,33.73268],[-117.78705,33.73034],[-117.79014,33.72439],[-117.79344,33.721],[-117.79498,33.71969],[-117.79793,33.72177],[-117.80219,33.71733],[-117.80369,33.71223],[-117.80377,33.70654],[-117.79981,33.7038],[-117.80841,33.69501],[-117.81255,33.69347],[-117.81539,33.69619],[-117.81418,33.69705],[-117.81996,33.7008],[-117.82656,33.69405],[-117.84325,33.70558],[-117.84873,33.70008],[-117.85543,33.7047],[-117.86773,33.69194],[-117.86874,33.68964]],[[-117.86265,33.69672],[-117.86059,33.69887],[-117.86009,33.69722],[-117.86265,33.69672]]]},"properties":{"GEOID":"0636770","NAME":"Irvine city","BASENAME":"Irvine","STATE":"06","PLACE":"36770"}}]}