{"type":"FeatureCollection","features":[{"type":"Feature","geometry":{"type":"MultiPolygon","coordinates":[[[[-120.96505,39.09996],[-120.96278,39.0996],[-120.96203,39.10154],[-120.96019,39.10154],[-120.96052,39.1001],[-120.95967,39.09915],[-120.96062,39.10015],[-120.96191,39.09833],[-120.95997,39.09824],[-120.95984,39.09314],[-120.9574,39.09305],[-120.959,39.08999],[-120.96045,39.08923],[-120.96035,39.08022],[-120.95966,39.07907],[-120.9618,39.07508],[-120.96111,39.07492],[-120.95956,39.07717],[-120.95565,39.07708],[-120.95565,39.07543],[-120.95133,39.07543],[-120.95133,39.07764],[-120.95443,39.07764],[-120.95448,39.08269],[-120.95331,39.08274],[-120.95329,39.08396],[-120.94993,39.08369],[-120.94995,39.08724],[-120.94574,39.08724],[-120.94571,39.08891],[-120.94992,39.09038],[-120.95004,39.08853],[-120.95221,39.08986],[-120.94937,39.09376],[-120.94674,39.09371],[-120.94673,39.09526],[-120.94476,39.09521],[-120.94485,39.09749],[-120.94785,39.09761],[-120.94828,39.10086],[-120.94799,39.10261],[-120.94577,39.10358],[-120.94787,39.10569],[-120.94879,39.10269],[-120.94883,39.10456],[-120.94937,39.10434],[-120.95009,39.1062],[-120.94882,39.10792],[-120.9492,39.11272],[-120.9478,39.11482],[-120.94988,39.11428],[-120.94997,39.11122],[-120.95394,39.11165],[-120.95563,39.10824],[-120.95726,39.10828],[-120.95757,39.10607],[-120.95395,39.10604],[-120.9543,39.10438],[-120.95941,39.10341],[-120.95952,39.10122],[-120.95975,39.10279],[-120.96085,39.10225],[-120.96265,39.10322],[-120.96487,39.10321],[-120.96505,39.09996]]],[[[-120.94109,39.08259],[-120.94058,39.08061],[-120.93599,39.08094],[-120.93491,39.08452],[-120.93957,39.08507],[-120.94109,39.08259]]],[[[-120.94296,39.09075],[-120.93968,39.0909],[-120.93973,39.09372],[-120.94157,39.09373],[-120.94158,39.09193],[-120.94011,39.09151],[-120.94296,39.09075]]]]},"properties":{"GEOID":"0614498","NAME":"Colfax city","BASENAME":"Colfax","STATE":"06","PLACE":"14498"}},{"type":"Feature","geometry":{"type":"Polygon","coordinates":[[[-121.22894,38.81759],[-121.22876,38.8099],[-121.21034,38.81023],[-121.21024,38.80906],[-121.20866,38.81036],[-121.2054,38.81029],[-121.20541,38.80702],[-121.20093,38.80687],[-121.19675,38.81041],[-121.19391,38.81045],[-121.19392,38.80973],[-121.19635,38.80977],[-121.19634,38.80408],[-121.19428,38.80407],[-121.19309,38.8056],[-121.1916,38.80559],[-121.19161,38.80394],[-121.18951,38.80289],[-121.19233,38.79805],[-121.19238,38.79386],[-121.2011,38.79383],[-121.20147,38.78227],[-121.20464,38.78222],[-121.2028,38.77914],[-121.20272,38.77759],[-121.20379,38.77607],[-121.20693,38.7742],[-121.18298,38.77417],[-121.18326,38.78131],[-121.18183,38.78128],[-121.18192,38.78321],[-121.17355,38.78325],[-121.17388,38.80547],[-121.17375,38.80834],[-121.17246,38.80873],[-121.17371,38.80918],[-121.17356,38.81447],[-121.18022,38.81436],[-121.1802,38.81813],[-121.18249,38.81807],[-121.18258,38.82231],[-121.17798,38.82616],[-121.1778,38.83692],[-121.17893,38.83624],[-121.19178,38.83569],[-121.19178,38.83672],[-121.19803,38.83667],[-121.19807,38.83866],[-121.20108,38.83782],[-121.20106,38.83183],[-121.22391,38.83239],[-121.22391,38.8246],[-121.22111,38.8246],[-121.22463,38.81763],[-121.22894,38.81759]]]},"properties":{"GEOID":"0643140","NAME":"Loomis town","BASENAME":"Loomis","STATE":"06","PLACE":"43140"}},{"type":"Feature","geometry":{"type":"MultiPolygon","coordinates":[[[[-121.10294,38.86982],[-121.10265,38.86177],[-121.09737,38.86181],[-121.09724,38.8596],[-121.09436,38.86002],[-121.09399,38.86188],[-121.08658,38.86206],[-121.08664,38.86581],[-121.08475,38.86575],[-121.08474,38.86917],[-121.07641,38.86923],[-121.07561,38.86918],[-121.07594,38.86691],[-121.07471,38.86586],[-121.06993,38.86586],[-121.06965,38.85807],[-121.06334,38.85805],[-121.06286,38.86699],[-121.06739,38.87128],[-121.06843,38.87813],[-121.06782,38.88056],[-121.06907,38.88056],[-121.06911,38.88282],[-121.06877,38.88421],[-121.06058,38.88454],[-121.06052,38.88722],[-121.05652,38.88719],[-121.05653,38.89126],[-121.05514,38.89196],[-121.05366,38.89164],[-121.05366,38.89257],[-121.05655,38.89286],[-121.05663,38.908],[-121.05589,38.90809],[-121.05617,38.90959],[-121.0545,38.90928],[-121.05297,38.91026],[-121.05377,38.91168],[-121.05885,38.91065],[-121.05895,38.90921],[-121.0613,38.90919],[-121.06037,38.91783],[-121.06103,38.91799],[-121.06644,38.91288],[-121.06819,38.91291],[-121.06719,38.91543],[-121.06214,38.9174],[-121.06304,38.92],[-121.06471,38.91882],[-121.06761,38.91868],[-121.06767,38.92027],[-121.07097,38.92028],[-121.07098,38.92154],[-121.07182,38.92151],[-121.07133,38.92351],[-121.07023,38.92351],[-121.07023,38.92231],[-121.06776,38.92228],[-121.06784,38.9272],[-121.07045,38.92718],[-121.07151,38.92964],[-121.0728,38.92961],[-121.07291,38.93161],[-121.07494,38.93201],[-121.07436,38.93262],[-121.07493,38.93323],[-121.07628,38.93324],[-121.0763,38.93212],[-121.07709,38.93206],[-121.07731,38.92814],[-121.07628,38.92836],[-121.07498,38.92519],[-121.07732,38.92496],[-121.07833,38.92596],[-121.07947,38.92592],[-121.07974,38.92089],[-121.07655,38.92043],[-121.07649,38.91926],[-121.07542,38.91926],[-121.07542,38.91841],[-121.07714,38.91607],[-121.07956,38.91777],[-121.08347,38.91685],[-121.08442,38.91794],[-121.08425,38.91469],[-121.08534,38.91464],[-121.08501,38.91153],[-121.08746,38.90993],[-121.08591,38.90959],[-121.08454,38.90488],[-121.08526,38.90468],[-121.08525,38.90197],[-121.08746,38.90213],[-121.08756,38.90087],[-121.08935,38.90086],[-121.08917,38.89886],[-121.08701,38.89883],[-121.08704,38.89595],[-121.08787,38.89588],[-121.08794,38.894],[-121.08717,38.89434],[-121.08722,38.89194],[-121.08429,38.89312],[-121.08949,38.88959],[-121.09896,38.88594],[-121.0983,38.86993],[-121.10294,38.86982]],[[-121.08968,38.87508],[-121.08964,38.87643],[-121.08568,38.87685],[-121.08602,38.87437],[-121.0851,38.87389],[-121.08627,38.87323],[-121.08628,38.87389],[-121.0888,38.87361],[-121.08881,38.87274],[-121.08965,38.87274],[-121.08968,38.87508]]],[[[-121.09495,38.95365],[-121.09498,38.95304],[-121.08891,38.95298],[-121.08895,38.94941],[-121.07937,38.94925],[-121.0796,38.95231],[-121.07483,38.95242],[-121.07519,38.95329],[-121.06988,38.95331],[-121.06984,38.95657],[-121.09362,38.95656],[-121.09356,38.95475],[-121.0949,38.95477],[-121.09495,38.95365]]],[[[-121.11229,38.88682],[-121.11231,38.88623],[-121.10897,38.88607],[-121.10721,38.88739],[-121.10397,38.88764],[-121.10316,38.88933],[-121.10034,38.88839],[-121.10034,38.88967],[-121.1022,38.89058],[-121.10474,38.89055],[-121.1085,38.88993],[-121.10942,38.88874],[-121.11219,38.88919],[-121.11229,38.88682]]]]},"properties":{"GEOID":"0603204","NAME":"Auburn city","BASENAME":"Auburn","STATE":"06","PLACE":"03204"}},{"type":"Feature","geometry":{"type":"Polygon","coordinates":[[[-121.29999,38.80633],[-121.29984,38.80301],[-121.29889,38.80191],[-121.29823,38.79772],[-121.2949,38.79566],[-121.27492,38.7957],[-121.26569,38.79207],[-121.26572,38.7809],[-121.26433,38.77748],[-121.25925,38.77456],[-121.25333,38.77397],[-121.25383,38.77329],[-121.25489,38.77354],[-121.25242,38.77267],[-121.2513,38.77394],[-121.24736,38.77396],[-121.2474,38.77034],[-121.21784,38.77038],[-121.21168,38.77361],[-121.20582,38.77464],[-121.20333,38.7765],[-121.20265,38.77797],[-121.20464,38.78222],[-121.20147,38.78227],[-121.2011,38.79383],[-121.19238,38.79386],[-121.19233,38.79805],[-121.18951,38.80289],[-121.19161,38.80394],[-121.1916,38.80559],[-121.19309,38.8056],[-121.19428,38.80407],[-121.19634,38.80408],[-121.19635,38.80977],[-121.19392,38.80973],[-121.19391,38.81045],[-121.19675,38.81041],[-121.20093,38.80687],[-121.20541,38.80702],[-121.2054,38.81029],[-121.20866,38.81036],[-121.21024,38.80906],[-121.21034,38.81023],[-121.22876,38.8099],[-121.22894,38.81759],[-121.22463,38.81763],[-121.22111,38.8246],[-121.22391,38.8246],[-121.22391,38.83239],[-121.22031,38.83223],[-121.22039,38.83517],[-121.21962,38.83516],[-121.22023,38.84354],[-121.22248,38.84837],[-121.22173,38.85114],[-121.22714,38.84884],[-121.23146,38.84856],[-121.23139,38.83915],[-121.29949,38.83962],[-121.29999,38.80633]]]},"properties":{"GEOID":"0662364","NAME":"Rocklin city","BASENAME":"Rocklin","STATE":"06","PLACE":"62364"}},{"type":"Feature","geometry":{"type":"MultiPolygon","coordinates":[[[[-121.35846,38.92645],[-121.35837,38.89727],[-121.34007,38.89727],[-121.34006,38.88606],[-121.32863,38.88538],[-121.32134,38.88218],[-121.32186,38.87366],[-121.32927,38.87362],[-121.33063,38.87274],[-121.33068,38.86902],[-121.33177,38.86813],[-121.33058,38.86799],[-121.33068,38.86452],[-121.33547,38.86447],[-121.33549,38.86811],[-121.34929,38.8681],[-121.34936,38.85171],[-121.3458,38.85168],[-121.34267,38.85628],[-121.33889,38.8561],[-121.3355,38.85843],[-121.33549,38.85356],[-121.32604,38.85354],[-121.32603,38.85715],[-121.30506,38.85722],[-121.30685,38.8512],[-121.3071,38.83903],[-121.29242,38.83965],[-121.23139,38.83915],[-121.23155,38.85467],[-121.22782,38.85739],[-121.22861,38.8594],[-121.22786,38.86053],[-121.22873,38.86131],[-121.22868,38.86471],[-121.23583,38.86841],[-121.24729,38.86835],[-121.24711,38.8865],[-121.24595,38.88661],[-121.24594,38.89019],[-121.2471,38.89037],[-121.24713,38.89401],[-121.2499,38.89446],[-121.25162,38.89771],[-121.25186,38.90082],[-121.2651,38.90112],[-121.26521,38.90481],[-121.27242,38.90476],[-121.27244,38.90845],[-121.27476,38.90844],[-121.27473,38.90568],[-121.27917,38.90565],[-121.27948,38.90464],[-121.30311,38.90458],[-121.30312,38.90354],[-121.31768,38.9118],[-121.34014,38.9119],[-121.34006,38.91928],[-121.34458,38.91928],[-121.3446,38.92646],[-121.35846,38.92645]]],[[[-121.40505,38.94813],[-121.40505,38.94086],[-121.38635,38.9409],[-121.38638,38.94816],[-121.40505,38.94813]]]]},"properties":{"GEOID":"0641474","NAME":"Lincoln city","BASENAME":"Lincoln","STATE":"06","PLACE":"41474"}},{"type":"Feature","geometry":{"type":"Polygon","coordinates":[[[-121.44662,38.80613],[-121.44665,38.80247],[-121.40026,38.80248],[-121.40025,38.75895],[-121.40322,38.75936],[-121.40318,38.75174],[-121.31387,38.75187],[-121.31377,38.74384],[-121.31137,38.74386],[-121.31139,38.74022],[-121.30907,38.74022],[-121.30904,38.73652],[-121.31269,38.73642],[-121.31266,38.73419],[-121.30901,38.73419],[-121.309,38.73307],[-121.31192,38.72978],[-121.31443,38.72925],[-121.31449,38.73651],[-121.31845,38.73595],[-121.31842,38.74014],[-121.32223,38.74006],[-121.32218,38.73359],[-121.3202,38.73362],[-121.32015,38.72924],[-121.31791,38.72925],[-121.31805,38.72338],[-121.28963,38.72146],[-121.28865,38.72201],[-121.28866,38.72385],[-121.28727,38.72453],[-121.28726,38.72562],[-121.28141,38.72575],[-121.2812,38.7221],[-121.27204,38.7223],[-121.27068,38.72192],[-121.27065,38.72013],[-121.2672,38.71989],[-121.2672,38.72227],[-121.26491,38.72227],[-121.26485,38.71972],[-121.24235,38.71822],[-121.24221,38.72027],[-121.24033,38.72223],[-121.23518,38.7222],[-121.23521,38.72944],[-121.22595,38.72942],[-121.22578,38.72393],[-121.22233,38.7239],[-121.22233,38.72191],[-121.22581,38.72214],[-121.22581,38.72034],[-121.22238,38.72026],[-121.22232,38.71657],[-121.21649,38.71619],[-121.21658,38.73233],[-121.21874,38.73244],[-121.21884,38.73663],[-121.22584,38.73669],[-121.22657,38.7515],[-121.22426,38.75663],[-121.22429,38.75978],[-121.22212,38.76719],[-121.21784,38.77038],[-121.2474,38.77034],[-121.24736,38.77396],[-121.2513,38.77394],[-121.25242,38.77267],[-121.25489,38.77354],[-121.25383,38.77329],[-121.25333,38.77397],[-121.25722,38.77394],[-121.26041,38.77498],[-121.26433,38.77748],[-121.26536,38.77933],[-121.26569,38.79207],[-121.27492,38.7957],[-121.30082,38.79562],[-121.30069,38.81002],[-121.30785,38.81013],[-121.30814,38.80538],[-121.31187,38.80467],[-121.31263,38.80721],[-121.31881,38.80606],[-121.3204,38.80719],[-121.32045,38.81003],[-121.37702,38.8098],[-121.37713,38.82439],[-121.39564,38.82434],[-121.39541,38.81707],[-121.41862,38.81718],[-121.42083,38.81561],[-121.41933,38.81533],[-121.41929,38.81297],[-121.42468,38.81187],[-121.4247,38.81692],[-121.42611,38.81729],[-121.42618,38.82432],[-121.43246,38.82432],[-121.43259,38.81056],[-121.43599,38.81247],[-121.44159,38.8126],[-121.44196,38.80615],[-121.44662,38.80613]]]},"properties":{"GEOID":"0662938","NAME":"Roseville city","BASENAME":"Roseville","STATE":"06","PLACE":"62938"}}]}