{"type":"FeatureCollection","features":[{"type":"Feature","geometry":{"type":"MultiPolygon","coordinates":[[[[-120.49562,39.83169],[-120.49242,39.82858],[-120.48564,39.82496],[-120.48419,39.82248],[-120.47863,39.82059],[-120.47795,39.81972],[-120.4792,39.81922],[-120.47917,39.81707],[-120.47629,39.81698],[-120.47607,39.81339],[-120.47644,39.80627],[-120.47864,39.80628],[-120.47871,39.80158],[-120.48063,39.80169],[-120.48102,39.80321],[-120.49534,39.80162],[-120.49533,39.79901],[-120.48585,39.79904],[-120.48587,39.79183],[-120.48106,39.79418],[-120.48088,39.80085],[-120.47848,39.80082],[-120.47855,39.79713],[-120.47618,39.79718],[-120.47623,39.79184],[-120.45721,39.79166],[-120.45737,39.81732],[-120.46344,39.81732],[-120.46188,39.81985],[-120.46361,39.82034],[-120.46519,39.8173],[-120.46679,39.81713],[-120.4677,39.8186],[-120.46676,39.81841],[-120.46543,39.82011],[-120.46523,39.82091],[-120.46592,39.82091],[-120.46702,39.81955],[-120.46861,39.81954],[-120.46792,39.81715],[-120.46939,39.81716],[-120.46938,39.81806],[-120.47015,39.81806],[-120.47043,39.81715],[-120.47159,39.81714],[-120.47164,39.81806],[-120.47291,39.81806],[-120.47276,39.82095],[-120.47392,39.82095],[-120.47393,39.82187],[-120.47627,39.82186],[-120.4763,39.82464],[-120.47139,39.82464],[-120.4714,39.83195],[-120.46195,39.83185],[-120.46197,39.83555],[-120.45697,39.83559],[-120.45697,39.83794],[-120.45302,39.83796],[-120.45333,39.84994],[-120.48807,39.84977],[-120.49438,39.84277],[-120.49562,39.83169]]],[[[-120.467,39.81801],[-120.46628,39.81811],[-120.46665,39.81825],[-120.467,39.81801]]]]},"properties":{"GEOID":"0658352","NAME":"Portola city","BASENAME":"Portola","STATE":"06","PLACE":"58352"}}]}