{"type":"FeatureCollection","features":[{"type":"Feature","geometry":{"type":"Polygon","coordinates":[[[-117.28402,33.68351],[-117.28076,33.68314],[-117.27966,33.67956],[-117.27756,33.67951],[-117.27693,33.67404],[-117.27118,33.67323],[-117.26662,33.67398],[-117.2666,33.67038],[-117.24048,33.67059],[-117.24047,33.6777],[-117.23532,33.67786],[-117.23497,33.67843],[-117.23558,33.68499],[-117.24043,33.68498],[-117.24047,33.68863],[-117.25369,33.6885],[-117.25365,33.68487],[-117.25804,33.68483],[-117.258,33.71387],[-117.27543,33.71349],[-117.27541,33.69535],[-117.27985,33.69533],[-117.27975,33.68808],[-117.28401,33.68803],[-117.28402,33.68351]]]},"properties":{"GEOID":"0610928","NAME":"Canyon Lake city","BASENAME":"Canyon Lake","STATE":"06","PLACE":"10928"}},{"type":"Feature","geometry":{"type":"Polygon","coordinates":[[[-117.61548,33.91875],[-117.6155,33.9172],[-117.61099,33.91712],[-117.61093,33.90999],[-117.60911,33.90768],[-117.60759,33.9095],[-117.60734,33.91241],[-117.6034,33.91496],[-117.59846,33.91992],[-117.59489,33.92062],[-117.59764,33.92371],[-117.59609,33.92697],[-117.59132,33.92922],[-117.58619,33.92876],[-117.57872,33.93629],[-117.56805,33.94138],[-117.56525,33.9434],[-117.56329,33.9464],[-117.5583,33.94591],[-117.55833,33.95497],[-117.55383,33.95717],[-117.54891,33.95723],[-117.54887,33.98488],[-117.55032,33.99344],[-117.55024,34.03347],[-117.55831,34.03345],[-117.55838,33.98842],[-117.61094,33.97181],[-117.61095,33.92415],[-117.61542,33.92423],[-117.61548,33.91875]]]},"properties":{"GEOID":"0621230","NAME":"Eastvale city","BASENAME":"Eastvale","STATE":"06","PLACE":"21230"}},{"type":"Feature","geometry":{"type":"Polygon","coordinates":[[[-117.60711,33.91218],[-117.60729,33.9112],[-117.60161,33.90792],[-117.59266,33.91619],[-117.58983,33.91403],[-117.58816,33.91468],[-117.57986,33.90533],[-117.5763,33.90746],[-117.57033,33.90072],[-117.5721,33.89963],[-117.56911,33.89625],[-117.56784,33.89662],[-117.56863,33.8958],[-117.56657,33.89373],[-117.56281,33.89598],[-117.56067,33.89577],[-117.55941,33.89437],[-117.55839,33.89495],[-117.56004,33.89861],[-117.55735,33.89996],[-117.55693,33.90196],[-117.55426,33.90195],[-117.55425,33.89941],[-117.55081,33.89624],[-117.54905,33.89644],[-117.54572,33.89864],[-117.54196,33.89721],[-117.53993,33.89738],[-117.53845,33.89794],[-117.53889,33.901],[-117.53791,33.90245],[-117.53566,33.90377],[-117.53103,33.90482],[-117.52619,33.90794],[-117.52545,33.90662],[-117.52566,33.90434],[-117.52417,33.90438],[-117.52358,33.90211],[-117.51492,33.90233],[-117.51517,33.90923],[-117.51406,33.90923],[-117.51205,33.91491],[-117.5137,33.92059],[-117.51492,33.9212],[-117.51629,33.92815],[-117.51735,33.93],[-117.51518,33.93352],[-117.51513,33.93551],[-117.51249,33.93719],[-117.51169,33.94118],[-117.51283,33.94341],[-117.51424,33.94348],[-117.51419,33.94454],[-117.5165,33.94599],[-117.5238,33.9459],[-117.5233,33.95732],[-117.52199,33.95753],[-117.52201,33.95933],[-117.52324,33.95933],[-117.52322,33.9625],[-117.52543,33.9586],[-117.53196,33.95785],[-117.53194,33.95916],[-117.53356,33.95915],[-117.53412,33.95735],[-117.54217,33.95669],[-117.54384,33.95522],[-117.5441,33.95209],[-117.54922,33.94961],[-117.5538,33.94999],[-117.55101,33.95315],[-117.54956,33.95724],[-117.55383,33.95717],[-117.55833,33.95497],[-117.5583,33.94591],[-117.56329,33.9464],[-117.56525,33.9434],[-117.56805,33.94138],[-117.57872,33.93629],[-117.58619,33.92876],[-117.59132,33.92922],[-117.59609,33.92697],[-117.59764,33.92371],[-117.59392,33.91958],[-117.59607,33.91829],[-117.59796,33.91975],[-117.59878,33.91772],[-117.59939,33.91878],[-117.60034,33.91776],[-117.59888,33.9166],[-117.60441,33.91157],[-117.60711,33.91218]]]},"properties":{"GEOID":"0651560","NAME":"Norco city","BASENAME":"Norco","STATE":"06","PLACE":"51560"}},{"type":"Feature","geometry":{"type":"Polygon","coordinates":[[[-116.37355,33.6838],[-116.37286,33.6826],[-116.37295,33.67072],[-116.32147,33.67068],[-116.32107,33.69938],[-116.31242,33.69942],[-116.29885,33.70707],[-116.29914,33.71614],[-116.30039,33.71635],[-116.2989,33.71766],[-116.29492,33.71721],[-116.29518,33.71875],[-116.29656,33.72078],[-116.30275,33.72602],[-116.30389,33.72901],[-116.33009,33.72898],[-116.33005,33.74358],[-116.34754,33.7435],[-116.34753,33.72889],[-116.36068,33.72888],[-116.36074,33.71612],[-116.35636,33.71609],[-116.35636,33.71442],[-116.361,33.71426],[-116.36098,33.71299],[-116.36498,33.71316],[-116.36548,33.71221],[-116.3702,33.7127],[-116.37034,33.7119],[-116.37365,33.71165],[-116.37304,33.68752],[-116.37355,33.6838]]]},"properties":{"GEOID":"0636434","NAME":"Indian Wells city","BASENAME":"Indian Wells","STATE":"06","PLACE":"36434"}},{"type":"Feature","geometry":{"type":"Polygon","coordinates":[[[-117.12984,33.98994],[-117.12124,33.98976],[-117.12121,33.98622],[-117.11248,33.98633],[-117.11249,33.98994],[-117.08638,33.98991],[-117.08645,33.98274],[-117.09509,33.97564],[-117.09507,33.97453],[-117.09011,33.97506],[-117.08714,33.97454],[-117.07677,33.96869],[-117.07148,33.9643],[-117.06453,33.96538],[-117.0585,33.96508],[-117.03434,33.96103],[-117.03425,33.95416],[-117.01757,33.95375],[-117.01522,33.9551],[-117.03422,33.96832],[-117.02914,33.96852],[-117.02926,33.97589],[-117.02547,33.97587],[-117.02548,33.98295],[-116.99857,33.98309],[-116.99864,33.98997],[-116.98976,33.99024],[-116.98932,34.00075],[-116.99463,34.00051],[-116.99481,34.00452],[-116.99898,34.00399],[-117.03446,34.00488],[-117.08652,34.00382],[-117.1039,34.00438],[-117.12132,34.00348],[-117.12127,33.99687],[-117.1298,33.99697],[-117.12984,33.98994]]]},"properties":{"GEOID":"0609864","NAME":"Calimesa city","BASENAME":"Calimesa","STATE":"06","PLACE":"09864"}},{"type":"Feature","geometry":{"type":"Polygon","coordinates":[[[-117.31102,33.61485],[-117.31085,33.59773],[-117.3039,33.59769],[-117.30475,33.59675],[-117.30061,33.58711],[-117.29147,33.58514],[-117.26565,33.5838],[-117.26095,33.58594],[-117.26046,33.58681],[-117.2587,33.58571],[-117.25932,33.58502],[-117.25754,33.58395],[-117.25698,33.58463],[-117.25515,33.58349],[-117.25574,33.58282],[-117.24483,33.57632],[-117.20633,33.60297],[-117.20612,33.627],[-117.22344,33.62696],[-117.22339,33.65597],[-117.24032,33.65593],[-117.24039,33.64866],[-117.25346,33.64863],[-117.25345,33.65452],[-117.25439,33.65483],[-117.25386,33.65595],[-117.28782,33.65608],[-117.29638,33.65248],[-117.29122,33.64149],[-117.29062,33.63316],[-117.3066,33.61551],[-117.30867,33.61677],[-117.31102,33.61485]]]},"properties":{"GEOID":"0685446","NAME":"Wildomar city","BASENAME":"Wildomar","STATE":"06","PLACE":"85446"}},{"type":"Feature","geometry":{"type":"Polygon","coordinates":[[[-116.94701,33.94656],[-116.94628,33.90366],[-116.9292,33.90353],[-116.92926,33.91801],[-116.91161,33.91795],[-116.91158,33.91071],[-116.89419,33.91074],[-116.89412,33.90345],[-116.87628,33.90361],[-116.87668,33.91079],[-116.8506,33.91078],[-116.85064,33.90715],[-116.84185,33.9072],[-116.84183,33.92792],[-116.83129,33.93038],[-116.82463,33.93031],[-116.82447,33.93993],[-116.84205,33.93981],[-116.84189,33.93345],[-116.85787,33.93358],[-116.85787,33.93264],[-116.85948,33.93264],[-116.85964,33.94719],[-116.87693,33.94716],[-116.87701,33.9544],[-116.87964,33.95441],[-116.88995,33.96267],[-116.89007,33.96891],[-116.89448,33.96891],[-116.89446,33.98343],[-116.90315,33.98346],[-116.90313,33.99069],[-116.90088,33.99069],[-116.90095,33.99794],[-116.90312,33.99794],[-116.90312,34.0124],[-116.89877,34.01238],[-116.89877,34.01592],[-116.89442,34.01597],[-116.89442,34.0196],[-116.87701,34.01963],[-116.87713,34.03401],[-116.89456,34.03401],[-116.89445,34.02322],[-116.89885,34.02319],[-116.89883,34.01963],[-116.90295,34.01965],[-116.90312,34.01602],[-116.90748,34.01605],[-116.90748,34.01243],[-116.91182,34.01246],[-116.91182,34.0052],[-116.91069,34.0052],[-116.91118,34.00371],[-116.91008,33.99851],[-116.91039,33.9935],[-116.91183,33.993],[-116.91186,33.98823],[-116.9132,33.98822],[-116.91312,33.98731],[-116.91545,33.9872],[-116.9164,33.9884],[-116.91537,33.99045],[-116.91508,33.99465],[-116.91442,33.99511],[-116.91556,33.99799],[-116.91428,33.9997],[-116.91495,34.0028],[-116.91428,34.00439],[-116.91553,34.00438],[-116.91596,34.0052],[-116.92056,34.00521],[-116.92056,34.00145],[-116.92954,34.00147],[-116.92954,34.00491],[-116.93364,34.00491],[-116.93367,33.99788],[-116.93164,33.99792],[-116.9316,33.99067],[-116.93054,33.99069],[-116.93052,33.9799],[-116.92952,33.97994],[-116.92952,33.9762],[-116.92483,33.9762],[-116.92198,33.97917],[-116.91378,33.97991],[-116.9142,33.98166],[-116.91172,33.9826],[-116.90444,33.9748],[-116.90376,33.97213],[-116.90046,33.96939],[-116.90072,33.96822],[-116.90149,33.96876],[-116.90155,33.9681],[-116.8998,33.96455],[-116.89993,33.96308],[-116.89658,33.95964],[-116.89878,33.95896],[-116.9016,33.96261],[-116.90509,33.96297],[-116.90434,33.96016],[-116.90561,33.95983],[-116.90523,33.95878],[-116.90781,33.95863],[-116.90797,33.95556],[-116.91012,33.95561],[-116.90976,33.95502],[-116.91071,33.95338],[-116.9101,33.94413],[-116.91069,33.93983],[-116.92062,33.93982],[-116.92063,33.94711],[-116.92191,33.9471],[-116.92184,33.94809],[-116.92346,33.9483],[-116.92361,33.95207],[-116.925,33.95425],[-116.92504,33.95816],[-116.92942,33.95804],[-116.92943,33.96879],[-116.93816,33.96882],[-116.93809,33.96159],[-116.94243,33.96158],[-116.94244,33.95963],[-116.94678,33.9596],[-116.94701,33.94656]]]},"properties":{"GEOID":"0603820","NAME":"Banning city","BASENAME":"Banning","STATE":"06","PLACE":"03820"}},{"type":"Feature","geometry":{"type":"Polygon","coordinates":[[[-116.50327,33.88036],[-116.50369,33.87975],[-116.49357,33.87116],[-116.493,33.81946],[-116.48855,33.81947],[-116.48856,33.81588],[-116.47559,33.81591],[-116.47546,33.79591],[-116.47112,33.79592],[-116.47112,33.79382],[-116.46693,33.7895],[-116.46694,33.78869],[-116.46941,33.78868],[-116.4694,33.78687],[-116.47544,33.78684],[-116.47546,33.79043],[-116.47728,33.79056],[-116.4772,33.78684],[-116.47968,33.78684],[-116.47983,33.79427],[-116.48311,33.79439],[-116.48312,33.79246],[-116.48433,33.79248],[-116.48424,33.79061],[-116.4864,33.79059],[-116.48642,33.78682],[-116.48425,33.78683],[-116.48424,33.78502],[-116.48205,33.78502],[-116.48205,33.78412],[-116.47986,33.78415],[-116.47986,33.78141],[-116.4755,33.78141],[-116.47554,33.77243],[-116.47731,33.77243],[-116.48068,33.76544],[-116.48162,33.76069],[-116.47768,33.7594],[-116.47741,33.75781],[-116.47539,33.75996],[-116.47517,33.75804],[-116.47607,33.75609],[-116.47203,33.7607],[-116.47288,33.76158],[-116.47267,33.76334],[-116.4715,33.76286],[-116.47142,33.76369],[-116.4693,33.76475],[-116.46713,33.76447],[-116.46692,33.7656],[-116.4686,33.76551],[-116.46772,33.76623],[-116.46852,33.76665],[-116.46666,33.76663],[-116.46727,33.76762],[-116.46587,33.76951],[-116.46323,33.76747],[-116.46289,33.76881],[-116.46368,33.77006],[-116.46107,33.76993],[-116.46261,33.77077],[-116.46122,33.77298],[-116.45384,33.77257],[-116.45393,33.77636],[-116.44735,33.77628],[-116.44309,33.77351],[-116.44307,33.77972],[-116.44083,33.77972],[-116.44077,33.787],[-116.44943,33.78697],[-116.44934,33.80147],[-116.44062,33.8015],[-116.44087,33.8305],[-116.43869,33.8305],[-116.43882,33.83793],[-116.40718,33.81891],[-116.40578,33.81969],[-116.40523,33.8214],[-116.40637,33.82278],[-116.40583,33.83094],[-116.42344,33.83072],[-116.42349,33.83586],[-116.43597,33.84507],[-116.44104,33.84502],[-116.44078,33.88858],[-116.48808,33.88853],[-116.50162,33.89138],[-116.50169,33.88395],[-116.50327,33.88036]]]},"properties":{"GEOID":"0612048","NAME":"Cathedral City city","BASENAME":"Cathedral City","STATE":"06","PLACE":"12048"}},{"type":"Feature","geometry":{"type":"Polygon","coordinates":[[[-117.07148,33.9643],[-117.05209,33.9474],[-117.04276,33.94353],[-117.03417,33.94347],[-117.03409,33.92514],[-117.02305,33.92603],[-117.0232,33.93349],[-117.02112,33.93395],[-117.02105,33.92984],[-117.01662,33.93029],[-117.01673,33.93336],[-117.00815,33.93315],[-117.00785,33.92621],[-116.99876,33.92635],[-116.9989,33.91798],[-116.99452,33.91843],[-116.99452,33.92234],[-116.99021,33.92249],[-116.99018,33.9152],[-116.9859,33.91516],[-116.98592,33.91881],[-116.97281,33.9187],[-116.97274,33.91326],[-116.96834,33.91317],[-116.96822,33.90939],[-116.96404,33.90948],[-116.96405,33.90338],[-116.95797,33.90372],[-116.95771,33.8894],[-116.98126,33.88948],[-116.98152,33.88215],[-116.9859,33.88214],[-116.98619,33.8748],[-116.99237,33.87476],[-116.99502,33.87138],[-116.99938,33.86915],[-116.99937,33.86035],[-116.99839,33.86035],[-116.9984,33.8493],[-116.99074,33.84922],[-116.99074,33.84556],[-116.96354,33.84545],[-116.96344,33.83103],[-116.94598,33.83109],[-116.94579,33.84546],[-116.9407,33.84546],[-116.9407,33.8534],[-116.92896,33.85311],[-116.92896,33.85402],[-116.92444,33.85374],[-116.92455,33.8567],[-116.92028,33.85669],[-116.92033,33.86427],[-116.92468,33.86424],[-116.92469,33.879],[-116.91712,33.87888],[-116.91711,33.87977],[-116.91499,33.87974],[-116.91388,33.88152],[-116.91168,33.88149],[-116.91164,33.88607],[-116.92907,33.88595],[-116.92912,33.89269],[-116.94055,33.89277],[-116.94064,33.90381],[-116.94628,33.90366],[-116.94681,33.95788],[-116.95118,33.95794],[-116.95117,33.95883],[-116.95268,33.95884],[-116.95267,33.95976],[-116.95409,33.95974],[-116.95409,33.96158],[-116.96421,33.96156],[-116.96428,33.95426],[-116.9654,33.95428],[-116.96539,33.95537],[-116.96647,33.95536],[-116.96642,33.95789],[-116.96861,33.95807],[-116.96856,33.96151],[-116.97727,33.96146],[-116.9773,33.96874],[-116.98139,33.96874],[-116.9815,33.96507],[-116.98585,33.96508],[-116.98595,33.96146],[-116.99889,33.96148],[-116.99894,33.95962],[-117.00114,33.96074],[-117.00529,33.95865],[-117.00551,33.96054],[-117.00789,33.96053],[-117.00793,33.96146],[-117.01653,33.9614],[-117.0165,33.96317],[-117.01406,33.96319],[-117.014,33.96865],[-117.02507,33.96863],[-117.02511,33.9617],[-117.01889,33.95823],[-117.01522,33.9551],[-117.0177,33.95374],[-117.03425,33.95416],[-117.03434,33.96103],[-117.0585,33.96508],[-117.06453,33.96538],[-117.07148,33.9643]]]},"properties":{"GEOID":"0604758","NAME":"Beaumont city","BASENAME":"Beaumont","STATE":"06","PLACE":"04758"}},{"type":"Feature","geometry":{"type":"MultiPolygon","coordinates":[[[[-116.30127,33.81647],[-116.30114,33.79833],[-116.28558,33.79837],[-116.28545,33.79625],[-116.28325,33.79518],[-116.28334,33.77294],[-116.28631,33.77292],[-116.28643,33.75836],[-116.29191,33.75837],[-116.29517,33.75993],[-116.29617,33.75953],[-116.29507,33.75829],[-116.29508,33.75702],[-116.28619,33.75427],[-116.27032,33.74781],[-116.26638,33.74589],[-116.26502,33.7439],[-116.26843,33.74375],[-116.26813,33.73831],[-116.26659,33.73832],[-116.26875,33.73051],[-116.26881,33.72197],[-116.27752,33.72191],[-116.27748,33.71465],[-116.2644,33.7147],[-116.26601,33.71274],[-116.26601,33.712],[-116.2649,33.71238],[-116.26567,33.71024],[-116.26883,33.70898],[-116.26875,33.70727],[-116.27053,33.70728],[-116.27064,33.70371],[-116.27156,33.70275],[-116.26874,33.70271],[-116.26871,33.68537],[-116.25133,33.68536],[-116.2513,33.67102],[-116.21644,33.67101],[-116.21653,33.68551],[-116.21217,33.68549],[-116.21217,33.69309],[-116.21647,33.69319],[-116.21645,33.70035],[-116.19906,33.70039],[-116.19905,33.70396],[-116.19635,33.70398],[-116.1962,33.70273],[-116.19467,33.70274],[-116.19468,33.70036],[-116.19028,33.70036],[-116.19029,33.70584],[-116.19406,33.70585],[-116.19542,33.7076],[-116.19465,33.70768],[-116.19472,33.72223],[-116.18167,33.72225],[-116.18165,33.72955],[-116.17194,33.72933],[-116.16418,33.72647],[-116.16427,33.74766],[-116.17744,33.78048],[-116.19628,33.78045],[-116.19628,33.7732],[-116.18149,33.77322],[-116.18153,33.74548],[-116.18629,33.74707],[-116.19452,33.74606],[-116.19936,33.74972],[-116.19936,33.75117],[-116.20369,33.75121],[-116.20408,33.75472],[-116.20968,33.75653],[-116.21168,33.75846],[-116.22982,33.75847],[-116.2298,33.76176],[-116.23398,33.76142],[-116.23405,33.76072],[-116.23405,33.76134],[-116.24169,33.76504],[-116.24894,33.77046],[-116.25235,33.7746],[-116.2596,33.77744],[-116.26591,33.77777],[-116.26578,33.80203],[-116.28334,33.80197],[-116.28344,33.81289],[-116.29217,33.81283],[-116.29218,33.81654],[-116.30127,33.81647]],[[-116.19905,33.70585],[-116.19902,33.70846],[-116.19675,33.70585],[-116.19905,33.70585]]],[[[-116.18595,33.7005],[-116.18155,33.7004],[-116.18151,33.70404],[-116.18594,33.70404],[-116.18595,33.7005]]],[[[-116.19028,33.70036],[-116.18912,33.70021],[-116.18614,33.70037],[-116.19028,33.70036]]]]},"properties":{"GEOID":"0636448","NAME":"Indio city","BASENAME":"Indio","STATE":"06","PLACE":"36448"}},{"type":"Feature","geometry":{"type":"Polygon","coordinates":[[[-117.26266,33.86984],[-117.2532,33.84835],[-117.25008,33.84406],[-117.24946,33.83958],[-117.2333,33.80106],[-117.2482,33.80106],[-117.24826,33.80461],[-117.25256,33.80461],[-117.25259,33.80823],[-117.26134,33.80819],[-117.26126,33.79373],[-117.25744,33.79373],[-117.25742,33.79013],[-117.25908,33.79012],[-117.25907,33.78652],[-117.26121,33.7865],[-117.2612,33.78289],[-117.25904,33.78288],[-117.25894,33.77239],[-117.25195,33.77562],[-117.24849,33.77928],[-117.24372,33.77923],[-117.24372,33.77201],[-117.24959,33.77206],[-117.2496,33.74662],[-117.25182,33.74662],[-117.25176,33.74296],[-117.26254,33.74291],[-117.26241,33.73562],[-117.25815,33.73568],[-117.25814,33.71387],[-117.24064,33.71415],[-117.24065,33.72142],[-117.23546,33.72327],[-117.23374,33.7223],[-117.23414,33.72054],[-117.23057,33.72058],[-117.23055,33.7179],[-117.23154,33.7179],[-117.23157,33.71596],[-117.23624,33.71547],[-117.23689,33.71415],[-117.2233,33.71407],[-117.22338,33.72448],[-117.2244,33.72448],[-117.22343,33.72716],[-117.22352,33.74303],[-117.1933,33.74299],[-117.19317,33.73581],[-117.18474,33.73566],[-117.18483,33.74297],[-117.18044,33.74296],[-117.18046,33.74659],[-117.18475,33.74591],[-117.18477,33.75033],[-117.18919,33.75034],[-117.18917,33.75444],[-117.18714,33.75331],[-117.18717,33.75495],[-117.18474,33.75492],[-117.18469,33.75767],[-117.1804,33.75764],[-117.17998,33.77215],[-117.19117,33.77213],[-117.19118,33.81573],[-117.20566,33.8157],[-117.20572,33.82062],[-117.20659,33.82291],[-117.19995,33.82296],[-117.19995,33.83024],[-117.19559,33.83025],[-117.19561,33.82661],[-117.17962,33.82662],[-117.17963,33.83029],[-117.179,33.83028],[-117.19223,33.84311],[-117.1965,33.84456],[-117.20437,33.84463],[-117.2044,33.85909],[-117.24822,33.85903],[-117.24825,33.86057],[-117.25157,33.86531],[-117.25252,33.8653],[-117.25258,33.86665],[-117.25486,33.8699],[-117.26266,33.86984]]]},"properties":{"GEOID":"0656700","NAME":"Perris city","BASENAME":"Perris","STATE":"06","PLACE":"56700"}},{"type":"Feature","geometry":{"type":"Polygon","coordinates":[[[-116.32148,33.63738],[-116.32146,33.61265],[-116.2681,33.61265],[-116.26795,33.59812],[-116.28502,33.59814],[-116.28494,33.58376],[-116.25032,33.58368],[-116.25031,33.59819],[-116.23336,33.59824],[-116.23338,33.60555],[-116.22902,33.60558],[-116.22905,33.6165],[-116.22472,33.6165],[-116.22469,33.62023],[-116.23337,33.6192],[-116.23389,33.67104],[-116.2513,33.67102],[-116.25133,33.68536],[-116.26871,33.68537],[-116.26874,33.70271],[-116.27156,33.70275],[-116.27064,33.70371],[-116.27053,33.70728],[-116.26875,33.70727],[-116.26883,33.70898],[-116.26567,33.71024],[-116.2649,33.71238],[-116.26601,33.712],[-116.26601,33.71274],[-116.2644,33.7147],[-116.27748,33.71465],[-116.27752,33.72191],[-116.26881,33.72197],[-116.26875,33.73051],[-116.26659,33.73832],[-116.26738,33.7365],[-116.27526,33.73647],[-116.2754,33.72914],[-116.28628,33.72912],[-116.28628,33.73281],[-116.29842,33.73271],[-116.29837,33.73632],[-116.29949,33.73633],[-116.29949,33.73703],[-116.30229,33.73702],[-116.3023,33.73814],[-116.30386,33.73812],[-116.30352,33.72729],[-116.29614,33.72034],[-116.29492,33.71721],[-116.2989,33.71766],[-116.30039,33.71635],[-116.29914,33.71614],[-116.29885,33.70707],[-116.31242,33.69942],[-116.32107,33.69938],[-116.32148,33.63738]]]},"properties":{"GEOID":"0640354","NAME":"La Quinta city","BASENAME":"La Quinta","STATE":"06","PLACE":"40354"}},{"type":"Feature","geometry":{"type":"Polygon","coordinates":[[[-117.28005,33.56624],[-117.2781,33.56609],[-117.27445,33.5692],[-117.26579,33.5638],[-117.26511,33.55958],[-117.26385,33.56191],[-117.26522,33.56668],[-117.26288,33.56667],[-117.25985,33.56821],[-117.25621,33.56808],[-117.25486,33.5545],[-117.25406,33.55451],[-117.25251,33.56098],[-117.24683,33.5616],[-117.24554,33.56026],[-117.24566,33.55849],[-117.24724,33.55612],[-117.24602,33.55263],[-117.24327,33.55101],[-117.24324,33.54786],[-117.24154,33.54428],[-117.24225,33.54317],[-117.24079,33.54032],[-117.2334,33.54632],[-117.2253,33.54017],[-117.22601,33.53963],[-117.22286,33.53725],[-117.22214,33.53779],[-117.20967,33.52833],[-117.2102,33.52783],[-117.20779,33.52591],[-117.20671,33.52609],[-117.19002,33.51343],[-117.16824,33.53006],[-117.17257,33.53651],[-117.16266,33.54405],[-117.15972,33.54143],[-117.15336,33.54633],[-117.15049,33.5437],[-117.14194,33.55019],[-117.14128,33.54954],[-117.13975,33.55779],[-117.13259,33.58271],[-117.12625,33.59079],[-117.11846,33.59804],[-117.12064,33.59929],[-117.12185,33.59798],[-117.15417,33.59788],[-117.15407,33.62694],[-117.14979,33.62694],[-117.14976,33.63412],[-117.16566,33.63424],[-117.16645,33.64152],[-117.17106,33.64153],[-117.17108,33.62704],[-117.18853,33.62701],[-117.18849,33.62199],[-117.19129,33.62197],[-117.1913,33.62335],[-117.20178,33.62321],[-117.20175,33.62701],[-117.20612,33.627],[-117.20633,33.60297],[-117.24483,33.57632],[-117.25574,33.58282],[-117.25515,33.58349],[-117.25698,33.58463],[-117.25754,33.58395],[-117.25932,33.58502],[-117.2587,33.58571],[-117.26046,33.58681],[-117.26095,33.58594],[-117.26565,33.5838],[-117.26425,33.58372],[-117.27745,33.57577],[-117.28005,33.56624]]]},"properties":{"GEOID":"0650076","NAME":"Murrieta city","BASENAME":"Murrieta","STATE":"06","PLACE":"50076"}},{"type":"Feature","geometry":{"type":"Polygon","coordinates":[[[-116.63269,33.99065],[-116.63261,33.94735],[-116.59772,33.94645],[-116.59772,33.96102],[-116.54502,33.96146],[-116.54513,33.95413],[-116.53642,33.9541],[-116.53633,33.96149],[-116.52768,33.9615],[-116.52742,33.94674],[-116.53168,33.94678],[-116.52743,33.94057],[-116.52762,33.92492],[-116.53656,33.9249],[-116.53654,33.9177],[-116.54531,33.9176],[-116.54539,33.90319],[-116.54009,33.90303],[-116.53186,33.90032],[-116.52792,33.89818],[-116.52222,33.89451],[-116.50445,33.87864],[-116.50166,33.88431],[-116.50176,33.91776],[-116.49303,33.91768],[-116.4932,33.925],[-116.50177,33.925],[-116.50175,33.93223],[-116.49747,33.93222],[-116.49707,33.93948],[-116.47537,33.93953],[-116.47507,33.94686],[-116.45753,33.9468],[-116.4575,33.96139],[-116.47503,33.96142],[-116.4754,33.97532],[-116.49265,33.97602],[-116.49269,33.98325],[-116.50357,33.98327],[-116.50356,33.98032],[-116.50698,33.98189],[-116.50698,33.98327],[-116.51887,33.98327],[-116.51895,33.99046],[-116.52773,33.99054],[-116.52768,33.98726],[-116.52917,33.98624],[-116.52767,33.98619],[-116.52751,33.97608],[-116.54121,33.97613],[-116.54293,33.97802],[-116.54166,33.97882],[-116.53986,33.97753],[-116.5429,33.98073],[-116.54304,33.98313],[-116.5389,33.98578],[-116.53796,33.98725],[-116.53631,33.98714],[-116.53632,33.98847],[-116.53786,33.99056],[-116.58155,33.99092],[-116.58106,33.99257],[-116.58243,33.99268],[-116.58246,33.99448],[-116.58683,33.99425],[-116.58682,33.99244],[-116.58892,33.99233],[-116.58899,33.99052],[-116.61396,33.99001],[-116.61537,33.99002],[-116.61537,33.99069],[-116.63269,33.99065]],[[-116.51455,33.97589],[-116.51234,33.97608],[-116.51233,33.97422],[-116.51115,33.97418],[-116.51116,33.97239],[-116.51019,33.97237],[-116.51016,33.96874],[-116.51451,33.96874],[-116.51455,33.97589]]]},"properties":{"GEOID":"0618996","NAME":"Desert Hot Springs city","BASENAME":"Desert Hot Springs","STATE":"06","PLACE":"18996"}},{"type":"Feature","geometry":{"type":"MultiPolygon","coordinates":[[[[-116.21648,33.69456],[-116.21647,33.69319],[-116.21217,33.69309],[-116.21217,33.68549],[-116.21325,33.6855],[-116.21321,33.68359],[-116.21127,33.6836],[-116.21211,33.68177],[-116.20349,33.68181],[-116.20336,33.67274],[-116.20774,33.67274],[-116.20776,33.66916],[-116.20554,33.66915],[-116.20554,33.66728],[-116.20342,33.66727],[-116.20343,33.66555],[-116.19907,33.66554],[-116.19928,33.65655],[-116.16422,33.65673],[-116.16414,33.65304],[-116.15981,33.65304],[-116.1598,33.65671],[-116.15366,33.65669],[-116.14689,33.64885],[-116.14218,33.64885],[-116.14094,33.64535],[-116.13802,33.64208],[-116.12714,33.64211],[-116.12714,33.64572],[-116.12487,33.64571],[-116.12488,33.6494],[-116.11177,33.64939],[-116.11183,33.65297],[-116.11628,33.65298],[-116.11636,33.65669],[-116.12931,33.65667],[-116.12933,33.66026],[-116.13368,33.66032],[-116.13367,33.66391],[-116.13805,33.66393],[-116.13804,33.66765],[-116.14671,33.66776],[-116.14672,33.67132],[-116.07804,33.67144],[-116.0783,33.68572],[-116.09455,33.68566],[-116.09447,33.6982],[-116.07827,33.69953],[-116.07825,33.72929],[-116.1293,33.72945],[-116.12931,33.71488],[-116.14851,33.71488],[-116.15467,33.71494],[-116.15734,33.7183],[-116.1582,33.72128],[-116.16418,33.72647],[-116.17194,33.72933],[-116.18165,33.72955],[-116.18155,33.7004],[-116.21645,33.70035],[-116.21648,33.69456]]],[[[-116.20324,33.64936],[-116.20295,33.64209],[-116.19863,33.64206],[-116.19897,33.64932],[-116.20324,33.64936]]]]},"properties":{"GEOID":"0614260","NAME":"Coachella city","BASENAME":"Coachella","STATE":"06","PLACE":"14260"}},{"type":"Feature","geometry":{"type":"MultiPolygon","coordinates":[[[[-117.06982,33.74597],[-117.06907,33.74377],[-117.06317,33.7438],[-117.06317,33.7427],[-117.05983,33.74384],[-117.03885,33.74388],[-117.04303,33.73282],[-117.04796,33.73279],[-117.04797,33.72915],[-117.05013,33.72917],[-117.0501,33.71421],[-117.04854,33.71296],[-117.0501,33.71215],[-117.04995,33.69861],[-117.04279,33.69879],[-117.03985,33.69959],[-117.03138,33.70648],[-117.02783,33.70789],[-117.02095,33.70835],[-117.02147,33.70748],[-117.01949,33.7075],[-117.01938,33.70376],[-117.01498,33.70376],[-117.01495,33.7028],[-117.01366,33.70416],[-117.01108,33.70066],[-117.00955,33.70376],[-117.00887,33.70384],[-117.00853,33.70268],[-117.00705,33.70393],[-117.00502,33.70266],[-117.00375,33.70601],[-117.0029,33.70628],[-117.00161,33.70557],[-117.00235,33.7044],[-117.00118,33.70392],[-117.00174,33.7028],[-117.00083,33.70232],[-117.00196,33.69836],[-117.00094,33.69811],[-116.99959,33.70118],[-116.99789,33.70046],[-116.99781,33.7013],[-116.99364,33.69456],[-116.99087,33.68848],[-116.99069,33.68568],[-116.98865,33.68569],[-116.98856,33.67115],[-116.98452,33.67117],[-116.98426,33.67848],[-116.97469,33.68169],[-116.97642,33.68302],[-116.97667,33.6857],[-116.96249,33.68581],[-116.95387,33.69273],[-116.95406,33.70307],[-116.96286,33.70299],[-116.96291,33.7095],[-116.95963,33.70951],[-116.95966,33.71307],[-116.96298,33.71305],[-116.96297,33.71483],[-116.96716,33.71481],[-116.9672,33.7228],[-116.9636,33.7238],[-116.96067,33.72356],[-116.96068,33.72765],[-116.96285,33.72763],[-116.96284,33.72947],[-116.96069,33.72946],[-116.96072,33.73125],[-116.95855,33.7313],[-116.95855,33.7349],[-116.95583,33.73491],[-116.95587,33.73674],[-116.95855,33.73673],[-116.95861,33.74308],[-116.95752,33.74307],[-116.95758,33.74628],[-116.95211,33.74582],[-116.95211,33.74509],[-116.94937,33.745],[-116.94822,33.74405],[-116.94776,33.74495],[-116.94559,33.74495],[-116.94563,33.74767],[-116.90889,33.7478],[-116.9089,33.75142],[-116.91013,33.75142],[-116.91015,33.75506],[-116.91493,33.75503],[-116.91509,33.76045],[-116.91071,33.76048],[-116.91273,33.76211],[-116.91506,33.76229],[-116.91506,33.76495],[-116.9162,33.7653],[-116.92823,33.76538],[-116.92827,33.76135],[-116.93081,33.76131],[-116.93119,33.76067],[-116.93334,33.76228],[-116.93331,33.76001],[-116.92793,33.75633],[-116.93264,33.75459],[-116.93339,33.75346],[-116.93809,33.75519],[-116.93899,33.75369],[-116.93971,33.75427],[-116.94049,33.75364],[-116.93981,33.75246],[-116.94057,33.7513],[-116.94992,33.75813],[-116.95159,33.76133],[-116.95087,33.76399],[-116.95562,33.76291],[-116.95559,33.76121],[-116.95749,33.7612],[-116.95768,33.75868],[-116.96308,33.75873],[-116.96314,33.76938],[-116.96895,33.7693],[-116.96878,33.76833],[-116.97184,33.76814],[-116.97186,33.77295],[-117.03335,33.77294],[-117.03338,33.76822],[-117.03624,33.75842],[-117.03615,33.75111],[-117.05017,33.75107],[-117.05052,33.75827],[-117.0677,33.75833],[-117.06754,33.74601],[-117.06982,33.74597]]],[[[-117.04217,33.77656],[-117.04215,33.77435],[-117.03342,33.77431],[-117.0335,33.78037],[-117.03784,33.78039],[-117.03782,33.77657],[-117.04217,33.77656]]]]},"properties":{"GEOID":"0633182","NAME":"Hemet city","BASENAME":"Hemet","STATE":"06","PLACE":"33182"}},{"type":"Feature","geometry":{"type":"Polygon","coordinates":[[[-116.47792,33.75749],[-116.4778,33.74269],[-116.46066,33.74273],[-116.46005,33.71408],[-116.40813,33.71419],[-116.40815,33.73311],[-116.40637,33.73352],[-116.40539,33.7322],[-116.3956,33.73251],[-116.39555,33.73425],[-116.39122,33.73452],[-116.39079,33.77257],[-116.38819,33.77257],[-116.38817,33.80189],[-116.39685,33.80182],[-116.39672,33.81],[-116.42338,33.82563],[-116.42331,33.81622],[-116.41051,33.81633],[-116.41005,33.81343],[-116.40683,33.80875],[-116.40594,33.80575],[-116.40596,33.80175],[-116.41028,33.80173],[-116.41045,33.80754],[-116.41534,33.8119],[-116.41714,33.81258],[-116.42334,33.81259],[-116.42331,33.81622],[-116.43193,33.81611],[-116.43209,33.82332],[-116.4364,33.82328],[-116.43645,33.82694],[-116.44082,33.82686],[-116.44062,33.8015],[-116.44934,33.80147],[-116.44943,33.78697],[-116.44077,33.787],[-116.44083,33.77972],[-116.44307,33.77972],[-116.44309,33.77351],[-116.44735,33.77628],[-116.45393,33.77636],[-116.45384,33.77257],[-116.46122,33.77298],[-116.46261,33.77077],[-116.46107,33.76993],[-116.46368,33.77006],[-116.46289,33.76881],[-116.46323,33.76747],[-116.46587,33.76951],[-116.46727,33.76762],[-116.46666,33.76663],[-116.46852,33.76665],[-116.46772,33.76623],[-116.4686,33.76551],[-116.46692,33.7656],[-116.46713,33.76447],[-116.4693,33.76475],[-116.47142,33.76369],[-116.4715,33.76286],[-116.47267,33.76334],[-116.47288,33.76158],[-116.47203,33.7607],[-116.4757,33.75624],[-116.47632,33.75609],[-116.47517,33.75804],[-116.47539,33.75996],[-116.47792,33.75749]]]},"properties":{"GEOID":"0659500","NAME":"Rancho Mirage city","BASENAME":"Rancho Mirage","STATE":"06","PLACE":"59500"}},{"type":"Feature","geometry":{"type":"Polygon","coordinates":[[[-117.06046,33.81632],[-117.05102,33.79883],[-117.05092,33.78975],[-117.04432,33.78982],[-117.04433,33.79038],[-117.04221,33.79076],[-117.03998,33.79019],[-117.03795,33.78743],[-117.03784,33.78039],[-117.0335,33.78037],[-117.03341,33.77294],[-116.97186,33.77295],[-116.97184,33.76814],[-116.96878,33.76833],[-116.96895,33.7693],[-116.96314,33.76938],[-116.96308,33.75873],[-116.95768,33.75868],[-116.95749,33.7612],[-116.95559,33.76121],[-116.95562,33.76291],[-116.95087,33.76399],[-116.95159,33.76133],[-116.94992,33.75813],[-116.94057,33.7513],[-116.93981,33.75246],[-116.94049,33.75364],[-116.93971,33.75427],[-116.93899,33.75369],[-116.93809,33.75519],[-116.93339,33.75346],[-116.93264,33.75459],[-116.92793,33.75633],[-116.93321,33.7599],[-116.93334,33.76228],[-116.93081,33.76068],[-116.93081,33.76131],[-116.92827,33.76135],[-116.92823,33.76538],[-116.9173,33.76578],[-116.92636,33.77313],[-116.93262,33.78039],[-116.92843,33.78038],[-116.92239,33.78602],[-116.92724,33.79111],[-116.92236,33.79397],[-116.92239,33.79845],[-116.91942,33.79845],[-116.91945,33.80211],[-116.9247,33.80211],[-116.92427,33.79916],[-116.92953,33.7981],[-116.93245,33.8009],[-116.93686,33.80246],[-116.93897,33.80072],[-116.93847,33.79923],[-116.94441,33.80411],[-116.94908,33.80013],[-116.95012,33.80048],[-116.95024,33.79483],[-116.95458,33.7948],[-116.95455,33.79025],[-116.95314,33.79027],[-116.95313,33.78935],[-116.9589,33.78955],[-116.95897,33.80143],[-116.95682,33.80112],[-116.95683,33.80199],[-116.95463,33.80203],[-116.95941,33.80596],[-116.95683,33.8081],[-116.95831,33.80931],[-116.95472,33.81234],[-116.9547,33.8142],[-116.95124,33.81322],[-116.94599,33.81325],[-116.94599,33.81663],[-116.95472,33.81659],[-116.95472,33.82384],[-116.96657,33.82379],[-116.96654,33.82239],[-116.96605,33.82272],[-116.96695,33.82045],[-116.96024,33.81665],[-116.96138,33.81656],[-116.96136,33.81211],[-116.97207,33.81207],[-116.97219,33.8161],[-116.97398,33.82049],[-116.97376,33.82165],[-116.97838,33.82375],[-116.9814,33.82373],[-116.98377,33.82588],[-117.01018,33.83686],[-117.02239,33.83224],[-117.02235,33.82353],[-117.03378,33.82349],[-117.03729,33.82452],[-117.05838,33.83776],[-117.0599,33.83633],[-117.05976,33.81633],[-117.06046,33.81632]]]},"properties":{"GEOID":"0667112","NAME":"San Jacinto city","BASENAME":"San Jacinto","STATE":"06","PLACE":"67112"}},{"type":"Feature","geometry":{"type":"MultiPolygon","coordinates":[[[[-114.69233,33.61727],[-114.69232,33.61396],[-114.69179,33.61397],[-114.69231,33.60987],[-114.69048,33.60989],[-114.69051,33.60682],[-114.69229,33.60641],[-114.66003,33.60626],[-114.65804,33.6057],[-114.65772,33.60326],[-114.65714,33.60572],[-114.65521,33.60627],[-114.60756,33.60664],[-114.6075,33.59928],[-114.60527,33.59931],[-114.60531,33.60056],[-114.60326,33.6006],[-114.60325,33.60117],[-114.60075,33.60121],[-114.58794,33.60142],[-114.5879,33.59958],[-114.57922,33.59975],[-114.57915,33.59612],[-114.57483,33.59619],[-114.57463,33.58892],[-114.54423,33.58936],[-114.54504,33.58815],[-114.54537,33.58415],[-114.54398,33.57861],[-114.54471,33.57647],[-114.54687,33.57569],[-114.54689,33.57409],[-114.54491,33.57323],[-114.54432,33.56878],[-114.53578,33.56893],[-114.5378,33.57556],[-114.53898,33.57679],[-114.5403,33.58062],[-114.54062,33.59141],[-114.52919,33.60665],[-114.52678,33.60883],[-114.52207,33.61128],[-114.52237,33.61417],[-114.52738,33.61783],[-114.52908,33.62171],[-114.53121,33.62391],[-114.53103,33.62821],[-114.52637,33.63026],[-114.5238,33.6347],[-114.52486,33.63868],[-114.54714,33.63872],[-114.54388,33.64168],[-114.53683,33.64149],[-114.53448,33.64221],[-114.53447,33.64144],[-114.52855,33.64309],[-114.53321,33.64844],[-114.53319,33.65166],[-114.53216,33.65319],[-114.53058,33.65446],[-114.52516,33.65594],[-114.51834,33.65593],[-114.51456,33.65801],[-114.51406,33.66018],[-114.51534,33.66203],[-114.51711,33.66288],[-114.51974,33.66224],[-114.5544,33.66207],[-114.55432,33.65776],[-114.55646,33.65584],[-114.56127,33.64813],[-114.56124,33.64715],[-114.55415,33.64741],[-114.55383,33.63291],[-114.59956,33.63214],[-114.59763,33.63783],[-114.59776,33.64673],[-114.61504,33.64644],[-114.61525,33.65367],[-114.61969,33.65367],[-114.61987,33.66091],[-114.61546,33.66098],[-114.61587,33.68638],[-114.63422,33.68677],[-114.64216,33.68932],[-114.64201,33.68232],[-114.64423,33.68229],[-114.64408,33.67512],[-114.65059,33.67514],[-114.65046,33.66783],[-114.65912,33.66783],[-114.65898,33.66071],[-114.62861,33.66081],[-114.62815,33.63901],[-114.62665,33.63901],[-114.6265,33.63177],[-114.61044,33.63197],[-114.61016,33.61923],[-114.60745,33.61928],[-114.60741,33.61746],[-114.61453,33.61733],[-114.61427,33.61011],[-114.623,33.60997],[-114.62745,33.60998],[-114.62753,33.61354],[-114.63618,33.61356],[-114.63622,33.61542],[-114.63844,33.61543],[-114.63846,33.61631],[-114.64012,33.61631],[-114.64014,33.61722],[-114.65361,33.61723],[-114.65374,33.6209],[-114.6581,33.62093],[-114.65785,33.61361],[-114.67073,33.61362],[-114.67088,33.6173],[-114.69233,33.61727]]],[[[-114.93812,33.56912],[-114.93806,33.56554],[-114.93379,33.56553],[-114.93382,33.55465],[-114.91644,33.55468],[-114.91632,33.54742],[-114.91198,33.54741],[-114.9121,33.55466],[-114.89036,33.55471],[-114.8903,33.56921],[-114.93812,33.56912]]]]},"properties":{"GEOID":"0607218","NAME":"Blythe city","BASENAME":"Blythe","STATE":"06","PLACE":"07218"}},{"type":"Feature","geometry":{"type":"Polygon","coordinates":[[[-116.4255,33.71414],[-116.42544,33.69956],[-116.40802,33.69957],[-116.40802,33.69685],[-116.40802,33.69141],[-116.41031,33.6914],[-116.4103,33.69051],[-116.40801,33.69051],[-116.40807,33.68502],[-116.42543,33.68504],[-116.42539,33.67068],[-116.40806,33.67068],[-116.40815,33.6753],[-116.40785,33.67605],[-116.406,33.6761],[-116.40603,33.6779],[-116.39099,33.6779],[-116.391,33.67567],[-116.38954,33.6745],[-116.3885,33.67507],[-116.38902,33.67923],[-116.38781,33.68027],[-116.388,33.68243],[-116.38881,33.68371],[-116.39099,33.68421],[-116.39099,33.68495],[-116.38195,33.68489],[-116.37708,33.67794],[-116.37574,33.67071],[-116.37295,33.67072],[-116.37291,33.68355],[-116.3737,33.68348],[-116.37304,33.68512],[-116.37365,33.71165],[-116.37034,33.7119],[-116.3702,33.7127],[-116.36548,33.71221],[-116.36498,33.71316],[-116.36098,33.71299],[-116.361,33.71426],[-116.35636,33.71442],[-116.35636,33.71609],[-116.36074,33.71612],[-116.36068,33.72888],[-116.34753,33.72889],[-116.34754,33.7435],[-116.33261,33.74357],[-116.33005,33.74358],[-116.33009,33.72898],[-116.30389,33.72901],[-116.30379,33.75456],[-116.30196,33.7592],[-116.31839,33.76419],[-116.32344,33.76652],[-116.39672,33.81],[-116.39685,33.80182],[-116.38817,33.80189],[-116.38819,33.77257],[-116.39079,33.77257],[-116.39122,33.73452],[-116.39555,33.73425],[-116.3956,33.73251],[-116.40539,33.7322],[-116.40637,33.73352],[-116.40815,33.73311],[-116.40813,33.71419],[-116.4255,33.71414]]]},"properties":{"GEOID":"0655184","NAME":"Palm Desert city","BASENAME":"Palm Desert","STATE":"06","PLACE":"55184"}},{"type":"Feature","geometry":{"type":"Polygon","coordinates":[[[-116.6847,33.86269],[-116.68472,33.85905],[-116.66729,33.85909],[-116.66686,33.87377],[-116.6326,33.87378],[-116.63266,33.85916],[-116.61467,33.8592],[-116.61457,33.83017],[-116.57164,33.83038],[-116.57166,33.82316],[-116.56307,33.82312],[-116.56306,33.77228],[-116.52994,33.77232],[-116.52993,33.76144],[-116.52161,33.76152],[-116.52163,33.7723],[-116.51295,33.77228],[-116.51288,33.71399],[-116.53025,33.714],[-116.53019,33.68497],[-116.51217,33.68494],[-116.51212,33.65585],[-116.49498,33.65602],[-116.49484,33.62691],[-116.47753,33.62698],[-116.47754,33.61242],[-116.46016,33.61247],[-116.46015,33.64159],[-116.44281,33.6416],[-116.44284,33.65612],[-116.46018,33.65604],[-116.46066,33.74273],[-116.4778,33.74269],[-116.47768,33.7594],[-116.48132,33.76059],[-116.48437,33.75887],[-116.48151,33.76245],[-116.47731,33.77243],[-116.47554,33.77243],[-116.4755,33.78141],[-116.47986,33.78141],[-116.47986,33.78415],[-116.48205,33.78412],[-116.48205,33.78502],[-116.48424,33.78502],[-116.48425,33.78683],[-116.48642,33.78682],[-116.4864,33.79059],[-116.48424,33.79061],[-116.48433,33.79248],[-116.48312,33.79246],[-116.48311,33.79439],[-116.47983,33.79427],[-116.47968,33.78684],[-116.4772,33.78684],[-116.47728,33.79056],[-116.47546,33.79043],[-116.47544,33.78684],[-116.4694,33.78687],[-116.46941,33.78868],[-116.46694,33.78869],[-116.46693,33.7895],[-116.47112,33.79382],[-116.47112,33.79592],[-116.47546,33.79591],[-116.47559,33.81591],[-116.48856,33.81588],[-116.48855,33.81947],[-116.493,33.81946],[-116.49357,33.87116],[-116.50369,33.87975],[-116.50445,33.87864],[-116.52222,33.89451],[-116.52792,33.89818],[-116.53186,33.90032],[-116.54009,33.90303],[-116.54539,33.90319],[-116.54531,33.9176],[-116.55406,33.91758],[-116.55401,33.92485],[-116.57058,33.92483],[-116.57056,33.93192],[-116.58023,33.93207],[-116.5803,33.92484],[-116.5835,33.92464],[-116.58347,33.92117],[-116.58026,33.9212],[-116.58014,33.90107],[-116.60372,33.90038],[-116.61491,33.90238],[-116.61508,33.89463],[-116.59142,33.8807],[-116.58279,33.87453],[-116.61526,33.87471],[-116.6152,33.88817],[-116.63254,33.88816],[-116.63255,33.92187],[-116.64059,33.92379],[-116.6559,33.92205],[-116.67817,33.92268],[-116.67206,33.9163],[-116.66753,33.91421],[-116.6673,33.88814],[-116.68469,33.88807],[-116.6847,33.86269]]]},"properties":{"GEOID":"0655254","NAME":"Palm Springs city","BASENAME":"Palm Springs","STATE":"06","PLACE":"55254"}},{"type":"Feature","geometry":{"type":"Polygon","coordinates":[[[-117.52386,33.94862],[-117.5238,33.9459],[-117.5165,33.94599],[-117.51419,33.94454],[-117.51424,33.94348],[-117.51283,33.94341],[-117.51169,33.94118],[-117.51249,33.93719],[-117.51513,33.93551],[-117.51518,33.93352],[-117.51735,33.93],[-117.51629,33.92815],[-117.51492,33.9212],[-117.5137,33.92059],[-117.51205,33.91491],[-117.51406,33.90923],[-117.51083,33.90929],[-117.51058,33.90166],[-117.50786,33.90225],[-117.5013,33.89425],[-117.50323,33.89332],[-117.50045,33.88982],[-117.50171,33.8891],[-117.50069,33.88782],[-117.50131,33.88748],[-117.49759,33.88299],[-117.49509,33.88446],[-117.49395,33.88682],[-117.49253,33.88699],[-117.49175,33.88604],[-117.48701,33.88791],[-117.48121,33.8868],[-117.47932,33.88518],[-117.47732,33.88466],[-117.47747,33.88226],[-117.47598,33.88171],[-117.4739,33.88311],[-117.47191,33.88236],[-117.47106,33.88447],[-117.47275,33.88596],[-117.47109,33.88748],[-117.46502,33.88978],[-117.46079,33.88469],[-117.4541,33.88855],[-117.45411,33.88736],[-117.43566,33.88694],[-117.38358,33.88712],[-117.38356,33.90165],[-117.33124,33.90191],[-117.33131,33.88834],[-117.33807,33.88908],[-117.33856,33.8881],[-117.34008,33.88809],[-117.34008,33.88718],[-117.34668,33.88678],[-117.35306,33.88343],[-117.35306,33.88287],[-117.35166,33.88288],[-117.35166,33.88353],[-117.34875,33.88359],[-117.3487,33.88056],[-117.34876,33.87992],[-117.35307,33.87993],[-117.35311,33.87261],[-117.31374,33.87301],[-117.31374,33.88816],[-117.30985,33.88755],[-117.29206,33.88765],[-117.29203,33.90408],[-117.29624,33.90405],[-117.29625,33.90224],[-117.30282,33.90217],[-117.30281,33.90033],[-117.30502,33.9003],[-117.30504,33.89848],[-117.31394,33.89841],[-117.31384,33.90203],[-117.31931,33.90198],[-117.31937,33.90925],[-117.31653,33.90929],[-117.31654,33.91159],[-117.31377,33.91163],[-117.31378,33.91586],[-117.3072,33.9159],[-117.3072,33.91309],[-117.30569,33.9131],[-117.30497,33.91661],[-117.28318,33.91688],[-117.28792,33.92775],[-117.28867,33.92775],[-117.2889,33.93138],[-117.28321,33.9318],[-117.28323,33.93323],[-117.28126,33.93324],[-117.28104,33.93142],[-117.27897,33.93144],[-117.27902,33.94284],[-117.29645,33.94619],[-117.29646,33.94493],[-117.30048,33.94709],[-117.30259,33.9474],[-117.3043,33.95215],[-117.30887,33.95183],[-117.31011,33.95282],[-117.31148,33.95272],[-117.31157,33.95375],[-117.31377,33.95392],[-117.31455,33.95733],[-117.31005,33.95826],[-117.31371,33.96089],[-117.31077,33.96098],[-117.31173,33.96293],[-117.31101,33.96527],[-117.31138,33.96723],[-117.30897,33.97217],[-117.30945,33.98349],[-117.30802,33.98509],[-117.30753,33.98453],[-117.30497,33.98509],[-117.30479,33.98631],[-117.30721,33.98654],[-117.30724,33.99017],[-117.30935,33.99019],[-117.30939,33.99372],[-117.33111,33.99384],[-117.33111,33.99603],[-117.32763,33.99542],[-117.32493,33.99747],[-117.32238,33.99747],[-117.32233,33.99914],[-117.31942,34.00023],[-117.31826,33.99984],[-117.31702,34.00093],[-117.31416,34.0009],[-117.31357,33.99733],[-117.30928,33.99736],[-117.30929,34.00101],[-117.30498,34.00105],[-117.30496,34.00474],[-117.30669,34.0039],[-117.30788,34.00474],[-117.31362,34.00479],[-117.31412,34.00697],[-117.31523,34.00521],[-117.31748,34.00624],[-117.31956,34.00619],[-117.32448,34.00839],[-117.32672,34.00839],[-117.32673,34.01011],[-117.32881,34.00925],[-117.32882,34.00841],[-117.3311,34.0084],[-117.3311,34.0066],[-117.33408,34.00661],[-117.33379,34.01331],[-117.33514,34.01332],[-117.33618,34.01207],[-117.34932,34.01198],[-117.35077,34.01421],[-117.34971,34.01542],[-117.3485,34.0148],[-117.34718,34.01528],[-117.34765,34.01578],[-117.34653,34.01746],[-117.34834,34.0183],[-117.34769,34.01935],[-117.36452,34.01935],[-117.36752,34.01814],[-117.37547,34.00805],[-117.37887,34.00542],[-117.38049,34.00703],[-117.38377,34.0049],[-117.3914,33.99598],[-117.39203,33.99635],[-117.39361,33.99039],[-117.39212,33.98958],[-117.39744,33.98426],[-117.40275,33.97634],[-117.41045,33.97569],[-117.41574,33.9736],[-117.41574,33.97271],[-117.42742,33.96854],[-117.43353,33.96752],[-117.43583,33.96849],[-117.43615,33.96686],[-117.44695,33.96686],[-117.44696,33.96596],[-117.44914,33.96597],[-117.44915,33.96506],[-117.4536,33.96509],[-117.4536,33.96689],[-117.46112,33.96454],[-117.47559,33.96467],[-117.47856,33.96254],[-117.48076,33.96254],[-117.48077,33.96164],[-117.48404,33.96166],[-117.48405,33.96075],[-117.50796,33.96089],[-117.50795,33.96007],[-117.5101,33.96007],[-117.5101,33.95918],[-117.51885,33.95924],[-117.51883,33.95562],[-117.52339,33.95558],[-117.52386,33.94862]]]},"properties":{"GEOID":"0662000","NAME":"Riverside city","BASENAME":"Riverside","STATE":"06","PLACE":"62000"}},{"type":"Feature","geometry":{"type":"Polygon","coordinates":[[[-117.25806,33.69929],[-117.25804,33.68483],[-117.25365,33.68487],[-117.25369,33.6885],[-117.24108,33.68863],[-117.24047,33.68863],[-117.24043,33.68498],[-117.23558,33.68499],[-117.23498,33.67841],[-117.23532,33.67786],[-117.24047,33.6777],[-117.24048,33.67047],[-117.21684,33.67078],[-117.21681,33.66705],[-117.22115,33.667],[-117.22124,33.66337],[-117.22339,33.66335],[-117.22344,33.62696],[-117.17108,33.62704],[-117.17106,33.64153],[-117.16995,33.64155],[-117.16645,33.64152],[-117.16566,33.63424],[-117.15412,33.63417],[-117.15399,33.64146],[-117.14546,33.6415],[-117.14545,33.63418],[-117.12333,33.63429],[-117.1232,33.62701],[-117.11886,33.62701],[-117.1191,33.64162],[-117.13684,33.6415],[-117.13647,33.75765],[-117.18469,33.75767],[-117.18474,33.75492],[-117.18717,33.75495],[-117.1874,33.75328],[-117.18917,33.75444],[-117.18919,33.75034],[-117.18477,33.75033],[-117.18475,33.74591],[-117.18046,33.74659],[-117.18044,33.74296],[-117.18483,33.74297],[-117.18474,33.73566],[-117.19317,33.73581],[-117.1933,33.74299],[-117.22352,33.74303],[-117.22343,33.72716],[-117.2244,33.72448],[-117.22338,33.72448],[-117.2233,33.71407],[-117.23689,33.71415],[-117.23624,33.71547],[-117.23157,33.71596],[-117.23154,33.7179],[-117.23055,33.7179],[-117.23057,33.72058],[-117.23414,33.72054],[-117.23374,33.7223],[-117.23546,33.72327],[-117.24065,33.72142],[-117.24064,33.71415],[-117.258,33.71387],[-117.25806,33.69929]]]},"properties":{"GEOID":"0646842","NAME":"Menifee city","BASENAME":"Menifee","STATE":"06","PLACE":"46842"}},{"type":"Feature","geometry":{"type":"Polygon","coordinates":[[[-117.20649,33.43578],[-117.20652,33.43215],[-117.15377,33.4326],[-117.15348,33.44718],[-117.13676,33.44716],[-117.1363,33.45254],[-117.13745,33.46113],[-117.12896,33.45326],[-117.12421,33.45925],[-117.11545,33.45249],[-117.10773,33.45958],[-117.09972,33.45346],[-117.10324,33.4512],[-117.10197,33.4498],[-117.0982,33.45222],[-117.09398,33.44853],[-117.08733,33.44856],[-117.08733,33.45222],[-117.08305,33.4522],[-117.08308,33.4558],[-117.07876,33.4558],[-117.07879,33.45931],[-117.08304,33.45931],[-117.08319,33.464],[-117.07929,33.46651],[-117.07449,33.46644],[-117.07447,33.4687],[-117.07065,33.47125],[-117.07277,33.47432],[-117.06821,33.47896],[-117.06349,33.4809],[-117.06435,33.48433],[-117.05474,33.48714],[-117.05523,33.48839],[-117.06714,33.48486],[-117.07442,33.48383],[-117.0755,33.4868],[-117.07461,33.48702],[-117.07644,33.49149],[-117.07339,33.49256],[-117.07161,33.49418],[-117.07539,33.50247],[-117.07651,33.50368],[-117.0791,33.50455],[-117.07856,33.50633],[-117.08062,33.5077],[-117.0801,33.51017],[-117.0792,33.51097],[-117.07992,33.51232],[-117.0841,33.51143],[-117.08736,33.50888],[-117.08987,33.50819],[-117.08969,33.51297],[-117.10016,33.5261],[-117.1011,33.52993],[-117.10112,33.53979],[-117.08379,33.53984],[-117.0838,33.55442],[-117.12061,33.55411],[-117.12065,33.54932],[-117.1227,33.5493],[-117.12272,33.54644],[-117.12451,33.54644],[-117.12336,33.54382],[-117.12336,33.54065],[-117.12895,33.54435],[-117.13516,33.53904],[-117.14295,33.5422],[-117.14191,33.54344],[-117.14205,33.5452],[-117.14309,33.54435],[-117.14128,33.54954],[-117.14194,33.55019],[-117.15049,33.5437],[-117.15336,33.54633],[-117.15972,33.54143],[-117.16266,33.54405],[-117.17257,33.53651],[-117.16824,33.53006],[-117.19002,33.51343],[-117.17377,33.49765],[-117.16538,33.49723],[-117.16538,33.49625],[-117.16244,33.49233],[-117.15857,33.49097],[-117.15536,33.48851],[-117.14915,33.48205],[-117.14796,33.47934],[-117.14834,33.4786],[-117.14423,33.47442],[-117.14542,33.47346],[-117.15441,33.47102],[-117.15585,33.46993],[-117.15509,33.46877],[-117.15546,33.46627],[-117.15937,33.4648],[-117.16319,33.46496],[-117.16733,33.46178],[-117.16741,33.4645],[-117.20637,33.45054],[-117.20642,33.44665],[-117.19753,33.44659],[-117.19755,33.44297],[-117.20644,33.44303],[-117.20649,33.43578]]]},"properties":{"GEOID":"0678120","NAME":"Temecula city","BASENAME":"Temecula","STATE":"06","PLACE":"78120"}},{"type":"Feature","geometry":{"type":"Polygon","coordinates":[[[-117.42039,33.70164],[-117.42034,33.69823],[-117.41592,33.69842],[-117.41555,33.68418],[-117.39425,33.68407],[-117.39412,33.68178],[-117.39668,33.68174],[-117.39648,33.67853],[-117.38756,33.67881],[-117.38905,33.67654],[-117.38636,33.67483],[-117.391,33.66776],[-117.37976,33.66072],[-117.38371,33.65623],[-117.38267,33.65537],[-117.38364,33.65486],[-117.38365,33.64815],[-117.37926,33.6483],[-117.37944,33.65362],[-117.3774,33.65644],[-117.37498,33.65494],[-117.37584,33.65398],[-117.37502,33.65347],[-117.37515,33.64898],[-117.37294,33.65146],[-117.37241,33.65113],[-117.37116,33.65255],[-117.37226,33.65327],[-117.37061,33.65509],[-117.37303,33.65656],[-117.37027,33.65978],[-117.36732,33.65694],[-117.36648,33.65485],[-117.36099,33.65188],[-117.35638,33.64796],[-117.3447,33.64263],[-117.33796,33.63793],[-117.3357,33.63726],[-117.33077,33.63958],[-117.3293,33.63867],[-117.3342,33.63257],[-117.32876,33.63829],[-117.31937,33.63263],[-117.32001,33.6319],[-117.319,33.63127],[-117.31964,33.63055],[-117.31826,33.62924],[-117.31673,33.63099],[-117.3154,33.63009],[-117.31698,33.62833],[-117.31448,33.62614],[-117.31514,33.62539],[-117.31446,33.62497],[-117.31709,33.62201],[-117.31537,33.62094],[-117.31274,33.62388],[-117.3039,33.61845],[-117.29062,33.63316],[-117.29122,33.64149],[-117.29638,33.65248],[-117.28782,33.65608],[-117.25386,33.65595],[-117.25439,33.65483],[-117.25345,33.65452],[-117.25346,33.64863],[-117.24039,33.64866],[-117.24032,33.65593],[-117.22339,33.65597],[-117.22339,33.66335],[-117.22124,33.66337],[-117.22115,33.667],[-117.21681,33.66705],[-117.21684,33.67078],[-117.2666,33.67038],[-117.26662,33.67398],[-117.27118,33.67323],[-117.27693,33.67404],[-117.27756,33.67951],[-117.27966,33.67956],[-117.28076,33.68314],[-117.28402,33.68315],[-117.28401,33.68803],[-117.27975,33.68808],[-117.27985,33.69533],[-117.27541,33.69535],[-117.2753,33.70623],[-117.28414,33.7061],[-117.28416,33.69883],[-117.28576,33.69883],[-117.2894,33.70105],[-117.28989,33.70426],[-117.29937,33.70408],[-117.29928,33.70953],[-117.29654,33.70956],[-117.29654,33.71328],[-117.31013,33.71304],[-117.30997,33.72377],[-117.31164,33.72582],[-117.31125,33.7276],[-117.3099,33.72762],[-117.31039,33.7568],[-117.33617,33.7561],[-117.33614,33.75249],[-117.32754,33.75279],[-117.32686,33.73498],[-117.33262,33.73471],[-117.33088,33.7294],[-117.33385,33.72508],[-117.33426,33.72123],[-117.33361,33.71993],[-117.33535,33.71751],[-117.33191,33.71532],[-117.32956,33.71883],[-117.32727,33.71702],[-117.32742,33.71302],[-117.32048,33.7131],[-117.32051,33.70892],[-117.32254,33.70808],[-117.32426,33.70615],[-117.32516,33.70348],[-117.33231,33.6967],[-117.33552,33.69917],[-117.33698,33.6979],[-117.34054,33.69793],[-117.34054,33.69702],[-117.34224,33.6971],[-117.34318,33.6963],[-117.34621,33.69835],[-117.34663,33.71283],[-117.3595,33.71292],[-117.36391,33.72028],[-117.36386,33.72757],[-117.37574,33.72762],[-117.38119,33.72878],[-117.38124,33.74221],[-117.39853,33.74208],[-117.39857,33.72982],[-117.40213,33.73139],[-117.40296,33.73094],[-117.40299,33.72923],[-117.40591,33.72754],[-117.41609,33.72761],[-117.41607,33.7017],[-117.42039,33.70164]]]},"properties":{"GEOID":"0639486","NAME":"Lake Elsinore city","BASENAME":"Lake Elsinore","STATE":"06","PLACE":"39486"}},{"type":"Feature","geometry":{"type":"Polygon","coordinates":[[[-117.29652,33.95727],[-117.29645,33.94619],[-117.27893,33.94277],[-117.27897,33.93144],[-117.28104,33.93142],[-117.28126,33.93324],[-117.28323,33.93323],[-117.28321,33.9318],[-117.2889,33.93138],[-117.28867,33.92775],[-117.28792,33.92775],[-117.28025,33.90914],[-117.27317,33.91014],[-117.24359,33.91016],[-117.24376,33.86508],[-117.24274,33.86334],[-117.24381,33.86196],[-117.24384,33.85903],[-117.20458,33.8591],[-117.20877,33.86764],[-117.20706,33.86562],[-117.20436,33.86606],[-117.2024,33.87096],[-117.19022,33.88149],[-117.1856,33.88054],[-117.17465,33.89251],[-117.16643,33.8945],[-117.15767,33.89461],[-117.15633,33.89777],[-117.14989,33.9005],[-117.1467,33.90464],[-117.14639,33.89644],[-117.13849,33.89435],[-117.13494,33.88941],[-117.12973,33.88932],[-117.1298,33.89551],[-117.12108,33.89555],[-117.1211,33.90261],[-117.11975,33.90312],[-117.10233,33.90317],[-117.10228,33.89852],[-117.09468,33.90408],[-117.08827,33.90415],[-117.09891,33.91628],[-117.10182,33.91853],[-117.10374,33.91952],[-117.11506,33.91946],[-117.11512,33.92522],[-117.12126,33.92868],[-117.12129,33.93294],[-117.12449,33.9328],[-117.12686,33.93792],[-117.13904,33.93897],[-117.13895,33.95022],[-117.14334,33.95023],[-117.14327,33.95382],[-117.14767,33.95384],[-117.14761,33.96108],[-117.15836,33.96114],[-117.16508,33.968],[-117.16521,33.96116],[-117.21784,33.96129],[-117.21777,33.9683],[-117.22214,33.9683],[-117.22215,33.96703],[-117.22647,33.96696],[-117.22638,33.97554],[-117.22531,33.98233],[-117.26154,33.98285],[-117.26089,33.9849],[-117.26163,33.9873],[-117.26303,33.98809],[-117.26432,33.98783],[-117.26505,33.98601],[-117.2666,33.98575],[-117.26375,33.98325],[-117.27545,33.98297],[-117.27544,33.98193],[-117.27462,33.98195],[-117.27456,33.97966],[-117.27275,33.97738],[-117.27024,33.97739],[-117.27022,33.97564],[-117.27248,33.97567],[-117.27264,33.9681],[-117.2615,33.96814],[-117.26148,33.96292],[-117.26359,33.9629],[-117.26364,33.96109],[-117.27028,33.96086],[-117.27022,33.95382],[-117.26145,33.95385],[-117.26986,33.95034],[-117.27902,33.95022],[-117.27906,33.95359],[-117.28342,33.95364],[-117.28341,33.95707],[-117.28965,33.95723],[-117.28967,33.96077],[-117.29649,33.96102],[-117.29652,33.95727]]]},"properties":{"GEOID":"0649270","NAME":"Moreno Valley city","BASENAME":"Moreno Valley","STATE":"06","PLACE":"49270"}},{"type":"Feature","geometry":{"type":"Polygon","coordinates":[[[-117.67265,33.87664],[-117.6732,33.87543],[-117.67077,33.87427],[-117.67231,33.8712],[-117.67313,33.871],[-117.67161,33.86937],[-117.66589,33.87134],[-117.6588,33.87623],[-117.6586,33.87131],[-117.64498,33.86865],[-117.64482,33.85939],[-117.63201,33.85937],[-117.63202,33.85672],[-117.62334,33.8567],[-117.62332,33.8594],[-117.61343,33.85933],[-117.61421,33.8546],[-117.61473,33.85462],[-117.61476,33.84878],[-117.61582,33.84868],[-117.61582,33.8477],[-117.61476,33.8477],[-117.61477,33.84589],[-117.61901,33.84585],[-117.61902,33.84405],[-117.61477,33.84408],[-117.61478,33.84226],[-117.61048,33.84231],[-117.6105,33.83868],[-117.60631,33.83866],[-117.60638,33.83596],[-117.60526,33.83597],[-117.60529,33.83506],[-117.59967,33.83502],[-117.59977,33.83322],[-117.59535,33.8332],[-117.59528,33.83588],[-117.59732,33.83589],[-117.59719,33.84142],[-117.58907,33.83394],[-117.58912,33.82966],[-117.58442,33.82967],[-117.57786,33.82365],[-117.55403,33.81148],[-117.55409,33.80008],[-117.52433,33.80033],[-117.52432,33.80749],[-117.5281,33.80745],[-117.52436,33.81032],[-117.52437,33.81112],[-117.51993,33.81109],[-117.51994,33.81467],[-117.51236,33.81497],[-117.50813,33.80682],[-117.50457,33.80778],[-117.50462,33.80701],[-117.50312,33.80673],[-117.50302,33.80744],[-117.49765,33.80745],[-117.49787,33.80464],[-117.49684,33.80382],[-117.49373,33.8038],[-117.49354,33.81462],[-117.49868,33.81517],[-117.49805,33.81688],[-117.49847,33.81841],[-117.50441,33.82404],[-117.51026,33.8238],[-117.5122,33.8269],[-117.51521,33.82929],[-117.52837,33.82924],[-117.52416,33.82531],[-117.5243,33.8238],[-117.53677,33.82364],[-117.53645,33.83034],[-117.53468,33.82983],[-117.53056,33.83191],[-117.53217,33.8354],[-117.53222,33.83277],[-117.53451,33.83276],[-117.53447,33.83131],[-117.53642,33.83169],[-117.53635,33.83584],[-117.5319,33.84271],[-117.53401,33.84477],[-117.5335,33.84783],[-117.53494,33.85401],[-117.53192,33.85532],[-117.53192,33.85382],[-117.52757,33.85381],[-117.52751,33.85827],[-117.52356,33.8574],[-117.52158,33.8575],[-117.5216,33.8585],[-117.51455,33.85832],[-117.51459,33.85468],[-117.50602,33.85466],[-117.50606,33.85098],[-117.50176,33.85098],[-117.50179,33.84591],[-117.49657,33.84595],[-117.49662,33.83641],[-117.50124,33.83641],[-117.50113,33.83407],[-117.50035,33.83339],[-117.50194,33.83226],[-117.49211,33.8364],[-117.48454,33.8364],[-117.48463,33.85141],[-117.48357,33.85243],[-117.48556,33.85397],[-117.48628,33.85576],[-117.48998,33.85799],[-117.48908,33.8593],[-117.48892,33.86318],[-117.4911,33.86316],[-117.49062,33.86342],[-117.4914,33.86534],[-117.49028,33.86635],[-117.48694,33.86606],[-117.48592,33.86731],[-117.49331,33.86743],[-117.49333,33.8726],[-117.50126,33.87256],[-117.50545,33.86887],[-117.50728,33.86831],[-117.50862,33.86948],[-117.51419,33.86996],[-117.51525,33.87257],[-117.5175,33.873],[-117.5184,33.87247],[-117.52094,33.87469],[-117.52404,33.87238],[-117.52619,33.87493],[-117.52967,33.87363],[-117.53121,33.87572],[-117.5301,33.87638],[-117.53225,33.87901],[-117.51602,33.88409],[-117.51427,33.88195],[-117.51025,33.88426],[-117.51142,33.88572],[-117.50045,33.88982],[-117.50323,33.89332],[-117.5013,33.89425],[-117.50775,33.90215],[-117.51058,33.90166],[-117.51083,33.90929],[-117.51517,33.90923],[-117.51492,33.90233],[-117.52358,33.90211],[-117.52417,33.90438],[-117.52566,33.90434],[-117.52545,33.90662],[-117.52619,33.90794],[-117.53103,33.90482],[-117.53566,33.90377],[-117.53791,33.90245],[-117.53889,33.901],[-117.53845,33.89794],[-117.53993,33.89738],[-117.54196,33.89721],[-117.54572,33.89864],[-117.54905,33.89644],[-117.55081,33.89624],[-117.55425,33.89941],[-117.55426,33.90195],[-117.55693,33.90196],[-117.55735,33.89996],[-117.56004,33.89861],[-117.55839,33.89495],[-117.55941,33.89437],[-117.56067,33.89577],[-117.56281,33.89598],[-117.56657,33.89373],[-117.56863,33.8958],[-117.56784,33.89662],[-117.56911,33.89625],[-117.5721,33.89963],[-117.57033,33.90072],[-117.5763,33.90746],[-117.57986,33.90533],[-117.58816,33.91468],[-117.58983,33.91403],[-117.59266,33.91619],[-117.60161,33.90792],[-117.60411,33.90964],[-117.60981,33.90566],[-117.61403,33.90398],[-117.61654,33.90806],[-117.62003,33.9068],[-117.61703,33.90146],[-117.62021,33.90047],[-117.62126,33.90253],[-117.62486,33.90136],[-117.62351,33.8944],[-117.61686,33.89491],[-117.61234,33.8915],[-117.61374,33.89023],[-117.61499,33.89118],[-117.61633,33.88995],[-117.61448,33.88832],[-117.61678,33.8875],[-117.61785,33.88804],[-117.61862,33.887],[-117.61536,33.88527],[-117.62607,33.88339],[-117.62118,33.88188],[-117.6052,33.87969],[-117.60592,33.87904],[-117.60504,33.87838],[-117.60149,33.87837],[-117.60162,33.87782],[-117.59977,33.87705],[-117.60913,33.86775],[-117.61018,33.86897],[-117.60754,33.87143],[-117.61141,33.87416],[-117.61382,33.87191],[-117.61178,33.87007],[-117.61093,33.86826],[-117.61143,33.86771],[-117.61019,33.86678],[-117.61237,33.86472],[-117.61198,33.867],[-117.61746,33.87394],[-117.61605,33.87544],[-117.62132,33.88007],[-117.62081,33.88131],[-117.62732,33.88324],[-117.63584,33.88358],[-117.64707,33.88088],[-117.65545,33.8799],[-117.65332,33.88117],[-117.65473,33.88204],[-117.65675,33.8819],[-117.66107,33.88458],[-117.66227,33.88457],[-117.66474,33.88794],[-117.66621,33.88776],[-117.66942,33.88531],[-117.67041,33.88324],[-117.66896,33.88083],[-117.67265,33.87664]]]},"properties":{"GEOID":"0616350","NAME":"Corona city","BASENAME":"Corona","STATE":"06","PLACE":"16350"}},{"type":"Feature","geometry":{"type":"Polygon","coordinates":[[[-117.55234,33.94999],[-117.54922,33.94961],[-117.5441,33.95209],[-117.54384,33.95522],[-117.54156,33.95696],[-117.53412,33.95735],[-117.53356,33.95915],[-117.53194,33.95916],[-117.53196,33.95785],[-117.52543,33.9586],[-117.52322,33.9625],[-117.52322,33.96099],[-117.52116,33.96109],[-117.51821,33.9628],[-117.51573,33.96298],[-117.51424,33.96615],[-117.50581,33.96623],[-117.50582,33.96784],[-117.48852,33.9681],[-117.48849,33.96881],[-117.48761,33.96878],[-117.48357,33.96664],[-117.47613,33.96466],[-117.46112,33.96454],[-117.4536,33.96689],[-117.45339,33.96791],[-117.45102,33.96765],[-117.44838,33.96903],[-117.44012,33.96933],[-117.43174,33.96773],[-117.42182,33.97022],[-117.41045,33.97569],[-117.40986,33.97526],[-117.40523,33.97658],[-117.39262,33.9899],[-117.39361,33.99039],[-117.39203,33.99635],[-117.3914,33.99598],[-117.38377,34.0049],[-117.38049,34.00703],[-117.37866,34.00552],[-117.37927,34.00625],[-117.37493,34.00939],[-117.3673,34.01935],[-117.37542,34.0194],[-117.37539,34.02541],[-117.37728,34.02672],[-117.37416,34.03085],[-117.37508,34.03109],[-117.37534,34.03388],[-117.41637,34.03428],[-117.55024,34.03347],[-117.55032,33.99344],[-117.54888,33.98503],[-117.54883,33.95835],[-117.54969,33.95409],[-117.55234,33.94999]]]},"properties":{"GEOID":"0637692","NAME":"Jurupa Valley city","BASENAME":"Jurupa Valley","STATE":"06","PLACE":"37692"}}]}