{"type":"FeatureCollection","features":[{"type":"Feature","geometry":{"type":"MultiPolygon","coordinates":[[[[-121.61994,38.15656],[-121.61832,38.15651],[-121.61605,38.15881],[-121.61215,38.15997],[-121.61113,38.15728],[-121.59301,38.16553],[-121.59729,38.1676],[-121.60568,38.16447],[-121.61624,38.16401],[-121.61994,38.15656]]],[[[-121.59614,38.15678],[-121.59279,38.15491],[-121.59167,38.1576],[-121.58747,38.15782],[-121.59257,38.16065],[-121.59614,38.15678]]]]},"properties":{"GEOID":"0636882","NAME":"Isleton city","BASENAME":"Isleton","STATE":"06","PLACE":"36882"}},{"type":"Feature","geometry":{"type":"MultiPolygon","coordinates":[[[[-121.32603,38.26193],[-121.32605,38.25831],[-121.32469,38.25826],[-121.32468,38.25624],[-121.32192,38.25613],[-121.32192,38.24856],[-121.31925,38.24847],[-121.31923,38.24738],[-121.31348,38.2474],[-121.31351,38.2402],[-121.30672,38.24023],[-121.30678,38.23476],[-121.29323,38.23861],[-121.28995,38.24203],[-121.28913,38.2443],[-121.28628,38.2472],[-121.28465,38.25035],[-121.28227,38.24984],[-121.28255,38.27671],[-121.27343,38.27701],[-121.27348,38.27986],[-121.26569,38.28418],[-121.26426,38.28418],[-121.26437,38.29173],[-121.2801,38.29133],[-121.27938,38.29529],[-121.28587,38.29528],[-121.28588,38.29126],[-121.3132,38.29105],[-121.30806,38.28378],[-121.31807,38.28374],[-121.31003,38.26201],[-121.31767,38.26195],[-121.31775,38.26503],[-121.32323,38.26502],[-121.32321,38.26194],[-121.32603,38.26193]],[[-121.29734,38.24381],[-121.29723,38.24383],[-121.29669,38.24364],[-121.29734,38.24381]]],[[[-121.33754,38.30549],[-121.33764,38.29565],[-121.32246,38.29573],[-121.32602,38.30535],[-121.33754,38.30549]]]]},"properties":{"GEOID":"0628112","NAME":"Galt city","BASENAME":"Galt","STATE":"06","PLACE":"28112"}},{"type":"Feature","geometry":{"type":"Polygon","coordinates":[[[-121.33188,38.68626],[-121.32975,38.68518],[-121.32671,38.68798],[-121.32691,38.6781],[-121.32878,38.67692],[-121.32845,38.67514],[-121.32702,38.67478],[-121.328,38.67322],[-121.3275,38.67274],[-121.32466,38.67381],[-121.32427,38.6733],[-121.31982,38.67388],[-121.31984,38.67291],[-121.3179,38.67225],[-121.31522,38.6726],[-121.31553,38.67121],[-121.31263,38.67096],[-121.31255,38.67349],[-121.31004,38.67354],[-121.30976,38.67295],[-121.31135,38.67291],[-121.31109,38.67194],[-121.30915,38.67196],[-121.30874,38.67079],[-121.2994,38.67068],[-121.29924,38.66498],[-121.29768,38.66354],[-121.26304,38.66403],[-121.26319,38.66644],[-121.26217,38.66645],[-121.26228,38.69313],[-121.25805,38.69316],[-121.25805,38.69564],[-121.25367,38.6956],[-121.2537,38.69709],[-121.25301,38.69709],[-121.25297,38.69317],[-121.24437,38.69317],[-121.24444,38.71666],[-121.2428,38.71824],[-121.30883,38.72279],[-121.31607,38.71606],[-121.31647,38.71462],[-121.31815,38.71455],[-121.32669,38.70644],[-121.3266,38.6911],[-121.33188,38.68626]]]},"properties":{"GEOID":"0613588","NAME":"Citrus Heights city","BASENAME":"Citrus Heights","STATE":"06","PLACE":"13588"}},{"type":"Feature","geometry":{"type":"Polygon","coordinates":[[[-121.58831,38.52058],[-121.58768,38.50271],[-121.58222,38.50269],[-121.58253,38.50542],[-121.5587,38.50194],[-121.5546,38.51086],[-121.55178,38.51386],[-121.54204,38.51632],[-121.5293,38.51752],[-121.52506,38.51918],[-121.52407,38.52126],[-121.5306,38.5276],[-121.5305,38.53029],[-121.52847,38.53211],[-121.52037,38.53537],[-121.51355,38.54019],[-121.51129,38.54629],[-121.52096,38.56621],[-121.51157,38.57501],[-121.50827,38.58051],[-121.50627,38.5863],[-121.50867,38.5968],[-121.51157,38.6009],[-121.51577,38.6027],[-121.52767,38.6046],[-121.53907,38.6019],[-121.54457,38.5977],[-121.54987,38.5994],[-121.55361,38.60333],[-121.57617,38.59767],[-121.57087,38.59063],[-121.57282,38.58971],[-121.57049,38.58263],[-121.58272,38.57945],[-121.5829,38.551],[-121.58642,38.5471],[-121.58811,38.54289],[-121.58831,38.52058]]]},"properties":{"GEOID":"0684816","NAME":"West Sacramento city","BASENAME":"West Sacramento","STATE":"06","PLACE":"84816"}},{"type":"Feature","geometry":{"type":"Polygon","coordinates":[[[-121.33647,38.57247],[-121.3362,38.55675],[-121.32787,38.55739],[-121.31948,38.55994],[-121.30501,38.56763],[-121.30528,38.56643],[-121.30038,38.56648],[-121.30031,38.56571],[-121.29462,38.56603],[-121.29456,38.56542],[-121.29069,38.56563],[-121.29081,38.56698],[-121.28655,38.56663],[-121.28595,38.56724],[-121.27387,38.56782],[-121.27141,38.56924],[-121.27008,38.56786],[-121.25944,38.56793],[-121.25408,38.56052],[-121.2536,38.55876],[-121.24953,38.55758],[-121.24487,38.5542],[-121.24381,38.55254],[-121.24298,38.55256],[-121.24246,38.50576],[-121.22327,38.50191],[-121.18953,38.53212],[-121.1874,38.53558],[-121.18739,38.58113],[-121.18625,38.58273],[-121.19904,38.58263],[-121.20082,38.57846],[-121.20241,38.57845],[-121.20249,38.58257],[-121.2041,38.58257],[-121.20417,38.59328],[-121.2463,38.59192],[-121.24256,38.59274],[-121.24245,38.59865],[-121.23934,38.59989],[-121.2342,38.60017],[-121.23415,38.60295],[-121.23595,38.60294],[-121.23599,38.60441],[-121.23413,38.60443],[-121.23432,38.61047],[-121.23187,38.61052],[-121.23287,38.61799],[-121.23426,38.62061],[-121.22175,38.62118],[-121.22171,38.62004],[-121.21738,38.62069],[-121.21854,38.62182],[-121.21429,38.62265],[-121.21183,38.61991],[-121.20987,38.62066],[-121.21713,38.63093],[-121.22841,38.625],[-121.26456,38.61135],[-121.26639,38.61859],[-121.26815,38.61837],[-121.26584,38.62666],[-121.26909,38.63357],[-121.27653,38.62902],[-121.28334,38.62178],[-121.28557,38.62059],[-121.28759,38.62109],[-121.29007,38.62351],[-121.28989,38.62587],[-121.28845,38.6288],[-121.28939,38.63067],[-121.29531,38.62994],[-121.30419,38.62418],[-121.3064,38.61942],[-121.30321,38.61416],[-121.30695,38.60915],[-121.31709,38.603],[-121.31809,38.6027],[-121.3228,38.60432],[-121.32446,38.60357],[-121.32796,38.60134],[-121.33107,38.59791],[-121.33164,38.59447],[-121.3308,38.59092],[-121.32694,38.58673],[-121.32914,38.58037],[-121.32735,38.57884],[-121.32736,38.57701],[-121.33647,38.57247]]]},"properties":{"GEOID":"0659444","NAME":"Rancho Cordova city","BASENAME":"Rancho Cordova","STATE":"06","PLACE":"59444"}},{"type":"Feature","geometry":{"type":"Polygon","coordinates":[[[-121.21014,38.6346],[-121.20873,38.63187],[-121.20335,38.63389],[-121.20052,38.63562],[-121.19675,38.64004],[-121.17411,38.64278],[-121.15646,38.64215],[-121.15551,38.63828],[-121.15035,38.63278],[-121.15048,38.61389],[-121.14947,38.61391],[-121.1485,38.61181],[-121.14309,38.61151],[-121.14166,38.6102],[-121.14161,38.61173],[-121.1443,38.61176],[-121.1436,38.61612],[-121.14217,38.61613],[-121.14217,38.61715],[-121.1225,38.61916],[-121.11601,38.62166],[-121.08924,38.62785],[-121.0838,38.62839],[-121.07909,38.63227],[-121.08543,38.64783],[-121.11905,38.71786],[-121.11926,38.71498],[-121.12148,38.71408],[-121.12403,38.71047],[-121.1293,38.7084],[-121.13075,38.70638],[-121.13316,38.70537],[-121.13533,38.70743],[-121.13855,38.70847],[-121.1392,38.71064],[-121.14252,38.71213],[-121.14662,38.71139],[-121.18166,38.71387],[-121.19364,38.71397],[-121.19438,38.69969],[-121.19263,38.69966],[-121.19277,38.68665],[-121.19747,38.6845],[-121.19757,38.68167],[-121.1999,38.68172],[-121.20004,38.67533],[-121.19103,38.68],[-121.18818,38.67661],[-121.1905,38.67523],[-121.19089,38.67396],[-121.18938,38.67005],[-121.18925,38.66552],[-121.19256,38.6501],[-121.19436,38.64585],[-121.20056,38.64247],[-121.20744,38.64023],[-121.20756,38.63705],[-121.2066,38.6366],[-121.21014,38.6346]]]},"properties":{"GEOID":"0624638","NAME":"Folsom city","BASENAME":"Folsom","STATE":"06","PLACE":"24638"}},{"type":"Feature","geometry":{"type":"Polygon","coordinates":[[[-121.55983,38.65634],[-121.55807,38.65497],[-121.55247,38.64336],[-121.54998,38.64208],[-121.54896,38.64304],[-121.54615,38.64257],[-121.54508,38.64353],[-121.53922,38.64196],[-121.53575,38.6365],[-121.53736,38.63093],[-121.54536,38.63091],[-121.54535,38.62726],[-121.53369,38.62756],[-121.52535,38.62311],[-121.52405,38.62174],[-121.53699,38.61423],[-121.54721,38.59974],[-121.54517,38.59971],[-121.54349,38.59851],[-121.54055,38.60077],[-121.54053,38.60239],[-121.53481,38.60513],[-121.5348,38.60295],[-121.52767,38.6046],[-121.51577,38.6027],[-121.51157,38.6009],[-121.50867,38.5968],[-121.50627,38.5863],[-121.50827,38.58051],[-121.51157,38.57501],[-121.52096,38.56621],[-121.51129,38.54629],[-121.51355,38.54019],[-121.52037,38.53537],[-121.52847,38.53211],[-121.5305,38.53029],[-121.5306,38.5276],[-121.52456,38.52201],[-121.52413,38.5205],[-121.52575,38.51862],[-121.52872,38.51764],[-121.54354,38.51606],[-121.55277,38.51315],[-121.55855,38.50317],[-121.55894,38.49811],[-121.55698,38.4943],[-121.54479,38.47819],[-121.54007,38.47518],[-121.53452,38.47386],[-121.51508,38.47426],[-121.50887,38.47281],[-121.50509,38.46956],[-121.50322,38.46974],[-121.50283,38.46555],[-121.50141,38.46578],[-121.5011,38.46451],[-121.50188,38.46225],[-121.50079,38.46234],[-121.50062,38.4617],[-121.50178,38.46152],[-121.50115,38.45914],[-121.50012,38.45932],[-121.49969,38.45772],[-121.49379,38.45866],[-121.49307,38.45643],[-121.48252,38.45782],[-121.48253,38.45622],[-121.47902,38.4563],[-121.47733,38.45635],[-121.47777,38.45841],[-121.47484,38.45981],[-121.46442,38.45978],[-121.46067,38.45882],[-121.46151,38.46357],[-121.46067,38.46334],[-121.46046,38.46141],[-121.45704,38.46218],[-121.45066,38.4604],[-121.45099,38.45969],[-121.44636,38.45964],[-121.44591,38.45731],[-121.4521,38.45729],[-121.45435,38.45231],[-121.44865,38.45239],[-121.4487,38.45531],[-121.44547,38.4551],[-121.44467,38.44946],[-121.44499,38.44148],[-121.43619,38.44146],[-121.43615,38.43793],[-121.40348,38.43789],[-121.40314,38.44025],[-121.40402,38.44266],[-121.42044,38.4775],[-121.42643,38.47753],[-121.43076,38.48162],[-121.44071,38.48156],[-121.44073,38.48491],[-121.44721,38.48376],[-121.44723,38.48517],[-121.4541,38.48517],[-121.46155,38.50028],[-121.4645,38.50026],[-121.46452,38.50317],[-121.46584,38.50317],[-121.46589,38.5016],[-121.46778,38.5006],[-121.47223,38.50059],[-121.47755,38.51769],[-121.46592,38.51764],[-121.46532,38.51871],[-121.46681,38.5196],[-121.46585,38.52053],[-121.46637,38.5215],[-121.47094,38.5215],[-121.47175,38.52489],[-121.46941,38.52467],[-121.46878,38.52248],[-121.4665,38.52251],[-121.4669,38.52326],[-121.46532,38.52395],[-121.46585,38.52494],[-121.46164,38.52491],[-121.46163,38.52569],[-121.46232,38.52569],[-121.46232,38.53214],[-121.4647,38.53214],[-121.46471,38.53346],[-121.46009,38.53403],[-121.46009,38.53945],[-121.44971,38.53942],[-121.44594,38.5322],[-121.45336,38.53218],[-121.45337,38.5337],[-121.45545,38.5337],[-121.45544,38.53219],[-121.45362,38.53218],[-121.45281,38.53056],[-121.45572,38.53059],[-121.45572,38.52976],[-121.45333,38.52976],[-121.4528,38.52896],[-121.45277,38.52492],[-121.4444,38.52496],[-121.44438,38.52362],[-121.44197,38.52363],[-121.43923,38.5177],[-121.44156,38.51768],[-121.44146,38.51214],[-121.4452,38.51209],[-121.44514,38.51046],[-121.43685,38.51049],[-121.43704,38.50321],[-121.43245,38.50324],[-121.4332,38.50478],[-121.43228,38.50489],[-121.42971,38.504],[-121.42528,38.50466],[-121.4229,38.50421],[-121.42281,38.50329],[-121.41595,38.50324],[-121.41535,38.49965],[-121.40898,38.49968],[-121.40904,38.50348],[-121.39521,38.50338],[-121.39515,38.50067],[-121.39055,38.5007],[-121.39055,38.50339],[-121.37548,38.50403],[-121.37548,38.50342],[-121.3722,38.50344],[-121.37203,38.50675],[-121.37012,38.51071],[-121.36848,38.51072],[-121.3687,38.51161],[-121.36993,38.5116],[-121.36994,38.51393],[-121.36274,38.51395],[-121.36277,38.51815],[-121.3679,38.51814],[-121.3679,38.51924],[-121.36989,38.51924],[-121.36986,38.52209],[-121.36736,38.5221],[-121.36742,38.52396],[-121.3684,38.52394],[-121.36842,38.52525],[-121.37029,38.52524],[-121.37095,38.53876],[-121.38631,38.5431],[-121.38635,38.54704],[-121.37886,38.54707],[-121.37879,38.551],[-121.37512,38.55309],[-121.38203,38.56255],[-121.38285,38.56676],[-121.39836,38.56281],[-121.39872,38.56387],[-121.40022,38.56354],[-121.39931,38.56709],[-121.40011,38.56751],[-121.39929,38.56839],[-121.39747,38.56799],[-121.39657,38.57068],[-121.4052,38.57205],[-121.40523,38.5707],[-121.41145,38.57368],[-121.41123,38.57432],[-121.41534,38.57487],[-121.42169,38.57744],[-121.41993,38.58059],[-121.41992,38.61785],[-121.41969,38.6201],[-121.41528,38.61817],[-121.41528,38.62454],[-121.37687,38.63945],[-121.36767,38.64227],[-121.36474,38.64194],[-121.36287,38.644],[-121.36417,38.64457],[-121.36516,38.64377],[-121.3663,38.64476],[-121.36712,38.644],[-121.37027,38.64361],[-121.37202,38.64469],[-121.37691,38.64259],[-121.37896,38.64076],[-121.38201,38.64102],[-121.3832,38.63989],[-121.38326,38.64219],[-121.3887,38.64368],[-121.40315,38.64061],[-121.40531,38.63862],[-121.40561,38.6398],[-121.41057,38.63989],[-121.41068,38.64713],[-121.4176,38.6472],[-121.41759,38.64995],[-121.41992,38.64997],[-121.4199,38.65097],[-121.4235,38.65109],[-121.42164,38.65272],[-121.42162,38.6573],[-121.42223,38.65803],[-121.41994,38.66004],[-121.41735,38.66005],[-121.41593,38.65832],[-121.41503,38.65832],[-121.41526,38.66898],[-121.45635,38.66912],[-121.47819,38.67015],[-121.47907,38.67176],[-121.48532,38.67504],[-121.48562,38.68519],[-121.55788,38.6856],[-121.5579,38.67106],[-121.55009,38.67106],[-121.54997,38.66201],[-121.55049,38.65562],[-121.55734,38.65555],[-121.55983,38.65634]],[[-121.50272,38.64196],[-121.5027,38.64931],[-121.49314,38.64943],[-121.49327,38.65623],[-121.47639,38.65655],[-121.47501,38.64957],[-121.47555,38.64554],[-121.47756,38.64309],[-121.47781,38.64079],[-121.48832,38.63943],[-121.4932,38.63773],[-121.49323,38.64198],[-121.50272,38.64196]]]},"properties":{"GEOID":"0664000","NAME":"Sacramento city","BASENAME":"Sacramento","STATE":"06","PLACE":"64000"}},{"type":"Feature","geometry":{"type":"Polygon","coordinates":[[[-121.48847,38.43052],[-121.48095,38.39424],[-121.47405,38.39519],[-121.47309,38.3948],[-121.47252,38.39211],[-121.46985,38.39361],[-121.46981,38.395],[-121.46282,38.40193],[-121.46518,38.4044],[-121.45981,38.40806],[-121.45462,38.40875],[-121.45116,38.37924],[-121.45044,38.3792],[-121.45012,38.37196],[-121.44529,38.37207],[-121.44532,38.3793],[-121.41738,38.3795],[-121.41758,38.37226],[-121.35852,38.37276],[-121.34681,38.36137],[-121.3501,38.37022],[-121.34861,38.37037],[-121.34766,38.37138],[-121.34507,38.37103],[-121.34098,38.37408],[-121.34405,38.37648],[-121.33813,38.38204],[-121.34706,38.38802],[-121.31619,38.41713],[-121.31445,38.41867],[-121.30498,38.41238],[-121.2989,38.41781],[-121.30198,38.4199],[-121.29911,38.42257],[-121.30227,38.42481],[-121.29767,38.42891],[-121.28622,38.42105],[-121.2871,38.42224],[-121.28551,38.42365],[-121.28713,38.42512],[-121.28482,38.42717],[-121.28404,38.42663],[-121.28048,38.42984],[-121.27646,38.42715],[-121.27268,38.43049],[-121.2701,38.42895],[-121.26934,38.43075],[-121.28086,38.43819],[-121.2764,38.44227],[-121.2783,38.4435],[-121.2811,38.44092],[-121.28352,38.4425],[-121.28007,38.44464],[-121.28306,38.44656],[-121.27688,38.45253],[-121.3958,38.45291],[-121.40861,38.45261],[-121.40182,38.43778],[-121.43615,38.43793],[-121.43619,38.44146],[-121.44499,38.44148],[-121.4463,38.43417],[-121.45762,38.4342],[-121.45719,38.43058],[-121.48847,38.43052]]]},"properties":{"GEOID":"0622020","NAME":"Elk Grove city","BASENAME":"Elk Grove","STATE":"06","PLACE":"22020"}}]}