{"type":"FeatureCollection","features":[{"type":"Feature","geometry":{"type":"Polygon","coordinates":[[[-121.54785,36.85362],[-121.54535,36.84722],[-121.54611,36.84568],[-121.54477,36.84527],[-121.5452,36.84465],[-121.54367,36.84344],[-121.54276,36.84119],[-121.54391,36.84179],[-121.54441,36.84109],[-121.54298,36.84095],[-121.54464,36.83901],[-121.52714,36.8391],[-121.52717,36.83691],[-121.52088,36.83728],[-121.51919,36.84094],[-121.53102,36.84076],[-121.53174,36.84619],[-121.53342,36.84621],[-121.53271,36.84704],[-121.53453,36.84844],[-121.53578,36.84688],[-121.53629,36.84721],[-121.53618,36.85359],[-121.54498,36.85356],[-121.54539,36.8542],[-121.54785,36.85362]]]},"properties":{"GEOID":"0668014","NAME":"San Juan Bautista city","BASENAME":"San Juan Bautista","STATE":"06","PLACE":"68014"}},{"type":"Feature","geometry":{"type":"MultiPolygon","coordinates":[[[[-121.43481,36.84984],[-121.43309,36.8484],[-121.43354,36.84736],[-121.43295,36.84687],[-121.42918,36.84583],[-121.42572,36.84588],[-121.42657,36.84744],[-121.42605,36.84764],[-121.42084,36.84433],[-121.41804,36.84452],[-121.41817,36.8423],[-121.41585,36.8409],[-121.41687,36.83924],[-121.41207,36.83745],[-121.41189,36.83916],[-121.41076,36.83911],[-121.41081,36.8376],[-121.4095,36.83699],[-121.40967,36.83241],[-121.40704,36.83089],[-121.40703,36.83986],[-121.40244,36.8398],[-121.40265,36.8364],[-121.40077,36.83634],[-121.40044,36.83452],[-121.40038,36.83334],[-121.40204,36.83335],[-121.4007,36.82959],[-121.39325,36.82928],[-121.39325,36.83016],[-121.38682,36.83005],[-121.38674,36.83144],[-121.38576,36.83156],[-121.38421,36.82923],[-121.38242,36.83074],[-121.37772,36.83089],[-121.37769,36.82826],[-121.38358,36.82832],[-121.37924,36.82425],[-121.3682,36.81791],[-121.36799,36.82236],[-121.36362,36.82234],[-121.36361,36.83265],[-121.36922,36.8332],[-121.36922,36.83445],[-121.3711,36.83447],[-121.37088,36.83842],[-121.36924,36.83834],[-121.36922,36.83913],[-121.36375,36.83931],[-121.36377,36.84643],[-121.36909,36.84691],[-121.36929,36.843],[-121.37074,36.84305],[-121.37059,36.83965],[-121.37207,36.83965],[-121.37214,36.83856],[-121.37545,36.83869],[-121.37538,36.84025],[-121.37433,36.84023],[-121.37421,36.8423],[-121.37196,36.84221],[-121.37152,36.84495],[-121.37456,36.84431],[-121.37441,36.84714],[-121.37632,36.84722],[-121.37607,36.8514],[-121.37715,36.85145],[-121.37694,36.85566],[-121.39611,36.85643],[-121.39599,36.8583],[-121.39493,36.85866],[-121.39594,36.85902],[-121.39588,36.86024],[-121.39077,36.86005],[-121.39073,36.86246],[-121.39227,36.86433],[-121.39495,36.86485],[-121.39562,36.86488],[-121.3957,36.86278],[-121.3977,36.86287],[-121.39741,36.86817],[-121.39932,36.86825],[-121.39886,36.86927],[-121.39765,36.86922],[-121.39732,36.87465],[-121.4005,36.87477],[-121.4004,36.87698],[-121.39553,36.87677],[-121.39535,36.87967],[-121.40023,36.87989],[-121.40002,36.8835],[-121.38976,36.88126],[-121.38918,36.88309],[-121.39219,36.88996],[-121.39208,36.89235],[-121.3945,36.89401],[-121.39425,36.89573],[-121.39537,36.89744],[-121.39634,36.89832],[-121.39857,36.89801],[-121.39858,36.89525],[-121.40148,36.89473],[-121.40215,36.89902],[-121.406,36.89906],[-121.40824,36.9045],[-121.4144,36.90298],[-121.41236,36.8979],[-121.4199,36.90672],[-121.42401,36.90418],[-121.41939,36.90067],[-121.40992,36.89095],[-121.41693,36.88939],[-121.41628,36.88802],[-121.41628,36.88301],[-121.41608,36.88498],[-121.41226,36.8848],[-121.41224,36.88201],[-121.41542,36.88208],[-121.41252,36.87798],[-121.40912,36.87776],[-121.40898,36.87968],[-121.40451,36.87951],[-121.40461,36.87779],[-121.40155,36.87766],[-121.40195,36.87144],[-121.40497,36.87156],[-121.4051,36.86953],[-121.40128,36.86937],[-121.40135,36.86721],[-121.40456,36.86737],[-121.40732,36.86962],[-121.4075,36.86618],[-121.40356,36.8662],[-121.40137,36.86418],[-121.40159,36.86305],[-121.40561,36.86322],[-121.40616,36.86237],[-121.40566,36.86163],[-121.40315,36.86151],[-121.4032,36.86042],[-121.40172,36.86036],[-121.40486,36.86013],[-121.40266,36.85697],[-121.40704,36.86327],[-121.41167,36.86348],[-121.4095,36.8594],[-121.40961,36.85691],[-121.41109,36.857],[-121.41102,36.85814],[-121.41238,36.8582],[-121.41297,36.85708],[-121.41566,36.85719],[-121.41544,36.86044],[-121.41657,36.86049],[-121.41675,36.85723],[-121.42076,36.8574],[-121.4206,36.86063],[-121.42388,36.86073],[-121.42406,36.85753],[-121.43164,36.85785],[-121.4316,36.85557],[-121.43023,36.85551],[-121.43031,36.8524],[-121.43224,36.85159],[-121.4313,36.85122],[-121.43206,36.8508],[-121.4288,36.84872],[-121.43268,36.8505],[-121.43481,36.84984]],[[-121.41048,36.84448],[-121.41048,36.84556],[-121.40788,36.84507],[-121.4079,36.8444],[-121.41048,36.84448]],[[-121.40073,36.87127],[-121.40057,36.87156],[-121.40013,36.87155],[-121.40073,36.87127]],[[-121.4006,36.87365],[-121.40056,36.87419],[-121.39964,36.87416],[-121.4006,36.87365]],[[-121.39388,36.89075],[-121.39286,36.89188],[-121.39262,36.88971],[-121.3934,36.88925],[-121.39388,36.89075]],[[-121.38397,36.83401],[-121.38392,36.83438],[-121.3836,36.83437],[-121.38397,36.83401]],[[-121.38285,36.83392],[-121.38267,36.83434],[-121.38262,36.83389],[-121.38285,36.83392]],[[-121.38244,36.83493],[-121.38248,36.83548],[-121.38119,36.83549],[-121.38117,36.83492],[-121.38244,36.83493]],[[-121.38202,36.83418],[-121.38203,36.83432],[-121.38167,36.83433],[-121.38202,36.83418]],[[-121.38173,36.84385],[-121.38108,36.84868],[-121.3796,36.84834],[-121.37956,36.84928],[-121.3787,36.84925],[-121.37869,36.84777],[-121.3785,36.84919],[-121.3783,36.84725],[-121.37984,36.84731],[-121.37999,36.84401],[-121.38173,36.84385]],[[-121.37927,36.84243],[-121.37919,36.84377],[-121.37751,36.8441],[-121.3776,36.84231],[-121.37842,36.84193],[-121.37762,36.8419],[-121.37782,36.83878],[-121.37902,36.83948],[-121.37927,36.84243]],[[-121.36461,36.83244],[-121.36375,36.8326],[-121.36377,36.83192],[-121.36461,36.83244]]],[[[-121.45613,36.85361],[-121.45397,36.85188],[-121.44376,36.85228],[-121.44371,36.85369],[-121.43927,36.85253],[-121.43822,36.85388],[-121.44343,36.85662],[-121.44314,36.85708],[-121.4531,36.85853],[-121.45588,36.85788],[-121.45613,36.85361]]]]},"properties":{"GEOID":"0634120","NAME":"Hollister city","BASENAME":"Hollister","STATE":"06","PLACE":"34120"}}]}