{"type":"FeatureCollection","features":[{"type":"Feature","geometry":{"type":"Polygon","coordinates":[[[-117.33752,34.03389],[-117.33533,34.03387],[-117.33553,34.03299],[-117.33452,34.03299],[-117.33431,34.03387],[-117.33245,34.03385],[-117.33177,34.03785],[-117.32818,34.0378],[-117.33026,34.03208],[-117.32674,34.03187],[-117.33327,34.02591],[-117.33336,34.02409],[-117.33616,34.01938],[-117.29604,34.0194],[-117.29608,34.0298],[-117.29212,34.02966],[-117.29215,34.03379],[-117.29121,34.03373],[-117.29085,34.03654],[-117.29153,34.03761],[-117.29514,34.03765],[-117.29617,34.04106],[-117.29806,34.04112],[-117.30028,34.04291],[-117.29939,34.04477],[-117.30732,34.04529],[-117.30994,34.04456],[-117.31464,34.04159],[-117.32001,34.04265],[-117.32396,34.04126],[-117.32605,34.03949],[-117.32517,34.0411],[-117.3265,34.0395],[-117.32734,34.03953],[-117.32654,34.04402],[-117.33096,34.04405],[-117.3317,34.03844],[-117.33454,34.03843],[-117.33496,34.03552],[-117.33703,34.0362],[-117.33752,34.03389]]]},"properties":{"GEOID":"0630658","NAME":"Grand Terrace city","BASENAME":"Grand Terrace","STATE":"06","PLACE":"30658"}},{"type":"Feature","geometry":{"type":"Polygon","coordinates":[[[-117.7207,34.05586],[-117.71442,34.05598],[-117.71381,34.05222],[-117.71553,34.05221],[-117.71551,34.05074],[-117.71127,34.05042],[-117.71113,34.04857],[-117.70675,34.04859],[-117.70691,34.04667],[-117.70338,34.04697],[-117.7034,34.04857],[-117.70243,34.04857],[-117.70247,34.0522],[-117.69813,34.0522],[-117.69806,34.04725],[-117.68954,34.04775],[-117.68936,34.05592],[-117.69058,34.05594],[-117.69064,34.05979],[-117.68408,34.05984],[-117.68407,34.05785],[-117.68191,34.05786],[-117.68193,34.05985],[-117.68086,34.05986],[-117.68093,34.09391],[-117.68962,34.09392],[-117.68963,34.09672],[-117.70445,34.09505],[-117.71648,34.06758],[-117.7207,34.05586]]]},"properties":{"GEOID":"0648788","NAME":"Montclair city","BASENAME":"Montclair","STATE":"06","PLACE":"48788"}},{"type":"Feature","geometry":{"type":"MultiPolygon","coordinates":[[[[-116.96229,34.23773],[-116.96163,34.237],[-116.94476,34.23657],[-116.94467,34.23399],[-116.93588,34.23408],[-116.93583,34.23647],[-116.91854,34.23637],[-116.91848,34.23279],[-116.90975,34.23269],[-116.90982,34.23631],[-116.86621,34.23578],[-116.86605,34.22496],[-116.84859,34.22484],[-116.8486,34.22849],[-116.8425,34.22848],[-116.84447,34.23149],[-116.84746,34.23371],[-116.84847,34.23332],[-116.85237,34.23602],[-116.85379,34.23591],[-116.8548,34.23718],[-116.85812,34.23734],[-116.85856,34.23866],[-116.86138,34.24127],[-116.8637,34.24097],[-116.86388,34.24202],[-116.86799,34.2423],[-116.86896,34.24312],[-116.86851,34.24938],[-116.86786,34.24935],[-116.86799,34.25032],[-116.86618,34.25028],[-116.86721,34.25041],[-116.86724,34.25168],[-116.86723,34.2539],[-116.86609,34.25389],[-116.86616,34.26482],[-116.87222,34.26478],[-116.87466,34.26294],[-116.87871,34.26337],[-116.88158,34.26104],[-116.88157,34.25804],[-116.88321,34.25708],[-116.88497,34.25731],[-116.88669,34.25592],[-116.88847,34.256],[-116.89055,34.25331],[-116.89435,34.25257],[-116.89513,34.25334],[-116.89946,34.25166],[-116.90138,34.25264],[-116.90243,34.25436],[-116.90382,34.25453],[-116.90529,34.25303],[-116.90269,34.2508],[-116.9013,34.24798],[-116.90359,34.24752],[-116.90625,34.24571],[-116.90777,34.24728],[-116.912,34.24713],[-116.91206,34.2448],[-116.91386,34.24409],[-116.91489,34.2448],[-116.91756,34.24438],[-116.91777,34.24341],[-116.91789,34.24439],[-116.91835,34.24346],[-116.91982,34.24326],[-116.92008,34.24424],[-116.92233,34.24445],[-116.92122,34.24698],[-116.92372,34.24531],[-116.92496,34.2475],[-116.92665,34.24845],[-116.92604,34.24971],[-116.92824,34.25074],[-116.9319,34.25068],[-116.92964,34.24947],[-116.92833,34.24763],[-116.93121,34.24972],[-116.93247,34.24837],[-116.9327,34.24987],[-116.93776,34.24998],[-116.93844,34.25179],[-116.94078,34.25238],[-116.94131,34.25084],[-116.94245,34.25094],[-116.94236,34.25018],[-116.93812,34.24684],[-116.93605,34.24677],[-116.93715,34.24576],[-116.93719,34.24426],[-116.93575,34.2447],[-116.93327,34.24343],[-116.9348,34.24345],[-116.93543,34.24189],[-116.93666,34.24135],[-116.93624,34.23985],[-116.93734,34.24062],[-116.94051,34.23986],[-116.94059,34.24069],[-116.9419,34.24086],[-116.94149,34.24331],[-116.94253,34.24202],[-116.94312,34.24232],[-116.94263,34.24368],[-116.94339,34.24404],[-116.94253,34.24564],[-116.94655,34.24745],[-116.94802,34.24715],[-116.95007,34.24478],[-116.95108,34.24553],[-116.95339,34.24503],[-116.95409,34.24578],[-116.95674,34.24511],[-116.95428,34.24353],[-116.95346,34.24195],[-116.95051,34.24051],[-116.9507,34.23971],[-116.94949,34.23889],[-116.95101,34.23837],[-116.95072,34.23791],[-116.95325,34.23768],[-116.95246,34.23874],[-116.95395,34.23785],[-116.95415,34.23894],[-116.95554,34.23915],[-116.95681,34.24055],[-116.95912,34.23995],[-116.95954,34.24203],[-116.961,34.24234],[-116.9612,34.23925],[-116.96227,34.23924],[-116.96229,34.23773]]],[[[-116.77065,34.23217],[-116.77022,34.23213],[-116.77022,34.23235],[-116.77065,34.23217]]],[[[-116.77078,34.23126],[-116.77078,34.23108],[-116.77024,34.23107],[-116.77078,34.23126]]],[[[-116.77312,34.22926],[-116.77308,34.22886],[-116.77285,34.22888],[-116.77312,34.22926]]],[[[-116.77884,34.23429],[-116.77884,34.23388],[-116.77852,34.23388],[-116.77884,34.23429]]],[[[-116.79056,34.24443],[-116.79036,34.24439],[-116.79016,34.24453],[-116.79056,34.24443]]],[[[-116.80807,34.24813],[-116.80806,34.24682],[-116.8074,34.24682],[-116.80717,34.2482],[-116.80807,34.24813]]],[[[-116.82318,34.24314],[-116.82318,34.2428],[-116.82283,34.2428],[-116.82318,34.24314]]],[[[-116.82513,34.24196],[-116.82513,34.24182],[-116.8247,34.24182],[-116.82513,34.24196]]],[[[-116.83599,34.23593],[-116.83599,34.23579],[-116.83568,34.23579],[-116.83599,34.23593]]],[[[-116.83892,34.24342],[-116.83891,34.24314],[-116.83882,34.24314],[-116.83892,34.24342]]],[[[-116.84937,34.23875],[-116.84914,34.23837],[-116.84891,34.23842],[-116.84937,34.23875]]],[[[-116.86651,34.24845],[-116.86636,34.24822],[-116.86628,34.24806],[-116.86651,34.24845]]],[[[-116.93859,34.26566],[-116.93859,34.26559],[-116.93843,34.26559],[-116.93859,34.26566]]],[[[-116.94054,34.2708],[-116.94029,34.27037],[-116.9402,34.27036],[-116.94054,34.2708]]],[[[-116.95139,34.23951],[-116.95114,34.23924],[-116.95103,34.23952],[-116.95139,34.23951]]],[[[-116.95165,34.23931],[-116.95162,34.23915],[-116.95151,34.23915],[-116.95165,34.23931]]],[[[-116.9532,34.23173],[-116.9532,34.23132],[-116.9527,34.23131],[-116.9532,34.23173]]]]},"properties":{"GEOID":"0606434","NAME":"Big Bear Lake city","BASENAME":"Big Bear Lake","STATE":"06","PLACE":"06434"}},{"type":"Feature","geometry":{"type":"MultiPolygon","coordinates":[[[[-117.27803,34.05191],[-117.27783,34.04851],[-117.27354,34.04843],[-117.27369,34.04125],[-117.27007,34.04123],[-117.27053,34.02086],[-117.27162,34.02068],[-117.27064,34.01852],[-117.22553,34.01797],[-117.2258,34.02886],[-117.23015,34.02896],[-117.23025,34.0326],[-117.23258,34.03264],[-117.2326,34.03385],[-117.23478,34.03386],[-117.23486,34.03757],[-117.21926,34.03745],[-117.21726,34.03587],[-117.21739,34.04587],[-117.21936,34.04826],[-117.2196,34.05585],[-117.22404,34.05767],[-117.22617,34.06308],[-117.22912,34.06528],[-117.23504,34.06548],[-117.23847,34.06714],[-117.24293,34.06723],[-117.25146,34.06684],[-117.26934,34.06412],[-117.27068,34.06133],[-117.27131,34.05488],[-117.27383,34.05296],[-117.27615,34.05299],[-117.27803,34.05191]]],[[[-117.24642,34.07592],[-117.24609,34.0751],[-117.24609,34.07592],[-117.24642,34.07592]]],[[[-117.25037,34.07584],[-117.24973,34.07513],[-117.24973,34.07593],[-117.25037,34.07584]]],[[[-117.25246,34.07594],[-117.25246,34.07542],[-117.25171,34.07541],[-117.25246,34.07594]]]]},"properties":{"GEOID":"0642370","NAME":"Loma Linda city","BASENAME":"Loma Linda","STATE":"06","PLACE":"42370"}},{"type":"Feature","geometry":{"type":"Polygon","coordinates":[[[-117.70436,34.09529],[-117.68963,34.09672],[-117.68962,34.09392],[-117.68093,34.09391],[-117.68089,34.08737],[-117.6333,34.08708],[-117.63334,34.09322],[-117.62857,34.09256],[-117.62851,34.1083],[-117.62744,34.10829],[-117.62751,34.1117],[-117.62848,34.11207],[-117.62847,34.11645],[-117.6266,34.118],[-117.62596,34.11643],[-117.6249,34.11855],[-117.62346,34.11858],[-117.62302,34.12285],[-117.62196,34.12303],[-117.62127,34.12159],[-117.62005,34.1216],[-117.62107,34.12532],[-117.62419,34.13186],[-117.62704,34.13257],[-117.63004,34.13621],[-117.63429,34.14336],[-117.63694,34.15058],[-117.66106,34.15055],[-117.661,34.14694],[-117.66359,34.1469],[-117.67041,34.1469],[-117.67044,34.15232],[-117.674,34.15231],[-117.67398,34.15051],[-117.68326,34.15049],[-117.6868,34.13812],[-117.70436,34.09529]]]},"properties":{"GEOID":"0681344","NAME":"Upland city","BASENAME":"Upland","STATE":"06","PLACE":"81344"}},{"type":"Feature","geometry":{"type":"Polygon","coordinates":[[[-117.37165,34.01937],[-117.33616,34.01938],[-117.33336,34.02409],[-117.33327,34.02591],[-117.32674,34.03187],[-117.33026,34.03208],[-117.32818,34.0378],[-117.33177,34.03785],[-117.33245,34.03385],[-117.33431,34.03387],[-117.33452,34.03299],[-117.33553,34.03299],[-117.33533,34.03387],[-117.33753,34.03385],[-117.33703,34.0362],[-117.33496,34.03552],[-117.33454,34.03843],[-117.3317,34.03844],[-117.33096,34.04405],[-117.32654,34.04402],[-117.32734,34.03953],[-117.3265,34.0395],[-117.32517,34.0411],[-117.32605,34.03949],[-117.32396,34.04126],[-117.32001,34.04265],[-117.31634,34.04214],[-117.31555,34.04135],[-117.31289,34.04214],[-117.30994,34.04456],[-117.30487,34.04523],[-117.3032,34.04753],[-117.30206,34.04753],[-117.30202,34.04508],[-117.29939,34.04477],[-117.30028,34.04291],[-117.29806,34.04112],[-117.29617,34.04106],[-117.29514,34.03765],[-117.29153,34.03761],[-117.29085,34.03654],[-117.29121,34.03373],[-117.29215,34.03379],[-117.29212,34.02966],[-117.29608,34.0298],[-117.29604,34.0194],[-117.27066,34.01872],[-117.27162,34.02068],[-117.27053,34.02086],[-117.27007,34.04123],[-117.28004,34.04141],[-117.27897,34.04037],[-117.28134,34.04082],[-117.28142,34.03817],[-117.27912,34.03705],[-117.27927,34.03311],[-117.28336,34.03331],[-117.28432,34.03473],[-117.28485,34.03342],[-117.28776,34.03355],[-117.28718,34.03797],[-117.28763,34.04132],[-117.28615,34.04131],[-117.28615,34.04224],[-117.28755,34.04225],[-117.28746,34.04405],[-117.28623,34.04312],[-117.28676,34.04481],[-117.2831,34.04484],[-117.28319,34.04318],[-117.28089,34.04277],[-117.27977,34.04433],[-117.281,34.04379],[-117.28171,34.04486],[-117.27362,34.04481],[-117.27354,34.04843],[-117.27783,34.04851],[-117.27778,34.05192],[-117.28741,34.05078],[-117.28757,34.06397],[-117.29395,34.06491],[-117.29555,34.06821],[-117.30052,34.06865],[-117.30054,34.07121],[-117.30491,34.07125],[-117.30486,34.07408],[-117.30688,34.07409],[-117.30495,34.07533],[-117.30391,34.07711],[-117.30931,34.08242],[-117.30928,34.08498],[-117.31387,34.08489],[-117.31386,34.08851],[-117.31834,34.08852],[-117.31827,34.09214],[-117.3189,34.09214],[-117.31833,34.09431],[-117.32068,34.0943],[-117.32008,34.09214],[-117.32534,34.09218],[-117.32543,34.09527],[-117.33222,34.09436],[-117.33267,34.09605],[-117.33335,34.09611],[-117.33372,34.09183],[-117.3393,34.09234],[-117.33999,34.08662],[-117.34397,34.08662],[-117.34408,34.08503],[-117.3594,34.08501],[-117.3594,34.0832],[-117.36595,34.08319],[-117.3659,34.07229],[-117.3681,34.0723],[-117.36809,34.07055],[-117.36592,34.07056],[-117.36584,34.05776],[-117.36149,34.05775],[-117.36151,34.05597],[-117.3581,34.05598],[-117.3581,34.05248],[-117.35713,34.05281],[-117.35711,34.0519],[-117.35799,34.0516],[-117.35678,34.04887],[-117.36021,34.04431],[-117.36432,34.043],[-117.36543,34.03969],[-117.36737,34.03823],[-117.36388,34.02664],[-117.37165,34.01937]],[[-117.35342,34.06701],[-117.35266,34.06694],[-117.35276,34.06954],[-117.34415,34.06873],[-117.34415,34.08057],[-117.34302,34.08071],[-117.34288,34.07985],[-117.34288,34.08141],[-117.33794,34.08143],[-117.33804,34.07869],[-117.3375,34.07867],[-117.33813,34.07781],[-117.3365,34.07771],[-117.33635,34.07946],[-117.33546,34.0794],[-117.3355,34.07536],[-117.33643,34.07404],[-117.33584,34.07358],[-117.33852,34.07316],[-117.33888,34.06874],[-117.33579,34.06801],[-117.33657,34.05838],[-117.33576,34.05653],[-117.33611,34.05392],[-117.34785,34.05211],[-117.34741,34.05495],[-117.34874,34.05454],[-117.34872,34.05587],[-117.35281,34.05589],[-117.35342,34.06701]],[[-117.28507,34.02585],[-117.28493,34.02679],[-117.28282,34.02802],[-117.28315,34.02883],[-117.28017,34.02914],[-117.27929,34.02589],[-117.27834,34.02569],[-117.27877,34.02418],[-117.27689,34.02217],[-117.28341,34.02238],[-117.28345,34.02584],[-117.28507,34.02585]]]},"properties":{"GEOID":"0614890","NAME":"Colton city","BASENAME":"Colton","STATE":"06","PLACE":"14890"}},{"type":"Feature","geometry":{"type":"Polygon","coordinates":[[[-117.43671,34.18147],[-117.43625,34.17888],[-117.43181,34.17611],[-117.43168,34.13589],[-117.42735,34.13587],[-117.42728,34.12134],[-117.40538,34.12134],[-117.40521,34.08497],[-117.39433,34.08499],[-117.3943,34.0836],[-117.39648,34.08364],[-117.39648,34.07863],[-117.39211,34.07863],[-117.39211,34.07955],[-117.39102,34.07955],[-117.39079,34.07522],[-117.39187,34.07408],[-117.38775,34.07409],[-117.38774,34.07049],[-117.3897,34.07049],[-117.3897,34.06839],[-117.38335,34.06849],[-117.38336,34.05772],[-117.38111,34.05776],[-117.38113,34.05103],[-117.37896,34.05104],[-117.37896,34.05049],[-117.38112,34.05049],[-117.38113,34.04981],[-117.37643,34.04991],[-117.37611,34.04758],[-117.37335,34.04825],[-117.37334,34.04676],[-117.38775,34.04225],[-117.38631,34.04261],[-117.38631,34.04051],[-117.38764,34.04009],[-117.38909,34.0378],[-117.39059,34.0378],[-117.39059,34.03387],[-117.38329,34.03389],[-117.38329,34.04075],[-117.38169,34.04052],[-117.37975,34.03862],[-117.37971,34.04052],[-117.37131,34.03481],[-117.36776,34.0335],[-117.36715,34.03109],[-117.37209,34.0266],[-117.36627,34.02455],[-117.36388,34.02664],[-117.36737,34.03823],[-117.36543,34.03969],[-117.36432,34.043],[-117.36021,34.04431],[-117.35678,34.04887],[-117.35799,34.0516],[-117.35711,34.0519],[-117.35713,34.05281],[-117.3581,34.05248],[-117.3581,34.05598],[-117.36151,34.05597],[-117.36149,34.05775],[-117.36584,34.05776],[-117.36592,34.07056],[-117.36809,34.07055],[-117.3681,34.0723],[-117.3659,34.07229],[-117.36595,34.08319],[-117.3594,34.0832],[-117.35944,34.0905],[-117.35724,34.09047],[-117.35728,34.09955],[-117.3552,34.09956],[-117.35519,34.1014],[-117.35292,34.10143],[-117.35293,34.10679],[-117.35182,34.10678],[-117.35181,34.1086],[-117.35729,34.10859],[-117.3573,34.1104],[-117.35293,34.1104],[-117.35294,34.1168],[-117.34859,34.1168],[-117.34858,34.11589],[-117.3411,34.1159],[-117.34246,34.11789],[-117.34861,34.12137],[-117.34861,34.12317],[-117.35182,34.12587],[-117.35032,34.12482],[-117.35008,34.12625],[-117.3486,34.12628],[-117.34863,34.13601],[-117.36394,34.13611],[-117.36392,34.13776],[-117.3651,34.13773],[-117.36614,34.13917],[-117.36465,34.14283],[-117.36467,34.14618],[-117.36755,34.14871],[-117.37622,34.15184],[-117.37183,34.15301],[-117.37123,34.1515],[-117.37139,34.15314],[-117.36985,34.15357],[-117.38343,34.16487],[-117.38646,34.16893],[-117.39226,34.15915],[-117.39404,34.15821],[-117.39905,34.15783],[-117.40255,34.15984],[-117.40002,34.16264],[-117.40497,34.16302],[-117.40442,34.1664],[-117.40778,34.16817],[-117.40831,34.17101],[-117.40948,34.17093],[-117.40547,34.17514],[-117.41185,34.17842],[-117.41152,34.17881],[-117.42977,34.18726],[-117.43671,34.18147]],[[-117.40763,34.1395],[-117.4076,34.14371],[-117.40538,34.14373],[-117.40538,34.14457],[-117.40101,34.14456],[-117.40102,34.14316],[-117.39668,34.14316],[-117.39669,34.1422],[-117.39884,34.14222],[-117.39883,34.14126],[-117.39986,34.14127],[-117.3995,34.1404],[-117.40102,34.14041],[-117.40105,34.14252],[-117.40255,34.14252],[-117.40217,34.1404],[-117.40318,34.1404],[-117.40321,34.1414],[-117.4054,34.14139],[-117.4054,34.13949],[-117.40763,34.1395]],[[-117.39456,34.1532],[-117.39311,34.15473],[-117.38782,34.15318],[-117.38858,34.15232],[-117.38371,34.1512],[-117.37938,34.14894],[-117.37939,34.14829],[-117.37904,34.1488],[-117.3756,34.14739],[-117.37184,34.14377],[-117.37257,34.14423],[-117.37764,34.13945],[-117.37374,34.13702],[-117.37402,34.13598],[-117.37926,34.13594],[-117.37923,34.1296],[-117.38009,34.12981],[-117.38011,34.13069],[-117.38578,34.13049],[-117.38575,34.13448],[-117.38358,34.13374],[-117.38357,34.13592],[-117.37937,34.13594],[-117.37938,34.13858],[-117.38229,34.13857],[-117.38229,34.13941],[-117.37922,34.13941],[-117.37924,34.14042],[-117.37701,34.14244],[-117.3866,34.14835],[-117.38712,34.14778],[-117.38798,34.14831],[-117.38746,34.14889],[-117.39456,34.1532]],[[-117.38657,34.13952],[-117.38655,34.14113],[-117.38362,34.14126],[-117.38357,34.13751],[-117.38584,34.1375],[-117.38568,34.13952],[-117.38657,34.13952]]]},"properties":{"GEOID":"0660466","NAME":"Rialto city","BASENAME":"Rialto","STATE":"06","PLACE":"60466"}},{"type":"Feature","geometry":{"type":"Polygon","coordinates":[[[-117.26106,34.10638],[-117.25972,34.10458],[-117.24905,34.10463],[-117.24809,34.10505],[-117.24808,34.10833],[-117.24452,34.10891],[-117.24371,34.10944],[-117.24369,34.11172],[-117.23926,34.11185],[-117.23927,34.11402],[-117.23712,34.11406],[-117.23711,34.10845],[-117.23448,34.10847],[-117.23384,34.10923],[-117.23332,34.10847],[-117.23197,34.10875],[-117.23198,34.11037],[-117.22621,34.11038],[-117.2262,34.10846],[-117.22547,34.10846],[-117.2262,34.10676],[-117.20883,34.10619],[-117.2088,34.10263],[-117.19942,34.10259],[-117.19987,34.09904],[-117.13453,34.09908],[-117.13457,34.09181],[-117.11243,34.09139],[-117.11244,34.08943],[-117.10796,34.08892],[-117.10508,34.089],[-117.10506,34.0902],[-117.10347,34.09117],[-117.09476,34.09125],[-117.09499,34.0768],[-117.06858,34.07702],[-117.06869,34.07823],[-117.06033,34.0821],[-117.06021,34.08418],[-117.06454,34.08416],[-117.06448,34.08778],[-117.06888,34.08775],[-117.06886,34.09152],[-117.08612,34.09126],[-117.08612,34.09855],[-117.09483,34.09849],[-117.09496,34.1057],[-117.09932,34.10566],[-117.09945,34.10935],[-117.12575,34.10971],[-117.12586,34.11671],[-117.13028,34.11686],[-117.13017,34.11338],[-117.13242,34.11345],[-117.13244,34.11431],[-117.13469,34.11523],[-117.13472,34.11693],[-117.13914,34.11701],[-117.13926,34.13489],[-117.16508,34.13532],[-117.16508,34.14246],[-117.16758,34.14253],[-117.17291,34.13664],[-117.17573,34.13565],[-117.18249,34.13568],[-117.18251,34.13464],[-117.18069,34.13462],[-117.17997,34.1329],[-117.18063,34.13243],[-117.18253,34.13361],[-117.18524,34.1338],[-117.18703,34.13571],[-117.20215,34.13577],[-117.20217,34.13214],[-117.19555,34.13212],[-117.19554,34.12851],[-117.20004,34.12851],[-117.20004,34.12717],[-117.2018,34.12764],[-117.20209,34.12849],[-117.20875,34.12852],[-117.21084,34.12932],[-117.20876,34.1296],[-117.20876,34.13214],[-117.21495,34.13155],[-117.21313,34.13017],[-117.21314,34.12708],[-117.20876,34.1266],[-117.20875,34.12487],[-117.21008,34.12467],[-117.2101,34.12391],[-117.20876,34.12393],[-117.20946,34.1234],[-117.21241,34.12337],[-117.21245,34.12626],[-117.2132,34.12669],[-117.21745,34.12673],[-117.21823,34.12856],[-117.22185,34.12856],[-117.22184,34.13581],[-117.22622,34.13582],[-117.22622,34.13713],[-117.22848,34.13777],[-117.22878,34.13468],[-117.23065,34.13498],[-117.23063,34.13049],[-117.2283,34.13037],[-117.22839,34.12857],[-117.22729,34.12857],[-117.22728,34.12128],[-117.232,34.1213],[-117.23201,34.12303],[-117.23275,34.12324],[-117.24145,34.12337],[-117.24145,34.12584],[-117.23929,34.12584],[-117.23929,34.12858],[-117.2524,34.12861],[-117.25253,34.12131],[-117.24839,34.12078],[-117.2496,34.11993],[-117.25239,34.11995],[-117.25156,34.1102],[-117.25705,34.1102],[-117.2566,34.11576],[-117.261,34.11576],[-117.26106,34.10638]]]},"properties":{"GEOID":"0633588","NAME":"Highland city","BASENAME":"Highland","STATE":"06","PLACE":"33588"}},{"type":"Feature","geometry":{"type":"Polygon","coordinates":[[[-117.73534,34.0188],[-117.73051,34.01885],[-117.72864,34.02243],[-117.72421,34.02245],[-117.72426,34.02513],[-117.72106,34.02614],[-117.71985,34.02616],[-117.71987,34.02463],[-117.71769,34.02336],[-117.71766,34.02138],[-117.71548,34.0214],[-117.71549,34.02208],[-117.71327,34.02075],[-117.7133,34.01891],[-117.71546,34.01892],[-117.71539,34.01256],[-117.71649,34.01255],[-117.71647,34.01165],[-117.73376,34.0115],[-117.72545,34.00306],[-117.72068,33.99516],[-117.71651,33.99065],[-117.71621,33.98987],[-117.72093,33.98986],[-117.7209,33.98697],[-117.71732,33.98628],[-117.71733,33.98764],[-117.71507,33.98765],[-117.71507,33.98902],[-117.70896,33.98273],[-117.69719,33.98277],[-117.69689,33.98131],[-117.6919,33.97752],[-117.6896,33.97387],[-117.68728,33.97269],[-117.68729,33.97142],[-117.68336,33.96893],[-117.67941,33.96241],[-117.67481,33.95999],[-117.67327,33.95592],[-117.67439,33.95524],[-117.67311,33.95378],[-117.67135,33.95485],[-117.66623,33.94906],[-117.67402,33.94687],[-117.65997,33.93125],[-117.65521,33.92408],[-117.65516,33.92485],[-117.61095,33.92415],[-117.61094,33.97181],[-117.5998,33.97531],[-117.60681,33.97541],[-117.60682,33.98332],[-117.65063,33.98306],[-117.65063,34.01933],[-117.65448,34.01931],[-117.65457,34.0301],[-117.65673,34.03008],[-117.65676,34.03197],[-117.66778,34.03192],[-117.66764,34.03029],[-117.6726,34.03024],[-117.672,34.03193],[-117.67854,34.03183],[-117.67856,34.03365],[-117.68184,34.03363],[-117.68182,34.03543],[-117.68075,34.03543],[-117.68077,34.04836],[-117.69176,34.04764],[-117.6917,34.04082],[-117.7026,34.04075],[-117.70261,34.04257],[-117.71132,34.04251],[-117.7113,34.0407],[-117.71026,34.0407],[-117.71017,34.03889],[-117.71349,34.03886],[-117.71347,34.03522],[-117.71123,34.03521],[-117.71123,34.03347],[-117.71342,34.03343],[-117.71346,34.03182],[-117.71559,34.03342],[-117.71779,34.0334],[-117.71779,34.03158],[-117.71557,34.0316],[-117.71487,34.02994],[-117.7134,34.03031],[-117.71338,34.02799],[-117.71553,34.02797],[-117.71555,34.02976],[-117.71773,34.02977],[-117.71771,34.02818],[-117.71991,34.02796],[-117.71993,34.0312],[-117.7194,34.03122],[-117.71996,34.03339],[-117.72427,34.03336],[-117.72432,34.04063],[-117.72601,34.04113],[-117.72736,34.03739],[-117.73012,34.02137],[-117.73534,34.0188]]]},"properties":{"GEOID":"0613210","NAME":"Chino city","BASENAME":"Chino","STATE":"06","PLACE":"13210"}},{"type":"Feature","geometry":{"type":"MultiPolygon","coordinates":[[[[-117.24374,34.0828],[-117.2437,34.0671],[-117.23847,34.06714],[-117.23586,34.06566],[-117.22945,34.06536],[-117.22709,34.06417],[-117.22404,34.05767],[-117.2196,34.05585],[-117.21936,34.04826],[-117.21739,34.04587],[-117.21726,34.03587],[-117.21239,34.03434],[-117.20849,34.03167],[-117.2081,34.01845],[-117.22553,34.01797],[-117.22537,34.00419],[-117.14221,34.00429],[-117.12132,34.00348],[-117.10231,34.0045],[-117.10351,34.00595],[-117.10759,34.00764],[-117.10416,34.00982],[-117.10526,34.01041],[-117.10733,34.00985],[-117.10573,34.01116],[-117.10708,34.0126],[-117.10816,34.01601],[-117.10915,34.01654],[-117.10924,34.01753],[-117.10392,34.01755],[-117.10382,34.01936],[-117.10504,34.01936],[-117.10666,34.02244],[-117.1096,34.02246],[-117.11287,34.02379],[-117.11396,34.02309],[-117.11431,34.02411],[-117.12598,34.02703],[-117.12623,34.02815],[-117.13719,34.03265],[-117.13761,34.03346],[-117.13453,34.03389],[-117.13456,34.03658],[-117.13881,34.0366],[-117.13881,34.03924],[-117.13797,34.03925],[-117.13884,34.03989],[-117.13887,34.04293],[-117.13665,34.04292],[-117.13665,34.04476],[-117.13884,34.04477],[-117.13896,34.04839],[-117.13666,34.04841],[-117.13669,34.05546],[-117.13902,34.0555],[-117.139,34.05738],[-117.13664,34.05756],[-117.1367,34.05924],[-117.13899,34.05917],[-117.13898,34.06286],[-117.13464,34.06811],[-117.13494,34.06889],[-117.1382,34.06893],[-117.13889,34.06958],[-117.13885,34.07739],[-117.13662,34.07735],[-117.13661,34.0789],[-117.13732,34.07916],[-117.13735,34.08099],[-117.13889,34.08102],[-117.13886,34.08459],[-117.13639,34.08456],[-117.13861,34.0913],[-117.12131,34.09109],[-117.12167,34.07349],[-117.11591,34.0734],[-117.11594,34.07161],[-117.11377,34.07189],[-117.11374,34.07343],[-117.10603,34.07328],[-117.10559,34.0696],[-117.10106,34.06953],[-117.10103,34.07222],[-117.09942,34.07317],[-117.08627,34.07328],[-117.08623,34.07478],[-117.07865,34.07485],[-117.07866,34.07428],[-117.07492,34.07409],[-117.07492,34.07331],[-117.07629,34.07294],[-117.07555,34.07249],[-117.07656,34.0721],[-117.07663,34.06903],[-117.07771,34.06887],[-117.07783,34.06608],[-117.08208,34.0661],[-117.08216,34.06253],[-117.0695,34.0626],[-117.06807,34.07341],[-117.06987,34.0734],[-117.07031,34.07416],[-117.07021,34.07335],[-117.07321,34.07272],[-117.07319,34.07335],[-117.07458,34.07331],[-117.07459,34.07404],[-117.07063,34.07533],[-117.06873,34.07482],[-117.06805,34.07647],[-117.06465,34.07647],[-117.06468,34.07508],[-117.05649,34.07536],[-117.05646,34.07701],[-117.05241,34.077],[-117.0524,34.08064],[-117.06035,34.08059],[-117.06057,34.077],[-117.10367,34.07676],[-117.10363,34.08125],[-117.11081,34.08451],[-117.11124,34.0856],[-117.11256,34.08608],[-117.11346,34.0896],[-117.11244,34.08926],[-117.11243,34.09139],[-117.13457,34.09181],[-117.13453,34.09908],[-117.19987,34.09904],[-117.19942,34.10259],[-117.19999,34.10262],[-117.2088,34.10263],[-117.20877,34.0991],[-117.21529,34.09923],[-117.21746,34.09824],[-117.21746,34.09713],[-117.22614,34.09429],[-117.22614,34.09209],[-117.23356,34.09212],[-117.24269,34.08586],[-117.24271,34.08327],[-117.24374,34.0828]],[[-117.22625,34.07686],[-117.22621,34.08484],[-117.21744,34.08484],[-117.21745,34.08845],[-117.21307,34.08837],[-117.21307,34.09027],[-117.20826,34.08897],[-117.20099,34.09079],[-117.20116,34.09195],[-117.19999,34.09192],[-117.20052,34.07738],[-117.1994,34.07739],[-117.20003,34.0702],[-117.22178,34.07032],[-117.22177,34.07396],[-117.22624,34.07397],[-117.22625,34.07686]]],[[[-117.09501,34.07243],[-117.09503,34.07197],[-117.09438,34.07198],[-117.09501,34.07243]]],[[[-117.09974,34.07091],[-117.0996,34.07074],[-117.0995,34.07074],[-117.09974,34.07091]]],[[[-117.10303,34.06776],[-117.10303,34.06757],[-117.10282,34.06757],[-117.10303,34.06776]]],[[[-117.12465,34.04645],[-117.12468,34.04562],[-117.12139,34.04642],[-117.12465,34.04645]]],[[[-117.1255,34.07594],[-117.12434,34.07713],[-117.12547,34.07722],[-117.1255,34.07594]]],[[[-117.24904,34.07014],[-117.24904,34.0694],[-117.24808,34.0693],[-117.24904,34.07014]]]]},"properties":{"GEOID":"0659962","NAME":"Redlands city","BASENAME":"Redlands","STATE":"06","PLACE":"59962"}},{"type":"Feature","geometry":{"type":"Polygon","coordinates":[[[-114.66229,34.86455],[-114.66224,34.8626],[-114.65235,34.85517],[-114.64456,34.85168],[-114.64404,34.74927],[-114.59143,34.74939],[-114.59162,34.77865],[-114.56154,34.77857],[-114.56518,34.78598],[-114.57101,34.79429],[-114.57447,34.80421],[-114.57645,34.8153],[-114.58113,34.82611],[-114.58684,34.83567],[-114.59234,34.84115],[-114.60065,34.84736],[-114.62192,34.85824],[-114.62878,34.86433],[-114.63305,34.86997],[-114.63518,34.875],[-114.63677,34.88571],[-114.63543,34.89519],[-114.63088,34.90726],[-114.63055,34.91185],[-114.63324,34.92123],[-114.63325,34.92412],[-114.64456,34.92409],[-114.64503,34.89501],[-114.6621,34.89496],[-114.66229,34.86455]],[[-114.61834,34.85233],[-114.61834,34.85318],[-114.61392,34.85315],[-114.61395,34.85141],[-114.61821,34.85154],[-114.61834,34.85233]]]},"properties":{"GEOID":"0650734","NAME":"Needles city","BASENAME":"Needles","STATE":"06","PLACE":"50734"}},{"type":"Feature","geometry":{"type":"Polygon","coordinates":[[[-117.12623,34.02815],[-117.12598,34.02703],[-117.11431,34.02411],[-117.11396,34.02309],[-117.11287,34.02379],[-117.1096,34.02246],[-117.10666,34.02244],[-117.10504,34.01936],[-117.10382,34.01936],[-117.10392,34.01755],[-117.10924,34.01753],[-117.10915,34.01654],[-117.10816,34.01601],[-117.10708,34.0126],[-117.10573,34.01116],[-117.10733,34.00985],[-117.10526,34.01041],[-117.10416,34.00982],[-117.10759,34.00764],[-117.10232,34.00478],[-117.1039,34.00438],[-117.06917,34.00389],[-117.03446,34.00488],[-116.99898,34.00399],[-116.96307,34.00481],[-116.96286,34.01916],[-116.96742,34.01905],[-116.96745,34.01192],[-116.97404,34.01188],[-116.97401,34.01012],[-116.98042,34.01007],[-116.98125,34.01852],[-116.98636,34.01868],[-116.98611,34.02228],[-116.99041,34.02242],[-116.99032,34.0261],[-116.98044,34.02584],[-116.98053,34.03285],[-116.99022,34.03321],[-116.99034,34.02966],[-116.99555,34.0298],[-116.99553,34.03347],[-116.9998,34.03351],[-116.9995,34.04894],[-116.99074,34.05275],[-116.99076,34.05601],[-116.98636,34.05627],[-116.98635,34.06342],[-117.00818,34.06288],[-117.00828,34.07721],[-117.05646,34.07701],[-117.05645,34.0698],[-117.05222,34.06978],[-117.05195,34.0557],[-117.06057,34.05557],[-117.06059,34.04847],[-117.1042,34.048],[-117.1041,34.04109],[-117.11277,34.04109],[-117.11279,34.03387],[-117.12323,34.03389],[-117.12323,34.0304],[-117.12475,34.02792],[-117.12623,34.02815]]]},"properties":{"GEOID":"0687042","NAME":"Yucaipa city","BASENAME":"Yucaipa","STATE":"06","PLACE":"87042"}},{"type":"Feature","geometry":{"type":"Polygon","coordinates":[[[-117.44062,34.35422],[-117.43346,34.35419],[-117.43345,34.35843],[-117.42861,34.35847],[-117.42864,34.36158],[-117.4248,34.36156],[-117.42485,34.36892],[-117.41626,34.36883],[-117.41637,34.37608],[-117.42036,34.37603],[-117.41769,34.37925],[-117.40975,34.37918],[-117.4086,34.38303],[-117.3998,34.38309],[-117.40716,34.39027],[-117.40371,34.39036],[-117.40289,34.39181],[-117.39896,34.39403],[-117.39909,34.39757],[-117.39683,34.39775],[-117.39741,34.40132],[-117.39443,34.40484],[-117.38817,34.4049],[-117.38815,34.41215],[-117.38156,34.41222],[-117.38147,34.40488],[-117.3727,34.40489],[-117.37266,34.40129],[-117.36722,34.40127],[-117.36723,34.40303],[-117.36393,34.40308],[-117.36387,34.39766],[-117.35957,34.3977],[-117.3597,34.40487],[-117.36398,34.40487],[-117.36408,34.40666],[-117.36513,34.40645],[-117.36508,34.40486],[-117.37156,34.40487],[-117.3716,34.40853],[-117.36411,34.40851],[-117.36411,34.41224],[-117.36193,34.41225],[-117.3619,34.41034],[-117.35692,34.41036],[-117.35527,34.40703],[-117.35502,34.36871],[-117.36371,34.36885],[-117.36367,34.36154],[-117.35497,34.36152],[-117.35496,34.36351],[-117.35241,34.36486],[-117.34629,34.36578],[-117.34633,34.36863],[-117.28968,34.36913],[-117.2897,34.36552],[-117.29843,34.36553],[-117.29844,34.36192],[-117.30277,34.36191],[-117.30273,34.35544],[-117.30176,34.35544],[-117.30175,34.35463],[-117.31152,34.35464],[-117.31152,34.35101],[-117.31582,34.35091],[-117.31581,34.3473],[-117.32454,34.34713],[-117.32449,34.34362],[-117.32888,34.34353],[-117.32876,34.34003],[-117.33297,34.34004],[-117.33298,34.33638],[-117.35052,34.33634],[-117.35047,34.32908],[-117.35491,34.32904],[-117.35489,34.3254],[-117.36139,34.32545],[-117.36137,34.32183],[-117.37009,34.32185],[-117.37009,34.32274],[-117.37121,34.32275],[-117.37115,34.32634],[-117.37228,34.32638],[-117.37229,34.32817],[-117.37337,34.32817],[-117.37336,34.32727],[-117.37552,34.32637],[-117.37551,34.32366],[-117.37659,34.32366],[-117.37658,34.32275],[-117.38086,34.32274],[-117.38093,34.31972],[-117.37658,34.31897],[-117.37662,34.31453],[-117.37856,34.31464],[-117.37854,34.31099],[-117.38085,34.31098],[-117.38085,34.30732],[-117.38521,34.30732],[-117.38533,34.30357],[-117.3635,34.30364],[-117.36351,34.31669],[-117.35032,34.31425],[-117.35025,34.30923],[-117.34586,34.30924],[-117.34598,34.31102],[-117.33525,34.31104],[-117.33523,34.30749],[-117.32791,34.30755],[-117.32008,34.31116],[-117.31334,34.31115],[-117.31336,34.31291],[-117.31218,34.31473],[-117.31064,34.31471],[-117.31063,34.31273],[-117.31198,34.31114],[-117.30952,34.31112],[-117.30911,34.30771],[-117.30767,34.30753],[-117.29366,34.3076],[-117.29365,34.31118],[-117.25902,34.31096],[-117.2588,34.32597],[-117.2504,34.32565],[-117.25028,34.33119],[-117.2524,34.33125],[-117.25352,34.32761],[-117.25879,34.32779],[-117.25929,34.32596],[-117.26641,34.32606],[-117.26641,34.3268],[-117.26754,34.32679],[-117.26803,34.32603],[-117.2762,34.3258],[-117.27627,34.33309],[-117.28942,34.33295],[-117.28945,34.33655],[-117.28507,34.33659],[-117.2851,34.34012],[-117.27197,34.34026],[-117.27199,34.34382],[-117.26492,34.34392],[-117.26492,34.34465],[-117.26328,34.34467],[-117.26327,34.34395],[-117.25307,34.34408],[-117.25088,34.3461],[-117.25012,34.34525],[-117.24899,34.34595],[-117.24803,34.3474],[-117.248,34.35053],[-117.25349,34.35042],[-117.25354,34.35478],[-117.25464,34.35473],[-117.25466,34.35845],[-117.26341,34.35834],[-117.26347,34.3692],[-117.24154,34.36961],[-117.2418,34.40585],[-117.23775,34.40591],[-117.23821,34.43498],[-117.24199,34.43494],[-117.24218,34.44583],[-117.24643,34.4458],[-117.24662,34.45307],[-117.25091,34.45304],[-117.25102,34.45667],[-117.25531,34.45664],[-117.25546,34.47094],[-117.27821,34.47136],[-117.34602,34.47046],[-117.3718,34.43751],[-117.38606,34.43754],[-117.38607,34.4355],[-117.40407,34.44537],[-117.41083,34.43583],[-117.41038,34.43401],[-117.41212,34.43404],[-117.41776,34.4267],[-117.40811,34.42672],[-117.40817,34.40499],[-117.41708,34.40494],[-117.41697,34.39756],[-117.42549,34.39754],[-117.4254,34.39572],[-117.4211,34.39575],[-117.42105,34.39392],[-117.42535,34.39397],[-117.42529,34.3913],[-117.42246,34.39127],[-117.42243,34.39032],[-117.42022,34.39031],[-117.42016,34.38846],[-117.42519,34.38759],[-117.42497,34.37585],[-117.4292,34.37576],[-117.42914,34.37247],[-117.42761,34.37243],[-117.42714,34.37075],[-117.42817,34.36896],[-117.43344,34.36903],[-117.43343,34.36516],[-117.43564,34.36436],[-117.43564,34.36342],[-117.43783,34.36337],[-117.43783,34.35788],[-117.44062,34.35422]]]},"properties":{"GEOID":"0633434","NAME":"Hesperia city","BASENAME":"Hesperia","STATE":"06","PLACE":"33434"}},{"type":"Feature","geometry":{"type":"Polygon","coordinates":[[[-117.46872,34.48413],[-117.46864,34.47767],[-117.43478,34.47755],[-117.43459,34.46324],[-117.40838,34.46303],[-117.40848,34.45583],[-117.41714,34.4558],[-117.41712,34.45117],[-117.39766,34.44234],[-117.38607,34.4355],[-117.38606,34.43754],[-117.3718,34.43751],[-117.34602,34.47046],[-117.27821,34.47136],[-117.25404,34.47095],[-117.25351,34.47452],[-117.2542,34.48096],[-117.25889,34.4814],[-117.25982,34.48047],[-117.26035,34.48127],[-117.26285,34.48019],[-117.26222,34.47912],[-117.26524,34.47861],[-117.26765,34.47591],[-117.26842,34.4763],[-117.26844,34.47833],[-117.27732,34.4783],[-117.27755,34.51466],[-117.28014,34.51464],[-117.28359,34.52664],[-117.28423,34.52649],[-117.285,34.52914],[-117.28654,34.52913],[-117.28655,34.53232],[-117.28747,34.53315],[-117.28524,34.53513],[-117.28219,34.53594],[-117.28248,34.55665],[-117.28173,34.55708],[-117.28186,34.56586],[-117.26869,34.58031],[-117.26874,34.58632],[-117.32583,34.58632],[-117.32573,34.59363],[-117.33195,34.59364],[-117.33262,34.59331],[-117.33132,34.58743],[-117.33205,34.58227],[-117.32854,34.57703],[-117.32311,34.57427],[-117.33248,34.57469],[-117.33442,34.57643],[-117.33448,34.58388],[-117.34438,34.58397],[-117.34487,34.58527],[-117.33889,34.58514],[-117.33888,34.58637],[-117.34943,34.60115],[-117.35105,34.60847],[-117.35317,34.60844],[-117.35642,34.62654],[-117.35658,34.64516],[-117.39193,34.64537],[-117.39166,34.61582],[-117.3899,34.61583],[-117.38991,34.60123],[-117.40083,34.60119],[-117.40074,34.57931],[-117.39852,34.57931],[-117.39848,34.57205],[-117.37424,34.57222],[-117.37406,34.55728],[-117.36409,34.55722],[-117.36424,34.543],[-117.39938,34.54313],[-117.39954,34.50668],[-117.45101,34.50649],[-117.45095,34.48478],[-117.46825,34.48507],[-117.46872,34.48413]],[[-117.38183,34.51105],[-117.38178,34.51397],[-117.36434,34.51401],[-117.36434,34.50772],[-117.38178,34.50723],[-117.38183,34.51105]],[[-117.36426,34.49947],[-117.35914,34.50671],[-117.35118,34.50672],[-117.35117,34.5031],[-117.34675,34.50311],[-117.34677,34.50492],[-117.3345,34.50509],[-117.33456,34.49366],[-117.3323,34.4935],[-117.3328,34.49239],[-117.3349,34.49236],[-117.33577,34.49054],[-117.34058,34.48639],[-117.34679,34.48616],[-117.34679,34.49222],[-117.36011,34.4922],[-117.36008,34.49945],[-117.36426,34.49947]],[[-117.34325,34.57491],[-117.33529,34.57587],[-117.33583,34.5752],[-117.33674,34.5758],[-117.33987,34.57544],[-117.3394,34.5742],[-117.3414,34.57511],[-117.34325,34.57491]],[[-117.33849,34.57903],[-117.33849,34.57972],[-117.33559,34.57969],[-117.3356,34.579],[-117.33849,34.57903]]]},"properties":{"GEOID":"0682590","NAME":"Victorville city","BASENAME":"Victorville","STATE":"06","PLACE":"82590"}},{"type":"Feature","geometry":{"type":"Polygon","coordinates":[[[-117.28734,34.53355],[-117.2821,34.52911],[-117.27922,34.52388],[-117.27211,34.51872],[-117.26455,34.51595],[-117.25996,34.51055],[-117.25912,34.50209],[-117.25368,34.49372],[-117.2521,34.48947],[-117.25422,34.48215],[-117.25355,34.47287],[-117.25402,34.47097],[-117.25546,34.47094],[-117.25531,34.45664],[-117.25102,34.45667],[-117.25091,34.45304],[-117.24662,34.45307],[-117.24643,34.4458],[-117.24218,34.44583],[-117.24199,34.43494],[-117.23384,34.43503],[-117.23385,34.43685],[-117.22949,34.43689],[-117.22951,34.44052],[-117.23174,34.44051],[-117.23171,34.44232],[-117.22305,34.44246],[-117.20762,34.44255],[-117.20744,34.42803],[-117.18994,34.42805],[-117.18998,34.43527],[-117.17258,34.43544],[-117.17269,34.46444],[-117.15519,34.46461],[-117.15562,34.55158],[-117.15072,34.55164],[-117.15073,34.55317],[-117.15563,34.55319],[-117.1557,34.55682],[-117.1539,34.55681],[-117.15376,34.57156],[-117.17144,34.57161],[-117.17158,34.59365],[-117.16285,34.59367],[-117.16293,34.60103],[-117.15419,34.60105],[-117.15417,34.60487],[-117.15425,34.61584],[-117.17181,34.61582],[-117.1718,34.6452],[-117.21508,34.64545],[-117.21637,34.64744],[-117.22885,34.63013],[-117.26016,34.5904],[-117.28186,34.56586],[-117.28173,34.55708],[-117.28248,34.55665],[-117.28219,34.53594],[-117.28496,34.53526],[-117.28734,34.53355]],[[-117.23126,34.60843],[-117.22481,34.60848],[-117.22476,34.6231],[-117.21593,34.62304],[-117.21605,34.63781],[-117.20717,34.63778],[-117.20697,34.60103],[-117.23019,34.60106],[-117.23019,34.60292],[-117.23126,34.60292],[-117.23126,34.60843]]]},"properties":{"GEOID":"0602364","NAME":"Apple Valley town","BASENAME":"Apple Valley","STATE":"06","PLACE":"02364"}},{"type":"Feature","geometry":{"type":"Polygon","coordinates":[[[-117.80254,33.97555],[-117.80244,33.96831],[-117.79367,33.96814],[-117.79355,33.95382],[-117.73809,33.91374],[-117.6793,33.87762],[-117.67305,33.87107],[-117.67231,33.8712],[-117.67077,33.87427],[-117.6732,33.87543],[-117.66896,33.88083],[-117.6699,33.88277],[-117.67274,33.88539],[-117.67277,33.88673],[-117.67628,33.88864],[-117.65483,33.88868],[-117.6543,33.90322],[-117.65558,33.90985],[-117.65521,33.92408],[-117.65997,33.93125],[-117.67402,33.94687],[-117.66623,33.94906],[-117.67135,33.95485],[-117.67311,33.95378],[-117.67439,33.95524],[-117.67327,33.95592],[-117.67481,33.95999],[-117.67941,33.96241],[-117.68336,33.96893],[-117.68729,33.97142],[-117.68728,33.97269],[-117.6896,33.97387],[-117.6919,33.97752],[-117.69689,33.98131],[-117.69719,33.98277],[-117.70896,33.98273],[-117.71507,33.98902],[-117.71507,33.98765],[-117.71733,33.98764],[-117.71732,33.98628],[-117.7209,33.98697],[-117.72093,33.98986],[-117.71621,33.98987],[-117.72068,33.99516],[-117.72515,34.00268],[-117.73376,34.0115],[-117.746,34.02012],[-117.76766,34.02351],[-117.76705,34.01119],[-117.76753,34.00469],[-117.78503,34.00485],[-117.80254,33.97555]]]},"properties":{"GEOID":"0613214","NAME":"Chino Hills city","BASENAME":"Chino Hills","STATE":"06","PLACE":"13214"}},{"type":"Feature","geometry":{"type":"Polygon","coordinates":[[[-117.63779,34.15908],[-117.63781,34.15459],[-117.63625,34.14745],[-117.63004,34.13621],[-117.62704,34.13257],[-117.6252,34.13257],[-117.62325,34.13069],[-117.62005,34.1216],[-117.62127,34.12159],[-117.62196,34.12303],[-117.62302,34.12285],[-117.62346,34.11858],[-117.6249,34.11855],[-117.62596,34.11643],[-117.6266,34.118],[-117.62847,34.11645],[-117.62848,34.11207],[-117.62751,34.1117],[-117.62744,34.10829],[-117.62851,34.1083],[-117.62857,34.09215],[-117.60881,34.09206],[-117.60272,34.08362],[-117.60111,34.07755],[-117.52403,34.07718],[-117.52382,34.08985],[-117.5151,34.08937],[-117.51454,34.12146],[-117.51366,34.12144],[-117.47867,34.15045],[-117.48833,34.15053],[-117.48816,34.1794],[-117.50563,34.17924],[-117.52324,34.17748],[-117.54056,34.17931],[-117.55376,34.17934],[-117.55407,34.17234],[-117.55862,34.17239],[-117.55817,34.17954],[-117.5746,34.17957],[-117.5757,34.17169],[-117.57553,34.16504],[-117.62791,34.16515],[-117.62788,34.17241],[-117.63226,34.17239],[-117.63225,34.16875],[-117.63665,34.16877],[-117.63666,34.16184],[-117.63776,34.16181],[-117.63779,34.15908]]]},"properties":{"GEOID":"0659451","NAME":"Rancho Cucamonga city","BASENAME":"Rancho Cucamonga","STATE":"06","PLACE":"59451"}},{"type":"Feature","geometry":{"type":"MultiPolygon","coordinates":[[[[-117.40244,34.21324],[-117.39205,34.20368],[-117.38017,34.17937],[-117.3802,34.17453],[-117.37043,34.17451],[-117.36718,34.16647],[-117.36606,34.16681],[-117.36555,34.16622],[-117.36563,34.16817],[-117.36371,34.17446],[-117.35334,34.17445],[-117.35236,34.17506],[-117.35139,34.17402],[-117.35984,34.16614],[-117.35343,34.16611],[-117.35333,34.1677],[-117.35028,34.16763],[-117.35028,34.16843],[-117.34858,34.16838],[-117.34648,34.16972],[-117.3311,34.15355],[-117.33113,34.14549],[-117.3322,34.14548],[-117.33206,34.1415],[-117.33111,34.14149],[-117.33112,34.13616],[-117.33549,34.13613],[-117.33549,34.13696],[-117.3382,34.13697],[-117.33839,34.13788],[-117.33986,34.13789],[-117.3458,34.14288],[-117.34581,34.13604],[-117.34863,34.13601],[-117.3486,34.12628],[-117.35008,34.12625],[-117.35032,34.12482],[-117.35182,34.12587],[-117.34861,34.12317],[-117.34861,34.12137],[-117.34246,34.11789],[-117.3411,34.1159],[-117.34858,34.11589],[-117.34859,34.1168],[-117.35294,34.1168],[-117.35293,34.1104],[-117.3573,34.1104],[-117.35729,34.10859],[-117.35181,34.1086],[-117.35182,34.10678],[-117.35293,34.10679],[-117.35292,34.10143],[-117.35519,34.1014],[-117.3552,34.09956],[-117.35728,34.09955],[-117.35724,34.09047],[-117.35944,34.0905],[-117.3594,34.08501],[-117.34408,34.08503],[-117.34397,34.08662],[-117.33999,34.08662],[-117.3393,34.09234],[-117.33372,34.09183],[-117.33335,34.09611],[-117.33267,34.09605],[-117.33222,34.09436],[-117.32543,34.09527],[-117.32534,34.09218],[-117.32008,34.09214],[-117.32068,34.0943],[-117.31833,34.09431],[-117.3189,34.09214],[-117.31827,34.09214],[-117.31834,34.08852],[-117.31386,34.08851],[-117.31387,34.08489],[-117.30928,34.08498],[-117.30931,34.08242],[-117.30391,34.07711],[-117.30495,34.07533],[-117.30688,34.07409],[-117.30486,34.07408],[-117.30491,34.07125],[-117.30054,34.07121],[-117.30052,34.06865],[-117.29555,34.06821],[-117.29395,34.06491],[-117.28757,34.06397],[-117.28698,34.05056],[-117.27383,34.05296],[-117.27131,34.05488],[-117.27068,34.06133],[-117.26934,34.06412],[-117.25146,34.06684],[-117.2437,34.0671],[-117.24373,34.08303],[-117.24271,34.08327],[-117.24269,34.08586],[-117.23356,34.09212],[-117.22614,34.09209],[-117.22614,34.09429],[-117.21746,34.09713],[-117.21746,34.09824],[-117.21529,34.09923],[-117.20877,34.0991],[-117.20883,34.10619],[-117.2262,34.10676],[-117.22547,34.10846],[-117.2262,34.10846],[-117.22621,34.11038],[-117.23198,34.11037],[-117.23197,34.10875],[-117.23332,34.10847],[-117.23384,34.10923],[-117.23448,34.10847],[-117.23711,34.10845],[-117.23712,34.11406],[-117.23927,34.11402],[-117.23926,34.11185],[-117.24369,34.11172],[-117.24371,34.10944],[-117.24452,34.10891],[-117.24808,34.10833],[-117.24809,34.10505],[-117.24905,34.10463],[-117.27879,34.1046],[-117.27879,34.10646],[-117.27731,34.10647],[-117.2773,34.1074],[-117.27879,34.10784],[-117.27796,34.10928],[-117.27879,34.10927],[-117.27881,34.11024],[-117.27334,34.11021],[-117.27056,34.11275],[-117.27061,34.11021],[-117.27269,34.11021],[-117.27368,34.10834],[-117.27076,34.10834],[-117.27075,34.1074],[-117.26683,34.1074],[-117.2673,34.11021],[-117.26643,34.11021],[-117.26642,34.11298],[-117.26101,34.11297],[-117.261,34.11576],[-117.2566,34.11576],[-117.25705,34.1102],[-117.25156,34.1102],[-117.25239,34.11995],[-117.24838,34.1203],[-117.24896,34.12131],[-117.25356,34.12132],[-117.25355,34.12199],[-117.25455,34.122],[-117.25454,34.12132],[-117.25854,34.12133],[-117.25895,34.12225],[-117.26332,34.12133],[-117.26331,34.12253],[-117.26553,34.12171],[-117.26568,34.12863],[-117.25898,34.12863],[-117.25899,34.12959],[-117.25812,34.12959],[-117.25812,34.12863],[-117.25598,34.12802],[-117.25606,34.12983],[-117.25677,34.12983],[-117.25676,34.13314],[-117.25895,34.13314],[-117.25933,34.13385],[-117.25861,34.13506],[-117.25676,34.13498],[-117.25676,34.13342],[-117.25345,34.1334],[-117.25345,34.13263],[-117.25239,34.13348],[-117.25238,34.13227],[-117.25126,34.13227],[-117.25086,34.13436],[-117.24947,34.13435],[-117.24938,34.13245],[-117.24801,34.13314],[-117.24803,34.13586],[-117.24368,34.13587],[-117.24367,34.12858],[-117.23929,34.12858],[-117.23929,34.12584],[-117.24145,34.12584],[-117.24145,34.12337],[-117.23275,34.12324],[-117.23201,34.12303],[-117.232,34.1213],[-117.22728,34.12128],[-117.22729,34.12857],[-117.22839,34.12857],[-117.2283,34.13037],[-117.23063,34.13049],[-117.23065,34.13498],[-117.22878,34.13468],[-117.22848,34.13777],[-117.22622,34.13713],[-117.22622,34.13582],[-117.22184,34.13581],[-117.22185,34.12856],[-117.21823,34.12856],[-117.21745,34.12673],[-117.2132,34.12669],[-117.21245,34.12626],[-117.21241,34.12337],[-117.20946,34.1234],[-117.20876,34.12393],[-117.2101,34.12391],[-117.21008,34.12467],[-117.20875,34.12487],[-117.20876,34.1266],[-117.21314,34.12708],[-117.21313,34.13017],[-117.21495,34.13155],[-117.20876,34.13214],[-117.20876,34.1296],[-117.21084,34.12932],[-117.20875,34.12852],[-117.20209,34.12849],[-117.2018,34.12764],[-117.20004,34.12717],[-117.20004,34.12851],[-117.19554,34.12851],[-117.19555,34.13212],[-117.20217,34.13214],[-117.20215,34.13577],[-117.18703,34.13571],[-117.18524,34.1338],[-117.18253,34.13361],[-117.18063,34.13243],[-117.17997,34.1329],[-117.18069,34.13462],[-117.18251,34.13464],[-117.18249,34.13568],[-117.17573,34.13565],[-117.17291,34.13664],[-117.16758,34.14253],[-117.16508,34.14246],[-117.16507,34.14597],[-117.16934,34.14615],[-117.16936,34.14258],[-117.17364,34.14277],[-117.17363,34.1499],[-117.19125,34.15016],[-117.19132,34.1466],[-117.2,34.14653],[-117.19978,34.15738],[-117.20861,34.15731],[-117.20877,34.15023],[-117.22153,34.15032],[-117.22195,34.14896],[-117.22515,34.14987],[-117.22465,34.14834],[-117.22604,34.14835],[-117.2259,34.16476],[-117.24376,34.16507],[-117.24384,34.17035],[-117.25247,34.17058],[-117.2525,34.16955],[-117.25768,34.16952],[-117.25764,34.16739],[-117.25952,34.16809],[-117.25949,34.16497],[-117.26225,34.16501],[-117.26136,34.17578],[-117.26574,34.1758],[-117.26573,34.17927],[-117.26132,34.17929],[-117.26128,34.18286],[-117.2438,34.18264],[-117.24379,34.17907],[-117.22645,34.17904],[-117.22623,34.19348],[-117.24375,34.19347],[-117.24383,34.18983],[-117.24817,34.18985],[-117.24819,34.19343],[-117.26118,34.19357],[-117.26121,34.19001],[-117.26978,34.19005],[-117.26968,34.1936],[-117.27411,34.19369],[-117.27444,34.20101],[-117.27882,34.20115],[-117.279,34.20799],[-117.28604,34.20792],[-117.28729,34.21038],[-117.28744,34.20099],[-117.28313,34.20106],[-117.28313,34.19734],[-117.28073,34.19739],[-117.27978,34.19367],[-117.27869,34.19345],[-117.27878,34.19097],[-117.29626,34.1908],[-117.29632,34.18455],[-117.29745,34.18465],[-117.29733,34.18388],[-117.30972,34.18922],[-117.3093,34.19348],[-117.30475,34.19355],[-117.30486,34.20081],[-117.31359,34.20091],[-117.31357,34.19721],[-117.31995,34.19724],[-117.31999,34.19599],[-117.32235,34.19579],[-117.32233,34.19417],[-117.32523,34.19429],[-117.33162,34.20087],[-117.32983,34.21191],[-117.32689,34.2118],[-117.32673,34.21865],[-117.32205,34.21844],[-117.32164,34.22164],[-117.33513,34.22236],[-117.33439,34.23008],[-117.33924,34.23006],[-117.33984,34.22617],[-117.34823,34.2265],[-117.34824,34.22293],[-117.33949,34.2225],[-117.33959,34.219],[-117.33541,34.21907],[-117.33566,34.20843],[-117.34822,34.20842],[-117.3482,34.2102],[-117.3526,34.21022],[-117.35261,34.21202],[-117.3548,34.21207],[-117.35483,34.21385],[-117.35699,34.21386],[-117.35698,34.21561],[-117.36844,34.21569],[-117.36888,34.21366],[-117.3705,34.21431],[-117.37039,34.21317],[-117.37258,34.21336],[-117.37627,34.21588],[-117.3735,34.2197],[-117.37615,34.22094],[-117.37558,34.22192],[-117.37937,34.22366],[-117.38562,34.22234],[-117.38823,34.22027],[-117.38749,34.22092],[-117.38867,34.2222],[-117.38634,34.22482],[-117.38658,34.22558],[-117.38471,34.22832],[-117.3864,34.22927],[-117.38881,34.22827],[-117.39053,34.22951],[-117.393,34.22684],[-117.39528,34.22859],[-117.39644,34.22255],[-117.39864,34.22414],[-117.40001,34.22048],[-117.36395,34.19275],[-117.36405,34.19162],[-117.36514,34.19152],[-117.36286,34.18867],[-117.36382,34.18704],[-117.36579,34.18912],[-117.37421,34.18357],[-117.37615,34.18766],[-117.37507,34.19128],[-117.37656,34.1922],[-117.37333,34.19555],[-117.38236,34.20191],[-117.38617,34.2019],[-117.3863,34.20328],[-117.39194,34.2059],[-117.39191,34.20654],[-117.38606,34.20384],[-117.38591,34.20528],[-117.38437,34.20492],[-117.38575,34.20724],[-117.3863,34.2069],[-117.38779,34.20806],[-117.38714,34.20866],[-117.40051,34.21904],[-117.40244,34.21324]],[[-117.312,34.17435],[-117.31201,34.1755],[-117.306,34.17553],[-117.306,34.17435],[-117.30382,34.17554],[-117.30055,34.17556],[-117.30056,34.17475],[-117.30163,34.17473],[-117.30163,34.17404],[-117.30055,34.17404],[-117.30052,34.17294],[-117.30162,34.17246],[-117.3016,34.17143],[-117.29618,34.1719],[-117.29614,34.16828],[-117.29085,34.16831],[-117.29084,34.16649],[-117.28904,34.16695],[-117.28899,34.1656],[-117.29397,34.16541],[-117.29398,34.16647],[-117.29502,34.16646],[-117.295,34.16467],[-117.30574,34.16495],[-117.30923,34.16661],[-117.30928,34.16979],[-117.31141,34.16977],[-117.31148,34.17435],[-117.312,34.17435]],[[-117.26446,34.15398],[-117.26166,34.15407],[-117.26126,34.16134],[-117.25875,34.16132],[-117.25829,34.15992],[-117.25685,34.15992],[-117.25683,34.15626],[-117.26019,34.15615],[-117.26032,34.15455],[-117.25892,34.15447],[-117.25898,34.15195],[-117.25681,34.15196],[-117.25681,34.15126],[-117.2577,34.15116],[-117.25681,34.15104],[-117.25677,34.14675],[-117.26444,34.14675],[-117.26445,34.14744],[-117.26311,34.14773],[-117.26444,34.14787],[-117.26446,34.15398]],[[-117.25246,34.07584],[-117.25186,34.07594],[-117.25171,34.07541],[-117.25246,34.07584]],[[-117.25246,34.15218],[-117.25243,34.15764],[-117.24359,34.15757],[-117.23881,34.15397],[-117.23931,34.15215],[-117.23062,34.15221],[-117.23059,34.14942],[-117.24723,34.14945],[-117.24806,34.15012],[-117.24806,34.14946],[-117.24661,34.14916],[-117.24658,34.14673],[-117.24949,34.14674],[-117.24942,34.14407],[-117.25242,34.14409],[-117.25243,34.14947],[-117.25097,34.14946],[-117.25093,34.15218],[-117.25246,34.15218]],[[-117.25055,34.13859],[-117.24949,34.14038],[-117.24807,34.14027],[-117.24803,34.14382],[-117.24703,34.14359],[-117.24704,34.14131],[-117.2437,34.1413],[-117.2437,34.14261],[-117.24223,34.14215],[-117.24223,34.14401],[-117.24371,34.14402],[-117.24376,34.14674],[-117.23933,34.14672],[-117.23928,34.14808],[-117.23687,34.14807],[-117.23641,34.14672],[-117.23497,34.14671],[-117.23498,34.1482],[-117.2335,34.1482],[-117.23348,34.14671],[-117.23059,34.14672],[-117.23132,34.13859],[-117.23037,34.13829],[-117.23057,34.13684],[-117.23496,34.13685],[-117.23496,34.13855],[-117.2364,34.13856],[-117.2364,34.14025],[-117.23496,34.1398],[-117.23496,34.14128],[-117.23932,34.14129],[-117.23931,34.13856],[-117.25055,34.13859]],[[-117.25038,34.07511],[-117.25037,34.07594],[-117.24973,34.07593],[-117.24973,34.07513],[-117.25038,34.07511]],[[-117.24904,34.0694],[-117.24867,34.07014],[-117.24808,34.0693],[-117.24904,34.0694]],[[-117.24642,34.0751],[-117.2463,34.07592],[-117.24609,34.07592],[-117.24642,34.0751]]],[[[-117.42646,34.22889],[-117.41812,34.22334],[-117.41639,34.22333],[-117.42213,34.22639],[-117.41893,34.22678],[-117.42446,34.23087],[-117.42607,34.23085],[-117.42646,34.22889]]],[[[-117.44312,34.2425],[-117.43939,34.23737],[-117.43631,34.23761],[-117.4365,34.24055],[-117.44026,34.24114],[-117.43971,34.24257],[-117.44312,34.2425]]]]},"properties":{"GEOID":"0665000","NAME":"San Bernardino city","BASENAME":"San Bernardino","STATE":"06","PLACE":"65000"}},{"type":"Feature","geometry":{"type":"Polygon","coordinates":[[[-116.1946,34.13535],[-116.1944,34.12045],[-116.08902,34.1204],[-116.05436,34.1211],[-116.05441,34.10715],[-116.03672,34.10696],[-116.03657,34.07826],[-115.984,34.07786],[-115.98396,34.1164],[-115.98178,34.1164],[-115.98178,34.1155],[-115.97867,34.1155],[-115.97865,34.11852],[-115.97427,34.11853],[-115.97428,34.12181],[-115.98389,34.12178],[-115.98391,34.1509],[-116.00152,34.15088],[-116.00132,34.19427],[-116.03642,34.19412],[-116.0365,34.21617],[-116.04111,34.22316],[-116.04359,34.22312],[-116.06302,34.25185],[-116.09828,34.25181],[-116.09826,34.24437],[-116.08256,34.24448],[-116.08258,34.24812],[-116.0804,34.24802],[-116.08038,34.24446],[-116.07603,34.24442],[-116.07611,34.23706],[-116.0672,34.23707],[-116.05839,34.2278],[-116.0583,34.20834],[-116.07143,34.20826],[-116.07167,34.16443],[-116.09376,34.16431],[-116.09376,34.16566],[-116.09158,34.1657],[-116.09157,34.17159],[-116.09817,34.17157],[-116.09812,34.17521],[-116.10623,34.1752],[-116.10711,34.17477],[-116.10702,34.16434],[-116.17707,34.1642],[-116.17695,34.14954],[-116.19448,34.14964],[-116.1946,34.13535]]]},"properties":{"GEOID":"0680994","NAME":"Twentynine Palms city","BASENAME":"Twentynine Palms","STATE":"06","PLACE":"80994"}},{"type":"Feature","geometry":{"type":"Polygon","coordinates":[[[-117.15366,34.87299],[-117.15367,34.86378],[-117.14488,34.86388],[-117.14486,34.86259],[-117.1361,34.8661],[-117.13604,34.85672],[-117.13366,34.85668],[-117.13365,34.85304],[-117.13605,34.85308],[-117.13607,34.84945],[-117.1448,34.84927],[-117.14509,34.83486],[-117.11805,34.83457],[-117.11788,34.80547],[-117.10164,34.80536],[-117.09634,34.81085],[-117.09247,34.8099],[-117.08855,34.81026],[-117.08434,34.81245],[-117.08269,34.8155],[-117.07839,34.81554],[-117.0784,34.81483],[-117.06952,34.81714],[-117.06948,34.83404],[-117.06506,34.83389],[-117.06499,34.88042],[-117.06106,34.88319],[-117.04757,34.88529],[-117.04756,34.88616],[-117.03296,34.88622],[-117.02983,34.88591],[-117.02981,34.88532],[-117.02987,34.87696],[-117.04753,34.87735],[-117.04749,34.86279],[-116.96228,34.86202],[-116.96251,34.84366],[-116.9447,34.84353],[-116.94464,34.84753],[-116.92672,34.84737],[-116.92672,34.84374],[-116.90928,34.84355],[-116.90909,34.85802],[-116.92666,34.85828],[-116.92666,34.86194],[-116.94491,34.86208],[-116.94477,34.86751],[-116.94256,34.86749],[-116.94248,34.86933],[-116.93581,34.86935],[-116.93561,34.88399],[-116.97106,34.88384],[-116.97099,34.8875],[-116.97985,34.8875],[-116.98873,34.89009],[-116.98872,34.89134],[-116.97983,34.89118],[-116.97977,34.89483],[-116.98147,34.89485],[-116.98145,34.8965],[-116.98423,34.89655],[-116.98421,34.89861],[-116.97535,34.89848],[-116.97537,34.89485],[-116.96205,34.89483],[-116.96194,34.91309],[-116.97967,34.91308],[-116.97977,34.90583],[-116.98637,34.90581],[-116.98618,34.90212],[-116.99099,34.89862],[-116.99747,34.89873],[-116.99748,34.90308],[-117.00742,34.90335],[-117.00664,34.90357],[-117.00622,34.90581],[-117.00619,34.91317],[-117.01626,34.91319],[-117.01244,34.91707],[-117.01377,34.9171],[-117.01377,34.91818],[-117.01769,34.91789],[-117.01813,34.91687],[-117.02386,34.91684],[-117.02395,34.91118],[-117.02484,34.91117],[-117.02413,34.90675],[-117.02983,34.90674],[-117.02984,34.90585],[-117.04009,34.90604],[-117.04746,34.9047],[-117.0475,34.9005],[-117.07394,34.89607],[-117.07397,34.8952],[-117.07836,34.89585],[-117.07835,34.89221],[-117.10042,34.89257],[-117.10019,34.87073],[-117.11799,34.871],[-117.11797,34.87469],[-117.10967,34.87847],[-117.11806,34.87841],[-117.11811,34.89272],[-117.13617,34.89287],[-117.1361,34.87846],[-117.15365,34.87832],[-117.15366,34.87299]]]},"properties":{"GEOID":"0604030","NAME":"Barstow city","BASENAME":"Barstow","STATE":"06","PLACE":"04030"}},{"type":"Feature","geometry":{"type":"Polygon","coordinates":[[[-117.68295,34.05489],[-117.68293,34.05314],[-117.68078,34.05315],[-117.68075,34.03543],[-117.68182,34.03543],[-117.68184,34.03363],[-117.67856,34.03365],[-117.67854,34.03183],[-117.672,34.03193],[-117.6727,34.03024],[-117.66764,34.03029],[-117.66778,34.03192],[-117.65676,34.03197],[-117.65673,34.03008],[-117.65457,34.0301],[-117.65448,34.01931],[-117.65063,34.01933],[-117.65063,33.98306],[-117.60682,33.98332],[-117.60681,33.97541],[-117.5998,33.97531],[-117.55838,33.98842],[-117.55831,34.03345],[-117.52431,34.03347],[-117.52403,34.07718],[-117.60111,34.07755],[-117.60272,34.08362],[-117.60881,34.09206],[-117.62857,34.09215],[-117.63334,34.09322],[-117.6333,34.08708],[-117.68089,34.08737],[-117.6808,34.05489],[-117.68295,34.05489]]]},"properties":{"GEOID":"0653896","NAME":"Ontario city","BASENAME":"Ontario","STATE":"06","PLACE":"53896"}},{"type":"Feature","geometry":{"type":"MultiPolygon","coordinates":[[[[-117.50738,34.5795],[-117.50733,34.55751],[-117.50369,34.5575],[-117.50361,34.52876],[-117.46426,34.52855],[-117.4643,34.53584],[-117.40819,34.53585],[-117.40816,34.52852],[-117.43474,34.52848],[-117.43466,34.51755],[-117.45986,34.51757],[-117.45981,34.52113],[-117.47534,34.52138],[-117.47533,34.51774],[-117.48629,34.51788],[-117.48626,34.50698],[-117.39954,34.50668],[-117.39938,34.54313],[-117.36418,34.54316],[-117.36409,34.55722],[-117.37406,34.55728],[-117.37424,34.57222],[-117.39848,34.57205],[-117.39852,34.57931],[-117.40074,34.57931],[-117.40083,34.60119],[-117.38991,34.60123],[-117.3899,34.61583],[-117.39166,34.61582],[-117.392,34.64526],[-117.35914,34.64519],[-117.36025,34.64776],[-117.35979,34.64931],[-117.36147,34.65981],[-117.40077,34.65992],[-117.40077,34.62311],[-117.41839,34.62297],[-117.43606,34.62333],[-117.43629,34.66033],[-117.48923,34.66038],[-117.48977,34.63114],[-117.48094,34.63108],[-117.4809,34.61639],[-117.47203,34.6164],[-117.47147,34.58714],[-117.48511,34.58686],[-117.48521,34.57959],[-117.50738,34.5795]]],[[[-117.33695,34.57904],[-117.33694,34.57902],[-117.3356,34.579],[-117.33695,34.57904]]],[[[-117.33849,34.57972],[-117.33849,34.57903],[-117.33662,34.5797],[-117.33849,34.57972]]],[[[-117.34325,34.57494],[-117.3414,34.57511],[-117.3394,34.5742],[-117.33987,34.57544],[-117.33674,34.5758],[-117.33583,34.5752],[-117.33529,34.57587],[-117.34325,34.57494]]],[[[-117.34487,34.58527],[-117.34438,34.58397],[-117.33443,34.58431],[-117.33443,34.58506],[-117.34487,34.58527]]]]},"properties":{"GEOID":"0600296","NAME":"Adelanto city","BASENAME":"Adelanto","STATE":"06","PLACE":"00296"}},{"type":"Feature","geometry":{"type":"Polygon","coordinates":[[[-116.49279,34.11517],[-116.49279,34.11166],[-116.48114,34.11169],[-116.48114,34.10741],[-116.4779,34.10895],[-116.47529,34.10913],[-116.47517,34.07586],[-116.37043,34.07605],[-116.37042,34.12055],[-116.36958,34.14956],[-116.35218,34.14949],[-116.35205,34.16586],[-116.37832,34.1658],[-116.37834,34.16441],[-116.38116,34.16491],[-116.38705,34.16438],[-116.38705,34.16582],[-116.42029,34.16616],[-116.42029,34.17157],[-116.42249,34.17157],[-116.42255,34.19345],[-116.44005,34.1935],[-116.44017,34.1643],[-116.45767,34.16427],[-116.45764,34.13534],[-116.49264,34.13531],[-116.49279,34.11517]]]},"properties":{"GEOID":"0687056","NAME":"Yucca Valley town","BASENAME":"Yucca Valley","STATE":"06","PLACE":"87056"}},{"type":"Feature","geometry":{"type":"Polygon","coordinates":[[[-117.52431,34.0347],[-117.52416,34.03345],[-117.4015,34.03385],[-117.40149,34.03801],[-117.40944,34.03779],[-117.40949,34.04073],[-117.40945,34.04456],[-117.40147,34.04456],[-117.40146,34.04663],[-117.40542,34.04666],[-117.40543,34.04864],[-117.42256,34.04851],[-117.42258,34.06315],[-117.42038,34.06315],[-117.4204,34.06692],[-117.41822,34.06697],[-117.41826,34.07765],[-117.41739,34.07766],[-117.41738,34.07862],[-117.41826,34.07863],[-117.41828,34.08495],[-117.40521,34.08497],[-117.40538,34.12134],[-117.42728,34.12134],[-117.42735,34.13587],[-117.43168,34.13589],[-117.43181,34.17611],[-117.43625,34.17888],[-117.43644,34.18087],[-117.43909,34.18592],[-117.44039,34.18374],[-117.44309,34.18312],[-117.44437,34.18039],[-117.4491,34.17964],[-117.44942,34.17795],[-117.45357,34.17242],[-117.45348,34.17727],[-117.4546,34.17606],[-117.45569,34.17639],[-117.46777,34.1722],[-117.48392,34.17218],[-117.48394,34.17934],[-117.48816,34.1794],[-117.48833,34.15053],[-117.47867,34.15045],[-117.51366,34.12144],[-117.51454,34.12146],[-117.51488,34.10456],[-117.50188,34.10465],[-117.50187,34.10373],[-117.49968,34.10375],[-117.49968,34.10465],[-117.49532,34.10469],[-117.49532,34.10378],[-117.49315,34.10381],[-117.49314,34.1047],[-117.48878,34.10474],[-117.48879,34.10204],[-117.48667,34.102],[-117.4867,34.10293],[-117.47572,34.10282],[-117.47571,34.10651],[-117.46026,34.10655],[-117.46029,34.09747],[-117.45811,34.09747],[-117.45802,34.09207],[-117.46075,34.09205],[-117.46076,34.09023],[-117.46238,34.09023],[-117.46241,34.08478],[-117.46461,34.08479],[-117.46466,34.07928],[-117.4756,34.07023],[-117.48883,34.07019],[-117.48886,34.07559],[-117.49316,34.07558],[-117.49315,34.07377],[-117.49752,34.07374],[-117.49755,34.06829],[-117.49574,34.0683],[-117.49573,34.06561],[-117.50526,34.06554],[-117.51573,34.06746],[-117.5241,34.06741],[-117.52431,34.0347]]]},"properties":{"GEOID":"0624680","NAME":"Fontana city","BASENAME":"Fontana","STATE":"06","PLACE":"24680"}}]}