{"type":"FeatureCollection","features":[{"type":"Feature","geometry":{"type":"Polygon","coordinates":[[[-117.27257,32.98013],[-117.27013,32.97314],[-117.26696,32.95336],[-117.2623,32.93975],[-117.25945,32.93741],[-117.25815,32.9384],[-117.25815,32.94201],[-117.25598,32.94202],[-117.25592,32.94564],[-117.26013,32.94561],[-117.26095,32.9481],[-117.25972,32.94846],[-117.26068,32.95099],[-117.26018,32.95285],[-117.2559,32.95298],[-117.25615,32.97942],[-117.26159,32.98043],[-117.27257,32.98013]]]},"properties":{"GEOID":"0618506","NAME":"Del Mar city","BASENAME":"Del Mar","STATE":"06","PLACE":"18506"}},{"type":"Feature","geometry":{"type":"Polygon","coordinates":[[[-117.27818,32.99962],[-117.2758,32.99549],[-117.27257,32.98013],[-117.26159,32.98043],[-117.25615,32.97942],[-117.25606,32.98212],[-117.24953,32.98205],[-117.24958,32.98562],[-117.23869,32.98574],[-117.23869,32.98757],[-117.24084,32.98758],[-117.24083,32.98987],[-117.2397,32.99111],[-117.24008,32.992],[-117.23929,32.99212],[-117.23962,32.99289],[-117.23864,32.99258],[-117.23876,33.00045],[-117.23715,33.0019],[-117.23736,33.00313],[-117.23858,33.00318],[-117.23773,33.00468],[-117.24008,33.00509],[-117.24099,33.00747],[-117.24441,33.00745],[-117.24445,33.00567],[-117.2455,33.00566],[-117.2455,33.00745],[-117.26003,33.00742],[-117.26029,33.0067],[-117.26146,33.00745],[-117.25972,33.00557],[-117.25927,33.00383],[-117.27537,33.00413],[-117.27682,33.00227],[-117.27624,33.00145],[-117.27799,33.00053],[-117.27818,32.99962]]]},"properties":{"GEOID":"0672506","NAME":"Solana Beach city","BASENAME":"Solana Beach","STATE":"06","PLACE":"72506"}},{"type":"Feature","geometry":{"type":"Polygon","coordinates":[[[-117.06396,32.72967],[-117.06445,32.72947],[-117.06262,32.72949],[-117.06047,32.73088],[-117.05817,32.73073],[-117.05755,32.72992],[-117.05261,32.73228],[-117.05194,32.73383],[-117.04976,32.73335],[-117.05007,32.73196],[-117.04938,32.73146],[-117.05076,32.72964],[-117.04922,32.72967],[-117.04931,32.71515],[-117.04637,32.71508],[-117.04173,32.72057],[-117.03882,32.71956],[-117.03781,32.72066],[-117.03667,32.72029],[-117.03652,32.72105],[-117.03536,32.7212],[-117.03547,32.72025],[-117.0345,32.72033],[-117.03457,32.71671],[-117.03262,32.7153],[-117.03194,32.71548],[-117.03197,32.72033],[-117.03021,32.72026],[-117.03016,32.72179],[-117.02846,32.72118],[-117.02846,32.71868],[-117.02299,32.71848],[-117.02316,32.72497],[-117.01414,32.72492],[-117.01434,32.72874],[-117.01576,32.72898],[-117.01625,32.73463],[-117.01449,32.73462],[-117.01443,32.74052],[-117.01859,32.7445],[-117.01451,32.74798],[-117.01444,32.74999],[-117.0152,32.75044],[-117.0182,32.74805],[-117.02101,32.74698],[-117.02691,32.74719],[-117.03734,32.74492],[-117.04703,32.74468],[-117.05127,32.74246],[-117.0581,32.73512],[-117.05804,32.73372],[-117.05894,32.7328],[-117.06396,32.72967]]]},"properties":{"GEOID":"0641124","NAME":"Lemon Grove city","BASENAME":"Lemon Grove","STATE":"06","PLACE":"41124"}},{"type":"Feature","geometry":{"type":"Polygon","coordinates":[[[-117.13323,32.56731],[-117.13096,32.55787],[-117.12826,32.55326],[-117.1262,32.5475],[-117.12472,32.53427],[-117.11888,32.53479],[-117.11875,32.55822],[-117.10144,32.55826],[-117.10131,32.56687],[-117.09958,32.56686],[-117.09957,32.56793],[-117.10137,32.56796],[-117.10124,32.5765],[-117.10384,32.57652],[-117.10385,32.58407],[-117.10554,32.58408],[-117.10558,32.58803],[-117.10778,32.58779],[-117.1103,32.58958],[-117.11422,32.58974],[-117.11585,32.59106],[-117.11855,32.59129],[-117.12176,32.58898],[-117.13274,32.58563],[-117.13323,32.56731]]]},"properties":{"GEOID":"0636294","NAME":"Imperial Beach city","BASENAME":"Imperial Beach","STATE":"06","PLACE":"36294"}},{"type":"Feature","geometry":{"type":"Polygon","coordinates":[[[-117.13806,32.6784],[-117.14188,32.67817],[-117.13448,32.67382],[-117.12926,32.66726],[-117.11856,32.60627],[-117.11646,32.60657],[-117.10412,32.60232],[-117.10235,32.60392],[-117.09819,32.60515],[-117.0988,32.61037],[-117.09826,32.61301],[-117.11768,32.60753],[-117.12382,32.64538],[-117.10504,32.65057],[-117.10418,32.65058],[-117.10278,32.64638],[-117.09619,32.64825],[-117.09847,32.65413],[-117.09642,32.65468],[-117.09669,32.65568],[-117.09472,32.65623],[-117.09342,32.65288],[-117.09269,32.6531],[-117.09277,32.6516],[-117.08882,32.65269],[-117.09065,32.65741],[-117.08691,32.65857],[-117.08712,32.66031],[-117.08449,32.66102],[-117.0832,32.6589],[-117.07758,32.65639],[-117.07101,32.65681],[-117.07154,32.65622],[-117.06943,32.65349],[-117.06831,32.65382],[-117.06692,32.65139],[-117.0651,32.65029],[-117.06369,32.6504],[-117.06383,32.65702],[-117.06173,32.65788],[-117.05968,32.65652],[-117.05647,32.65702],[-117.05679,32.65783],[-117.05575,32.65808],[-117.05623,32.6594],[-117.05527,32.6595],[-117.05659,32.66319],[-117.05474,32.66367],[-117.05405,32.6619],[-117.04928,32.66311],[-117.05153,32.66437],[-117.04988,32.66595],[-117.05019,32.66701],[-117.05703,32.66418],[-117.06543,32.66242],[-117.07283,32.68156],[-117.06465,32.68384],[-117.06599,32.68733],[-117.06397,32.68788],[-117.06536,32.69135],[-117.07551,32.68848],[-117.07665,32.69192],[-117.07783,32.69159],[-117.07847,32.69319],[-117.08365,32.69283],[-117.08513,32.6919],[-117.08727,32.6919],[-117.08727,32.69132],[-117.09377,32.69216],[-117.09373,32.68898],[-117.09603,32.68897],[-117.09603,32.68838],[-117.10244,32.68896],[-117.10141,32.68502],[-117.12132,32.67942],[-117.13806,32.6784]],[[-117.08385,32.66316],[-117.08286,32.6637],[-117.08297,32.66622],[-117.08084,32.66652],[-117.08115,32.66773],[-117.07901,32.66834],[-117.07853,32.6681],[-117.07921,32.66671],[-117.07822,32.66643],[-117.07937,32.66636],[-117.07833,32.66351],[-117.07643,32.66571],[-117.07796,32.66666],[-117.07643,32.66754],[-117.07697,32.66893],[-117.07494,32.66869],[-117.07506,32.66947],[-117.07432,32.66967],[-117.07408,32.66908],[-117.07061,32.67007],[-117.06958,32.66969],[-117.0676,32.66548],[-117.06782,32.66375],[-117.0701,32.66335],[-117.06875,32.66207],[-117.06808,32.66271],[-117.06801,32.6616],[-117.06929,32.66128],[-117.07101,32.66291],[-117.0732,32.66231],[-117.07267,32.66093],[-117.07373,32.66063],[-117.07487,32.66058],[-117.07561,32.66208],[-117.07686,32.66166],[-117.07868,32.66309],[-117.07862,32.66123],[-117.08049,32.66154],[-117.0802,32.66316],[-117.08346,32.66214],[-117.08385,32.66316]],[[-117.05921,32.66139],[-117.05733,32.66203],[-117.05698,32.66109],[-117.05889,32.66056],[-117.05921,32.66139]]]},"properties":{"GEOID":"0650398","NAME":"National City city","BASENAME":"National City","STATE":"06","PLACE":"50398"}},{"type":"Feature","geometry":{"type":"Polygon","coordinates":[[[-117.22723,32.69334],[-117.22665,32.68889],[-117.2252,32.68692],[-117.2213,32.68689],[-117.21185,32.69042],[-117.20586,32.68876],[-117.20313,32.68712],[-117.19535,32.68613],[-117.18776,32.68366],[-117.17982,32.67865],[-117.17867,32.67866],[-117.17158,32.67349],[-117.15914,32.65872],[-117.1503,32.64562],[-117.14063,32.62904],[-117.13749,32.62035],[-117.13407,32.60517],[-117.13279,32.59554],[-117.13274,32.58563],[-117.12176,32.58898],[-117.11499,32.5938],[-117.11671,32.60605],[-117.1196,32.6057],[-117.12961,32.66623],[-117.13513,32.67318],[-117.14352,32.67806],[-117.1624,32.69255],[-117.16379,32.69222],[-117.1638,32.69359],[-117.1666,32.69801],[-117.18943,32.70623],[-117.18687,32.71113],[-117.18984,32.71323],[-117.19001,32.71272],[-117.19396,32.71444],[-117.20006,32.71373],[-117.21717,32.7043],[-117.22115,32.69824],[-117.22704,32.69494],[-117.22723,32.69334]]]},"properties":{"GEOID":"0616378","NAME":"Coronado city","BASENAME":"Coronado","STATE":"06","PLACE":"16378"}},{"type":"Feature","geometry":{"type":"Polygon","coordinates":[[[-117.05358,32.76066],[-117.05348,32.75577],[-117.04913,32.75566],[-117.04928,32.74315],[-117.04615,32.74488],[-117.0378,32.74487],[-117.02804,32.74707],[-117.02008,32.7472],[-117.01216,32.75305],[-117.01222,32.75474],[-117.01021,32.75478],[-117.01017,32.75262],[-117.00142,32.75239],[-117.00064,32.7559],[-117.00239,32.76058],[-117.00135,32.76294],[-116.99837,32.76354],[-116.99834,32.76228],[-116.99695,32.76172],[-116.99455,32.76241],[-116.99735,32.76502],[-116.9992,32.76476],[-116.99573,32.76595],[-116.99564,32.76479],[-116.99261,32.76445],[-116.99204,32.76468],[-116.99261,32.76608],[-116.99148,32.76607],[-116.99104,32.76466],[-116.99129,32.76606],[-116.98876,32.76711],[-116.98921,32.76797],[-116.99024,32.76794],[-116.98914,32.76899],[-116.99079,32.76883],[-116.99062,32.76976],[-116.98757,32.76866],[-116.98563,32.76905],[-116.98538,32.77102],[-116.98184,32.77228],[-116.98195,32.77294],[-116.98355,32.77292],[-116.98357,32.77401],[-116.98504,32.77388],[-116.98675,32.77263],[-116.986,32.77131],[-116.99264,32.76981],[-116.99214,32.76901],[-116.99382,32.76904],[-116.99465,32.76766],[-116.99495,32.76821],[-117.0013,32.76823],[-117.00131,32.76898],[-116.99745,32.76896],[-116.99746,32.76968],[-116.99656,32.76952],[-116.99604,32.77035],[-116.99604,32.77092],[-116.99706,32.77029],[-116.99761,32.77186],[-116.99714,32.77441],[-116.99818,32.77481],[-116.99926,32.77221],[-117.00049,32.77279],[-117.00016,32.7747],[-116.99852,32.77485],[-116.99875,32.77677],[-116.99966,32.77728],[-117.00039,32.77568],[-117.00148,32.77578],[-117.00037,32.77815],[-116.9934,32.77833],[-116.99116,32.77708],[-116.99009,32.77775],[-116.99032,32.77863],[-116.98961,32.77803],[-116.98974,32.7786],[-116.98819,32.77845],[-116.98809,32.77975],[-116.99039,32.78087],[-116.9872,32.783],[-116.98765,32.78428],[-116.98442,32.78522],[-116.9863,32.78563],[-116.98457,32.78745],[-116.98485,32.78843],[-116.98732,32.78767],[-116.98799,32.7893],[-116.98549,32.78992],[-116.98616,32.79082],[-116.98819,32.79066],[-116.98833,32.79223],[-116.98679,32.79416],[-116.98827,32.79569],[-116.99921,32.79497],[-116.99928,32.79608],[-117.00347,32.79433],[-117.00588,32.79473],[-117.00601,32.79132],[-117.0374,32.79148],[-117.03809,32.79037],[-117.03749,32.78879],[-117.03579,32.78873],[-117.031,32.79055],[-117.03192,32.78879],[-117.03632,32.78587],[-117.03752,32.7831],[-117.03983,32.78211],[-117.03893,32.78158],[-117.04,32.78138],[-117.03995,32.77944],[-117.04216,32.77893],[-117.04368,32.77722],[-117.04429,32.78006],[-117.04524,32.77955],[-117.04823,32.78043],[-117.05138,32.77794],[-117.04865,32.77733],[-117.0486,32.77426],[-117.04648,32.77349],[-117.04702,32.77084],[-117.04038,32.77095],[-117.03993,32.77161],[-117.03895,32.76885],[-117.04042,32.76883],[-117.0404,32.76774],[-117.0456,32.76765],[-117.04558,32.76601],[-117.05113,32.76601],[-117.05116,32.76325],[-117.05335,32.76327],[-117.05358,32.76066]],[[-116.99223,32.77807],[-116.99155,32.77868],[-116.99143,32.77811],[-116.99223,32.77807]]]},"properties":{"GEOID":"0640004","NAME":"La Mesa city","BASENAME":"La Mesa","STATE":"06","PLACE":"40004"}},{"type":"Feature","geometry":{"type":"Polygon","coordinates":[[[-117.03831,32.83426],[-117.03661,32.83297],[-117.03817,32.83145],[-117.03456,32.8315],[-117.00997,32.81562],[-117.0112,32.82028],[-117.0032,32.82077],[-117.00208,32.81964],[-116.99957,32.82178],[-117.0007,32.8241],[-117.00019,32.82546],[-116.99609,32.82568],[-116.99633,32.82674],[-116.99866,32.82681],[-116.99866,32.82777],[-117.0007,32.82777],[-117.00071,32.82832],[-116.99929,32.82833],[-116.9993,32.829],[-116.99413,32.829],[-116.99351,32.82629],[-116.99006,32.82628],[-116.99023,32.82839],[-116.98825,32.82839],[-116.9882,32.83077],[-116.98714,32.83097],[-116.97722,32.82961],[-116.96403,32.82956],[-116.96423,32.82736],[-116.96233,32.8275],[-116.96233,32.82494],[-116.95972,32.82498],[-116.96022,32.82962],[-116.94754,32.82963],[-116.94755,32.82764],[-116.94339,32.82478],[-116.94382,32.82423],[-116.93798,32.82414],[-116.94175,32.83178],[-116.94508,32.83551],[-116.94507,32.85339],[-116.95372,32.85339],[-116.95371,32.85698],[-116.95974,32.85878],[-116.96274,32.85878],[-116.9624,32.90337],[-116.98013,32.90014],[-116.98041,32.90309],[-116.98433,32.90302],[-116.98429,32.89927],[-116.98774,32.89869],[-116.99306,32.89485],[-116.99566,32.88763],[-117.00319,32.87726],[-117.00934,32.86644],[-117.01075,32.86701],[-117.01173,32.86498],[-117.0132,32.86473],[-117.01172,32.86353],[-117.01201,32.86305],[-117.01528,32.8628],[-117.01408,32.86128],[-117.01163,32.8619],[-117.01381,32.85801],[-117.01273,32.85559],[-117.01113,32.85559],[-117.01143,32.8535],[-117.0135,32.85257],[-117.01501,32.85047],[-117.01893,32.84982],[-117.01901,32.84884],[-117.02394,32.84581],[-117.02328,32.83924],[-117.01863,32.83709],[-117.01648,32.83767],[-117.0138,32.83982],[-117.0076,32.84057],[-117.00541,32.84156],[-117.00545,32.83733],[-117.01292,32.8361],[-117.02235,32.83673],[-117.02228,32.83782],[-117.02398,32.83869],[-117.02677,32.83702],[-117.03668,32.83844],[-117.03728,32.83552],[-117.03831,32.83426]]]},"properties":{"GEOID":"0670224","NAME":"Santee city","BASENAME":"Santee","STATE":"06","PLACE":"70224"}},{"type":"Feature","geometry":{"type":"Polygon","coordinates":[[[-117.0112,32.82028],[-117.00997,32.81562],[-117.00595,32.81294],[-117.00602,32.79473],[-117.00347,32.79433],[-116.99928,32.79608],[-116.99921,32.79497],[-116.98827,32.79569],[-116.98679,32.79416],[-116.98833,32.79223],[-116.98819,32.79066],[-116.98616,32.79082],[-116.98549,32.78992],[-116.98799,32.7893],[-116.98732,32.78767],[-116.98485,32.78843],[-116.98457,32.78745],[-116.9863,32.78563],[-116.98442,32.78522],[-116.98765,32.78428],[-116.9872,32.783],[-116.99039,32.78087],[-116.98809,32.77975],[-116.98819,32.77845],[-116.98366,32.77906],[-116.98268,32.77855],[-116.98167,32.77943],[-116.98111,32.77786],[-116.98039,32.77949],[-116.97927,32.77986],[-116.97847,32.77914],[-116.97696,32.77982],[-116.9776,32.77783],[-116.97409,32.77551],[-116.97566,32.77325],[-116.96876,32.7732],[-116.96877,32.77453],[-116.96771,32.77429],[-116.96772,32.77565],[-116.96657,32.77471],[-116.96774,32.77319],[-116.96398,32.77316],[-116.95903,32.77568],[-116.95934,32.77339],[-116.96025,32.77313],[-116.95866,32.7731],[-116.95847,32.77253],[-116.95969,32.77222],[-116.95843,32.77222],[-116.95836,32.77121],[-116.96173,32.77119],[-116.96222,32.76804],[-116.95871,32.76751],[-116.957,32.76771],[-116.95752,32.76834],[-116.95651,32.76847],[-116.95734,32.77023],[-116.95647,32.77023],[-116.95648,32.77124],[-116.9559,32.77125],[-116.95583,32.77792],[-116.95261,32.77792],[-116.95265,32.77874],[-116.9509,32.77875],[-116.95096,32.7804],[-116.9499,32.7804],[-116.9499,32.7786],[-116.94819,32.77934],[-116.94832,32.78012],[-116.94657,32.77968],[-116.94689,32.77855],[-116.94629,32.77822],[-116.94518,32.77938],[-116.94447,32.77871],[-116.94263,32.78055],[-116.94525,32.78305],[-116.94501,32.78403],[-116.94719,32.78511],[-116.9469,32.78662],[-116.94143,32.78671],[-116.94143,32.78546],[-116.94057,32.78546],[-116.94057,32.78694],[-116.9395,32.78694],[-116.93842,32.78658],[-116.93783,32.78474],[-116.93598,32.78527],[-116.93598,32.78471],[-116.93455,32.78471],[-116.93456,32.78332],[-116.93649,32.78333],[-116.93641,32.78163],[-116.93215,32.78108],[-116.93214,32.77822],[-116.92804,32.77823],[-116.9287,32.77786],[-116.92805,32.77786],[-116.92804,32.77614],[-116.92737,32.77605],[-116.9275,32.77941],[-116.92537,32.78135],[-116.92515,32.77908],[-116.92414,32.77898],[-116.92411,32.77982],[-116.92168,32.77982],[-116.9206,32.77871],[-116.91666,32.78183],[-116.9181,32.78206],[-116.91785,32.78472],[-116.91877,32.78551],[-116.9178,32.78755],[-116.91634,32.78749],[-116.91634,32.78862],[-116.92155,32.78946],[-116.92151,32.79274],[-116.92275,32.79274],[-116.92283,32.79351],[-116.92469,32.79273],[-116.92467,32.79648],[-116.91797,32.79639],[-116.91796,32.79449],[-116.91666,32.7945],[-116.91581,32.7949],[-116.91581,32.79641],[-116.91375,32.79649],[-116.91169,32.79763],[-116.90917,32.79605],[-116.90822,32.79713],[-116.90784,32.79545],[-116.90603,32.79742],[-116.90393,32.79565],[-116.90544,32.79483],[-116.90334,32.79389],[-116.90103,32.79396],[-116.89975,32.79535],[-116.90044,32.79663],[-116.89741,32.7978],[-116.89692,32.79943],[-116.89574,32.79968],[-116.89591,32.80167],[-116.8988,32.80196],[-116.89849,32.8028],[-116.90034,32.80323],[-116.89644,32.80637],[-116.902,32.8082],[-116.90094,32.80586],[-116.90166,32.80496],[-116.90131,32.80325],[-116.90212,32.80306],[-116.9022,32.80455],[-116.90307,32.80475],[-116.9039,32.80372],[-116.90246,32.80284],[-116.90477,32.80089],[-116.90538,32.80202],[-116.90649,32.80048],[-116.90742,32.80158],[-116.90812,32.80106],[-116.90813,32.80222],[-116.90984,32.80221],[-116.91035,32.80021],[-116.91163,32.80099],[-116.91213,32.80022],[-116.91952,32.8002],[-116.91927,32.80236],[-116.92145,32.80178],[-116.92147,32.80395],[-116.92037,32.80395],[-116.92036,32.80559],[-116.91888,32.80559],[-116.91919,32.80771],[-116.91828,32.80926],[-116.91696,32.80892],[-116.91696,32.80736],[-116.91287,32.80784],[-116.91464,32.80809],[-116.91494,32.80888],[-116.91441,32.80888],[-116.91539,32.80974],[-116.91458,32.8106],[-116.91456,32.80956],[-116.91367,32.81099],[-116.91279,32.8107],[-116.91354,32.81133],[-116.91204,32.81271],[-116.90949,32.81223],[-116.90964,32.81398],[-116.91178,32.81419],[-116.91227,32.81467],[-116.91171,32.81556],[-116.91307,32.81596],[-116.90924,32.82055],[-116.91399,32.8213],[-116.9137,32.82292],[-116.91469,32.82144],[-116.91819,32.82255],[-116.91983,32.81993],[-116.91853,32.81801],[-116.92235,32.81804],[-116.92234,32.81862],[-116.92703,32.81669],[-116.92812,32.81695],[-116.92924,32.81585],[-116.92889,32.81454],[-116.92976,32.81313],[-116.93079,32.8136],[-116.93004,32.81545],[-116.93349,32.81706],[-116.94001,32.81685],[-116.94056,32.81392],[-116.93615,32.81394],[-116.93649,32.80921],[-116.94406,32.80834],[-116.94461,32.80898],[-116.945,32.80834],[-116.94926,32.80851],[-116.94925,32.81512],[-116.94854,32.81583],[-116.94462,32.81594],[-116.94518,32.81687],[-116.9475,32.81686],[-116.94748,32.81911],[-116.94611,32.82011],[-116.94613,32.82177],[-116.94732,32.82124],[-116.94733,32.82234],[-116.94922,32.82294],[-116.94933,32.82137],[-116.95179,32.82137],[-116.9518,32.81912],[-116.95006,32.81912],[-116.95004,32.81689],[-116.95378,32.81687],[-116.95381,32.81524],[-116.956,32.81524],[-116.95601,32.81334],[-116.95178,32.81332],[-116.95269,32.8105],[-116.95344,32.8105],[-116.95345,32.81179],[-116.95414,32.81178],[-116.95419,32.81051],[-116.95772,32.81051],[-116.95813,32.81152],[-116.95866,32.81049],[-116.95908,32.81152],[-116.95938,32.81034],[-116.95939,32.81152],[-116.96156,32.81152],[-116.96155,32.81233],[-116.96421,32.81234],[-116.96353,32.8111],[-116.96599,32.81107],[-116.96599,32.81247],[-116.96437,32.81295],[-116.96527,32.8149],[-116.96442,32.81491],[-116.96371,32.81686],[-116.96402,32.81882],[-116.96506,32.81854],[-116.96507,32.82441],[-116.96233,32.82449],[-116.96233,32.8275],[-116.96423,32.82736],[-116.96403,32.82956],[-116.97722,32.82961],[-116.98714,32.83097],[-116.9882,32.83077],[-116.98825,32.82839],[-116.99023,32.82839],[-116.99006,32.82628],[-116.99351,32.82629],[-116.99413,32.829],[-116.9993,32.829],[-116.99929,32.82833],[-117.00071,32.82832],[-117.0007,32.82777],[-116.99866,32.82777],[-116.99866,32.82681],[-116.9966,32.8269],[-116.99601,32.82586],[-116.99646,32.82522],[-117.00019,32.82546],[-117.0007,32.8241],[-116.99957,32.82178],[-117.00208,32.81964],[-117.0032,32.82077],[-117.0112,32.82028]]]},"properties":{"GEOID":"0621712","NAME":"El Cajon city","BASENAME":"El Cajon","STATE":"06","PLACE":"21712"}},{"type":"Feature","geometry":{"type":"Polygon","coordinates":[[[-117.28825,33.18364],[-117.28394,33.18377],[-117.28394,33.18158],[-117.2801,33.18106],[-117.28002,33.18212],[-117.27825,33.1837],[-117.27387,33.18527],[-117.27419,33.18627],[-117.27138,33.18628],[-117.27133,33.183],[-117.2696,33.18298],[-117.2693,33.18222],[-117.26643,33.18297],[-117.26641,33.18667],[-117.26513,33.18667],[-117.26531,33.1859],[-117.26355,33.18658],[-117.26348,33.18515],[-117.26422,33.18479],[-117.26315,33.18479],[-117.26423,33.18365],[-117.26144,33.18443],[-117.26144,33.18296],[-117.26086,33.18296],[-117.26086,33.18447],[-117.26008,33.18453],[-117.26009,33.18296],[-117.25931,33.18297],[-117.25916,33.18176],[-117.25608,33.18111],[-117.2562,33.1827],[-117.25349,33.18151],[-117.25498,33.17935],[-117.2539,33.17871],[-117.25391,33.17784],[-117.25495,33.17715],[-117.25605,33.17749],[-117.25609,33.17681],[-117.25461,33.17638],[-117.25316,33.17375],[-117.2522,33.17507],[-117.25355,33.17672],[-117.24972,33.17733],[-117.24854,33.17905],[-117.24677,33.17363],[-117.24476,33.17337],[-117.24473,33.16833],[-117.24643,33.16833],[-117.2464,33.17022],[-117.24834,33.1702],[-117.24886,33.17178],[-117.2592,33.15837],[-117.25686,33.15713],[-117.25563,33.1522],[-117.25321,33.15246],[-117.25324,33.14579],[-117.24672,33.1458],[-117.246,33.13495],[-117.2299,33.13503],[-117.22986,33.13121],[-117.22125,33.13199],[-117.22132,33.13866],[-117.21994,33.13866],[-117.21888,33.14018],[-117.21912,33.14117],[-117.21674,33.14358],[-117.21317,33.15064],[-117.21463,33.15116],[-117.21245,33.15491],[-117.21443,33.15593],[-117.21622,33.15201],[-117.21871,33.15345],[-117.21589,33.15818],[-117.21854,33.15844],[-117.21856,33.16015],[-117.21738,33.1608],[-117.21652,33.15938],[-117.2158,33.16007],[-117.21467,33.15845],[-117.213,33.15917],[-117.21398,33.16023],[-117.21463,33.1599],[-117.21605,33.16238],[-117.21729,33.16194],[-117.21812,33.16291],[-117.21567,33.16583],[-117.21344,33.16512],[-117.21469,33.16656],[-117.21408,33.16723],[-117.21248,33.1666],[-117.21243,33.16753],[-117.20951,33.16822],[-117.2113,33.16868],[-117.21137,33.17087],[-117.21203,33.17125],[-117.21267,33.17055],[-117.21414,33.17067],[-117.21395,33.17386],[-117.21511,33.17389],[-117.21571,33.17553],[-117.21791,33.17589],[-117.21856,33.17422],[-117.21719,33.17361],[-117.21837,33.17335],[-117.21961,33.17406],[-117.22231,33.1733],[-117.22266,33.17399],[-117.22452,33.17421],[-117.22511,33.17357],[-117.22887,33.17946],[-117.22593,33.17953],[-117.22594,33.1802],[-117.22514,33.17999],[-117.22398,33.18126],[-117.2218,33.18002],[-117.22181,33.18113],[-117.22064,33.18117],[-117.22118,33.18179],[-117.21967,33.18186],[-117.21902,33.18074],[-117.21749,33.18194],[-117.21904,33.18293],[-117.21849,33.18526],[-117.22111,33.18598],[-117.22034,33.18667],[-117.22135,33.18756],[-117.22009,33.19069],[-117.21757,33.19064],[-117.21681,33.18854],[-117.2157,33.19031],[-117.21752,33.19065],[-117.21537,33.19137],[-117.21537,33.1903],[-117.21353,33.19028],[-117.21337,33.18657],[-117.21183,33.18667],[-117.21166,33.18741],[-117.21128,33.18663],[-117.20961,33.18664],[-117.20955,33.19249],[-117.21068,33.19251],[-117.21068,33.19392],[-117.20863,33.19392],[-117.20865,33.1947],[-117.21088,33.19476],[-117.21128,33.19388],[-117.21217,33.19389],[-117.21194,33.19487],[-117.21345,33.19568],[-117.21337,33.19751],[-117.21439,33.19884],[-117.21315,33.20219],[-117.21457,33.20263],[-117.2155,33.20108],[-117.21681,33.20109],[-117.21586,33.20414],[-117.21243,33.20349],[-117.21339,33.20477],[-117.20846,33.20479],[-117.20849,33.20242],[-117.20611,33.20179],[-117.20614,33.2008],[-117.20398,33.20114],[-117.20395,33.20245],[-117.19985,33.20216],[-117.19826,33.2028],[-117.19784,33.2011],[-117.19228,33.2011],[-117.19225,33.20712],[-117.19396,33.20616],[-117.1967,33.20616],[-117.19706,33.20712],[-117.19568,33.20726],[-117.19588,33.20822],[-117.19866,33.20825],[-117.19891,33.21003],[-117.20061,33.21005],[-117.19979,33.20608],[-117.20201,33.20559],[-117.20158,33.20652],[-117.20517,33.20631],[-117.20513,33.20838],[-117.20445,33.20836],[-117.20623,33.21022],[-117.20175,33.20977],[-117.20152,33.21115],[-117.20156,33.2118],[-117.20666,33.21203],[-117.20668,33.21112],[-117.208,33.21114],[-117.20805,33.21565],[-117.20572,33.21562],[-117.20574,33.21646],[-117.20805,33.21655],[-117.20805,33.21799],[-117.20664,33.21772],[-117.20667,33.21931],[-117.20582,33.21931],[-117.20495,33.22076],[-117.20363,33.22076],[-117.20364,33.22206],[-117.20527,33.22206],[-117.20723,33.22062],[-117.20744,33.22122],[-117.20654,33.22298],[-117.20473,33.223],[-117.20473,33.22665],[-117.20927,33.22726],[-117.21534,33.22486],[-117.21507,33.22802],[-117.21649,33.22866],[-117.21619,33.22911],[-117.21509,33.22826],[-117.21408,33.22922],[-117.21404,33.23047],[-117.21567,33.23042],[-117.21591,33.22973],[-117.21634,33.23042],[-117.21516,33.23158],[-117.21687,33.23125],[-117.21715,33.22903],[-117.21874,33.22926],[-117.21884,33.23007],[-117.22229,33.23033],[-117.22225,33.23218],[-117.2213,33.23201],[-117.22124,33.23326],[-117.2191,33.23403],[-117.22026,33.2356],[-117.21729,33.23539],[-117.21727,33.23768],[-117.22075,33.23725],[-117.2209,33.23604],[-117.22178,33.23586],[-117.22434,33.23574],[-117.22419,33.23669],[-117.22626,33.2367],[-117.2262,33.23442],[-117.22937,33.23483],[-117.22924,33.23231],[-117.23156,33.23229],[-117.23104,33.23108],[-117.22903,33.23083],[-117.22914,33.23179],[-117.227,33.23172],[-117.2273,33.23035],[-117.22892,33.23035],[-117.22941,33.22839],[-117.23019,33.22845],[-117.23045,33.22955],[-117.2309,33.2285],[-117.23591,33.22891],[-117.23601,33.2306],[-117.23444,33.23059],[-117.23502,33.23242],[-117.23701,33.23229],[-117.23699,33.229],[-117.23907,33.22916],[-117.2387,33.23096],[-117.24109,33.23158],[-117.24135,33.23247],[-117.24307,33.23249],[-117.24331,33.23152],[-117.24409,33.23429],[-117.24539,33.23354],[-117.2454,33.23507],[-117.24626,33.23582],[-117.24687,33.23539],[-117.24633,33.23509],[-117.24849,33.23512],[-117.25013,33.23418],[-117.25683,33.23848],[-117.25914,33.23551],[-117.25778,33.23525],[-117.25858,33.22889],[-117.26222,33.22718],[-117.2574,33.22457],[-117.25742,33.22343],[-117.25349,33.22315],[-117.25608,33.22316],[-117.25601,33.21959],[-117.25819,33.21998],[-117.26222,33.21915],[-117.2622,33.21043],[-117.26655,33.20834],[-117.27092,33.20836],[-117.27091,33.20666],[-117.27232,33.20667],[-117.27233,33.20574],[-117.27362,33.20574],[-117.27361,33.20475],[-117.27949,33.20479],[-117.27951,33.19386],[-117.28775,33.19393],[-117.28772,33.1903],[-117.28668,33.19029],[-117.2855,33.18786],[-117.28565,33.18667],[-117.28825,33.18673],[-117.28825,33.18364]]]},"properties":{"GEOID":"0682996","NAME":"Vista city","BASENAME":"Vista","STATE":"06","PLACE":"82996"}},{"type":"Feature","geometry":{"type":"Polygon","coordinates":[[[-117.31204,33.08235],[-117.31007,33.07547],[-117.30067,33.05358],[-117.29584,33.03715],[-117.29447,33.03518],[-117.29142,33.0336],[-117.28041,33.0125],[-117.279,33.00764],[-117.27818,32.99962],[-117.27799,33.00053],[-117.27624,33.00145],[-117.27682,33.00227],[-117.27537,33.00413],[-117.25927,33.00383],[-117.26119,33.00749],[-117.26029,33.0067],[-117.26003,33.00742],[-117.2455,33.00745],[-117.2455,33.00566],[-117.24445,33.00567],[-117.24441,33.00745],[-117.24282,33.00746],[-117.2428,33.00937],[-117.2393,33.00942],[-117.24054,33.01103],[-117.24278,33.01103],[-117.24282,33.0128],[-117.24709,33.01278],[-117.24706,33.01673],[-117.24431,33.01798],[-117.24429,33.02171],[-117.24697,33.02043],[-117.24698,33.02181],[-117.2418,33.02177],[-117.24209,33.02682],[-117.2361,33.03226],[-117.23611,33.0334],[-117.23735,33.03373],[-117.23627,33.03696],[-117.23375,33.03631],[-117.2331,33.03834],[-117.23201,33.03818],[-117.2306,33.04245],[-117.22979,33.04245],[-117.22919,33.04662],[-117.22801,33.04632],[-117.22735,33.0485],[-117.22009,33.04647],[-117.21516,33.05091],[-117.20832,33.04829],[-117.20844,33.04903],[-117.20473,33.05037],[-117.20465,33.0547],[-117.20016,33.05382],[-117.20007,33.06556],[-117.19582,33.06554],[-117.19578,33.06741],[-117.19795,33.0674],[-117.19791,33.06924],[-117.19991,33.06923],[-117.19991,33.07304],[-117.19576,33.07296],[-117.19568,33.08041],[-117.19862,33.08043],[-117.19883,33.0795],[-117.20043,33.07904],[-117.20101,33.0795],[-117.20047,33.08044],[-117.20232,33.08044],[-117.20272,33.08],[-117.19899,33.07759],[-117.2013,33.07516],[-117.20395,33.07684],[-117.21078,33.07679],[-117.21077,33.0759],[-117.214,33.07766],[-117.2159,33.07589],[-117.22424,33.0757],[-117.22335,33.06125],[-117.22916,33.061],[-117.2294,33.06271],[-117.23201,33.06281],[-117.23191,33.06088],[-117.2394,33.06052],[-117.24349,33.06398],[-117.24933,33.06373],[-117.24955,33.06736],[-117.24896,33.06748],[-117.2605,33.0672],[-117.26221,33.06788],[-117.26232,33.07015],[-117.26833,33.06995],[-117.26812,33.06865],[-117.27231,33.06866],[-117.27313,33.08045],[-117.27002,33.08046],[-117.27003,33.08496],[-117.27321,33.08512],[-117.27792,33.08743],[-117.29104,33.08689],[-117.29561,33.08503],[-117.29607,33.08404],[-117.29959,33.08421],[-117.30111,33.08724],[-117.30367,33.08631],[-117.30553,33.08414],[-117.30804,33.08413],[-117.3097,33.08343],[-117.30922,33.08298],[-117.30982,33.08245],[-117.31204,33.08235]]]},"properties":{"GEOID":"0622678","NAME":"Encinitas city","BASENAME":"Encinitas","STATE":"06","PLACE":"22678"}},{"type":"Feature","geometry":{"type":"Polygon","coordinates":[[[-117.22986,33.13121],[-117.22982,33.11772],[-117.22668,33.11774],[-117.226,33.11702],[-117.22713,33.11481],[-117.22549,33.10977],[-117.22579,33.10691],[-117.22304,33.10246],[-117.22116,33.10261],[-117.22101,33.09514],[-117.21669,33.09511],[-117.2167,33.09114],[-117.21541,33.09101],[-117.21179,33.09073],[-117.21019,33.09184],[-117.21127,33.09508],[-117.20855,33.09507],[-117.20444,33.09352],[-117.20371,33.09262],[-117.20371,33.08762],[-117.20505,33.08601],[-117.20417,33.08474],[-117.20521,33.08268],[-117.20232,33.08044],[-117.19954,33.08044],[-117.20017,33.08069],[-117.19942,33.08146],[-117.1994,33.08398],[-117.19069,33.08399],[-117.19064,33.09494],[-117.18306,33.09493],[-117.18313,33.09581],[-117.18036,33.09577],[-117.1797,33.09508],[-117.17833,33.0961],[-117.17855,33.09776],[-117.17721,33.09802],[-117.17727,33.10064],[-117.17374,33.10072],[-117.17271,33.10245],[-117.17072,33.1025],[-117.17073,33.09866],[-117.16568,33.09859],[-117.16569,33.09997],[-117.16239,33.09999],[-117.16237,33.1023],[-117.1564,33.10226],[-117.15597,33.11322],[-117.13972,33.11296],[-117.13969,33.12736],[-117.12966,33.12744],[-117.12961,33.13327],[-117.12871,33.13434],[-117.12788,33.13355],[-117.12838,33.13272],[-117.12577,33.1316],[-117.12451,33.13117],[-117.12341,33.13289],[-117.11368,33.12859],[-117.11017,33.13458],[-117.11209,33.13396],[-117.11231,33.13488],[-117.11369,33.13276],[-117.11542,33.13349],[-117.11456,33.13488],[-117.11655,33.13603],[-117.11585,33.1372],[-117.11463,33.13726],[-117.11651,33.13842],[-117.11274,33.14139],[-117.12217,33.14708],[-117.12137,33.15258],[-117.12893,33.15699],[-117.12894,33.15949],[-117.13507,33.15798],[-117.13604,33.16055],[-117.13791,33.16066],[-117.13649,33.1576],[-117.13764,33.15734],[-117.13834,33.15918],[-117.14132,33.15864],[-117.14589,33.16445],[-117.14569,33.16954],[-117.14781,33.17019],[-117.14649,33.17208],[-117.13994,33.17214],[-117.13966,33.17614],[-117.14265,33.17752],[-117.14543,33.1774],[-117.14823,33.17835],[-117.14744,33.18019],[-117.15052,33.18109],[-117.15119,33.17939],[-117.15242,33.17967],[-117.15046,33.18417],[-117.15256,33.18827],[-117.15636,33.18824],[-117.15648,33.18685],[-117.16196,33.18678],[-117.16191,33.18306],[-117.15794,33.18317],[-117.16197,33.17406],[-117.16392,33.17428],[-117.16393,33.17566],[-117.16609,33.17566],[-117.16605,33.17473],[-117.16806,33.17568],[-117.17484,33.17562],[-117.17364,33.17418],[-117.17541,33.17431],[-117.17791,33.17311],[-117.18085,33.1733],[-117.17842,33.17927],[-117.17792,33.18288],[-117.17861,33.17932],[-117.18164,33.17422],[-117.1849,33.17514],[-117.1837,33.17927],[-117.1872,33.17467],[-117.18716,33.17212],[-117.19139,33.17211],[-117.19134,33.16841],[-117.19559,33.16402],[-117.19553,33.16264],[-117.20345,33.16385],[-117.20916,33.15378],[-117.21125,33.15449],[-117.21674,33.14358],[-117.21912,33.14117],[-117.219,33.13989],[-117.22129,33.13692],[-117.22125,33.13199],[-117.22986,33.13121]],[[-117.22558,33.12013],[-117.22131,33.12063],[-117.2238,33.11846],[-117.22559,33.11937],[-117.22558,33.12013]],[[-117.22552,33.11669],[-117.22123,33.11902],[-117.22123,33.11979],[-117.21572,33.12462],[-117.21728,33.12609],[-117.21283,33.13],[-117.21126,33.12875],[-117.2083,33.13135],[-117.20833,33.12778],[-117.20389,33.1278],[-117.20389,33.12938],[-117.20267,33.13041],[-117.2006,33.13061],[-117.19599,33.1269],[-117.19521,33.12066],[-117.19051,33.12029],[-117.19043,33.11501],[-117.20817,33.11489],[-117.20814,33.1088],[-117.20959,33.10957],[-117.21693,33.10965],[-117.21687,33.11338],[-117.22547,33.11336],[-117.22552,33.11669]]]},"properties":{"GEOID":"0668196","NAME":"San Marcos city","BASENAME":"San Marcos","STATE":"06","PLACE":"68196"}},{"type":"Feature","geometry":{"type":"MultiPolygon","coordinates":[[[[-117.28227,32.83262],[-117.27957,32.82621],[-117.28069,32.82196],[-117.27566,32.81815],[-117.2748,32.81864],[-117.27389,32.81806],[-117.27308,32.8167],[-117.27407,32.81559],[-117.27345,32.81422],[-117.27153,32.81336],[-117.26851,32.80854],[-117.26736,32.80765],[-117.26453,32.80763],[-117.26086,32.80351],[-117.25787,32.79794],[-117.25484,32.78782],[-117.25361,32.78136],[-117.25283,32.76682],[-117.25336,32.75995],[-117.25412,32.75898],[-117.25286,32.75419],[-117.25373,32.75397],[-117.25358,32.7477],[-117.25503,32.74656],[-117.25546,32.74474],[-117.25484,32.74397],[-117.25528,32.73692],[-117.25704,32.73336],[-117.25673,32.73064],[-117.25729,32.73061],[-117.25628,32.72981],[-117.25568,32.7276],[-117.25835,32.72538],[-117.25756,32.7247],[-117.25727,32.71983],[-117.25578,32.71617],[-117.25656,32.71511],[-117.25528,32.70898],[-117.2555,32.69922],[-117.25399,32.6972],[-117.25398,32.69462],[-117.25283,32.69384],[-117.25309,32.69215],[-117.25016,32.68939],[-117.24996,32.6838],[-117.24835,32.68238],[-117.24856,32.67999],[-117.24692,32.67723],[-117.24662,32.67485],[-117.24543,32.67418],[-117.24551,32.66955],[-117.2447,32.66854],[-117.24459,32.66633],[-117.2427,32.66481],[-117.23901,32.666],[-117.23706,32.66811],[-117.23758,32.66985],[-117.23632,32.67186],[-117.20185,32.67426],[-117.19414,32.68576],[-117.20308,32.68711],[-117.20586,32.68876],[-117.21185,32.69042],[-117.2213,32.68689],[-117.2252,32.68692],[-117.22669,32.68903],[-117.22704,32.69494],[-117.22152,32.69786],[-117.21717,32.7043],[-117.20376,32.71195],[-117.19922,32.71406],[-117.19583,32.71463],[-117.19001,32.71272],[-117.18984,32.71323],[-117.18687,32.71113],[-117.18943,32.70623],[-117.1666,32.69801],[-117.1638,32.69359],[-117.16379,32.69222],[-117.1624,32.69255],[-117.14352,32.67806],[-117.13513,32.67318],[-117.12961,32.66623],[-117.1196,32.6057],[-117.11671,32.60605],[-117.11488,32.5942],[-117.11855,32.59129],[-117.11585,32.59106],[-117.11422,32.58974],[-117.1103,32.58958],[-117.10778,32.58779],[-117.10558,32.58803],[-117.10554,32.58408],[-117.10385,32.58407],[-117.10384,32.57652],[-117.10124,32.5765],[-117.10137,32.56796],[-117.09957,32.56793],[-117.09958,32.56686],[-117.10131,32.56687],[-117.10144,32.55826],[-117.11875,32.55822],[-117.11888,32.53479],[-116.928,32.55108],[-116.92783,32.56009],[-116.93661,32.5602],[-116.93644,32.56746],[-116.9537,32.56761],[-116.95367,32.5786],[-116.95154,32.57856],[-116.95157,32.58584],[-116.96222,32.58619],[-116.96222,32.58436],[-116.96666,32.58436],[-116.96666,32.58246],[-116.9839,32.58252],[-116.99947,32.57801],[-117.00151,32.58311],[-117.01447,32.58363],[-117.01448,32.59108],[-117.03232,32.59122],[-117.03229,32.58753],[-117.03578,32.5875],[-117.03561,32.59115],[-117.04496,32.5912],[-117.04492,32.58741],[-117.04926,32.58737],[-117.0493,32.59106],[-117.0537,32.59105],[-117.0538,32.58742],[-117.05596,32.58742],[-117.05813,32.58743],[-117.05812,32.59103],[-117.08408,32.59119],[-117.08409,32.59481],[-117.08951,32.59495],[-117.09033,32.5961],[-117.09119,32.60156],[-117.09247,32.60157],[-117.09257,32.6046],[-117.09849,32.60523],[-117.10235,32.60392],[-117.10412,32.60232],[-117.11646,32.60657],[-117.11856,32.60627],[-117.12926,32.66726],[-117.13448,32.67382],[-117.14188,32.67817],[-117.12132,32.67942],[-117.10141,32.68502],[-117.10244,32.68896],[-117.09603,32.68838],[-117.09603,32.68897],[-117.09373,32.68898],[-117.09377,32.69216],[-117.08727,32.69132],[-117.08727,32.6919],[-117.08513,32.6919],[-117.08365,32.69283],[-117.07847,32.69319],[-117.07783,32.69159],[-117.07665,32.69192],[-117.07551,32.68848],[-117.06536,32.69135],[-117.06397,32.68788],[-117.06599,32.68733],[-117.06465,32.68384],[-117.07283,32.68156],[-117.06543,32.66242],[-117.05286,32.66575],[-117.04175,32.67148],[-117.03277,32.68026],[-117.02635,32.68465],[-117.02591,32.68578],[-117.02144,32.68831],[-117.02296,32.69276],[-117.02208,32.6933],[-117.02239,32.6958],[-117.0246,32.69708],[-117.02523,32.69868],[-117.01881,32.70044],[-117.01998,32.70133],[-117.02116,32.70498],[-117.0201,32.70605],[-117.02069,32.70753],[-117.01816,32.70825],[-117.02044,32.71477],[-117.02316,32.71473],[-117.02299,32.71848],[-117.02846,32.71868],[-117.02846,32.72118],[-117.03016,32.72179],[-117.03021,32.72026],[-117.03197,32.72033],[-117.03194,32.71548],[-117.03262,32.7153],[-117.03457,32.71671],[-117.0345,32.72033],[-117.03547,32.72025],[-117.03536,32.7212],[-117.03652,32.72105],[-117.03667,32.72029],[-117.03781,32.72066],[-117.03882,32.71956],[-117.04173,32.72057],[-117.04637,32.71508],[-117.04931,32.71515],[-117.04922,32.72967],[-117.05076,32.72964],[-117.04938,32.73146],[-117.05007,32.73196],[-117.04976,32.73335],[-117.05194,32.73383],[-117.05261,32.73228],[-117.05755,32.72992],[-117.05817,32.73073],[-117.06047,32.73088],[-117.06262,32.72949],[-117.06445,32.72947],[-117.05894,32.7328],[-117.05707,32.73631],[-117.05127,32.74246],[-117.04928,32.74358],[-117.04913,32.75566],[-117.05348,32.75577],[-117.05335,32.76327],[-117.05116,32.76325],[-117.05113,32.76601],[-117.04558,32.76601],[-117.0456,32.76765],[-117.0404,32.76774],[-117.04042,32.76883],[-117.03895,32.76885],[-117.03993,32.77161],[-117.04038,32.77095],[-117.04702,32.77084],[-117.04648,32.77349],[-117.0486,32.77426],[-117.04865,32.77733],[-117.05138,32.77794],[-117.04823,32.78043],[-117.04524,32.77955],[-117.04429,32.78006],[-117.04368,32.77722],[-117.04216,32.77893],[-117.03995,32.77944],[-117.04,32.78138],[-117.03893,32.78158],[-117.03983,32.78211],[-117.03752,32.7831],[-117.03632,32.78587],[-117.03192,32.78879],[-117.031,32.79055],[-117.03579,32.78873],[-117.03749,32.78879],[-117.03809,32.79037],[-117.0374,32.79148],[-117.00601,32.79132],[-117.00595,32.81294],[-117.03456,32.8315],[-117.03817,32.83145],[-117.03661,32.83297],[-117.03841,32.8341],[-117.03728,32.83552],[-117.03668,32.83844],[-117.02677,32.83702],[-117.02398,32.83869],[-117.02228,32.83782],[-117.02235,32.83673],[-117.01292,32.8361],[-117.00545,32.83733],[-117.00541,32.84156],[-117.0076,32.84057],[-117.0138,32.83982],[-117.01648,32.83767],[-117.01863,32.83709],[-117.02193,32.83854],[-117.02328,32.83924],[-117.02394,32.84581],[-117.01901,32.84884],[-117.01893,32.84982],[-117.01501,32.85047],[-117.01323,32.85279],[-117.01157,32.85323],[-117.01113,32.85559],[-117.01273,32.85559],[-117.01381,32.85801],[-117.01163,32.8619],[-117.01408,32.86128],[-117.01528,32.8628],[-117.01201,32.86305],[-117.01172,32.86353],[-117.0132,32.86473],[-117.01173,32.86498],[-117.01075,32.86701],[-117.00934,32.86644],[-117.00319,32.87726],[-116.99566,32.88763],[-116.99306,32.89485],[-116.98774,32.89869],[-116.98429,32.89927],[-116.98429,32.9049],[-116.98928,32.905],[-116.98955,32.9339],[-116.98373,32.93398],[-116.98452,32.93792],[-116.98173,32.94006],[-116.98038,32.93991],[-116.98067,32.94185],[-116.98532,32.94286],[-116.99592,32.94231],[-117.00086,32.94473],[-117.01048,32.94136],[-117.01298,32.93732],[-117.01495,32.93713],[-117.01769,32.93452],[-117.02985,32.93045],[-117.03395,32.92802],[-117.03746,32.92725],[-117.05018,32.92759],[-117.05554,32.929],[-117.05822,32.93102],[-117.05821,32.92781],[-117.06664,32.92772],[-117.0667,32.93505],[-117.06732,32.93508],[-117.0667,32.9365],[-117.06676,32.94231],[-117.07106,32.94242],[-117.07107,32.94594],[-117.0754,32.94598],[-117.0754,32.94958],[-117.08389,32.94963],[-117.0843,32.96457],[-117.06688,32.96436],[-117.06634,32.99325],[-117.06209,32.9932],[-117.06207,32.99489],[-117.0601,32.99471],[-117.05236,33.02386],[-117.04101,33.04402],[-117.0397,33.04402],[-117.03775,33.04684],[-117.03834,33.04889],[-117.03771,33.05005],[-117.03528,33.05169],[-117.03561,33.05314],[-117.03405,33.05399],[-117.03216,33.05353],[-117.03086,33.05169],[-117.02968,33.05279],[-117.03031,33.05358],[-117.02955,33.05553],[-117.02418,33.05873],[-117.02444,33.05989],[-117.02315,33.05985],[-117.02313,33.06163],[-117.02871,33.06289],[-117.03004,33.06465],[-117.02976,33.06601],[-117.01877,33.06632],[-117.01871,33.07318],[-116.98854,33.07307],[-116.98839,33.06954],[-116.98001,33.06959],[-116.98016,33.07465],[-116.97826,33.07352],[-116.97429,33.07588],[-116.97145,33.07522],[-116.97157,33.08011],[-116.95765,33.08014],[-116.95773,33.08249],[-116.95478,33.08264],[-116.95479,33.08388],[-116.95405,33.08398],[-116.95495,33.08774],[-116.95064,33.08775],[-116.95081,33.09518],[-116.94644,33.09509],[-116.94669,33.08778],[-116.94531,33.08737],[-116.94527,33.08365],[-116.94633,33.08371],[-116.94626,33.08014],[-116.91381,33.07964],[-116.91386,33.08329],[-116.90511,33.08322],[-116.90558,33.09089],[-116.93227,33.09122],[-116.93229,33.09505],[-116.94169,33.09509],[-116.94151,33.09872],[-116.95506,33.09885],[-116.95512,33.09369],[-116.95934,33.09292],[-116.95954,33.09139],[-116.96371,33.09129],[-116.96336,33.10568],[-116.98095,33.1054],[-116.98097,33.10898],[-116.99828,33.10914],[-116.99831,33.10555],[-117.00275,33.1055],[-117.00275,33.10177],[-117.00722,33.10174],[-117.00715,33.10903],[-117.00892,33.109],[-117.00891,33.11142],[-117.01081,33.1114],[-117.01078,33.11222],[-117.00937,33.11228],[-117.00939,33.11419],[-117.01276,33.11417],[-117.01274,33.11357],[-117.02028,33.10923],[-117.02012,33.10546],[-117.02456,33.10524],[-117.02435,33.09823],[-117.02648,33.09815],[-117.02349,33.09704],[-117.02103,33.09752],[-117.02059,33.09237],[-117.02393,33.09243],[-117.02391,33.09062],[-117.02076,33.0904],[-117.02323,33.08757],[-117.02156,33.08744],[-117.02597,33.08286],[-117.02523,33.08505],[-117.02617,33.08384],[-117.02638,33.08541],[-117.02824,33.08563],[-117.03044,33.08769],[-117.03053,33.08597],[-117.03207,33.08375],[-117.03344,33.08294],[-117.035,33.08338],[-117.0361,33.08197],[-117.036,33.08015],[-117.03673,33.0795],[-117.03535,33.07902],[-117.03507,33.07813],[-117.03635,33.07561],[-117.03723,33.07607],[-117.03875,33.07362],[-117.04605,33.07151],[-117.04717,33.06792],[-117.04113,33.06739],[-117.03917,33.06623],[-117.03992,33.06565],[-117.03809,33.06474],[-117.03885,33.06288],[-117.04,33.06278],[-117.04013,33.06166],[-117.04263,33.06128],[-117.04455,33.05949],[-117.05017,33.05897],[-117.05447,33.06021],[-117.05343,33.06157],[-117.05809,33.06247],[-117.05751,33.06554],[-117.06113,33.06826],[-117.06702,33.06756],[-117.06836,33.06547],[-117.07015,33.06533],[-117.06985,33.06281],[-117.07276,33.06197],[-117.07327,33.06068],[-117.07418,33.06045],[-117.07806,33.0608],[-117.07777,33.06188],[-117.07927,33.06321],[-117.07881,33.06369],[-117.08225,33.0647],[-117.08125,33.06353],[-117.08714,33.05721],[-117.09557,33.06122],[-117.09474,33.06365],[-117.09661,33.06331],[-117.09849,33.06453],[-117.09878,33.06756],[-117.10377,33.07011],[-117.10543,33.07178],[-117.10589,33.07387],[-117.10685,33.07313],[-117.11459,33.08007],[-117.11813,33.07688],[-117.11813,33.0708],[-117.12019,33.06622],[-117.1193,33.06417],[-117.12013,33.06258],[-117.11886,33.06214],[-117.11809,33.06032],[-117.11799,33.05482],[-117.12212,33.05482],[-117.12303,33.04997],[-117.12974,33.04667],[-117.13285,33.04382],[-117.11842,33.04382],[-117.1183,33.04715],[-117.11743,33.04621],[-117.11784,33.04832],[-117.11665,33.04918],[-117.11719,33.05001],[-117.11469,33.05151],[-117.11459,33.05343],[-117.11342,33.05422],[-117.11392,33.05487],[-117.11242,33.05612],[-117.11328,33.05739],[-117.11284,33.06121],[-117.11401,33.06256],[-117.11508,33.06637],[-117.11382,33.06804],[-117.11273,33.06796],[-117.11179,33.06675],[-117.11282,33.06348],[-117.11189,33.06196],[-117.1098,33.0612],[-117.11027,33.0592],[-117.1018,33.05912],[-117.09477,33.05499],[-117.0899,33.04925],[-117.099,33.01235],[-117.09586,33.01213],[-117.09962,32.99799],[-117.12473,33.00005],[-117.11934,33.02208],[-117.15248,33.02178],[-117.15245,33.00737],[-117.16986,33.00723],[-117.16987,32.97023],[-117.17851,32.9703],[-117.17851,32.97393],[-117.20016,32.97399],[-117.20026,32.9776],[-117.20321,32.97758],[-117.20448,32.97881],[-117.19662,32.98496],[-117.21713,32.98552],[-117.21859,32.98406],[-117.22151,32.98376],[-117.22152,32.98228],[-117.2265,32.98486],[-117.2287,32.98293],[-117.2331,32.98187],[-117.23827,32.98184],[-117.23869,32.98574],[-117.24958,32.98562],[-117.24953,32.98205],[-117.25606,32.98212],[-117.2559,32.95298],[-117.26018,32.95285],[-117.26068,32.95099],[-117.25972,32.94846],[-117.26095,32.9481],[-117.26013,32.94561],[-117.25592,32.94564],[-117.25598,32.94202],[-117.25815,32.94201],[-117.25815,32.9384],[-117.25945,32.93741],[-117.26246,32.93988],[-117.25961,32.926],[-117.25863,32.91396],[-117.25681,32.91099],[-117.25419,32.90155],[-117.25305,32.88478],[-117.25131,32.87857],[-117.2513,32.8754],[-117.25211,32.87255],[-117.25329,32.87133],[-117.2561,32.85977],[-117.26073,32.85264],[-117.26522,32.8489],[-117.26762,32.84861],[-117.27038,32.85039],[-117.27034,32.8496],[-117.27365,32.8512],[-117.27732,32.84792],[-117.279,32.84755],[-117.27912,32.84462],[-117.28126,32.84316],[-117.28218,32.84043],[-117.28129,32.83675],[-117.28227,32.83262]],[[-117.11675,32.893],[-117.11671,32.89818],[-117.10748,32.89816],[-117.10747,32.89579],[-117.10906,32.8945],[-117.11675,32.893]]],[[[-116.93257,32.64918],[-116.93222,32.64869],[-116.93104,32.64947],[-116.93144,32.64994],[-116.93257,32.64918]]],[[[-116.93402,32.60658],[-116.93329,32.6047],[-116.93082,32.6048],[-116.93084,32.60815],[-116.92568,32.60822],[-116.92565,32.61197],[-116.92778,32.61196],[-116.92778,32.61106],[-116.92916,32.61109],[-116.92915,32.61009],[-116.93212,32.6101],[-116.93219,32.60819],[-116.93292,32.60819],[-116.93241,32.60703],[-116.93402,32.60658]]]]},"properties":{"GEOID":"0666000","NAME":"San Diego city","BASENAME":"San Diego","STATE":"06","PLACE":"66000"}},{"type":"Feature","geometry":{"type":"MultiPolygon","coordinates":[[[[-117.1461,33.16747],[-117.14587,33.1644],[-117.14166,33.16334],[-117.14162,33.16236],[-117.14003,33.16216],[-117.13878,33.16073],[-117.12854,33.16107],[-117.12893,33.15699],[-117.12137,33.15258],[-117.12207,33.14971],[-117.11901,33.14794],[-117.1167,33.14978],[-117.11519,33.14888],[-117.1139,33.15044],[-117.1147,33.15073],[-117.11464,33.15262],[-117.11043,33.15266],[-117.11017,33.14974],[-117.10935,33.1492],[-117.11028,33.14901],[-117.11025,33.1483],[-117.10863,33.14732],[-117.10875,33.14616],[-117.10949,33.14626],[-117.1092,33.14539],[-117.10722,33.14453],[-117.10713,33.14233],[-117.10634,33.14163],[-117.10786,33.14022],[-117.10657,33.13908],[-117.10992,33.13651],[-117.10755,33.13646],[-117.10416,33.13346],[-117.10619,33.13162],[-117.10485,33.13156],[-117.10339,33.12977],[-117.1042,33.12906],[-117.10336,33.12857],[-117.10482,33.12679],[-117.11268,33.13015],[-117.11368,33.12859],[-117.12341,33.13289],[-117.12451,33.13117],[-117.12838,33.13272],[-117.12788,33.13355],[-117.12871,33.13434],[-117.12961,33.13327],[-117.12966,33.12744],[-117.13195,33.12745],[-117.13197,33.12564],[-117.13404,33.12565],[-117.13404,33.12393],[-117.1275,33.12401],[-117.12737,33.1266],[-117.12587,33.12762],[-117.12335,33.1279],[-117.12331,33.12712],[-117.12081,33.12576],[-117.12079,33.12398],[-117.12235,33.12396],[-117.12315,33.12155],[-117.12533,33.12144],[-117.1254,33.12028],[-117.12657,33.12027],[-117.12647,33.11923],[-117.12743,33.11916],[-117.12514,33.11665],[-117.12512,33.11606],[-117.1272,33.11604],[-117.12351,33.11209],[-117.12314,33.10935],[-117.12013,33.10939],[-117.12145,33.10749],[-117.119,33.10626],[-117.11778,33.10446],[-117.11903,33.10291],[-117.11765,33.10289],[-117.11762,33.10137],[-117.11879,33.10134],[-117.11885,33.09659],[-117.12105,33.09659],[-117.12104,33.09835],[-117.12308,33.09836],[-117.12308,33.08757],[-117.1396,33.08751],[-117.13957,33.08387],[-117.13631,33.08388],[-117.13627,33.08018],[-117.1203,33.08025],[-117.11888,33.08377],[-117.11894,33.08753],[-117.11512,33.08755],[-117.11435,33.08881],[-117.11469,33.09183],[-117.11408,33.09337],[-117.1117,33.0947],[-117.11204,33.09206],[-117.11062,33.0917],[-117.11063,33.09464],[-117.10933,33.09462],[-117.10955,33.09313],[-117.1105,33.09303],[-117.10837,33.09232],[-117.10838,33.09105],[-117.10258,33.09095],[-117.10505,33.08232],[-117.10416,33.08139],[-117.10345,33.08088],[-117.10329,33.08153],[-117.10137,33.08157],[-117.09722,33.07969],[-117.09637,33.08024],[-117.09228,33.07909],[-117.09174,33.08116],[-117.09354,33.08148],[-117.09285,33.08503],[-117.09084,33.08466],[-117.08972,33.089],[-117.08849,33.0891],[-117.08786,33.08777],[-117.08738,33.08963],[-117.08947,33.09],[-117.0897,33.09125],[-117.08851,33.09355],[-117.09486,33.0947],[-117.09531,33.09296],[-117.09745,33.0933],[-117.0964,33.09588],[-117.09828,33.09531],[-117.10132,33.09591],[-117.10094,33.09767],[-117.10023,33.09754],[-117.10038,33.09668],[-117.09793,33.09619],[-117.09771,33.09707],[-117.09866,33.09724],[-117.09823,33.09899],[-117.09399,33.09817],[-117.09417,33.09744],[-117.09206,33.09786],[-117.08762,33.09696],[-117.08551,33.09353],[-117.08647,33.09317],[-117.08725,33.09013],[-117.08543,33.0898],[-117.08587,33.08905],[-117.08462,33.08796],[-117.08493,33.08669],[-117.08362,33.08327],[-117.08231,33.08314],[-117.08109,33.08787],[-117.07883,33.08792],[-117.08053,33.0898],[-117.08095,33.08846],[-117.08518,33.08923],[-117.08434,33.09094],[-117.07759,33.08908],[-117.07832,33.08997],[-117.07675,33.09016],[-117.07638,33.09135],[-117.07312,33.09079],[-117.07414,33.08982],[-117.07279,33.0895],[-117.06955,33.07525],[-117.0734,33.07598],[-117.073,33.07741],[-117.07501,33.07874],[-117.07521,33.07628],[-117.07986,33.07712],[-117.081,33.07585],[-117.07917,33.07517],[-117.07889,33.07295],[-117.08346,33.07319],[-117.08615,33.07163],[-117.08741,33.07198],[-117.08719,33.07518],[-117.08804,33.07153],[-117.0892,33.07152],[-117.08999,33.05806],[-117.08678,33.05725],[-117.0868,33.05829],[-117.08125,33.06353],[-117.08225,33.0647],[-117.07881,33.06369],[-117.07927,33.06321],[-117.07777,33.06188],[-117.07806,33.0608],[-117.07418,33.06045],[-117.07327,33.06068],[-117.07276,33.06197],[-117.06985,33.06281],[-117.07015,33.06533],[-117.06836,33.06547],[-117.06702,33.06756],[-117.06113,33.06826],[-117.05751,33.06554],[-117.05809,33.06247],[-117.05343,33.06157],[-117.05447,33.06021],[-117.05017,33.05897],[-117.04455,33.05949],[-117.04263,33.06128],[-117.04123,33.06103],[-117.03957,33.06242],[-117.04,33.06278],[-117.03885,33.06288],[-117.03809,33.06474],[-117.03992,33.06565],[-117.03917,33.06623],[-117.0415,33.0675],[-117.04717,33.06792],[-117.04605,33.07151],[-117.05227,33.07326],[-117.05186,33.07546],[-117.05354,33.07544],[-117.05371,33.07769],[-117.05211,33.07953],[-117.05257,33.08057],[-117.05037,33.08166],[-117.05127,33.0844],[-117.04908,33.0844],[-117.05279,33.08587],[-117.05449,33.08574],[-117.05337,33.08762],[-117.05255,33.08742],[-117.05012,33.08983],[-117.04804,33.08947],[-117.04876,33.09103],[-117.0478,33.09175],[-117.04684,33.09482],[-117.04327,33.09418],[-117.04299,33.0952],[-117.04641,33.09589],[-117.04623,33.09697],[-117.05141,33.09692],[-117.05147,33.09242],[-117.05075,33.09224],[-117.05248,33.09016],[-117.0546,33.09147],[-117.05388,33.09268],[-117.05479,33.09326],[-117.05445,33.09462],[-117.05632,33.09511],[-117.05516,33.10237],[-117.0589,33.0986],[-117.05912,33.09595],[-117.05965,33.09595],[-117.05897,33.09544],[-117.05858,33.09142],[-117.05767,33.0909],[-117.0585,33.09066],[-117.05842,33.08863],[-117.0573,33.0861],[-117.06124,33.08601],[-117.06655,33.09446],[-117.06598,33.0967],[-117.06948,33.09744],[-117.06842,33.09952],[-117.06721,33.09956],[-117.06688,33.1009],[-117.06536,33.101],[-117.06372,33.09744],[-117.0605,33.09807],[-117.06001,33.09714],[-117.05936,33.0974],[-117.06039,33.1002],[-117.05843,33.10265],[-117.05966,33.10367],[-117.06013,33.10264],[-117.06034,33.10396],[-117.06003,33.10503],[-117.05835,33.10594],[-117.059,33.10583],[-117.05984,33.10879],[-117.05849,33.10985],[-117.06036,33.11161],[-117.06006,33.11235],[-117.06136,33.11151],[-117.06106,33.11227],[-117.06244,33.11302],[-117.06237,33.11423],[-117.06409,33.11455],[-117.06382,33.11556],[-117.0664,33.11607],[-117.06505,33.11665],[-117.06479,33.1205],[-117.06172,33.12164],[-117.062,33.12223],[-117.06032,33.12096],[-117.06006,33.12174],[-117.05759,33.12238],[-117.05727,33.12181],[-117.05798,33.12149],[-117.05724,33.12059],[-117.0568,33.12155],[-117.05386,33.12245],[-117.05185,33.12045],[-117.05156,33.12129],[-117.05043,33.12099],[-117.04929,33.12358],[-117.04781,33.12231],[-117.04855,33.12049],[-117.04545,33.1194],[-117.0442,33.12199],[-117.0416,33.12111],[-117.04056,33.12304],[-117.03907,33.12343],[-117.03858,33.1251],[-117.03806,33.12457],[-117.03825,33.12591],[-117.03713,33.12638],[-117.0328,33.12618],[-117.02897,33.12427],[-117.02678,33.12557],[-117.02662,33.12733],[-117.02549,33.12819],[-117.01766,33.12843],[-117.01704,33.12914],[-117.01515,33.12286],[-117.01261,33.12096],[-117.01251,33.11922],[-117.01053,33.11638],[-117.01265,33.11416],[-117.00939,33.11419],[-117.00937,33.11228],[-117.01078,33.11222],[-117.01081,33.1114],[-117.00891,33.11142],[-117.00892,33.109],[-117.00715,33.10903],[-117.00722,33.10174],[-117.00275,33.10177],[-117.00275,33.1055],[-116.99831,33.10555],[-116.99828,33.10914],[-116.99386,33.10913],[-116.99396,33.11275],[-117.0029,33.11256],[-117.00296,33.1163],[-116.9987,33.11644],[-116.99918,33.12285],[-116.99847,33.13478],[-117.01513,33.13404],[-117.01468,33.15223],[-117.01923,33.15237],[-117.01934,33.14894],[-117.02388,33.14898],[-117.02308,33.16296],[-117.0148,33.16267],[-117.01592,33.16628],[-117.02278,33.16686],[-117.02276,33.17038],[-117.03188,33.17035],[-117.03367,33.18539],[-117.04108,33.18514],[-117.04092,33.18139],[-117.04513,33.18141],[-117.04558,33.19641],[-117.04175,33.19658],[-117.04952,33.20324],[-117.05845,33.20311],[-117.05872,33.20743],[-117.0638,33.20739],[-117.06335,33.2116],[-117.08598,33.21096],[-117.08501,33.2038],[-117.07618,33.20344],[-117.07584,33.19626],[-117.07148,33.19616],[-117.07138,33.19265],[-117.06701,33.19261],[-117.06703,33.17089],[-117.05842,33.1707],[-117.05846,33.16708],[-117.0525,33.16694],[-117.05232,33.16328],[-117.0738,33.16347],[-117.07452,33.16482],[-117.07612,33.16415],[-117.07612,33.16598],[-117.07718,33.166],[-117.07721,33.16723],[-117.07921,33.16723],[-117.07984,33.16902],[-117.08103,33.16909],[-117.0835,33.17503],[-117.08471,33.17467],[-117.08418,33.17671],[-117.08561,33.17949],[-117.08649,33.17468],[-117.08574,33.17438],[-117.08734,33.17392],[-117.08757,33.17446],[-117.08894,33.17347],[-117.08859,33.17454],[-117.0898,33.17454],[-117.0906,33.176],[-117.09277,33.17539],[-117.09277,33.17643],[-117.09484,33.17644],[-117.09511,33.17467],[-117.09275,33.17461],[-117.09273,33.17102],[-117.09711,33.171],[-117.09708,33.16731],[-117.09287,33.1675],[-117.09277,33.16364],[-117.1015,33.16361],[-117.10148,33.1674],[-117.11018,33.16742],[-117.11025,33.16353],[-117.10579,33.16353],[-117.1058,33.16005],[-117.10918,33.16003],[-117.1084,33.16116],[-117.10942,33.16135],[-117.10964,33.16059],[-117.1135,33.15991],[-117.11303,33.16247],[-117.11892,33.16156],[-117.11871,33.17836],[-117.11582,33.17839],[-117.11785,33.1819],[-117.12876,33.18262],[-117.13576,33.18286],[-117.13587,33.18011],[-117.13446,33.18023],[-117.13469,33.17469],[-117.13613,33.17471],[-117.13625,33.17199],[-117.13984,33.17213],[-117.13998,33.16833],[-117.14579,33.16831],[-117.1461,33.16747]],[[-117.10209,33.15282],[-117.10177,33.15282],[-117.10163,33.15279],[-117.10209,33.15282]],[[-117.08565,33.15572],[-117.08548,33.15587],[-117.08496,33.15525],[-117.08565,33.15572]],[[-117.1036,33.15161],[-117.10359,33.15243],[-117.10283,33.15244],[-117.10288,33.15162],[-117.1036,33.15161]],[[-117.09921,33.1475],[-117.09838,33.1475],[-117.09837,33.14657],[-117.09918,33.14656],[-117.09921,33.1475]],[[-117.10064,33.14924],[-117.09956,33.15031],[-117.09935,33.14932],[-117.10064,33.14924]],[[-117.08023,33.16008],[-117.07869,33.16002],[-117.0797,33.15944],[-117.08023,33.16008]],[[-117.10171,33.15205],[-117.10069,33.15208],[-117.10094,33.15098],[-117.10169,33.15105],[-117.10171,33.15205]],[[-117.1069,33.15275],[-117.10478,33.15275],[-117.10477,33.15188],[-117.10682,33.15107],[-117.1069,33.15275]],[[-117.09923,33.14932],[-117.09759,33.14928],[-117.09743,33.15025],[-117.09619,33.1505],[-117.09673,33.14859],[-117.09921,33.14856],[-117.09923,33.14932]],[[-117.09383,33.10487],[-117.09047,33.10511],[-117.09027,33.10119],[-117.09098,33.1012],[-117.09383,33.10487]],[[-117.10037,33.15653],[-117.09432,33.15655],[-117.09501,33.1544],[-117.09738,33.15507],[-117.09847,33.15506],[-117.09851,33.15445],[-117.10037,33.15653]],[[-117.06739,33.10543],[-117.06217,33.1065],[-117.0615,33.10201],[-117.06481,33.10128],[-117.0649,33.10182],[-117.0637,33.10196],[-117.06408,33.10431],[-117.06599,33.10438],[-117.06658,33.10549],[-117.06739,33.10543]],[[-117.08829,33.15892],[-117.08676,33.15916],[-117.08732,33.1604],[-117.08392,33.16207],[-117.08269,33.16037],[-117.0862,33.15835],[-117.08419,33.15585],[-117.0833,33.15741],[-117.08188,33.1556],[-117.08478,33.15532],[-117.08624,33.1567],[-117.08781,33.1563],[-117.08829,33.15892]],[[-117.08743,33.14627],[-117.08631,33.14674],[-117.08642,33.1481],[-117.08556,33.14821],[-117.08569,33.14898],[-117.08661,33.14889],[-117.08723,33.15263],[-117.08621,33.15277],[-117.08648,33.1544],[-117.08324,33.15473],[-117.07895,33.15719],[-117.07742,33.15394],[-117.07971,33.1535],[-117.08392,33.15108],[-117.08477,33.14962],[-117.08403,33.14925],[-117.0846,33.14763],[-117.08382,33.14655],[-117.08648,33.14504],[-117.08743,33.14627]]],[[[-117.02372,33.1806],[-117.02364,33.1796],[-117.01692,33.17947],[-117.01693,33.18199],[-117.02186,33.18208],[-117.02199,33.18059],[-117.02372,33.1806]]]]},"properties":{"GEOID":"0622804","NAME":"Escondido city","BASENAME":"Escondido","STATE":"06","PLACE":"22804"}},{"type":"Feature","geometry":{"type":"Polygon","coordinates":[[[-117.35927,33.16884],[-117.35734,33.16658],[-117.35887,33.16411],[-117.3416,33.14175],[-117.33603,33.1302],[-117.32998,33.12424],[-117.32764,33.12058],[-117.31328,33.08739],[-117.31204,33.08235],[-117.30982,33.08245],[-117.30922,33.08298],[-117.3097,33.08343],[-117.30804,33.08413],[-117.30553,33.08414],[-117.30367,33.08631],[-117.30111,33.08724],[-117.29959,33.08421],[-117.29607,33.08404],[-117.29561,33.08503],[-117.29104,33.08689],[-117.27831,33.08754],[-117.27321,33.08512],[-117.27003,33.08496],[-117.27002,33.08046],[-117.27313,33.08045],[-117.27231,33.06866],[-117.26812,33.06865],[-117.26833,33.06995],[-117.26232,33.07015],[-117.26221,33.06788],[-117.2605,33.0672],[-117.24896,33.06748],[-117.24955,33.06736],[-117.24933,33.06373],[-117.24349,33.06398],[-117.2394,33.06052],[-117.23191,33.06088],[-117.23201,33.06281],[-117.2294,33.06271],[-117.22916,33.061],[-117.22335,33.06125],[-117.22424,33.0757],[-117.21591,33.07605],[-117.21619,33.08402],[-117.21674,33.08391],[-117.21669,33.09511],[-117.22101,33.09514],[-117.22116,33.10261],[-117.22304,33.10246],[-117.22456,33.10415],[-117.22575,33.10862],[-117.22653,33.10918],[-117.22572,33.10985],[-117.22722,33.10985],[-117.22793,33.1109],[-117.22735,33.11134],[-117.22819,33.11359],[-117.22977,33.11358],[-117.2299,33.13503],[-117.246,33.13495],[-117.24672,33.1458],[-117.25324,33.14579],[-117.25321,33.15246],[-117.25563,33.1522],[-117.25686,33.15713],[-117.2592,33.15837],[-117.26186,33.15491],[-117.26185,33.15309],[-117.27064,33.15309],[-117.27096,33.17715],[-117.27526,33.17717],[-117.27526,33.17577],[-117.27956,33.17577],[-117.27956,33.17406],[-117.28302,33.17298],[-117.28388,33.17322],[-117.28391,33.17581],[-117.29888,33.17556],[-117.29941,33.18257],[-117.31021,33.17928],[-117.32378,33.182],[-117.33134,33.17973],[-117.3441,33.17982],[-117.34429,33.17614],[-117.34962,33.1762],[-117.34887,33.17484],[-117.34989,33.17425],[-117.35282,33.17479],[-117.35278,33.16885],[-117.35927,33.16884]]]},"properties":{"GEOID":"0611194","NAME":"Carlsbad city","BASENAME":"Carlsbad","STATE":"06","PLACE":"11194"}},{"type":"Feature","geometry":{"type":"MultiPolygon","coordinates":[[[[-117.39839,33.2107],[-117.39658,33.20771],[-117.39781,33.20723],[-117.3927,33.20253],[-117.39394,33.20167],[-117.39231,33.20255],[-117.38499,33.19401],[-117.38906,33.19167],[-117.38488,33.1939],[-117.35891,33.16445],[-117.35734,33.16658],[-117.35972,33.16884],[-117.35278,33.16885],[-117.35282,33.17479],[-117.34989,33.17425],[-117.34887,33.17484],[-117.34962,33.1762],[-117.34429,33.17614],[-117.3441,33.17982],[-117.33134,33.17973],[-117.32336,33.18202],[-117.31021,33.17928],[-117.29941,33.18257],[-117.29888,33.17556],[-117.28391,33.17581],[-117.28388,33.17322],[-117.28302,33.17298],[-117.27956,33.17406],[-117.27956,33.17577],[-117.27526,33.17577],[-117.27526,33.17717],[-117.27096,33.17715],[-117.27064,33.15309],[-117.26185,33.15309],[-117.26186,33.15491],[-117.24886,33.17178],[-117.27378,33.18321],[-117.27518,33.18135],[-117.27627,33.1819],[-117.27838,33.18102],[-117.27886,33.1821],[-117.27737,33.18209],[-117.27737,33.18367],[-117.27993,33.18222],[-117.2801,33.18106],[-117.28394,33.18158],[-117.28394,33.18377],[-117.28825,33.18351],[-117.28825,33.18673],[-117.28565,33.18667],[-117.2855,33.18786],[-117.28668,33.19029],[-117.28772,33.1903],[-117.28775,33.19393],[-117.27951,33.19386],[-117.27949,33.20479],[-117.27361,33.20475],[-117.27362,33.20574],[-117.27233,33.20574],[-117.27232,33.20667],[-117.27091,33.20666],[-117.27092,33.20836],[-117.26655,33.20834],[-117.2622,33.21043],[-117.26222,33.21915],[-117.25819,33.21998],[-117.25601,33.21959],[-117.25608,33.22316],[-117.25349,33.22315],[-117.25742,33.22343],[-117.2574,33.22457],[-117.26222,33.22718],[-117.25858,33.22889],[-117.25778,33.23525],[-117.26148,33.23585],[-117.26102,33.23646],[-117.26279,33.23743],[-117.26042,33.24046],[-117.26222,33.24148],[-117.25992,33.24452],[-117.25806,33.24352],[-117.25572,33.24656],[-117.24493,33.24061],[-117.24501,33.25479],[-117.24287,33.25531],[-117.24286,33.25979],[-117.245,33.25979],[-117.245,33.25894],[-117.24926,33.25888],[-117.24928,33.26355],[-117.24522,33.26349],[-117.24503,33.26574],[-117.23693,33.26551],[-117.23674,33.26726],[-117.23937,33.26806],[-117.23937,33.26712],[-117.24496,33.26708],[-117.24499,33.27801],[-117.25361,33.27815],[-117.25362,33.28152],[-117.25287,33.28122],[-117.25251,33.28223],[-117.24935,33.28172],[-117.2493,33.28537],[-117.26226,33.28552],[-117.26225,33.29274],[-117.25795,33.29272],[-117.25799,33.29635],[-117.26131,33.29633],[-117.26119,33.29549],[-117.26347,33.29464],[-117.26419,33.29497],[-117.26409,33.29721],[-117.2623,33.29793],[-117.26232,33.29997],[-117.26982,33.29999],[-117.39043,33.20712],[-117.39252,33.20701],[-117.39407,33.20845],[-117.39371,33.21062],[-117.3944,33.2108],[-117.39374,33.21273],[-117.39556,33.214],[-117.39839,33.2107]]],[[[-117.16914,33.24184],[-117.1689,33.24181],[-117.16878,33.24195],[-117.16914,33.24184]]]]},"properties":{"GEOID":"0653322","NAME":"Oceanside city","BASENAME":"Oceanside","STATE":"06","PLACE":"53322"}},{"type":"Feature","geometry":{"type":"Polygon","coordinates":[[[-117.12382,32.64538],[-117.11768,32.60753],[-117.09826,32.61301],[-117.0988,32.61037],[-117.09819,32.60515],[-117.09257,32.6046],[-117.09247,32.60157],[-117.09119,32.60156],[-117.09033,32.5961],[-117.08951,32.59495],[-117.08409,32.59481],[-117.08408,32.59119],[-117.05812,32.59103],[-117.05813,32.58743],[-117.05596,32.58742],[-117.0538,32.58742],[-117.0537,32.59105],[-117.0493,32.59106],[-117.04926,32.58737],[-117.04492,32.58741],[-117.04496,32.5912],[-117.03561,32.59115],[-117.03578,32.5875],[-117.03229,32.58753],[-117.03232,32.59122],[-117.01448,32.59108],[-117.01447,32.58363],[-117.00151,32.58311],[-116.99947,32.57801],[-116.92889,32.59855],[-116.93163,32.60516],[-116.93329,32.6047],[-116.93402,32.60658],[-116.93241,32.60703],[-116.93445,32.61192],[-116.93348,32.61193],[-116.93326,32.61277],[-116.93363,32.61764],[-116.93521,32.62],[-116.93371,32.62013],[-116.93298,32.62162],[-116.93355,32.62244],[-116.93268,32.62289],[-116.93452,32.6245],[-116.93168,32.6242],[-116.93,32.62673],[-116.9304,32.62772],[-116.93276,32.62857],[-116.93087,32.62894],[-116.93099,32.63153],[-116.93412,32.63353],[-116.93171,32.63399],[-116.93218,32.63765],[-116.93367,32.6388],[-116.93262,32.64079],[-116.93333,32.64178],[-116.93206,32.64282],[-116.93473,32.64317],[-116.93267,32.64518],[-116.93376,32.64624],[-116.93209,32.6462],[-116.93084,32.64728],[-116.93236,32.64772],[-116.93245,32.64889],[-116.93407,32.64789],[-116.9364,32.64856],[-116.93753,32.64775],[-116.93844,32.64855],[-116.93924,32.6478],[-116.94226,32.6483],[-116.94054,32.64938],[-116.94051,32.65025],[-116.93929,32.65],[-116.93725,32.65163],[-116.93945,32.65199],[-116.93684,32.65405],[-116.9393,32.65418],[-116.93905,32.65482],[-116.94095,32.65557],[-116.93681,32.65604],[-116.93834,32.65765],[-116.93753,32.65767],[-116.93797,32.65861],[-116.93658,32.65826],[-116.93663,32.66516],[-116.93435,32.66516],[-116.93436,32.66696],[-116.92772,32.66698],[-116.92781,32.68428],[-116.94497,32.68515],[-116.94509,32.68159],[-116.9408,32.68162],[-116.94082,32.67803],[-116.94954,32.67799],[-116.94958,32.68541],[-116.95812,32.68561],[-116.95838,32.67812],[-116.96063,32.67808],[-116.9606,32.67633],[-116.96239,32.67632],[-116.96258,32.67202],[-116.97565,32.67255],[-116.97565,32.67072],[-116.97782,32.6707],[-116.97783,32.67161],[-116.97999,32.67157],[-116.98001,32.67248],[-116.98161,32.67382],[-116.98339,32.67426],[-116.98858,32.67786],[-116.98868,32.67428],[-116.99726,32.67425],[-116.99725,32.67232],[-116.99508,32.66709],[-116.99318,32.66522],[-116.98954,32.66387],[-116.98822,32.6641],[-116.98587,32.66642],[-116.98519,32.66487],[-116.98441,32.66527],[-116.98438,32.66729],[-116.98004,32.66726],[-116.98001,32.66133],[-116.98162,32.66028],[-116.99256,32.66025],[-116.99312,32.6617],[-117.00109,32.65944],[-117.00373,32.66643],[-117.01194,32.66417],[-117.0086,32.65555],[-117.01118,32.65595],[-117.01266,32.65704],[-117.01799,32.65766],[-117.01751,32.65837],[-117.01804,32.6577],[-117.01903,32.65846],[-117.02107,32.6576],[-117.02062,32.65887],[-117.02191,32.65901],[-117.0211,32.66006],[-117.02274,32.66204],[-117.0249,32.66148],[-117.0246,32.66076],[-117.02648,32.66088],[-117.02613,32.66015],[-117.02722,32.66058],[-117.02806,32.66269],[-117.0237,32.66579],[-117.02292,32.66872],[-117.03422,32.66565],[-117.03992,32.66511],[-117.04384,32.66002],[-117.04168,32.65862],[-117.04381,32.65844],[-117.04304,32.65641],[-117.04072,32.65808],[-117.03689,32.65859],[-117.03498,32.66043],[-117.03341,32.65955],[-117.03114,32.65988],[-117.03092,32.65842],[-117.02974,32.6578],[-117.03503,32.65643],[-117.03677,32.65355],[-117.03941,32.65374],[-117.03749,32.64932],[-117.04998,32.6459],[-117.04932,32.64419],[-117.0509,32.64372],[-117.052,32.6453],[-117.05592,32.6441],[-117.05443,32.64171],[-117.05253,32.64133],[-117.05344,32.64099],[-117.05671,32.64015],[-117.05827,32.64359],[-117.05797,32.64053],[-117.05868,32.63959],[-117.06082,32.63899],[-117.06135,32.64021],[-117.06509,32.63811],[-117.06501,32.63974],[-117.06575,32.63983],[-117.06521,32.64035],[-117.0625,32.64036],[-117.06302,32.64206],[-117.06404,32.64217],[-117.0624,32.64483],[-117.06284,32.64587],[-117.06163,32.64572],[-117.06127,32.64782],[-117.05789,32.64738],[-117.05814,32.6484],[-117.06692,32.65139],[-117.06831,32.65382],[-117.06943,32.65349],[-117.07049,32.6548],[-117.07154,32.65622],[-117.07101,32.65681],[-117.07758,32.65639],[-117.0832,32.6589],[-117.08449,32.66102],[-117.08712,32.66031],[-117.08691,32.65857],[-117.09065,32.65741],[-117.08882,32.65269],[-117.09277,32.6516],[-117.09269,32.6531],[-117.09342,32.65288],[-117.09472,32.65623],[-117.09669,32.65568],[-117.09642,32.65468],[-117.09847,32.65413],[-117.09619,32.64825],[-117.10278,32.64638],[-117.10418,32.65058],[-117.10504,32.65057],[-117.12382,32.64538]],[[-117.02313,32.59851],[-117.02308,32.60598],[-117.01072,32.60585],[-117.01153,32.60777],[-116.99963,32.61062],[-116.99915,32.60254],[-117.0078,32.5983],[-117.02313,32.59851]]]},"properties":{"GEOID":"0613392","NAME":"Chula Vista city","BASENAME":"Chula Vista","STATE":"06","PLACE":"13392"}},{"type":"Feature","geometry":{"type":"Polygon","coordinates":[[[-117.0843,32.96457],[-117.08389,32.94963],[-117.0754,32.94958],[-117.0754,32.94598],[-117.07107,32.94594],[-117.07106,32.94242],[-117.06676,32.94231],[-117.0667,32.9365],[-117.06732,32.93508],[-117.0667,32.93505],[-117.06664,32.92772],[-117.05821,32.92781],[-117.05822,32.93102],[-117.05554,32.929],[-117.05018,32.92759],[-117.03746,32.92725],[-117.01769,32.93452],[-117.01495,32.93713],[-117.01298,32.93732],[-117.01048,32.94136],[-117.00086,32.94473],[-116.99781,32.94308],[-116.99783,32.95957],[-116.98879,32.95952],[-116.98854,32.96307],[-116.96213,32.96295],[-116.96213,32.96657],[-116.95779,32.96669],[-116.9578,32.96306],[-116.95355,32.96325],[-116.95348,32.97045],[-116.94034,32.97066],[-116.9404,32.98519],[-116.94484,32.98515],[-116.94485,32.98869],[-116.95343,32.98872],[-116.95345,32.98144],[-116.95779,32.98136],[-116.95777,32.97766],[-116.96211,32.97745],[-116.96206,32.98868],[-116.95779,32.9887],[-116.95777,32.99241],[-116.96206,32.99247],[-116.96188,33.00009],[-116.97931,33.00017],[-116.9788,33.01117],[-116.97019,33.01121],[-116.97019,33.01495],[-116.98319,33.01499],[-116.98314,33.01101],[-116.99202,33.01125],[-116.99197,33.0076],[-116.99612,33.00767],[-116.99642,33.02223],[-117.00118,33.02273],[-117.00099,33.03005],[-116.99649,33.03016],[-116.99664,33.05207],[-117.00541,33.05182],[-117.00546,33.05923],[-117.00997,33.05899],[-117.01001,33.06257],[-117.0121,33.06253],[-117.01215,33.06635],[-117.01391,33.0664],[-117.01489,33.06547],[-117.01862,33.0647],[-117.01767,33.06264],[-117.01863,33.06262],[-117.0188,33.05872],[-117.02317,33.05863],[-117.02315,33.05985],[-117.02444,33.05989],[-117.02418,33.05873],[-117.02955,33.05553],[-117.03031,33.05358],[-117.02968,33.05279],[-117.03086,33.05169],[-117.03216,33.05353],[-117.03352,33.05397],[-117.03561,33.05314],[-117.03494,33.05209],[-117.03834,33.04889],[-117.03775,33.04684],[-117.0397,33.04402],[-117.04101,33.04402],[-117.05236,33.02386],[-117.0601,32.99471],[-117.06207,32.99489],[-117.06209,32.9932],[-117.06634,32.99325],[-117.06688,32.96436],[-117.0843,32.96457]]]},"properties":{"GEOID":"0658520","NAME":"Poway city","BASENAME":"Poway","STATE":"06","PLACE":"58520"}}]}