{"type":"FeatureCollection","features":[{"type":"Feature","geometry":{"type":"MultiPolygon","coordinates":[[[[-122.61229,37.81522],[-122.58817,37.78936],[-122.58473,37.77916],[-122.58128,37.7602],[-122.57519,37.70672],[-122.50438,37.70813],[-122.44034,37.7085],[-122.43678,37.70792],[-122.42386,37.7082],[-122.42334,37.70928],[-122.41922,37.70812],[-122.28178,37.70823],[-122.34668,37.81103],[-122.37378,37.88373],[-122.43228,37.92982],[-122.41867,37.8525],[-122.47283,37.83189],[-122.47394,37.83219],[-122.47449,37.83364],[-122.47781,37.83322],[-122.47703,37.83115],[-122.47844,37.83091],[-122.47809,37.82535],[-122.48326,37.82564],[-122.48456,37.82688],[-122.4862,37.82624],[-122.49122,37.8266],[-122.49584,37.82214],[-122.49962,37.82188],[-122.4991,37.81988],[-122.50071,37.81985],[-122.50165,37.82149],[-122.50448,37.82103],[-122.50586,37.82306],[-122.51129,37.8247],[-122.5207,37.82528],[-122.52383,37.82455],[-122.52461,37.82336],[-122.52416,37.82265],[-122.52533,37.82251],[-122.52553,37.82112],[-122.52885,37.82011],[-122.52931,37.81868],[-122.52802,37.8151],[-122.61229,37.81522]]],[[[-123.17383,37.77573],[-123.17293,37.7636],[-123.16998,37.75593],[-123.16275,37.74353],[-123.15676,37.73784],[-123.1326,37.71939],[-123.12611,37.71673],[-123.11557,37.71405],[-123.10492,37.71265],[-123.0948,37.71407],[-123.09285,37.71369],[-123.08606,37.70075],[-123.07492,37.69007],[-123.07306,37.68258],[-123.06859,37.67304],[-123.06358,37.66732],[-123.05358,37.65865],[-123.0407,37.65033],[-123.02715,37.64522],[-123.01161,37.64151],[-123.00111,37.64177],[-123.00111,37.63983],[-122.98675,37.64178],[-122.97301,37.64658],[-122.96301,37.65198],[-122.94907,37.66338],[-122.94136,37.67658],[-122.93571,37.69762],[-122.93586,37.70246],[-122.93971,37.71535],[-122.94229,37.72106],[-122.94998,37.73219],[-122.9641,37.74428],[-122.97326,37.74865],[-122.97545,37.75258],[-122.98143,37.75892],[-122.99754,37.77078],[-123.01059,37.77493],[-123.02585,37.77709],[-123.03144,37.77715],[-123.03384,37.77838],[-123.03873,37.78888],[-123.04882,37.79982],[-123.07049,37.81383],[-123.08165,37.81815],[-123.09526,37.82188],[-123.11829,37.82306],[-123.13227,37.81968],[-123.13944,37.81672],[-123.14721,37.81195],[-123.16094,37.802],[-123.16601,37.79689],[-123.16911,37.79237],[-123.17383,37.77573]]]]},"properties":{"GEOID":"0667000","NAME":"San Francisco city","BASENAME":"San Francisco","STATE":"06","PLACE":"67000"}}]}