{"type":"FeatureCollection","features":[{"type":"Feature","geometry":{"type":"MultiPolygon","coordinates":[[[[-121.01517,37.80577],[-121.01496,37.79849],[-121.00884,37.79844],[-121.00881,37.79714],[-121.01493,37.79713],[-121.0148,37.7923],[-121.01022,37.79227],[-121.01021,37.78973],[-121.00726,37.78824],[-121.00733,37.79164],[-121.00112,37.79171],[-121.00086,37.78748],[-121.00318,37.7875],[-121.00293,37.78035],[-121.00425,37.78035],[-121.00421,37.77946],[-121.00057,37.77848],[-121.0005,37.77487],[-120.99942,37.77486],[-120.99943,37.7731],[-120.99608,37.77307],[-120.99631,37.78207],[-120.99231,37.78206],[-120.99315,37.78246],[-120.99319,37.78572],[-120.99183,37.78572],[-120.99218,37.78891],[-120.98612,37.78909],[-120.98405,37.78752],[-120.98275,37.78934],[-120.97816,37.78934],[-120.97818,37.79116],[-120.98172,37.79117],[-120.98178,37.79364],[-120.98268,37.79418],[-120.97835,37.79422],[-120.97829,37.79587],[-120.98082,37.79592],[-120.98088,37.79763],[-120.97832,37.79765],[-120.9783,37.80074],[-120.99189,37.80063],[-120.99124,37.80333],[-120.99263,37.80372],[-120.99278,37.80692],[-120.99701,37.80691],[-120.99695,37.80468],[-121.00055,37.80463],[-120.99687,37.80258],[-120.99684,37.80158],[-121.00148,37.80252],[-121.00154,37.8005],[-121.00849,37.80575],[-121.01517,37.80577]]],[[[-121.00972,37.75276],[-121.00933,37.75066],[-121.0045,37.75268],[-121.00051,37.75745],[-121.00068,37.7583],[-121.00262,37.75846],[-121.00261,37.75906],[-121.00415,37.75733],[-121.00961,37.7572],[-121.00972,37.75276]]]]},"properties":{"GEOID":"0622790","NAME":"Escalon city","BASENAME":"Escalon","STATE":"06","PLACE":"22790"}},{"type":"Feature","geometry":{"type":"Polygon","coordinates":[[[-121.15635,37.7297],[-121.15627,37.72499],[-121.15112,37.72497],[-121.15105,37.71948],[-121.14681,37.71759],[-121.14611,37.7175],[-121.14544,37.71999],[-121.14388,37.71975],[-121.14186,37.72082],[-121.14276,37.72214],[-121.14156,37.7229],[-121.138,37.72232],[-121.13793,37.72347],[-121.13652,37.72468],[-121.13526,37.72298],[-121.13381,37.72376],[-121.1318,37.72205],[-121.12975,37.72293],[-121.12872,37.72431],[-121.12595,37.72262],[-121.12421,37.7242],[-121.12268,37.72412],[-121.12362,37.72282],[-121.12136,37.72192],[-121.12074,37.72234],[-121.12137,37.72447],[-121.1187,37.72361],[-121.11677,37.72415],[-121.11628,37.72466],[-121.1173,37.72553],[-121.11676,37.72649],[-121.11295,37.72767],[-121.10763,37.73228],[-121.10949,37.73445],[-121.11135,37.74003],[-121.11069,37.74178],[-121.10905,37.74203],[-121.10685,37.74013],[-121.10555,37.74002],[-121.10537,37.74486],[-121.10099,37.74424],[-121.09257,37.74136],[-121.0924,37.74221],[-121.08956,37.74309],[-121.08959,37.74411],[-121.09641,37.74371],[-121.09643,37.7468],[-121.10558,37.74667],[-121.10543,37.74576],[-121.1095,37.74473],[-121.11003,37.74665],[-121.10806,37.74665],[-121.10809,37.74881],[-121.11299,37.74915],[-121.11433,37.75034],[-121.11948,37.75032],[-121.11951,37.75136],[-121.1242,37.75025],[-121.12453,37.76666],[-121.12914,37.76665],[-121.12912,37.76303],[-121.13356,37.76304],[-121.13362,37.76851],[-121.13831,37.76853],[-121.13827,37.76671],[-121.13927,37.76671],[-121.13921,37.76403],[-121.14715,37.76399],[-121.14709,37.76505],[-121.15171,37.76494],[-121.15158,37.75696],[-121.14208,37.75142],[-121.14239,37.73966],[-121.14728,37.73965],[-121.14738,37.73531],[-121.15127,37.73529],[-121.15119,37.7297],[-121.15635,37.7297]]]},"properties":{"GEOID":"0661026","NAME":"Ripon city","BASENAME":"Ripon","STATE":"06","PLACE":"61026"}},{"type":"Feature","geometry":{"type":"Polygon","coordinates":[[[-121.55716,37.74638],[-121.55368,37.74345],[-121.54068,37.74317],[-121.54063,37.75102],[-121.5315,37.75099],[-121.53154,37.78263],[-121.522,37.77704],[-121.51735,37.77695],[-121.51736,37.78836],[-121.51514,37.79057],[-121.52269,37.79766],[-121.52703,37.79887],[-121.53363,37.80486],[-121.53824,37.80648],[-121.54289,37.8099],[-121.54735,37.81116],[-121.55324,37.81511],[-121.55704,37.81599],[-121.55696,37.79884],[-121.55148,37.7954],[-121.55356,37.79438],[-121.55703,37.79473],[-121.55666,37.75611],[-121.54982,37.75662],[-121.54981,37.75871],[-121.54824,37.7577],[-121.54798,37.75584],[-121.54829,37.75495],[-121.55168,37.75514],[-121.55344,37.7541],[-121.5539,37.75106],[-121.55691,37.75109],[-121.55716,37.74638]],[[-121.53156,37.78358],[-121.53155,37.78748],[-121.52705,37.7875],[-121.52698,37.78152],[-121.52607,37.78031],[-121.53156,37.78358]]]},"properties":{"GEOID":"0649582","NAME":"Mountain House city","BASENAME":"Mountain House","STATE":"06","PLACE":"49582"}},{"type":"Feature","geometry":{"type":"MultiPolygon","coordinates":[[[[-121.31597,38.14494],[-121.31587,38.12277],[-121.30659,38.12283],[-121.30657,38.12192],[-121.31102,38.12201],[-121.31106,38.12094],[-121.30656,38.12083],[-121.30654,38.11922],[-121.31101,38.11918],[-121.31102,38.11549],[-121.31593,38.11553],[-121.31593,38.10108],[-121.31234,38.10108],[-121.31234,38.10305],[-121.31175,38.10305],[-121.31175,38.10248],[-121.309,38.10248],[-121.309,38.10107],[-121.30636,38.10107],[-121.30634,38.10389],[-121.30556,38.1039],[-121.30436,38.1037],[-121.30403,38.10097],[-121.28332,38.10095],[-121.28327,38.09812],[-121.27863,38.09812],[-121.27867,38.10094],[-121.27321,38.1011],[-121.27362,38.09387],[-121.26045,38.09428],[-121.26059,38.101],[-121.26171,38.10138],[-121.25996,38.10148],[-121.25975,38.1061],[-121.25883,38.108],[-121.25935,38.10903],[-121.25737,38.11605],[-121.24906,38.11585],[-121.24919,38.11964],[-121.24318,38.11959],[-121.24323,38.12941],[-121.24435,38.13024],[-121.24765,38.13051],[-121.24764,38.13399],[-121.24435,38.134],[-121.24438,38.13039],[-121.24308,38.13033],[-121.24323,38.13749],[-121.24131,38.13748],[-121.24132,38.13972],[-121.24336,38.13971],[-121.24352,38.1467],[-121.24575,38.14692],[-121.24581,38.14868],[-121.24808,38.1477],[-121.24808,38.14922],[-121.24895,38.14988],[-121.25066,38.14847],[-121.25308,38.14882],[-121.2554,38.14611],[-121.25661,38.14635],[-121.25734,38.14802],[-121.25777,38.14653],[-121.26199,38.14902],[-121.2635,38.14899],[-121.26543,38.14756],[-121.26728,38.14908],[-121.26951,38.14859],[-121.27027,38.14998],[-121.27221,38.14863],[-121.27798,38.15042],[-121.27843,38.14968],[-121.2775,38.1486],[-121.27879,38.14834],[-121.28049,38.15069],[-121.28294,38.15072],[-121.2823,38.1528],[-121.28384,38.15159],[-121.28486,38.15175],[-121.28783,38.15494],[-121.28862,38.15328],[-121.29035,38.153],[-121.28957,38.15214],[-121.28993,38.15148],[-121.29212,38.15196],[-121.29127,38.15015],[-121.29179,38.14969],[-121.29422,38.14995],[-121.29544,38.14879],[-121.29597,38.15041],[-121.29688,38.15073],[-121.29806,38.14892],[-121.3004,38.15125],[-121.29968,38.14922],[-121.30177,38.14924],[-121.30249,38.15059],[-121.30432,38.15079],[-121.30413,38.1517],[-121.30745,38.15065],[-121.30845,38.14889],[-121.31365,38.14887],[-121.31365,38.14675],[-121.31597,38.14494]]],[[[-121.3888,38.09704],[-121.38825,38.09602],[-121.38663,38.09634],[-121.38809,38.09925],[-121.3888,38.09704]]],[[[-121.40527,38.09879],[-121.3963,38.08245],[-121.36351,38.08253],[-121.38482,38.09681],[-121.38855,38.09608],[-121.38838,38.09924],[-121.40527,38.09879]]]]},"properties":{"GEOID":"0642202","NAME":"Lodi city","BASENAME":"Lodi","STATE":"06","PLACE":"42202"}},{"type":"Feature","geometry":{"type":"Polygon","coordinates":[[[-121.29298,37.76915],[-121.29282,37.76672],[-121.28508,37.7641],[-121.2834,37.76087],[-121.27036,37.76102],[-121.27035,37.75962],[-121.26462,37.76003],[-121.26124,37.75852],[-121.26127,37.7683],[-121.2521,37.76835],[-121.25212,37.77435],[-121.24998,37.77434],[-121.24997,37.77163],[-121.2454,37.77126],[-121.24539,37.76953],[-121.24311,37.76952],[-121.24312,37.77133],[-121.24084,37.77132],[-121.24084,37.7695],[-121.23626,37.76946],[-121.23627,37.77088],[-121.23392,37.77086],[-121.23393,37.77001],[-121.22935,37.77004],[-121.2294,37.77703],[-121.22599,37.77712],[-121.22598,37.77566],[-121.22029,37.77568],[-121.22024,37.76843],[-121.22478,37.7684],[-121.22475,37.76478],[-121.22933,37.76476],[-121.2293,37.76112],[-121.22473,37.76156],[-121.22471,37.75917],[-121.22246,37.75917],[-121.22247,37.76116],[-121.22019,37.76117],[-121.22006,37.7575],[-121.21561,37.75753],[-121.21562,37.76118],[-121.18821,37.76119],[-121.18803,37.75385],[-121.18275,37.75385],[-121.18274,37.75311],[-121.18036,37.7526],[-121.17887,37.75389],[-121.17953,37.75385],[-121.17956,37.75506],[-121.18072,37.75506],[-121.18074,37.7566],[-121.17891,37.75661],[-121.17893,37.7576],[-121.17439,37.75758],[-121.17432,37.75394],[-121.16382,37.75397],[-121.16385,37.75595],[-121.16067,37.75595],[-121.16077,37.76256],[-121.17924,37.77341],[-121.17931,37.77623],[-121.18113,37.77645],[-121.18463,37.77987],[-121.18467,37.78339],[-121.18555,37.78482],[-121.17948,37.7848],[-121.17979,37.7964],[-121.17686,37.79639],[-121.17685,37.79756],[-121.18104,37.79755],[-121.18117,37.80173],[-121.18009,37.80172],[-121.18035,37.8085],[-121.18492,37.8084],[-121.18505,37.81202],[-121.1873,37.81201],[-121.18763,37.81568],[-121.19774,37.81562],[-121.19767,37.8129],[-121.19881,37.81289],[-121.19877,37.81197],[-121.20105,37.81196],[-121.20129,37.81777],[-121.2025,37.81777],[-121.20256,37.81922],[-121.21275,37.8192],[-121.21285,37.82193],[-121.2167,37.82193],[-121.21753,37.8262],[-121.21857,37.82674],[-121.22678,37.82649],[-121.22713,37.83542],[-121.23628,37.83541],[-121.23638,37.83784],[-121.23761,37.83784],[-121.23829,37.84097],[-121.24567,37.84099],[-121.2454,37.83557],[-121.25429,37.83558],[-121.25548,37.85559],[-121.26008,37.85561],[-121.25907,37.83743],[-121.25785,37.83742],[-121.25766,37.83372],[-121.25786,37.83286],[-121.25879,37.83297],[-121.25852,37.82649],[-121.25381,37.82652],[-121.25329,37.81657],[-121.26238,37.82135],[-121.26151,37.80544],[-121.26197,37.80157],[-121.26506,37.79532],[-121.27054,37.79038],[-121.27054,37.78791],[-121.26941,37.78791],[-121.26941,37.78641],[-121.26594,37.7864],[-121.26595,37.78551],[-121.27009,37.7855],[-121.27739,37.78731],[-121.27932,37.78666],[-121.27871,37.78649],[-121.2787,37.78275],[-121.2834,37.78275],[-121.28332,37.77534],[-121.28882,37.77517],[-121.28913,37.76918],[-121.29201,37.77029],[-121.29298,37.76915]],[[-121.25387,37.82853],[-121.25396,37.83009],[-121.24512,37.83008],[-121.2442,37.82648],[-121.25372,37.82652],[-121.25387,37.82853]],[[-121.22654,37.8168],[-121.21837,37.81693],[-121.21783,37.81556],[-121.22649,37.81556],[-121.22654,37.8168]],[[-121.207,37.78921],[-121.20069,37.7857],[-121.20063,37.78412],[-121.20145,37.78489],[-121.20683,37.78493],[-121.207,37.78921]]]},"properties":{"GEOID":"0645484","NAME":"Manteca city","BASENAME":"Manteca","STATE":"06","PLACE":"45484"}},{"type":"Feature","geometry":{"type":"Polygon","coordinates":[[[-121.41434,37.8028],[-121.41269,37.80202],[-121.40576,37.80145],[-121.39132,37.80499],[-121.37062,37.80032],[-121.36582,37.79606],[-121.36206,37.78943],[-121.36,37.78877],[-121.3533,37.79],[-121.35138,37.78949],[-121.34948,37.78456],[-121.34834,37.78481],[-121.34656,37.78349],[-121.34004,37.78124],[-121.33872,37.77833],[-121.33336,37.7734],[-121.33021,37.77215],[-121.32958,37.77007],[-121.32569,37.77139],[-121.32027,37.7659],[-121.31842,37.76434],[-121.3153,37.76326],[-121.31266,37.76032],[-121.30897,37.75992],[-121.30947,37.76552],[-121.30562,37.76836],[-121.30671,37.76924],[-121.30801,37.76729],[-121.31348,37.76955],[-121.31274,37.77038],[-121.32125,37.77414],[-121.31393,37.77944],[-121.31142,37.78039],[-121.30535,37.78552],[-121.303,37.78389],[-121.30043,37.7797],[-121.2735,37.78893],[-121.27054,37.79057],[-121.27054,37.7973],[-121.2639,37.79731],[-121.26302,37.79893],[-121.26167,37.80563],[-121.26443,37.85561],[-121.27491,37.8556],[-121.27491,37.85753],[-121.28075,37.85755],[-121.28147,37.85852],[-121.2822,37.85565],[-121.28309,37.85565],[-121.28603,37.84104],[-121.31801,37.84087],[-121.31669,37.83632],[-121.31212,37.83159],[-121.31002,37.82632],[-121.31097,37.82544],[-121.31387,37.82509],[-121.31542,37.82324],[-121.32069,37.82087],[-121.31897,37.81879],[-121.31532,37.81844],[-121.31487,37.81769],[-121.31604,37.81624],[-121.31969,37.81599],[-121.31992,37.81447],[-121.31764,37.81292],[-121.31947,37.81122],[-121.32499,37.81034],[-121.32778,37.80836],[-121.33346,37.80862],[-121.33501,37.80987],[-121.33537,37.81211],[-121.33295,37.81805],[-121.33432,37.81963],[-121.33964,37.82217],[-121.34101,37.82157],[-121.3421,37.81727],[-121.34802,37.82178],[-121.35113,37.81788],[-121.35388,37.81691],[-121.35867,37.81752],[-121.36108,37.81962],[-121.3665,37.8193],[-121.36948,37.82138],[-121.37625,37.82226],[-121.37777,37.82166],[-121.3782,37.82024],[-121.3803,37.81985],[-121.3797,37.81748],[-121.38238,37.81682],[-121.38229,37.81478],[-121.38388,37.8137],[-121.38395,37.81166],[-121.39268,37.80936],[-121.39635,37.80964],[-121.39771,37.80853],[-121.39758,37.80646],[-121.39828,37.80582],[-121.40206,37.80549],[-121.40879,37.80642],[-121.40836,37.80606],[-121.41026,37.80583],[-121.40973,37.80482],[-121.41136,37.80349],[-121.41434,37.8028]]]},"properties":{"GEOID":"0640704","NAME":"Lathrop city","BASENAME":"Lathrop","STATE":"06","PLACE":"40704"}},{"type":"Feature","geometry":{"type":"MultiPolygon","coordinates":[[[[-121.54925,37.74238],[-121.54837,37.7406],[-121.54421,37.74037],[-121.54325,37.73862],[-121.53129,37.73084],[-121.53176,37.72225],[-121.53108,37.72196],[-121.49467,37.72165],[-121.49485,37.72957],[-121.49386,37.72889],[-121.48562,37.72888],[-121.48563,37.7309],[-121.47661,37.73084],[-121.47653,37.73885],[-121.47144,37.73907],[-121.47148,37.73234],[-121.46799,37.73236],[-121.46802,37.72506],[-121.47666,37.72507],[-121.47657,37.71973],[-121.46909,37.71657],[-121.45664,37.72089],[-121.45369,37.7209],[-121.45369,37.72182],[-121.44383,37.72156],[-121.44381,37.71788],[-121.45318,37.71789],[-121.45285,37.70331],[-121.45824,37.70332],[-121.45828,37.71055],[-121.4645,37.71054],[-121.46461,37.70559],[-121.46201,37.7056],[-121.46199,37.70239],[-121.47649,37.70232],[-121.47648,37.69978],[-121.47493,37.69979],[-121.4703,37.69751],[-121.46998,37.69667],[-121.45467,37.69619],[-121.45464,37.69679],[-121.45301,37.69678],[-121.45299,37.69589],[-121.4491,37.69591],[-121.44904,37.69274],[-121.4528,37.69276],[-121.45279,37.6911],[-121.46116,37.69036],[-121.47099,37.69414],[-121.47127,37.69601],[-121.47371,37.69602],[-121.47161,37.69719],[-121.47895,37.69975],[-121.49105,37.69981],[-121.4898,37.69698],[-121.50052,37.70283],[-121.5025,37.70285],[-121.50623,37.7013],[-121.49165,37.69254],[-121.49365,37.6908],[-121.49369,37.6856],[-121.49299,37.68385],[-121.4897,37.68302],[-121.48873,37.67969],[-121.48686,37.67748],[-121.48699,37.67271],[-121.48413,37.6685],[-121.48346,37.66889],[-121.48182,37.66675],[-121.47664,37.66416],[-121.47662,37.66501],[-121.47478,37.6659],[-121.47455,37.66678],[-121.47259,37.66716],[-121.46684,37.67221],[-121.4665,37.67149],[-121.47053,37.66722],[-121.47498,37.66434],[-121.47582,37.66293],[-121.47437,37.66191],[-121.47245,37.66393],[-121.47073,37.66452],[-121.4674,37.66333],[-121.45803,37.67129],[-121.45401,37.66981],[-121.45261,37.67107],[-121.45261,37.67405],[-121.44668,37.67409],[-121.44823,37.67617],[-121.45264,37.67906],[-121.45273,37.68859],[-121.4436,37.68859],[-121.44356,37.68336],[-121.43943,37.6815],[-121.44069,37.68149],[-121.44025,37.68116],[-121.43671,37.68114],[-121.43439,37.67971],[-121.43459,37.69601],[-121.42116,37.69603],[-121.42117,37.69884],[-121.41638,37.69881],[-121.41638,37.71044],[-121.39806,37.71047],[-121.39812,37.71796],[-121.41167,37.71795],[-121.41172,37.72152],[-121.41643,37.72152],[-121.41653,37.73544],[-121.41426,37.73449],[-121.41412,37.73639],[-121.41189,37.7383],[-121.39836,37.74359],[-121.39822,37.7407],[-121.39663,37.74068],[-121.39663,37.73957],[-121.38919,37.73947],[-121.38919,37.74717],[-121.3801,37.75046],[-121.38008,37.75168],[-121.38498,37.74987],[-121.38498,37.75463],[-121.38917,37.75456],[-121.3894,37.76155],[-121.38778,37.76537],[-121.40784,37.76539],[-121.40785,37.76883],[-121.4147,37.76882],[-121.41471,37.77473],[-121.41726,37.77647],[-121.41946,37.77543],[-121.41933,37.76906],[-121.42343,37.76907],[-121.42397,37.77209],[-121.42603,37.77207],[-121.42606,37.77394],[-121.42686,37.77394],[-121.42695,37.77965],[-121.43512,37.77955],[-121.43509,37.77419],[-121.45336,37.77401],[-121.45333,37.76705],[-121.44633,37.7662],[-121.43867,37.76655],[-121.43529,37.76803],[-121.4353,37.76538],[-121.4396,37.76511],[-121.43962,37.76262],[-121.43871,37.76263],[-121.4387,37.76146],[-121.43962,37.76146],[-121.43961,37.75959],[-121.44876,37.75954],[-121.44876,37.75773],[-121.45302,37.75775],[-121.45329,37.7599],[-121.45516,37.75992],[-121.45519,37.76333],[-121.46237,37.76324],[-121.46224,37.76546],[-121.46966,37.76553],[-121.46956,37.75406],[-121.48447,37.75403],[-121.47664,37.74958],[-121.47699,37.73958],[-121.50089,37.74012],[-121.52569,37.74202],[-121.53287,37.74115],[-121.53516,37.74245],[-121.5485,37.74347],[-121.54925,37.74238]],[[-121.42522,37.72051],[-121.41643,37.72053],[-121.41637,37.71601],[-121.4252,37.716],[-121.42522,37.72051]]],[[[-121.44028,37.67976],[-121.43734,37.67739],[-121.4351,37.67834],[-121.43683,37.6796],[-121.44028,37.67976]]]]},"properties":{"GEOID":"0680238","NAME":"Tracy city","BASENAME":"Tracy","STATE":"06","PLACE":"80238"}},{"type":"Feature","geometry":{"type":"Polygon","coordinates":[[[-121.41974,38.04399],[-121.41731,38.04311],[-121.4162,38.04401],[-121.41345,38.04414],[-121.41118,38.04317],[-121.40606,38.04524],[-121.40467,38.04173],[-121.40438,38.03018],[-121.40354,38.02897],[-121.38692,38.02098],[-121.38701,38.01709],[-121.38316,38.01342],[-121.38048,38.0124],[-121.37894,38.01264],[-121.37387,38.00868],[-121.37051,38.01126],[-121.37059,38.00244],[-121.37304,37.99888],[-121.3691,37.99533],[-121.36958,37.99424],[-121.36844,37.99137],[-121.36921,37.97875],[-121.37024,37.97917],[-121.37275,37.97761],[-121.37541,37.97769],[-121.3809,37.97854],[-121.38517,37.9815],[-121.38664,37.98081],[-121.37032,37.96728],[-121.37277,37.9652],[-121.37412,37.96274],[-121.37778,37.96232],[-121.38011,37.95927],[-121.37779,37.95746],[-121.37781,37.95562],[-121.37663,37.95359],[-121.37757,37.94972],[-121.37194,37.94745],[-121.37178,37.94462],[-121.36664,37.94151],[-121.35876,37.94108],[-121.35798,37.92695],[-121.34228,37.92697],[-121.34142,37.92802],[-121.32594,37.92786],[-121.32266,37.92282],[-121.31865,37.92035],[-121.32102,37.91801],[-121.32487,37.91054],[-121.3248,37.90711],[-121.32331,37.90518],[-121.32582,37.90248],[-121.3259,37.90012],[-121.32729,37.89716],[-121.28295,37.89729],[-121.28137,37.8952],[-121.27957,37.89541],[-121.27724,37.89658],[-121.27581,37.89608],[-121.27577,37.91119],[-121.27147,37.90222],[-121.25747,37.90595],[-121.25579,37.90167],[-121.27024,37.89792],[-121.27059,37.89931],[-121.27417,37.89878],[-121.27437,37.89358],[-121.2722,37.89251],[-121.27127,37.89156],[-121.27136,37.89044],[-121.26897,37.88879],[-121.26863,37.89227],[-121.26757,37.8883],[-121.26495,37.88775],[-121.26041,37.88889],[-121.25696,37.8883],[-121.25766,37.88806],[-121.25672,37.88559],[-121.26424,37.88366],[-121.26532,37.88629],[-121.26736,37.88571],[-121.26659,37.88247],[-121.26408,37.88074],[-121.2648,37.88012],[-121.26267,37.87911],[-121.26311,37.88106],[-121.25563,37.88293],[-121.25337,37.87741],[-121.25179,37.87578],[-121.25047,37.87806],[-121.24757,37.87588],[-121.2506,37.87175],[-121.24157,37.86748],[-121.23742,37.87287],[-121.24072,37.87653],[-121.22951,37.8792],[-121.22387,37.87887],[-121.22391,37.87998],[-121.21985,37.88007],[-121.2199,37.88068],[-121.22518,37.88341],[-121.2308,37.88336],[-121.2326,37.88766],[-121.2479,37.88421],[-121.24875,37.88664],[-121.25066,37.88624],[-121.25466,37.8891],[-121.25024,37.89035],[-121.25476,37.90195],[-121.24914,37.9042],[-121.23621,37.90733],[-121.23334,37.90698],[-121.22804,37.90444],[-121.22282,37.90452],[-121.2208,37.90042],[-121.22059,37.90519],[-121.21142,37.90524],[-121.21136,37.90159],[-121.20215,37.90163],[-121.20219,37.90384],[-121.19874,37.90392],[-121.19866,37.90154],[-121.19301,37.90167],[-121.19307,37.90531],[-121.18389,37.90541],[-121.18402,37.91179],[-121.18676,37.91264],[-121.18881,37.91567],[-121.19989,37.92119],[-121.19792,37.91586],[-121.2041,37.91505],[-121.20604,37.91962],[-121.20729,37.91937],[-121.20805,37.92113],[-121.20713,37.92151],[-121.20827,37.92496],[-121.21154,37.92643],[-121.21732,37.92482],[-121.21332,37.91496],[-121.21791,37.91241],[-121.22074,37.91241],[-121.22071,37.91074],[-121.22516,37.90964],[-121.22995,37.9216],[-121.24481,37.91769],[-121.24605,37.92097],[-121.24975,37.9199],[-121.25096,37.92287],[-121.25521,37.92181],[-121.25599,37.92375],[-121.254,37.92491],[-121.25254,37.92464],[-121.25281,37.9253],[-121.25197,37.9255],[-121.25281,37.92631],[-121.2562,37.92545],[-121.25678,37.92689],[-121.25469,37.92749],[-121.2549,37.92802],[-121.25721,37.92792],[-121.25945,37.93337],[-121.2556,37.9344],[-121.25671,37.93713],[-121.25749,37.93693],[-121.25825,37.93865],[-121.25741,37.93888],[-121.25776,37.9397],[-121.254,37.94071],[-121.25149,37.93455],[-121.24746,37.93557],[-121.24553,37.932],[-121.24234,37.93282],[-121.23941,37.93647],[-121.23497,37.93354],[-121.23357,37.93387],[-121.23314,37.93148],[-121.23133,37.93201],[-121.23116,37.93289],[-121.2204,37.92934],[-121.21414,37.93096],[-121.22314,37.9363],[-121.21867,37.93745],[-121.22133,37.94377],[-121.23361,37.94069],[-121.2341,37.93826],[-121.23955,37.93654],[-121.2383,37.937],[-121.23864,37.93778],[-121.23792,37.93831],[-121.23632,37.93875],[-121.23675,37.9399],[-121.23514,37.94043],[-121.23554,37.94365],[-121.23984,37.94572],[-121.2441,37.94457],[-121.24373,37.94336],[-121.2464,37.94266],[-121.24583,37.94118],[-121.24172,37.94228],[-121.2414,37.94149],[-121.24275,37.9411],[-121.24255,37.94061],[-121.24587,37.93977],[-121.24822,37.94098],[-121.25077,37.94041],[-121.25105,37.94243],[-121.25573,37.94492],[-121.25112,37.94645],[-121.24542,37.95053],[-121.2384,37.95272],[-121.24308,37.9647],[-121.2489,37.96317],[-121.24937,37.96435],[-121.25333,37.96393],[-121.25441,37.96626],[-121.2511,37.96769],[-121.25295,37.97099],[-121.25111,37.97146],[-121.25164,37.97249],[-121.25323,37.97163],[-121.2536,37.9726],[-121.25864,37.97122],[-121.25908,37.97226],[-121.26134,37.97068],[-121.26566,37.9696],[-121.2677,37.97325],[-121.26562,37.97454],[-121.26642,37.9753],[-121.26736,37.97407],[-121.26825,37.97586],[-121.27171,37.97497],[-121.27245,37.97674],[-121.27476,37.97709],[-121.2756,37.97557],[-121.27698,37.97594],[-121.27267,37.98309],[-121.2719,37.9829],[-121.27219,37.98362],[-121.27148,37.98388],[-121.27194,37.98508],[-121.27274,37.98488],[-121.27293,37.98557],[-121.27223,37.98577],[-121.27345,37.98873],[-121.27052,37.98974],[-121.27334,37.99094],[-121.27208,37.99123],[-121.27979,37.99451],[-121.27579,37.99529],[-121.27157,37.99972],[-121.26857,38.00044],[-121.26806,38.00357],[-121.2673,38.00423],[-121.2659,38.00484],[-121.26173,38.00416],[-121.26252,38.0063],[-121.271,38.00479],[-121.27311,38.01011],[-121.26641,38.01172],[-121.26642,38.0147],[-121.27328,38.01316],[-121.27082,38.0163],[-121.26267,38.0183],[-121.26267,38.02026],[-121.26148,38.02027],[-121.2613,38.02093],[-121.26135,38.0239],[-121.25872,38.02391],[-121.25857,38.03766],[-121.25903,38.04042],[-121.26146,38.04043],[-121.26142,38.04274],[-121.25902,38.04297],[-121.25908,38.04689],[-121.26345,38.0469],[-121.26376,38.05002],[-121.25913,38.0501],[-121.2594,38.05759],[-121.29623,38.05746],[-121.29534,38.04445],[-121.29274,38.04758],[-121.28982,38.04962],[-121.28731,38.04985],[-121.28238,38.05251],[-121.27742,38.05263],[-121.27853,38.0372],[-121.29485,38.03718],[-121.29533,38.04422],[-121.29903,38.04388],[-121.30108,38.04276],[-121.30045,38.04276],[-121.30035,38.03542],[-121.32274,38.03631],[-121.32222,38.04278],[-121.33194,38.04284],[-121.33213,38.04623],[-121.32584,38.0458],[-121.32583,38.04379],[-121.32373,38.0438],[-121.32409,38.04662],[-121.32099,38.0446],[-121.31912,38.04632],[-121.32118,38.04992],[-121.31507,38.04983],[-121.31063,38.05777],[-121.32584,38.05783],[-121.32318,38.05333],[-121.32372,38.05334],[-121.32334,38.05021],[-121.33265,38.0502],[-121.33279,38.05187],[-121.33424,38.05306],[-121.33291,38.05306],[-121.33305,38.05424],[-121.32834,38.05423],[-121.32866,38.05785],[-121.3611,38.058],[-121.36065,38.05039],[-121.36989,38.05068],[-121.37218,38.05809],[-121.41775,38.05876],[-121.41859,38.04544],[-121.41881,38.04418],[-121.41974,38.04399]],[[-121.3691,37.96709],[-121.36554,37.96739],[-121.36372,37.96838],[-121.35921,37.96761],[-121.356,37.96906],[-121.35494,37.96624],[-121.35335,37.96675],[-121.35244,37.96791],[-121.35286,37.96926],[-121.35063,37.96989],[-121.35038,37.97078],[-121.35173,37.9724],[-121.35069,37.97372],[-121.34824,37.97399],[-121.34066,37.97967],[-121.33169,37.98076],[-121.33076,37.97799],[-121.32781,37.97869],[-121.32508,37.97182],[-121.32873,37.97093],[-121.32812,37.9694],[-121.32693,37.96968],[-121.32718,37.9703],[-121.32585,37.97059],[-121.32574,37.96997],[-121.31629,37.97236],[-121.31386,37.96613],[-121.32736,37.96302],[-121.32876,37.96612],[-121.33121,37.96543],[-121.33218,37.9666],[-121.33542,37.9658],[-121.33617,37.96722],[-121.34029,37.96627],[-121.33995,37.96521],[-121.3504,37.96376],[-121.35155,37.96345],[-121.35138,37.96243],[-121.34899,37.96275],[-121.34876,37.95992],[-121.34776,37.95922],[-121.34652,37.96176],[-121.34516,37.96189],[-121.34492,37.96265],[-121.34427,37.96225],[-121.34382,37.96356],[-121.34206,37.96003],[-121.34206,37.95922],[-121.34951,37.95668],[-121.35352,37.95806],[-121.35436,37.95692],[-121.36001,37.9597],[-121.3691,37.96709]],[[-121.35683,38.00111],[-121.3564,38.00512],[-121.35052,38.00486],[-121.34971,38.00112],[-121.34844,37.99924],[-121.34885,37.9988],[-121.35011,38.00201],[-121.35185,38.00191],[-121.35175,38.00102],[-121.35683,38.00111]],[[-121.34972,38.00456],[-121.33949,38.00543],[-121.32929,38.00855],[-121.32988,38.01375],[-121.32927,38.01375],[-121.32883,38.0163],[-121.33061,38.01523],[-121.33041,38.01376],[-121.3369,38.01367],[-121.3369,38.01562],[-121.33526,38.01507],[-121.33526,38.01562],[-121.33157,38.0156],[-121.33105,38.01621],[-121.33163,38.02008],[-121.3311,38.02203],[-121.33335,38.02104],[-121.33508,38.02109],[-121.33511,38.02213],[-121.34067,38.0221],[-121.34094,38.02841],[-121.33209,38.02842],[-121.32891,38.02513],[-121.32286,38.02494],[-121.32296,38.02275],[-121.32535,38.02216],[-121.32527,38.02299],[-121.32626,38.02289],[-121.32531,38.02117],[-121.32888,38.02108],[-121.32886,38.02018],[-121.32458,38.01804],[-121.32406,38.01634],[-121.32684,38.01625],[-121.3271,38.01375],[-121.32169,38.01374],[-121.31905,38.00716],[-121.32045,38.00681],[-121.32134,38.00784],[-121.32252,38.00644],[-121.33167,38.00361],[-121.33162,38.00213],[-121.33076,38.00234],[-121.33059,38.0015],[-121.33167,38.00123],[-121.33166,37.99926],[-121.34715,37.99941],[-121.34972,38.00456]],[[-121.34793,38.04291],[-121.34123,38.04288],[-121.34106,38.03718],[-121.34793,38.04291]],[[-121.34551,38.03111],[-121.34495,38.03194],[-121.33778,38.03419],[-121.33744,38.03249],[-121.33596,38.0324],[-121.33708,38.03187],[-121.3364,38.03094],[-121.33718,38.03028],[-121.34036,38.02892],[-121.3415,38.03083],[-121.34548,38.02992],[-121.34551,38.03111]],[[-121.33912,38.03552],[-121.33532,38.03555],[-121.33532,38.03494],[-121.33794,38.03434],[-121.33912,38.03552]],[[-121.31886,37.94832],[-121.319,37.94885],[-121.31757,37.94896],[-121.31737,37.94801],[-121.31528,37.94794],[-121.31405,37.94449],[-121.31239,37.94431],[-121.31181,37.94221],[-121.30929,37.94421],[-121.30783,37.94441],[-121.30715,37.94196],[-121.31675,37.94032],[-121.31743,37.94281],[-121.31614,37.94352],[-121.31636,37.94409],[-121.31769,37.94386],[-121.31833,37.94628],[-121.31717,37.94642],[-121.31761,37.94774],[-121.31855,37.94749],[-121.31886,37.94832]],[[-121.29354,37.98829],[-121.29185,37.98915],[-121.29147,37.98818],[-121.29354,37.98829]],[[-121.2902,37.91665],[-121.28842,37.91739],[-121.28085,37.92409],[-121.27723,37.91518],[-121.28188,37.91422],[-121.28022,37.91015],[-121.27914,37.91043],[-121.27781,37.90696],[-121.28401,37.90494],[-121.28655,37.90724],[-121.28544,37.90787],[-121.28623,37.90933],[-121.28807,37.90967],[-121.28888,37.91272],[-121.2842,37.91386],[-121.28491,37.91518],[-121.28776,37.91482],[-121.28826,37.9161],[-121.28967,37.9157],[-121.2902,37.91665]],[[-121.28867,37.98604],[-121.28206,37.98822],[-121.28234,37.98433],[-121.28759,37.98317],[-121.28867,37.98604]],[[-121.28775,37.9911],[-121.28668,37.99137],[-121.28734,37.99325],[-121.28161,37.99445],[-121.28178,37.99222],[-121.28515,37.99203],[-121.28488,37.99124],[-121.28751,37.99044],[-121.28775,37.9911]],[[-121.28404,37.97161],[-121.28453,37.97282],[-121.28349,37.97309],[-121.28326,37.97169],[-121.28404,37.97161]],[[-121.28298,37.97435],[-121.28066,37.97521],[-121.27818,37.97017],[-121.2821,37.96951],[-121.28298,37.97435]],[[-121.27203,37.96683],[-121.27136,37.96749],[-121.27179,37.96802],[-121.26569,37.96946],[-121.26521,37.96837],[-121.26891,37.96764],[-121.26817,37.96569],[-121.27147,37.96513],[-121.27203,37.96683]]]},"properties":{"GEOID":"0675000","NAME":"Stockton city","BASENAME":"Stockton","STATE":"06","PLACE":"75000"}}]}