{"type":"FeatureCollection","features":[{"type":"Feature","geometry":{"type":"Polygon","coordinates":[[[-120.63856,35.12899],[-120.6362,35.12461],[-120.63401,35.1175],[-120.62618,35.11508],[-120.62146,35.10548],[-120.61641,35.10657],[-120.60438,35.10656],[-120.60438,35.10856],[-120.60631,35.10858],[-120.6063,35.11067],[-120.60845,35.11068],[-120.60824,35.11483],[-120.60758,35.11555],[-120.60952,35.11553],[-120.60934,35.11792],[-120.60835,35.11804],[-120.60816,35.12089],[-120.60911,35.12094],[-120.60895,35.12334],[-120.60653,35.12276],[-120.60645,35.12604],[-120.6074,35.12682],[-120.60681,35.12949],[-120.61204,35.13083],[-120.6193,35.13437],[-120.61963,35.13177],[-120.626,35.1314],[-120.63079,35.13213],[-120.63181,35.13111],[-120.63189,35.12842],[-120.63856,35.12899]]]},"properties":{"GEOID":"0631393","NAME":"Grover Beach city","BASENAME":"Grover Beach","STATE":"06","PLACE":"31393"}},{"type":"Feature","geometry":{"type":"Polygon","coordinates":[[[-120.7153,35.17667],[-120.71143,35.17557],[-120.71093,35.15432],[-120.71271,35.13216],[-120.70235,35.12408],[-120.68808,35.11443],[-120.63856,35.12899],[-120.63189,35.12842],[-120.63123,35.13206],[-120.62591,35.1314],[-120.61963,35.13177],[-120.6193,35.13437],[-120.61204,35.13083],[-120.60681,35.12949],[-120.6046,35.13631],[-120.62078,35.14288],[-120.63107,35.1487],[-120.63361,35.14817],[-120.63367,35.14973],[-120.6347,35.1492],[-120.63184,35.15311],[-120.63589,35.1553],[-120.64379,35.14722],[-120.64958,35.15024],[-120.65685,35.15238],[-120.65836,35.15355],[-120.6596,35.15342],[-120.66003,35.1547],[-120.66429,35.15611],[-120.66485,35.15748],[-120.66835,35.15887],[-120.66617,35.16221],[-120.66927,35.16375],[-120.67159,35.16393],[-120.67349,35.16641],[-120.67413,35.16411],[-120.67591,35.16464],[-120.67619,35.16303],[-120.67911,35.16305],[-120.68474,35.16515],[-120.68514,35.16411],[-120.68809,35.16621],[-120.68832,35.16747],[-120.68911,35.1679],[-120.68958,35.16667],[-120.69762,35.17626],[-120.70009,35.17771],[-120.70834,35.1775],[-120.71327,35.17951],[-120.7153,35.17667]]]},"properties":{"GEOID":"0657414","NAME":"Pismo Beach city","BASENAME":"Pismo Beach","STATE":"06","PLACE":"57414"}},{"type":"Feature","geometry":{"type":"Polygon","coordinates":[[[-120.92548,35.36068],[-120.92575,35.35428],[-120.8597,35.35387],[-120.84549,35.35077],[-120.84488,35.34929],[-120.84543,35.3467],[-120.8448,35.34691],[-120.84458,35.34515],[-120.84293,35.34387],[-120.84162,35.33997],[-120.84054,35.33993],[-120.84065,35.33941],[-120.83861,35.34053],[-120.83336,35.34039],[-120.83377,35.33935],[-120.83236,35.33971],[-120.82756,35.33827],[-120.8253,35.34551],[-120.82811,35.35025],[-120.82303,35.35018],[-120.82268,35.35763],[-120.82672,35.35925],[-120.82429,35.36214],[-120.81793,35.36299],[-120.82292,35.3645],[-120.82234,35.36585],[-120.83151,35.36941],[-120.83743,35.37273],[-120.84088,35.37353],[-120.84371,35.37565],[-120.85038,35.38296],[-120.84867,35.38445],[-120.85045,35.38692],[-120.8504,35.39342],[-120.85312,35.39246],[-120.85494,35.39673],[-120.85044,35.39777],[-120.85704,35.39848],[-120.85913,35.39953],[-120.8629,35.40446],[-120.86176,35.40528],[-120.86263,35.40694],[-120.86409,35.40661],[-120.86419,35.40817],[-120.86608,35.40756],[-120.86663,35.40597],[-120.86913,35.40618],[-120.86941,35.40753],[-120.87167,35.40926],[-120.87255,35.41258],[-120.87195,35.41279],[-120.87351,35.41532],[-120.87417,35.41513],[-120.87286,35.41255],[-120.8739,35.41225],[-120.87222,35.40699],[-120.86901,35.40298],[-120.86645,35.39483],[-120.86439,35.3794],[-120.92525,35.3662],[-120.92548,35.36068]]]},"properties":{"GEOID":"0649362","NAME":"Morro Bay city","BASENAME":"Morro Bay","STATE":"06","PLACE":"49362"}},{"type":"Feature","geometry":{"type":"Polygon","coordinates":[[[-120.60951,35.11571],[-120.60758,35.11555],[-120.60824,35.11483],[-120.60845,35.11068],[-120.6063,35.11067],[-120.60631,35.10858],[-120.60438,35.10856],[-120.60438,35.10656],[-120.60218,35.10639],[-120.60221,35.10421],[-120.60042,35.10423],[-120.60053,35.10642],[-120.59163,35.10636],[-120.59162,35.10713],[-120.58958,35.10737],[-120.58949,35.10604],[-120.58778,35.10603],[-120.58739,35.10746],[-120.58858,35.10905],[-120.58853,35.11088],[-120.58355,35.11091],[-120.58354,35.11272],[-120.58069,35.11271],[-120.58071,35.11118],[-120.57848,35.11111],[-120.57682,35.10911],[-120.57421,35.1105],[-120.57323,35.10933],[-120.5762,35.10744],[-120.5815,35.10717],[-120.58159,35.10544],[-120.58659,35.10542],[-120.58656,35.10352],[-120.58152,35.10354],[-120.58153,35.102],[-120.58031,35.10178],[-120.57916,35.10345],[-120.57789,35.1038],[-120.57941,35.1063],[-120.57742,35.10537],[-120.57684,35.10602],[-120.57484,35.10536],[-120.56537,35.1109],[-120.56706,35.11166],[-120.56056,35.11945],[-120.55127,35.12726],[-120.5551,35.13021],[-120.55574,35.12893],[-120.55866,35.13202],[-120.55791,35.13267],[-120.55999,35.13407],[-120.56102,35.1333],[-120.5678,35.13681],[-120.56562,35.1395],[-120.56676,35.13993],[-120.56816,35.1385],[-120.56927,35.13901],[-120.57043,35.13564],[-120.57227,35.13425],[-120.58074,35.13912],[-120.57817,35.14201],[-120.58065,35.14349],[-120.58319,35.1405],[-120.58879,35.14363],[-120.5911,35.14683],[-120.59871,35.14256],[-120.60061,35.14319],[-120.60022,35.14157],[-120.6047,35.13769],[-120.6046,35.13576],[-120.6073,35.12862],[-120.6074,35.12682],[-120.60645,35.12604],[-120.60653,35.12276],[-120.60895,35.12334],[-120.60911,35.12094],[-120.60816,35.12089],[-120.60835,35.11804],[-120.60934,35.11792],[-120.60951,35.11571]]]},"properties":{"GEOID":"0602868","NAME":"Arroyo Grande city","BASENAME":"Arroyo Grande","STATE":"06","PLACE":"02868"}},{"type":"Feature","geometry":{"type":"Polygon","coordinates":[[[-120.72317,35.25746],[-120.70764,35.24389],[-120.69331,35.25193],[-120.6914,35.24951],[-120.69116,35.24796],[-120.68756,35.24802],[-120.68707,35.24699],[-120.68774,35.24619],[-120.69193,35.24424],[-120.69308,35.24281],[-120.69127,35.24027],[-120.68634,35.24389],[-120.6858,35.24273],[-120.68439,35.24253],[-120.68453,35.24087],[-120.68596,35.23986],[-120.68603,35.23811],[-120.68849,35.2339],[-120.68836,35.23298],[-120.68418,35.23608],[-120.68323,35.24077],[-120.67923,35.23949],[-120.67826,35.24093],[-120.67759,35.2407],[-120.67926,35.23809],[-120.67573,35.23769],[-120.67573,35.23574],[-120.66241,35.23579],[-120.66245,35.24128],[-120.66549,35.24127],[-120.66491,35.24403],[-120.663,35.24681],[-120.66472,35.2468],[-120.66475,35.25049],[-120.64916,35.25046],[-120.64913,35.24683],[-120.64764,35.24638],[-120.64914,35.24533],[-120.64913,35.24315],[-120.64742,35.24315],[-120.64639,35.24174],[-120.63997,35.23993],[-120.63837,35.2411],[-120.63331,35.23589],[-120.63129,35.23589],[-120.63129,35.23486],[-120.62968,35.23413],[-120.6275,35.23738],[-120.6301,35.23863],[-120.6313,35.23827],[-120.63131,35.23956],[-120.63354,35.23949],[-120.63357,35.24138],[-120.63579,35.24137],[-120.6358,35.2432],[-120.62358,35.24321],[-120.62227,35.24517],[-120.61779,35.24772],[-120.62139,35.25034],[-120.62509,35.2503],[-120.63584,35.26147],[-120.6358,35.26245],[-120.62759,35.26368],[-120.62803,35.26551],[-120.63133,35.26551],[-120.63144,35.26862],[-120.63567,35.26865],[-120.63597,35.27225],[-120.63906,35.27225],[-120.64241,35.27604],[-120.64364,35.27558],[-120.64336,35.28903],[-120.64112,35.2896],[-120.64089,35.29071],[-120.6422,35.29307],[-120.64336,35.29268],[-120.64333,35.29589],[-120.65802,35.29607],[-120.65832,35.29827],[-120.66509,35.2961],[-120.66673,35.30147],[-120.66695,35.29773],[-120.67592,35.29815],[-120.6762,35.30149],[-120.68036,35.30154],[-120.68036,35.30751],[-120.68177,35.30866],[-120.69399,35.30831],[-120.69359,35.31136],[-120.69482,35.31147],[-120.69791,35.31108],[-120.69791,35.30155],[-120.68929,35.30155],[-120.68926,35.29496],[-120.68761,35.29451],[-120.68765,35.29289],[-120.68849,35.29214],[-120.68661,35.29189],[-120.68476,35.28942],[-120.67825,35.28943],[-120.67822,35.28856],[-120.67468,35.28865],[-120.67466,35.28491],[-120.67596,35.28466],[-120.67579,35.27958],[-120.677,35.27958],[-120.67481,35.27502],[-120.67485,35.26783],[-120.6841,35.27587],[-120.69532,35.26894],[-120.69991,35.27208],[-120.70405,35.26827],[-120.70805,35.26644],[-120.70516,35.26381],[-120.70778,35.26172],[-120.71912,35.26449],[-120.72317,35.25746]]]},"properties":{"GEOID":"0668154","NAME":"San Luis Obispo city","BASENAME":"San Luis Obispo","STATE":"06","PLACE":"68154"}},{"type":"Feature","geometry":{"type":"MultiPolygon","coordinates":[[[[-120.70761,35.62436],[-120.70751,35.62322],[-120.70335,35.62262],[-120.70324,35.62073],[-120.70384,35.621],[-120.70298,35.61827],[-120.69955,35.61749],[-120.69457,35.61812],[-120.69468,35.61668],[-120.69613,35.61608],[-120.69605,35.6153],[-120.693,35.61523],[-120.69218,35.60948],[-120.69294,35.60198],[-120.69462,35.59831],[-120.70374,35.59838],[-120.70366,35.58717],[-120.69983,35.58885],[-120.69943,35.58712],[-120.70031,35.58196],[-120.70123,35.58196],[-120.70126,35.57727],[-120.6977,35.57671],[-120.69641,35.58938],[-120.69087,35.58937],[-120.68991,35.59352],[-120.68854,35.59352],[-120.68599,35.59565],[-120.68473,35.59564],[-120.68573,35.60008],[-120.68922,35.60655],[-120.67851,35.60587],[-120.66477,35.60168],[-120.65693,35.59656],[-120.64623,35.5916],[-120.6411,35.59694],[-120.64114,35.60099],[-120.63218,35.60112],[-120.63217,35.6119],[-120.63717,35.61192],[-120.63728,35.61279],[-120.64113,35.61381],[-120.64093,35.64166],[-120.63654,35.63972],[-120.63646,35.64463],[-120.63407,35.6452],[-120.61463,35.64484],[-120.61461,35.65189],[-120.6183,35.65365],[-120.61485,35.65543],[-120.61455,35.65947],[-120.60971,35.65949],[-120.60967,35.66037],[-120.61401,35.66266],[-120.61005,35.66318],[-120.61002,35.66999],[-120.61449,35.66997],[-120.61449,35.67416],[-120.60555,35.67421],[-120.60554,35.68886],[-120.61885,35.68862],[-120.61872,35.69228],[-120.62283,35.69228],[-120.62289,35.6886],[-120.64084,35.68835],[-120.64086,35.67747],[-120.64535,35.67744],[-120.64534,35.67378],[-120.64984,35.67379],[-120.64985,35.66288],[-120.65814,35.66288],[-120.65808,35.64833],[-120.66308,35.64837],[-120.66309,35.65199],[-120.67225,35.65204],[-120.67225,35.65486],[-120.67406,35.65485],[-120.67406,35.65567],[-120.67226,35.65567],[-120.67224,35.65937],[-120.68505,35.65991],[-120.68461,35.65565],[-120.69155,35.65563],[-120.69619,35.66155],[-120.69611,35.65736],[-120.69382,35.65386],[-120.69629,35.65373],[-120.69614,35.65274],[-120.69718,35.65273],[-120.69762,35.65359],[-120.69827,35.65359],[-120.698,35.65273],[-120.70147,35.65272],[-120.70101,35.64698],[-120.69711,35.64695],[-120.69688,35.64404],[-120.7035,35.64389],[-120.69972,35.64067],[-120.70424,35.64032],[-120.70423,35.63872],[-120.70607,35.63843],[-120.70599,35.63606],[-120.70375,35.637],[-120.70368,35.6352],[-120.70276,35.63493],[-120.7031,35.63616],[-120.70168,35.63661],[-120.70169,35.63731],[-120.69982,35.63744],[-120.69943,35.63261],[-120.70267,35.63353],[-120.70256,35.63029],[-120.705,35.63018],[-120.70423,35.62882],[-120.70563,35.62832],[-120.70489,35.62789],[-120.7058,35.62658],[-120.70376,35.62645],[-120.7037,35.62581],[-120.70313,35.62686],[-120.70198,35.62677],[-120.70225,35.62521],[-120.70645,35.62462],[-120.7076,35.62563],[-120.70761,35.62436]]],[[[-120.53389,35.65961],[-120.52945,35.65945],[-120.52943,35.66673],[-120.53386,35.66676],[-120.53389,35.65961]]]]},"properties":{"GEOID":"0622300","NAME":"El Paso de Robles (Paso Robles) city","BASENAME":"El Paso de Robles (Paso Robles)","STATE":"06","PLACE":"22300"}},{"type":"Feature","geometry":{"type":"Polygon","coordinates":[[[-120.74474,35.49399],[-120.73811,35.49004],[-120.73465,35.49211],[-120.72928,35.48907],[-120.72462,35.48443],[-120.72649,35.48364],[-120.72603,35.48302],[-120.72833,35.48265],[-120.728,35.48135],[-120.72972,35.48105],[-120.7302,35.47845],[-120.73585,35.47219],[-120.73539,35.46574],[-120.7281,35.46029],[-120.72872,35.45956],[-120.72576,35.45886],[-120.72032,35.45954],[-120.71594,35.45668],[-120.71419,35.45443],[-120.71107,35.4523],[-120.71265,35.45039],[-120.71472,35.45186],[-120.71919,35.44671],[-120.70451,35.43985],[-120.70168,35.4432],[-120.70251,35.44401],[-120.70252,35.44758],[-120.69918,35.45024],[-120.6966,35.45017],[-120.69602,35.45093],[-120.68948,35.44753],[-120.68799,35.44964],[-120.68164,35.44652],[-120.68166,35.44801],[-120.68285,35.44941],[-120.67921,35.44964],[-120.6788,35.45071],[-120.67593,35.45143],[-120.675,35.45002],[-120.67324,35.45188],[-120.67212,35.45054],[-120.66913,35.45189],[-120.66935,35.45275],[-120.66773,35.45301],[-120.66795,35.45393],[-120.66174,35.4524],[-120.65407,35.45496],[-120.65386,35.45212],[-120.65013,35.44828],[-120.65296,35.44655],[-120.65289,35.44503],[-120.65445,35.44498],[-120.65411,35.44091],[-120.65055,35.44124],[-120.65114,35.44291],[-120.6478,35.44604],[-120.64607,35.44453],[-120.64523,35.44246],[-120.64199,35.4415],[-120.64285,35.44048],[-120.63888,35.43881],[-120.63831,35.43769],[-120.63704,35.43838],[-120.63759,35.44387],[-120.6355,35.44724],[-120.63489,35.44665],[-120.63196,35.44879],[-120.63039,35.4488],[-120.63034,35.4506],[-120.62713,35.44979],[-120.62598,35.45143],[-120.6189,35.45158],[-120.61888,35.45276],[-120.62354,35.4562],[-120.62352,35.46155],[-120.62719,35.46648],[-120.62876,35.47457],[-120.63661,35.47868],[-120.63944,35.48851],[-120.64509,35.49234],[-120.64893,35.49875],[-120.65392,35.49881],[-120.65979,35.50157],[-120.66232,35.50997],[-120.67216,35.52108],[-120.6813,35.52113],[-120.69395,35.52797],[-120.7057,35.53261],[-120.70646,35.53097],[-120.70796,35.53025],[-120.70443,35.52659],[-120.703,35.5264],[-120.70324,35.52541],[-120.70539,35.52556],[-120.70832,35.52801],[-120.73596,35.50984],[-120.74474,35.49399]]]},"properties":{"GEOID":"0603064","NAME":"Atascadero city","BASENAME":"Atascadero","STATE":"06","PLACE":"03064"}}]}