{"type":"FeatureCollection","features":[{"type":"Feature","geometry":{"type":"Polygon","coordinates":[[[-122.4707,37.68247],[-122.47021,37.67783],[-122.4653,37.67171],[-122.45998,37.66665],[-122.45342,37.67079],[-122.45186,37.66918],[-122.45052,37.67004],[-122.44752,37.66659],[-122.44462,37.66549],[-122.43663,37.67149],[-122.43379,37.6704],[-122.43311,37.67164],[-122.43262,37.67488],[-122.43876,37.6776],[-122.44054,37.67587],[-122.44383,37.67831],[-122.44215,37.68296],[-122.4411,37.68338],[-122.44193,37.68412],[-122.44528,37.68548],[-122.44653,37.68472],[-122.44815,37.68505],[-122.45522,37.68884],[-122.45892,37.68456],[-122.45992,37.68575],[-122.46431,37.68573],[-122.46356,37.68397],[-122.46535,37.68392],[-122.46352,37.68252],[-122.4707,37.68247]]]},"properties":{"GEOID":"0614736","NAME":"Colma town","BASENAME":"Colma","STATE":"06","PLACE":"14736"}},{"type":"Feature","geometry":{"type":"Polygon","coordinates":[[[-122.15642,37.4697],[-122.15056,37.46599],[-122.15126,37.46274],[-122.14987,37.46234],[-122.15,37.46175],[-122.14455,37.46078],[-122.14493,37.4582],[-122.14092,37.45739],[-122.13877,37.4548],[-122.1321,37.45398],[-122.12847,37.45185],[-122.12691,37.45362],[-122.12449,37.4528],[-122.1221,37.45359],[-122.12177,37.4545],[-122.12392,37.46114],[-122.11326,37.46753],[-122.12086,37.47301],[-122.1228,37.4725],[-122.12252,37.47613],[-122.11657,37.47804],[-122.11647,37.47864],[-122.1265,37.475],[-122.13233,37.47981],[-122.1309,37.48337],[-122.13126,37.48419],[-122.13867,37.48188],[-122.13976,37.48085],[-122.13956,37.47587],[-122.14621,37.4755],[-122.14668,37.4735],[-122.15369,37.4745],[-122.15642,37.4697]]]},"properties":{"GEOID":"0620956","NAME":"East Palo Alto city","BASENAME":"East Palo Alto","STATE":"06","PLACE":"20956"}},{"type":"Feature","geometry":{"type":"Polygon","coordinates":[[[-122.42616,37.69515],[-122.4264,37.69283],[-122.42005,37.6894],[-122.41649,37.68654],[-122.41319,37.68543],[-122.40954,37.68601],[-122.40954,37.68481],[-122.40808,37.6848],[-122.40799,37.67554],[-122.39658,37.67558],[-122.3966,37.67388],[-122.39105,37.6732],[-122.39192,37.67176],[-122.25198,37.67243],[-122.28178,37.70823],[-122.40514,37.70843],[-122.40683,37.7046],[-122.41072,37.70569],[-122.41249,37.70174],[-122.41134,37.70136],[-122.41262,37.69848],[-122.41353,37.69867],[-122.41342,37.69783],[-122.42065,37.69928],[-122.42473,37.69572],[-122.4247,37.69486],[-122.42616,37.69515]]]},"properties":{"GEOID":"0608310","NAME":"Brisbane city","BASENAME":"Brisbane","STATE":"06","PLACE":"08310"}},{"type":"Feature","geometry":{"type":"Polygon","coordinates":[[[-122.42494,37.60609],[-122.41984,37.60182],[-122.42364,37.59951],[-122.40885,37.58498],[-122.40723,37.58458],[-122.4082,37.58381],[-122.40773,37.58325],[-122.40695,37.58432],[-122.40607,37.58404],[-122.40362,37.58161],[-122.39929,37.5844],[-122.39558,37.58542],[-122.39095,37.589],[-122.38995,37.58824],[-122.38831,37.59119],[-122.3901,37.5925],[-122.38729,37.59551],[-122.3725,37.60462],[-122.37886,37.60724],[-122.38353,37.60448],[-122.38729,37.6069],[-122.38851,37.60622],[-122.39179,37.6098],[-122.39788,37.61271],[-122.39937,37.61193],[-122.40016,37.61265],[-122.40108,37.61218],[-122.40048,37.6115],[-122.40174,37.61085],[-122.40607,37.61498],[-122.40528,37.6136],[-122.4063,37.61263],[-122.40383,37.61012],[-122.40743,37.60784],[-122.40914,37.60797],[-122.40926,37.60909],[-122.40604,37.61223],[-122.40927,37.61405],[-122.41836,37.60945],[-122.4188,37.6102],[-122.42072,37.60922],[-122.42056,37.60833],[-122.42494,37.60609]]]},"properties":{"GEOID":"0647486","NAME":"Millbrae city","BASENAME":"Millbrae","STATE":"06","PLACE":"47486"}},{"type":"Feature","geometry":{"type":"Polygon","coordinates":[[[-122.28845,37.57449],[-122.28837,37.57055],[-122.28447,37.57062],[-122.28454,37.56449],[-122.2794,37.56442],[-122.27923,37.55613],[-122.28391,37.55445],[-122.28218,37.55364],[-122.28167,37.55237],[-122.28452,37.55004],[-122.28371,37.54832],[-122.28021,37.54847],[-122.27906,37.54575],[-122.27714,37.54416],[-122.2765,37.53997],[-122.27883,37.5364],[-122.27666,37.53422],[-122.265,37.53439],[-122.26137,37.5334],[-122.26022,37.53451],[-122.26073,37.53876],[-122.25963,37.54038],[-122.25846,37.54118],[-122.25193,37.54041],[-122.25237,37.54451],[-122.25072,37.54819],[-122.24289,37.55506],[-122.24258,37.56603],[-122.24028,37.56953],[-122.19868,37.56923],[-122.19848,37.56673],[-122.18208,37.56654],[-122.18198,37.5623],[-122.17388,37.56224],[-122.17381,37.55944],[-122.16338,37.55944],[-122.15758,37.55407],[-122.15607,37.55463],[-122.19793,37.60643],[-122.2884,37.60642],[-122.28845,37.57449]]]},"properties":{"GEOID":"0625338","NAME":"Foster City city","BASENAME":"Foster City","STATE":"06","PLACE":"25338"}},{"type":"Feature","geometry":{"type":"Polygon","coordinates":[[[-122.40362,37.58161],[-122.39941,37.57756],[-122.39709,37.57418],[-122.39807,37.5735],[-122.39314,37.56827],[-122.39232,37.5688],[-122.39576,37.57259],[-122.3935,37.57362],[-122.39216,37.57691],[-122.38772,37.57965],[-122.38875,37.58081],[-122.38677,37.58264],[-122.38526,37.5818],[-122.38636,37.58004],[-122.3849,37.58156],[-122.38282,37.58034],[-122.38431,37.57985],[-122.38386,37.57886],[-122.38182,37.57877],[-122.38141,37.57955],[-122.38018,37.57886],[-122.38148,37.57871],[-122.3824,37.57781],[-122.3813,37.57753],[-122.38276,37.5765],[-122.38277,37.57753],[-122.3843,37.57735],[-122.38738,37.57553],[-122.38839,37.57362],[-122.38581,37.57448],[-122.38748,37.57294],[-122.38659,37.57305],[-122.38605,37.57195],[-122.38358,37.5732],[-122.38326,37.57476],[-122.38142,37.57452],[-122.38001,37.57628],[-122.38093,37.57749],[-122.37816,37.57739],[-122.372,37.58085],[-122.36932,37.57804],[-122.36346,37.5806],[-122.35884,37.57724],[-122.35773,37.57792],[-122.35685,37.5773],[-122.35602,37.5785],[-122.35266,37.57708],[-122.35243,37.57566],[-122.35383,37.57446],[-122.35288,37.57285],[-122.35412,37.57211],[-122.35191,37.56995],[-122.34201,37.57421],[-122.34289,37.57451],[-122.33083,37.58298],[-122.33473,37.58664],[-122.33303,37.58788],[-122.33368,37.60163],[-122.35168,37.60174],[-122.35168,37.60753],[-122.36978,37.60753],[-122.3736,37.60504],[-122.3725,37.60462],[-122.38729,37.59551],[-122.3901,37.5925],[-122.38831,37.59119],[-122.38995,37.58824],[-122.39095,37.589],[-122.39558,37.58542],[-122.39929,37.5844],[-122.40362,37.58161]]]},"properties":{"GEOID":"0609066","NAME":"Burlingame city","BASENAME":"Burlingame","STATE":"06","PLACE":"09066"}},{"type":"Feature","geometry":{"type":"Polygon","coordinates":[[[-122.32888,37.51355],[-122.3245,37.5105],[-122.31999,37.50463],[-122.32,37.50341],[-122.31395,37.503],[-122.3105,37.50212],[-122.30955,37.50097],[-122.30801,37.50222],[-122.3026,37.49839],[-122.30054,37.49992],[-122.29609,37.49705],[-122.29501,37.498],[-122.29384,37.49764],[-122.2896,37.49935],[-122.28965,37.50047],[-122.28735,37.49953],[-122.28813,37.50073],[-122.28622,37.50094],[-122.28956,37.50201],[-122.28653,37.50661],[-122.28858,37.50742],[-122.28656,37.51058],[-122.28445,37.50973],[-122.27797,37.51146],[-122.27908,37.51242],[-122.27829,37.51312],[-122.27303,37.5102],[-122.26734,37.51423],[-122.27266,37.5189],[-122.27166,37.51924],[-122.27254,37.51972],[-122.27216,37.52023],[-122.27118,37.52108],[-122.27016,37.52075],[-122.27094,37.52128],[-122.26792,37.5238],[-122.26257,37.5192],[-122.26107,37.52043],[-122.27,37.52963],[-122.26999,37.53065],[-122.26793,37.53066],[-122.26717,37.53326],[-122.2657,37.53408],[-122.27666,37.53422],[-122.27732,37.53294],[-122.27497,37.53047],[-122.27645,37.52951],[-122.27786,37.52987],[-122.27828,37.52883],[-122.28554,37.53067],[-122.28687,37.52949],[-122.30718,37.52112],[-122.31174,37.52444],[-122.31329,37.52156],[-122.31443,37.52111],[-122.31501,37.51919],[-122.31941,37.51918],[-122.32161,37.52121],[-122.32371,37.52102],[-122.32539,37.51963],[-122.32488,37.51725],[-122.32888,37.51355]]]},"properties":{"GEOID":"0605108","NAME":"Belmont city","BASENAME":"Belmont","STATE":"06","PLACE":"05108"}},{"type":"Feature","geometry":{"type":"Polygon","coordinates":[[[-122.23342,37.4338],[-122.23366,37.43238],[-122.23197,37.43104],[-122.22651,37.43006],[-122.22763,37.42949],[-122.22602,37.42849],[-122.22797,37.427],[-122.22927,37.42473],[-122.22455,37.42411],[-122.22096,37.42794],[-122.21897,37.42896],[-122.21755,37.42796],[-122.21338,37.43274],[-122.21399,37.43316],[-122.21217,37.43487],[-122.21332,37.43548],[-122.21092,37.43834],[-122.21012,37.43793],[-122.20656,37.44038],[-122.20177,37.4389],[-122.18759,37.45582],[-122.19532,37.46022],[-122.19342,37.46179],[-122.19205,37.46092],[-122.18924,37.46456],[-122.18634,37.46312],[-122.18851,37.46031],[-122.18375,37.45795],[-122.18086,37.46159],[-122.17929,37.46084],[-122.17978,37.4602],[-122.1767,37.45866],[-122.17544,37.46028],[-122.17395,37.45952],[-122.16786,37.4717],[-122.17679,37.47597],[-122.18678,37.47676],[-122.1897,37.47172],[-122.1922,37.47272],[-122.19333,37.47087],[-122.19795,37.47264],[-122.20211,37.46727],[-122.20365,37.46825],[-122.20612,37.46514],[-122.21245,37.46968],[-122.21613,37.46488],[-122.21701,37.46507],[-122.21816,37.46376],[-122.21911,37.46081],[-122.22198,37.45727],[-122.21722,37.45375],[-122.22833,37.43965],[-122.23095,37.44027],[-122.23136,37.43865],[-122.23023,37.43708],[-122.2319,37.43459],[-122.23342,37.4338]]]},"properties":{"GEOID":"0603092","NAME":"Atherton town","BASENAME":"Atherton","STATE":"06","PLACE":"03092"}},{"type":"Feature","geometry":{"type":"Polygon","coordinates":[[[-122.3026,37.49839],[-122.2987,37.49566],[-122.2964,37.4927],[-122.29045,37.49014],[-122.29288,37.48876],[-122.28994,37.48678],[-122.29166,37.48657],[-122.29102,37.48474],[-122.27902,37.47479],[-122.27671,37.47516],[-122.2769,37.47688],[-122.27785,37.47645],[-122.27917,37.47817],[-122.27894,37.47886],[-122.27423,37.4823],[-122.27302,37.48153],[-122.27137,37.48247],[-122.26741,37.4822],[-122.26629,37.48123],[-122.26636,37.48029],[-122.26526,37.48018],[-122.26439,37.48093],[-122.26529,37.48213],[-122.26492,37.48295],[-122.26286,37.48281],[-122.26297,37.48165],[-122.26107,37.48151],[-122.26063,37.48216],[-122.25873,37.48162],[-122.25869,37.48324],[-122.25371,37.48491],[-122.2528,37.48655],[-122.24996,37.48707],[-122.24732,37.49109],[-122.24431,37.49316],[-122.2442,37.49428],[-122.24513,37.49511],[-122.24125,37.49821],[-122.23813,37.49815],[-122.24686,37.50555],[-122.24501,37.50734],[-122.24855,37.51268],[-122.24861,37.51815],[-122.25134,37.51767],[-122.25454,37.51524],[-122.26081,37.52066],[-122.26257,37.5192],[-122.26498,37.52127],[-122.27021,37.51686],[-122.26734,37.51423],[-122.27303,37.5102],[-122.27829,37.51312],[-122.27908,37.51242],[-122.27797,37.51146],[-122.28445,37.50973],[-122.28656,37.51058],[-122.28858,37.50742],[-122.28653,37.50661],[-122.28764,37.50488],[-122.28461,37.50235],[-122.28512,37.50157],[-122.28619,37.50167],[-122.2852,37.50116],[-122.28653,37.50057],[-122.28597,37.49928],[-122.28834,37.49875],[-122.28965,37.50047],[-122.2896,37.49935],[-122.29384,37.49764],[-122.29501,37.498],[-122.29609,37.49705],[-122.30054,37.49992],[-122.3026,37.49839]],[[-122.29169,37.4972],[-122.28949,37.49683],[-122.29102,37.4985],[-122.28916,37.49888],[-122.28902,37.49817],[-122.28578,37.49716],[-122.28528,37.49857],[-122.28354,37.49856],[-122.28244,37.50001],[-122.28049,37.49845],[-122.28183,37.49741],[-122.28106,37.49681],[-122.27923,37.49756],[-122.27672,37.49517],[-122.28099,37.49203],[-122.28132,37.49337],[-122.28383,37.49592],[-122.28387,37.49463],[-122.28439,37.49532],[-122.28613,37.49508],[-122.28625,37.49296],[-122.29169,37.4972]],[[-122.26233,37.48446],[-122.26218,37.48583],[-122.2603,37.48616],[-122.25714,37.48411],[-122.26044,37.48371],[-122.26233,37.48446]]]},"properties":{"GEOID":"0665070","NAME":"San Carlos city","BASENAME":"San Carlos","STATE":"06","PLACE":"65070"}},{"type":"Feature","geometry":{"type":"Polygon","coordinates":[[[-122.47272,37.6338],[-122.47263,37.63179],[-122.46886,37.62723],[-122.46741,37.6272],[-122.46634,37.62897],[-122.46148,37.62948],[-122.46,37.62932],[-122.45773,37.62694],[-122.45574,37.62781],[-122.45619,37.62537],[-122.45373,37.6224],[-122.45501,37.62078],[-122.4513,37.61791],[-122.44921,37.61871],[-122.44576,37.62204],[-122.43034,37.60614],[-122.42812,37.60468],[-122.42588,37.6051],[-122.4188,37.6102],[-122.41836,37.60945],[-122.40927,37.61405],[-122.40604,37.61223],[-122.40926,37.60909],[-122.40914,37.60797],[-122.40743,37.60784],[-122.40383,37.61012],[-122.4063,37.61263],[-122.40528,37.6136],[-122.40607,37.61498],[-122.40174,37.61085],[-122.4,37.61269],[-122.40497,37.61936],[-122.40351,37.62104],[-122.40541,37.6354],[-122.41131,37.63554],[-122.41143,37.64123],[-122.41656,37.63928],[-122.41848,37.64232],[-122.42372,37.64041],[-122.43303,37.63438],[-122.43713,37.63813],[-122.44392,37.63449],[-122.4452,37.63497],[-122.44544,37.63658],[-122.4469,37.63693],[-122.44766,37.63544],[-122.44896,37.63522],[-122.45891,37.64054],[-122.46808,37.6376],[-122.46878,37.63852],[-122.47171,37.63518],[-122.47137,37.63454],[-122.47272,37.6338]]]},"properties":{"GEOID":"0665028","NAME":"San Bruno city","BASENAME":"San Bruno","STATE":"06","PLACE":"65028"}},{"type":"Feature","geometry":{"type":"Polygon","coordinates":[[[-122.39355,37.57004],[-122.38228,37.56004],[-122.37708,37.55289],[-122.37361,37.54956],[-122.365,37.54492],[-122.3627,37.54073],[-122.36276,37.5387],[-122.36174,37.53769],[-122.36116,37.53264],[-122.35921,37.53017],[-122.35522,37.53082],[-122.35092,37.53304],[-122.34897,37.53568],[-122.35001,37.53753],[-122.34992,37.54081],[-122.34572,37.5397],[-122.34341,37.53353],[-122.34158,37.53173],[-122.33726,37.53534],[-122.34118,37.53846],[-122.3387,37.5406],[-122.33523,37.53802],[-122.33021,37.54123],[-122.33257,37.54417],[-122.32845,37.54858],[-122.32906,37.5483],[-122.3325,37.55059],[-122.33785,37.54608],[-122.34005,37.54789],[-122.34061,37.54989],[-122.33947,37.55273],[-122.32918,37.5621],[-122.33081,37.56419],[-122.33717,37.56799],[-122.35294,37.56097],[-122.355,37.56416],[-122.35008,37.56631],[-122.35204,37.57015],[-122.35412,37.57211],[-122.35288,37.57285],[-122.35383,37.57446],[-122.35243,37.57566],[-122.35266,37.57708],[-122.35602,37.5785],[-122.35685,37.5773],[-122.35773,37.57792],[-122.35884,37.57724],[-122.36346,37.5806],[-122.36932,37.57804],[-122.372,37.58085],[-122.37816,37.57739],[-122.38093,37.57749],[-122.38001,37.57628],[-122.38132,37.57462],[-122.38344,37.57464],[-122.38358,37.5732],[-122.38605,37.57195],[-122.38571,37.57086],[-122.38742,37.57033],[-122.3879,37.56913],[-122.38982,37.56882],[-122.39128,37.56992],[-122.39128,37.57131],[-122.39355,37.57004]]]},"properties":{"GEOID":"0633798","NAME":"Hillsborough town","BASENAME":"Hillsborough","STATE":"06","PLACE":"33798"}},{"type":"Feature","geometry":{"type":"Polygon","coordinates":[[[-122.4763,37.50222],[-122.4768,37.50103],[-122.47489,37.49963],[-122.47266,37.50088],[-122.47011,37.50059],[-122.47026,37.49994],[-122.45866,37.49126],[-122.45454,37.48579],[-122.44965,37.47672],[-122.44738,37.47047],[-122.44682,37.46486],[-122.44563,37.46145],[-122.44399,37.44167],[-122.44455,37.43766],[-122.44281,37.43494],[-122.44309,37.43297],[-122.44048,37.43097],[-122.43994,37.42753],[-122.43817,37.42519],[-122.42638,37.42492],[-122.42652,37.42786],[-122.42083,37.43134],[-122.42108,37.43254],[-122.42589,37.43139],[-122.42693,37.43915],[-122.42559,37.43928],[-122.42569,37.43986],[-122.42699,37.43974],[-122.42907,37.45498],[-122.42567,37.45538],[-122.42602,37.45826],[-122.42428,37.45881],[-122.42634,37.45914],[-122.42761,37.4616],[-122.42675,37.46237],[-122.42487,37.46109],[-122.42106,37.46124],[-122.421,37.46426],[-122.41652,37.46718],[-122.42177,37.46953],[-122.4201,37.47043],[-122.42082,37.4713],[-122.41949,37.47217],[-122.41928,37.47387],[-122.41749,37.47419],[-122.41957,37.47476],[-122.42179,37.47199],[-122.42548,37.47853],[-122.42812,37.48163],[-122.43092,37.48336],[-122.43069,37.48443],[-122.43459,37.48106],[-122.43512,37.48203],[-122.43253,37.4856],[-122.43704,37.48829],[-122.43718,37.48967],[-122.43489,37.49287],[-122.43656,37.495],[-122.43566,37.49826],[-122.43724,37.50214],[-122.43556,37.50672],[-122.43584,37.50795],[-122.43975,37.50733],[-122.43697,37.5176],[-122.44232,37.52075],[-122.4484,37.49613],[-122.45943,37.49312],[-122.46717,37.49867],[-122.4679,37.49995],[-122.47589,37.50305],[-122.4763,37.50222]]]},"properties":{"GEOID":"0631708","NAME":"Half Moon Bay city","BASENAME":"Half Moon Bay","STATE":"06","PLACE":"31708"}},{"type":"Feature","geometry":{"type":"Polygon","coordinates":[[[-122.50086,37.70111],[-122.4965,37.68309],[-122.49563,37.67198],[-122.49638,37.66634],[-122.49509,37.66437],[-122.49374,37.66441],[-122.49047,37.66121],[-122.48758,37.66093],[-122.48473,37.66249],[-122.48572,37.66431],[-122.48502,37.66429],[-122.48487,37.66637],[-122.48312,37.66676],[-122.4816,37.66613],[-122.47679,37.66198],[-122.47168,37.6538],[-122.47186,37.64914],[-122.46858,37.65048],[-122.45896,37.64983],[-122.45565,37.65055],[-122.45039,37.6485],[-122.45379,37.65592],[-122.45612,37.65399],[-122.45762,37.65673],[-122.46383,37.66107],[-122.46341,37.66235],[-122.46053,37.66406],[-122.46181,37.6657],[-122.46007,37.66684],[-122.4653,37.67171],[-122.47048,37.67831],[-122.4707,37.68247],[-122.46645,37.68252],[-122.46866,37.68458],[-122.46898,37.68706],[-122.46662,37.68893],[-122.46476,37.68613],[-122.46262,37.68703],[-122.4621,37.68608],[-122.45972,37.68619],[-122.45869,37.68493],[-122.45522,37.68884],[-122.44653,37.68472],[-122.44547,37.68533],[-122.44554,37.6869],[-122.4558,37.69347],[-122.4522,37.696],[-122.45317,37.69684],[-122.45158,37.69847],[-122.45112,37.70053],[-122.44686,37.70283],[-122.44237,37.7017],[-122.44173,37.70061],[-122.44071,37.70112],[-122.44097,37.7037],[-122.43697,37.70439],[-122.43191,37.70403],[-122.42924,37.70504],[-122.4284,37.70332],[-122.42721,37.70349],[-122.4245,37.70039],[-122.41342,37.69783],[-122.41353,37.69867],[-122.41262,37.69848],[-122.41134,37.70136],[-122.41249,37.70174],[-122.41072,37.70569],[-122.40683,37.7046],[-122.40514,37.70843],[-122.41922,37.70812],[-122.42334,37.70928],[-122.42386,37.7082],[-122.43678,37.70792],[-122.44034,37.7085],[-122.48559,37.70823],[-122.48638,37.70816],[-122.48625,37.70415],[-122.48784,37.70321],[-122.4924,37.70353],[-122.49241,37.70266],[-122.49664,37.70266],[-122.49607,37.70117],[-122.50086,37.70111]],[[-122.48902,37.69594],[-122.48485,37.69625],[-122.48484,37.69565],[-122.48015,37.69582],[-122.4798,37.69479],[-122.47183,37.69482],[-122.47181,37.69326],[-122.473,37.69254],[-122.47756,37.69323],[-122.47756,37.69251],[-122.47537,37.69181],[-122.47599,37.6902],[-122.47533,37.68606],[-122.47851,37.68604],[-122.47914,37.68674],[-122.48123,37.68603],[-122.48171,37.68675],[-122.48388,37.68686],[-122.48433,37.68965],[-122.48875,37.68966],[-122.48902,37.69594]],[[-122.47535,37.68898],[-122.47536,37.68968],[-122.4744,37.68971],[-122.47379,37.68838],[-122.47535,37.68898]],[[-122.47225,37.68902],[-122.47219,37.6897],[-122.47124,37.68971],[-122.47123,37.68902],[-122.47225,37.68902]],[[-122.4611,37.68823],[-122.4611,37.68959],[-122.45877,37.6874],[-122.45976,37.68625],[-122.4611,37.68823]]]},"properties":{"GEOID":"0617918","NAME":"Daly City city","BASENAME":"Daly City","STATE":"06","PLACE":"17918"}},{"type":"Feature","geometry":{"type":"Polygon","coordinates":[[[-122.22927,37.42473],[-122.22381,37.42027],[-122.22374,37.4191],[-122.22018,37.42027],[-122.21622,37.42034],[-122.21623,37.41865],[-122.21218,37.41688],[-122.20901,37.41732],[-122.20783,37.42085],[-122.20643,37.42105],[-122.19873,37.42211],[-122.19793,37.42074],[-122.19698,37.42153],[-122.19169,37.41977],[-122.19047,37.42097],[-122.19169,37.42386],[-122.19071,37.42415],[-122.19131,37.42545],[-122.18944,37.42746],[-122.19053,37.43129],[-122.18841,37.43206],[-122.18765,37.43331],[-122.18442,37.43423],[-122.18217,37.43948],[-122.18014,37.43931],[-122.17942,37.44003],[-122.17979,37.44102],[-122.1757,37.44188],[-122.17452,37.44447],[-122.17182,37.4467],[-122.16944,37.4478],[-122.16875,37.44743],[-122.16763,37.4489],[-122.16762,37.45078],[-122.16595,37.45077],[-122.16516,37.45298],[-122.16411,37.45246],[-122.16044,37.45468],[-122.15769,37.45349],[-122.15579,37.45413],[-122.15591,37.45553],[-122.15442,37.45588],[-122.15254,37.45768],[-122.14748,37.4565],[-122.14601,37.45694],[-122.14493,37.4582],[-122.14455,37.46078],[-122.15,37.46175],[-122.14987,37.46234],[-122.15126,37.46274],[-122.15056,37.46599],[-122.15652,37.46954],[-122.15369,37.4745],[-122.14668,37.4735],[-122.14621,37.4755],[-122.13956,37.47587],[-122.13976,37.48085],[-122.13867,37.48188],[-122.13126,37.48419],[-122.1309,37.48337],[-122.13233,37.47981],[-122.1265,37.475],[-122.11647,37.47864],[-122.11657,37.47804],[-122.12252,37.47613],[-122.1228,37.4725],[-122.12086,37.47301],[-122.11155,37.46629],[-122.09643,37.4661],[-122.09676,37.4619],[-122.08147,37.47784],[-122.10957,37.49764],[-122.13977,37.53434],[-122.14897,37.53414],[-122.14957,37.52874],[-122.15347,37.51964],[-122.16396,37.50263],[-122.16477,37.49957],[-122.16604,37.49936],[-122.16876,37.49633],[-122.17304,37.49622],[-122.17599,37.4982],[-122.17818,37.49827],[-122.17844,37.48896],[-122.17915,37.4894],[-122.17946,37.48802],[-122.1785,37.48699],[-122.1837,37.48835],[-122.18938,37.48814],[-122.18929,37.48666],[-122.18215,37.48517],[-122.18288,37.484],[-122.18191,37.48252],[-122.18448,37.48046],[-122.18678,37.47676],[-122.17679,37.47597],[-122.16786,37.4717],[-122.16157,37.47009],[-122.16509,37.463],[-122.16722,37.46368],[-122.17064,37.45987],[-122.17319,37.46109],[-122.17395,37.45952],[-122.17544,37.46028],[-122.1767,37.45866],[-122.17978,37.4602],[-122.17929,37.46084],[-122.18086,37.46159],[-122.18375,37.45795],[-122.18851,37.46031],[-122.18634,37.46312],[-122.18924,37.46456],[-122.19205,37.46092],[-122.19342,37.46179],[-122.19562,37.45985],[-122.18759,37.45582],[-122.20227,37.43831],[-122.19862,37.43667],[-122.1998,37.43553],[-122.19849,37.43484],[-122.19976,37.43339],[-122.19719,37.43261],[-122.19651,37.4305],[-122.19484,37.4309],[-122.19014,37.42846],[-122.19237,37.42584],[-122.19151,37.42453],[-122.19205,37.42376],[-122.19743,37.4223],[-122.19288,37.42519],[-122.19398,37.42579],[-122.1928,37.42616],[-122.19592,37.42887],[-122.19951,37.43067],[-122.2006,37.42936],[-122.20265,37.43044],[-122.20523,37.42984],[-122.20797,37.43132],[-122.20767,37.4325],[-122.2117,37.433],[-122.21364,37.43272],[-122.21751,37.42786],[-122.21897,37.42896],[-122.22096,37.42794],[-122.22455,37.42411],[-122.22927,37.42473]]]},"properties":{"GEOID":"0646870","NAME":"Menlo Park city","BASENAME":"Menlo Park","STATE":"06","PLACE":"46870"}},{"type":"Feature","geometry":{"type":"Polygon","coordinates":[[[-122.25388,37.3735],[-122.24765,37.3673],[-122.24789,37.36503],[-122.24691,37.36312],[-122.24772,37.36009],[-122.2473,37.3585],[-122.24036,37.35205],[-122.23651,37.34969],[-122.23133,37.34835],[-122.22825,37.3448],[-122.21815,37.3404],[-122.217,37.3383],[-122.21414,37.33833],[-122.21414,37.34074],[-122.2127,37.34008],[-122.2105,37.34323],[-122.20809,37.34346],[-122.20681,37.34524],[-122.2068,37.34402],[-122.20215,37.347],[-122.20317,37.3484],[-122.1967,37.35188],[-122.20149,37.35805],[-122.20265,37.36305],[-122.20149,37.36578],[-122.20071,37.37196],[-122.19936,37.37262],[-122.19916,37.37472],[-122.1969,37.37654],[-122.19372,37.38225],[-122.19051,37.38525],[-122.19113,37.38815],[-122.19032,37.38912],[-122.19057,37.39053],[-122.18957,37.39128],[-122.19002,37.39486],[-122.19122,37.39558],[-122.19186,37.39764],[-122.20434,37.39407],[-122.20665,37.40124],[-122.23375,37.39339],[-122.232,37.39107],[-122.22975,37.39025],[-122.22903,37.38892],[-122.2295,37.38836],[-122.22705,37.38694],[-122.22716,37.38524],[-122.22574,37.3845],[-122.22653,37.38304],[-122.22327,37.38197],[-122.22388,37.38081],[-122.22557,37.3802],[-122.22983,37.3827],[-122.23401,37.38708],[-122.23471,37.38428],[-122.23947,37.38991],[-122.24511,37.38539],[-122.24762,37.37958],[-122.24849,37.37982],[-122.25002,37.37816],[-122.24989,37.37729],[-122.25331,37.37523],[-122.25388,37.3735]]]},"properties":{"GEOID":"0658380","NAME":"Portola Valley town","BASENAME":"Portola Valley","STATE":"06","PLACE":"58380"}},{"type":"Feature","geometry":{"type":"Polygon","coordinates":[[[-122.47173,37.64916],[-122.46851,37.64366],[-122.46413,37.63879],[-122.45891,37.64054],[-122.44896,37.63522],[-122.44766,37.63544],[-122.4469,37.63693],[-122.44544,37.63658],[-122.4452,37.63497],[-122.44392,37.63449],[-122.43713,37.63813],[-122.43303,37.63438],[-122.42372,37.64041],[-122.41848,37.64232],[-122.41656,37.63928],[-122.41143,37.64123],[-122.41131,37.63554],[-122.40565,37.63554],[-122.40499,37.63491],[-122.40304,37.63554],[-122.29441,37.63395],[-122.22053,37.63392],[-122.25198,37.67243],[-122.37072,37.67172],[-122.39292,37.67169],[-122.39425,37.67223],[-122.39468,37.6711],[-122.39601,37.67119],[-122.39723,37.67],[-122.39635,37.669],[-122.39777,37.66814],[-122.39782,37.6672],[-122.40005,37.66786],[-122.40017,37.66697],[-122.40431,37.66619],[-122.40374,37.66712],[-122.40547,37.66804],[-122.40669,37.66702],[-122.40757,37.66724],[-122.40847,37.67001],[-122.41004,37.67065],[-122.41061,37.66934],[-122.41165,37.66899],[-122.41317,37.67061],[-122.41266,37.67168],[-122.41346,37.672],[-122.4142,37.67095],[-122.41513,37.6718],[-122.41505,37.67293],[-122.41885,37.67333],[-122.41995,37.6717],[-122.42382,37.67213],[-122.4263,37.66875],[-122.42514,37.66765],[-122.4259,37.66706],[-122.42931,37.66772],[-122.43663,37.67149],[-122.44431,37.66568],[-122.4457,37.66537],[-122.45052,37.67004],[-122.45186,37.66918],[-122.45342,37.67079],[-122.46181,37.6657],[-122.46053,37.66406],[-122.46341,37.66235],[-122.46383,37.66107],[-122.45762,37.65673],[-122.45612,37.65399],[-122.45379,37.65592],[-122.45039,37.6485],[-122.45565,37.65055],[-122.45896,37.64983],[-122.46858,37.65048],[-122.47173,37.64916]],[[-122.45005,37.6479],[-122.44915,37.64843],[-122.44856,37.64739],[-122.44714,37.64708],[-122.44297,37.649],[-122.44042,37.65351],[-122.43796,37.65435],[-122.43616,37.65425],[-122.4363,37.65276],[-122.43719,37.65234],[-122.43656,37.65157],[-122.43743,37.65098],[-122.43592,37.64809],[-122.4341,37.6463],[-122.43168,37.64761],[-122.43124,37.64692],[-122.43329,37.64522],[-122.43455,37.64606],[-122.43992,37.64322],[-122.44081,37.64488],[-122.44471,37.64317],[-122.44716,37.64466],[-122.45005,37.6479]],[[-122.43483,37.6402],[-122.43536,37.64091],[-122.43416,37.64111],[-122.43381,37.64241],[-122.43437,37.64335],[-122.43253,37.64325],[-122.43256,37.6442],[-122.42977,37.64552],[-122.42863,37.64401],[-122.42657,37.6431],[-122.4329,37.64013],[-122.43343,37.64086],[-122.43417,37.64051],[-122.43417,37.63953],[-122.43483,37.6402]]]},"properties":{"GEOID":"0673262","NAME":"South San Francisco city","BASENAME":"South San Francisco","STATE":"06","PLACE":"73262"}},{"type":"Feature","geometry":{"type":"Polygon","coordinates":[[[-122.30339,37.42333],[-122.30031,37.42125],[-122.29628,37.42031],[-122.29442,37.41826],[-122.2921,37.4176],[-122.29081,37.41854],[-122.28896,37.41575],[-122.28484,37.41583],[-122.28087,37.41464],[-122.27289,37.41781],[-122.25763,37.40368],[-122.26041,37.40113],[-122.26152,37.39822],[-122.25938,37.40035],[-122.25681,37.40135],[-122.25585,37.39946],[-122.25611,37.39838],[-122.2543,37.39715],[-122.25654,37.39728],[-122.25827,37.39833],[-122.26077,37.39617],[-122.26306,37.39714],[-122.26808,37.39759],[-122.27159,37.39299],[-122.25851,37.37912],[-122.2587,37.37799],[-122.25764,37.37719],[-122.26036,37.37812],[-122.25953,37.37499],[-122.25714,37.37221],[-122.25273,37.37193],[-122.25259,37.37253],[-122.25395,37.37329],[-122.25342,37.37508],[-122.24989,37.37729],[-122.25002,37.37816],[-122.24849,37.37982],[-122.24762,37.37958],[-122.24511,37.38539],[-122.23947,37.38991],[-122.23471,37.38428],[-122.23401,37.38708],[-122.22983,37.3827],[-122.22557,37.3802],[-122.2233,37.38154],[-122.22653,37.38304],[-122.22574,37.3845],[-122.22716,37.38524],[-122.22705,37.38694],[-122.2295,37.38836],[-122.22903,37.38892],[-122.22975,37.39025],[-122.232,37.39107],[-122.23394,37.39365],[-122.23343,37.3941],[-122.23417,37.39436],[-122.23365,37.39493],[-122.2344,37.39645],[-122.23317,37.39726],[-122.23561,37.39733],[-122.23784,37.39543],[-122.23751,37.39774],[-122.23828,37.39983],[-122.24071,37.39854],[-122.2424,37.39914],[-122.24237,37.39828],[-122.24441,37.39825],[-122.24541,37.40098],[-122.24451,37.4042],[-122.24538,37.40791],[-122.24046,37.41188],[-122.2438,37.4201],[-122.24112,37.42193],[-122.23982,37.42124],[-122.23592,37.42535],[-122.22925,37.42467],[-122.22797,37.427],[-122.22602,37.42849],[-122.22763,37.42949],[-122.22651,37.43006],[-122.22803,37.43068],[-122.23054,37.43038],[-122.23366,37.43238],[-122.23342,37.4338],[-122.2319,37.43459],[-122.23023,37.43708],[-122.23136,37.43865],[-122.23095,37.44027],[-122.22833,37.43965],[-122.22497,37.44397],[-122.22832,37.44637],[-122.23122,37.44291],[-122.23451,37.44452],[-122.23161,37.44876],[-122.24032,37.45501],[-122.24385,37.45303],[-122.24694,37.45549],[-122.25731,37.44721],[-122.26026,37.44745],[-122.26031,37.44838],[-122.26145,37.44883],[-122.26386,37.44811],[-122.26394,37.44898],[-122.26307,37.44942],[-122.26911,37.45223],[-122.26659,37.45417],[-122.26802,37.45636],[-122.26882,37.45613],[-122.2683,37.45506],[-122.26964,37.45454],[-122.2714,37.45493],[-122.2707,37.4559],[-122.27138,37.45644],[-122.27432,37.45621],[-122.27838,37.46097],[-122.28125,37.45893],[-122.27877,37.45855],[-122.27957,37.45714],[-122.2805,37.4571],[-122.28003,37.45614],[-122.2783,37.45591],[-122.2783,37.45432],[-122.28042,37.45202],[-122.27829,37.45061],[-122.28936,37.4429],[-122.28725,37.44135],[-122.28684,37.43886],[-122.28292,37.43541],[-122.30339,37.42333]]]},"properties":{"GEOID":"0686440","NAME":"Woodside town","BASENAME":"Woodside","STATE":"06","PLACE":"86440"}},{"type":"Feature","geometry":{"type":"Polygon","coordinates":[[[-122.51522,37.59559],[-122.51096,37.59221],[-122.51243,37.59012],[-122.50771,37.58749],[-122.50458,37.59101],[-122.49939,37.58828],[-122.49959,37.58426],[-122.50208,37.58241],[-122.49979,37.58108],[-122.49846,37.58353],[-122.49648,37.58285],[-122.4966,37.58219],[-122.49423,37.5824],[-122.49651,37.57955],[-122.50055,37.57968],[-122.49332,37.57569],[-122.49182,37.57739],[-122.48906,37.57528],[-122.48696,37.57617],[-122.48718,37.5791],[-122.48236,37.57519],[-122.47281,37.57956],[-122.47157,37.57792],[-122.47641,37.57404],[-122.47606,37.57349],[-122.47294,37.57357],[-122.47279,37.57009],[-122.46404,37.5701],[-122.46399,37.56634],[-122.45949,37.56636],[-122.45956,37.5737],[-122.46135,37.5737],[-122.46134,37.57734],[-122.45964,37.57734],[-122.45976,37.58447],[-122.46307,37.58459],[-122.44392,37.59362],[-122.45059,37.61569],[-122.45008,37.61564],[-122.45144,37.61713],[-122.45095,37.61754],[-122.46278,37.61934],[-122.47263,37.63179],[-122.47272,37.6338],[-122.47137,37.63454],[-122.47171,37.63518],[-122.46969,37.63779],[-122.46878,37.63852],[-122.46808,37.6376],[-122.46413,37.63879],[-122.46851,37.64366],[-122.47186,37.64914],[-122.47134,37.65304],[-122.47636,37.66142],[-122.48247,37.6666],[-122.48487,37.66637],[-122.48502,37.66429],[-122.48572,37.66431],[-122.48473,37.66249],[-122.48758,37.66093],[-122.49047,37.66121],[-122.49374,37.66441],[-122.49509,37.66437],[-122.49428,37.66102],[-122.49408,37.65208],[-122.49486,37.63163],[-122.49611,37.62284],[-122.49692,37.62112],[-122.49897,37.6202],[-122.49724,37.61836],[-122.49819,37.6142],[-122.49688,37.61218],[-122.49726,37.61053],[-122.49857,37.6081],[-122.50158,37.60767],[-122.50204,37.60665],[-122.50172,37.60543],[-122.49995,37.60416],[-122.50058,37.60126],[-122.50345,37.59782],[-122.50715,37.59608],[-122.51493,37.59862],[-122.51398,37.59763],[-122.51522,37.59559]]]},"properties":{"GEOID":"0654806","NAME":"Pacifica city","BASENAME":"Pacifica","STATE":"06","PLACE":"54806"}},{"type":"Feature","geometry":{"type":"Polygon","coordinates":[[[-122.35491,37.5642],[-122.35271,37.56089],[-122.33717,37.56799],[-122.33081,37.56419],[-122.32918,37.5621],[-122.33947,37.55273],[-122.34061,37.54989],[-122.34005,37.54789],[-122.33785,37.54608],[-122.3325,37.55059],[-122.32906,37.5483],[-122.32845,37.54858],[-122.33257,37.54417],[-122.33019,37.54128],[-122.33296,37.53892],[-122.33355,37.53938],[-122.33523,37.53802],[-122.3387,37.5406],[-122.34118,37.53846],[-122.33726,37.53534],[-122.34158,37.53173],[-122.33575,37.52955],[-122.3327,37.52508],[-122.33517,37.52429],[-122.33867,37.52055],[-122.34047,37.52097],[-122.33803,37.51899],[-122.33426,37.52088],[-122.32998,37.51751],[-122.33269,37.51639],[-122.3326,37.51723],[-122.33295,37.5168],[-122.33534,37.51807],[-122.33615,37.51607],[-122.33879,37.51513],[-122.33792,37.51421],[-122.33426,37.51575],[-122.3302,37.51259],[-122.32488,37.51725],[-122.32539,37.51963],[-122.32371,37.52102],[-122.32161,37.52121],[-122.31941,37.51918],[-122.31501,37.51919],[-122.31443,37.52111],[-122.31329,37.52156],[-122.31174,37.52444],[-122.30718,37.52112],[-122.28687,37.52949],[-122.28554,37.53067],[-122.27828,37.52883],[-122.27786,37.52987],[-122.27645,37.52951],[-122.27497,37.53047],[-122.27732,37.53294],[-122.27666,37.53422],[-122.27883,37.5364],[-122.2765,37.53997],[-122.27714,37.54416],[-122.27906,37.54575],[-122.28021,37.54847],[-122.28371,37.54832],[-122.28452,37.55004],[-122.28167,37.55237],[-122.28218,37.55364],[-122.28391,37.55445],[-122.27923,37.55613],[-122.2794,37.56442],[-122.28454,37.56449],[-122.28447,37.57062],[-122.28837,37.57055],[-122.28827,37.60213],[-122.33368,37.60163],[-122.33303,37.58788],[-122.33473,37.58664],[-122.33083,37.58298],[-122.34289,37.57451],[-122.34201,37.57421],[-122.35234,37.56977],[-122.35008,37.56631],[-122.35491,37.5642]],[[-122.32938,37.54188],[-122.32415,37.54614],[-122.32118,37.54377],[-122.32019,37.54449],[-122.31954,37.54399],[-122.32066,37.54354],[-122.32022,37.54271],[-122.31896,37.54275],[-122.31818,37.54154],[-122.3227,37.53736],[-122.32938,37.54188]]]},"properties":{"GEOID":"0668252","NAME":"San Mateo city","BASENAME":"San Mateo","STATE":"06","PLACE":"68252"}},{"type":"Feature","geometry":{"type":"MultiPolygon","coordinates":[[[[-122.291,37.46958],[-122.28151,37.46509],[-122.27963,37.46276],[-122.27705,37.46265],[-122.27942,37.46034],[-122.27801,37.46085],[-122.27815,37.46008],[-122.2765,37.45919],[-122.27667,37.45835],[-122.27432,37.45621],[-122.27148,37.45647],[-122.26919,37.45463],[-122.2683,37.45506],[-122.26882,37.45613],[-122.26802,37.45636],[-122.26659,37.45417],[-122.26911,37.45223],[-122.26307,37.44942],[-122.26394,37.44898],[-122.26386,37.44811],[-122.26145,37.44883],[-122.26031,37.44838],[-122.26026,37.44745],[-122.25731,37.44721],[-122.24694,37.45549],[-122.24385,37.45303],[-122.24032,37.45501],[-122.23097,37.4483],[-122.22985,37.45053],[-122.23042,37.45088],[-122.22969,37.45238],[-122.22913,37.45203],[-122.22898,37.4538],[-122.22819,37.45364],[-122.22885,37.45408],[-122.22769,37.45667],[-122.22699,37.45667],[-122.2275,37.45703],[-122.22612,37.45951],[-122.22347,37.45811],[-122.22224,37.45921],[-122.2209,37.45861],[-122.21911,37.46081],[-122.21816,37.46376],[-122.21701,37.46507],[-122.21613,37.46488],[-122.21245,37.46968],[-122.21726,37.47326],[-122.21519,37.47541],[-122.21771,37.47699],[-122.21709,37.47779],[-122.21612,37.47745],[-122.21497,37.47907],[-122.21337,37.47801],[-122.21409,37.47698],[-122.2121,37.47715],[-122.21284,37.47765],[-122.2094,37.4826],[-122.21449,37.48367],[-122.21341,37.48522],[-122.21128,37.48488],[-122.21272,37.48423],[-122.21166,37.48375],[-122.21073,37.48413],[-122.21093,37.48482],[-122.20204,37.48292],[-122.20168,37.48227],[-122.2027,37.48062],[-122.19992,37.47951],[-122.1986,37.48161],[-122.18872,37.47783],[-122.18601,37.47801],[-122.18448,37.48046],[-122.18191,37.48252],[-122.18288,37.484],[-122.18215,37.48517],[-122.18935,37.48667],[-122.18994,37.48582],[-122.19272,37.48618],[-122.19222,37.48743],[-122.1837,37.48835],[-122.1785,37.48699],[-122.17946,37.48802],[-122.17915,37.4894],[-122.17844,37.48896],[-122.17818,37.49827],[-122.17599,37.4982],[-122.17304,37.49622],[-122.16876,37.49633],[-122.16604,37.49936],[-122.16477,37.49957],[-122.16396,37.50263],[-122.15347,37.51964],[-122.14957,37.52874],[-122.14897,37.53414],[-122.13977,37.53434],[-122.15607,37.55463],[-122.15758,37.55407],[-122.16338,37.55944],[-122.17381,37.55944],[-122.17388,37.56224],[-122.18198,37.5623],[-122.18208,37.56654],[-122.19848,37.56673],[-122.19868,37.56923],[-122.24028,37.56953],[-122.24258,37.56603],[-122.24289,37.55506],[-122.25072,37.54819],[-122.25237,37.54451],[-122.25193,37.54041],[-122.25846,37.54118],[-122.26073,37.53876],[-122.26022,37.53451],[-122.2608,37.53365],[-122.265,37.53439],[-122.26717,37.53326],[-122.26793,37.53066],[-122.26999,37.53065],[-122.26969,37.52906],[-122.26569,37.52572],[-122.2646,37.52355],[-122.25454,37.51524],[-122.25134,37.51767],[-122.24861,37.51815],[-122.24855,37.51268],[-122.24501,37.50734],[-122.24686,37.50555],[-122.23813,37.49815],[-122.24125,37.49821],[-122.24513,37.49511],[-122.2442,37.49428],[-122.24431,37.49316],[-122.24732,37.49109],[-122.24996,37.48707],[-122.2528,37.48655],[-122.25371,37.48491],[-122.25874,37.48318],[-122.25715,37.48168],[-122.2556,37.48288],[-122.2538,37.48145],[-122.25696,37.47926],[-122.25818,37.48079],[-122.26177,37.47772],[-122.26028,37.47727],[-122.26144,37.47406],[-122.26025,37.47262],[-122.26065,37.47026],[-122.25948,37.47078],[-122.25856,37.46921],[-122.25915,37.46855],[-122.25854,37.46767],[-122.25775,37.46785],[-122.25874,37.46651],[-122.25784,37.46544],[-122.25691,37.46569],[-122.2554,37.46291],[-122.25584,37.46226],[-122.25772,37.4627],[-122.25786,37.46404],[-122.25852,37.46419],[-122.26046,37.46303],[-122.2606,37.462],[-122.26296,37.46263],[-122.26277,37.46124],[-122.26047,37.46143],[-122.25872,37.4603],[-122.25847,37.45883],[-122.25958,37.45745],[-122.25879,37.45695],[-122.26304,37.45414],[-122.26962,37.45812],[-122.27179,37.45729],[-122.27481,37.45817],[-122.27536,37.45896],[-122.2742,37.45955],[-122.27557,37.46003],[-122.27555,37.46251],[-122.27197,37.46622],[-122.27483,37.46735],[-122.27629,37.47063],[-122.27912,37.46931],[-122.28067,37.47262],[-122.28012,37.47455],[-122.2832,37.47434],[-122.28751,37.47056],[-122.291,37.46958]],[[-122.25936,37.47433],[-122.25593,37.47748],[-122.25469,37.47755],[-122.25408,37.47705],[-122.2549,37.47611],[-122.25374,37.47679],[-122.25163,37.47593],[-122.25064,37.47315],[-122.25191,37.47253],[-122.25202,37.4736],[-122.25311,37.4738],[-122.25108,37.47374],[-122.25171,37.47418],[-122.2548,37.47399],[-122.25437,37.47295],[-122.25265,37.4737],[-122.2522,37.47229],[-122.25267,37.4714],[-122.25508,37.47093],[-122.25587,37.47272],[-122.25707,37.47246],[-122.25793,37.47321],[-122.25774,37.47411],[-122.25936,37.47433]],[[-122.25032,37.47235],[-122.24928,37.47318],[-122.24619,37.4707],[-122.24746,37.47007],[-122.25032,37.47235]]],[[[-122.26229,37.48482],[-122.26228,37.48395],[-122.26068,37.48434],[-122.26112,37.48377],[-122.25714,37.48411],[-122.25959,37.48608],[-122.26191,37.48604],[-122.26229,37.48482]]],[[[-122.26368,37.46375],[-122.26242,37.46323],[-122.26273,37.46435],[-122.26368,37.46375]]]]},"properties":{"GEOID":"0660102","NAME":"Redwood City city","BASENAME":"Redwood City","STATE":"06","PLACE":"60102"}}]}