{"type":"FeatureCollection","features":[{"type":"Feature","geometry":{"type":"Polygon","coordinates":[[[-120.5913,34.95893],[-120.59131,34.95768],[-120.57905,34.95759],[-120.57909,34.955],[-120.57722,34.95536],[-120.57719,34.95749],[-120.57364,34.95752],[-120.57387,34.9471],[-120.56521,34.94697],[-120.56535,34.95747],[-120.56726,34.95746],[-120.56704,34.96783],[-120.56488,34.96691],[-120.55847,34.96693],[-120.56676,34.97065],[-120.5655,34.97314],[-120.55939,34.97324],[-120.55787,34.97252],[-120.55788,34.97337],[-120.56823,34.97418],[-120.56851,34.97343],[-120.57316,34.97487],[-120.57381,34.97366],[-120.57284,34.97324],[-120.57561,34.96991],[-120.57507,34.96773],[-120.57625,34.96601],[-120.5794,34.96469],[-120.58008,34.96286],[-120.58199,34.96164],[-120.58408,34.96267],[-120.58776,34.96251],[-120.58918,34.96325],[-120.59118,34.96261],[-120.5913,34.95893]]]},"properties":{"GEOID":"0631414","NAME":"Guadalupe city","BASENAME":"Guadalupe","STATE":"06","PLACE":"31414"}},{"type":"Feature","geometry":{"type":"Polygon","coordinates":[[[-120.2104,34.61717],[-120.2042,34.60878],[-120.19484,34.60616],[-120.19348,34.60611],[-120.19377,34.60785],[-120.19127,34.60796],[-120.1908,34.60981],[-120.19011,34.6095],[-120.19106,34.60624],[-120.18535,34.60727],[-120.18014,34.60657],[-120.17639,34.61213],[-120.18304,34.61362],[-120.18778,34.61587],[-120.18554,34.62065],[-120.18648,34.6207],[-120.18627,34.62196],[-120.18398,34.62331],[-120.1843,34.62537],[-120.18271,34.62662],[-120.18833,34.62834],[-120.18864,34.62905],[-120.18964,34.62903],[-120.19098,34.62174],[-120.19137,34.62125],[-120.19254,34.62189],[-120.19354,34.61939],[-120.20659,34.62419],[-120.2104,34.61717]]]},"properties":{"GEOID":"0608758","NAME":"Buellton city","BASENAME":"Buellton","STATE":"06","PLACE":"08758"}},{"type":"Feature","geometry":{"type":"Polygon","coordinates":[[[-120.15479,34.59066],[-120.15484,34.58993],[-120.14429,34.58492],[-120.14854,34.57856],[-120.14888,34.57691],[-120.14528,34.56632],[-120.14294,34.56343],[-120.14269,34.55917],[-120.141,34.55897],[-120.13936,34.56256],[-120.1416,34.56853],[-120.14069,34.57068],[-120.14302,34.57241],[-120.14182,34.57353],[-120.14184,34.57553],[-120.14359,34.57554],[-120.14579,34.57807],[-120.1407,34.58075],[-120.14056,34.58223],[-120.14148,34.58232],[-120.14141,34.58326],[-120.14322,34.58443],[-120.14206,34.58741],[-120.14134,34.58879],[-120.13901,34.58688],[-120.13532,34.58697],[-120.13507,34.58882],[-120.13407,34.58885],[-120.13392,34.59201],[-120.13492,34.59205],[-120.1336,34.59523],[-120.12779,34.5952],[-120.12772,34.59805],[-120.12664,34.59782],[-120.12619,34.59978],[-120.12163,34.60274],[-120.11992,34.60689],[-120.12185,34.60685],[-120.12185,34.60978],[-120.12494,34.60685],[-120.12847,34.60682],[-120.12878,34.61049],[-120.13207,34.61044],[-120.13282,34.60861],[-120.13425,34.60897],[-120.13383,34.61017],[-120.13528,34.61054],[-120.13561,34.60929],[-120.13912,34.60867],[-120.14124,34.60498],[-120.14598,34.60588],[-120.14674,34.60247],[-120.15152,34.60399],[-120.15425,34.59714],[-120.15479,34.59066]]]},"properties":{"GEOID":"0672576","NAME":"Solvang city","BASENAME":"Solvang","STATE":"06","PLACE":"72576"}},{"type":"Feature","geometry":{"type":"Polygon","coordinates":[[[-119.54422,34.36313],[-119.53356,34.35757],[-119.52223,34.35415],[-119.50498,34.35184],[-119.49678,34.34983],[-119.48939,34.34929],[-119.48966,34.38231],[-119.48928,34.38316],[-119.48354,34.38146],[-119.48229,34.38286],[-119.48305,34.38406],[-119.48018,34.3842],[-119.48009,34.38487],[-119.48204,34.38471],[-119.48194,34.38997],[-119.48451,34.39057],[-119.48531,34.38884],[-119.49079,34.39095],[-119.495,34.39127],[-119.49502,34.39239],[-119.49673,34.39238],[-119.49674,34.39143],[-119.50024,34.39128],[-119.50048,34.38954],[-119.50324,34.39038],[-119.5029,34.39713],[-119.50677,34.39566],[-119.50866,34.39825],[-119.50546,34.40526],[-119.5098,34.40568],[-119.50995,34.40692],[-119.51372,34.40764],[-119.51338,34.40877],[-119.515,34.40862],[-119.51452,34.4097],[-119.51555,34.40999],[-119.51426,34.41259],[-119.51807,34.41361],[-119.51946,34.41111],[-119.51922,34.40995],[-119.51715,34.40929],[-119.51776,34.40693],[-119.52651,34.40959],[-119.52734,34.40738],[-119.52899,34.40734],[-119.52994,34.40518],[-119.53362,34.4069],[-119.53462,34.40598],[-119.53693,34.40682],[-119.53607,34.40816],[-119.53912,34.40933],[-119.53891,34.41045],[-119.54094,34.41042],[-119.54095,34.4114],[-119.54269,34.41141],[-119.5427,34.40561],[-119.53778,34.40502],[-119.5262,34.3996],[-119.52748,34.39927],[-119.54422,34.36313]]]},"properties":{"GEOID":"0611446","NAME":"Carpinteria city","BASENAME":"Carpinteria","STATE":"06","PLACE":"11446"}},{"type":"Feature","geometry":{"type":"Polygon","coordinates":[[[-119.92188,34.43587],[-119.92186,34.43298],[-119.90134,34.42159],[-119.89148,34.41936],[-119.88787,34.41704],[-119.88482,34.41385],[-119.88493,34.42275],[-119.88323,34.42408],[-119.88273,34.42432],[-119.88214,34.42281],[-119.8788,34.42326],[-119.87639,34.42067],[-119.87355,34.42189],[-119.87354,34.42288],[-119.86983,34.42229],[-119.86981,34.41915],[-119.86501,34.41919],[-119.86507,34.42429],[-119.85979,34.42431],[-119.85929,34.4251],[-119.85959,34.43056],[-119.84929,34.43126],[-119.84126,34.43296],[-119.84196,34.43604],[-119.84028,34.43629],[-119.84059,34.43759],[-119.8371,34.43824],[-119.83166,34.43881],[-119.8308,34.43622],[-119.83162,34.43584],[-119.83068,34.43529],[-119.83078,34.42932],[-119.82902,34.42933],[-119.82875,34.42707],[-119.82875,34.42649],[-119.83072,34.42641],[-119.82562,34.42248],[-119.82194,34.42339],[-119.82179,34.42954],[-119.81829,34.42938],[-119.8182,34.43392],[-119.81666,34.43515],[-119.81408,34.43501],[-119.81373,34.43065],[-119.81129,34.43059],[-119.81131,34.42952],[-119.80753,34.42951],[-119.80782,34.43351],[-119.80587,34.43725],[-119.80649,34.43933],[-119.80538,34.44045],[-119.80528,34.44196],[-119.81621,34.4436],[-119.81541,34.44868],[-119.81992,34.44914],[-119.8203,34.45491],[-119.81972,34.45597],[-119.82052,34.45877],[-119.82319,34.45851],[-119.82396,34.45436],[-119.82755,34.45553],[-119.83053,34.45369],[-119.83206,34.45426],[-119.83346,34.45366],[-119.83712,34.4539],[-119.83871,34.45505],[-119.83871,34.45231],[-119.84132,34.45218],[-119.84133,34.45117],[-119.8471,34.45083],[-119.86127,34.44223],[-119.88123,34.44099],[-119.88526,34.44186],[-119.8853,34.44485],[-119.88629,34.44485],[-119.88768,34.44172],[-119.88862,34.44371],[-119.88954,34.44276],[-119.89565,34.4426],[-119.89574,34.44341],[-119.89723,34.44139],[-119.89743,34.44211],[-119.89865,34.44215],[-119.90044,34.44129],[-119.90449,34.44123],[-119.90613,34.43866],[-119.90107,34.43719],[-119.90472,34.43518],[-119.90557,34.43271],[-119.9114,34.4331],[-119.92183,34.43689],[-119.91989,34.43555],[-119.92188,34.43587]]]},"properties":{"GEOID":"0630378","NAME":"Goleta city","BASENAME":"Goleta","STATE":"06","PLACE":"30378"}},{"type":"Feature","geometry":{"type":"MultiPolygon","coordinates":[[[[-120.51905,34.67954],[-120.51898,34.67735],[-120.51693,34.6759],[-120.51147,34.67514],[-120.50719,34.67352],[-120.50675,34.67105],[-120.50498,34.66864],[-120.49841,34.669],[-120.49306,34.67174],[-120.49267,34.66842],[-120.49009,34.66836],[-120.48909,34.66771],[-120.48835,34.66543],[-120.48471,34.66365],[-120.48561,34.66366],[-120.48564,34.66116],[-120.484,34.6611],[-120.48413,34.65369],[-120.47972,34.65362],[-120.47976,34.65012],[-120.4755,34.65005],[-120.47552,34.64832],[-120.4798,34.6484],[-120.47991,34.64082],[-120.4799,34.639],[-120.47552,34.63897],[-120.47556,34.63429],[-120.48438,34.63434],[-120.48443,34.63056],[-120.48217,34.63054],[-120.48222,34.62955],[-120.48444,34.62942],[-120.48526,34.62545],[-120.48724,34.6252],[-120.48782,34.62247],[-120.48022,34.62081],[-120.47994,34.63067],[-120.46692,34.63101],[-120.46694,34.6294],[-120.4679,34.62941],[-120.46791,34.62825],[-120.46688,34.62824],[-120.46685,34.63103],[-120.45698,34.63103],[-120.45422,34.62854],[-120.44994,34.62811],[-120.44944,34.62828],[-120.45154,34.63099],[-120.44501,34.6307],[-120.44563,34.6289],[-120.44464,34.62878],[-120.44123,34.6295],[-120.44122,34.63067],[-120.44027,34.63066],[-120.44025,34.63277],[-120.43536,34.63502],[-120.43379,34.63558],[-120.43229,34.63424],[-120.43326,34.64292],[-120.44007,34.657],[-120.44087,34.65701],[-120.44326,34.66064],[-120.44445,34.66063],[-120.44658,34.66599],[-120.44848,34.66534],[-120.4488,34.66384],[-120.45318,34.66395],[-120.45312,34.66923],[-120.45395,34.66923],[-120.45394,34.66992],[-120.45766,34.66995],[-120.45738,34.67311],[-120.45457,34.67251],[-120.45098,34.67457],[-120.45145,34.67729],[-120.45339,34.67752],[-120.45337,34.67962],[-120.45455,34.68016],[-120.44902,34.68869],[-120.50376,34.68904],[-120.50374,34.69178],[-120.51886,34.69193],[-120.51905,34.67954]]],[[[-120.44429,34.66673],[-120.44264,34.66712],[-120.44294,34.66787],[-120.44428,34.66788],[-120.44429,34.66673]]],[[[-120.46581,34.61635],[-120.46503,34.6161],[-120.46472,34.61676],[-120.46542,34.61718],[-120.46581,34.61635]]],[[[-120.49659,34.58708],[-120.49713,34.58691],[-120.49443,34.5853],[-120.49438,34.58683],[-120.49327,34.58804],[-120.49635,34.58844],[-120.49659,34.58708]]]]},"properties":{"GEOID":"0642524","NAME":"Lompoc city","BASENAME":"Lompoc","STATE":"06","PLACE":"42524"}},{"type":"Feature","geometry":{"type":"MultiPolygon","coordinates":[[[[-120.50832,34.94853],[-120.4994,34.94836],[-120.4997,34.94591],[-120.48975,34.94583],[-120.49013,34.92083],[-120.4739,34.92087],[-120.47393,34.91948],[-120.4758,34.91849],[-120.47867,34.91853],[-120.48907,34.90982],[-120.49028,34.90724],[-120.49041,34.9008],[-120.48592,34.90032],[-120.48574,34.89932],[-120.48019,34.89798],[-120.47964,34.89522],[-120.47443,34.89545],[-120.47468,34.88828],[-120.47027,34.88808],[-120.47027,34.88558],[-120.46501,34.88558],[-120.46482,34.87978],[-120.45406,34.87957],[-120.45345,34.8789],[-120.45341,34.8795],[-120.43878,34.87923],[-120.43654,34.87577],[-120.4363,34.89717],[-120.43914,34.89717],[-120.43936,34.8947],[-120.44517,34.89916],[-120.4423,34.90217],[-120.44409,34.90396],[-120.4453,34.90414],[-120.44531,34.90545],[-120.43622,34.90538],[-120.43585,34.90659],[-120.43196,34.9066],[-120.42771,34.90168],[-120.42351,34.90164],[-120.42351,34.89887],[-120.42533,34.89889],[-120.41846,34.89165],[-120.41834,34.89618],[-120.42119,34.89619],[-120.42069,34.89767],[-120.4216,34.90173],[-120.41754,34.90177],[-120.41764,34.92191],[-120.41701,34.92358],[-120.41755,34.93697],[-120.41615,34.93831],[-120.41624,34.93981],[-120.41743,34.94095],[-120.41741,34.94572],[-120.40909,34.9456],[-120.40909,34.95283],[-120.39646,34.95273],[-120.39651,34.95602],[-120.40008,34.95623],[-120.39993,34.96444],[-120.38269,34.95446],[-120.38345,34.95258],[-120.38153,34.94916],[-120.37047,34.94411],[-120.36548,34.93954],[-120.36107,34.93954],[-120.35534,34.94127],[-120.36124,34.94647],[-120.39105,34.9633],[-120.42585,34.98108],[-120.43596,34.98706],[-120.4447,34.98886],[-120.45281,34.98921],[-120.45285,34.98145],[-120.45348,34.98147],[-120.45356,34.98003],[-120.45525,34.97998],[-120.45531,34.97883],[-120.45323,34.97879],[-120.45357,34.9566],[-120.4578,34.95663],[-120.45808,34.95518],[-120.46006,34.95441],[-120.45979,34.95278],[-120.45791,34.95275],[-120.45683,34.95188],[-120.46018,34.95196],[-120.46063,34.94084],[-120.46169,34.93873],[-120.47392,34.93834],[-120.47363,34.94312],[-120.47473,34.94266],[-120.47479,34.93942],[-120.4819,34.9394],[-120.48188,34.94539],[-120.48097,34.9454],[-120.48092,34.94626],[-120.48971,34.94701],[-120.48968,34.94981],[-120.49369,34.95003],[-120.49807,34.95276],[-120.50116,34.95238],[-120.50117,34.95324],[-120.50481,34.95325],[-120.50832,34.94853]]],[[[-120.40923,34.91243],[-120.39767,34.91218],[-120.39767,34.9115],[-120.39984,34.9115],[-120.39982,34.90998],[-120.39747,34.90998],[-120.39747,34.91236],[-120.40899,34.91238],[-120.409,34.91643],[-120.40923,34.91243]]]]},"properties":{"GEOID":"0669196","NAME":"Santa Maria city","BASENAME":"Santa Maria","STATE":"06","PLACE":"69196"}},{"type":"Feature","geometry":{"type":"Polygon","coordinates":[[[-119.85978,34.425],[-119.85979,34.42431],[-119.85139,34.42427],[-119.85244,34.42204],[-119.84934,34.41987],[-119.83861,34.41589],[-119.8386,34.41447],[-119.83675,34.41509],[-119.83604,34.39441],[-119.74562,34.39579],[-119.75801,34.35942],[-119.74412,34.35377],[-119.72612,34.35208],[-119.69673,34.3527],[-119.67765,34.35969],[-119.66526,34.36762],[-119.65886,34.37312],[-119.65914,34.42013],[-119.65311,34.42188],[-119.64432,34.41965],[-119.64146,34.41964],[-119.63995,34.42071],[-119.63992,34.42156],[-119.63995,34.42209],[-119.64241,34.42152],[-119.65077,34.42233],[-119.65086,34.42376],[-119.64866,34.42685],[-119.65304,34.42727],[-119.65296,34.43597],[-119.67102,34.43586],[-119.67103,34.43921],[-119.67316,34.43921],[-119.67315,34.43586],[-119.67531,34.43588],[-119.67541,34.44079],[-119.67324,34.4424],[-119.67309,34.44389],[-119.6704,34.44395],[-119.6687,34.44314],[-119.66762,34.44381],[-119.66366,34.45024],[-119.66735,34.45025],[-119.66846,34.44662],[-119.67211,34.44665],[-119.67211,34.45027],[-119.67008,34.45026],[-119.66983,34.45387],[-119.67523,34.45384],[-119.6753,34.45751],[-119.68277,34.45754],[-119.68219,34.4582],[-119.68312,34.4585],[-119.68477,34.45819],[-119.68462,34.45754],[-119.69217,34.45752],[-119.69199,34.45914],[-119.69311,34.46023],[-119.69225,34.4609],[-119.69404,34.46155],[-119.69691,34.45911],[-119.69688,34.45754],[-119.70189,34.45749],[-119.70183,34.45816],[-119.70315,34.45811],[-119.70407,34.45747],[-119.70399,34.45386],[-119.70128,34.45387],[-119.70134,34.45022],[-119.7041,34.45017],[-119.70407,34.44588],[-119.70848,34.4467],[-119.70909,34.44354],[-119.71211,34.44042],[-119.71391,34.44082],[-119.7132,34.44114],[-119.71345,34.44228],[-119.71533,34.44154],[-119.7172,34.44193],[-119.7172,34.4412],[-119.7188,34.44149],[-119.71835,34.44017],[-119.719,34.43991],[-119.72021,34.44292],[-119.7199,34.44515],[-119.72334,34.44628],[-119.72332,34.45025],[-119.71894,34.45023],[-119.71891,34.45583],[-119.72336,34.45584],[-119.72324,34.45395],[-119.72771,34.45403],[-119.72775,34.45265],[-119.72933,34.45273],[-119.72853,34.45444],[-119.72918,34.45555],[-119.72761,34.4557],[-119.72763,34.45751],[-119.72322,34.45744],[-119.7232,34.46126],[-119.7378,34.46116],[-119.73807,34.46263],[-119.74051,34.46383],[-119.73948,34.46248],[-119.74116,34.46278],[-119.74239,34.4601],[-119.74278,34.45514],[-119.74378,34.45383],[-119.74548,34.4547],[-119.74404,34.45253],[-119.74657,34.45294],[-119.74661,34.45012],[-119.75101,34.45038],[-119.75103,34.44852],[-119.74918,34.44858],[-119.74929,34.44716],[-119.7518,34.44746],[-119.75103,34.44813],[-119.75357,34.44813],[-119.7536,34.45148],[-119.75555,34.45148],[-119.75555,34.45243],[-119.76148,34.45136],[-119.76001,34.44913],[-119.75825,34.44963],[-119.75807,34.44904],[-119.75982,34.44876],[-119.7597,34.44811],[-119.76244,34.44804],[-119.76449,34.44123],[-119.75947,34.44166],[-119.75977,34.44049],[-119.75501,34.43952],[-119.75243,34.43624],[-119.74947,34.43406],[-119.75061,34.42946],[-119.75136,34.42915],[-119.75035,34.42645],[-119.75324,34.4273],[-119.7559,34.42696],[-119.75576,34.40546],[-119.7522,34.40408],[-119.74333,34.40249],[-119.74534,34.39661],[-119.8351,34.3953],[-119.83609,34.41534],[-119.83669,34.41608],[-119.83523,34.41727],[-119.83521,34.42537],[-119.82875,34.42649],[-119.82902,34.42933],[-119.83078,34.42932],[-119.83068,34.43529],[-119.83162,34.43584],[-119.8308,34.43622],[-119.83166,34.43881],[-119.84059,34.43759],[-119.84028,34.43629],[-119.84196,34.43604],[-119.84126,34.43296],[-119.84929,34.43126],[-119.85959,34.43056],[-119.85978,34.425]],[[-119.75071,34.41583],[-119.75115,34.41628],[-119.74907,34.41774],[-119.74639,34.41743],[-119.74337,34.41563],[-119.74308,34.41467],[-119.74165,34.41405],[-119.74362,34.41297],[-119.74238,34.41212],[-119.74233,34.41001],[-119.74681,34.4104],[-119.74695,34.41266],[-119.75071,34.41583]],[[-119.75106,34.44419],[-119.75104,34.44599],[-119.74664,34.44586],[-119.74665,34.44494],[-119.75106,34.44419]],[[-119.75104,34.44659],[-119.75098,34.44696],[-119.75052,34.44693],[-119.75104,34.44659]],[[-119.75013,34.41098],[-119.7486,34.41132],[-119.74852,34.41214],[-119.74736,34.41001],[-119.75013,34.41098]],[[-119.74697,34.40937],[-119.74612,34.40971],[-119.74501,34.40823],[-119.74161,34.40678],[-119.74223,34.40596],[-119.74533,34.40697],[-119.7466,34.40815],[-119.74582,34.40885],[-119.74697,34.40937]],[[-119.74642,34.4195],[-119.74506,34.42071],[-119.74495,34.42216],[-119.74292,34.42391],[-119.74377,34.42544],[-119.74283,34.42688],[-119.74382,34.42688],[-119.74189,34.42914],[-119.73586,34.42613],[-119.73811,34.42318],[-119.74042,34.42183],[-119.74225,34.41946],[-119.74191,34.41848],[-119.74288,34.41824],[-119.74122,34.41809],[-119.74012,34.41463],[-119.74053,34.41361],[-119.74267,34.41732],[-119.74642,34.4195]],[[-119.74552,34.44878],[-119.74537,34.44919],[-119.74431,34.44916],[-119.74552,34.44878]],[[-119.74372,34.43114],[-119.74291,34.43436],[-119.74187,34.43468],[-119.74164,34.43295],[-119.7407,34.4325],[-119.74173,34.43046],[-119.74081,34.42965],[-119.74372,34.43114]],[[-119.73889,34.42896],[-119.73889,34.43138],[-119.73365,34.43142],[-119.7337,34.4286],[-119.73889,34.42896]],[[-119.73676,34.42743],[-119.73732,34.42775],[-119.73372,34.42687],[-119.73435,34.42619],[-119.73676,34.42743]],[[-119.73233,34.4494],[-119.73234,34.45024],[-119.73019,34.45022],[-119.73057,34.44882],[-119.73233,34.4494]]]},"properties":{"GEOID":"0669070","NAME":"Santa Barbara city","BASENAME":"Santa Barbara","STATE":"06","PLACE":"69070"}}]}