{"type":"FeatureCollection","features":[{"type":"Feature","geometry":{"type":"Polygon","coordinates":[[[-122.00517,37.24045],[-122.00451,37.23778],[-122.00205,37.23468],[-122.00013,37.23612],[-121.99914,37.23535],[-122.00273,37.23356],[-122.00428,37.23182],[-121.99918,37.22778],[-121.99908,37.22655],[-121.99253,37.22936],[-121.98952,37.22953],[-121.98813,37.231],[-121.986,37.22973],[-121.98186,37.23445],[-121.98381,37.23548],[-121.98452,37.23471],[-121.9862,37.23575],[-121.98386,37.23692],[-121.98467,37.23753],[-121.9842,37.23806],[-121.98614,37.23845],[-121.98571,37.24006],[-121.98335,37.24006],[-121.98306,37.24116],[-121.98213,37.241],[-121.98196,37.23931],[-121.9838,37.23848],[-121.9796,37.23712],[-121.9787,37.23838],[-121.97701,37.23844],[-121.97662,37.24118],[-121.97401,37.24079],[-121.9723,37.24233],[-121.97545,37.24342],[-121.97346,37.24606],[-121.97526,37.24656],[-121.97488,37.24726],[-121.97258,37.24683],[-121.96918,37.25084],[-121.97391,37.25145],[-121.97496,37.24978],[-121.97431,37.24912],[-121.97672,37.24933],[-121.97726,37.25114],[-121.97958,37.25243],[-121.97933,37.24955],[-121.99514,37.25092],[-121.99579,37.24775],[-121.99521,37.24672],[-121.9961,37.24629],[-121.99696,37.24408],[-121.99832,37.24272],[-122.00245,37.24151],[-122.0023,37.24003],[-122.00086,37.23994],[-122.0009,37.24119],[-121.99701,37.23994],[-121.99838,37.24243],[-121.99707,37.24184],[-121.99542,37.24332],[-121.99174,37.24241],[-121.99272,37.24032],[-121.99518,37.23861],[-121.99453,37.23808],[-121.99554,37.23653],[-121.997,37.23597],[-121.99931,37.23704],[-122.00095,37.2358],[-121.99995,37.23732],[-122.00228,37.23701],[-122.00408,37.24057],[-122.00517,37.24045]]]},"properties":{"GEOID":"0648956","NAME":"Monte Sereno city","BASENAME":"Monte Sereno","STATE":"06","PLACE":"48956"}},{"type":"Feature","geometry":{"type":"Polygon","coordinates":[[[-121.99208,37.26332],[-121.98148,37.26515],[-121.97356,37.26517],[-121.97199,37.26388],[-121.96263,37.26411],[-121.96282,37.26337],[-121.96086,37.26301],[-121.96196,37.26158],[-121.95623,37.2608],[-121.95382,37.25826],[-121.95534,37.25626],[-121.9515,37.25441],[-121.94401,37.26289],[-121.94492,37.26287],[-121.94493,37.26359],[-121.944,37.2636],[-121.94196,37.26603],[-121.94292,37.2669],[-121.94091,37.2679],[-121.94063,37.27245],[-121.94135,37.27261],[-121.93789,37.27323],[-121.93794,37.27451],[-121.93431,37.27409],[-121.93383,37.27467],[-121.93426,37.27569],[-121.93373,37.27583],[-121.93581,37.27987],[-121.93391,37.27989],[-121.93446,37.28015],[-121.93417,37.28239],[-121.93168,37.2824],[-121.93082,37.28141],[-121.92705,37.28203],[-121.92354,37.28142],[-121.92246,37.28263],[-121.9226,37.28986],[-121.91805,37.28988],[-121.91807,37.2944],[-121.93169,37.2944],[-121.93167,37.29803],[-121.93598,37.29422],[-121.93743,37.29424],[-121.9404,37.29886],[-121.94049,37.29974],[-121.9381,37.29975],[-121.93811,37.30242],[-121.93984,37.30243],[-121.93985,37.30521],[-121.94075,37.30513],[-121.94074,37.30332],[-121.94316,37.30331],[-121.94396,37.30699],[-121.94549,37.30699],[-121.94463,37.29499],[-121.94761,37.29494],[-121.94763,37.29575],[-121.95902,37.29553],[-121.95902,37.29786],[-121.9626,37.29788],[-121.96242,37.29619],[-121.96129,37.29553],[-121.97086,37.29537],[-121.97072,37.2908],[-121.9766,37.29078],[-121.9766,37.28983],[-121.98027,37.29252],[-121.98164,37.29132],[-121.97982,37.28998],[-121.98412,37.28624],[-121.98311,37.28605],[-121.98294,37.28345],[-121.97663,37.2836],[-121.97662,37.28436],[-121.97403,37.28448],[-121.97416,37.28609],[-121.96583,37.2867],[-121.96647,37.28194],[-121.96477,37.28194],[-121.96473,37.27884],[-121.96893,37.27725],[-121.97666,37.2772],[-121.97728,37.27914],[-121.97979,37.279],[-121.97968,37.2765],[-121.98303,37.27641],[-121.98292,37.27343],[-121.98212,37.27369],[-121.98123,37.27119],[-121.98333,37.26988],[-121.98178,37.26702],[-121.98496,37.26651],[-121.99065,37.26911],[-121.99065,37.26663],[-121.99208,37.26332]]]},"properties":{"GEOID":"0610345","NAME":"Campbell city","BASENAME":"Campbell","STATE":"06","PLACE":"10345"}},{"type":"Feature","geometry":{"type":"Polygon","coordinates":[[[-122.12963,37.39529],[-122.12757,37.3945],[-122.12833,37.39194],[-122.12733,37.39164],[-122.12697,37.38967],[-122.12622,37.38941],[-122.12659,37.38802],[-122.12411,37.38489],[-122.12556,37.38346],[-122.12547,37.382],[-122.12323,37.38138],[-122.124,37.38046],[-122.12319,37.37972],[-122.12003,37.37858],[-122.12038,37.37731],[-122.11958,37.37705],[-122.11954,37.37576],[-122.12011,37.37466],[-122.11945,37.37434],[-122.12062,37.37353],[-122.11949,37.37215],[-122.12347,37.36901],[-122.12216,37.36918],[-122.12085,37.36616],[-122.11864,37.36632],[-122.11633,37.36475],[-122.11552,37.36564],[-122.11144,37.36392],[-122.11071,37.36445],[-122.10866,37.36382],[-122.10589,37.36633],[-122.10468,37.36584],[-122.09908,37.36151],[-122.1014,37.35996],[-122.09965,37.35837],[-122.09702,37.35994],[-122.08554,37.35107],[-122.08564,37.34854],[-122.09019,37.34482],[-122.09162,37.34159],[-122.08246,37.33639],[-122.08239,37.33726],[-122.07884,37.33517],[-122.07936,37.33464],[-122.07628,37.33366],[-122.07473,37.33209],[-122.06971,37.32972],[-122.06818,37.33545],[-122.06381,37.33411],[-122.06475,37.33483],[-122.06481,37.33646],[-122.06756,37.33747],[-122.06206,37.33808],[-122.06519,37.34315],[-122.06361,37.34688],[-122.06497,37.34778],[-122.0647,37.34895],[-122.06289,37.35193],[-122.06346,37.35292],[-122.06175,37.35444],[-122.06301,37.35955],[-122.06571,37.35951],[-122.06575,37.35676],[-122.06866,37.35676],[-122.06868,37.35792],[-122.0705,37.3579],[-122.07052,37.35904],[-122.07781,37.35902],[-122.07785,37.36617],[-122.08239,37.36683],[-122.08916,37.36594],[-122.08916,37.36685],[-122.09603,37.3669],[-122.09597,37.3768],[-122.0932,37.37677],[-122.09319,37.37864],[-122.09319,37.37965],[-122.09599,37.37966],[-122.09598,37.38139],[-122.08887,37.38134],[-122.09011,37.38262],[-122.08952,37.38458],[-122.09044,37.38405],[-122.09076,37.38464],[-122.09598,37.38468],[-122.096,37.38864],[-122.10583,37.38862],[-122.10101,37.39544],[-122.11484,37.40203],[-122.11994,37.40643],[-122.12331,37.40333],[-122.12541,37.3985],[-122.12849,37.39645],[-122.1281,37.39577],[-122.12949,37.39615],[-122.12963,37.39529]],[[-122.08904,37.36261],[-122.08906,37.3633],[-122.08698,37.36327],[-122.08698,37.36267],[-122.08904,37.36261]]]},"properties":{"GEOID":"0643280","NAME":"Los Altos city","BASENAME":"Los Altos","STATE":"06","PLACE":"43280"}},{"type":"Feature","geometry":{"type":"Polygon","coordinates":[[[-122.17144,37.38144],[-122.17186,37.37975],[-122.16992,37.37925],[-122.16782,37.3775],[-122.17134,37.36699],[-122.16877,37.36699],[-122.167,37.36589],[-122.16891,37.363],[-122.17177,37.3626],[-122.1701,37.36213],[-122.17009,37.36075],[-122.16567,37.3592],[-122.16452,37.35802],[-122.16632,37.35798],[-122.15987,37.35417],[-122.15424,37.35444],[-122.15081,37.35243],[-122.15069,37.34601],[-122.14153,37.34608],[-122.14163,37.34891],[-122.13722,37.34896],[-122.13585,37.34624],[-122.13444,37.34899],[-122.12885,37.3489],[-122.12781,37.3468],[-122.12607,37.34749],[-122.12411,37.34686],[-122.12572,37.34263],[-122.11401,37.34013],[-122.11398,37.33755],[-122.10934,37.33781],[-122.10633,37.33661],[-122.10709,37.33858],[-122.09993,37.33783],[-122.09928,37.33867],[-122.09991,37.33884],[-122.09964,37.33969],[-122.09852,37.34015],[-122.09624,37.33997],[-122.09665,37.33905],[-122.09556,37.33865],[-122.09494,37.33901],[-122.09558,37.33937],[-122.09459,37.34007],[-122.09683,37.34202],[-122.09814,37.34108],[-122.09982,37.34105],[-122.1007,37.34184],[-122.0983,37.3446],[-122.0998,37.34514],[-122.10018,37.34645],[-122.10099,37.34683],[-122.10259,37.34547],[-122.10928,37.35082],[-122.11018,37.34967],[-122.11072,37.35004],[-122.10954,37.35163],[-122.10243,37.35609],[-122.10769,37.36047],[-122.11144,37.36253],[-122.11335,37.36477],[-122.11552,37.36564],[-122.11633,37.36475],[-122.1185,37.36629],[-122.12085,37.36616],[-122.12216,37.36918],[-122.12347,37.36901],[-122.11949,37.37215],[-122.12062,37.37353],[-122.1195,37.37411],[-122.12011,37.37466],[-122.11958,37.37705],[-122.12038,37.37731],[-122.12007,37.37861],[-122.124,37.38046],[-122.12323,37.38138],[-122.12535,37.3818],[-122.12556,37.38346],[-122.12411,37.38489],[-122.13033,37.39369],[-122.13307,37.39372],[-122.13215,37.39094],[-122.13519,37.39106],[-122.13524,37.39213],[-122.13627,37.39194],[-122.13635,37.38959],[-122.13508,37.38953],[-122.13507,37.38855],[-122.13825,37.38918],[-122.13883,37.39109],[-122.14017,37.39106],[-122.14083,37.39484],[-122.14153,37.39539],[-122.14995,37.39205],[-122.15164,37.38819],[-122.15358,37.38726],[-122.15509,37.38698],[-122.15962,37.38832],[-122.16382,37.38817],[-122.16239,37.39424],[-122.16725,37.39924],[-122.17144,37.38144]],[[-122.10503,37.33869],[-122.10497,37.3394],[-122.10297,37.33946],[-122.10416,37.33823],[-122.10503,37.33869]],[[-122.1036,37.33981],[-122.10316,37.34006],[-122.10257,37.3399],[-122.1036,37.33981]],[[-122.09763,37.34055],[-122.09686,37.34079],[-122.09636,37.34019],[-122.09763,37.34055]]]},"properties":{"GEOID":"0643294","NAME":"Los Altos Hills town","BASENAME":"Los Altos Hills","STATE":"06","PLACE":"43294"}},{"type":"Feature","geometry":{"type":"Polygon","coordinates":[[[-122.09231,37.30082],[-122.06841,37.30032],[-122.06845,37.29657],[-122.06766,37.29498],[-122.06686,37.29497],[-122.06687,37.2937],[-122.06847,37.29373],[-122.06855,37.27916],[-122.06391,37.27914],[-122.064,37.28112],[-122.05952,37.27911],[-122.05953,37.28274],[-122.064,37.28272],[-122.06408,37.29009],[-122.05957,37.2901],[-122.05956,37.29618],[-122.05838,37.29634],[-122.05801,37.29736],[-122.05034,37.29741],[-122.04949,37.29297],[-122.04743,37.29375],[-122.03226,37.29396],[-122.03224,37.30206],[-122.03307,37.30187],[-122.03514,37.30379],[-122.03431,37.3038],[-122.03431,37.30493],[-122.03336,37.30493],[-122.03302,37.30615],[-122.03309,37.30938],[-122.03432,37.31007],[-122.03432,37.31232],[-122.03157,37.3123],[-122.02171,37.3095],[-122.0077,37.31077],[-121.99619,37.30967],[-121.99584,37.32041],[-121.99986,37.32107],[-122.0028,37.32004],[-122.00337,37.32308],[-122.00471,37.32309],[-122.00466,37.33407],[-122.00242,37.33408],[-122.00239,37.3378],[-122.01643,37.33773],[-122.01645,37.33295],[-122.01999,37.33292],[-122.01962,37.3377],[-122.02214,37.33708],[-122.02215,37.33769],[-122.03044,37.33763],[-122.03043,37.33825],[-122.03239,37.33822],[-122.03239,37.33945],[-122.03676,37.33943],[-122.03673,37.33757],[-122.04371,37.33755],[-122.04369,37.33393],[-122.04483,37.33394],[-122.04487,37.33754],[-122.05053,37.33754],[-122.05101,37.33277],[-122.05275,37.33186],[-122.05275,37.33023],[-122.05736,37.33161],[-122.05728,37.33441],[-122.05855,37.33609],[-122.0581,37.33785],[-122.05961,37.33833],[-122.05958,37.33753],[-122.06756,37.33747],[-122.06481,37.33646],[-122.06475,37.33483],[-122.06381,37.33411],[-122.06803,37.33545],[-122.06857,37.33349],[-122.06384,37.33324],[-122.06394,37.3323],[-122.06339,37.33267],[-122.06118,37.33145],[-122.06169,37.3307],[-122.06096,37.33117],[-122.06151,37.33044],[-122.06081,37.33073],[-122.05965,37.32935],[-122.06029,37.32854],[-122.06227,37.32869],[-122.06226,37.32985],[-122.06361,37.33043],[-122.06888,37.3314],[-122.06804,37.33313],[-122.06882,37.3331],[-122.06971,37.32972],[-122.07523,37.33276],[-122.0797,37.33409],[-122.0793,37.3334],[-122.08076,37.33191],[-122.08197,37.33199],[-122.08314,37.3331],[-122.08392,37.33571],[-122.08317,37.33689],[-122.08966,37.34063],[-122.09095,37.33662],[-122.08731,37.33296],[-122.0874,37.33369],[-122.08464,37.33407],[-122.08398,37.3314],[-122.08283,37.33112],[-122.08942,37.32671],[-122.08256,37.32371],[-122.07813,37.32317],[-122.0815,37.32053],[-122.07758,37.31718],[-122.07758,37.31533],[-122.08759,37.31536],[-122.08736,37.30866],[-122.07759,37.30865],[-122.07758,37.30807],[-122.09199,37.3081],[-122.09231,37.30082]]]},"properties":{"GEOID":"0617610","NAME":"Cupertino city","BASENAME":"Cupertino","STATE":"06","PLACE":"17610"}},{"type":"Feature","geometry":{"type":"Polygon","coordinates":[[[-121.99708,37.22633],[-121.99149,37.22152],[-121.9933,37.21996],[-121.99231,37.2197],[-121.99053,37.22073],[-121.99026,37.21409],[-121.98737,37.21412],[-121.98741,37.21267],[-121.98939,37.21086],[-121.98933,37.20784],[-121.98843,37.20656],[-121.98859,37.20533],[-121.9858,37.20533],[-121.98588,37.20141],[-121.97627,37.20183],[-121.97632,37.20336],[-121.97195,37.2036],[-121.97188,37.20526],[-121.97336,37.20523],[-121.97341,37.2068],[-121.97084,37.20721],[-121.97076,37.20856],[-121.97185,37.20973],[-121.97189,37.2142],[-121.97051,37.21421],[-121.97005,37.21201],[-121.96775,37.21167],[-121.96735,37.21423],[-121.96392,37.21351],[-121.96239,37.21411],[-121.9615,37.21196],[-121.96002,37.21253],[-121.95966,37.2106],[-121.95852,37.21057],[-121.95953,37.20945],[-121.95873,37.20918],[-121.9589,37.20713],[-121.95657,37.2071],[-121.9563,37.21209],[-121.95554,37.2121],[-121.95552,37.21101],[-121.95481,37.21115],[-121.95479,37.21222],[-121.95395,37.21219],[-121.95366,37.21113],[-121.94943,37.21136],[-121.94947,37.21054],[-121.95444,37.21028],[-121.95494,37.20706],[-121.94731,37.20683],[-121.94762,37.19929],[-121.93097,37.19926],[-121.93089,37.21319],[-121.92575,37.21334],[-121.92362,37.21473],[-121.92175,37.21476],[-121.921,37.21341],[-121.92185,37.21342],[-121.92183,37.21192],[-121.91281,37.21105],[-121.91254,37.21367],[-121.91331,37.2161],[-121.91266,37.21707],[-121.90894,37.21817],[-121.9092,37.22018],[-121.90667,37.22219],[-121.90554,37.22438],[-121.90679,37.22645],[-121.91052,37.22503],[-121.91286,37.22532],[-121.91287,37.22669],[-121.90973,37.22756],[-121.90976,37.23059],[-121.9112,37.23055],[-121.91122,37.23631],[-121.92511,37.23615],[-121.92511,37.2401],[-121.92333,37.23983],[-121.92265,37.24349],[-121.92516,37.24347],[-121.92512,37.24115],[-121.92606,37.24108],[-121.92754,37.24114],[-121.92762,37.24345],[-121.93055,37.24342],[-121.93054,37.24241],[-121.93119,37.2424],[-121.93124,37.24342],[-121.93381,37.24342],[-121.93456,37.23615],[-121.94026,37.23612],[-121.94033,37.2434],[-121.94623,37.24359],[-121.94814,37.24788],[-121.94898,37.2477],[-121.94872,37.24672],[-121.95003,37.2465],[-121.95224,37.25317],[-121.9515,37.25441],[-121.95534,37.25626],[-121.95382,37.25826],[-121.95623,37.2608],[-121.96196,37.26158],[-121.96086,37.26301],[-121.96282,37.26337],[-121.96263,37.26411],[-121.97199,37.26388],[-121.9738,37.26519],[-121.98148,37.26515],[-121.99194,37.26289],[-121.99188,37.25927],[-121.99349,37.25664],[-121.99312,37.25334],[-121.99545,37.25085],[-121.97933,37.24955],[-121.97998,37.25432],[-121.97809,37.25387],[-121.97672,37.24933],[-121.97431,37.24912],[-121.97496,37.24978],[-121.97391,37.25145],[-121.96918,37.25084],[-121.97258,37.24683],[-121.97488,37.24726],[-121.97526,37.24656],[-121.97346,37.24606],[-121.97545,37.24342],[-121.9723,37.24233],[-121.97401,37.24079],[-121.97662,37.24118],[-121.97701,37.23844],[-121.9787,37.23838],[-121.9796,37.23712],[-121.9838,37.23848],[-121.98196,37.23931],[-121.98213,37.241],[-121.98306,37.24116],[-121.98335,37.24006],[-121.98571,37.24006],[-121.98614,37.23845],[-121.9842,37.23806],[-121.98467,37.23753],[-121.98386,37.23692],[-121.9862,37.23575],[-121.98452,37.23471],[-121.98381,37.23548],[-121.98186,37.23445],[-121.98411,37.23114],[-121.986,37.22973],[-121.98813,37.231],[-121.98952,37.22953],[-121.99024,37.22993],[-121.99097,37.22912],[-121.99253,37.22936],[-121.99639,37.22792],[-121.99708,37.22633]],[[-121.95127,37.23584],[-121.95113,37.23601],[-121.95085,37.23603],[-121.95127,37.23584]],[[-121.95527,37.24221],[-121.95429,37.24241],[-121.95406,37.24169],[-121.95491,37.2415],[-121.95527,37.24221]],[[-121.95027,37.23629],[-121.94812,37.23638],[-121.94903,37.23548],[-121.95027,37.23629]],[[-121.95408,37.21434],[-121.95229,37.21431],[-121.95231,37.21226],[-121.95016,37.21198],[-121.95308,37.21154],[-121.95408,37.21434]],[[-121.95999,37.21421],[-121.9562,37.21424],[-121.95625,37.21319],[-121.95899,37.21211],[-121.95999,37.21421]],[[-121.96186,37.23785],[-121.96039,37.23985],[-121.95883,37.24014],[-121.95921,37.2411],[-121.95716,37.24175],[-121.95669,37.24027],[-121.95684,37.24183],[-121.95544,37.24217],[-121.955,37.24123],[-121.95374,37.24161],[-121.95402,37.24246],[-121.94932,37.24332],[-121.94801,37.24328],[-121.94852,37.24288],[-121.94793,37.243],[-121.94706,37.23975],[-121.94822,37.23935],[-121.94688,37.23908],[-121.94841,37.23844],[-121.94817,37.23756],[-121.94885,37.23838],[-121.95011,37.23769],[-121.94982,37.23666],[-121.94902,37.2367],[-121.95015,37.23646],[-121.95068,37.23748],[-121.95163,37.23618],[-121.95499,37.23618],[-121.95548,37.23791],[-121.95635,37.23712],[-121.9554,37.2369],[-121.95686,37.23624],[-121.95793,37.23632],[-121.95789,37.2373],[-121.96186,37.23785]],[[-121.98708,37.20659],[-121.98606,37.20794],[-121.98574,37.21403],[-121.97635,37.21418],[-121.97632,37.20955],[-121.97835,37.20828],[-121.97971,37.2085],[-121.98066,37.20733],[-121.98064,37.20585],[-121.98302,37.2069],[-121.9857,37.20582],[-121.98648,37.2065],[-121.9869,37.20592],[-121.98708,37.20659]],[[-121.93779,37.22142],[-121.93501,37.22156],[-121.93504,37.22265],[-121.93655,37.22263],[-121.93765,37.22442],[-121.93663,37.22549],[-121.93522,37.22521],[-121.93419,37.22606],[-121.9328,37.22886],[-121.92914,37.22888],[-121.92911,37.22702],[-121.92758,37.22703],[-121.92752,37.22565],[-121.92645,37.22602],[-121.92591,37.22532],[-121.92705,37.22466],[-121.9315,37.2267],[-121.93107,37.22521],[-121.92583,37.22258],[-121.92419,37.22092],[-121.92397,37.22005],[-121.92544,37.21967],[-121.92543,37.21906],[-121.92344,37.21978],[-121.92188,37.21931],[-121.92193,37.22166],[-121.91994,37.22167],[-121.92095,37.21916],[-121.91581,37.21798],[-121.91621,37.21734],[-121.92182,37.21803],[-121.92241,37.21584],[-121.92738,37.21438],[-121.93412,37.21428],[-121.93384,37.2184],[-121.92981,37.21925],[-121.93206,37.22025],[-121.93208,37.21895],[-121.93298,37.21962],[-121.93557,37.2194],[-121.93555,37.22076],[-121.93779,37.22142]]]},"properties":{"GEOID":"0644112","NAME":"Los Gatos town","BASENAME":"Los Gatos","STATE":"06","PLACE":"44112"}},{"type":"Feature","geometry":{"type":"Polygon","coordinates":[[[-121.69805,37.12401],[-121.69732,37.12303],[-121.69,37.12037],[-121.68242,37.12005],[-121.67993,37.12077],[-121.67685,37.12305],[-121.68084,37.12465],[-121.6775,37.12714],[-121.67454,37.12809],[-121.67662,37.13015],[-121.67494,37.13158],[-121.67622,37.13281],[-121.67282,37.13514],[-121.66879,37.13133],[-121.67035,37.12918],[-121.67312,37.1208],[-121.67108,37.11884],[-121.67276,37.11832],[-121.67205,37.11701],[-121.66977,37.11713],[-121.66413,37.11456],[-121.66424,37.11644],[-121.66592,37.11599],[-121.66847,37.11721],[-121.66182,37.11708],[-121.65906,37.11806],[-121.6584,37.1168],[-121.65237,37.11868],[-121.65123,37.1167],[-121.65231,37.11631],[-121.64914,37.11071],[-121.64806,37.11131],[-121.64712,37.10929],[-121.65233,37.10526],[-121.65116,37.10456],[-121.65311,37.10262],[-121.65632,37.10494],[-121.65831,37.10395],[-121.65697,37.10171],[-121.65739,37.10139],[-121.65323,37.09733],[-121.65149,37.09847],[-121.65054,37.09753],[-121.6493,37.09837],[-121.64631,37.0942],[-121.64807,37.09195],[-121.64511,37.08982],[-121.64394,37.09108],[-121.63889,37.09131],[-121.63596,37.08893],[-121.63022,37.08906],[-121.62885,37.09057],[-121.62957,37.09201],[-121.62808,37.09269],[-121.61953,37.09526],[-121.61645,37.09527],[-121.61835,37.097],[-121.62078,37.09589],[-121.62429,37.09698],[-121.62956,37.09474],[-121.63298,37.09695],[-121.63438,37.09552],[-121.6417,37.10012],[-121.63778,37.10512],[-121.63384,37.10208],[-121.63065,37.10469],[-121.62321,37.10005],[-121.62104,37.10085],[-121.62716,37.10679],[-121.62906,37.10484],[-121.6306,37.10489],[-121.6278,37.10742],[-121.62861,37.1082],[-121.63258,37.10687],[-121.63125,37.10623],[-121.63176,37.10563],[-121.63517,37.10763],[-121.62976,37.10956],[-121.63039,37.11017],[-121.62897,37.11072],[-121.6303,37.11275],[-121.63228,37.11201],[-121.63411,37.11382],[-121.62538,37.11715],[-121.62917,37.11814],[-121.62288,37.12058],[-121.62555,37.12205],[-121.62395,37.12271],[-121.62508,37.12458],[-121.62351,37.12518],[-121.62726,37.13147],[-121.61416,37.13648],[-121.61053,37.13034],[-121.6031,37.13319],[-121.6025,37.13217],[-121.60096,37.13275],[-121.5937,37.12047],[-121.59541,37.12001],[-121.58928,37.10789],[-121.58389,37.10983],[-121.58462,37.11123],[-121.58325,37.11183],[-121.58878,37.12248],[-121.59305,37.12088],[-121.60029,37.13299],[-121.59833,37.13367],[-121.59755,37.13272],[-121.58999,37.1349],[-121.59007,37.13548],[-121.58665,37.13677],[-121.58739,37.13809],[-121.58672,37.13834],[-121.58564,37.138],[-121.58507,37.13862],[-121.58329,37.1375],[-121.58417,37.13908],[-121.58518,37.1527],[-121.59054,37.15117],[-121.59124,37.14933],[-121.59275,37.14953],[-121.59149,37.14899],[-121.59429,37.14426],[-121.59366,37.14754],[-121.59473,37.14783],[-121.59358,37.14817],[-121.59342,37.14988],[-121.59675,37.14832],[-121.59849,37.14899],[-121.60022,37.15129],[-121.60294,37.15279],[-121.60374,37.15395],[-121.60327,37.15451],[-121.60502,37.15411],[-121.6073,37.15674],[-121.61187,37.15816],[-121.61178,37.15919],[-121.6168,37.16243],[-121.61716,37.15794],[-121.60378,37.14991],[-121.61384,37.14203],[-121.61191,37.14045],[-121.61439,37.13888],[-121.62385,37.14665],[-121.63144,37.14067],[-121.62852,37.13811],[-121.63058,37.13733],[-121.62992,37.13623],[-121.63196,37.13544],[-121.63445,37.13832],[-121.63634,37.1368],[-121.64064,37.14129],[-121.63303,37.14727],[-121.63666,37.15029],[-121.63491,37.15237],[-121.6357,37.153],[-121.63993,37.14963],[-121.63577,37.14626],[-121.63683,37.14542],[-121.63617,37.14489],[-121.64162,37.14072],[-121.64325,37.14219],[-121.64425,37.14146],[-121.64233,37.1399],[-121.64296,37.13937],[-121.64338,37.13904],[-121.64577,37.14111],[-121.64694,37.14022],[-121.64936,37.14222],[-121.64046,37.14921],[-121.64237,37.15127],[-121.63733,37.15688],[-121.63294,37.15523],[-121.62914,37.15789],[-121.6301,37.16175],[-121.63351,37.16308],[-121.63322,37.16493],[-121.64146,37.16754],[-121.64104,37.16823],[-121.64219,37.16862],[-121.64258,37.16787],[-121.6489,37.16972],[-121.65422,37.16063],[-121.65465,37.15862],[-121.66523,37.15162],[-121.67077,37.15647],[-121.66684,37.15961],[-121.66913,37.16164],[-121.67445,37.15792],[-121.67225,37.15579],[-121.67388,37.15469],[-121.67607,37.15679],[-121.6774,37.15578],[-121.67839,37.15677],[-121.6811,37.15493],[-121.67914,37.15295],[-121.68145,37.15088],[-121.67857,37.15027],[-121.67053,37.1457],[-121.66898,37.14281],[-121.67038,37.14211],[-121.67251,37.14412],[-121.69312,37.13377],[-121.69313,37.1318],[-121.68652,37.12587],[-121.68712,37.12464],[-121.69066,37.12516],[-121.69702,37.12915],[-121.69805,37.12401]]]},"properties":{"GEOID":"0649278","NAME":"Morgan Hill city","BASENAME":"Morgan Hill","STATE":"06","PLACE":"49278"}},{"type":"Feature","geometry":{"type":"Polygon","coordinates":[[[-121.9311,37.41998],[-121.92979,37.41919],[-121.93013,37.41776],[-121.92811,37.41554],[-121.92603,37.41462],[-121.92561,37.41314],[-121.92297,37.41103],[-121.9238,37.406],[-121.91805,37.40373],[-121.91529,37.39892],[-121.9152,37.39611],[-121.90563,37.40432],[-121.89144,37.40337],[-121.88788,37.40695],[-121.88886,37.40758],[-121.88081,37.41152],[-121.88206,37.41315],[-121.88004,37.41384],[-121.88026,37.41452],[-121.87404,37.41637],[-121.86003,37.42249],[-121.85818,37.42148],[-121.83766,37.42591],[-121.83849,37.42695],[-121.85767,37.42274],[-121.86037,37.42402],[-121.86168,37.42328],[-121.86214,37.42375],[-121.84015,37.42902],[-121.84359,37.43374],[-121.84009,37.43544],[-121.83971,37.43825],[-121.84126,37.4395],[-121.84258,37.43938],[-121.84344,37.43835],[-121.8445,37.43974],[-121.84399,37.44155],[-121.85073,37.44304],[-121.84402,37.44697],[-121.84664,37.45066],[-121.84815,37.45033],[-121.84964,37.45225],[-121.85165,37.45235],[-121.85389,37.45683],[-121.85651,37.45625],[-121.859,37.45729],[-121.8664,37.4578],[-121.86675,37.45427],[-121.86367,37.45166],[-121.86666,37.45084],[-121.86646,37.44947],[-121.86389,37.44979],[-121.86184,37.44735],[-121.86306,37.44705],[-121.86232,37.44436],[-121.8641,37.44347],[-121.86573,37.44091],[-121.86768,37.43951],[-121.87274,37.43822],[-121.87536,37.44274],[-121.87392,37.44317],[-121.87438,37.44445],[-121.87614,37.4441],[-121.87668,37.44496],[-121.87627,37.44697],[-121.87774,37.44794],[-121.87724,37.44912],[-121.87835,37.45132],[-121.8782,37.45261],[-121.87289,37.45323],[-121.87065,37.45457],[-121.8753,37.45796],[-121.87227,37.45797],[-121.87213,37.4586],[-121.87752,37.46394],[-121.87979,37.46388],[-121.88769,37.46169],[-121.88503,37.45775],[-121.89274,37.45496],[-121.89604,37.45916],[-121.89711,37.45945],[-121.89661,37.46127],[-121.89768,37.4631],[-121.89689,37.46363],[-121.89831,37.46666],[-121.90131,37.46496],[-121.91133,37.46224],[-121.91089,37.46149],[-121.92504,37.45419],[-121.92501,37.45329],[-121.92823,37.45276],[-121.92723,37.45081],[-121.92513,37.45132],[-121.924,37.44993],[-121.9247,37.44739],[-121.92339,37.44665],[-121.92409,37.44432],[-121.92318,37.44284],[-121.92648,37.43941],[-121.92599,37.43564],[-121.92845,37.43054],[-121.92768,37.42759],[-121.92569,37.4256],[-121.92518,37.424],[-121.9311,37.41998]],[[-121.86826,37.43604],[-121.86842,37.43661],[-121.86541,37.43641],[-121.8663,37.43922],[-121.86797,37.43894],[-121.86247,37.44414],[-121.85718,37.4408],[-121.85198,37.44018],[-121.84888,37.44086],[-121.8468,37.438],[-121.8645,37.43355],[-121.86792,37.4351],[-121.86826,37.43604]],[[-121.86707,37.43442],[-121.86701,37.43472],[-121.86591,37.43432],[-121.86707,37.43442]]]},"properties":{"GEOID":"0647766","NAME":"Milpitas city","BASENAME":"Milpitas","STATE":"06","PLACE":"47766"}},{"type":"Feature","geometry":{"type":"Polygon","coordinates":[[[-122.06857,37.27196],[-122.06755,37.26219],[-122.05931,37.26102],[-122.05928,37.25194],[-122.05315,37.25011],[-122.05255,37.25135],[-122.0503,37.25204],[-122.0502,37.24623],[-122.04686,37.24885],[-122.04529,37.24906],[-122.04524,37.2473],[-122.04647,37.24539],[-122.04615,37.24426],[-122.04659,37.24375],[-122.04748,37.24441],[-122.04828,37.2436],[-122.02723,37.24289],[-122.02719,37.23994],[-122.02605,37.2398],[-122.02458,37.24122],[-122.02121,37.24236],[-122.02122,37.24302],[-122.0185,37.24208],[-122.01853,37.24298],[-122.01357,37.2438],[-122.01358,37.24249],[-122.00997,37.24071],[-122.01101,37.2397],[-122.01154,37.24094],[-122.01234,37.24044],[-122.01158,37.23879],[-122.01265,37.23847],[-122.00888,37.2373],[-122.00593,37.24025],[-121.99832,37.24272],[-121.99524,37.24664],[-121.99544,37.25092],[-121.99312,37.25334],[-121.99349,37.25664],[-121.99188,37.25927],[-121.99208,37.26332],[-121.99065,37.26663],[-121.99065,37.26911],[-121.99366,37.27049],[-121.99427,37.27608],[-121.9895,37.27623],[-121.9897,37.28064],[-121.99431,37.28054],[-121.99443,37.28748],[-121.99635,37.28782],[-121.99512,37.29006],[-121.99599,37.29129],[-121.99405,37.29107],[-121.99389,37.292],[-122.00343,37.29308],[-122.00179,37.29556],[-122.00348,37.29625],[-122.00741,37.29641],[-122.00785,37.29334],[-122.04743,37.29375],[-122.04949,37.29297],[-122.05123,37.29054],[-122.05464,37.2906],[-122.05421,37.28864],[-122.05494,37.28537],[-122.05645,37.28598],[-122.05822,37.28547],[-122.05817,37.27912],[-122.06206,37.27977],[-122.06448,37.27897],[-122.06384,37.27599],[-122.06436,37.27193],[-122.06857,37.27196]]]},"properties":{"GEOID":"0670280","NAME":"Saratoga city","BASENAME":"Saratoga","STATE":"06","PLACE":"70280"}},{"type":"Feature","geometry":{"type":"MultiPolygon","coordinates":[[[[-122.11762,37.40428],[-122.11212,37.40054],[-122.10101,37.39544],[-122.10583,37.38862],[-122.096,37.38864],[-122.09598,37.38468],[-122.09076,37.38464],[-122.09044,37.38405],[-122.08952,37.38458],[-122.09011,37.38262],[-122.08887,37.38134],[-122.09598,37.38139],[-122.09599,37.37966],[-122.09319,37.37965],[-122.09319,37.37864],[-122.0932,37.37677],[-122.09597,37.3768],[-122.09603,37.3669],[-122.08916,37.36685],[-122.08916,37.36594],[-122.08239,37.36683],[-122.07785,37.36617],[-122.07781,37.35902],[-122.07052,37.35904],[-122.0705,37.3579],[-122.06868,37.35792],[-122.06866,37.35676],[-122.06575,37.35676],[-122.06571,37.35951],[-122.06301,37.35955],[-122.06156,37.35407],[-122.06077,37.35464],[-122.06167,37.35572],[-122.06096,37.3574],[-122.06257,37.35892],[-122.0616,37.36252],[-122.06326,37.36672],[-122.05846,37.3746],[-122.06033,37.37535],[-122.05693,37.38545],[-122.05273,37.38456],[-122.05218,37.38615],[-122.04735,37.38657],[-122.04746,37.3891],[-122.04676,37.38905],[-122.04498,37.39445],[-122.04665,37.39496],[-122.04498,37.39982],[-122.04641,37.40009],[-122.04601,37.40121],[-122.0474,37.40155],[-122.04687,37.40301],[-122.04999,37.4037],[-122.05061,37.40546],[-122.05159,37.4047],[-122.05136,37.40401],[-122.0646,37.40715],[-122.06372,37.41021],[-122.06863,37.41006],[-122.06857,37.41681],[-122.06398,37.41659],[-122.06406,37.41906],[-122.06051,37.41903],[-122.05855,37.42471],[-122.05977,37.42484],[-122.05967,37.4268],[-122.06606,37.42788],[-122.06546,37.42902],[-122.06832,37.42993],[-122.06793,37.43448],[-122.07423,37.43601],[-122.0852,37.43497],[-122.0887,37.43591],[-122.09761,37.43587],[-122.09096,37.43939],[-122.08872,37.44308],[-122.08762,37.44732],[-122.08848,37.44796],[-122.08507,37.45054],[-122.06826,37.46951],[-122.06887,37.46989],[-122.0722,37.46697],[-122.08632,37.45095],[-122.08825,37.45003],[-122.09083,37.45033],[-122.09,37.44898],[-122.09073,37.44721],[-122.09517,37.44506],[-122.09508,37.44416],[-122.09318,37.44265],[-122.09348,37.4417],[-122.09688,37.44063],[-122.09982,37.43714],[-122.09931,37.43524],[-122.09993,37.43493],[-122.10115,37.42791],[-122.09776,37.4248],[-122.09815,37.42165],[-122.10063,37.42179],[-122.10138,37.4194],[-122.10216,37.41559],[-122.1013,37.41205],[-122.10339,37.41334],[-122.10773,37.40804],[-122.11552,37.41276],[-122.11729,37.41065],[-122.11474,37.40866],[-122.11427,37.40911],[-122.11275,37.40814],[-122.11762,37.40428]],[[-122.07469,37.40224],[-122.07343,37.40398],[-122.06994,37.40274],[-122.07311,37.40037],[-122.07469,37.40224]]],[[[-122.08906,37.3633],[-122.08904,37.36261],[-122.08698,37.36267],[-122.08698,37.36327],[-122.08906,37.3633]]]]},"properties":{"GEOID":"0649670","NAME":"Mountain View city","BASENAME":"Mountain View","STATE":"06","PLACE":"49670"}},{"type":"Feature","geometry":{"type":"Polygon","coordinates":[[[-121.64352,36.99828],[-121.63964,36.99339],[-121.6398,36.99257],[-121.62408,36.99274],[-121.58677,36.97236],[-121.57926,36.9795],[-121.57634,36.97787],[-121.57471,36.97845],[-121.57287,36.97695],[-121.56866,36.97631],[-121.57121,36.98078],[-121.57341,36.98279],[-121.57344,36.99114],[-121.57143,36.99198],[-121.57001,36.99182],[-121.56836,36.98964],[-121.56145,36.99043],[-121.55861,36.98182],[-121.55573,36.9763],[-121.55202,36.9764],[-121.54794,36.97351],[-121.53346,36.98237],[-121.53055,36.97904],[-121.53188,36.97805],[-121.52849,36.9751],[-121.52498,36.97831],[-121.52315,36.97614],[-121.51869,36.97863],[-121.52442,36.98506],[-121.52733,36.98711],[-121.52455,36.98882],[-121.53034,36.99507],[-121.53311,36.9942],[-121.53119,36.99078],[-121.5318,36.99041],[-121.54011,36.98623],[-121.54664,36.985],[-121.55107,36.99067],[-121.54573,36.99334],[-121.54626,36.99402],[-121.53998,36.99697],[-121.53642,36.99373],[-121.53888,36.9986],[-121.53512,36.99831],[-121.53572,37.00043],[-121.53452,37.00273],[-121.53792,37.0032],[-121.54182,37.0068],[-121.553,37.00969],[-121.5544,37.0115],[-121.55629,37.01105],[-121.55745,37.01285],[-121.55456,37.01432],[-121.56205,37.024],[-121.55422,37.02696],[-121.55585,37.02977],[-121.55953,37.02842],[-121.55827,37.02627],[-121.56267,37.02458],[-121.56598,37.03017],[-121.56849,37.02922],[-121.56883,37.02981],[-121.56965,37.0312],[-121.56711,37.03215],[-121.57136,37.03929],[-121.57248,37.03891],[-121.57202,37.0381],[-121.57428,37.03737],[-121.57736,37.04382],[-121.5781,37.04362],[-121.57723,37.04156],[-121.5779,37.04048],[-121.57471,37.0343],[-121.5768,37.03356],[-121.57726,37.03447],[-121.58148,37.03301],[-121.5893,37.04823],[-121.59696,37.04658],[-121.59614,37.04501],[-121.58882,37.04656],[-121.58619,37.04143],[-121.58909,37.04079],[-121.58752,37.03758],[-121.58455,37.03823],[-121.58309,37.03537],[-121.59072,37.0345],[-121.5905,37.0323],[-121.58849,37.03224],[-121.58673,37.02781],[-121.58999,37.02794],[-121.58998,37.02721],[-121.5916,37.02721],[-121.59442,37.0278],[-121.59443,37.02882],[-121.59801,37.02886],[-121.59763,37.03772],[-121.60485,37.03984],[-121.60458,37.0354],[-121.61655,37.03507],[-121.61639,37.02793],[-121.62385,37.02774],[-121.62365,37.02075],[-121.62815,37.02066],[-121.62842,37.01619],[-121.62695,37.01419],[-121.6266,37.01217],[-121.62917,37.01358],[-121.63117,37.01346],[-121.63163,37.01276],[-121.6299,37.01197],[-121.6293,37.00794],[-121.63117,37.00809],[-121.63273,37.00412],[-121.63793,37.00364],[-121.63934,37.00017],[-121.64352,36.99828]]]},"properties":{"GEOID":"0629504","NAME":"Gilroy city","BASENAME":"Gilroy","STATE":"06","PLACE":"29504"}},{"type":"Feature","geometry":{"type":"Polygon","coordinates":[[[-122.06504,37.3437],[-122.0648,37.34158],[-122.06246,37.33954],[-122.0624,37.33754],[-122.05958,37.33753],[-122.05961,37.33833],[-122.05796,37.33777],[-122.05855,37.33609],[-122.05728,37.33441],[-122.05736,37.33161],[-122.05399,37.33023],[-122.05275,37.33023],[-122.05275,37.33186],[-122.05101,37.33277],[-122.05053,37.33754],[-122.04487,37.33754],[-122.04483,37.33394],[-122.04369,37.33393],[-122.04371,37.33755],[-122.03673,37.33757],[-122.03676,37.33943],[-122.03239,37.33945],[-122.03239,37.33822],[-122.03043,37.33825],[-122.03044,37.33763],[-122.02215,37.33769],[-122.02214,37.33708],[-122.01962,37.3377],[-122.01999,37.33292],[-122.01645,37.33295],[-122.01643,37.33773],[-121.99554,37.33787],[-121.99561,37.34146],[-122.00289,37.34139],[-122.003,37.34531],[-122.00022,37.34524],[-121.99995,37.34715],[-122.00042,37.35337],[-122.00157,37.35242],[-122.00159,37.35405],[-122.00045,37.35408],[-122.00052,37.3595],[-121.99961,37.35951],[-121.99962,37.36065],[-121.99584,37.36067],[-121.99592,37.37031],[-121.9824,37.37058],[-121.98245,37.37411],[-122.00471,37.37391],[-122.00398,37.37705],[-122.00283,37.37738],[-121.98697,37.37778],[-121.98637,37.41753],[-121.99615,37.41767],[-122.04557,37.44324],[-122.04527,37.46028],[-122.04782,37.45901],[-122.05124,37.45901],[-122.05967,37.46409],[-122.05977,37.42684],[-122.04917,37.42614],[-122.04357,37.42724],[-122.03467,37.42644],[-122.03679,37.42149],[-122.03709,37.41874],[-122.03736,37.40091],[-122.04687,37.40301],[-122.0474,37.40155],[-122.04601,37.40121],[-122.04641,37.40009],[-122.04498,37.39982],[-122.04665,37.39496],[-122.04498,37.39445],[-122.04676,37.38905],[-122.04746,37.3891],[-122.04735,37.38657],[-122.05218,37.38615],[-122.05273,37.38456],[-122.05693,37.38545],[-122.06033,37.37535],[-122.05846,37.3746],[-122.06326,37.36672],[-122.0616,37.36252],[-122.06257,37.35892],[-122.06096,37.3574],[-122.06167,37.35572],[-122.06072,37.35477],[-122.06348,37.35287],[-122.06289,37.35193],[-122.06497,37.34778],[-122.06365,37.34667],[-122.06504,37.3437]]]},"properties":{"GEOID":"0677000","NAME":"Sunnyvale city","BASENAME":"Sunnyvale","STATE":"06","PLACE":"77000"}},{"type":"Feature","geometry":{"type":"Polygon","coordinates":[[[-122.2026,37.36322],[-122.20238,37.35997],[-122.19984,37.35562],[-122.19606,37.35131],[-122.19521,37.34703],[-122.18595,37.3387],[-122.18284,37.33297],[-122.17507,37.32574],[-122.17855,37.32516],[-122.17928,37.3262],[-122.18247,37.32648],[-122.18546,37.32374],[-122.18366,37.32364],[-122.18167,37.32214],[-122.1793,37.31775],[-122.17967,37.31595],[-122.1787,37.31402],[-122.17933,37.3135],[-122.17891,37.31254],[-122.17674,37.31294],[-122.17081,37.31198],[-122.16658,37.30562],[-122.16207,37.30423],[-122.16363,37.30148],[-122.16273,37.30073],[-122.16514,37.29799],[-122.16543,37.29616],[-122.16684,37.29524],[-122.15623,37.29181],[-122.15257,37.28822],[-122.15195,37.29438],[-122.13517,37.29365],[-122.13498,37.30164],[-122.13274,37.30953],[-122.13222,37.3311],[-122.14622,37.33105],[-122.14616,37.3279],[-122.1505,37.32777],[-122.15049,37.3236],[-122.16005,37.32346],[-122.16012,37.33085],[-122.16847,37.33085],[-122.16804,37.33825],[-122.1725,37.33847],[-122.17221,37.35274],[-122.16528,37.35353],[-122.16578,37.3553],[-122.16903,37.35687],[-122.1676,37.35883],[-122.17213,37.35961],[-122.17264,37.35792],[-122.17559,37.35877],[-122.17297,37.36108],[-122.16995,37.36086],[-122.1701,37.36213],[-122.17172,37.36291],[-122.16878,37.36317],[-122.17222,37.36442],[-122.16782,37.3775],[-122.16992,37.37925],[-122.17186,37.37975],[-122.16725,37.39924],[-122.16196,37.39541],[-122.15131,37.39346],[-122.1502,37.39183],[-122.14153,37.39539],[-122.14083,37.39484],[-122.14017,37.39106],[-122.13883,37.39109],[-122.13882,37.38966],[-122.13635,37.3886],[-122.13507,37.38855],[-122.13508,37.38953],[-122.13635,37.38959],[-122.13627,37.39194],[-122.13524,37.39213],[-122.13519,37.39106],[-122.13215,37.39094],[-122.13307,37.39372],[-122.13033,37.39369],[-122.12659,37.38802],[-122.12622,37.38941],[-122.12697,37.38967],[-122.12733,37.39164],[-122.12837,37.39208],[-122.12757,37.3945],[-122.12965,37.39511],[-122.12949,37.39615],[-122.1281,37.39577],[-122.12849,37.39645],[-122.12541,37.3985],[-122.12331,37.40333],[-122.11994,37.40643],[-122.11762,37.40428],[-122.11275,37.40814],[-122.11427,37.40911],[-122.11474,37.40866],[-122.11729,37.41065],[-122.11564,37.4127],[-122.10773,37.40804],[-122.10339,37.41334],[-122.1013,37.41205],[-122.10216,37.41559],[-122.10138,37.4194],[-122.10063,37.42179],[-122.09815,37.42165],[-122.09776,37.4248],[-122.10115,37.42791],[-122.09993,37.43493],[-122.09931,37.43524],[-122.09982,37.43714],[-122.09688,37.44063],[-122.09348,37.4417],[-122.09318,37.44265],[-122.09508,37.44416],[-122.09517,37.44506],[-122.09073,37.44721],[-122.09,37.44898],[-122.09083,37.45033],[-122.08825,37.45003],[-122.08632,37.45095],[-122.06887,37.46989],[-122.08147,37.47784],[-122.09676,37.4619],[-122.09643,37.4661],[-122.11155,37.46629],[-122.11328,37.46753],[-122.12392,37.46114],[-122.12177,37.4545],[-122.1221,37.45359],[-122.12449,37.4528],[-122.12691,37.45362],[-122.1284,37.45185],[-122.1321,37.45398],[-122.13877,37.4548],[-122.1407,37.45727],[-122.14279,37.45809],[-122.14514,37.45815],[-122.14748,37.4565],[-122.15254,37.45768],[-122.15442,37.45588],[-122.15591,37.45553],[-122.15579,37.45413],[-122.15769,37.45349],[-122.16044,37.45468],[-122.16411,37.45246],[-122.16516,37.45298],[-122.16595,37.45077],[-122.16762,37.45078],[-122.16763,37.4489],[-122.16875,37.44743],[-122.16944,37.4478],[-122.17182,37.4467],[-122.17452,37.44447],[-122.1757,37.44188],[-122.17979,37.44102],[-122.17942,37.44003],[-122.18014,37.43931],[-122.18217,37.43948],[-122.18442,37.43423],[-122.18765,37.43331],[-122.18841,37.43206],[-122.1904,37.43147],[-122.18988,37.42883],[-122.18229,37.4345],[-122.17456,37.43204],[-122.17118,37.43941],[-122.17034,37.43983],[-122.17091,37.44003],[-122.17054,37.4409],[-122.16813,37.43967],[-122.16713,37.44128],[-122.16887,37.4425],[-122.16763,37.44363],[-122.16604,37.44148],[-122.16397,37.44069],[-122.16066,37.43769],[-122.16116,37.43734],[-122.16014,37.43723],[-122.14924,37.42769],[-122.15727,37.41803],[-122.14971,37.41392],[-122.15597,37.40632],[-122.15198,37.40516],[-122.15303,37.40194],[-122.15221,37.40015],[-122.15247,37.39816],[-122.15348,37.39796],[-122.15203,37.39432],[-122.16173,37.39631],[-122.16449,37.39873],[-122.16784,37.4002],[-122.17023,37.39016],[-122.17237,37.39049],[-122.18549,37.38774],[-122.18342,37.38459],[-122.18664,37.38391],[-122.18936,37.38475],[-122.18828,37.38384],[-122.18898,37.38354],[-122.1878,37.3827],[-122.18801,37.38211],[-122.18688,37.38155],[-122.18758,37.38063],[-122.18632,37.37988],[-122.1885,37.37848],[-122.19288,37.37986],[-122.19584,37.37297],[-122.19778,37.37358],[-122.19832,37.37258],[-122.20064,37.37207],[-122.20149,37.36578],[-122.2026,37.36322]]]},"properties":{"GEOID":"0655282","NAME":"Palo Alto city","BASENAME":"Palo Alto","STATE":"06","PLACE":"55282"}},{"type":"Feature","geometry":{"type":"Polygon","coordinates":[[[-122.00473,37.32757],[-122.00471,37.32309],[-121.94667,37.32337],[-121.94666,37.32576],[-121.95009,37.32577],[-121.95012,37.32697],[-121.95642,37.32722],[-121.95641,37.3299],[-121.95303,37.32991],[-121.95302,37.32844],[-121.95023,37.32847],[-121.95016,37.33807],[-121.93209,37.33795],[-121.93196,37.34446],[-121.92968,37.34803],[-121.93212,37.34952],[-121.93177,37.3574],[-121.93941,37.36441],[-121.93998,37.36608],[-121.94154,37.36654],[-121.9417,37.37072],[-121.93609,37.36586],[-121.93834,37.37266],[-121.93505,37.37232],[-121.94577,37.37363],[-121.94766,37.37799],[-121.94299,37.37735],[-121.94107,37.37841],[-121.9379,37.38057],[-121.93812,37.38172],[-121.93565,37.38485],[-121.93635,37.38747],[-121.93959,37.39053],[-121.94008,37.39471],[-121.94168,37.39779],[-121.94165,37.40009],[-121.94744,37.40154],[-121.95214,37.40487],[-121.95442,37.40751],[-121.96065,37.41017],[-121.96802,37.41901],[-121.97144,37.41842],[-121.98632,37.41223],[-121.98697,37.37778],[-122.00398,37.37705],[-122.00471,37.37391],[-121.98245,37.37411],[-121.9824,37.37058],[-121.97781,37.37058],[-121.99592,37.37031],[-121.99584,37.36067],[-121.99962,37.36065],[-121.99961,37.35951],[-122.00052,37.3595],[-122.00045,37.35408],[-122.00159,37.35405],[-122.00157,37.35242],[-122.00042,37.35337],[-122.00022,37.34524],[-122.003,37.34531],[-122.00289,37.34139],[-121.99561,37.34146],[-121.99554,37.33787],[-122.00239,37.3378],[-122.00242,37.33408],[-122.00466,37.33407],[-122.00473,37.32757]],[[-121.97951,37.3391],[-121.97904,37.33858],[-121.97884,37.33814],[-121.97951,37.3391]]]},"properties":{"GEOID":"0669084","NAME":"Santa Clara city","BASENAME":"Santa Clara","STATE":"06","PLACE":"69084"}},{"type":"Feature","geometry":{"type":"MultiPolygon","coordinates":[[[[-122.04567,37.44902],[-122.04557,37.44324],[-121.99615,37.41767],[-121.98637,37.41753],[-121.98632,37.41223],[-121.97144,37.41842],[-121.96802,37.41901],[-121.96065,37.41017],[-121.95442,37.40751],[-121.95214,37.40487],[-121.94744,37.40154],[-121.94176,37.40028],[-121.93959,37.39053],[-121.93635,37.38747],[-121.93565,37.38485],[-121.93812,37.38172],[-121.9379,37.38057],[-121.94107,37.37841],[-121.94299,37.37735],[-121.94766,37.37799],[-121.94577,37.37363],[-121.93505,37.37232],[-121.93834,37.37266],[-121.93609,37.36586],[-121.9417,37.37072],[-121.94154,37.36654],[-121.93998,37.36608],[-121.93941,37.36441],[-121.93177,37.3574],[-121.93212,37.34952],[-121.92968,37.34803],[-121.93196,37.34446],[-121.93209,37.33795],[-121.95016,37.33807],[-121.95023,37.32847],[-121.95302,37.32844],[-121.95303,37.32991],[-121.95641,37.3299],[-121.95633,37.32699],[-121.95012,37.32697],[-121.95009,37.32577],[-121.94666,37.32576],[-121.94667,37.32337],[-122.00337,37.32308],[-122.0028,37.32004],[-121.99986,37.32107],[-121.99584,37.32041],[-121.99619,37.30967],[-122.0077,37.31077],[-122.02171,37.3095],[-122.03157,37.3123],[-122.03432,37.31232],[-122.03432,37.31007],[-122.03309,37.30938],[-122.03302,37.30615],[-122.03336,37.30493],[-122.03431,37.30493],[-122.03431,37.3038],[-122.03514,37.30379],[-122.03307,37.30187],[-122.03224,37.30206],[-122.03226,37.29396],[-122.00785,37.29334],[-122.00741,37.29641],[-122.00348,37.29625],[-122.00179,37.29556],[-122.00343,37.29308],[-121.99389,37.292],[-121.99405,37.29107],[-121.99599,37.29129],[-121.99512,37.29006],[-121.99635,37.28782],[-121.99443,37.28748],[-121.99431,37.28054],[-121.9897,37.28064],[-121.98948,37.277],[-121.9895,37.27623],[-121.99427,37.27608],[-121.99366,37.27049],[-121.98496,37.26651],[-121.98178,37.26702],[-121.98333,37.26988],[-121.98123,37.27119],[-121.98212,37.27369],[-121.98292,37.27343],[-121.98303,37.27641],[-121.97968,37.2765],[-121.97979,37.279],[-121.97728,37.27914],[-121.97666,37.2772],[-121.96893,37.27725],[-121.96473,37.27884],[-121.96477,37.28194],[-121.96647,37.28194],[-121.96583,37.2867],[-121.97416,37.28609],[-121.97403,37.28448],[-121.97662,37.28436],[-121.97663,37.2836],[-121.98294,37.28345],[-121.98311,37.28605],[-121.98412,37.28624],[-121.97982,37.28998],[-121.98164,37.29132],[-121.98027,37.29252],[-121.9766,37.28983],[-121.9766,37.29078],[-121.97072,37.2908],[-121.97086,37.29537],[-121.96129,37.29553],[-121.96242,37.29619],[-121.9626,37.29788],[-121.95902,37.29786],[-121.95902,37.29553],[-121.94763,37.29575],[-121.94761,37.29494],[-121.94463,37.29499],[-121.94549,37.30699],[-121.94396,37.30699],[-121.94316,37.30331],[-121.94074,37.30332],[-121.94075,37.30513],[-121.93985,37.30521],[-121.93984,37.30243],[-121.93811,37.30242],[-121.9381,37.29975],[-121.94049,37.29974],[-121.9404,37.29886],[-121.93743,37.29424],[-121.93598,37.29422],[-121.93167,37.29803],[-121.93169,37.2944],[-121.91807,37.2944],[-121.91805,37.28988],[-121.9226,37.28986],[-121.92246,37.28263],[-121.92354,37.28142],[-121.92705,37.28203],[-121.93082,37.28141],[-121.93168,37.2824],[-121.93417,37.28239],[-121.93446,37.28015],[-121.93391,37.27989],[-121.93581,37.27987],[-121.93373,37.27583],[-121.93426,37.27569],[-121.93383,37.27467],[-121.93431,37.27409],[-121.93794,37.27451],[-121.93789,37.27323],[-121.94135,37.27261],[-121.94063,37.27245],[-121.94091,37.2679],[-121.94292,37.2669],[-121.94196,37.26603],[-121.944,37.2636],[-121.94493,37.26359],[-121.94492,37.26287],[-121.94401,37.26289],[-121.95224,37.25317],[-121.95003,37.2465],[-121.94872,37.24672],[-121.94898,37.2477],[-121.94814,37.24788],[-121.94623,37.24359],[-121.94033,37.2434],[-121.94026,37.23612],[-121.93456,37.23615],[-121.93381,37.24342],[-121.93124,37.24342],[-121.93119,37.2424],[-121.93054,37.24241],[-121.93055,37.24342],[-121.92762,37.24345],[-121.92754,37.24114],[-121.92606,37.24108],[-121.92512,37.24115],[-121.92516,37.24347],[-121.92265,37.24349],[-121.92333,37.23983],[-121.92511,37.2401],[-121.92511,37.23615],[-121.91122,37.23631],[-121.9112,37.23055],[-121.90976,37.23059],[-121.90973,37.22756],[-121.91287,37.22669],[-121.91286,37.22532],[-121.91052,37.22503],[-121.90679,37.22645],[-121.90554,37.22438],[-121.90667,37.22219],[-121.9092,37.22018],[-121.90894,37.21817],[-121.91266,37.21707],[-121.91341,37.21528],[-121.91241,37.21355],[-121.90966,37.21304],[-121.90696,37.21061],[-121.90469,37.21091],[-121.89952,37.20648],[-121.89036,37.21366],[-121.89221,37.21367],[-121.8929,37.21587],[-121.89387,37.21631],[-121.89116,37.21915],[-121.88807,37.21985],[-121.88719,37.21953],[-121.88641,37.21763],[-121.88394,37.2168],[-121.88327,37.21415],[-121.88141,37.21485],[-121.87623,37.21238],[-121.87617,37.20386],[-121.86252,37.20396],[-121.86255,37.20041],[-121.85784,37.20037],[-121.85781,37.19658],[-121.8487,37.19658],[-121.84867,37.19309],[-121.83978,37.19317],[-121.83976,37.19506],[-121.8366,37.1948],[-121.83322,37.19798],[-121.83047,37.1964],[-121.82692,37.19945],[-121.82301,37.19729],[-121.8222,37.19925],[-121.82468,37.19988],[-121.82445,37.20195],[-121.82601,37.20242],[-121.82677,37.20049],[-121.82865,37.2016],[-121.82681,37.20516],[-121.82371,37.20721],[-121.82497,37.20876],[-121.82989,37.21278],[-121.83787,37.21517],[-121.83474,37.21748],[-121.8347,37.2202],[-121.83833,37.2207],[-121.84013,37.22009],[-121.83999,37.21894],[-121.83695,37.21755],[-121.83887,37.21563],[-121.84187,37.21714],[-121.84414,37.21999],[-121.84752,37.22085],[-121.84346,37.22335],[-121.84366,37.22463],[-121.84718,37.2244],[-121.84824,37.2282],[-121.84363,37.22654],[-121.84182,37.22455],[-121.84078,37.22512],[-121.84015,37.22956],[-121.83517,37.22819],[-121.83508,37.22664],[-121.83179,37.2261],[-121.83036,37.22702],[-121.82975,37.22617],[-121.82742,37.22583],[-121.82794,37.22773],[-121.82607,37.22867],[-121.82498,37.22801],[-121.82346,37.22871],[-121.82171,37.22809],[-121.82094,37.22972],[-121.81785,37.22765],[-121.81675,37.22828],[-121.81616,37.22742],[-121.81447,37.22777],[-121.81332,37.22664],[-121.80904,37.22681],[-121.80785,37.226],[-121.80818,37.22491],[-121.80638,37.22518],[-121.80545,37.2241],[-121.80081,37.22598],[-121.79168,37.22594],[-121.79187,37.22473],[-121.7904,37.22316],[-121.78333,37.22065],[-121.77899,37.22458],[-121.7719,37.22158],[-121.77164,37.2203],[-121.76813,37.21878],[-121.76479,37.21592],[-121.76508,37.21539],[-121.76346,37.2154],[-121.75917,37.21768],[-121.75801,37.21709],[-121.7734,37.20892],[-121.7788,37.20178],[-121.77706,37.19865],[-121.76597,37.18993],[-121.76604,37.18742],[-121.76778,37.18541],[-121.77073,37.18607],[-121.77447,37.18829],[-121.77981,37.18825],[-121.7854,37.18502],[-121.78638,37.18313],[-121.78849,37.18359],[-121.78905,37.18557],[-121.79364,37.1867],[-121.79555,37.18594],[-121.79472,37.18271],[-121.79623,37.18322],[-121.79724,37.18672],[-121.7997,37.18716],[-121.79937,37.18862],[-121.80373,37.18987],[-121.80434,37.18902],[-121.8074,37.18951],[-121.81475,37.18578],[-121.81276,37.18136],[-121.81431,37.17984],[-121.81493,37.17743],[-121.81588,37.1775],[-121.81502,37.17649],[-121.81565,37.17606],[-121.8143,37.17626],[-121.81879,37.17431],[-121.81897,37.17268],[-121.8207,37.17184],[-121.82033,37.17105],[-121.81801,37.17171],[-121.81833,37.17235],[-121.81523,37.16962],[-121.80874,37.17029],[-121.80549,37.17173],[-121.79625,37.17236],[-121.79482,37.17187],[-121.79135,37.1726],[-121.7879,37.17191],[-121.78366,37.17542],[-121.78522,37.17548],[-121.78534,37.17884],[-121.77958,37.17902],[-121.78245,37.17954],[-121.78267,37.18121],[-121.78425,37.18054],[-121.7837,37.1814],[-121.77996,37.18325],[-121.77613,37.18252],[-121.77729,37.18364],[-121.77641,37.18392],[-121.77465,37.18299],[-121.77309,37.18325],[-121.77269,37.18261],[-121.77342,37.18233],[-121.77001,37.18021],[-121.77012,37.17947],[-121.76801,37.17898],[-121.76802,37.1779],[-121.76611,37.17768],[-121.76636,37.17842],[-121.76563,37.17871],[-121.76149,37.17663],[-121.76048,37.17774],[-121.7588,37.17218],[-121.75666,37.16964],[-121.75754,37.16404],[-121.76019,37.16263],[-121.76487,37.1636],[-121.76966,37.16618],[-121.77263,37.16905],[-121.78165,37.15795],[-121.78589,37.15847],[-121.78599,37.1502],[-121.78327,37.15056],[-121.78132,37.14978],[-121.79216,37.14379],[-121.79284,37.14422],[-121.80295,37.13671],[-121.77565,37.12314],[-121.76215,37.13435],[-121.76651,37.1376],[-121.76345,37.13978],[-121.77344,37.14731],[-121.77257,37.14814],[-121.76538,37.14739],[-121.76131,37.14966],[-121.76054,37.15257],[-121.75516,37.15294],[-121.75691,37.15576],[-121.7538,37.15948],[-121.75074,37.16129],[-121.74722,37.15933],[-121.74527,37.15583],[-121.74933,37.15411],[-121.74921,37.15315],[-121.73936,37.15325],[-121.74044,37.15695],[-121.73613,37.15835],[-121.74226,37.17029],[-121.73249,37.17722],[-121.74076,37.18466],[-121.74206,37.18375],[-121.74491,37.18548],[-121.72384,37.20036],[-121.71952,37.1952],[-121.71824,37.19556],[-121.71189,37.18872],[-121.71056,37.18833],[-121.71118,37.18778],[-121.70837,37.18517],[-121.70775,37.18555],[-121.70415,37.18191],[-121.70476,37.18152],[-121.70299,37.17952],[-121.6918,37.16887],[-121.69383,37.16754],[-121.69283,37.16656],[-121.69101,37.16774],[-121.6899,37.16674],[-121.6891,37.16727],[-121.68653,37.16479],[-121.69224,37.16097],[-121.68968,37.15846],[-121.68367,37.16239],[-121.68471,37.16348],[-121.67687,37.1686],[-121.67198,37.16406],[-121.68006,37.15841],[-121.6774,37.15578],[-121.66558,37.16408],[-121.66881,37.16642],[-121.66663,37.16848],[-121.67371,37.17047],[-121.67005,37.17299],[-121.66425,37.17051],[-121.66316,37.17276],[-121.65801,37.17266],[-121.64258,37.16787],[-121.64219,37.16862],[-121.64104,37.16823],[-121.64146,37.16754],[-121.63356,37.16504],[-121.62485,37.16687],[-121.62473,37.16794],[-121.61838,37.17237],[-121.60936,37.1767],[-121.6105,37.17844],[-121.60865,37.17916],[-121.60749,37.17749],[-121.60211,37.17977],[-121.59013,37.18816],[-121.58587,37.18819],[-121.58594,37.19512],[-121.60428,37.19525],[-121.60435,37.20232],[-121.63118,37.20231],[-121.63146,37.21683],[-121.65595,37.21672],[-121.65764,37.21348],[-121.66123,37.21204],[-121.66239,37.20993],[-121.66366,37.20969],[-121.66553,37.20616],[-121.6679,37.20616],[-121.67336,37.20337],[-121.67909,37.20238],[-121.67912,37.20067],[-121.69233,37.20067],[-121.70294,37.20347],[-121.70883,37.209],[-121.71574,37.20895],[-121.7102,37.20176],[-121.70772,37.20033],[-121.70896,37.19929],[-121.70215,37.19494],[-121.70625,37.19199],[-121.70742,37.19315],[-121.70864,37.19258],[-121.71173,37.19046],[-121.71158,37.18974],[-121.71326,37.19238],[-121.71061,37.19407],[-121.71162,37.1951],[-121.71368,37.19608],[-121.71571,37.19474],[-121.71759,37.19655],[-121.71941,37.196],[-121.71884,37.19686],[-121.72079,37.19872],[-121.7221,37.19863],[-121.72129,37.19922],[-121.72296,37.20087],[-121.71959,37.20338],[-121.72045,37.20505],[-121.72123,37.20455],[-121.72465,37.20683],[-121.72324,37.20772],[-121.72593,37.20861],[-121.72722,37.21047],[-121.73004,37.20874],[-121.73254,37.21119],[-121.73345,37.21091],[-121.73297,37.21159],[-121.73663,37.21509],[-121.73594,37.21558],[-121.73779,37.21725],[-121.73511,37.21826],[-121.73849,37.21954],[-121.74061,37.21819],[-121.74642,37.2242],[-121.75027,37.22704],[-121.73524,37.23518],[-121.72925,37.23507],[-121.72674,37.23757],[-121.72127,37.23654],[-121.71839,37.23692],[-121.73856,37.25284],[-121.7334,37.25721],[-121.73964,37.26158],[-121.74504,37.25852],[-121.76284,37.25841],[-121.76764,37.25456],[-121.76393,37.25254],[-121.76489,37.25184],[-121.76547,37.25217],[-121.76496,37.2526],[-121.76717,37.25372],[-121.76898,37.25207],[-121.7715,37.25498],[-121.77615,37.25708],[-121.7793,37.25953],[-121.779,37.26089],[-121.78013,37.26108],[-121.78039,37.26196],[-121.78637,37.26504],[-121.78662,37.26748],[-121.78408,37.26931],[-121.75753,37.26858],[-121.75555,37.27046],[-121.75264,37.26995],[-121.75092,37.27046],[-121.74956,37.27238],[-121.74435,37.27298],[-121.73834,37.2686],[-121.73417,37.26696],[-121.73102,37.27062],[-121.73319,37.27219],[-121.7345,37.27206],[-121.73399,37.27377],[-121.73618,37.2748],[-121.7352,37.27735],[-121.73716,37.27906],[-121.73891,37.27871],[-121.73852,37.28122],[-121.73954,37.28156],[-121.73836,37.28191],[-121.73903,37.28416],[-121.73636,37.28664],[-121.72758,37.28578],[-121.72216,37.28434],[-121.71696,37.28554],[-121.71696,37.28474],[-121.70655,37.28803],[-121.70747,37.28961],[-121.70688,37.29158],[-121.70987,37.29533],[-121.73556,37.29134],[-121.73925,37.29258],[-121.74198,37.29252],[-121.74621,37.29443],[-121.74991,37.2945],[-121.75186,37.30094],[-121.74382,37.30255],[-121.74417,37.30611],[-121.74597,37.30847],[-121.74907,37.30924],[-121.75005,37.31259],[-121.74878,37.31353],[-121.75245,37.3144],[-121.75628,37.31682],[-121.75713,37.31657],[-121.75841,37.31899],[-121.75788,37.31971],[-121.75961,37.32448],[-121.76107,37.32443],[-121.76278,37.32942],[-121.7661,37.32873],[-121.76634,37.33037],[-121.76495,37.33235],[-121.76618,37.33213],[-121.76662,37.33362],[-121.76461,37.33533],[-121.76281,37.33565],[-121.76346,37.33635],[-121.76829,37.33492],[-121.76765,37.33132],[-121.76865,37.3308],[-121.76988,37.33241],[-121.77179,37.33186],[-121.77326,37.33446],[-121.78004,37.3391],[-121.78168,37.3394],[-121.78124,37.33999],[-121.78871,37.34505],[-121.7875,37.34625],[-121.78861,37.34759],[-121.78676,37.34941],[-121.7899,37.35155],[-121.79003,37.35431],[-121.79504,37.35425],[-121.79834,37.35563],[-121.79918,37.35778],[-121.79649,37.35832],[-121.79812,37.36045],[-121.79174,37.36042],[-121.79165,37.36102],[-121.7944,37.36174],[-121.79511,37.36336],[-121.79028,37.36731],[-121.79373,37.37121],[-121.79912,37.36755],[-121.80155,37.36861],[-121.79803,37.37107],[-121.80118,37.37391],[-121.80602,37.37153],[-121.80564,37.371],[-121.80768,37.37073],[-121.80708,37.36958],[-121.80891,37.368],[-121.80998,37.36836],[-121.80839,37.36975],[-121.80969,37.37075],[-121.80955,37.37001],[-121.81295,37.36892],[-121.8148,37.37218],[-121.81589,37.37235],[-121.81555,37.37338],[-121.81442,37.37299],[-121.81402,37.37452],[-121.81555,37.37432],[-121.81592,37.37493],[-121.81637,37.37371],[-121.81824,37.37445],[-121.81911,37.37303],[-121.81792,37.37256],[-121.81863,37.37144],[-121.81686,37.37203],[-121.81638,37.37112],[-121.81812,37.37055],[-121.81577,37.36839],[-121.81647,37.36793],[-121.81489,37.36623],[-121.81429,37.36663],[-121.81277,37.365],[-121.8145,37.36383],[-121.81219,37.36148],[-121.81446,37.35931],[-121.81607,37.36109],[-121.81783,37.35987],[-121.81606,37.35824],[-121.81709,37.35754],[-121.81896,37.35953],[-121.82134,37.35858],[-121.82323,37.36063],[-121.82155,37.36174],[-121.82187,37.36284],[-121.82423,37.36185],[-121.82536,37.36296],[-121.82247,37.3645],[-121.82294,37.36498],[-121.82594,37.36359],[-121.82735,37.3651],[-121.82585,37.36663],[-121.82711,37.36752],[-121.82862,37.36649],[-121.83164,37.37004],[-121.83128,37.37073],[-121.83172,37.37013],[-121.83222,37.37083],[-121.82903,37.37229],[-121.82417,37.37066],[-121.82363,37.37155],[-121.8224,37.37133],[-121.82369,37.37184],[-121.82418,37.37129],[-121.8287,37.37312],[-121.83253,37.37122],[-121.83336,37.37227],[-121.83131,37.37296],[-121.83415,37.37531],[-121.83289,37.37627],[-121.83329,37.37665],[-121.83468,37.37506],[-121.83561,37.37511],[-121.83614,37.3758],[-121.83485,37.37716],[-121.83545,37.37796],[-121.83716,37.37713],[-121.83871,37.37917],[-121.83415,37.38135],[-121.83313,37.38],[-121.83428,37.37943],[-121.83254,37.37781],[-121.83055,37.3785],[-121.82719,37.37535],[-121.8261,37.37645],[-121.82888,37.37963],[-121.82426,37.38149],[-121.82451,37.38216],[-121.82526,37.38231],[-121.82643,37.38516],[-121.82844,37.38432],[-121.834,37.39243],[-121.83268,37.39257],[-121.83307,37.39297],[-121.8322,37.39363],[-121.82943,37.39389],[-121.82775,37.39162],[-121.8254,37.39273],[-121.82572,37.39333],[-121.82681,37.39284],[-121.82793,37.39514],[-121.82593,37.39546],[-121.82641,37.39655],[-121.82522,37.39455],[-121.82356,37.39476],[-121.81947,37.39348],[-121.819,37.39228],[-121.81436,37.39192],[-121.81374,37.39064],[-121.81197,37.3918],[-121.8097,37.39137],[-121.80861,37.39193],[-121.80644,37.3896],[-121.80563,37.3896],[-121.80368,37.39059],[-121.80581,37.39316],[-121.80514,37.3934],[-121.80598,37.39493],[-121.80314,37.39456],[-121.80161,37.39141],[-121.80039,37.3915],[-121.79499,37.39394],[-121.79416,37.39831],[-121.79264,37.40062],[-121.78913,37.39914],[-121.7856,37.39101],[-121.78377,37.39152],[-121.78387,37.3958],[-121.78533,37.39685],[-121.78514,37.40059],[-121.78652,37.4045],[-121.78962,37.40576],[-121.79094,37.40955],[-121.79052,37.41115],[-121.79196,37.41372],[-121.79609,37.41368],[-121.80085,37.41512],[-121.80171,37.41367],[-121.80032,37.40815],[-121.80118,37.40748],[-121.80974,37.40727],[-121.8127,37.40888],[-121.81506,37.4042],[-121.81781,37.4066],[-121.82104,37.4112],[-121.82506,37.41432],[-121.82469,37.41371],[-121.82648,37.41332],[-121.82614,37.41232],[-121.82738,37.41093],[-121.82653,37.40956],[-121.82734,37.40823],[-121.83007,37.40781],[-121.839,37.42107],[-121.8393,37.42399],[-121.837,37.42509],[-121.83766,37.42591],[-121.85818,37.42148],[-121.86003,37.42249],[-121.87404,37.41637],[-121.88026,37.41452],[-121.88004,37.41384],[-121.88206,37.41315],[-121.88081,37.41152],[-121.88886,37.40758],[-121.88788,37.40695],[-121.89144,37.40337],[-121.90563,37.40432],[-121.9152,37.39611],[-121.91529,37.39892],[-121.91805,37.40373],[-121.9238,37.406],[-121.92297,37.41103],[-121.92561,37.41314],[-121.92603,37.41462],[-121.92811,37.41554],[-121.93026,37.41797],[-121.92984,37.41928],[-121.93108,37.41985],[-121.92518,37.424],[-121.92569,37.4256],[-121.92768,37.42759],[-121.92845,37.43054],[-121.92599,37.43564],[-121.92648,37.43941],[-121.92318,37.44284],[-121.92409,37.44432],[-121.92339,37.44665],[-121.9247,37.44739],[-121.924,37.44993],[-121.92513,37.45132],[-121.92723,37.45081],[-121.92823,37.45261],[-121.92501,37.45329],[-121.92489,37.45398],[-121.92785,37.45526],[-121.92746,37.4567],[-121.92844,37.45739],[-121.93263,37.45515],[-121.93271,37.45684],[-121.93113,37.45739],[-121.9312,37.46064],[-121.93473,37.46052],[-121.93499,37.46246],[-121.93603,37.46293],[-121.93924,37.46249],[-121.94109,37.46495],[-121.94423,37.46582],[-121.94414,37.46812],[-121.94491,37.46916],[-121.94645,37.46859],[-121.94709,37.46742],[-121.94641,37.46336],[-121.9496,37.46141],[-121.95931,37.46352],[-121.96416,37.46315],[-121.97507,37.46064],[-121.98001,37.46089],[-121.99267,37.46464],[-121.99667,37.46724],[-122.02115,37.46507],[-122.02542,37.46563],[-122.03618,37.46497],[-122.04527,37.46028],[-122.04567,37.44902]],[[-121.94005,37.26065],[-121.9396,37.26031],[-121.93991,37.26032],[-121.94005,37.26065]],[[-121.70788,37.1921],[-121.70786,37.19213],[-121.7078,37.19229],[-121.70788,37.1921]],[[-121.83558,37.4071],[-121.83451,37.40728],[-121.83495,37.40668],[-121.83558,37.4071]],[[-121.8707,37.28989],[-121.87004,37.29127],[-121.87067,37.2914],[-121.86993,37.29186],[-121.86732,37.28921],[-121.86778,37.28886],[-121.86938,37.29053],[-121.8707,37.28989]],[[-121.8674,37.28698],[-121.86492,37.28915],[-121.86388,37.2883],[-121.86528,37.28722],[-121.86431,37.28651],[-121.8674,37.28698]],[[-121.74232,37.21812],[-121.73985,37.21784],[-121.73696,37.21562],[-121.73827,37.21466],[-121.74232,37.21812]],[[-121.87348,37.3953],[-121.87191,37.39637],[-121.86918,37.39436],[-121.87106,37.39307],[-121.87348,37.3953]],[[-121.8485,37.28793],[-121.84527,37.28745],[-121.84345,37.28578],[-121.84443,37.28361],[-121.84301,37.2822],[-121.8434,37.28155],[-121.84438,37.28095],[-121.84611,37.28273],[-121.84486,37.28361],[-121.84447,37.28512],[-121.8485,37.28793]],[[-121.84653,37.41121],[-121.84565,37.41157],[-121.84589,37.41265],[-121.84296,37.41332],[-121.84098,37.41023],[-121.84562,37.40983],[-121.84653,37.41121]],[[-121.9348,37.32532],[-121.93144,37.32548],[-121.93198,37.3266],[-121.93145,37.32692],[-121.92694,37.32695],[-121.92731,37.32552],[-121.92559,37.32533],[-121.92585,37.32342],[-121.92884,37.32427],[-121.9309,37.32339],[-121.93196,37.32506],[-121.93251,37.3246],[-121.93195,37.32426],[-121.93355,37.32425],[-121.93359,37.32339],[-121.93448,37.32337],[-121.93418,37.32466],[-121.93478,37.32424],[-121.9348,37.32532]],[[-121.84171,37.40583],[-121.83943,37.40687],[-121.84016,37.40838],[-121.83934,37.40835],[-121.83587,37.40691],[-121.83558,37.40597],[-121.83865,37.40555],[-121.83811,37.40495],[-121.83629,37.40527],[-121.83625,37.40447],[-121.83392,37.40551],[-121.83302,37.40355],[-121.83873,37.40093],[-121.84013,37.40291],[-121.83924,37.40331],[-121.84171,37.40583]],[[-121.80482,37.34062],[-121.79731,37.34405],[-121.79516,37.34264],[-121.79856,37.34144],[-121.79476,37.33714],[-121.80086,37.33602],[-121.80482,37.34062]],[[-121.85552,37.41888],[-121.85058,37.42157],[-121.84974,37.42034],[-121.84724,37.4203],[-121.84735,37.41939],[-121.84639,37.41898],[-121.84397,37.41977],[-121.84183,37.41887],[-121.8412,37.41596],[-121.84322,37.41564],[-121.84298,37.41335],[-121.84432,37.4154],[-121.84719,37.41464],[-121.85246,37.41537],[-121.85552,37.41888]],[[-121.85767,37.30112],[-121.85278,37.30451],[-121.85057,37.30229],[-121.84844,37.3038],[-121.84531,37.29955],[-121.85132,37.29548],[-121.85304,37.29723],[-121.85435,37.29653],[-121.85767,37.30112]],[[-121.75807,37.21774],[-121.75154,37.22636],[-121.75106,37.22464],[-121.74891,37.22443],[-121.74621,37.22198],[-121.7477,37.22044],[-121.74483,37.217],[-121.74741,37.21434],[-121.75082,37.21386],[-121.75807,37.21774]],[[-121.8193,37.28893],[-121.81889,37.29088],[-121.81745,37.28941],[-121.81506,37.28864],[-121.80928,37.29035],[-121.80869,37.29134],[-121.80808,37.29006],[-121.80928,37.28957],[-121.8084,37.28279],[-121.80243,37.27868],[-121.80027,37.27802],[-121.80044,37.27544],[-121.80301,37.27592],[-121.80751,37.27827],[-121.81225,37.27871],[-121.8142,37.28247],[-121.81309,37.28751],[-121.81864,37.28797],[-121.8193,37.28893]],[[-121.87028,37.23714],[-121.86313,37.23733],[-121.86234,37.23931],[-121.85592,37.23698],[-121.85665,37.23517],[-121.85587,37.22908],[-121.86009,37.22829],[-121.86394,37.22936],[-121.86874,37.23196],[-121.86345,37.23324],[-121.8632,37.23475],[-121.86858,37.23496],[-121.86979,37.23565],[-121.87028,37.23714]],[[-121.94044,37.25631],[-121.94037,37.26009],[-121.93761,37.26016],[-121.93763,37.2635],[-121.93402,37.26187],[-121.93401,37.26103],[-121.93134,37.25929],[-121.9313,37.25841],[-121.92698,37.26022],[-121.92745,37.26133],[-121.92534,37.26174],[-121.92491,37.26088],[-121.92232,37.26175],[-121.92226,37.25615],[-121.92348,37.25581],[-121.92347,37.25481],[-121.91777,37.25443],[-121.91777,37.25091],[-121.92677,37.25086],[-121.92676,37.24928],[-121.93116,37.24924],[-121.93108,37.25613],[-121.94044,37.25631]],[[-121.93978,37.30878],[-121.93978,37.31003],[-121.93868,37.31084],[-121.93864,37.31684],[-121.93184,37.31652],[-121.93185,37.31783],[-121.93865,37.31838],[-121.9397,37.32197],[-121.93825,37.32292],[-121.93342,37.32298],[-121.93172,37.32166],[-121.93063,37.32217],[-121.93189,37.32217],[-121.9319,37.32282],[-121.9302,37.32328],[-121.92221,37.32292],[-121.92218,37.31967],[-121.92374,37.31965],[-121.92328,37.32056],[-121.92391,37.32056],[-121.9239,37.31961],[-121.92543,37.31965],[-121.92543,37.31637],[-121.93184,37.31618],[-121.93222,37.30783],[-121.93718,37.30758],[-121.93715,37.30521],[-121.93944,37.30521],[-121.93978,37.30878]],[[-121.70996,37.18806],[-121.70747,37.1891],[-121.70873,37.19017],[-121.70752,37.19106],[-121.69748,37.18767],[-121.69721,37.18813],[-121.69705,37.18742],[-121.69552,37.18788],[-121.69101,37.18666],[-121.68894,37.18801],[-121.67832,37.17758],[-121.69109,37.16962],[-121.70345,37.18175],[-121.70189,37.18374],[-121.70299,37.18539],[-121.70524,37.18616],[-121.70619,37.18554],[-121.70996,37.18806]]],[[[-121.82371,37.20721],[-121.81673,37.20334],[-121.81568,37.205],[-121.81149,37.20348],[-121.80561,37.2032],[-121.8001,37.21087],[-121.80465,37.21394],[-121.80536,37.21615],[-121.81154,37.21754],[-121.81252,37.21924],[-121.81713,37.22032],[-121.82257,37.20943],[-121.8211,37.20871],[-121.82268,37.209],[-121.82371,37.20721]]],[[[-121.75976,37.39603],[-121.75631,37.39557],[-121.75581,37.39645],[-121.74866,37.3998],[-121.74924,37.40101],[-121.75209,37.40037],[-121.75628,37.40129],[-121.75731,37.40053],[-121.75572,37.39902],[-121.75912,37.39799],[-121.75976,37.39603]]],[[[-121.8261,37.37835],[-121.82574,37.37722],[-121.82451,37.37717],[-121.8255,37.37616],[-121.82492,37.37593],[-121.82247,37.37852],[-121.82405,37.37939],[-121.8261,37.37835]]],[[[-121.82185,37.36628],[-121.8202,37.36539],[-121.81892,37.36693],[-121.82051,37.36842],[-121.82185,37.36628]]],[[[-121.78258,37.2654],[-121.78238,37.265],[-121.7819,37.26542],[-121.78258,37.2654]]],[[[-121.82651,37.37987],[-121.82589,37.38013],[-121.82594,37.38018],[-121.82651,37.37987]]]]},"properties":{"GEOID":"0668000","NAME":"San Jose city","BASENAME":"San Jose","STATE":"06","PLACE":"68000"}}]}