{"type":"FeatureCollection","features":[{"type":"Feature","geometry":{"type":"Polygon","coordinates":[[[-121.97323,36.9732],[-121.97047,36.97316],[-121.97047,36.97263],[-121.96857,36.97314],[-121.96825,36.96997],[-121.96739,36.96993],[-121.96739,36.96884],[-121.96541,36.96885],[-121.96564,36.96807],[-121.97073,36.96754],[-121.96913,36.9671],[-121.96946,36.96523],[-121.96829,36.96576],[-121.96864,36.96711],[-121.9649,36.96785],[-121.9649,36.96725],[-121.9635,36.96714],[-121.96343,36.96827],[-121.95823,36.96874],[-121.95704,36.96746],[-121.95241,36.96805],[-121.94752,36.97156],[-121.94809,36.97238],[-121.93924,36.97824],[-121.93323,36.97808],[-121.93298,36.97906],[-121.93124,36.97905],[-121.92981,36.98149],[-121.93249,36.98184],[-121.93185,36.98378],[-121.93686,36.98449],[-121.95294,36.98355],[-121.95717,36.98403],[-121.9601,36.98296],[-121.96247,36.98297],[-121.96512,36.98417],[-121.96557,36.97961],[-121.96802,36.97958],[-121.96804,36.98041],[-121.97078,36.97988],[-121.97118,36.9781],[-121.97062,36.97612],[-121.96962,36.97603],[-121.96992,36.97462],[-121.97207,36.97381],[-121.97185,36.97488],[-121.97297,36.97487],[-121.97323,36.9732]]]},"properties":{"GEOID":"0611040","NAME":"Capitola city","BASENAME":"Capitola","STATE":"06","PLACE":"11040"}},{"type":"Feature","geometry":{"type":"Polygon","coordinates":[[[-122.04167,37.03805],[-122.03981,37.03568],[-122.03644,37.03748],[-122.03347,37.0362],[-122.0304,37.03939],[-122.02877,37.03845],[-122.02597,37.03959],[-122.02378,37.03883],[-122.02324,37.03712],[-122.03246,37.03369],[-122.03502,37.03123],[-122.03279,37.02918],[-122.02548,37.03286],[-122.02087,37.03316],[-122.02081,37.03395],[-122.01955,37.03398],[-122.01951,37.03549],[-122.01246,37.03613],[-122.01143,37.03991],[-122.01022,37.042],[-122.00874,37.04284],[-122.01471,37.04496],[-122.01231,37.04836],[-122.01088,37.04785],[-122.00863,37.04863],[-122.00455,37.04759],[-122.00491,37.04863],[-122.00369,37.05035],[-122.00043,37.05249],[-121.99858,37.05127],[-121.9979,37.05196],[-121.99736,37.05101],[-121.99803,37.05018],[-121.9937,37.05014],[-121.99373,37.05136],[-121.99203,37.05139],[-121.99144,37.05608],[-121.99212,37.05605],[-121.99229,37.05781],[-121.99532,37.05725],[-121.99516,37.0583],[-121.99358,37.05989],[-121.99248,37.05998],[-121.99323,37.0603],[-121.99263,37.061],[-121.98763,37.06105],[-121.9874,37.065],[-121.9891,37.06499],[-121.9858,37.06862],[-121.98758,37.06897],[-121.98606,37.07187],[-121.98548,37.07178],[-121.98521,37.07413],[-121.98781,37.07515],[-121.98389,37.07655],[-121.98575,37.0799],[-121.98836,37.07987],[-121.98769,37.07855],[-121.99046,37.07677],[-121.99043,37.07746],[-121.99506,37.0786],[-121.99737,37.07714],[-121.99925,37.07697],[-122.00005,37.0771],[-122.00086,37.07949],[-122.00345,37.07918],[-122.00498,37.08063],[-122.01024,37.06875],[-122.01193,37.0688],[-122.01227,37.06817],[-122.01084,37.06767],[-122.01205,37.06519],[-122.01141,37.06496],[-122.01354,37.06427],[-122.01381,37.06279],[-122.0181,37.06191],[-122.021,37.05904],[-122.02175,37.0573],[-122.02089,37.0566],[-122.02426,37.05739],[-122.02458,37.05655],[-122.02541,37.05718],[-122.0269,37.0568],[-122.02745,37.0581],[-122.02855,37.05757],[-122.02722,37.05719],[-122.02777,37.05682],[-122.02701,37.05561],[-122.02872,37.05569],[-122.02928,37.05355],[-122.0306,37.05358],[-122.03058,37.05448],[-122.0367,37.05401],[-122.03731,37.05263],[-122.03692,37.05095],[-122.03779,37.05064],[-122.03653,37.04958],[-122.03715,37.04806],[-122.03791,37.04823],[-122.04019,37.04247],[-122.03943,37.04186],[-122.03842,37.04417],[-122.03694,37.04359],[-122.03786,37.04149],[-122.04167,37.03805]]]},"properties":{"GEOID":"0670588","NAME":"Scotts Valley city","BASENAME":"Scotts Valley","STATE":"06","PLACE":"70588"}},{"type":"Feature","geometry":{"type":"MultiPolygon","coordinates":[[[[-121.80165,36.92361],[-121.79747,36.92357],[-121.7979,36.92276],[-121.7944,36.92273],[-121.79326,36.92179],[-121.79539,36.92197],[-121.79559,36.91187],[-121.79393,36.91119],[-121.78679,36.91444],[-121.7857,36.91425],[-121.78182,36.90695],[-121.78001,36.90996],[-121.77954,36.90874],[-121.78058,36.90801],[-121.78111,36.90586],[-121.78022,36.90447],[-121.78172,36.90344],[-121.78355,36.90388],[-121.78368,36.90252],[-121.78522,36.90161],[-121.78432,36.8998],[-121.78079,36.90167],[-121.77947,36.89912],[-121.78129,36.89791],[-121.77873,36.89451],[-121.77727,36.895],[-121.77842,36.89715],[-121.77083,36.90279],[-121.76828,36.89786],[-121.76108,36.90305],[-121.75748,36.89998],[-121.75151,36.90521],[-121.74436,36.90952],[-121.74571,36.91108],[-121.74268,36.91615],[-121.73523,36.91734],[-121.73347,36.91823],[-121.73241,36.92007],[-121.73421,36.9207],[-121.7334,36.92236],[-121.73836,36.92362],[-121.73896,36.92454],[-121.73827,36.92739],[-121.74131,36.92789],[-121.74054,36.93017],[-121.74424,36.93078],[-121.74556,36.92668],[-121.75644,36.9289],[-121.75662,36.92953],[-121.76027,36.92849],[-121.7613,36.93077],[-121.76437,36.93002],[-121.7647,36.93057],[-121.76329,36.93091],[-121.76424,36.93178],[-121.76177,36.9345],[-121.76329,36.93599],[-121.76657,36.93636],[-121.76797,36.93797],[-121.76666,36.94042],[-121.76941,36.94106],[-121.77221,36.93664],[-121.77404,36.93754],[-121.7745,36.93654],[-121.77525,36.93714],[-121.77413,36.93885],[-121.77258,36.93819],[-121.77155,36.93955],[-121.77455,36.93995],[-121.77536,36.94075],[-121.77348,36.94143],[-121.77469,36.94168],[-121.77671,36.94101],[-121.77849,36.94148],[-121.78125,36.94029],[-121.78029,36.93963],[-121.78132,36.93814],[-121.78462,36.9391],[-121.78584,36.94064],[-121.7852,36.94156],[-121.78774,36.94101],[-121.78919,36.93962],[-121.79584,36.93992],[-121.79777,36.93037],[-121.79695,36.92997],[-121.79905,36.92643],[-121.80153,36.9259],[-121.80165,36.92361]]],[[[-121.77396,36.95656],[-121.77391,36.95532],[-121.77183,36.95388],[-121.77239,36.9533],[-121.77063,36.9521],[-121.76997,36.95046],[-121.76829,36.9505],[-121.76547,36.94811],[-121.76487,36.95007],[-121.76707,36.95069],[-121.76773,36.95407],[-121.76993,36.95751],[-121.77396,36.95656]]],[[[-121.78856,36.88591],[-121.78775,36.88426],[-121.785,36.88572],[-121.78327,36.8853],[-121.78456,36.88768],[-121.78654,36.88719],[-121.78805,36.89003],[-121.78646,36.88665],[-121.78856,36.88591]]],[[[-121.79098,37.01525],[-121.78944,37.0143],[-121.7862,37.01536],[-121.78433,37.01909],[-121.78745,37.01918],[-121.7884,37.01684],[-121.79098,37.01525]]],[[[-121.80702,36.98902],[-121.80267,36.98905],[-121.80421,36.99124],[-121.80441,36.99027],[-121.80658,36.99056],[-121.80702,36.98902]]],[[[-121.82672,36.91599],[-121.82731,36.91532],[-121.82507,36.91262],[-121.8229,36.91264],[-121.82213,36.91181],[-121.81934,36.91329],[-121.8216,36.91528],[-121.82519,36.91681],[-121.82672,36.91599]]]]},"properties":{"GEOID":"0683668","NAME":"Watsonville city","BASENAME":"Watsonville","STATE":"06","PLACE":"83668"}},{"type":"Feature","geometry":{"type":"MultiPolygon","coordinates":[[[[-122.08378,36.94363],[-122.08525,36.94125],[-122.04086,36.94093],[-122.00059,36.95457],[-122.00012,36.96442],[-122.00174,36.96815],[-122.00027,36.96917],[-121.99433,36.97941],[-121.99613,36.98124],[-121.99442,36.98278],[-121.99483,36.98346],[-121.98981,36.9865],[-121.98675,36.99175],[-121.98828,36.99509],[-121.98744,36.9953],[-121.98871,36.99531],[-121.99105,36.99697],[-121.99228,37.00625],[-121.99612,37.00622],[-121.99406,37.00959],[-121.99686,37.00975],[-121.99762,37.00696],[-122.00187,37.00708],[-122.00216,37.00243],[-122.00562,36.99837],[-122.00972,36.99817],[-122.00981,37.0001],[-122.01095,37.00134],[-122.01003,37.00246],[-122.01854,37.00242],[-122.01863,37.00339],[-122.02013,37.0031],[-122.02071,37.00132],[-122.01722,37.00009],[-122.01696,36.99922],[-122.01868,36.99737],[-122.01782,36.99574],[-122.01519,36.99615],[-122.01492,36.9929],[-122.01227,36.99412],[-122.01277,36.9948],[-122.01205,36.996],[-122.00999,36.99702],[-122.0117,36.99491],[-122.01169,36.99149],[-122.01428,36.99146],[-122.01492,36.9929],[-122.0157,36.99215],[-122.01753,36.99453],[-122.01761,36.99136],[-122.02724,36.99107],[-122.02812,36.9922],[-122.03173,36.9911],[-122.0339,36.99542],[-122.03647,36.99675],[-122.03647,36.99813],[-122.03788,36.99757],[-122.04342,37.00592],[-122.04563,37.00581],[-122.04592,37.00714],[-122.04858,37.00874],[-122.04967,37.01085],[-122.05246,37.00982],[-122.05101,37.00157],[-122.05694,37.00341],[-122.07309,37.00325],[-122.07183,37.00155],[-122.06986,37.00122],[-122.06873,36.99898],[-122.06892,36.99568],[-122.07007,36.99331],[-122.0683,36.98693],[-122.06608,36.9845],[-122.05997,36.98065],[-122.06119,36.98065],[-122.06075,36.97799],[-122.07032,36.97757],[-122.07084,36.97247],[-122.0683,36.96498],[-122.06634,36.965],[-122.06545,36.96157],[-122.06267,36.96108],[-122.06262,36.95924],[-122.06532,36.95887],[-122.06527,36.9558],[-122.0676,36.95274],[-122.06887,36.95379],[-122.06873,36.95463],[-122.06994,36.95344],[-122.06767,36.95153],[-122.06773,36.94886],[-122.06982,36.94882],[-122.07243,36.95032],[-122.07355,36.94956],[-122.07419,36.95042],[-122.07571,36.95034],[-122.07634,36.95258],[-122.07791,36.95313],[-122.08378,36.94363]]],[[[-122.10908,36.97724],[-122.10803,36.97618],[-122.10853,36.9724],[-122.10423,36.97203],[-122.10436,36.96521],[-122.10363,36.97501],[-122.104,36.97883],[-122.10482,36.98009],[-122.1043,36.98154],[-122.10739,36.98181],[-122.10771,36.9789],[-122.10908,36.97724]]],[[[-122.03537,36.99867],[-122.03104,37.00063],[-122.03177,37.00045],[-122.0329,37.00241],[-122.03485,37.00172],[-122.03364,36.99971],[-122.03537,36.99867]]],[[[-122.01392,36.99288],[-122.01153,36.99177],[-122.01309,36.99334],[-122.01392,36.99288]]]]},"properties":{"GEOID":"0669112","NAME":"Santa Cruz city","BASENAME":"Santa Cruz","STATE":"06","PLACE":"69112"}}]}