{"type":"FeatureCollection","features":[{"type":"Feature","geometry":{"type":"Polygon","coordinates":[[[-122.32642,40.44976],[-122.32139,40.44832],[-122.32134,40.44605],[-122.32207,40.44555],[-122.32129,40.44422],[-122.31772,40.44417],[-122.31625,40.44292],[-122.31456,40.44418],[-122.3117,40.44418],[-122.31169,40.44055],[-122.3022,40.44062],[-122.30219,40.43337],[-122.30725,40.43334],[-122.30698,40.42979],[-122.31172,40.42983],[-122.31185,40.4187],[-122.29354,40.41875],[-122.29281,40.42611],[-122.28476,40.42599],[-122.28521,40.42758],[-122.28462,40.42843],[-122.28842,40.43339],[-122.28727,40.43338],[-122.28555,40.43172],[-122.28564,40.43336],[-122.28485,40.43114],[-122.28324,40.43004],[-122.2829,40.43056],[-122.28221,40.42941],[-122.28215,40.42598],[-122.28056,40.42596],[-122.28058,40.43073],[-122.27345,40.43008],[-122.27342,40.43139],[-122.2749,40.43239],[-122.27388,40.4327],[-122.27346,40.43449],[-122.26923,40.43814],[-122.27832,40.44109],[-122.27515,40.44367],[-122.27901,40.4459],[-122.2841,40.44734],[-122.27217,40.457],[-122.27495,40.459],[-122.28005,40.45474],[-122.28352,40.45714],[-122.27719,40.46265],[-122.27534,40.46137],[-122.27151,40.46369],[-122.26755,40.46095],[-122.26185,40.46545],[-122.25742,40.46251],[-122.25661,40.46329],[-122.25579,40.46284],[-122.25694,40.46183],[-122.25594,40.46138],[-122.25378,40.46362],[-122.25592,40.46424],[-122.25713,40.46582],[-122.25731,40.4684],[-122.25842,40.4699],[-122.2678,40.4734],[-122.26946,40.4731],[-122.27502,40.46881],[-122.27777,40.46834],[-122.30227,40.47325],[-122.31052,40.47201],[-122.30639,40.46786],[-122.31138,40.46272],[-122.31673,40.46634],[-122.31438,40.46838],[-122.32076,40.47097],[-122.32568,40.46695],[-122.32128,40.46394],[-122.32429,40.46138],[-122.32082,40.45885],[-122.31883,40.45919],[-122.31729,40.45763],[-122.32642,40.44976]]]},"properties":{"GEOID":"0602042","NAME":"Anderson city","BASENAME":"Anderson","STATE":"06","PLACE":"02042"}},{"type":"Feature","geometry":{"type":"Polygon","coordinates":[[[-122.41133,40.66743],[-122.41123,40.66572],[-122.39407,40.66572],[-122.39249,40.65105],[-122.35493,40.65108],[-122.35503,40.65834],[-122.34543,40.65837],[-122.34556,40.68017],[-122.34825,40.68026],[-122.34432,40.69415],[-122.33699,40.70619],[-122.3553,40.70593],[-122.35531,40.69523],[-122.38986,40.69535],[-122.39346,40.70975],[-122.41107,40.70946],[-122.41133,40.66743]]]},"properties":{"GEOID":"0671225","NAME":"Shasta Lake city","BASENAME":"Shasta Lake","STATE":"06","PLACE":"71225"}},{"type":"Feature","geometry":{"type":"MultiPolygon","coordinates":[[[[-122.45059,40.58653],[-122.45054,40.58552],[-122.43742,40.58259],[-122.43737,40.57833],[-122.43899,40.57894],[-122.43836,40.5669],[-122.43405,40.56677],[-122.43454,40.55953],[-122.43387,40.55951],[-122.43488,40.55861],[-122.43453,40.55623],[-122.43094,40.55644],[-122.43095,40.55579],[-122.42985,40.55578],[-122.42993,40.55268],[-122.42517,40.55251],[-122.42547,40.54562],[-122.43244,40.54558],[-122.43248,40.54458],[-122.43651,40.5444],[-122.43645,40.54561],[-122.44572,40.54586],[-122.44651,40.52841],[-122.44149,40.52868],[-122.43664,40.52425],[-122.43957,40.52317],[-122.43947,40.52206],[-122.44082,40.52019],[-122.43977,40.5176],[-122.42722,40.51736],[-122.42642,40.52985],[-122.41735,40.52944],[-122.41229,40.53006],[-122.40408,40.53289],[-122.39441,40.53177],[-122.39456,40.53257],[-122.39332,40.53246],[-122.39239,40.53093],[-122.38955,40.53017],[-122.39104,40.52607],[-122.39016,40.52337],[-122.39049,40.51945],[-122.39234,40.51954],[-122.39135,40.51777],[-122.39194,40.51452],[-122.39627,40.51398],[-122.39667,40.51501],[-122.39796,40.51547],[-122.40537,40.51573],[-122.40823,40.51477],[-122.40833,40.51409],[-122.41147,40.51371],[-122.41276,40.5142],[-122.41788,40.51329],[-122.41971,40.5144],[-122.42333,40.51493],[-122.4275,40.51356],[-122.42815,40.50248],[-122.43779,40.50124],[-122.4385,40.49469],[-122.43688,40.49525],[-122.43219,40.49484],[-122.42952,40.49703],[-122.42661,40.49714],[-122.42596,40.49859],[-122.41827,40.50076],[-122.41193,40.49961],[-122.40968,40.50289],[-122.40519,40.5029],[-122.40591,40.50657],[-122.39279,40.50751],[-122.39155,40.50822],[-122.39292,40.50932],[-122.39438,40.51257],[-122.38863,40.51425],[-122.38724,40.51662],[-122.38633,40.51662],[-122.38349,40.51505],[-122.38313,40.51294],[-122.38104,40.51238],[-122.37946,40.50493],[-122.38022,40.50593],[-122.38232,40.50642],[-122.38537,40.50562],[-122.38928,40.5064],[-122.39394,40.50535],[-122.3851,40.49707],[-122.38019,40.50371],[-122.37825,40.50508],[-122.37481,40.50122],[-122.36214,40.49258],[-122.35983,40.4919],[-122.35855,40.49091],[-122.35891,40.49038],[-122.3572,40.49179],[-122.35617,40.49106],[-122.34935,40.49598],[-122.3526,40.49634],[-122.35856,40.49961],[-122.36368,40.50386],[-122.3646,40.50589],[-122.3635,40.50837],[-122.35864,40.5133],[-122.35742,40.51642],[-122.35786,40.51992],[-122.36022,40.52567],[-122.35967,40.52866],[-122.35898,40.53042],[-122.35366,40.5317],[-122.35366,40.53463],[-122.34942,40.53463],[-122.34971,40.53682],[-122.34812,40.53657],[-122.34816,40.53789],[-122.34337,40.53617],[-122.34338,40.54574],[-122.34111,40.54576],[-122.3398,40.54559],[-122.33877,40.54079],[-122.33979,40.53818],[-122.34214,40.5373],[-122.34213,40.53471],[-122.34096,40.53471],[-122.34092,40.53105],[-122.33738,40.53104],[-122.33741,40.53471],[-122.33557,40.53472],[-122.32839,40.53109],[-122.32419,40.53106],[-122.32409,40.52376],[-122.31971,40.52221],[-122.31561,40.51646],[-122.31457,40.51646],[-122.31456,40.51836],[-122.31337,40.51836],[-122.31338,40.52019],[-122.30503,40.5202],[-122.30503,40.51292],[-122.31401,40.51294],[-122.31531,40.5086],[-122.31454,40.50829],[-122.31459,40.50564],[-122.31657,40.50563],[-122.3145,40.50265],[-122.31482,40.50018],[-122.31233,40.50019],[-122.31204,40.49855],[-122.3056,40.49841],[-122.30558,40.49125],[-122.30268,40.49124],[-122.3026,40.48759],[-122.3012,40.48755],[-122.30119,40.48405],[-122.29827,40.48406],[-122.29875,40.4863],[-122.29767,40.48706],[-122.29333,40.48713],[-122.29361,40.48908],[-122.29557,40.49119],[-122.28427,40.49124],[-122.28428,40.49332],[-122.27668,40.49335],[-122.27667,40.49126],[-122.27429,40.49128],[-122.27447,40.49303],[-122.28115,40.49849],[-122.27662,40.49851],[-122.27658,40.54035],[-122.28135,40.54031],[-122.28135,40.5385],[-122.29088,40.53843],[-122.29085,40.53479],[-122.29561,40.5348],[-122.29562,40.5367],[-122.29914,40.53668],[-122.29915,40.53732],[-122.30276,40.5373],[-122.30272,40.53475],[-122.30819,40.53473],[-122.30756,40.54127],[-122.31464,40.54123],[-122.31484,40.54921],[-122.2957,40.5493],[-122.29578,40.55671],[-122.29094,40.5567],[-122.29099,40.56316],[-122.29897,40.5639],[-122.29969,40.56991],[-122.30038,40.571],[-122.30295,40.571],[-122.30294,40.5746],[-122.30531,40.57463],[-122.30531,40.57813],[-122.30605,40.57951],[-122.31368,40.58015],[-122.31363,40.57835],[-122.31482,40.57835],[-122.31478,40.57279],[-122.31361,40.57279],[-122.31359,40.57185],[-122.3148,40.57104],[-122.32076,40.57117],[-122.32076,40.57266],[-122.32017,40.57266],[-122.32078,40.57836],[-122.31838,40.57836],[-122.31846,40.58197],[-122.3149,40.58196],[-122.31537,40.60629],[-122.31646,40.60995],[-122.31784,40.61011],[-122.31655,40.61028],[-122.31678,40.6119],[-122.31789,40.61462],[-122.3204,40.61461],[-122.32053,40.61959],[-122.33005,40.61797],[-122.33015,40.62185],[-122.32352,40.62185],[-122.32528,40.62547],[-122.32867,40.62464],[-122.33026,40.62507],[-122.33036,40.62918],[-122.33523,40.6292],[-122.33545,40.63636],[-122.34516,40.63672],[-122.34513,40.6476],[-122.34047,40.64746],[-122.34051,40.64915],[-122.33913,40.64917],[-122.33904,40.64979],[-122.33998,40.65134],[-122.33441,40.65364],[-122.33011,40.65672],[-122.32816,40.66346],[-122.32469,40.66623],[-122.32181,40.67482],[-122.31814,40.68065],[-122.32903,40.68059],[-122.33099,40.67315],[-122.33587,40.6731],[-122.33592,40.66372],[-122.34276,40.66367],[-122.34543,40.66492],[-122.34543,40.65837],[-122.35503,40.65834],[-122.35493,40.65108],[-122.38421,40.65094],[-122.38359,40.64016],[-122.37983,40.63978],[-122.37981,40.6387],[-122.37862,40.6388],[-122.3786,40.63769],[-122.375,40.63911],[-122.37514,40.64543],[-122.36918,40.64548],[-122.36904,40.64007],[-122.36607,40.64008],[-122.36883,40.63283],[-122.37492,40.63275],[-122.37502,40.63637],[-122.3923,40.63573],[-122.39261,40.62282],[-122.39683,40.62854],[-122.39844,40.63257],[-122.3985,40.63556],[-122.40654,40.63549],[-122.40674,40.63938],[-122.40759,40.64039],[-122.40914,40.63927],[-122.41141,40.63919],[-122.41135,40.63767],[-122.41608,40.63575],[-122.41574,40.63428],[-122.41435,40.63476],[-122.41438,40.6337],[-122.41306,40.63362],[-122.41478,40.63331],[-122.41481,40.63194],[-122.41606,40.63197],[-122.41608,40.63112],[-122.41846,40.63117],[-122.41848,40.63032],[-122.41609,40.63023],[-122.41621,40.62468],[-122.42103,40.62477],[-122.42105,40.62387],[-122.41984,40.62384],[-122.41986,40.62293],[-122.41623,40.62285],[-122.41624,40.62198],[-122.41385,40.62194],[-122.41386,40.62107],[-122.4114,40.62108],[-122.41152,40.61403],[-122.42609,40.61424],[-122.42608,40.61059],[-122.43092,40.61065],[-122.43094,40.60707],[-122.44866,40.60701],[-122.44782,40.60055],[-122.44554,40.60044],[-122.44474,40.59903],[-122.43748,40.59307],[-122.44615,40.59098],[-122.44818,40.58993],[-122.45059,40.58653]],[[-122.37565,40.55232],[-122.37325,40.55568],[-122.37416,40.56097],[-122.3716,40.56073],[-122.37168,40.56131],[-122.36963,40.5615],[-122.36964,40.56374],[-122.36545,40.56377],[-122.36542,40.5624],[-122.36432,40.56159],[-122.36527,40.56148],[-122.36453,40.55878],[-122.36254,40.55881],[-122.36256,40.55816],[-122.36432,40.55803],[-122.36395,40.5563],[-122.36509,40.55011],[-122.36881,40.54971],[-122.36903,40.55135],[-122.37509,40.55143],[-122.37565,40.55232]]],[[[-122.29329,40.47377],[-122.29312,40.47237],[-122.28228,40.4696],[-122.27712,40.46897],[-122.27417,40.46998],[-122.27421,40.47593],[-122.27732,40.4766],[-122.28729,40.47659],[-122.28909,40.47896],[-122.29322,40.47893],[-122.29275,40.4748],[-122.29329,40.47377]]]]},"properties":{"GEOID":"0659920","NAME":"Redding city","BASENAME":"Redding","STATE":"06","PLACE":"59920"}}]}