{"type":"FeatureCollection","features":[{"type":"Feature","geometry":{"type":"Polygon","coordinates":[[[-121.48144,41.95849],[-121.48093,41.95364],[-121.48143,41.95114],[-121.47665,41.95103],[-121.47653,41.94757],[-121.46466,41.94764],[-121.47108,41.95366],[-121.47232,41.95365],[-121.47235,41.95538],[-121.47869,41.9613],[-121.48133,41.96127],[-121.48144,41.95849]]]},"properties":{"GEOID":"0680686","NAME":"Tulelake city","BASENAME":"Tulelake","STATE":"06","PLACE":"80686"}},{"type":"Feature","geometry":{"type":"Polygon","coordinates":[[[-122.85304,41.60545],[-122.85288,41.6038],[-122.85016,41.60105],[-122.85148,41.59955],[-122.84879,41.59888],[-122.84584,41.59996],[-122.84689,41.60114],[-122.84592,41.60234],[-122.8447,41.6013],[-122.83614,41.60455],[-122.83627,41.60744],[-122.83491,41.60806],[-122.83632,41.60806],[-122.83663,41.61233],[-122.83826,41.61284],[-122.8379,41.61336],[-122.83394,41.61263],[-122.8339,41.61176],[-122.82942,41.61026],[-122.82924,41.61429],[-122.83522,41.61422],[-122.83492,41.6152],[-122.83654,41.61532],[-122.82974,41.622],[-122.83253,41.62257],[-122.8333,41.62198],[-122.84037,41.61181],[-122.8439,41.6127],[-122.84564,41.61005],[-122.84354,41.60941],[-122.84632,41.60718],[-122.85131,41.60534],[-122.85304,41.60545]]]},"properties":{"GEOID":"0625128","NAME":"Fort Jones city","BASENAME":"Fort Jones","STATE":"06","PLACE":"25128"}},{"type":"Feature","geometry":{"type":"Polygon","coordinates":[[[-122.90834,41.45394],[-122.90847,41.45259],[-122.90605,41.45266],[-122.90598,41.45402],[-122.90325,41.45378],[-122.90317,41.45271],[-122.89877,41.45259],[-122.89777,41.45417],[-122.89212,41.45265],[-122.88916,41.45463],[-122.8883,41.45327],[-122.88703,41.45454],[-122.88355,41.45366],[-122.88077,41.45622],[-122.88084,41.45729],[-122.88295,41.45697],[-122.88429,41.46039],[-122.887,41.45976],[-122.88764,41.46102],[-122.88704,41.46239],[-122.88772,41.46245],[-122.88901,41.46051],[-122.88788,41.46242],[-122.88871,41.46255],[-122.88863,41.46373],[-122.8903,41.46379],[-122.89099,41.46513],[-122.88874,41.46618],[-122.88879,41.46687],[-122.89485,41.46493],[-122.89401,41.46255],[-122.89603,41.46286],[-122.89712,41.46415],[-122.89754,41.46342],[-122.90321,41.46349],[-122.90346,41.45883],[-122.904,41.45894],[-122.90342,41.45736],[-122.90637,41.45744],[-122.90626,41.45402],[-122.90834,41.45394]]]},"properties":{"GEOID":"0622972","NAME":"Etna city","BASENAME":"Etna","STATE":"06","PLACE":"22972"}},{"type":"Feature","geometry":{"type":"Polygon","coordinates":[[[-121.93067,41.96688],[-121.93062,41.95651],[-121.92643,41.9565],[-121.92631,41.9588],[-121.92126,41.95882],[-121.92129,41.96011],[-121.91149,41.95989],[-121.9115,41.9715],[-121.91317,41.96911],[-121.91236,41.97105],[-121.91249,41.97454],[-121.91337,41.97453],[-121.91333,41.97157],[-121.92134,41.9716],[-121.92131,41.96705],[-121.93067,41.96688]]]},"properties":{"GEOID":"0619584","NAME":"Dorris city","BASENAME":"Dorris","STATE":"06","PLACE":"19584"}},{"type":"Feature","geometry":{"type":"Polygon","coordinates":[[[-122.28505,41.23471],[-122.28504,41.22926],[-122.28019,41.22936],[-122.28049,41.22066],[-122.2758,41.22069],[-122.27576,41.21222],[-122.27713,41.21221],[-122.2772,41.2098],[-122.27575,41.20982],[-122.27573,41.20775],[-122.27761,41.20438],[-122.27619,41.20332],[-122.27578,41.2038],[-122.27491,41.20234],[-122.26917,41.20233],[-122.26853,41.21333],[-122.27067,41.21587],[-122.27076,41.22254],[-122.27311,41.22253],[-122.27313,41.22844],[-122.27072,41.22843],[-122.27071,41.22763],[-122.266,41.22761],[-122.26601,41.2312],[-122.27078,41.23117],[-122.27074,41.23479],[-122.25577,41.2357],[-122.25596,41.25047],[-122.25789,41.25045],[-122.26457,41.25532],[-122.26457,41.25793],[-122.26594,41.25792],[-122.26593,41.26185],[-122.26894,41.26187],[-122.26908,41.26908],[-122.27622,41.26912],[-122.27619,41.26815],[-122.26968,41.25716],[-122.25923,41.25101],[-122.25786,41.24914],[-122.25761,41.2465],[-122.26025,41.24114],[-122.26225,41.23924],[-122.26106,41.23926],[-122.26596,41.23648],[-122.26594,41.23849],[-122.27547,41.23836],[-122.27542,41.23468],[-122.28505,41.23471]]]},"properties":{"GEOID":"0620242","NAME":"Dunsmuir city","BASENAME":"Dunsmuir","STATE":"06","PLACE":"20242"}},{"type":"Feature","geometry":{"type":"Polygon","coordinates":[[[-122.55218,41.73212],[-122.55222,41.72996],[-122.55025,41.72996],[-122.55033,41.72749],[-122.54613,41.72742],[-122.5462,41.72571],[-122.54426,41.72578],[-122.54372,41.72491],[-122.5415,41.72495],[-122.54194,41.72646],[-122.53487,41.72662],[-122.53512,41.71664],[-122.51961,41.71633],[-122.51956,41.72],[-122.51572,41.71996],[-122.51556,41.73044],[-122.51387,41.72971],[-122.51382,41.72886],[-122.51265,41.72941],[-122.51047,41.72777],[-122.50916,41.72944],[-122.50917,41.73069],[-122.50974,41.73007],[-122.51048,41.7313],[-122.51549,41.73182],[-122.51549,41.73455],[-122.55129,41.73569],[-122.55133,41.73213],[-122.55218,41.73212]]]},"properties":{"GEOID":"0648690","NAME":"Montague city","BASENAME":"Montague","STATE":"06","PLACE":"48690"}},{"type":"Feature","geometry":{"type":"Polygon","coordinates":[[[-122.3478,41.34856],[-122.34232,41.34528],[-122.33891,41.33912],[-122.33207,41.33203],[-122.32537,41.31998],[-122.32534,41.315],[-122.32709,41.31519],[-122.32717,41.31072],[-122.32535,41.31066],[-122.32542,41.30959],[-122.32231,41.31151],[-122.31996,41.31016],[-122.31656,41.30397],[-122.31819,41.30319],[-122.31602,41.30113],[-122.31727,41.30048],[-122.31485,41.29867],[-122.3113,41.30055],[-122.31116,41.30227],[-122.30907,41.30073],[-122.30845,41.29824],[-122.31085,41.29357],[-122.3077,41.28868],[-122.30718,41.29127],[-122.30011,41.29117],[-122.30012,41.29794],[-122.29449,41.29815],[-122.29662,41.30019],[-122.30236,41.30009],[-122.3026,41.30243],[-122.30111,41.30238],[-122.30302,41.30422],[-122.30305,41.30964],[-122.30625,41.3095],[-122.30622,41.31034],[-122.30329,41.31166],[-122.2983,41.31157],[-122.29834,41.31076],[-122.29694,41.31076],[-122.29635,41.31221],[-122.29799,41.31223],[-122.29816,41.31979],[-122.28724,41.31952],[-122.28725,41.32783],[-122.30622,41.32711],[-122.30614,41.32343],[-122.32028,41.32316],[-122.32058,41.3267],[-122.3193,41.32674],[-122.3193,41.32817],[-122.32065,41.32818],[-122.32064,41.33411],[-122.32562,41.33414],[-122.32559,41.34897],[-122.3478,41.34856]]]},"properties":{"GEOID":"0649852","NAME":"Mount Shasta city","BASENAME":"Mount Shasta","STATE":"06","PLACE":"49852"}},{"type":"Feature","geometry":{"type":"Polygon","coordinates":[[[-122.40131,41.40769],[-122.40122,41.40077],[-122.38924,41.40075],[-122.38949,41.39783],[-122.39334,41.39806],[-122.39339,41.39221],[-122.38908,41.39228],[-122.3832,41.39362],[-122.3832,41.3944],[-122.37903,41.39474],[-122.37645,41.39219],[-122.37835,41.39472],[-122.37732,41.39498],[-122.37495,41.39077],[-122.37476,41.38283],[-122.36262,41.38971],[-122.35428,41.40696],[-122.37303,41.40718],[-122.37321,41.4043],[-122.37763,41.40525],[-122.37721,41.42569],[-122.37274,41.42565],[-122.37257,41.42804],[-122.37131,41.42887],[-122.37295,41.42967],[-122.37286,41.43117],[-122.37509,41.4319],[-122.37653,41.43384],[-122.3794,41.43177],[-122.38304,41.43112],[-122.3837,41.42974],[-122.38786,41.42975],[-122.388,41.43086],[-122.38284,41.4359],[-122.37792,41.43566],[-122.37167,41.43778],[-122.372,41.44371],[-122.39089,41.44336],[-122.391,41.43168],[-122.39307,41.43193],[-122.39369,41.43291],[-122.39708,41.43211],[-122.40109,41.43291],[-122.4009,41.42175],[-122.39654,41.42172],[-122.39646,41.41482],[-122.3979,41.4148],[-122.39785,41.4083],[-122.40126,41.40831],[-122.40131,41.40769]]]},"properties":{"GEOID":"0683850","NAME":"Weed city","BASENAME":"Weed","STATE":"06","PLACE":"83850"}},{"type":"Feature","geometry":{"type":"Polygon","coordinates":[[[-122.67054,41.74319],[-122.67057,41.73575],[-122.66563,41.73581],[-122.66568,41.73767],[-122.65928,41.73778],[-122.65637,41.73659],[-122.65632,41.73246],[-122.6579,41.73335],[-122.6584,41.73291],[-122.65616,41.73093],[-122.65612,41.72848],[-122.6658,41.72818],[-122.66556,41.72461],[-122.66089,41.72472],[-122.66037,41.71747],[-122.65558,41.71752],[-122.65565,41.71353],[-122.66119,41.71519],[-122.66266,41.71258],[-122.65574,41.71076],[-122.65515,41.70878],[-122.65967,41.70705],[-122.65978,41.70179],[-122.65883,41.69786],[-122.65287,41.69827],[-122.65129,41.6958],[-122.65219,41.69408],[-122.65578,41.69304],[-122.65572,41.69112],[-122.65113,41.69144],[-122.65102,41.68441],[-122.64172,41.68472],[-122.6414,41.68784],[-122.63778,41.68904],[-122.64225,41.7004],[-122.63981,41.70041],[-122.64046,41.70216],[-122.63698,41.70314],[-122.63716,41.70443],[-122.63267,41.705],[-122.63227,41.70321],[-122.63023,41.70319],[-122.63058,41.70583],[-122.62438,41.70593],[-122.62509,41.70239],[-122.62214,41.6986],[-122.61729,41.6985],[-122.61741,41.70033],[-122.61258,41.7003],[-122.61266,41.70228],[-122.61745,41.70222],[-122.61781,41.70604],[-122.61453,41.70642],[-122.61567,41.70697],[-122.61575,41.7098],[-122.6151,41.71019],[-122.61573,41.71176],[-122.61519,41.71203],[-122.63156,41.71522],[-122.63075,41.71577],[-122.63075,41.71702],[-122.62795,41.71706],[-122.62789,41.72416],[-122.62266,41.72402],[-122.62264,41.72774],[-122.61296,41.72762],[-122.61312,41.73896],[-122.60352,41.73778],[-122.60373,41.73684],[-122.60138,41.73288],[-122.60169,41.72762],[-122.59312,41.72837],[-122.59294,41.72896],[-122.5919,41.72853],[-122.5902,41.73198],[-122.5877,41.73297],[-122.59323,41.73516],[-122.59235,41.73614],[-122.59297,41.73697],[-122.59293,41.74624],[-122.60346,41.74599],[-122.60322,41.75633],[-122.59631,41.76022],[-122.58949,41.76286],[-122.58626,41.76771],[-122.59253,41.77121],[-122.59342,41.77298],[-122.59334,41.76971],[-122.59835,41.76965],[-122.61353,41.75746],[-122.62581,41.75712],[-122.62889,41.75218],[-122.63156,41.7451],[-122.63264,41.74515],[-122.63958,41.75032],[-122.64023,41.74954],[-122.64508,41.74967],[-122.64434,41.7432],[-122.64527,41.74416],[-122.64765,41.74426],[-122.64812,41.7432],[-122.67054,41.74319]]]},"properties":{"GEOID":"0686944","NAME":"Yreka city","BASENAME":"Yreka","STATE":"06","PLACE":"86944"}}]}