{"type":"FeatureCollection","features":[{"type":"Feature","geometry":{"type":"MultiPolygon","coordinates":[[[[-122.05449,38.23627],[-122.04526,38.23586],[-122.04573,38.23503],[-122.0428,38.23472],[-122.04219,38.23007],[-122.03807,38.23048],[-122.03848,38.23221],[-122.03671,38.23268],[-122.03712,38.23539],[-122.03201,38.23386],[-122.02958,38.23558],[-122.02965,38.24322],[-122.02484,38.2427],[-122.02479,38.24171],[-122.02028,38.2419],[-122.02028,38.24114],[-122.00667,38.24074],[-122.00676,38.23793],[-122.00371,38.23881],[-121.99837,38.23646],[-121.99217,38.23703],[-121.99129,38.2363],[-121.98827,38.23618],[-121.98809,38.24346],[-121.97909,38.24336],[-121.97911,38.24979],[-121.98247,38.25304],[-121.98185,38.25346],[-121.98193,38.2618],[-121.98017,38.26513],[-121.98808,38.26488],[-121.98823,38.25301],[-122.00664,38.25332],[-122.00673,38.26264],[-122.0033,38.26238],[-122.00326,38.26501],[-122.00529,38.26503],[-122.03411,38.24915],[-122.04045,38.24399],[-122.04422,38.24289],[-122.04427,38.23896],[-122.04651,38.23661],[-122.05449,38.23627]]],[[[-121.97442,38.25016],[-121.97453,38.24334],[-121.96995,38.2433],[-121.96991,38.25052],[-121.97442,38.25016]]]]},"properties":{"GEOID":"0675630","NAME":"Suisun City city","BASENAME":"Suisun City","STATE":"06","PLACE":"75630"}},{"type":"Feature","geometry":{"type":"Polygon","coordinates":[[[-121.73247,38.18328],[-121.72448,38.18243],[-121.71091,38.17182],[-121.72125,38.16377],[-121.70332,38.1496],[-121.69629,38.15041],[-121.69457,38.14854],[-121.6942,38.14931],[-121.69587,38.144],[-121.68972,38.14256],[-121.6877,38.14683],[-121.68705,38.15187],[-121.68587,38.15459],[-121.68565,38.15964],[-121.67915,38.16385],[-121.67163,38.17248],[-121.66835,38.17503],[-121.67103,38.17684],[-121.68414,38.17109],[-121.68943,38.17532],[-121.6862,38.1777],[-121.68622,38.18152],[-121.68505,38.18289],[-121.68212,38.18052],[-121.68311,38.19703],[-121.69334,38.19666],[-121.69742,38.19502],[-121.70454,38.19471],[-121.70467,38.19789],[-121.70725,38.19896],[-121.70962,38.19848],[-121.70848,38.19505],[-121.71371,38.1948],[-121.71373,38.20507],[-121.72298,38.20501],[-121.72301,38.19782],[-121.73225,38.19789],[-121.73247,38.18328]]]},"properties":{"GEOID":"0660984","NAME":"Rio Vista city","BASENAME":"Rio Vista","STATE":"06","PLACE":"60984"}},{"type":"Feature","geometry":{"type":"MultiPolygon","coordinates":[[[[-121.8682,38.43862],[-121.85024,38.43855],[-121.85022,38.43627],[-121.84108,38.43616],[-121.84111,38.43298],[-121.83666,38.43292],[-121.84116,38.42774],[-121.84117,38.42604],[-121.83638,38.426],[-121.83636,38.4239],[-121.83194,38.42388],[-121.83176,38.43138],[-121.80873,38.43095],[-121.80871,38.4383],[-121.81319,38.43836],[-121.81334,38.43914],[-121.8133,38.44359],[-121.81146,38.44358],[-121.81149,38.44545],[-121.81036,38.44545],[-121.81028,38.44637],[-121.8132,38.44643],[-121.81317,38.45271],[-121.81841,38.4527],[-121.81504,38.45648],[-121.81213,38.45674],[-121.81174,38.45567],[-121.81014,38.45575],[-121.81019,38.45967],[-121.81218,38.46002],[-121.80396,38.46918],[-121.80387,38.48428],[-121.79829,38.48426],[-121.79829,38.48879],[-121.80386,38.48901],[-121.81415,38.48106],[-121.82023,38.4818],[-121.8202,38.47964],[-121.82231,38.47929],[-121.82233,38.47518],[-121.82525,38.47202],[-121.8372,38.4627],[-121.84092,38.46129],[-121.84092,38.45981],[-121.8682,38.43862]]],[[[-121.8045,38.38754],[-121.79987,38.38747],[-121.7998,38.38374],[-121.79532,38.38369],[-121.79534,38.3801],[-121.78624,38.38006],[-121.78622,38.38735],[-121.79544,38.38742],[-121.79567,38.39099],[-121.80448,38.39105],[-121.8045,38.38754]]],[[[-121.81363,38.39836],[-121.81353,38.39121],[-121.80448,38.39105],[-121.80445,38.39841],[-121.81363,38.39836]]]]},"properties":{"GEOID":"0619402","NAME":"Dixon city","BASENAME":"Dixon","STATE":"06","PLACE":"19402"}},{"type":"Feature","geometry":{"type":"Polygon","coordinates":[[[-122.19957,38.08299],[-122.1995,38.07631],[-122.19642,38.07057],[-122.19356,38.06171],[-122.19593,38.05974],[-122.19307,38.05844],[-122.18717,38.06612],[-122.18323,38.06433],[-122.18384,38.0635],[-122.17982,38.06169],[-122.1804,38.06089],[-122.17621,38.05902],[-122.1768,38.05817],[-122.17483,38.05728],[-122.17541,38.05649],[-122.17132,38.05465],[-122.17257,38.05294],[-122.17035,38.05204],[-122.17097,38.0512],[-122.16892,38.05027],[-122.16948,38.04953],[-122.16745,38.04857],[-122.16801,38.04779],[-122.16602,38.04681],[-122.16878,38.04315],[-122.16656,38.04212],[-122.16592,38.04295],[-122.16421,38.04214],[-122.16357,38.04301],[-122.16121,38.04194],[-122.16061,38.04276],[-122.15588,38.04178],[-122.15527,38.04261],[-122.14851,38.04084],[-122.14736,38.04137],[-122.14883,38.03913],[-122.13871,38.03973],[-122.12784,38.04522],[-122.11714,38.05928],[-122.11637,38.06116],[-122.11943,38.06388],[-122.12166,38.06783],[-122.10678,38.0842],[-122.10376,38.09389],[-122.10699,38.09237],[-122.11181,38.08576],[-122.1142,38.08694],[-122.11342,38.09025],[-122.11664,38.08973],[-122.11692,38.08755],[-122.12212,38.09004],[-122.12947,38.09131],[-122.12872,38.09298],[-122.13087,38.09619],[-122.13667,38.10047],[-122.13327,38.10449],[-122.13991,38.10938],[-122.13984,38.10534],[-122.14154,38.10364],[-122.13977,38.10231],[-122.14556,38.09579],[-122.1527,38.0984],[-122.16663,38.10051],[-122.17156,38.09068],[-122.17263,38.09114],[-122.17226,38.09527],[-122.18118,38.09929],[-122.19307,38.08194],[-122.19395,38.08389],[-122.195,38.08247],[-122.19824,38.08382],[-122.19957,38.08299]]]},"properties":{"GEOID":"0605290","NAME":"Benicia city","BASENAME":"Benicia","STATE":"06","PLACE":"05290"}},{"type":"Feature","geometry":{"type":"MultiPolygon","coordinates":[[[[-122.38669,38.12351],[-122.34745,38.07326],[-122.27838,38.06142],[-122.26535,38.05992],[-122.24365,38.0639],[-122.24355,38.07906],[-122.24121,38.07787],[-122.23906,38.07513],[-122.23976,38.07309],[-122.23878,38.07301],[-122.23507,38.06963],[-122.23141,38.06838],[-122.22942,38.06591],[-122.2249,38.06487],[-122.21447,38.06605],[-122.20978,38.06567],[-122.20908,38.067],[-122.20647,38.06795],[-122.20334,38.06528],[-122.20333,38.06406],[-122.20118,38.06449],[-122.20134,38.06265],[-122.20049,38.06145],[-122.19518,38.0604],[-122.19356,38.06171],[-122.19642,38.07057],[-122.1995,38.07631],[-122.19957,38.08299],[-122.19822,38.08391],[-122.19207,38.08337],[-122.17672,38.10569],[-122.18587,38.10564],[-122.18738,38.11444],[-122.18966,38.11506],[-122.18913,38.11669],[-122.18767,38.11627],[-122.18795,38.12255],[-122.16578,38.13274],[-122.16948,38.14209],[-122.16858,38.14246],[-122.17348,38.16939],[-122.19419,38.16142],[-122.1961,38.16284],[-122.19883,38.15933],[-122.19748,38.15687],[-122.19546,38.1554],[-122.19567,38.15316],[-122.19338,38.15028],[-122.19287,38.14558],[-122.19322,38.14449],[-122.197,38.1426],[-122.19777,38.14325],[-122.19853,38.14245],[-122.19995,38.14373],[-122.20596,38.14592],[-122.20945,38.14997],[-122.21378,38.15311],[-122.21363,38.15498],[-122.28921,38.15522],[-122.29009,38.15437],[-122.2893,38.15324],[-122.27691,38.15059],[-122.27176,38.14801],[-122.26634,38.14271],[-122.26669,38.1409],[-122.25601,38.1409],[-122.25949,38.13907],[-122.26807,38.13907],[-122.2684,38.13732],[-122.2666,38.13738],[-122.2666,38.13462],[-122.26545,38.13316],[-122.26228,38.13221],[-122.26319,38.13125],[-122.26112,38.13065],[-122.25606,38.13175],[-122.25579,38.12854],[-122.26221,38.12869],[-122.26418,38.1258],[-122.26769,38.12721],[-122.26887,38.12618],[-122.27522,38.12413],[-122.2764,38.12135],[-122.276,38.12029],[-122.27106,38.11354],[-122.27974,38.11315],[-122.28283,38.11854],[-122.28476,38.11957],[-122.28845,38.11845],[-122.28954,38.12053],[-122.29492,38.12203],[-122.295,38.11742],[-122.29315,38.1175],[-122.29301,38.11317],[-122.31309,38.11333],[-122.32548,38.12035],[-122.3442,38.12865],[-122.38669,38.12351]],[[-122.24118,38.09527],[-122.23807,38.09699],[-122.23043,38.09529],[-122.22786,38.0943],[-122.22956,38.09435],[-122.23015,38.09154],[-122.22122,38.08909],[-122.21892,38.09222],[-122.21882,38.09369],[-122.21754,38.09265],[-122.21638,38.09384],[-122.21879,38.09442],[-122.2188,38.09672],[-122.21336,38.09669],[-122.21337,38.09489],[-122.21164,38.0948],[-122.21171,38.09063],[-122.21376,38.08791],[-122.21162,38.08691],[-122.21214,38.08575],[-122.2104,38.0854],[-122.21562,38.0793],[-122.22164,38.08008],[-122.22065,38.08177],[-122.22026,38.08605],[-122.22262,38.08728],[-122.22141,38.08893],[-122.22881,38.09017],[-122.23202,38.08928],[-122.23299,38.09165],[-122.23522,38.09121],[-122.23623,38.09193],[-122.23459,38.09231],[-122.2349,38.09337],[-122.24011,38.0941],[-122.24118,38.09527]],[[-122.21112,38.10605],[-122.211,38.10814],[-122.21009,38.10812],[-122.21011,38.10607],[-122.21112,38.10605]]],[[[-122.20247,38.16883],[-122.2015,38.16979],[-122.20211,38.16854],[-122.19872,38.16849],[-122.19467,38.17249],[-122.19557,38.17323],[-122.20036,38.17025],[-122.20146,38.17027],[-122.20247,38.16883]]]]},"properties":{"GEOID":"0681666","NAME":"Vallejo city","BASENAME":"Vallejo","STATE":"06","PLACE":"81666"}},{"type":"Feature","geometry":{"type":"MultiPolygon","coordinates":[[[[-122.03267,38.31481],[-122.03291,38.31429],[-122.02821,38.3134],[-122.02538,38.3136],[-122.02451,38.31189],[-122.01858,38.30883],[-122.00026,38.30828],[-121.99739,38.30864],[-121.99728,38.31458],[-121.99903,38.31575],[-121.9432,38.31569],[-121.94288,38.31328],[-121.9429,38.31564],[-121.94041,38.31564],[-121.91569,38.34388],[-121.91225,38.34881],[-121.91334,38.34966],[-121.92038,38.35057],[-121.92034,38.35535],[-121.92459,38.35533],[-121.92479,38.35892],[-121.93403,38.35876],[-121.93387,38.37314],[-121.93077,38.37322],[-121.93075,38.37564],[-121.93386,38.37559],[-121.9338,38.37977],[-121.93133,38.38046],[-121.93072,38.37977],[-121.93079,38.38768],[-121.93262,38.3878],[-121.9277,38.39173],[-121.92771,38.39048],[-121.92471,38.39051],[-121.9247,38.39284],[-121.92552,38.39348],[-121.92288,38.39525],[-121.90981,38.39541],[-121.90985,38.40249],[-121.91263,38.40251],[-121.91368,38.40337],[-121.90581,38.40949],[-121.90578,38.40247],[-121.90365,38.40247],[-121.90363,38.4088],[-121.90241,38.41198],[-121.89656,38.41556],[-121.89743,38.41747],[-121.89875,38.41685],[-121.91559,38.41699],[-121.91558,38.40976],[-121.90754,38.40976],[-121.91473,38.4042],[-121.91562,38.40491],[-121.9157,38.40292],[-121.92707,38.3939],[-121.9287,38.39518],[-121.93376,38.39514],[-121.93377,38.40231],[-121.92479,38.40244],[-121.92471,38.40956],[-121.93376,38.4096],[-121.93369,38.41701],[-121.95808,38.4171],[-121.95809,38.41583],[-121.95899,38.41581],[-121.95928,38.40968],[-121.96156,38.40066],[-121.96852,38.40068],[-121.96851,38.40265],[-121.97099,38.4027],[-121.97095,38.40409],[-121.97397,38.40412],[-121.97394,38.40485],[-121.98648,38.40517],[-121.98901,38.40451],[-121.98705,38.40118],[-121.9911,38.40118],[-121.99094,38.39673],[-121.9923,38.39562],[-121.99539,38.39523],[-121.9954,38.38776],[-121.99308,38.3844],[-121.99633,38.38419],[-121.99415,38.37812],[-121.98973,38.37636],[-121.98927,38.37521],[-121.99084,38.37473],[-121.98871,38.37526],[-121.98726,38.37379],[-121.98942,38.37281],[-121.99041,38.37411],[-121.99188,38.37384],[-121.99184,38.37299],[-121.9924,38.37393],[-121.99452,38.3729],[-121.9942,38.37224],[-121.98844,38.37155],[-121.98785,38.36954],[-121.99051,38.36908],[-121.99041,38.37024],[-121.99321,38.36998],[-121.9917,38.36898],[-121.99256,38.36846],[-121.99911,38.36897],[-121.99838,38.36963],[-121.99835,38.37268],[-121.99991,38.37271],[-121.99988,38.37631],[-122.00131,38.37631],[-122.00126,38.37919],[-122.00907,38.37944],[-122.00938,38.3719],[-122.01171,38.3719],[-122.01171,38.36908],[-122.014,38.36867],[-122.0118,38.36798],[-122.01181,38.36716],[-122.01937,38.37016],[-122.02019,38.36985],[-122.01908,38.36725],[-122.01912,38.3604],[-122.01795,38.3603],[-122.01893,38.35849],[-122.01776,38.35763],[-122.01652,38.3548],[-122.01352,38.35211],[-122.01722,38.35034],[-122.01604,38.34775],[-122.00869,38.35122],[-122.00666,38.34942],[-122.00669,38.34811],[-122.00384,38.34624],[-122.00393,38.34524],[-122.005,38.34427],[-122.00711,38.34483],[-122.00704,38.3432],[-122.00932,38.34322],[-122.00964,38.34228],[-122.01548,38.3392],[-122.01671,38.34],[-122.01821,38.33773],[-122.02057,38.33721],[-122.01899,38.33654],[-122.01856,38.3344],[-122.02271,38.32783],[-122.02507,38.32605],[-122.02559,38.32347],[-122.03267,38.31481]],[[-121.95649,38.39903],[-121.95448,38.39962],[-121.95448,38.39903],[-121.95649,38.39903]]],[[[-121.90616,38.34079],[-121.90615,38.33722],[-121.89699,38.33717],[-121.89696,38.34353],[-121.90153,38.34356],[-121.90154,38.3466],[-121.90606,38.34723],[-121.90616,38.34079]]],[[[-121.9967,38.37701],[-121.99549,38.3748],[-121.99344,38.37548],[-121.99468,38.3756],[-121.9947,38.37633],[-121.99346,38.37643],[-121.99295,38.37511],[-121.99128,38.37588],[-121.99229,38.37576],[-121.99158,38.37657],[-121.99286,38.3767],[-121.99285,38.3773],[-121.9967,38.37701]]]]},"properties":{"GEOID":"0681554","NAME":"Vacaville city","BASENAME":"Vacaville","STATE":"06","PLACE":"81554"}},{"type":"Feature","geometry":{"type":"Polygon","coordinates":[[[-122.17018,38.18889],[-122.17066,38.18851],[-122.16427,38.19165],[-122.16391,38.19109],[-122.16193,38.19197],[-122.16126,38.19021],[-122.15737,38.18794],[-122.15679,38.18604],[-122.16245,38.18413],[-122.15969,38.1804],[-122.15859,38.1773],[-122.1522,38.17753],[-122.152,38.17944],[-122.14819,38.18121],[-122.14671,38.18548],[-122.14689,38.1776],[-122.15087,38.17755],[-122.15149,38.1759],[-122.15266,38.17589],[-122.15341,38.16502],[-122.14305,38.16489],[-122.1415,38.16418],[-122.13885,38.16021],[-122.1336,38.15844],[-122.13407,38.16076],[-122.12657,38.16326],[-122.11861,38.16083],[-122.11791,38.16116],[-122.11879,38.16211],[-122.1176,38.17324],[-122.12162,38.17669],[-122.12147,38.17857],[-122.13145,38.17864],[-122.13252,38.18054],[-122.13217,38.18368],[-122.13509,38.18517],[-122.13697,38.18852],[-122.13754,38.21397],[-122.13432,38.21456],[-122.1347,38.21506],[-122.13282,38.21589],[-122.13198,38.21491],[-122.13001,38.21586],[-122.12918,38.21406],[-122.13102,38.21357],[-122.13026,38.212],[-122.13085,38.21123],[-122.12971,38.21133],[-122.12926,38.21012],[-122.12986,38.20943],[-122.12704,38.20944],[-122.12824,38.21],[-122.12779,38.21173],[-122.11573,38.21391],[-122.11295,38.21329],[-122.08366,38.22603],[-122.08359,38.21507],[-122.07103,38.21617],[-122.07098,38.22552],[-122.06459,38.22542],[-122.06475,38.22955],[-122.0613,38.22965],[-122.06131,38.23211],[-122.05831,38.23341],[-122.05748,38.23528],[-122.05822,38.23812],[-122.06075,38.23964],[-122.06069,38.24046],[-122.04601,38.24206],[-122.04426,38.24168],[-122.04422,38.24289],[-122.04045,38.24399],[-122.03411,38.24915],[-122.01996,38.25691],[-122.01998,38.25807],[-122.01775,38.25813],[-122.00529,38.26503],[-121.99149,38.26491],[-121.9915,38.26243],[-121.98978,38.26243],[-121.98978,38.26364],[-121.9881,38.26365],[-121.98808,38.26488],[-121.98328,38.26517],[-121.98327,38.26796],[-121.98806,38.26847],[-121.98796,38.27149],[-121.98477,38.27226],[-121.9753,38.27236],[-121.97562,38.25805],[-121.97447,38.25805],[-121.97449,38.25418],[-121.96988,38.25414],[-121.96995,38.2433],[-121.96403,38.24321],[-121.96083,38.24062],[-121.96088,38.2374],[-121.95938,38.23759],[-121.95157,38.24306],[-121.94245,38.24302],[-121.94241,38.24671],[-121.94011,38.24671],[-121.94012,38.24746],[-121.9353,38.25028],[-121.92409,38.25024],[-121.92392,38.25747],[-121.92184,38.25749],[-121.91631,38.26144],[-121.91459,38.26097],[-121.91546,38.26137],[-121.91538,38.26464],[-121.9061,38.2723],[-121.89219,38.2822],[-121.8963,38.28575],[-121.89742,38.28575],[-121.91501,38.2734],[-121.91483,38.27921],[-121.93063,38.27928],[-121.93067,38.28294],[-121.933,38.28297],[-121.93383,38.31271],[-121.93796,38.31071],[-121.93983,38.30846],[-121.94528,38.30852],[-121.94288,38.31328],[-121.95138,38.30915],[-121.9706,38.30909],[-121.97117,38.30509],[-121.97681,38.30509],[-121.9797,38.30358],[-121.97949,38.30236],[-121.98129,38.30235],[-121.98152,38.30151],[-121.98457,38.30038],[-121.98376,38.29952],[-121.98443,38.29849],[-121.98795,38.29764],[-121.9896,38.29798],[-121.99016,38.29698],[-121.98786,38.29573],[-121.9883,38.2935],[-121.99034,38.29256],[-121.99095,38.29137],[-121.99396,38.29055],[-121.99391,38.28922],[-121.99713,38.28756],[-122.00164,38.28844],[-122.00201,38.29047],[-122.00633,38.29006],[-122.00787,38.29175],[-122.00727,38.29389],[-122.01076,38.29465],[-122.0122,38.2972],[-122.01445,38.29697],[-122.01397,38.29998],[-122.01273,38.30103],[-122.01495,38.30167],[-122.0141,38.30289],[-122.01664,38.30384],[-122.01994,38.3068],[-122.02476,38.30814],[-122.02483,38.30887],[-122.03342,38.30889],[-122.03375,38.30146],[-122.04376,38.30263],[-122.05154,38.30074],[-122.0605,38.30259],[-122.06051,38.30124],[-122.06249,38.30124],[-122.0619,38.2918],[-122.06348,38.29512],[-122.06673,38.29794],[-122.08106,38.29793],[-122.08343,38.2955],[-122.09229,38.29394],[-122.09185,38.28657],[-122.088,38.28544],[-122.0909,38.2786],[-122.08254,38.27758],[-122.0826,38.27391],[-122.08189,38.2739],[-122.0831,38.27335],[-122.08298,38.27036],[-122.08002,38.26987],[-122.08023,38.26302],[-122.07833,38.26117],[-122.07836,38.25787],[-122.07529,38.25433],[-122.07275,38.25331],[-122.07258,38.24988],[-122.07048,38.24984],[-122.08299,38.24414],[-122.08711,38.24306],[-122.09609,38.23841],[-122.09501,38.22776],[-122.0938,38.22306],[-122.10781,38.2172],[-122.11015,38.22234],[-122.11178,38.22187],[-122.11325,38.2162],[-122.11683,38.21419],[-122.11896,38.2148],[-122.12097,38.2171],[-122.12207,38.2173],[-122.12243,38.22186],[-122.12376,38.22203],[-122.12192,38.22547],[-122.12311,38.22595],[-122.11828,38.22929],[-122.11315,38.23102],[-122.11309,38.2334],[-122.12025,38.23246],[-122.1215,38.23131],[-122.12565,38.23219],[-122.12702,38.23295],[-122.12449,38.2381],[-122.13352,38.23704],[-122.13378,38.23559],[-122.13525,38.2356],[-122.135,38.2422],[-122.13972,38.24138],[-122.14017,38.24236],[-122.14601,38.24044],[-122.14834,38.23883],[-122.14824,38.23526],[-122.15061,38.23563],[-122.15181,38.23503],[-122.14957,38.23192],[-122.14881,38.22905],[-122.15967,38.22194],[-122.15936,38.22082],[-122.15746,38.22169],[-122.15706,38.21927],[-122.15791,38.21862],[-122.15735,38.2169],[-122.1544,38.21674],[-122.15292,38.21496],[-122.14946,38.2132],[-122.1495,38.21062],[-122.1513,38.20962],[-122.15094,38.20848],[-122.14742,38.21031],[-122.14619,38.20939],[-122.14451,38.21041],[-122.14308,38.20903],[-122.16289,38.20639],[-122.16296,38.19709],[-122.15744,38.20233],[-122.1562,38.2015],[-122.16389,38.19538],[-122.17018,38.18889]],[[-122.15659,38.19774],[-122.15445,38.19834],[-122.1538,38.19693],[-122.15586,38.19611],[-122.15659,38.19774]],[[-122.13906,38.21042],[-122.13907,38.21056],[-122.13846,38.21057],[-122.13906,38.21042]],[[-122.07296,38.24308],[-122.07293,38.24317],[-122.07237,38.24316],[-122.07296,38.24308]],[[-122.07294,38.24337],[-122.07293,38.24354],[-122.07293,38.24371],[-122.07294,38.24337]],[[-122.07207,38.24524],[-122.07168,38.24523],[-122.07168,38.24451],[-122.07207,38.24524]],[[-122.07081,38.26736],[-122.07041,38.26811],[-122.06943,38.26779],[-122.06984,38.26703],[-122.07081,38.26736]],[[-122.06882,38.2691],[-122.06824,38.26947],[-122.06824,38.26916],[-122.06882,38.2691]],[[-122.01989,38.26205],[-122.01988,38.2629],[-122.01738,38.26285],[-122.01739,38.26201],[-122.01989,38.26205]],[[-121.96611,38.27424],[-121.96605,38.27599],[-121.96442,38.27596],[-121.96445,38.27421],[-121.96611,38.27424]]]},"properties":{"GEOID":"0623182","NAME":"Fairfield city","BASENAME":"Fairfield","STATE":"06","PLACE":"23182"}}]}