{"type":"FeatureCollection","features":[{"type":"Feature","geometry":{"type":"Polygon","coordinates":[[[-122.7296,38.33349],[-122.72642,38.333],[-122.72838,38.32929],[-122.72686,38.32966],[-122.72054,38.32801],[-122.72188,38.32701],[-122.72092,38.32547],[-122.71453,38.32355],[-122.71536,38.32149],[-122.71286,38.32109],[-122.71433,38.31658],[-122.71279,38.31564],[-122.71315,38.315],[-122.70604,38.31659],[-122.70361,38.31495],[-122.69911,38.31832],[-122.69495,38.31804],[-122.6957,38.31982],[-122.69067,38.31983],[-122.69179,38.3216],[-122.69281,38.3216],[-122.69668,38.3282],[-122.69243,38.33005],[-122.69005,38.32636],[-122.68842,38.32693],[-122.68954,38.32871],[-122.68774,38.32874],[-122.69076,38.3349],[-122.6929,38.33411],[-122.69226,38.33308],[-122.69435,38.3322],[-122.69359,38.33106],[-122.69567,38.33018],[-122.69643,38.33132],[-122.69597,38.33006],[-122.69682,38.32971],[-122.69797,38.33067],[-122.704,38.32819],[-122.70626,38.33066],[-122.70642,38.33126],[-122.70522,38.3317],[-122.70653,38.33383],[-122.70798,38.33329],[-122.70911,38.33464],[-122.71201,38.33547],[-122.71333,38.3431],[-122.72331,38.34305],[-122.72224,38.3423],[-122.72242,38.33922],[-122.71569,38.33535],[-122.71723,38.33367],[-122.71982,38.33452],[-122.72458,38.3346],[-122.7246,38.3359],[-122.72694,38.33592],[-122.72693,38.33354],[-122.729,38.33448],[-122.7296,38.33349]]]},"properties":{"GEOID":"0616560","NAME":"Cotati city","BASENAME":"Cotati","STATE":"06","PLACE":"16560"}},{"type":"Feature","geometry":{"type":"MultiPolygon","coordinates":[[[[-122.84816,38.39745],[-122.84761,38.39622],[-122.83861,38.39705],[-122.83625,38.39375],[-122.83484,38.39511],[-122.83124,38.39503],[-122.83124,38.39586],[-122.82975,38.39587],[-122.8298,38.39423],[-122.83125,38.39423],[-122.83161,38.39286],[-122.82987,38.39296],[-122.83039,38.39026],[-122.82754,38.39025],[-122.82757,38.385],[-122.82194,38.3868],[-122.82478,38.38795],[-122.82433,38.39032],[-122.81726,38.39035],[-122.81575,38.38828],[-122.8139,38.38803],[-122.81273,38.3884],[-122.81272,38.38942],[-122.81162,38.38945],[-122.81159,38.3903],[-122.80629,38.39036],[-122.80629,38.39195],[-122.81649,38.39195],[-122.81655,38.39301],[-122.8174,38.39299],[-122.81753,38.39397],[-122.81666,38.39398],[-122.81774,38.39598],[-122.81639,38.39667],[-122.81638,38.39749],[-122.81803,38.39918],[-122.81821,38.40084],[-122.81561,38.40119],[-122.81587,38.4036],[-122.81248,38.40473],[-122.8126,38.40934],[-122.81712,38.40932],[-122.81641,38.41022],[-122.82117,38.41021],[-122.82124,38.40855],[-122.82546,38.40852],[-122.82527,38.40942],[-122.83055,38.40938],[-122.83055,38.40843],[-122.83259,38.40839],[-122.83267,38.40681],[-122.83663,38.40688],[-122.83672,38.40784],[-122.83851,38.40779],[-122.83859,38.40949],[-122.83904,38.40919],[-122.8398,38.41037],[-122.83857,38.41173],[-122.84017,38.41154],[-122.84076,38.41273],[-122.84296,38.41272],[-122.84178,38.41123],[-122.84248,38.4109],[-122.8417,38.4096],[-122.84064,38.40854],[-122.83991,38.4088],[-122.84087,38.40838],[-122.84061,38.40706],[-122.84367,38.40695],[-122.84314,38.40533],[-122.84537,38.40523],[-122.84306,38.39895],[-122.84411,38.39874],[-122.8438,38.39785],[-122.84816,38.39745]]],[[[-122.83407,38.38435],[-122.83192,38.38344],[-122.83225,38.38446],[-122.83407,38.38435]]]]},"properties":{"GEOID":"0670770","NAME":"Sebastopol city","BASENAME":"Sebastopol","STATE":"06","PLACE":"70770"}},{"type":"Feature","geometry":{"type":"MultiPolygon","coordinates":[[[[-122.48189,38.29838],[-122.48064,38.29698],[-122.47776,38.2977],[-122.4764,38.296],[-122.47759,38.29181],[-122.47446,38.28924],[-122.47323,38.28502],[-122.47481,38.28278],[-122.46971,38.2822],[-122.46992,38.28103],[-122.46885,38.28091],[-122.46886,38.28154],[-122.4654,38.28091],[-122.46609,38.27639],[-122.46033,38.27581],[-122.4605,38.27473],[-122.4576,38.27444],[-122.45741,38.27551],[-122.45349,38.27513],[-122.45333,38.27605],[-122.45318,38.2751],[-122.45169,38.27495],[-122.45155,38.27583],[-122.45,38.2757],[-122.44947,38.27909],[-122.45189,38.27933],[-122.45198,38.27855],[-122.45303,38.27865],[-122.45275,38.2805],[-122.45167,38.2804],[-122.45149,38.28129],[-122.45076,38.28122],[-122.45091,38.28033],[-122.44867,38.28011],[-122.44915,38.28117],[-122.4462,38.28121],[-122.44586,38.28346],[-122.44255,38.28314],[-122.4425,38.28669],[-122.44413,38.28681],[-122.44395,38.28799],[-122.44249,38.28799],[-122.44211,38.29041],[-122.44553,38.29073],[-122.44546,38.29164],[-122.44652,38.29175],[-122.4461,38.29313],[-122.44288,38.2928],[-122.44267,38.29399],[-122.44714,38.29449],[-122.44636,38.29978],[-122.45294,38.30039],[-122.45208,38.30624],[-122.45667,38.30774],[-122.4576,38.30092],[-122.46669,38.30196],[-122.46657,38.30293],[-122.46782,38.30311],[-122.46798,38.30201],[-122.46971,38.30218],[-122.46981,38.30161],[-122.47194,38.3024],[-122.47218,38.3009],[-122.47472,38.30158],[-122.47492,38.30055],[-122.47763,38.30082],[-122.47691,38.29885],[-122.48189,38.29838]],[[-122.4601,38.27701],[-122.45996,38.27813],[-122.45638,38.27726],[-122.45646,38.27666],[-122.4601,38.27701]]],[[[-122.41642,38.29593],[-122.41652,38.29568],[-122.41617,38.29561],[-122.41642,38.29593]]],[[[-122.42168,38.28475],[-122.42003,38.28485],[-122.42133,38.2853],[-122.42168,38.28475]]],[[[-122.43498,38.28538],[-122.43509,38.28465],[-122.43392,38.28454],[-122.43369,38.28579],[-122.43498,38.28538]]],[[[-122.44114,38.28042],[-122.43868,38.28008],[-122.43853,38.28113],[-122.441,38.28135],[-122.44114,38.28042]]]]},"properties":{"GEOID":"0672646","NAME":"Sonoma city","BASENAME":"Sonoma","STATE":"06","PLACE":"72646"}},{"type":"Feature","geometry":{"type":"Polygon","coordinates":[[[-123.03512,38.78701],[-123.02563,38.78653],[-123.02178,38.7878],[-123.02168,38.78683],[-123.02493,38.78153],[-123.0184,38.77923],[-123.01843,38.77848],[-123.0131,38.7749],[-123.01315,38.77387],[-123.01255,38.77457],[-123.00909,38.77149],[-123.00377,38.77625],[-123.00599,38.77804],[-123.00294,38.77944],[-122.99652,38.78036],[-122.99352,38.77586],[-122.99411,38.77548],[-122.99265,38.77325],[-122.99343,38.77275],[-122.98814,38.77196],[-122.99074,38.77671],[-122.99319,38.7784],[-122.99384,38.78497],[-122.99528,38.78497],[-122.99542,38.78681],[-123.00147,38.79124],[-123.0043,38.78928],[-123.00554,38.78986],[-123.00605,38.78947],[-123.00491,38.78893],[-123.0091,38.78596],[-123.01092,38.78612],[-123.01306,38.78473],[-123.01675,38.78908],[-123.0118,38.79162],[-123.01202,38.79248],[-123.00487,38.79554],[-123.0046,38.79635],[-123.00521,38.79742],[-123.00538,38.79657],[-123.00941,38.79605],[-123.00891,38.79828],[-123.00613,38.79797],[-123.00667,38.80095],[-123.00849,38.80244],[-123.00752,38.80279],[-123.00662,38.80479],[-123.00868,38.80763],[-123.00819,38.80851],[-123.00928,38.81334],[-123.00861,38.81354],[-123.01064,38.81469],[-123.01107,38.81656],[-123.01941,38.81706],[-123.01932,38.81788],[-123.02169,38.81801],[-123.02187,38.81953],[-123.02412,38.81788],[-123.02285,38.81731],[-123.02306,38.81616],[-123.02514,38.81516],[-123.02503,38.81379],[-123.0269,38.81586],[-123.03045,38.81659],[-123.02847,38.81029],[-123.03025,38.81006],[-123.02993,38.80655],[-123.02714,38.80626],[-123.02561,38.80045],[-123.02854,38.79861],[-123.02627,38.79682],[-123.02504,38.79705],[-123.02468,38.79478],[-123.02587,38.79385],[-123.02911,38.79389],[-123.02552,38.79165],[-123.03068,38.7903],[-123.03502,38.79041],[-123.03512,38.78701]]]},"properties":{"GEOID":"0614190","NAME":"Cloverdale city","BASENAME":"Cloverdale","STATE":"06","PLACE":"14190"}},{"type":"Feature","geometry":{"type":"MultiPolygon","coordinates":[[[[-122.88594,38.6392],[-122.88519,38.63595],[-122.88283,38.63756],[-122.87923,38.637],[-122.87764,38.63577],[-122.87861,38.61424],[-122.87361,38.60773],[-122.86781,38.60344],[-122.86854,38.60229],[-122.87252,38.60234],[-122.87256,38.60038],[-122.86671,38.60044],[-122.86671,38.60212],[-122.86501,38.6021],[-122.84895,38.59289],[-122.85214,38.60061],[-122.85582,38.60345],[-122.85567,38.60418],[-122.85289,38.60457],[-122.85332,38.60683],[-122.85192,38.60769],[-122.85614,38.60836],[-122.85186,38.60845],[-122.84499,38.61003],[-122.84494,38.60911],[-122.84249,38.61191],[-122.84408,38.61123],[-122.84358,38.61454],[-122.8451,38.61458],[-122.84561,38.6132],[-122.84877,38.61321],[-122.84856,38.61505],[-122.84649,38.61493],[-122.84617,38.62056],[-122.84713,38.62057],[-122.84719,38.62385],[-122.84916,38.62419],[-122.84918,38.62341],[-122.84998,38.62382],[-122.85144,38.62281],[-122.85345,38.62328],[-122.85422,38.62785],[-122.86227,38.62795],[-122.86227,38.62866],[-122.86348,38.62866],[-122.86226,38.62952],[-122.86384,38.63143],[-122.86518,38.63137],[-122.86618,38.63499],[-122.86458,38.63495],[-122.86456,38.63772],[-122.8665,38.63773],[-122.86652,38.63961],[-122.86454,38.63958],[-122.86455,38.63868],[-122.86065,38.63866],[-122.86064,38.64091],[-122.85778,38.64229],[-122.85407,38.64232],[-122.85411,38.64968],[-122.86899,38.6497],[-122.86855,38.64754],[-122.87292,38.64764],[-122.87511,38.64245],[-122.88186,38.64254],[-122.88186,38.6409],[-122.88594,38.6392]]],[[[-122.85679,38.63248],[-122.85676,38.63237],[-122.85663,38.63241],[-122.85679,38.63248]]],[[[-122.86071,38.63176],[-122.85958,38.63037],[-122.859,38.63073],[-122.8602,38.63213],[-122.86071,38.63176]]],[[[-122.86611,38.58283],[-122.86586,38.58152],[-122.86088,38.58196],[-122.86167,38.58497],[-122.86581,38.58439],[-122.86557,38.58292],[-122.86611,38.58283]]],[[[-122.86572,38.59128],[-122.8657,38.58966],[-122.86456,38.58965],[-122.86415,38.59124],[-122.86572,38.59128]]],[[[-122.88187,38.61097],[-122.88161,38.60992],[-122.88114,38.6092],[-122.88187,38.61097]]],[[[-122.88239,38.60448],[-122.88182,38.60289],[-122.87935,38.60088],[-122.87863,38.60131],[-122.88108,38.60487],[-122.88239,38.60448]]],[[[-122.90286,38.65683],[-122.90159,38.6547],[-122.90192,38.65317],[-122.90052,38.65317],[-122.90046,38.65161],[-122.89872,38.65169],[-122.89629,38.64887],[-122.89496,38.64956],[-122.9002,38.65555],[-122.90013,38.65692],[-122.90286,38.65683]]]]},"properties":{"GEOID":"0633056","NAME":"Healdsburg city","BASENAME":"Healdsburg","STATE":"06","PLACE":"33056"}},{"type":"Feature","geometry":{"type":"MultiPolygon","coordinates":[[[[-122.83671,38.56482],[-122.8359,38.5642],[-122.83502,38.56009],[-122.83534,38.55472],[-122.83179,38.55471],[-122.83165,38.55105],[-122.83426,38.55098],[-122.83413,38.54738],[-122.82832,38.54733],[-122.82832,38.54371],[-122.82605,38.54371],[-122.82599,38.53633],[-122.81674,38.53632],[-122.81681,38.5248],[-122.80196,38.52574],[-122.80269,38.52185],[-122.80024,38.52194],[-122.7992,38.5183],[-122.79139,38.51845],[-122.78822,38.51479],[-122.78825,38.51768],[-122.78303,38.51774],[-122.78776,38.52313],[-122.78658,38.52366],[-122.78631,38.52293],[-122.78378,38.52259],[-122.78375,38.52574],[-122.78008,38.52572],[-122.77982,38.52515],[-122.77894,38.52518],[-122.77931,38.52571],[-122.77443,38.5257],[-122.77448,38.53026],[-122.7723,38.53028],[-122.77233,38.53297],[-122.7836,38.53305],[-122.78367,38.53711],[-122.78843,38.53713],[-122.78857,38.54033],[-122.78648,38.54033],[-122.78654,38.54754],[-122.7945,38.54768],[-122.79454,38.54953],[-122.79573,38.54957],[-122.7957,38.5514],[-122.78847,38.55136],[-122.78842,38.55494],[-122.78586,38.55494],[-122.78582,38.55691],[-122.7869,38.5569],[-122.78683,38.55888],[-122.78259,38.55883],[-122.78256,38.56205],[-122.7847,38.56213],[-122.78385,38.5631],[-122.78381,38.56598],[-122.80204,38.56593],[-122.80269,38.56563],[-122.80285,38.56225],[-122.81793,38.56177],[-122.81782,38.57027],[-122.82593,38.56532],[-122.82227,38.5618],[-122.82318,38.56182],[-122.83108,38.57017],[-122.8339,38.56929],[-122.83216,38.56691],[-122.83364,38.56605],[-122.83311,38.56547],[-122.83671,38.56482]]],[[[-122.76046,38.53374],[-122.76047,38.53283],[-122.75969,38.53309],[-122.75968,38.53374],[-122.76046,38.53374]]],[[[-122.80393,38.51853],[-122.80269,38.51825],[-122.80268,38.52168],[-122.80386,38.52182],[-122.80393,38.51853]]],[[[-122.83169,38.52242],[-122.82913,38.52152],[-122.82605,38.52159],[-122.82605,38.52918],[-122.82742,38.52916],[-122.82743,38.52646],[-122.8307,38.52649],[-122.83169,38.52242]]],[[[-122.85423,38.4984],[-122.85112,38.49821],[-122.85406,38.4981],[-122.85404,38.49706],[-122.8511,38.497],[-122.85371,38.49578],[-122.85299,38.49415],[-122.84943,38.49618],[-122.84711,38.49516],[-122.84426,38.4923],[-122.84447,38.5009],[-122.84882,38.50095],[-122.8488,38.49844],[-122.85422,38.49903],[-122.85423,38.4984]]],[[[-122.85752,38.55489],[-122.85661,38.55482],[-122.85412,38.55876],[-122.84867,38.56277],[-122.85218,38.56239],[-122.85752,38.55489]]],[[[-122.86115,38.50391],[-122.86102,38.50323],[-122.85864,38.50239],[-122.85354,38.50383],[-122.85372,38.51594],[-122.85562,38.51593],[-122.85805,38.51328],[-122.86115,38.50391]]]]},"properties":{"GEOID":"0685922","NAME":"Windsor town","BASENAME":"Windsor","STATE":"06","PLACE":"85922"}},{"type":"Feature","geometry":{"type":"Polygon","coordinates":[[[-122.73197,38.34978],[-122.72617,38.34808],[-122.72292,38.34306],[-122.71333,38.3431],[-122.71201,38.33547],[-122.70911,38.33464],[-122.70798,38.33329],[-122.70653,38.33383],[-122.70522,38.3317],[-122.70642,38.33126],[-122.70626,38.33066],[-122.704,38.32819],[-122.69797,38.33067],[-122.69682,38.32971],[-122.69597,38.33006],[-122.69643,38.33132],[-122.69567,38.33018],[-122.69359,38.33106],[-122.69435,38.3322],[-122.69226,38.33308],[-122.6929,38.33411],[-122.69076,38.3349],[-122.68774,38.32874],[-122.68954,38.32871],[-122.68842,38.32693],[-122.69005,38.32636],[-122.69243,38.33005],[-122.69668,38.3282],[-122.69281,38.3216],[-122.69179,38.3216],[-122.69067,38.31983],[-122.68841,38.31983],[-122.688,38.31879],[-122.68338,38.31879],[-122.68118,38.31431],[-122.68093,38.31643],[-122.67597,38.31663],[-122.67578,38.32147],[-122.66681,38.32145],[-122.66669,38.32519],[-122.67606,38.32519],[-122.67609,38.33618],[-122.67978,38.33629],[-122.67987,38.34315],[-122.67476,38.34321],[-122.67483,38.34586],[-122.66718,38.34562],[-122.6673,38.35425],[-122.68571,38.354],[-122.68579,38.365],[-122.67638,38.36509],[-122.67651,38.37242],[-122.69947,38.37212],[-122.6996,38.36943],[-122.71201,38.36938],[-122.71187,38.3646],[-122.71497,38.36958],[-122.71927,38.36952],[-122.71925,38.36537],[-122.72524,38.36538],[-122.72524,38.36326],[-122.72124,38.36327],[-122.72124,38.3612],[-122.71925,38.36118],[-122.71915,38.35771],[-122.72568,38.35774],[-122.73197,38.34978]]]},"properties":{"GEOID":"0662546","NAME":"Rohnert Park city","BASENAME":"Rohnert Park","STATE":"06","PLACE":"62546"}},{"type":"Feature","geometry":{"type":"MultiPolygon","coordinates":[[[[-122.68239,38.27544],[-122.6824,38.27367],[-122.68011,38.27221],[-122.68044,38.27065],[-122.67566,38.2728],[-122.67154,38.26773],[-122.6668,38.26361],[-122.66609,38.26408],[-122.66174,38.26128],[-122.65994,38.26142],[-122.65926,38.26333],[-122.65326,38.25991],[-122.656,38.25773],[-122.64827,38.2518],[-122.64985,38.25017],[-122.65072,38.2477],[-122.64624,38.24679],[-122.64804,38.24591],[-122.64806,38.2449],[-122.65464,38.2457],[-122.65418,38.24941],[-122.65953,38.25006],[-122.65983,38.24932],[-122.65809,38.24913],[-122.65866,38.24616],[-122.66178,38.24707],[-122.66151,38.24575],[-122.66034,38.24589],[-122.66033,38.24311],[-122.65928,38.24311],[-122.66023,38.23949],[-122.66303,38.24034],[-122.66326,38.23957],[-122.65972,38.23866],[-122.66036,38.23513],[-122.65884,38.23453],[-122.6585,38.23077],[-122.65515,38.22979],[-122.65508,38.22739],[-122.66356,38.22736],[-122.66481,38.22661],[-122.66488,38.2199],[-122.6557,38.21981],[-122.65564,38.21616],[-122.65112,38.21616],[-122.65114,38.21536],[-122.6418,38.21665],[-122.63948,38.21505],[-122.63744,38.21533],[-122.63723,38.2143],[-122.63571,38.2143],[-122.63561,38.21252],[-122.63717,38.2125],[-122.63721,38.20527],[-122.62788,38.20531],[-122.62786,38.20745],[-122.62446,38.20747],[-122.6292,38.21424],[-122.62777,38.21482],[-122.62773,38.2197],[-122.62579,38.21986],[-122.62321,38.21672],[-122.61741,38.21671],[-122.61822,38.21884],[-122.61823,38.22335],[-122.61302,38.22337],[-122.61592,38.22838],[-122.61296,38.22797],[-122.60692,38.22478],[-122.60381,38.22122],[-122.59486,38.22102],[-122.59173,38.21783],[-122.58735,38.2193],[-122.58386,38.21843],[-122.58222,38.21614],[-122.58395,38.21116],[-122.58151,38.20942],[-122.57878,38.2095],[-122.56767,38.22207],[-122.58953,38.23426],[-122.58608,38.23802],[-122.5891,38.2397],[-122.58492,38.24428],[-122.59727,38.25161],[-122.59504,38.25391],[-122.59998,38.25736],[-122.59951,38.25786],[-122.6057,38.26132],[-122.60492,38.2623],[-122.61109,38.26576],[-122.61209,38.26465],[-122.6204,38.26933],[-122.62345,38.26597],[-122.64237,38.27654],[-122.64369,38.27506],[-122.64746,38.27712],[-122.6502,38.27406],[-122.64984,38.27336],[-122.65047,38.27376],[-122.652,38.27206],[-122.65073,38.27139],[-122.6514,38.27067],[-122.65019,38.26996],[-122.65113,38.2689],[-122.65356,38.27035],[-122.65602,38.26776],[-122.66361,38.27481],[-122.66498,38.27706],[-122.66851,38.27911],[-122.66786,38.28218],[-122.66977,38.28291],[-122.67282,38.27929],[-122.6782,38.27933],[-122.68236,38.27644],[-122.68239,38.27544]],[[-122.65516,38.25799],[-122.6526,38.25718],[-122.65152,38.25582],[-122.65516,38.25799]],[[-122.65116,38.25516],[-122.64846,38.2551],[-122.64677,38.25333],[-122.64821,38.2522],[-122.65116,38.25516]]],[[[-122.6065,38.27006],[-122.60641,38.26938],[-122.6056,38.27],[-122.6065,38.27006]]],[[[-122.66218,38.24055],[-122.66219,38.24053],[-122.66181,38.24041],[-122.66218,38.24055]]]]},"properties":{"GEOID":"0656784","NAME":"Petaluma city","BASENAME":"Petaluma","STATE":"06","PLACE":"56784"}},{"type":"Feature","geometry":{"type":"MultiPolygon","coordinates":[[[[-122.77885,38.45981],[-122.77883,38.45629],[-122.77457,38.45609],[-122.77448,38.45254],[-122.77283,38.45254],[-122.77323,38.44528],[-122.77647,38.44522],[-122.77532,38.44409],[-122.7753,38.43799],[-122.77439,38.43789],[-122.77447,38.43053],[-122.77143,38.43056],[-122.77128,38.42624],[-122.77302,38.42459],[-122.77196,38.42463],[-122.77133,38.42326],[-122.76892,38.42366],[-122.76877,38.40351],[-122.75073,38.40349],[-122.75073,38.40673],[-122.75645,38.40662],[-122.7565,38.40758],[-122.75528,38.40756],[-122.75538,38.40842],[-122.75072,38.40896],[-122.74388,38.40894],[-122.74388,38.40807],[-122.74144,38.40802],[-122.74145,38.40182],[-122.72678,38.40182],[-122.72678,38.39693],[-122.72096,38.39694],[-122.72101,38.40183],[-122.71621,38.40185],[-122.71597,38.40083],[-122.71344,38.40082],[-122.7132,38.4018],[-122.71049,38.39899],[-122.71042,38.40186],[-122.70874,38.40186],[-122.70875,38.40319],[-122.7133,38.40319],[-122.7133,38.4045],[-122.70875,38.40452],[-122.70877,38.40734],[-122.71331,38.40733],[-122.71331,38.40911],[-122.70252,38.40909],[-122.70408,38.41074],[-122.7043,38.41252],[-122.69501,38.41165],[-122.69501,38.41421],[-122.69779,38.4142],[-122.6978,38.41648],[-122.69475,38.41731],[-122.69267,38.41735],[-122.69014,38.41605],[-122.68599,38.41654],[-122.68605,38.42008],[-122.69049,38.42017],[-122.69046,38.42174],[-122.68984,38.42373],[-122.68574,38.42374],[-122.6857,38.4281],[-122.6875,38.42994],[-122.68467,38.42939],[-122.68411,38.43225],[-122.67789,38.43046],[-122.67483,38.42685],[-122.67295,38.42298],[-122.66766,38.41981],[-122.67049,38.41621],[-122.66705,38.41584],[-122.66277,38.41661],[-122.66276,38.41793],[-122.66162,38.41691],[-122.65729,38.4169],[-122.65759,38.41741],[-122.65564,38.41989],[-122.64834,38.41988],[-122.64854,38.43742],[-122.648,38.43807],[-122.64886,38.44138],[-122.65135,38.4427],[-122.65108,38.4456],[-122.64776,38.44588],[-122.6481,38.44908],[-122.64453,38.45143],[-122.64352,38.45134],[-122.64178,38.45656],[-122.64136,38.4555],[-122.63881,38.45459],[-122.63658,38.45164],[-122.63513,38.45084],[-122.63451,38.4513],[-122.62875,38.44757],[-122.62729,38.4487],[-122.62001,38.44515],[-122.61577,38.4451],[-122.61336,38.44381],[-122.61484,38.44224],[-122.61255,38.4371],[-122.60578,38.43206],[-122.60196,38.43054],[-122.60022,38.42623],[-122.60017,38.42143],[-122.59067,38.42115],[-122.58181,38.41586],[-122.57338,38.42811],[-122.57553,38.42898],[-122.57387,38.43145],[-122.5763,38.43248],[-122.57567,38.43439],[-122.57819,38.43547],[-122.5757,38.44337],[-122.57189,38.44274],[-122.57004,38.4464],[-122.5795,38.45037],[-122.58699,38.43918],[-122.5972,38.44162],[-122.63089,38.45732],[-122.62901,38.45846],[-122.63154,38.45995],[-122.62775,38.46248],[-122.62841,38.46287],[-122.62602,38.46456],[-122.6255,38.46587],[-122.62979,38.46682],[-122.62951,38.46776],[-122.62658,38.46841],[-122.62615,38.4694],[-122.63414,38.46977],[-122.63409,38.48256],[-122.64462,38.48251],[-122.64465,38.48589],[-122.64922,38.48595],[-122.65188,38.48317],[-122.65325,38.48384],[-122.65854,38.48248],[-122.6581,38.48298],[-122.6596,38.48516],[-122.66342,38.48486],[-122.66325,38.48734],[-122.6677,38.48723],[-122.66787,38.48225],[-122.67306,38.48224],[-122.67265,38.4844],[-122.67708,38.48426],[-122.67709,38.48512],[-122.67779,38.48511],[-122.67819,38.48387],[-122.68056,38.48414],[-122.6802,38.48344],[-122.68104,38.48322],[-122.68011,38.4801],[-122.67848,38.4793],[-122.67933,38.47926],[-122.67896,38.47846],[-122.6824,38.47828],[-122.68208,38.48211],[-122.68621,38.48217],[-122.68635,38.49302],[-122.69553,38.49302],[-122.69559,38.49664],[-122.69734,38.49664],[-122.69707,38.49557],[-122.69861,38.4955],[-122.69762,38.49539],[-122.6976,38.49342],[-122.70491,38.49294],[-122.70499,38.49663],[-122.71339,38.49657],[-122.71447,38.50429],[-122.71843,38.5065],[-122.7193,38.50818],[-122.7235,38.50697],[-122.72342,38.50384],[-122.73293,38.5038],[-122.7337,38.50187],[-122.73534,38.50311],[-122.73446,38.50183],[-122.73344,38.50173],[-122.73253,38.4964],[-122.72427,38.4964],[-122.72297,38.4926],[-122.72329,38.48235],[-122.72921,38.4817],[-122.73275,38.47968],[-122.73399,38.48121],[-122.73337,38.48189],[-122.73435,38.48222],[-122.7334,38.48282],[-122.73447,38.48267],[-122.73497,38.48466],[-122.73955,38.48464],[-122.73826,38.48369],[-122.75126,38.4828],[-122.75127,38.48373],[-122.7605,38.48365],[-122.76049,38.48131],[-122.76983,38.48164],[-122.76976,38.47305],[-122.7656,38.47305],[-122.76516,38.46985],[-122.76974,38.46951],[-122.76968,38.46286],[-122.77299,38.46286],[-122.77295,38.45981],[-122.77885,38.45981]],[[-122.76965,38.45852],[-122.76891,38.45987],[-122.76634,38.45988],[-122.7663,38.45854],[-122.76965,38.45852]],[[-122.76736,38.44991],[-122.76734,38.45195],[-122.76544,38.4521],[-122.76611,38.45174],[-122.76606,38.44987],[-122.76736,38.44991]],[[-122.76459,38.45982],[-122.76045,38.45985],[-122.76043,38.45736],[-122.76454,38.45689],[-122.76459,38.45982]],[[-122.76038,38.46417],[-122.75866,38.46458],[-122.7585,38.46628],[-122.75651,38.46581],[-122.75655,38.46456],[-122.75259,38.46457],[-122.75259,38.46323],[-122.75126,38.46322],[-122.75126,38.46235],[-122.75576,38.46236],[-122.75615,38.46304],[-122.75685,38.46136],[-122.75885,38.4629],[-122.75833,38.46389],[-122.76038,38.46417]],[[-122.75976,38.46114],[-122.75978,38.46164],[-122.75734,38.4613],[-122.75655,38.45984],[-122.75972,38.45984],[-122.75976,38.46114]],[[-122.75289,38.45983],[-122.75134,38.46143],[-122.75142,38.45982],[-122.75289,38.45983]],[[-122.75103,38.46174],[-122.75101,38.46323],[-122.74969,38.46322],[-122.75103,38.46174]],[[-122.74996,38.45483],[-122.74721,38.45502],[-122.74726,38.45425],[-122.7499,38.4541],[-122.74996,38.45483]],[[-122.74367,38.44511],[-122.73899,38.44543],[-122.73849,38.44477],[-122.73853,38.44536],[-122.73717,38.44552],[-122.73711,38.44485],[-122.7359,38.44489],[-122.73599,38.44557],[-122.73419,38.44563],[-122.73402,38.44374],[-122.73479,38.44306],[-122.74337,38.4427],[-122.74367,38.44511]],[[-122.71349,38.42206],[-122.71227,38.42217],[-122.71233,38.42127],[-122.71349,38.42206]],[[-122.70575,38.42278],[-122.70611,38.42343],[-122.69955,38.42579],[-122.69957,38.42167],[-122.70502,38.42161],[-122.70575,38.42278]],[[-122.70487,38.47998],[-122.70485,38.48055],[-122.70366,38.48055],[-122.70352,38.47924],[-122.70487,38.47924],[-122.70487,38.47998]],[[-122.70265,38.47214],[-122.70217,38.47464],[-122.70078,38.47466],[-122.70165,38.47207],[-122.70265,38.47214]],[[-122.70114,38.45747],[-122.70072,38.45859],[-122.69931,38.45881],[-122.69938,38.45966],[-122.69801,38.4591],[-122.69938,38.46032],[-122.69736,38.46258],[-122.69582,38.46165],[-122.69745,38.45937],[-122.69649,38.45827],[-122.69732,38.45717],[-122.70114,38.45747]],[[-122.6992,38.47431],[-122.69482,38.47475],[-122.69477,38.4728],[-122.69869,38.47126],[-122.6992,38.47431]],[[-122.69756,38.42645],[-122.69431,38.4275],[-122.69352,38.42671],[-122.69424,38.42628],[-122.69295,38.42623],[-122.69283,38.42542],[-122.69756,38.42645]],[[-122.69579,38.46518],[-122.69559,38.46547],[-122.69441,38.46471],[-122.69579,38.46518]],[[-122.69565,38.46157],[-122.69386,38.46538],[-122.69528,38.46595],[-122.69447,38.46721],[-122.6915,38.46581],[-122.69203,38.46455],[-122.6915,38.46361],[-122.69424,38.46393],[-122.69323,38.46321],[-122.6934,38.46196],[-122.69565,38.46157]],[[-122.69337,38.46795],[-122.69386,38.46815],[-122.69241,38.47041],[-122.69065,38.47039],[-122.69018,38.47114],[-122.68776,38.47021],[-122.68817,38.46879],[-122.69135,38.4691],[-122.69246,38.46757],[-122.69337,38.46795]],[[-122.69002,38.47238],[-122.68974,38.47415],[-122.68891,38.47386],[-122.68935,38.47238],[-122.68778,38.47211],[-122.68777,38.47118],[-122.68996,38.47147],[-122.6894,38.47237],[-122.69002,38.47238]],[[-122.68688,38.47478],[-122.6861,38.47544],[-122.68539,38.47481],[-122.68688,38.47478]],[[-122.6845,38.46922],[-122.68419,38.47132],[-122.68184,38.47031],[-122.68196,38.46914],[-122.68048,38.46905],[-122.68071,38.46725],[-122.68225,38.46736],[-122.68234,38.4666],[-122.6808,38.46648],[-122.6809,38.46529],[-122.6839,38.46481],[-122.68344,38.46918],[-122.6845,38.46922]],[[-122.68174,38.47242],[-122.68158,38.47568],[-122.67902,38.4759],[-122.67843,38.4753],[-122.67744,38.47667],[-122.67862,38.47437],[-122.6782,38.47344],[-122.68044,38.47207],[-122.68174,38.47242]],[[-122.67808,38.4565],[-122.67723,38.45708],[-122.67607,38.45602],[-122.6766,38.45552],[-122.67808,38.4565]],[[-122.67618,38.47528],[-122.67587,38.47658],[-122.67454,38.47716],[-122.6755,38.48016],[-122.67359,38.48021],[-122.67355,38.48207],[-122.67256,38.48209],[-122.67344,38.479],[-122.67253,38.47887],[-122.67307,38.47878],[-122.6725,38.47793],[-122.67546,38.47622],[-122.67435,38.47584],[-122.67618,38.47528]],[[-122.67117,38.47389],[-122.66911,38.47624],[-122.66877,38.47565],[-122.66779,38.4765],[-122.66792,38.47574],[-122.66563,38.47631],[-122.66515,38.4755],[-122.66725,38.47475],[-122.6673,38.47363],[-122.66831,38.4733],[-122.66616,38.47366],[-122.66584,38.47312],[-122.66974,38.47148],[-122.67012,38.47192],[-122.66799,38.47275],[-122.66868,38.47271],[-122.66857,38.47375],[-122.67091,38.47329],[-122.67117,38.47389]],[[-122.67049,38.47256],[-122.67073,38.47297],[-122.67012,38.47319],[-122.67049,38.47256]],[[-122.66727,38.47016],[-122.6666,38.47181],[-122.66418,38.47224],[-122.6637,38.47066],[-122.66673,38.46876],[-122.66727,38.47016]],[[-122.66727,38.47804],[-122.66693,38.47828],[-122.66672,38.47819],[-122.66727,38.47804]],[[-122.66667,38.46832],[-122.6655,38.46892],[-122.66442,38.466],[-122.66568,38.46572],[-122.66667,38.46832]],[[-122.66038,38.4648],[-122.65903,38.465],[-122.65825,38.46226],[-122.65959,38.4619],[-122.66038,38.4648]],[[-122.65908,38.46586],[-122.6592,38.46617],[-122.658,38.4663],[-122.65908,38.46586]],[[-122.65303,38.46186],[-122.6503,38.46097],[-122.65201,38.45993],[-122.65303,38.46186]],[[-122.64906,38.46023],[-122.64732,38.46055],[-122.648,38.45787],[-122.64906,38.46023]],[[-122.64715,38.46218],[-122.64714,38.46357],[-122.64571,38.46307],[-122.64633,38.46288],[-122.64585,38.4614],[-122.64715,38.46218]],[[-122.64644,38.46106],[-122.64637,38.46138],[-122.646,38.46133],[-122.64644,38.46106]],[[-122.63928,38.46075],[-122.63713,38.4632],[-122.63316,38.46085],[-122.63588,38.45884],[-122.63928,38.46075]],[[-122.63732,38.45567],[-122.63628,38.45591],[-122.63452,38.45442],[-122.63015,38.45381],[-122.63164,38.45225],[-122.62929,38.45081],[-122.63,38.45031],[-122.6355,38.45341],[-122.63732,38.45567]]],[[[-122.76238,38.36948],[-122.76176,38.36864],[-122.75857,38.36868],[-122.75859,38.36953],[-122.76238,38.36948]]],[[[-122.76346,38.37118],[-122.76303,38.37031],[-122.7586,38.37038],[-122.75863,38.37126],[-122.76346,38.37118]]],[[[-122.76361,38.37409],[-122.76358,38.37285],[-122.76062,38.37293],[-122.76062,38.37207],[-122.75867,38.3721],[-122.75871,38.37418],[-122.76361,38.37409]]],[[[-122.76865,38.36719],[-122.76852,38.36628],[-122.76558,38.36576],[-122.76357,38.36429],[-122.76362,38.37192],[-122.76863,38.37182],[-122.76865,38.36719]]],[[[-122.77767,38.3681],[-122.7758,38.36595],[-122.77325,38.36568],[-122.77001,38.3667],[-122.76885,38.36612],[-122.76874,38.3735],[-122.77764,38.37544],[-122.77767,38.3681]]],[[[-122.79055,38.44522],[-122.79053,38.44273],[-122.78808,38.44365],[-122.78818,38.44524],[-122.79055,38.44522]]],[[[-122.79795,38.38534],[-122.79485,38.38248],[-122.78757,38.38312],[-122.78767,38.38686],[-122.78111,38.38697],[-122.77998,38.3877],[-122.78498,38.39288],[-122.77985,38.38779],[-122.77865,38.3885],[-122.77236,38.38861],[-122.78018,38.39508],[-122.7781,38.39654],[-122.77933,38.3976],[-122.7814,38.39613],[-122.78277,38.39719],[-122.78595,38.39608],[-122.78479,38.39508],[-122.79738,38.39057],[-122.79708,38.38671],[-122.79795,38.38534]]],[[[-122.80058,38.40801],[-122.79241,38.40005],[-122.78763,38.40115],[-122.79433,38.41086],[-122.80058,38.40801]]],[[[-122.81256,38.40566],[-122.81241,38.40484],[-122.81026,38.40569],[-122.81025,38.40711],[-122.80814,38.40787],[-122.80757,38.40646],[-122.80711,38.40801],[-122.80706,38.40681],[-122.80331,38.40815],[-122.80348,38.41962],[-122.795,38.41966],[-122.79501,38.42332],[-122.80856,38.42326],[-122.80887,38.42058],[-122.80963,38.4206],[-122.80963,38.42326],[-122.81052,38.42325],[-122.81123,38.41962],[-122.81228,38.4196],[-122.81018,38.41729],[-122.81258,38.41962],[-122.8126,38.40905],[-122.81101,38.40907],[-122.811,38.40697],[-122.81235,38.40682],[-122.81249,38.40541],[-122.8126,38.40901],[-122.81256,38.40566]]],[[[-122.81567,38.3999],[-122.81279,38.39668],[-122.79379,38.40112],[-122.80095,38.40785],[-122.81557,38.40138],[-122.81567,38.3999]]],[[[-122.81578,38.40347],[-122.81556,38.40157],[-122.79828,38.40957],[-122.81578,38.40347]]],[[[-122.82271,38.43059],[-122.82054,38.42831],[-122.82051,38.43056],[-122.82271,38.43059]]],[[[-122.8303,38.43056],[-122.82952,38.42581],[-122.82056,38.42378],[-122.82066,38.42814],[-122.82303,38.43057],[-122.8303,38.43056]]],[[[-122.83444,38.45085],[-122.83442,38.44517],[-122.816,38.44513],[-122.82006,38.44694],[-122.83272,38.44963],[-122.83444,38.45085]]]]},"properties":{"GEOID":"0670098","NAME":"Santa Rosa city","BASENAME":"Santa Rosa","STATE":"06","PLACE":"70098"}}]}