{"type":"FeatureCollection","features":[{"type":"Feature","geometry":{"type":"MultiPolygon","coordinates":[[[[-120.88475,37.60926],[-120.87598,37.60236],[-120.87622,37.59594],[-120.8776,37.59538],[-120.87761,37.59095],[-120.86993,37.59115],[-120.8699,37.58756],[-120.86538,37.5876],[-120.86539,37.59105],[-120.8631,37.59107],[-120.86003,37.5884],[-120.86032,37.59428],[-120.85177,37.59469],[-120.85164,37.60935],[-120.86737,37.6096],[-120.86737,37.6075],[-120.87012,37.60746],[-120.87014,37.6093],[-120.88475,37.60926]]],[[[-120.8748,37.62847],[-120.87478,37.62345],[-120.87331,37.6235],[-120.87329,37.62229],[-120.86897,37.62091],[-120.86895,37.62243],[-120.86804,37.62245],[-120.86809,37.62468],[-120.87023,37.62467],[-120.87034,37.62695],[-120.87125,37.62697],[-120.87295,37.62902],[-120.8748,37.62847]]]]},"properties":{"GEOID":"0634904","NAME":"Hughson city","BASENAME":"Hughson","STATE":"06","PLACE":"34904"}},{"type":"Feature","geometry":{"type":"Polygon","coordinates":[[[-121.03794,37.30557],[-121.03793,37.30371],[-121.02649,37.30374],[-121.02648,37.3057],[-121.02208,37.3057],[-121.02205,37.30367],[-121.01612,37.30379],[-121.01187,37.30743],[-121.01393,37.30741],[-121.01398,37.30932],[-121.01284,37.30931],[-121.01283,37.31104],[-121.00834,37.311],[-121.00916,37.31655],[-121.00187,37.3231],[-121.0048,37.32417],[-121.00551,37.32556],[-121.01662,37.32583],[-121.02046,37.3276],[-121.02501,37.32763],[-121.02503,37.32707],[-121.02549,37.32804],[-121.0278,37.32747],[-121.02866,37.32808],[-121.02865,37.33196],[-121.03104,37.333],[-121.03104,37.32985],[-121.02928,37.3251],[-121.03098,37.32474],[-121.03099,37.32356],[-121.03553,37.32353],[-121.03557,37.31976],[-121.03478,37.31976],[-121.03479,37.31838],[-121.0322,37.31835],[-121.03219,37.31729],[-121.03102,37.31729],[-121.03096,37.31482],[-121.03615,37.31477],[-121.03621,37.31122],[-121.03099,37.31117],[-121.03098,37.3072],[-121.03266,37.30827],[-121.03569,37.3085],[-121.03566,37.30557],[-121.03794,37.30557]],[[-121.02672,37.32482],[-121.02738,37.32654],[-121.02512,37.32708],[-121.02392,37.32263],[-121.02574,37.3222],[-121.02672,37.32482]]]},"properties":{"GEOID":"0651140","NAME":"Newman city","BASENAME":"Newman","STATE":"06","PLACE":"51140"}},{"type":"Feature","geometry":{"type":"Polygon","coordinates":[[[-120.77863,37.63824],[-120.7786,37.63455],[-120.77379,37.6345],[-120.77372,37.62882],[-120.77146,37.63155],[-120.76758,37.63188],[-120.75987,37.63593],[-120.75209,37.6365],[-120.74537,37.63496],[-120.74336,37.63535],[-120.74341,37.63967],[-120.72829,37.64093],[-120.72821,37.64412],[-120.73817,37.64416],[-120.73818,37.64506],[-120.73993,37.6453],[-120.7414,37.64678],[-120.74134,37.64743],[-120.73745,37.64801],[-120.73211,37.65061],[-120.73176,37.65283],[-120.75599,37.65277],[-120.75594,37.64909],[-120.75796,37.64962],[-120.77104,37.64834],[-120.77391,37.64569],[-120.77387,37.64184],[-120.77621,37.64188],[-120.7762,37.63821],[-120.77863,37.63824]]]},"properties":{"GEOID":"0683612","NAME":"Waterford city","BASENAME":"Waterford","STATE":"06","PLACE":"83612"}},{"type":"Feature","geometry":{"type":"Polygon","coordinates":[[[-120.96872,37.73271],[-120.96764,37.73223],[-120.96752,37.71099],[-120.94737,37.71038],[-120.93265,37.71091],[-120.93628,37.71188],[-120.93885,37.71414],[-120.93903,37.71633],[-120.93783,37.71633],[-120.93786,37.71818],[-120.93269,37.71817],[-120.93641,37.72702],[-120.93449,37.72749],[-120.93108,37.71907],[-120.92764,37.71906],[-120.92767,37.72073],[-120.92194,37.72096],[-120.92185,37.71089],[-120.91693,37.71091],[-120.91697,37.72275],[-120.92196,37.72278],[-120.92201,37.7254],[-120.91749,37.72542],[-120.91752,37.72904],[-120.91302,37.72906],[-120.91327,37.73597],[-120.92223,37.736],[-120.92217,37.73505],[-120.92683,37.73503],[-120.92627,37.73602],[-120.92681,37.73858],[-120.93301,37.7395],[-120.93924,37.74203],[-120.94197,37.74229],[-120.94445,37.74213],[-120.95403,37.73835],[-120.95579,37.7394],[-120.9558,37.73745],[-120.95674,37.73706],[-120.95999,37.73834],[-120.96333,37.738],[-120.96329,37.73514],[-120.96237,37.73482],[-120.96232,37.73268],[-120.96872,37.73271]]]},"properties":{"GEOID":"0661068","NAME":"Riverbank city","BASENAME":"Riverbank","STATE":"06","PLACE":"61068"}},{"type":"Feature","geometry":{"type":"MultiPolygon","coordinates":[[[[-120.88381,37.75467],[-120.88377,37.75271],[-120.88162,37.75272],[-120.8816,37.75181],[-120.87892,37.75184],[-120.87888,37.75094],[-120.87066,37.75432],[-120.87037,37.75366],[-120.87606,37.75139],[-120.88135,37.74774],[-120.88149,37.7443],[-120.87894,37.74439],[-120.87629,37.74681],[-120.87299,37.74756],[-120.87001,37.74939],[-120.86769,37.7488],[-120.86214,37.75225],[-120.85998,37.75253],[-120.85681,37.75101],[-120.8527,37.75245],[-120.85258,37.74471],[-120.84904,37.74646],[-120.84892,37.74019],[-120.84185,37.74023],[-120.8397,37.73711],[-120.83984,37.74025],[-120.83068,37.74039],[-120.83088,37.74736],[-120.83008,37.74786],[-120.82986,37.75041],[-120.82539,37.75162],[-120.83055,37.75359],[-120.82949,37.75359],[-120.82952,37.75604],[-120.82852,37.75602],[-120.82852,37.75735],[-120.83054,37.75789],[-120.8357,37.75737],[-120.83559,37.7618],[-120.82419,37.76182],[-120.82432,37.77204],[-120.81703,37.7761],[-120.81707,37.78113],[-120.82602,37.77984],[-120.82555,37.77778],[-120.83011,37.77657],[-120.83467,37.78309],[-120.83878,37.78013],[-120.84712,37.77981],[-120.84976,37.77844],[-120.85711,37.77666],[-120.8599,37.77488],[-120.86223,37.77464],[-120.8623,37.78119],[-120.86432,37.78163],[-120.86726,37.78062],[-120.86694,37.77085],[-120.86515,37.77079],[-120.86516,37.76915],[-120.8628,37.76916],[-120.86255,37.76685],[-120.86724,37.76544],[-120.8674,37.76332],[-120.87214,37.76335],[-120.8728,37.76183],[-120.88173,37.76188],[-120.88171,37.76078],[-120.88377,37.76066],[-120.88321,37.75468],[-120.88381,37.75467]]],[[[-120.80709,37.75827],[-120.80708,37.75647],[-120.80242,37.75642],[-120.80245,37.75467],[-120.80021,37.75459],[-120.79841,37.75221],[-120.79596,37.75294],[-120.78995,37.75116],[-120.78897,37.75316],[-120.79133,37.75353],[-120.79242,37.75511],[-120.79728,37.75653],[-120.79777,37.75779],[-120.80709,37.75827]]],[[[-120.82229,37.78821],[-120.82161,37.78556],[-120.81776,37.78564],[-120.81846,37.79075],[-120.82229,37.78821]]]]},"properties":{"GEOID":"0652694","NAME":"Oakdale city","BASENAME":"Oakdale","STATE":"06","PLACE":"52694"}},{"type":"Feature","geometry":{"type":"MultiPolygon","coordinates":[[[[-121.20681,37.4935],[-121.19812,37.4864],[-121.20288,37.48633],[-121.18851,37.47205],[-121.18601,37.47198],[-121.17325,37.45828],[-121.16938,37.45843],[-121.16797,37.45749],[-121.16517,37.45736],[-121.1624,37.45007],[-121.15933,37.45006],[-121.15918,37.45793],[-121.14671,37.45728],[-121.14448,37.45635],[-121.14451,37.4526],[-121.14107,37.4526],[-121.14097,37.46065],[-121.12408,37.46064],[-121.11965,37.45697],[-121.11772,37.45697],[-121.12107,37.46156],[-121.11668,37.46359],[-121.11977,37.46784],[-121.12037,37.46755],[-121.12312,37.47058],[-121.11809,37.4729],[-121.12038,37.47602],[-121.11949,37.47643],[-121.12169,37.4796],[-121.11483,37.48273],[-121.12163,37.49215],[-121.11773,37.49394],[-121.11998,37.49697],[-121.12392,37.49531],[-121.1262,37.49846],[-121.14193,37.49125],[-121.14338,37.49327],[-121.16477,37.49341],[-121.16477,37.49734],[-121.16811,37.49731],[-121.16808,37.49341],[-121.18641,37.49337],[-121.18634,37.49611],[-121.19087,37.49622],[-121.19089,37.49336],[-121.20681,37.4935]]],[[[-121.09442,37.50467],[-121.09797,37.50302],[-121.09346,37.49677],[-121.08956,37.4985],[-121.09442,37.50467]]]]},"properties":{"GEOID":"0656112","NAME":"Patterson city","BASENAME":"Patterson","STATE":"06","PLACE":"56112"}},{"type":"Feature","geometry":{"type":"Polygon","coordinates":[[[-121.01188,37.58414],[-121.0119,37.58051],[-120.99367,37.58037],[-120.99366,37.573],[-120.98444,37.57306],[-120.97533,37.57158],[-120.96618,37.57158],[-120.96611,37.5803],[-120.9569,37.58031],[-120.9569,37.58164],[-120.95358,37.58164],[-120.95358,37.58295],[-120.95495,37.58296],[-120.95493,37.58428],[-120.95689,37.58428],[-120.95689,37.58562],[-120.95054,37.58563],[-120.9502,37.58294],[-120.94828,37.58295],[-120.94776,37.5816],[-120.94775,37.58361],[-120.9456,37.58385],[-120.94557,37.58259],[-120.94439,37.58259],[-120.94492,37.58114],[-120.94026,37.57758],[-120.93878,37.57746],[-120.93678,37.57468],[-120.93605,37.57619],[-120.93612,37.59116],[-120.92495,37.59113],[-120.92499,37.59478],[-120.92046,37.5948],[-120.9205,37.61433],[-120.92465,37.61451],[-120.92843,37.61584],[-120.93327,37.61347],[-120.93852,37.61555],[-120.93853,37.61424],[-120.94038,37.6161],[-120.94884,37.61658],[-120.94882,37.61844],[-120.95186,37.61805],[-120.95183,37.61947],[-120.95299,37.61948],[-120.953,37.61834],[-120.95701,37.61839],[-120.957,37.62132],[-120.96246,37.62092],[-120.96242,37.61833],[-120.96614,37.61844],[-120.96614,37.61913],[-120.96763,37.61915],[-120.96763,37.62046],[-120.97532,37.62022],[-120.97532,37.61842],[-120.97077,37.61841],[-120.97078,37.61476],[-120.96617,37.61534],[-120.96619,37.61293],[-120.97534,37.61304],[-120.97534,37.60929],[-120.97655,37.60909],[-120.9716,37.60428],[-120.97529,37.60286],[-120.97524,37.59484],[-121.01184,37.59502],[-121.01188,37.58414]],[[-120.96357,37.60941],[-120.96357,37.6104],[-120.96161,37.61018],[-120.96161,37.60953],[-120.96357,37.60941]],[[-120.95822,37.61199],[-120.95823,37.61282],[-120.95704,37.61282],[-120.95703,37.61416],[-120.95463,37.6142],[-120.95524,37.61282],[-120.95249,37.61284],[-120.9521,37.60927],[-120.95587,37.60924],[-120.95587,37.61006],[-120.95704,37.61006],[-120.95704,37.61107],[-120.95821,37.61113],[-120.95822,37.61199]]]},"properties":{"GEOID":"0612524","NAME":"Ceres city","BASENAME":"Ceres","STATE":"06","PLACE":"12524"}},{"type":"Feature","geometry":{"type":"Polygon","coordinates":[[[-120.90364,37.47811],[-120.86952,37.47816],[-120.86951,37.47448],[-120.85354,37.47455],[-120.85353,37.47097],[-120.84674,37.47094],[-120.84674,37.47251],[-120.83078,37.46633],[-120.83068,37.47449],[-120.83296,37.4745],[-120.83272,37.47908],[-120.83348,37.47943],[-120.83205,37.48046],[-120.83287,37.48117],[-120.83438,37.4801],[-120.84223,37.487],[-120.84002,37.48859],[-120.83736,37.48638],[-120.83691,37.48671],[-120.83938,37.48905],[-120.83803,37.49002],[-120.8315,37.48418],[-120.8307,37.48473],[-120.83067,37.48259],[-120.82834,37.48261],[-120.82842,37.49368],[-120.82672,37.49369],[-120.82611,37.49643],[-120.82146,37.49642],[-120.82146,37.49265],[-120.81689,37.49264],[-120.81683,37.50712],[-120.81212,37.50708],[-120.81208,37.518],[-120.82607,37.51814],[-120.82565,37.53664],[-120.89545,37.5368],[-120.89112,37.53307],[-120.88986,37.52871],[-120.89011,37.51816],[-120.88553,37.51816],[-120.88543,37.50723],[-120.90358,37.50724],[-120.90364,37.47811]],[[-120.84456,37.47966],[-120.84391,37.48014],[-120.84319,37.47931],[-120.84374,37.47893],[-120.84456,37.47966]],[[-120.84379,37.48528],[-120.84328,37.48566],[-120.84086,37.48359],[-120.84142,37.48319],[-120.84379,37.48528]],[[-120.85126,37.48001],[-120.85009,37.48044],[-120.84898,37.47818],[-120.85086,37.47818],[-120.85126,37.48001]],[[-120.83293,37.48958],[-120.83177,37.48981],[-120.8318,37.49195],[-120.83073,37.49166],[-120.83067,37.48803],[-120.83174,37.48814],[-120.83293,37.48958]],[[-120.84356,37.5011],[-120.84356,37.50237],[-120.84217,37.50237],[-120.84216,37.5042],[-120.84042,37.5038],[-120.84042,37.50129],[-120.84356,37.5011]],[[-120.84795,37.48082],[-120.84682,37.48164],[-120.84759,37.48311],[-120.84615,37.48417],[-120.84355,37.48191],[-120.84611,37.47887],[-120.84795,37.48082]],[[-120.86337,37.4816],[-120.86267,37.48176],[-120.86265,37.48362],[-120.85982,37.48362],[-120.85863,37.48543],[-120.85586,37.48484],[-120.85586,37.48353],[-120.85267,37.48355],[-120.8527,37.48179],[-120.8558,37.4818],[-120.8558,37.48241],[-120.85807,37.4818],[-120.85809,37.48002],[-120.8558,37.48002],[-120.85582,37.47818],[-120.8567,37.47818],[-120.85809,37.48002],[-120.86035,37.48002],[-120.86035,37.479],[-120.85898,37.47818],[-120.86263,37.47817],[-120.86262,37.48086],[-120.86337,37.4816]]]},"properties":{"GEOID":"0680812","NAME":"Turlock city","BASENAME":"Turlock","STATE":"06","PLACE":"80812"}},{"type":"Feature","geometry":{"type":"MultiPolygon","coordinates":[[[[-121.07441,37.69999],[-121.03605,37.66784],[-121.04494,37.66757],[-121.04493,37.66403],[-121.04948,37.66276],[-121.04913,37.64581],[-121.03026,37.64554],[-121.03045,37.62595],[-121.03167,37.62593],[-121.03166,37.62516],[-121.03044,37.62518],[-121.03044,37.62434],[-121.0265,37.62488],[-121.02682,37.62773],[-121.02323,37.62775],[-121.02324,37.62885],[-121.02136,37.6285],[-121.02036,37.63037],[-121.02185,37.63059],[-121.02185,37.6314],[-121.01645,37.63142],[-121.01692,37.62874],[-121.01963,37.62872],[-121.0196,37.62733],[-121.02092,37.62733],[-121.02088,37.62596],[-121.01509,37.626],[-121.01512,37.62734],[-121.01353,37.62663],[-121.01991,37.62229],[-121.01953,37.6205],[-121.02089,37.62049],[-121.02088,37.62492],[-121.02235,37.62494],[-121.02141,37.62207],[-121.02289,37.62227],[-121.02291,37.62162],[-121.02206,37.62086],[-121.02334,37.62],[-121.02427,37.6209],[-121.02637,37.61949],[-121.02541,37.6186],[-121.0272,37.61749],[-121.02555,37.61684],[-121.02558,37.61325],[-121.01541,37.61331],[-121.01541,37.61252],[-121.01636,37.61253],[-121.0163,37.6098],[-121.02178,37.60972],[-121.02211,37.60917],[-121.02355,37.6096],[-121.02358,37.61058],[-121.02802,37.61129],[-121.02802,37.61207],[-121.03047,37.61203],[-121.03043,37.61332],[-121.03498,37.61394],[-121.03496,37.61147],[-121.03045,37.6087],[-121.03027,37.59505],[-120.99359,37.59487],[-120.99352,37.60028],[-120.98906,37.60027],[-120.98905,37.59487],[-120.97524,37.59484],[-120.97534,37.60509],[-120.98445,37.60509],[-120.98449,37.60815],[-120.98577,37.60817],[-120.98576,37.60699],[-120.99224,37.60698],[-120.99341,37.60771],[-120.9972,37.60777],[-120.9972,37.60911],[-121.00078,37.609],[-121.00073,37.61091],[-120.99939,37.6109],[-120.99941,37.61325],[-120.99845,37.61414],[-120.99844,37.61345],[-120.99362,37.61389],[-120.99361,37.60943],[-120.9847,37.60939],[-120.98649,37.61642],[-120.99357,37.61718],[-120.99355,37.62149],[-120.99569,37.62153],[-120.99594,37.62261],[-120.99828,37.62259],[-120.99813,37.62539],[-120.99152,37.62697],[-120.98356,37.62742],[-120.98495,37.62993],[-120.98645,37.6305],[-120.98691,37.63212],[-120.98692,37.63317],[-120.98432,37.63646],[-120.97649,37.63783],[-120.97648,37.63681],[-120.97147,37.6368],[-120.97146,37.63545],[-120.96965,37.63545],[-120.96964,37.63618],[-120.97113,37.63617],[-120.97114,37.6368],[-120.9681,37.63743],[-120.96801,37.63397],[-120.96628,37.63399],[-120.9663,37.63166],[-120.9678,37.63084],[-120.97473,37.63104],[-120.97472,37.62592],[-120.97632,37.62588],[-120.97604,37.62449],[-120.97835,37.62572],[-120.97872,37.6219],[-120.97532,37.62104],[-120.97538,37.62414],[-120.97087,37.62172],[-120.96235,37.62264],[-120.95035,37.62178],[-120.9481,37.62092],[-120.9474,37.61766],[-120.94226,37.61858],[-120.93873,37.61716],[-120.93915,37.62],[-120.94095,37.62176],[-120.94096,37.62369],[-120.94469,37.62369],[-120.94817,37.62545],[-120.95746,37.63057],[-120.95744,37.63227],[-120.96219,37.63228],[-120.96628,37.63466],[-120.96783,37.63416],[-120.96778,37.63764],[-120.92076,37.63802],[-120.92088,37.64184],[-120.91661,37.64214],[-120.91694,37.65266],[-120.92099,37.65252],[-120.92103,37.65709],[-120.91747,37.65732],[-120.91548,37.65847],[-120.91402,37.66107],[-120.90738,37.66159],[-120.90564,37.6631],[-120.90627,37.66559],[-120.90281,37.66704],[-120.91126,37.66717],[-120.92163,37.6925],[-120.92155,37.68904],[-120.92976,37.68902],[-120.92986,37.69446],[-120.93984,37.69443],[-120.93992,37.69985],[-120.97175,37.69985],[-120.97179,37.70157],[-120.97632,37.70153],[-120.97625,37.69978],[-120.99454,37.69996],[-120.99442,37.69636],[-121.00006,37.69643],[-121.00019,37.69969],[-121.00093,37.6997],[-121.00092,37.70038],[-121.01273,37.70055],[-121.01284,37.70381],[-121.04317,37.70406],[-121.04334,37.71182],[-121.0559,37.7117],[-121.05585,37.70748],[-121.05454,37.70748],[-121.05451,37.70362],[-121.06835,37.70357],[-121.06829,37.70005],[-121.07441,37.69999]],[[-121.04467,37.65051],[-121.04468,37.6512],[-121.04365,37.65121],[-121.0435,37.65307],[-121.03789,37.65313],[-121.03785,37.65126],[-121.03898,37.65124],[-121.03895,37.6499],[-121.03496,37.64949],[-121.03494,37.64878],[-121.03672,37.64803],[-121.03941,37.64881],[-121.04337,37.64807],[-121.04464,37.64914],[-121.04467,37.65051]],[[-121.04029,37.66001],[-121.03802,37.66047],[-121.03798,37.65807],[-121.04026,37.6578],[-121.04029,37.66001]],[[-121.03566,37.65649],[-121.03106,37.65687],[-121.03103,37.65323],[-121.03517,37.65317],[-121.03566,37.65649]],[[-121.03109,37.65863],[-121.02648,37.65867],[-121.02649,37.65991],[-121.02285,37.65682],[-121.02322,37.6532],[-121.02229,37.6532],[-121.02236,37.65138],[-121.02105,37.65029],[-121.02104,37.64599],[-121.02281,37.64599],[-121.02225,37.64865],[-121.02341,37.64955],[-121.02794,37.6495],[-121.02867,37.65792],[-121.03108,37.65791],[-121.03109,37.65863]],[[-121.02113,37.64185],[-121.02107,37.64461],[-121.01521,37.64427],[-121.01188,37.64251],[-121.02113,37.64185]],[[-121.01806,37.63684],[-121.01643,37.63864],[-121.01413,37.63865],[-121.01416,37.63505],[-121.01185,37.63501],[-121.01186,37.63411],[-121.01416,37.63414],[-121.01413,37.63151],[-121.01644,37.63152],[-121.01644,37.63353],[-121.01805,37.63352],[-121.01806,37.63684]],[[-121.01693,37.60108],[-121.0155,37.60217],[-121.00618,37.60169],[-121.00271,37.60223],[-121.0027,37.60743],[-121.00591,37.60421],[-121.00589,37.60789],[-121.0005,37.60856],[-121.00014,37.60779],[-120.99352,37.60761],[-120.99352,37.60071],[-120.9946,37.60079],[-120.9946,37.60005],[-120.99777,37.60082],[-121.00062,37.60034],[-121.0006,37.59856],[-121.01161,37.59866],[-121.01184,37.59516],[-121.01683,37.59516],[-121.01693,37.60108]],[[-121.01507,37.62874],[-121.01506,37.62958],[-121.01355,37.62952],[-121.01358,37.63143],[-121.01186,37.63143],[-121.01177,37.62875],[-121.01507,37.62874]],[[-121.01177,37.61333],[-121.01175,37.61725],[-121.01085,37.61794],[-121.01085,37.61857],[-121.01175,37.61857],[-121.01174,37.62423],[-121.00775,37.62424],[-121.00833,37.62333],[-121.00277,37.62423],[-121.00263,37.62055],[-121.00375,37.62056],[-121.00373,37.61972],[-121.00491,37.62057],[-121.00491,37.62242],[-121.00605,37.62242],[-121.00562,37.62057],[-121.00628,37.62057],[-121.00629,37.61879],[-121.00719,37.61882],[-121.00722,37.61333],[-121.01177,37.61333]],[[-120.97601,37.68537],[-120.97602,37.68621],[-120.96697,37.68621],[-120.96698,37.68899],[-120.96242,37.689],[-120.96247,37.68523],[-120.96695,37.68524],[-120.96739,37.68389],[-120.97598,37.68387],[-120.97601,37.68537]],[[-120.92985,37.65569],[-120.92813,37.65716],[-120.92166,37.65708],[-120.92131,37.65274],[-120.92947,37.65269],[-120.92833,37.65361],[-120.92985,37.65569]]],[[[-120.90173,37.63686],[-120.90172,37.63658],[-120.90124,37.63659],[-120.90173,37.63686]]],[[[-120.90561,37.6388],[-120.9056,37.63855],[-120.90559,37.63855],[-120.90561,37.6388]]],[[[-120.91102,37.64009],[-120.91101,37.63982],[-120.91067,37.63982],[-120.91102,37.64009]]],[[[-121.03431,37.642],[-121.0339,37.64216],[-121.03387,37.64228],[-121.03431,37.642]]],[[[-121.0442,37.62161],[-121.0442,37.62154],[-121.04399,37.62161],[-121.0442,37.62161]]],[[[-121.11301,37.53412],[-121.11205,37.53289],[-121.10746,37.53205],[-121.10736,37.53098],[-121.11034,37.52821],[-121.10982,37.52604],[-121.10774,37.52555],[-121.10371,37.52686],[-121.10173,37.525],[-121.09993,37.52545],[-121.09777,37.52471],[-121.09726,37.52383],[-121.09987,37.5207],[-121.09983,37.51867],[-121.0966,37.5181],[-121.09264,37.51928],[-121.09035,37.51879],[-121.09033,37.51679],[-121.09575,37.51728],[-121.09698,37.51569],[-121.09461,37.51301],[-121.08932,37.51192],[-121.08775,37.50699],[-121.08423,37.50507],[-121.08405,37.50037],[-121.08156,37.49704],[-121.08024,37.49336],[-121.07165,37.48947],[-121.06935,37.48667],[-121.06757,37.48577],[-121.06715,37.48344],[-121.06971,37.48185],[-121.06996,37.4807],[-121.06623,37.4809],[-121.06361,37.48297],[-121.06242,37.48565],[-121.06013,37.4863],[-121.05867,37.48537],[-121.05842,37.48428],[-121.06024,37.48314],[-121.06049,37.4819],[-121.05628,37.48094],[-121.05602,37.47886],[-121.04872,37.47885],[-121.04911,37.50782],[-121.05822,37.50816],[-121.05817,37.52237],[-121.06732,37.52238],[-121.06703,37.53693],[-121.08126,37.537],[-121.08546,37.54003],[-121.08971,37.53979],[-121.09413,37.54234],[-121.10036,37.54106],[-121.1042,37.54138],[-121.10761,37.5388],[-121.10857,37.53661],[-121.10942,37.53613],[-121.11026,37.53692],[-121.11104,37.53541],[-121.11301,37.53412]]]]},"properties":{"GEOID":"0648354","NAME":"Modesto city","BASENAME":"Modesto","STATE":"06","PLACE":"48354"}}]}