{"type":"FeatureCollection","features":[{"type":"Feature","geometry":{"type":"Polygon","coordinates":[[[-121.67876,39.26519],[-121.67873,39.25733],[-121.67808,39.25966],[-121.67596,39.25969],[-121.67597,39.26518],[-121.66923,39.26527],[-121.66935,39.26187],[-121.66003,39.26193],[-121.66001,39.26517],[-121.658,39.2652],[-121.6545,39.25558],[-121.65178,39.25559],[-121.65177,39.25874],[-121.6494,39.26224],[-121.64943,39.26477],[-121.65411,39.26489],[-121.65412,39.26656],[-121.65211,39.26975],[-121.65415,39.27018],[-121.65419,39.27381],[-121.64954,39.27384],[-121.64953,39.27605],[-121.65152,39.27612],[-121.65151,39.27782],[-121.65266,39.27782],[-121.65267,39.27665],[-121.65416,39.27664],[-121.65365,39.27892],[-121.65419,39.28202],[-121.6458,39.28209],[-121.64572,39.28822],[-121.65045,39.28821],[-121.65048,39.29605],[-121.65737,39.29609],[-121.65743,39.29797],[-121.65995,39.29791],[-121.65993,39.30163],[-121.67125,39.30159],[-121.66732,39.29174],[-121.66311,39.28608],[-121.66574,39.28651],[-121.66513,39.28487],[-121.67401,39.28488],[-121.67395,39.27783],[-121.67822,39.27782],[-121.67868,39.27631],[-121.67814,39.27463],[-121.67876,39.26519]]]},"properties":{"GEOID":"0641936","NAME":"Live Oak city","BASENAME":"Live Oak","STATE":"06","PLACE":"41936"}},{"type":"Feature","geometry":{"type":"Polygon","coordinates":[[[-121.68887,39.1451],[-121.68887,39.14458],[-121.68611,39.14459],[-121.68616,39.14159],[-121.68592,39.1424],[-121.68357,39.14242],[-121.68357,39.14131],[-121.677,39.14133],[-121.67697,39.13842],[-121.67882,39.13841],[-121.67879,39.13431],[-121.68106,39.13434],[-121.68106,39.12704],[-121.65321,39.1272],[-121.65327,39.11996],[-121.65558,39.11994],[-121.65559,39.11449],[-121.65327,39.11451],[-121.65327,39.11269],[-121.67174,39.11256],[-121.67153,39.09806],[-121.64346,39.09827],[-121.6436,39.10187],[-121.63852,39.1019],[-121.63941,39.10437],[-121.63915,39.10788],[-121.63642,39.11273],[-121.64018,39.11313],[-121.64025,39.11955],[-121.63924,39.11981],[-121.63922,39.1249],[-121.63459,39.1249],[-121.63456,39.12659],[-121.63247,39.12729],[-121.63107,39.1263],[-121.63107,39.12433],[-121.62748,39.12427],[-121.62745,39.1216],[-121.63228,39.1182],[-121.6321,39.11457],[-121.62984,39.11455],[-121.62986,39.1127],[-121.63227,39.11273],[-121.63218,39.11038],[-121.62976,39.11037],[-121.62971,39.10898],[-121.62504,39.10899],[-121.62501,39.10818],[-121.6227,39.10821],[-121.62261,39.10619],[-121.62493,39.10617],[-121.62501,39.10551],[-121.62266,39.10509],[-121.62396,39.10119],[-121.62492,39.10118],[-121.62416,39.10066],[-121.62514,39.09785],[-121.63441,39.09831],[-121.63442,39.09747],[-121.63553,39.09747],[-121.63553,39.0983],[-121.64277,39.09826],[-121.64348,39.09769],[-121.64365,39.09224],[-121.64247,39.09223],[-121.64366,39.09188],[-121.64378,39.08753],[-121.63466,39.08714],[-121.63459,39.08914],[-121.63213,39.08916],[-121.63219,39.08715],[-121.62785,39.08717],[-121.62771,39.09192],[-121.6253,39.09194],[-121.62527,39.09284],[-121.62768,39.09282],[-121.6276,39.09555],[-121.62008,39.09512],[-121.62022,39.09055],[-121.61329,39.09223],[-121.61341,39.08718],[-121.60777,39.08719],[-121.60925,39.091],[-121.60172,39.09145],[-121.59892,39.09764],[-121.59953,39.09825],[-121.60238,39.0972],[-121.60752,39.10402],[-121.60751,39.10982],[-121.60632,39.11451],[-121.60631,39.11623],[-121.60747,39.11635],[-121.60492,39.13116],[-121.60343,39.13102],[-121.60187,39.12838],[-121.59893,39.1284],[-121.60238,39.13559],[-121.60757,39.1409],[-121.60778,39.1451],[-121.60551,39.14846],[-121.60743,39.1508],[-121.60758,39.1539],[-121.60988,39.15869],[-121.6108,39.15886],[-121.61324,39.16364],[-121.62262,39.16362],[-121.62269,39.16798],[-121.62494,39.17439],[-121.63247,39.17433],[-121.6324,39.17819],[-121.63522,39.17816],[-121.63533,39.17092],[-121.6502,39.17077],[-121.6501,39.16353],[-121.65322,39.16344],[-121.65324,39.16112],[-121.65592,39.16112],[-121.65591,39.15953],[-121.65324,39.15875],[-121.65319,39.15238],[-121.65589,39.15243],[-121.65589,39.15342],[-121.65891,39.1534],[-121.65891,39.15219],[-121.65789,39.15176],[-121.65786,39.14644],[-121.66243,39.14642],[-121.66241,39.1483],[-121.66471,39.14836],[-121.66229,39.15046],[-121.66226,39.15323],[-121.66715,39.15459],[-121.66707,39.16215],[-121.67193,39.16219],[-121.67194,39.16092],[-121.6741,39.16093],[-121.67415,39.15647],[-121.68874,39.16047],[-121.68887,39.1451]]]},"properties":{"GEOID":"0686972","NAME":"Yuba City city","BASENAME":"Yuba City","STATE":"06","PLACE":"86972"}}]}