{"type":"FeatureCollection","features":[{"type":"Feature","geometry":{"type":"Polygon","coordinates":[[[-122.13795,40.02044],[-122.12961,40.01484],[-122.11559,40.01495],[-122.11789,40.01707],[-122.11973,40.02135],[-122.12054,40.02451],[-122.12021,40.02945],[-122.13029,40.02856],[-122.13393,40.03038],[-122.13586,40.03041],[-122.13313,40.02651],[-122.13306,40.02524],[-122.13795,40.02044]]]},"properties":{"GEOID":"0678106","NAME":"Tehama city","BASENAME":"Tehama","STATE":"06","PLACE":"78106"}},{"type":"Feature","geometry":{"type":"Polygon","coordinates":[[[-122.20442,39.90812],[-122.20437,39.90249],[-122.2007,39.90247],[-122.20184,39.90632],[-122.19854,39.90632],[-122.19975,39.90475],[-122.20004,39.90259],[-122.19289,39.90256],[-122.19241,39.91912],[-122.18265,39.91903],[-122.18265,39.91782],[-122.18042,39.9173],[-122.17951,39.9173],[-122.17951,39.91898],[-122.17471,39.91895],[-122.17464,39.91703],[-122.16706,39.91708],[-122.16704,39.91895],[-122.1649,39.91894],[-122.1649,39.92274],[-122.16254,39.92272],[-122.16257,39.92414],[-122.16004,39.92412],[-122.16005,39.92794],[-122.16242,39.92794],[-122.16252,39.9315],[-122.16476,39.9315],[-122.16483,39.9334],[-122.16702,39.93342],[-122.16712,39.93508],[-122.16431,39.93506],[-122.16438,39.93878],[-122.16953,39.93823],[-122.16963,39.94233],[-122.16728,39.94234],[-122.16727,39.94723],[-122.16986,39.94725],[-122.16976,39.94902],[-122.1672,39.949],[-122.16719,39.95713],[-122.17458,39.95716],[-122.17462,39.94905],[-122.17211,39.94905],[-122.17209,39.94561],[-122.17468,39.94559],[-122.1747,39.94725],[-122.17692,39.94739],[-122.17682,39.94053],[-122.17207,39.94044],[-122.17206,39.93837],[-122.17884,39.93843],[-122.17919,39.94066],[-122.1836,39.94065],[-122.18354,39.93708],[-122.18819,39.93702],[-122.1882,39.93516],[-122.19277,39.93528],[-122.19302,39.93714],[-122.19534,39.93703],[-122.19525,39.93529],[-122.19952,39.93532],[-122.19956,39.92996],[-122.19868,39.92833],[-122.20222,39.92834],[-122.20075,39.93173],[-122.20278,39.93175],[-122.20347,39.92814],[-122.20237,39.92454],[-122.20072,39.92452],[-122.2008,39.92793],[-122.19866,39.92791],[-122.19983,39.92681],[-122.19998,39.92495],[-122.19965,39.90805],[-122.19856,39.9067],[-122.20222,39.90668],[-122.20102,39.90838],[-122.20442,39.90812]]]},"properties":{"GEOID":"0616322","NAME":"Corning city","BASENAME":"Corning","STATE":"06","PLACE":"16322"}},{"type":"Feature","geometry":{"type":"Polygon","coordinates":[[[-122.26555,40.23065],[-122.26641,40.2306],[-122.2631,40.22417],[-122.26212,40.22478],[-122.25904,40.22367],[-122.25856,40.22631],[-122.25766,40.22623],[-122.25645,40.22571],[-122.25658,40.22407],[-122.25462,40.22104],[-122.25461,40.21988],[-122.25822,40.21785],[-122.25917,40.21139],[-122.25629,40.20989],[-122.25627,40.20783],[-122.24904,40.20215],[-122.2464,40.20096],[-122.25199,40.20103],[-122.25208,40.18688],[-122.2467,40.18675],[-122.24616,40.18369],[-122.24719,40.18363],[-122.2472,40.1828],[-122.24882,40.18344],[-122.24878,40.18274],[-122.25186,40.18278],[-122.25183,40.18165],[-122.25625,40.18166],[-122.25629,40.18463],[-122.25845,40.18464],[-122.25851,40.18679],[-122.26098,40.18682],[-122.26253,40.18799],[-122.26555,40.18794],[-122.2655,40.18315],[-122.26038,40.18287],[-122.26116,40.18268],[-122.26101,40.17339],[-122.26317,40.17337],[-122.26392,40.17208],[-122.26103,40.17204],[-122.26116,40.16839],[-122.2592,40.16837],[-122.2592,40.16677],[-122.26251,40.16742],[-122.2626,40.16475],[-122.25678,40.16472],[-122.25617,40.16588],[-122.25521,40.16588],[-122.25446,40.16483],[-122.25217,40.16428],[-122.24729,40.16543],[-122.24731,40.16478],[-122.25101,40.16288],[-122.25095,40.1611],[-122.25026,40.16064],[-122.25658,40.16111],[-122.25687,40.14284],[-122.25253,40.14276],[-122.25059,40.1351],[-122.2454,40.13592],[-122.24707,40.14277],[-122.24016,40.14257],[-122.23949,40.14404],[-122.23751,40.14439],[-122.23149,40.14419],[-122.22856,40.14347],[-122.22808,40.1427],[-122.22386,40.1426],[-122.22383,40.14481],[-122.21995,40.14478],[-122.22076,40.14689],[-122.21943,40.1468],[-122.21859,40.14804],[-122.21526,40.14795],[-122.22333,40.15861],[-122.21805,40.16065],[-122.22777,40.1716],[-122.22962,40.17151],[-122.22835,40.17321],[-122.23213,40.17755],[-122.22777,40.17885],[-122.22397,40.17264],[-122.2242,40.1716],[-122.22548,40.1716],[-122.22506,40.17043],[-122.22215,40.1673],[-122.22164,40.17152],[-122.21895,40.17158],[-122.21899,40.17515],[-122.21405,40.17519],[-122.21431,40.17861],[-122.21896,40.17838],[-122.21894,40.181],[-122.21734,40.18125],[-122.21537,40.18015],[-122.21815,40.18352],[-122.2116,40.18591],[-122.20997,40.18587],[-122.21072,40.18302],[-122.2092,40.1838],[-122.20897,40.18587],[-122.20612,40.1858],[-122.20615,40.18462],[-122.1997,40.18441],[-122.19967,40.18566],[-122.19677,40.18576],[-122.19684,40.1874],[-122.20089,40.18737],[-122.20087,40.18597],[-122.20682,40.18655],[-122.20681,40.18758],[-122.20857,40.1866],[-122.20925,40.18729],[-122.21135,40.18728],[-122.21253,40.18606],[-122.21828,40.18378],[-122.2189,40.18519],[-122.2202,40.18518],[-122.22027,40.18613],[-122.22349,40.18623],[-122.2236,40.18463],[-122.22715,40.18115],[-122.22785,40.18332],[-122.23003,40.18588],[-122.23211,40.1843],[-122.23172,40.18187],[-122.2289,40.18135],[-122.22857,40.1806],[-122.23021,40.17953],[-122.23257,40.18096],[-122.23356,40.18059],[-122.23155,40.1792],[-122.23288,40.17831],[-122.23687,40.18142],[-122.23067,40.18719],[-122.23734,40.19501],[-122.2374,40.20096],[-122.24223,40.20112],[-122.24708,40.20911],[-122.25059,40.21954],[-122.25376,40.22344],[-122.25497,40.23076],[-122.26555,40.23065]],[[-122.24738,40.16779],[-122.24732,40.17158],[-122.24279,40.17143],[-122.24262,40.16773],[-122.24738,40.16779]],[[-122.22516,40.17495],[-122.22526,40.17555],[-122.22343,40.17619],[-122.22334,40.1747],[-122.22456,40.17405],[-122.22516,40.17495]]]},"properties":{"GEOID":"0659892","NAME":"Red Bluff city","BASENAME":"Red Bluff","STATE":"06","PLACE":"59892"}}]}