{"type":"FeatureCollection","features":[{"type":"Feature","geometry":{"type":"MultiPolygon","coordinates":[[[[-119.22064,36.29786],[-119.21611,36.29779],[-119.21634,36.2882],[-119.20959,36.28794],[-119.20907,36.2905],[-119.20326,36.29053],[-119.20325,36.29752],[-119.19434,36.29749],[-119.19404,36.30512],[-119.19565,36.30514],[-119.19843,36.3078],[-119.19816,36.31243],[-119.20533,36.31245],[-119.20533,36.3158],[-119.20701,36.31582],[-119.20688,36.32132],[-119.20242,36.32128],[-119.2024,36.32652],[-119.20656,36.32641],[-119.20734,36.32493],[-119.20789,36.32564],[-119.20923,36.32533],[-119.21011,36.3265],[-119.21356,36.32672],[-119.21359,36.3247],[-119.21287,36.3247],[-119.21292,36.31966],[-119.21589,36.31964],[-119.21587,36.31243],[-119.21387,36.31241],[-119.21388,36.30893],[-119.21604,36.30892],[-119.21606,36.30531],[-119.22048,36.30531],[-119.22064,36.29786]]],[[[-119.2211,36.27973],[-119.2182,36.27958],[-119.21825,36.27676],[-119.21695,36.27689],[-119.2166,36.28651],[-119.21879,36.28649],[-119.21876,36.28105],[-119.22106,36.28107],[-119.2211,36.27973]]]]},"properties":{"GEOID":"0623616","NAME":"Farmersville city","BASENAME":"Farmersville","STATE":"06","PLACE":"23616"}},{"type":"Feature","geometry":{"type":"MultiPolygon","coordinates":[[[[-119.16306,36.29755],[-119.15917,36.29739],[-119.15918,36.29561],[-119.15838,36.29561],[-119.15849,36.29001],[-119.15696,36.28996],[-119.15701,36.28634],[-119.15411,36.28629],[-119.15412,36.28276],[-119.14514,36.2827],[-119.14514,36.28631],[-119.14397,36.28633],[-119.14368,36.28268],[-119.14067,36.28265],[-119.14065,36.28357],[-119.13616,36.28353],[-119.13796,36.2869],[-119.13143,36.28711],[-119.13136,36.28981],[-119.12965,36.28978],[-119.12907,36.29703],[-119.12803,36.29701],[-119.12788,36.30082],[-119.13113,36.30087],[-119.13099,36.30342],[-119.13421,36.30345],[-119.13409,36.30523],[-119.13562,36.30523],[-119.13556,36.30618],[-119.14453,36.30626],[-119.1446,36.30449],[-119.14745,36.30448],[-119.14683,36.30259],[-119.15023,36.3045],[-119.1482,36.30586],[-119.14824,36.30694],[-119.14909,36.3071],[-119.15043,36.30455],[-119.16263,36.30485],[-119.16306,36.29755]]],[[[-119.16749,36.27079],[-119.16748,36.26846],[-119.16316,36.26842],[-119.16314,36.27077],[-119.16051,36.27077],[-119.16057,36.27564],[-119.16308,36.27562],[-119.16307,36.27228],[-119.16742,36.27227],[-119.16749,36.27079]]]]},"properties":{"GEOID":"0623126","NAME":"Exeter city","BASENAME":"Exeter","STATE":"06","PLACE":"23126"}},{"type":"Feature","geometry":{"type":"MultiPolygon","coordinates":[[[[-119.11489,36.21086],[-119.10897,36.20971],[-119.10604,36.20511],[-119.10909,36.20515],[-119.10904,36.20336],[-119.10573,36.2033],[-119.10572,36.2019],[-119.10419,36.20232],[-119.1018,36.19863],[-119.0958,36.19853],[-119.09578,36.1962],[-119.09122,36.1963],[-119.09117,36.19458],[-119.08809,36.19465],[-119.08891,36.19614],[-119.07999,36.19625],[-119.08009,36.19998],[-119.07328,36.2001],[-119.07353,36.209],[-119.06915,36.20899],[-119.06934,36.21079],[-119.06449,36.21079],[-119.06456,36.21446],[-119.07356,36.21438],[-119.0735,36.21078],[-119.07885,36.21087],[-119.07961,36.21149],[-119.07965,36.21421],[-119.07806,36.21422],[-119.07821,36.21779],[-119.07756,36.21784],[-119.07752,36.21436],[-119.07642,36.21436],[-119.0764,36.21779],[-119.07494,36.21782],[-119.07496,36.21933],[-119.07827,36.21936],[-119.07829,36.21797],[-119.08194,36.21802],[-119.08261,36.21902],[-119.08178,36.22017],[-119.08276,36.22018],[-119.08388,36.21995],[-119.08389,36.21923],[-119.08273,36.2191],[-119.08273,36.21793],[-119.08715,36.21791],[-119.08725,36.22158],[-119.09619,36.22137],[-119.096,36.21651],[-119.09967,36.21626],[-119.09859,36.21426],[-119.11255,36.21411],[-119.1125,36.21236],[-119.11489,36.21235],[-119.11489,36.21086]],[[-119.09164,36.21503],[-119.09052,36.21513],[-119.09052,36.21417],[-119.09163,36.21416],[-119.09164,36.21503]]],[[[-119.14985,36.2241],[-119.14985,36.22161],[-119.14539,36.22149],[-119.1453,36.21803],[-119.13876,36.21804],[-119.13879,36.21894],[-119.14097,36.21895],[-119.14107,36.22419],[-119.1433,36.22424],[-119.14333,36.22605],[-119.14742,36.22614],[-119.14751,36.22429],[-119.14985,36.2241]]]]},"properties":{"GEOID":"0641712","NAME":"Lindsay city","BASENAME":"Lindsay","STATE":"06","PLACE":"41712"}},{"type":"Feature","geometry":{"type":"Polygon","coordinates":[[[-119.14,36.4138],[-119.13976,36.41301],[-119.13553,36.41296],[-119.13558,36.41013],[-119.1347,36.41013],[-119.13469,36.41197],[-119.12101,36.4118],[-119.12098,36.41018],[-119.11683,36.41021],[-119.11687,36.4035],[-119.11017,36.40347],[-119.11019,36.40639],[-119.10336,36.40643],[-119.10335,36.40266],[-119.10787,36.40198],[-119.10789,36.39927],[-119.11263,36.39925],[-119.11274,36.39485],[-119.11198,36.39393],[-119.10582,36.39635],[-119.09391,36.39927],[-119.09388,36.40164],[-119.09153,36.40388],[-119.08094,36.40245],[-119.08088,36.41368],[-119.0865,36.4137],[-119.08649,36.41556],[-119.08577,36.41554],[-119.08582,36.42103],[-119.08091,36.42105],[-119.08091,36.42273],[-119.08678,36.42279],[-119.08511,36.42442],[-119.08513,36.42818],[-119.08997,36.42818],[-119.08991,36.42459],[-119.09656,36.4246],[-119.09657,36.42822],[-119.09894,36.42824],[-119.10334,36.43187],[-119.1056,36.43186],[-119.10554,36.42822],[-119.10985,36.42822],[-119.11062,36.42748],[-119.1105,36.41375],[-119.11552,36.41376],[-119.11672,36.41569],[-119.11683,36.41375],[-119.14,36.4138]]]},"properties":{"GEOID":"0686300","NAME":"Woodlake city","BASENAME":"Woodlake","STATE":"06","PLACE":"86300"}},{"type":"Feature","geometry":{"type":"Polygon","coordinates":[[[-119.43956,36.53535],[-119.43962,36.53182],[-119.40385,36.5315],[-119.40387,36.52785],[-119.39494,36.5277],[-119.39491,36.52641],[-119.39041,36.52634],[-119.3904,36.52775],[-119.38135,36.52749],[-119.38134,36.52922],[-119.37963,36.52915],[-119.3796,36.53107],[-119.3722,36.53112],[-119.37219,36.53827],[-119.36984,36.5383],[-119.36979,36.54189],[-119.36785,36.5419],[-119.36774,36.54636],[-119.37204,36.54633],[-119.37203,36.547],[-119.37316,36.54699],[-119.37316,36.55267],[-119.37694,36.5526],[-119.37698,36.55621],[-119.37303,36.55614],[-119.37302,36.5582],[-119.37694,36.55984],[-119.37697,36.5638],[-119.38627,36.5638],[-119.39217,36.56636],[-119.39263,36.57124],[-119.39743,36.57131],[-119.39747,36.56774],[-119.39964,36.56774],[-119.39961,36.5641],[-119.40385,36.56416],[-119.40387,36.56049],[-119.41297,36.5606],[-119.41278,36.55698],[-119.41731,36.55698],[-119.41732,36.5461],[-119.41267,36.5461],[-119.41266,36.54064],[-119.41728,36.5407],[-119.41729,36.53888],[-119.42402,36.53893],[-119.42395,36.54252],[-119.43031,36.54257],[-119.43027,36.54624],[-119.43947,36.54627],[-119.43956,36.53535]]]},"properties":{"GEOID":"0619318","NAME":"Dinuba city","BASENAME":"Dinuba","STATE":"06","PLACE":"19318"}},{"type":"Feature","geometry":{"type":"Polygon","coordinates":[[[-119.39285,36.18169],[-119.39272,36.16731],[-119.3797,36.16742],[-119.37973,36.17448],[-119.37531,36.17452],[-119.37528,36.17283],[-119.3775,36.17284],[-119.37751,36.1704],[-119.37528,36.17045],[-119.37521,36.1672],[-119.36648,36.16732],[-119.36635,36.196],[-119.35773,36.19644],[-119.35771,36.18924],[-119.35551,36.18922],[-119.3555,36.18651],[-119.3555,36.18564],[-119.35773,36.18562],[-119.35769,36.17481],[-119.34218,36.17466],[-119.34214,36.17386],[-119.34074,36.17388],[-119.32936,36.12361],[-119.32493,36.12349],[-119.32597,36.13326],[-119.32931,36.14483],[-119.31937,36.15129],[-119.31878,36.1528],[-119.32189,36.15285],[-119.32183,36.15637],[-119.31785,36.15633],[-119.31777,36.1599],[-119.31367,36.15995],[-119.31523,36.16717],[-119.3209,36.17297],[-119.30992,36.17929],[-119.31109,36.18062],[-119.30471,36.18343],[-119.31003,36.18762],[-119.31338,36.18639],[-119.31325,36.19132],[-119.30883,36.19125],[-119.30885,36.19268],[-119.30472,36.19269],[-119.30463,36.18944],[-119.2958,36.18937],[-119.29563,36.1817],[-119.27783,36.18163],[-119.27805,36.1964],[-119.28358,36.1964],[-119.28361,36.20006],[-119.28255,36.20004],[-119.28264,36.20368],[-119.29601,36.20366],[-119.29609,36.21088],[-119.30332,36.2111],[-119.30327,36.22609],[-119.31288,36.22597],[-119.31298,36.24766],[-119.3222,36.2476],[-119.32219,36.24398],[-119.32652,36.24391],[-119.32653,36.24152],[-119.3311,36.24148],[-119.33111,36.24041],[-119.33558,36.24037],[-119.33996,36.24034],[-119.34012,36.24746],[-119.34903,36.24742],[-119.34913,36.24518],[-119.35643,36.24497],[-119.35436,36.23297],[-119.36007,36.23293],[-119.36007,36.23113],[-119.36229,36.23112],[-119.36221,36.22769],[-119.36564,36.22769],[-119.36562,36.22647],[-119.36668,36.22646],[-119.36669,36.22748],[-119.36881,36.22748],[-119.36951,36.22566],[-119.37336,36.22565],[-119.37342,36.22773],[-119.37566,36.22777],[-119.37564,36.22561],[-119.37685,36.22561],[-119.37742,36.2248],[-119.37742,36.22195],[-119.38066,36.2219],[-119.38082,36.21447],[-119.38441,36.21444],[-119.38437,36.21072],[-119.37359,36.21033],[-119.37361,36.20796],[-119.37722,36.20537],[-119.37723,36.20365],[-119.37917,36.20363],[-119.3798,36.19809],[-119.3843,36.19808],[-119.38427,36.19629],[-119.36645,36.19638],[-119.36641,36.18916],[-119.38417,36.18877],[-119.38405,36.18178],[-119.39285,36.18169]]]},"properties":{"GEOID":"0680644","NAME":"Tulare city","BASENAME":"Tulare","STATE":"06","PLACE":"80644"}},{"type":"Feature","geometry":{"type":"MultiPolygon","coordinates":[[[[-119.08456,36.02943],[-119.0846,36.02589],[-119.07552,36.02591],[-119.07556,36.02228],[-119.05493,36.02225],[-119.05338,36.02106],[-119.0534,36.01863],[-119.05117,36.01862],[-119.05116,36.02217],[-119.03929,36.02215],[-119.03926,36.04039],[-119.02863,36.04036],[-119.02865,36.03671],[-119.02638,36.03671],[-119.02419,36.03673],[-119.02417,36.04035],[-119.01016,36.04042],[-119.01012,36.04266],[-119.00843,36.04266],[-119.00814,36.05092],[-119.00215,36.051],[-119.00217,36.04818],[-119.00164,36.04816],[-118.99647,36.04818],[-118.99957,36.05079],[-118.99027,36.05096],[-118.99012,36.04402],[-118.98633,36.04398],[-118.98646,36.04038],[-118.99095,36.04037],[-118.9909,36.03318],[-118.97765,36.0332],[-118.97756,36.04391],[-118.97074,36.04384],[-118.97055,36.05098],[-118.97127,36.05142],[-118.97045,36.05193],[-118.96874,36.05141],[-118.96874,36.05254],[-118.96739,36.05254],[-118.96739,36.05395],[-118.97277,36.05497],[-118.97277,36.0541],[-118.97484,36.0533],[-118.97277,36.0533],[-118.97275,36.05146],[-118.9942,36.05134],[-118.99604,36.05152],[-118.99604,36.05233],[-118.9927,36.05235],[-118.99268,36.05146],[-118.99184,36.05146],[-118.99188,36.05434],[-118.99255,36.05488],[-119.0029,36.05487],[-119.00031,36.0514],[-119.00311,36.05402],[-119.00798,36.05373],[-119.00773,36.05697],[-119.00686,36.05698],[-119.00759,36.05842],[-119.00417,36.05846],[-119.00374,36.05786],[-119.00378,36.06054],[-118.99953,36.06116],[-119.0014,36.06283],[-118.99842,36.06236],[-118.99815,36.06326],[-118.99503,36.06335],[-118.99505,36.06444],[-118.99734,36.06441],[-118.99735,36.06568],[-118.99543,36.0657],[-118.99522,36.06682],[-118.99375,36.06682],[-118.99376,36.0657],[-118.99293,36.06571],[-118.9929,36.0694],[-118.98842,36.06939],[-118.98839,36.06581],[-118.9683,36.06597],[-118.96835,36.06955],[-118.96612,36.06956],[-118.96615,36.07138],[-118.96838,36.07136],[-118.96841,36.0732],[-118.98045,36.07368],[-118.98049,36.07618],[-118.97736,36.07614],[-118.97743,36.08026],[-118.99065,36.08021],[-118.99064,36.08384],[-119.00422,36.08383],[-119.00423,36.08564],[-119.00765,36.08562],[-119.00868,36.08518],[-119.00868,36.08379],[-119.01094,36.08378],[-119.01098,36.08742],[-119.00869,36.08743],[-119.0087,36.09104],[-119.01325,36.09102],[-119.01331,36.09645],[-119.0178,36.0964],[-119.01774,36.091],[-119.01507,36.09102],[-119.01506,36.09006],[-119.01773,36.09005],[-119.01772,36.08891],[-119.01895,36.08891],[-119.01968,36.08983],[-119.02215,36.08928],[-119.02216,36.09031],[-119.02541,36.09097],[-119.02599,36.09183],[-119.02549,36.09206],[-119.02666,36.09278],[-119.02599,36.09279],[-119.02605,36.09614],[-119.03122,36.09637],[-119.03122,36.09818],[-119.0341,36.09816],[-119.03288,36.09646],[-119.0351,36.09546],[-119.0331,36.09341],[-119.03168,36.09358],[-119.03098,36.09267],[-119.0326,36.09245],[-119.03548,36.09464],[-119.03577,36.0957],[-119.03722,36.09571],[-119.03792,36.09719],[-119.0394,36.09729],[-119.03942,36.09824],[-119.03752,36.09754],[-119.03807,36.09822],[-119.03515,36.0982],[-119.03638,36.09997],[-119.03273,36.09993],[-119.02995,36.09831],[-119.02807,36.09867],[-119.02807,36.09721],[-119.02674,36.09635],[-119.02677,36.10017],[-119.02781,36.09923],[-119.02791,36.10446],[-119.03015,36.10178],[-119.03353,36.10177],[-119.03572,36.10543],[-119.03591,36.11636],[-119.03754,36.11636],[-119.03748,36.11573],[-119.03778,36.11636],[-119.03778,36.1152],[-119.0386,36.11627],[-119.0403,36.11635],[-119.04034,36.11276],[-119.04467,36.11272],[-119.04065,36.10566],[-119.04127,36.10508],[-119.04353,36.1055],[-119.04344,36.1026],[-119.04455,36.10262],[-119.04454,36.10184],[-119.049,36.10193],[-119.04913,36.10554],[-119.05362,36.10558],[-119.05347,36.10238],[-119.05887,36.10201],[-119.05874,36.09839],[-119.05548,36.09837],[-119.05532,36.09475],[-119.0688,36.09482],[-119.07079,36.09149],[-119.07972,36.08477],[-119.07973,36.08347],[-119.07972,36.08242],[-119.07769,36.08241],[-119.07769,36.08035],[-119.07526,36.08035],[-119.07527,36.06512],[-119.0745,36.06512],[-119.07534,36.06219],[-119.07086,36.06219],[-119.07089,36.06056],[-119.06642,36.06002],[-119.06642,36.05857],[-119.06528,36.05857],[-119.06107,36.0556],[-119.05751,36.05476],[-119.05116,36.05501],[-119.04699,36.05629],[-119.0447,36.05861],[-119.04856,36.0586],[-119.04848,36.06224],[-119.04421,36.06227],[-119.04415,36.0609],[-119.03964,36.06092],[-119.03975,36.05342],[-119.04149,36.05195],[-119.04403,36.05174],[-119.04403,36.04992],[-119.04169,36.0513],[-119.03964,36.04956],[-119.0398,36.04039],[-119.0443,36.0404],[-119.04436,36.03674],[-119.04439,36.0295],[-119.04006,36.0295],[-119.04009,36.02243],[-119.05337,36.02232],[-119.05336,36.02588],[-119.0489,36.02588],[-119.04889,36.02944],[-119.05333,36.02941],[-119.05333,36.03042],[-119.05111,36.03042],[-119.05111,36.03132],[-119.05333,36.03133],[-119.05332,36.03315],[-119.0621,36.03316],[-119.06207,36.03679],[-119.05329,36.03676],[-119.05325,36.03862],[-119.06273,36.0387],[-119.06274,36.03679],[-119.06886,36.0368],[-119.07084,36.03842],[-119.07096,36.04408],[-119.07993,36.044],[-119.0799,36.02941],[-119.08456,36.02943]],[[-119.02115,36.08128],[-119.02096,36.08159],[-119.02081,36.08147],[-119.02115,36.08128]],[[-119.02422,36.07912],[-119.02421,36.08015],[-119.02315,36.0801],[-119.02315,36.07909],[-119.02422,36.07912]],[[-119.0294,36.0906],[-119.02746,36.09062],[-119.02598,36.08922],[-119.02813,36.08922],[-119.0294,36.0906]],[[-119.00412,36.0729],[-118.99972,36.0729],[-118.99969,36.07045],[-119.0041,36.07048],[-119.00412,36.0729]],[[-119.06637,36.08757],[-119.0619,36.08757],[-119.06177,36.08032],[-119.06633,36.08031],[-119.06637,36.08757]],[[-119.05808,36.05858],[-119.05802,36.06593],[-119.05303,36.06593],[-119.05302,36.05858],[-119.05808,36.05858]]],[[[-119.09817,36.00774],[-119.08008,36.00777],[-119.08009,36.01501],[-119.09102,36.01501],[-119.09167,36.01665],[-119.09468,36.01714],[-119.09535,36.01895],[-119.09743,36.01899],[-119.09815,36.01781],[-119.09817,36.00774]]],[[[-119.09724,36.02271],[-119.08918,36.02221],[-119.08914,36.02553],[-119.09035,36.02553],[-119.09034,36.02624],[-119.08914,36.02624],[-119.08912,36.02952],[-119.09594,36.02954],[-119.09596,36.0259],[-119.09719,36.02593],[-119.09724,36.02271]]],[[[-118.96722,36.05184],[-118.96387,36.0514],[-118.96387,36.05206],[-118.96722,36.05392],[-118.96722,36.05184]]],[[[-118.96883,36.05673],[-118.96814,36.05674],[-118.96768,36.0569],[-118.96883,36.05673]]],[[[-118.98284,36.0622],[-118.98268,36.0622],[-118.98254,36.0622],[-118.98284,36.0622]]],[[[-118.98125,36.05922],[-118.98111,36.05922],[-118.98111,36.05933],[-118.98125,36.05922]]]]},"properties":{"GEOID":"0658240","NAME":"Porterville city","BASENAME":"Porterville","STATE":"06","PLACE":"58240"}},{"type":"Feature","geometry":{"type":"MultiPolygon","coordinates":[[[[-119.41429,36.3417],[-119.40954,36.33432],[-119.39927,36.33446],[-119.39928,36.33663],[-119.39678,36.33663],[-119.39678,36.33446],[-119.39902,36.33446],[-119.39901,36.33083],[-119.40711,36.3308],[-119.40348,36.32836],[-119.40357,36.32494],[-119.39786,36.31624],[-119.39508,36.31625],[-119.38979,36.30539],[-119.38091,36.30543],[-119.38089,36.30315],[-119.37728,36.30316],[-119.37576,36.30151],[-119.37157,36.30492],[-119.37405,36.30639],[-119.37408,36.30903],[-119.37678,36.30902],[-119.379,36.31031],[-119.37885,36.31261],[-119.36753,36.31268],[-119.36743,36.3054],[-119.35846,36.30544],[-119.35841,36.30181],[-119.35393,36.30183],[-119.35385,36.29457],[-119.34937,36.2946],[-119.34935,36.29097],[-119.33143,36.29096],[-119.33139,36.28921],[-119.32711,36.28926],[-119.32713,36.29109],[-119.32248,36.29109],[-119.32247,36.28559],[-119.318,36.28572],[-119.31792,36.27668],[-119.31343,36.2767],[-119.31336,36.26943],[-119.31115,36.26953],[-119.31117,36.27367],[-119.30984,36.27373],[-119.30984,36.27506],[-119.30857,36.27512],[-119.3086,36.27699],[-119.30546,36.27704],[-119.30559,36.2843],[-119.31264,36.28398],[-119.31266,36.28515],[-119.31344,36.28512],[-119.31266,36.28555],[-119.31267,36.28756],[-119.30875,36.28766],[-119.3088,36.29133],[-119.28784,36.29171],[-119.2875,36.29799],[-119.28286,36.29799],[-119.28309,36.29233],[-119.27833,36.29291],[-119.2768,36.29354],[-119.27208,36.29823],[-119.26095,36.29823],[-119.26058,36.30581],[-119.24428,36.30552],[-119.24426,36.30655],[-119.24281,36.30654],[-119.24279,36.3074],[-119.2475,36.30744],[-119.24734,36.31263],[-119.24261,36.31259],[-119.24283,36.32349],[-119.24507,36.32351],[-119.24513,36.32678],[-119.23381,36.32678],[-119.23392,36.33447],[-119.23563,36.33449],[-119.23574,36.33937],[-119.23751,36.33936],[-119.23752,36.34188],[-119.24096,36.34188],[-119.24144,36.34337],[-119.24313,36.34285],[-119.24316,36.34925],[-119.26106,36.34918],[-119.26097,36.34749],[-119.2693,36.34842],[-119.27326,36.35214],[-119.28321,36.35389],[-119.28318,36.35636],[-119.28517,36.35657],[-119.28791,36.35975],[-119.28833,36.36812],[-119.28867,36.36742],[-119.29159,36.36727],[-119.29427,36.36528],[-119.29705,36.36445],[-119.29705,36.36365],[-119.29913,36.36365],[-119.29914,36.36458],[-119.3026,36.36459],[-119.30261,36.36365],[-119.31345,36.36371],[-119.31343,36.37099],[-119.31878,36.37099],[-119.31879,36.36553],[-119.33209,36.36558],[-119.33209,36.36739],[-119.34104,36.36738],[-119.34103,36.36377],[-119.34551,36.36377],[-119.3455,36.36196],[-119.34996,36.36196],[-119.35,36.37101],[-119.36791,36.37094],[-119.36782,36.35649],[-119.38569,36.35639],[-119.38578,36.37085],[-119.40365,36.37086],[-119.40353,36.34362],[-119.40576,36.34356],[-119.40577,36.34448],[-119.40686,36.34448],[-119.40687,36.34246],[-119.40575,36.34246],[-119.40576,36.34186],[-119.41429,36.3417]],[[-119.38558,36.33442],[-119.38109,36.33445],[-119.38111,36.33818],[-119.3767,36.33821],[-119.37669,36.33547],[-119.37064,36.33549],[-119.37065,36.33686],[-119.36766,36.33689],[-119.36775,36.32879],[-119.36997,36.3275],[-119.38077,36.32739],[-119.37918,36.32868],[-119.38272,36.32822],[-119.38269,36.33088],[-119.38552,36.33088],[-119.38558,36.33442]],[[-119.38107,36.32656],[-119.3716,36.32679],[-119.36874,36.32623],[-119.36817,36.32494],[-119.36732,36.32488],[-119.36627,36.32654],[-119.35862,36.3271],[-119.35859,36.31635],[-119.36551,36.31569],[-119.3655,36.315],[-119.36683,36.31502],[-119.3668,36.31333],[-119.36762,36.31284],[-119.38098,36.31272],[-119.38103,36.31994],[-119.37655,36.31995],[-119.37656,36.32129],[-119.37817,36.32177],[-119.37818,36.32359],[-119.38046,36.32358],[-119.38106,36.32427],[-119.38107,36.32656]],[[-119.35067,36.30011],[-119.35068,36.30148],[-119.34946,36.30149],[-119.34941,36.2989],[-119.35065,36.29889],[-119.35067,36.30011]],[[-119.33478,36.35256],[-119.33202,36.35273],[-119.33195,36.34914],[-119.33477,36.34916],[-119.33478,36.35256]],[[-119.31014,36.29779],[-119.31006,36.29842],[-119.30844,36.29839],[-119.30843,36.29776],[-119.30649,36.29773],[-119.30649,36.29708],[-119.30783,36.2959],[-119.30882,36.29634],[-119.30882,36.29777],[-119.31014,36.29779]],[[-119.26071,36.33097],[-119.2564,36.33373],[-119.25484,36.33372],[-119.25675,36.33083],[-119.26071,36.33097]],[[-119.25105,36.34169],[-119.24533,36.34228],[-119.24538,36.33458],[-119.24967,36.33461],[-119.24969,36.33837],[-119.24754,36.33838],[-119.24756,36.34018],[-119.25104,36.34016],[-119.25105,36.34169]]],[[[-119.42144,36.31251],[-119.42128,36.29872],[-119.41918,36.29872],[-119.41917,36.29791],[-119.38633,36.29822],[-119.39561,36.3126],[-119.42144,36.31251]]],[[[-119.47482,36.30513],[-119.47437,36.29789],[-119.46548,36.29782],[-119.46585,36.30508],[-119.47482,36.30513]]]]},"properties":{"GEOID":"0682954","NAME":"Visalia city","BASENAME":"Visalia","STATE":"06","PLACE":"82954"}}]}