{"type":"FeatureCollection","features":[{"type":"Feature","geometry":{"type":"Polygon","coordinates":[[[-120.40196,37.98953],[-120.40149,37.98748],[-120.39799,37.98442],[-120.39552,37.98425],[-120.39545,37.97702],[-120.3927,37.97654],[-120.39466,37.9735],[-120.39527,37.97077],[-120.39394,37.96516],[-120.38331,37.96512],[-120.37644,37.9688],[-120.36385,37.97134],[-120.36032,37.97413],[-120.36114,37.97461],[-120.36107,37.97573],[-120.36713,37.97579],[-120.36719,37.97734],[-120.36888,37.97676],[-120.36984,37.97754],[-120.36679,37.98354],[-120.36696,37.98587],[-120.36897,37.98715],[-120.36708,37.98832],[-120.36818,37.99045],[-120.37014,37.9895],[-120.37245,37.99218],[-120.37722,37.99178],[-120.37725,37.99382],[-120.38318,37.99365],[-120.38397,38.00211],[-120.38429,38.0027],[-120.38784,38.00252],[-120.38791,38.00441],[-120.38876,38.00441],[-120.3888,38.00518],[-120.39231,38.00521],[-120.39266,38.00225],[-120.39123,38.0017],[-120.39364,38.00012],[-120.39084,37.99668],[-120.39201,37.99622],[-120.3903,37.99347],[-120.3911,37.99159],[-120.39993,37.99176],[-120.39921,37.9895],[-120.40196,37.98953]]]},"properties":{"GEOID":"0672674","NAME":"Sonora city","BASENAME":"Sonora","STATE":"06","PLACE":"72674"}}]}