{"type":"FeatureCollection","features":[{"type":"Feature","geometry":{"type":"MultiPolygon","coordinates":[[[[-121.99279,38.52129],[-121.99062,38.52083],[-121.98953,38.51817],[-121.98738,38.51794],[-121.98599,38.51914],[-121.98211,38.51874],[-121.98206,38.51793],[-121.97981,38.51679],[-121.97619,38.51717],[-121.97638,38.51581],[-121.97461,38.51373],[-121.97069,38.51578],[-121.96805,38.51999],[-121.96361,38.5228],[-121.95812,38.52359],[-121.95312,38.52564],[-121.95343,38.52866],[-121.95533,38.53161],[-121.95338,38.5341],[-121.95315,38.53941],[-121.95624,38.53934],[-121.95575,38.53415],[-121.96741,38.53374],[-121.96746,38.53277],[-121.96903,38.53274],[-121.9699,38.53851],[-121.96901,38.53846],[-121.96906,38.5413],[-121.97082,38.54175],[-121.97112,38.53894],[-121.98143,38.53888],[-121.98125,38.53263],[-121.98609,38.53263],[-121.98604,38.5361],[-121.98958,38.53621],[-121.98981,38.52521],[-121.9917,38.52443],[-121.99076,38.52336],[-121.99244,38.52368],[-121.99192,38.52167],[-121.99279,38.52129]]],[[[-122.0006,38.55217],[-122.00056,38.53988],[-121.98521,38.53982],[-121.98536,38.55207],[-122.0006,38.55217]]]]},"properties":{"GEOID":"0686034","NAME":"Winters city","BASENAME":"Winters","STATE":"06","PLACE":"86034"}},{"type":"Feature","geometry":{"type":"Polygon","coordinates":[[[-121.79393,38.5481],[-121.79394,38.54679],[-121.74777,38.54621],[-121.74665,38.54227],[-121.74743,38.54213],[-121.74705,38.54079],[-121.74409,38.54131],[-121.74374,38.54003],[-121.74102,38.53993],[-121.74859,38.53132],[-121.74381,38.53378],[-121.7391,38.53778],[-121.73794,38.53733],[-121.73668,38.53856],[-121.73096,38.53605],[-121.73148,38.5389],[-121.72872,38.53871],[-121.72839,38.53603],[-121.72569,38.53616],[-121.72121,38.53492],[-121.71336,38.53771],[-121.71335,38.5414],[-121.71133,38.54119],[-121.70246,38.54333],[-121.70257,38.53866],[-121.69455,38.53861],[-121.69437,38.54829],[-121.67582,38.54821],[-121.67578,38.55677],[-121.68894,38.55371],[-121.68967,38.55443],[-121.69389,38.55347],[-121.69382,38.55641],[-121.69327,38.55658],[-121.69396,38.55674],[-121.69385,38.5604],[-121.69925,38.56033],[-121.69908,38.56504],[-121.71291,38.56386],[-121.71272,38.57469],[-121.73058,38.57476],[-121.73121,38.56267],[-121.73762,38.56074],[-121.7401,38.56862],[-121.74548,38.56868],[-121.74761,38.57549],[-121.75824,38.57556],[-121.75831,38.57187],[-121.76715,38.57141],[-121.76719,38.56812],[-121.77677,38.5683],[-121.777,38.56094],[-121.7939,38.56132],[-121.79393,38.5481]]]},"properties":{"GEOID":"0618100","NAME":"Davis city","BASENAME":"Davis","STATE":"06","PLACE":"18100"}},{"type":"Feature","geometry":{"type":"Polygon","coordinates":[[[-121.80275,38.66171],[-121.80268,38.65606],[-121.7659,38.65572],[-121.76604,38.65204],[-121.75665,38.65198],[-121.75656,38.65542],[-121.7536,38.65532],[-121.75821,38.64423],[-121.75779,38.64101],[-121.76116,38.6375],[-121.7521,38.63743],[-121.75205,38.641],[-121.71997,38.64059],[-121.71973,38.64784],[-121.72889,38.64789],[-121.72848,38.66254],[-121.71937,38.66247],[-121.71973,38.64784],[-121.71034,38.6478],[-121.71024,38.65446],[-121.68593,38.65411],[-121.6853,38.66933],[-121.71928,38.66979],[-121.71937,38.66273],[-121.72847,38.66285],[-121.7285,38.67003],[-121.7225,38.66983],[-121.72247,38.67102],[-121.72144,38.671],[-121.72138,38.67348],[-121.70936,38.67345],[-121.70984,38.67757],[-121.71046,38.67757],[-121.7189,38.69118],[-121.71874,38.69827],[-121.76294,38.69876],[-121.76498,38.70153],[-121.76203,38.7093],[-121.76517,38.70931],[-121.76521,38.69897],[-121.76987,38.69903],[-121.76987,38.6974],[-121.77634,38.69871],[-121.77572,38.69811],[-121.77573,38.69193],[-121.78573,38.69203],[-121.78619,38.69563],[-121.78854,38.69565],[-121.7885,38.69204],[-121.79315,38.69207],[-121.79317,38.69388],[-121.80244,38.69445],[-121.80275,38.66171]],[[-121.76561,38.66287],[-121.76556,38.66653],[-121.76095,38.66648],[-121.76113,38.66284],[-121.76561,38.66287]]]},"properties":{"GEOID":"0686328","NAME":"Woodland city","BASENAME":"Woodland","STATE":"06","PLACE":"86328"}},{"type":"Feature","geometry":{"type":"Polygon","coordinates":[[[-121.58831,38.52058],[-121.58768,38.50271],[-121.58222,38.50269],[-121.58253,38.50542],[-121.5587,38.50194],[-121.5546,38.51086],[-121.55178,38.51386],[-121.54204,38.51632],[-121.5293,38.51752],[-121.52506,38.51918],[-121.52407,38.52126],[-121.5306,38.5276],[-121.5305,38.53029],[-121.52847,38.53211],[-121.52037,38.53537],[-121.51355,38.54019],[-121.51129,38.54629],[-121.52096,38.56621],[-121.51157,38.57501],[-121.50827,38.58051],[-121.50627,38.5863],[-121.50867,38.5968],[-121.51157,38.6009],[-121.51577,38.6027],[-121.52767,38.6046],[-121.53907,38.6019],[-121.54457,38.5977],[-121.54987,38.5994],[-121.55361,38.60333],[-121.57617,38.59767],[-121.57087,38.59063],[-121.57282,38.58971],[-121.57049,38.58263],[-121.58272,38.57945],[-121.5829,38.551],[-121.58642,38.5471],[-121.58811,38.54289],[-121.58831,38.52058]]]},"properties":{"GEOID":"0684816","NAME":"West Sacramento city","BASENAME":"West Sacramento","STATE":"06","PLACE":"84816"}}]}