{"type":"FeatureCollection","features":[{"type":"Feature","geometry":{"type":"Polygon","coordinates":[[[-121.60778,39.14361],[-121.60557,39.13872],[-121.60196,39.13581],[-121.59837,39.12895],[-121.596,39.12895],[-121.59397,39.13216],[-121.59445,39.13245],[-121.59275,39.13387],[-121.58042,39.13385],[-121.58088,39.14609],[-121.56152,39.16122],[-121.5603,39.16103],[-121.55732,39.16568],[-121.55381,39.16329],[-121.55211,39.1665],[-121.54782,39.16484],[-121.54649,39.16638],[-121.54732,39.16989],[-121.54678,39.17077],[-121.54735,39.17103],[-121.54244,39.17711],[-121.5465,39.1789],[-121.54969,39.17474],[-121.54707,39.17343],[-121.54834,39.17146],[-121.55198,39.17141],[-121.5511,39.17252],[-121.5516,39.17288],[-121.55777,39.16767],[-121.56014,39.16341],[-121.56634,39.16615],[-121.57178,39.16536],[-121.5814,39.16575],[-121.58664,39.1632],[-121.59062,39.16293],[-121.59425,39.1644],[-121.59478,39.162],[-121.59338,39.15889],[-121.59312,39.15568],[-121.59929,39.15521],[-121.59893,39.15233],[-121.60609,39.15166],[-121.6053,39.14795],[-121.60778,39.14361]]]},"properties":{"GEOID":"0646170","NAME":"Marysville city","BASENAME":"Marysville","STATE":"06","PLACE":"46170"}},{"type":"Feature","geometry":{"type":"Polygon","coordinates":[[[-121.45266,39.00162],[-121.44446,38.99838],[-121.43592,39.00213],[-121.43425,38.99903],[-121.42912,39.00027],[-121.43143,39.00371],[-121.43291,39.0034],[-121.42622,39.00788],[-121.42232,39.00139],[-121.42426,39.00034],[-121.42251,38.99791],[-121.42058,38.9983],[-121.41971,38.99662],[-121.41477,38.9971],[-121.41479,38.99842],[-121.41212,38.99899],[-121.40789,38.99905],[-121.40633,39.00016],[-121.40695,39.00048],[-121.40606,39.00161],[-121.3977,39.00791],[-121.39686,39.00946],[-121.39296,39.01082],[-121.38827,39.0145],[-121.38455,39.0145],[-121.3846,39.01552],[-121.38581,39.01635],[-121.38509,39.01772],[-121.37707,39.02101],[-121.37525,39.02492],[-121.36671,39.03196],[-121.36118,39.03487],[-121.35598,39.03495],[-121.35295,39.03811],[-121.34829,39.03877],[-121.34834,39.04055],[-121.343,39.04037],[-121.35557,39.06106],[-121.35617,39.06039],[-121.35686,39.06152],[-121.36456,39.05866],[-121.36872,39.06559],[-121.37164,39.06217],[-121.37345,39.06218],[-121.37467,39.06094],[-121.37317,39.06135],[-121.3722,39.06071],[-121.3732,39.05977],[-121.37353,39.0575],[-121.3748,39.05714],[-121.37658,39.05945],[-121.38106,39.05661],[-121.38403,39.05258],[-121.3872,39.04558],[-121.38418,39.04057],[-121.39075,39.03431],[-121.39361,39.03897],[-121.3952,39.03765],[-121.3996,39.03181],[-121.39724,39.02811],[-121.4031,39.02252],[-121.40985,39.01944],[-121.41149,39.01777],[-121.41272,39.01976],[-121.42195,39.01783],[-121.42065,39.01702],[-121.42221,39.01565],[-121.42431,39.01491],[-121.42506,39.01537],[-121.42713,39.01413],[-121.42763,39.01489],[-121.42997,39.01414],[-121.42643,39.01212],[-121.42776,39.01162],[-121.43083,39.01414],[-121.44318,39.0213],[-121.44436,39.02087],[-121.43622,39.00773],[-121.45266,39.00162]]]},"properties":{"GEOID":"0685012","NAME":"Wheatland city","BASENAME":"Wheatland","STATE":"06","PLACE":"85012"}}]}