{"type":"FeatureCollection","features":[{"type":"Feature","geometry":{"type":"Polygon","coordinates":[[[-116.41863,33.25644],[-116.4185,33.25427],[-116.41844,33.25326],[-116.41841,33.25292],[-116.41837,33.25253],[-116.41831,33.25192],[-116.41828,33.25158],[-116.41816,33.25004],[-116.41813,33.24963],[-116.41776,33.24449],[-116.41765,33.24379],[-116.41736,33.24186],[-116.41487,33.242],[-116.40741,33.2424],[-116.40493,33.24254],[-116.40377,33.24245],[-116.40032,33.2422],[-116.40026,33.2422],[-116.40037,33.24111],[-116.40032,33.23956],[-116.40016,33.23492],[-116.40011,33.23337],[-116.40006,33.22983],[-116.40004,33.22798],[-116.40864,33.22788],[-116.40863,33.22771],[-116.40855,33.22417],[-116.4085,33.2226],[-116.40837,33.21789],[-116.40832,33.21632],[-116.40832,33.21622],[-116.40831,33.21592],[-116.40831,33.21582],[-116.4083,33.21546],[-116.40829,33.21438],[-116.40829,33.21402],[-116.40829,33.21371],[-116.4083,33.21094],[-116.40831,33.20709],[-116.40711,33.20702],[-116.40292,33.20677],[-116.39985,33.20659],[-116.39986,33.20802],[-116.39987,33.20964],[-116.3999,33.2123],[-116.39991,33.21373],[-116.39983,33.21373],[-116.3991,33.21373],[-116.39855,33.21373],[-116.3978,33.21371],[-116.39666,33.21372],[-116.39585,33.21372],[-116.39512,33.21372],[-116.39292,33.21373],[-116.39218,33.21373],[-116.39198,33.21373],[-116.39165,33.21373],[-116.39136,33.21374],[-116.39115,33.21375],[-116.39094,33.21374],[-116.39085,33.21374],[-116.39059,33.21374],[-116.3903,33.21373],[-116.39009,33.21373],[-116.39021,33.21363],[-116.3906,33.21335],[-116.39073,33.21325],[-116.39074,33.21299],[-116.39074,33.21221],[-116.39075,33.21195],[-116.39074,33.21153],[-116.39074,33.21049],[-116.39074,33.21028],[-116.39074,33.20986],[-116.39069,33.20763],[-116.39067,33.2067],[-116.38492,33.20686],[-116.3827,33.20693],[-116.38224,33.20692],[-116.38123,33.20691],[-116.37681,33.20685],[-116.37585,33.20684],[-116.37535,33.2068],[-116.37341,33.20675],[-116.37341,33.2066],[-116.37338,33.20484],[-116.37316,33.19331],[-116.37315,33.19259],[-116.37003,33.19261],[-116.36959,33.19261],[-116.3683,33.19261],[-116.36787,33.19261],[-116.3653,33.19264],[-116.36454,33.19264],[-116.3645,33.18571],[-116.3645,33.18542],[-116.36223,33.18538],[-116.36027,33.18536],[-116.35919,33.18534],[-116.35575,33.1853],[-116.35565,33.17962],[-116.35563,33.1781],[-116.35455,33.17804],[-116.35411,33.17801],[-116.35188,33.17791],[-116.34519,33.17763],[-116.34296,33.17753],[-116.34054,33.17742],[-116.33808,33.1773],[-116.33816,33.17249],[-116.3382,33.17006],[-116.33767,33.17001],[-116.33556,33.16993],[-116.33461,33.1699],[-116.3315,33.16977],[-116.3303,33.16969],[-116.32947,33.16965],[-116.32781,33.1697],[-116.32369,33.16982],[-116.32096,33.16987],[-116.32035,33.16983],[-116.31787,33.1697],[-116.31701,33.16965],[-116.31486,33.16951],[-116.31234,33.16935],[-116.30942,33.16931],[-116.30581,33.16936],[-116.30279,33.1694],[-116.30135,33.16941],[-116.29704,33.16946],[-116.2956,33.16947],[-116.29546,33.16948],[-116.29402,33.16952],[-116.28927,33.16964],[-116.28769,33.16968],[-116.28765,33.1698],[-116.2876,33.16997],[-116.28756,33.17007],[-116.28754,33.1701],[-116.28737,33.1705],[-116.28736,33.17054],[-116.28734,33.17062],[-116.28734,33.17073],[-116.28734,33.17085],[-116.28738,33.17103],[-116.28743,33.17117],[-116.2875,33.17132],[-116.28805,33.17229],[-116.28815,33.17243],[-116.28826,33.17258],[-116.2884,33.17272],[-116.28858,33.17292],[-116.28862,33.17298],[-116.28878,33.17319],[-116.2888,33.17321],[-116.28881,33.17322],[-116.28891,33.17339],[-116.2891,33.17368],[-116.28912,33.17371],[-116.28922,33.17389],[-116.28927,33.17399],[-116.28938,33.17413],[-116.28956,33.17434],[-116.28964,33.17442],[-116.28979,33.17454],[-116.28998,33.17472],[-116.29023,33.175],[-116.29047,33.17526],[-116.29076,33.17554],[-116.29101,33.17577],[-116.29124,33.17596],[-116.29195,33.17656],[-116.29221,33.17681],[-116.29299,33.17759],[-116.29322,33.17781],[-116.29352,33.17806],[-116.29409,33.17856],[-116.29482,33.17919],[-116.2953,33.17957],[-116.29544,33.17968],[-116.29578,33.17994],[-116.2961,33.18019],[-116.29722,33.18108],[-116.29781,33.18157],[-116.29806,33.18177],[-116.2987,33.18231],[-116.29974,33.18317],[-116.30005,33.18343],[-116.30024,33.18358],[-116.30069,33.18395],[-116.30108,33.1843],[-116.30149,33.18468],[-116.30184,33.18501],[-116.30214,33.1853],[-116.30241,33.18559],[-116.30268,33.18589],[-116.30269,33.1859],[-116.30299,33.18622],[-116.30358,33.1868],[-116.30364,33.18686],[-116.30356,33.18698],[-116.30357,33.18767],[-116.30362,33.19016],[-116.30364,33.19099],[-116.30363,33.19176],[-116.30361,33.19406],[-116.30361,33.19483],[-116.3036,33.19505],[-116.30357,33.1957],[-116.30356,33.19592],[-116.30356,33.19824],[-116.30358,33.20361],[-116.30357,33.2052],[-116.30357,33.20752],[-116.30356,33.20795],[-116.30354,33.20923],[-116.30353,33.20966],[-116.30353,33.20989],[-116.30351,33.21058],[-116.3035,33.21081],[-116.3035,33.21175],[-116.3035,33.21441],[-116.30342,33.21455],[-116.30326,33.21482],[-116.30289,33.21533],[-116.30187,33.21675],[-116.30144,33.21735],[-116.3,33.21936],[-116.29914,33.22055],[-116.29881,33.22101],[-116.29829,33.22174],[-116.29804,33.22208],[-116.29779,33.22243],[-116.29727,33.22315],[-116.29571,33.22533],[-116.29538,33.22579],[-116.29532,33.22611],[-116.29533,33.2288],[-116.29534,33.23685],[-116.29535,33.23954],[-116.29535,33.24027],[-116.29537,33.24247],[-116.29537,33.2432],[-116.2954,33.2447],[-116.29546,33.24752],[-116.29524,33.2488],[-116.29522,33.24917],[-116.29518,33.25016],[-116.29532,33.25065],[-116.29532,33.25307],[-116.29533,33.2575],[-116.29534,33.25754],[-116.29537,33.25758],[-116.29542,33.25761],[-116.29547,33.25763],[-116.29564,33.25763],[-116.2981,33.2576],[-116.29915,33.25758],[-116.29925,33.25759],[-116.29942,33.25761],[-116.29961,33.25766],[-116.29974,33.2577],[-116.29989,33.25776],[-116.30003,33.25784],[-116.30016,33.25792],[-116.30027,33.25802],[-116.30038,33.25813],[-116.30052,33.25804],[-116.30072,33.25793],[-116.30097,33.25781],[-116.30119,33.25773],[-116.30141,33.25765],[-116.3017,33.25758],[-116.30198,33.25753],[-116.30226,33.25749],[-116.30236,33.25748],[-116.30254,33.25747],[-116.30866,33.25739],[-116.31076,33.25737],[-116.31125,33.25736],[-116.31469,33.25732],[-116.31543,33.25731],[-116.32101,33.25723],[-116.32569,33.25716],[-116.32648,33.25715],[-116.33041,33.25707],[-116.3314,33.25706],[-116.33152,33.25705],[-116.33485,33.25699],[-116.33596,33.25697],[-116.33621,33.25697],[-116.33652,33.25697],[-116.33697,33.25696],[-116.33723,33.25696],[-116.33763,33.25695],[-116.33885,33.25693],[-116.33926,33.25693],[-116.34102,33.25691],[-116.34374,33.25688],[-116.34632,33.25687],[-116.34727,33.25686],[-116.34808,33.25685],[-116.34813,33.2583],[-116.34818,33.25992],[-116.34827,33.26265],[-116.34831,33.2641],[-116.34836,33.26554],[-116.3485,33.26968],[-116.3485,33.26989],[-116.34854,33.27134],[-116.35206,33.27119],[-116.35644,33.27101],[-116.35891,33.27105],[-116.36264,33.27093],[-116.36616,33.27082],[-116.3662,33.2733],[-116.36626,33.2771],[-116.36633,33.28075],[-116.36635,33.28158],[-116.36637,33.28323],[-116.36637,33.28341],[-116.36638,33.28392],[-116.36638,33.2841],[-116.36638,33.285],[-116.36638,33.28541],[-116.36637,33.28933],[-116.36636,33.29064],[-116.36637,33.29076],[-116.36638,33.29146],[-116.3664,33.29204],[-116.36641,33.29219],[-116.36657,33.29624],[-116.36662,33.29764],[-116.36666,33.29822],[-116.36667,33.29839],[-116.36678,33.29996],[-116.36682,33.30054],[-116.36683,33.30068],[-116.36686,33.30109],[-116.36687,33.30122],[-116.36689,33.30147],[-116.36693,33.30212],[-116.36696,33.30263],[-116.3671,33.30451],[-116.36719,33.30593],[-116.36725,33.30685],[-116.36731,33.30771],[-116.36735,33.30826],[-116.3674,33.30889],[-116.36748,33.31004],[-116.36753,33.3108],[-116.36756,33.31116],[-116.36756,33.31143],[-116.36757,33.31206],[-116.36757,33.31225],[-116.36758,33.31396],[-116.36758,33.31459],[-116.36758,33.31466],[-116.36759,33.31488],[-116.36759,33.31495],[-116.36759,33.31512],[-116.36759,33.31562],[-116.36759,33.31579],[-116.36759,33.31608],[-116.36759,33.31612],[-116.36759,33.31652],[-116.36759,33.31695],[-116.36759,33.31698],[-116.36762,33.31724],[-116.36763,33.31737],[-116.36768,33.3176],[-116.36775,33.31787],[-116.36781,33.31813],[-116.36783,33.31819],[-116.3679,33.31857],[-116.36792,33.31873],[-116.36795,33.31971],[-116.36795,33.32086],[-116.36795,33.32127],[-116.36794,33.32153],[-116.36791,33.32178],[-116.36786,33.32203],[-116.36778,33.32235],[-116.36776,33.32245],[-116.36772,33.32262],[-116.36767,33.3229],[-116.36763,33.32321],[-116.36761,33.32352],[-116.36761,33.32384],[-116.36762,33.32452],[-116.36762,33.32465],[-116.36764,33.32521],[-116.36958,33.3253],[-116.37542,33.32556],[-116.37583,33.32558],[-116.37736,33.32549],[-116.37756,33.32548],[-116.37813,33.32545],[-116.37833,33.32544],[-116.3785,33.32547],[-116.37903,33.32557],[-116.37921,33.32561],[-116.38035,33.32568],[-116.38107,33.32572],[-116.38203,33.32578],[-116.38376,33.32588],[-116.38489,33.32594],[-116.38492,33.32603],[-116.38501,33.32627],[-116.38511,33.32652],[-116.38521,33.32671],[-116.38537,33.32703],[-116.38549,33.32724],[-116.38561,33.32744],[-116.38565,33.32754],[-116.3857,33.32764],[-116.38624,33.32847],[-116.38634,33.32865],[-116.38645,33.32889],[-116.38665,33.3293],[-116.38683,33.32964],[-116.38683,33.32965],[-116.387,33.32998],[-116.38721,33.33046],[-116.38728,33.33058],[-116.38744,33.33079],[-116.38752,33.33093],[-116.38761,33.33107],[-116.38771,33.33121],[-116.38784,33.33139],[-116.38794,33.33154],[-116.38807,33.33181],[-116.38811,33.3319],[-116.38814,33.33201],[-116.38818,33.3321],[-116.38824,33.33222],[-116.38837,33.33247],[-116.38848,33.33273],[-116.38857,33.33298],[-116.38863,33.33323],[-116.38866,33.33342],[-116.3887,33.33378],[-116.38874,33.33416],[-116.38881,33.33457],[-116.38883,33.33473],[-116.38883,33.33488],[-116.38881,33.33503],[-116.3888,33.33504],[-116.38874,33.33547],[-116.38873,33.33557],[-116.38873,33.33576],[-116.38874,33.33596],[-116.38884,33.33638],[-116.38887,33.33649],[-116.38901,33.33674],[-116.38903,33.33678],[-116.38922,33.337],[-116.38941,33.3372],[-116.38953,33.33731],[-116.38959,33.33737],[-116.38979,33.33752],[-116.38995,33.33763],[-116.39007,33.33772],[-116.39023,33.33786],[-116.39037,33.33801],[-116.39048,33.33813],[-116.39074,33.33848],[-116.39091,33.3387],[-116.39102,33.33883],[-116.39149,33.33936],[-116.39169,33.3396],[-116.39172,33.33964],[-116.39193,33.33992],[-116.39199,33.34002],[-116.39205,33.34015],[-116.39213,33.34033],[-116.39223,33.3405],[-116.39254,33.3405],[-116.39349,33.3405],[-116.3938,33.34051],[-116.39487,33.34049],[-116.39809,33.34046],[-116.39917,33.34045],[-116.40063,33.34036],[-116.40242,33.34026],[-116.40233,33.33767],[-116.40229,33.3367],[-116.40227,33.33621],[-116.40224,33.33415],[-116.40216,33.32795],[-116.40214,33.32588],[-116.40305,33.32561],[-116.405,33.32502],[-116.41359,33.32247],[-116.41646,33.32162],[-116.41737,33.32008],[-116.41596,33.31521],[-116.41492,33.31157],[-116.40195,33.30482],[-116.40191,33.30265],[-116.4018,33.29653],[-116.40179,33.29579],[-116.40178,33.29533],[-116.40174,33.29212],[-116.40159,33.28112],[-116.40155,33.27745],[-116.40154,33.2761],[-116.40153,33.27208],[-116.40152,33.27073],[-116.40151,33.27],[-116.40148,33.26781],[-116.40147,33.26708],[-116.40143,33.26495],[-116.4013,33.25856],[-116.40127,33.25676],[-116.40144,33.25648],[-116.40165,33.25648],[-116.40227,33.25648],[-116.40248,33.25648],[-116.40297,33.25647],[-116.40444,33.25647],[-116.40493,33.25647],[-116.40573,33.25647],[-116.40815,33.25646],[-116.40895,33.25646],[-116.40947,33.25646],[-116.41102,33.25646],[-116.41154,33.25646],[-116.41259,33.25645],[-116.41572,33.25645],[-116.41676,33.25645],[-116.41777,33.25644],[-116.41863,33.25644]]]},"properties":{"GEOID":"0607596","BASENAME":"Borrego Springs","NAME":"Borrego Springs CDP","STATE":"06","PLACE":"07596","slug":"borrego-springs","designation":"International Dark Sky Community","designated_year":2009}},{"type":"Feature","geometry":{"type":"Polygon","coordinates":[[[-116.62245,33.08181],[-116.62251,33.08167],[-116.62241,33.08165],[-116.62231,33.08162],[-116.62219,33.0816],[-116.62193,33.08145],[-116.62146,33.08127],[-116.62137,33.08115],[-116.62142,33.08098],[-116.62152,33.0807],[-116.62152,33.08055],[-116.62151,33.08052],[-116.62148,33.08036],[-116.62123,33.08009],[-116.62097,33.07988],[-116.62068,33.07982],[-116.62006,33.07981],[-116.61988,33.07976],[-116.61964,33.07965],[-116.61929,33.07946],[-116.61881,33.07923],[-116.61855,33.07907],[-116.6183,33.07895],[-116.618,33.07888],[-116.61796,33.07881],[-116.61801,33.07869],[-116.618,33.07861],[-116.61793,33.07855],[-116.61787,33.07852],[-116.61734,33.07852],[-116.61712,33.07856],[-116.61697,33.07859],[-116.61683,33.07859],[-116.61677,33.07859],[-116.61658,33.07856],[-116.61657,33.07856],[-116.61612,33.07859],[-116.6159,33.07855],[-116.61561,33.07839],[-116.61516,33.07825],[-116.61492,33.07811],[-116.61481,33.07797],[-116.61521,33.07801],[-116.6153,33.07802],[-116.61569,33.07806],[-116.61613,33.07812],[-116.61648,33.07813],[-116.61677,33.07813],[-116.61726,33.07813],[-116.61739,33.07703],[-116.61743,33.07659],[-116.61747,33.07617],[-116.61752,33.07557],[-116.61753,33.07533],[-116.61755,33.0749],[-116.61757,33.07472],[-116.61759,33.07448],[-116.61758,33.07435],[-116.61756,33.07423],[-116.61741,33.07383],[-116.61736,33.07371],[-116.61734,33.07359],[-116.61732,33.07347],[-116.61735,33.07258],[-116.61735,33.07231],[-116.61738,33.07209],[-116.6174,33.07198],[-116.61742,33.0719],[-116.61747,33.07179],[-116.61752,33.07171],[-116.61779,33.07138],[-116.61788,33.07128],[-116.61795,33.07117],[-116.618,33.07106],[-116.61804,33.07097],[-116.61806,33.07085],[-116.61808,33.07065],[-116.61808,33.07063],[-116.61807,33.0703],[-116.61806,33.07005],[-116.61805,33.06983],[-116.61805,33.06967],[-116.61804,33.06945],[-116.61804,33.06924],[-116.61804,33.06887],[-116.61798,33.06832],[-116.61796,33.06818],[-116.61793,33.0679],[-116.61793,33.06778],[-116.61793,33.06774],[-116.61793,33.06766],[-116.61793,33.06764],[-116.61796,33.06755],[-116.61799,33.06746],[-116.61803,33.06741],[-116.61807,33.06735],[-116.61807,33.06733],[-116.61813,33.06728],[-116.61826,33.06717],[-116.6184,33.06701],[-116.61848,33.06688],[-116.61851,33.06682],[-116.61855,33.06672],[-116.6186,33.06659],[-116.61864,33.06642],[-116.61866,33.06628],[-116.61865,33.06613],[-116.61864,33.06603],[-116.61859,33.06587],[-116.61852,33.0657],[-116.61841,33.06547],[-116.61835,33.06531],[-116.61831,33.06518],[-116.61828,33.06489],[-116.61828,33.06485],[-116.61821,33.06417],[-116.61819,33.06403],[-116.61815,33.06359],[-116.61814,33.06345],[-116.61779,33.06344],[-116.61763,33.06344],[-116.61722,33.06346],[-116.61686,33.06346],[-116.61678,33.06347],[-116.61644,33.06348],[-116.61628,33.06349],[-116.61591,33.06351],[-116.6158,33.06351],[-116.61564,33.06351],[-116.61532,33.06353],[-116.61469,33.06356],[-116.61464,33.06357],[-116.61404,33.06361],[-116.61355,33.06363],[-116.61351,33.06363],[-116.61341,33.06363],[-116.61333,33.06362],[-116.61326,33.06362],[-116.61277,33.0635],[-116.61243,33.06343],[-116.61234,33.06342],[-116.61183,33.06337],[-116.6117,33.06335],[-116.61158,33.0633],[-116.61149,33.06325],[-116.61083,33.06279],[-116.61056,33.0626],[-116.61013,33.06229],[-116.61001,33.06222],[-116.60987,33.06216],[-116.60961,33.06208],[-116.60956,33.06206],[-116.60939,33.06201],[-116.60933,33.06199],[-116.60926,33.06196],[-116.6092,33.06191],[-116.60893,33.06161],[-116.60886,33.06155],[-116.60875,33.06148],[-116.60872,33.06146],[-116.60855,33.06137],[-116.60785,33.06104],[-116.60711,33.06068],[-116.60695,33.0606],[-116.60681,33.06051],[-116.60668,33.0604],[-116.60667,33.06039],[-116.60659,33.06031],[-116.60652,33.06021],[-116.60646,33.0601],[-116.60633,33.05971],[-116.60632,33.0597],[-116.60623,33.05938],[-116.60619,33.05911],[-116.60618,33.05907],[-116.60615,33.05903],[-116.6061,33.05899],[-116.60593,33.0589],[-116.60531,33.05857],[-116.60525,33.05852],[-116.60522,33.05847],[-116.60521,33.05841],[-116.60515,33.05768],[-116.60513,33.05762],[-116.6051,33.05757],[-116.60505,33.05752],[-116.60498,33.05747],[-116.60491,33.05745],[-116.60479,33.05741],[-116.60464,33.05735],[-116.60452,33.05729],[-116.60446,33.05725],[-116.60426,33.05709],[-116.60419,33.05702],[-116.60418,33.05701],[-116.60412,33.05692],[-116.60408,33.05683],[-116.60404,33.05675],[-116.60395,33.0566],[-116.60385,33.05646],[-116.60374,33.05634],[-116.60364,33.05626],[-116.60352,33.05617],[-116.60335,33.05607],[-116.60316,33.05595],[-116.60281,33.05576],[-116.60246,33.05557],[-116.60243,33.05555],[-116.60233,33.05549],[-116.6022,33.05539],[-116.60215,33.05535],[-116.60205,33.05527],[-116.60202,33.05524],[-116.60193,33.05518],[-116.60177,33.05508],[-116.60163,33.05501],[-116.60158,33.055],[-116.60147,33.05495],[-116.60144,33.05492],[-116.60141,33.05491],[-116.60134,33.05485],[-116.60129,33.05478],[-116.60128,33.05476],[-116.60125,33.05469],[-116.60123,33.05461],[-116.60121,33.05445],[-116.60121,33.05431],[-116.60123,33.05411],[-116.60124,33.05407],[-116.60124,33.05384],[-116.60125,33.05361],[-116.60125,33.05337],[-116.60126,33.05292],[-116.60127,33.05269],[-116.60128,33.05224],[-116.60127,33.05188],[-116.60127,33.05014],[-116.60127,33.04974],[-116.60127,33.04945],[-116.60127,33.04918],[-116.60128,33.04864],[-116.60128,33.04856],[-116.60128,33.04845],[-116.60126,33.04793],[-116.60126,33.04781],[-116.60126,33.04742],[-116.60127,33.04714],[-116.60126,33.04662],[-116.60127,33.04606],[-116.60127,33.04583],[-116.60127,33.04532],[-116.60126,33.04466],[-116.60127,33.04449],[-116.60125,33.0445],[-116.60085,33.04467],[-116.60055,33.04495],[-116.6005,33.04509],[-116.60045,33.04515],[-116.60037,33.04524],[-116.60031,33.04534],[-116.60011,33.04558],[-116.59982,33.04579],[-116.59961,33.0459],[-116.59951,33.04592],[-116.59922,33.04601],[-116.59907,33.04613],[-116.59875,33.04648],[-116.59859,33.04673],[-116.59856,33.04687],[-116.59857,33.04735],[-116.59849,33.04752],[-116.59833,33.04768],[-116.59813,33.04781],[-116.59794,33.04795],[-116.59782,33.04824],[-116.59756,33.04856],[-116.5974,33.04867],[-116.59724,33.04884],[-116.59702,33.04919],[-116.5969,33.04929],[-116.59674,33.04935],[-116.59633,33.04943],[-116.59612,33.04954],[-116.59591,33.04978],[-116.5957,33.05019],[-116.59551,33.05045],[-116.59541,33.05056],[-116.59519,33.05075],[-116.5951,33.05085],[-116.59503,33.05092],[-116.59492,33.05119],[-116.59482,33.05129],[-116.59459,33.05146],[-116.59439,33.05177],[-116.59433,33.05186],[-116.59403,33.05207],[-116.59373,33.0522],[-116.59339,33.05228],[-116.59326,33.05241],[-116.59313,33.05264],[-116.59303,33.05286],[-116.5929,33.05303],[-116.59272,33.05323],[-116.59234,33.0537],[-116.59226,33.0538],[-116.59214,33.05402],[-116.59198,33.05428],[-116.59167,33.05446],[-116.59134,33.05471],[-116.59127,33.05485],[-116.59108,33.05501],[-116.59085,33.05522],[-116.59029,33.05564],[-116.59008,33.05591],[-116.58995,33.05599],[-116.58971,33.05607],[-116.58948,33.05635],[-116.58923,33.05656],[-116.58883,33.0567],[-116.58868,33.0568],[-116.58842,33.0571],[-116.5884,33.05713],[-116.58835,33.05724],[-116.5883,33.05739],[-116.58822,33.05753],[-116.58811,33.05769],[-116.58774,33.05799],[-116.58759,33.05821],[-116.58731,33.05851],[-116.587,33.05891],[-116.5869,33.05903],[-116.58662,33.05947],[-116.58626,33.06001],[-116.58617,33.06019],[-116.58606,33.0604],[-116.58593,33.06064],[-116.58591,33.06064],[-116.5858,33.06066],[-116.58569,33.06069],[-116.58567,33.0607],[-116.58559,33.06074],[-116.58541,33.06086],[-116.58523,33.06098],[-116.5851,33.06106],[-116.585,33.06115],[-116.58498,33.06117],[-116.58482,33.06133],[-116.58481,33.06134],[-116.58472,33.06142],[-116.58463,33.06148],[-116.58462,33.06148],[-116.58449,33.06155],[-116.58439,33.06159],[-116.58432,33.06162],[-116.58424,33.06167],[-116.58419,33.06173],[-116.58415,33.0618],[-116.58412,33.06189],[-116.58411,33.06193],[-116.5841,33.06203],[-116.58409,33.06217],[-116.58408,33.06219],[-116.58408,33.06225],[-116.58405,33.06229],[-116.58401,33.06231],[-116.58398,33.06231],[-116.58395,33.06231],[-116.58388,33.0623],[-116.58356,33.06226],[-116.58348,33.06223],[-116.58341,33.0622],[-116.58337,33.06216],[-116.58328,33.06207],[-116.5832,33.06196],[-116.58315,33.06187],[-116.58313,33.06184],[-116.58307,33.0617],[-116.58304,33.06166],[-116.58299,33.06162],[-116.58298,33.06166],[-116.58294,33.06175],[-116.58293,33.06179],[-116.58287,33.06189],[-116.58281,33.06197],[-116.58277,33.06199],[-116.58269,33.06203],[-116.58267,33.06203],[-116.58261,33.06205],[-116.58254,33.06206],[-116.58252,33.06206],[-116.58214,33.06205],[-116.582,33.06204],[-116.58199,33.06204],[-116.58142,33.06203],[-116.58091,33.06203],[-116.58065,33.06202],[-116.58039,33.06201],[-116.58037,33.06201],[-116.58028,33.06199],[-116.58019,33.06195],[-116.58014,33.06194],[-116.5801,33.06194],[-116.58006,33.06196],[-116.5799,33.06206],[-116.57974,33.06189],[-116.57963,33.06178],[-116.57942,33.06157],[-116.57927,33.0614],[-116.57926,33.06139],[-116.57912,33.0612],[-116.57899,33.06101],[-116.57888,33.06082],[-116.5788,33.06064],[-116.57877,33.06057],[-116.5786,33.06014],[-116.57848,33.05978],[-116.57834,33.05939],[-116.57822,33.05903],[-116.57813,33.05885],[-116.57812,33.05882],[-116.57803,33.05868],[-116.57793,33.05854],[-116.57774,33.05831],[-116.57773,33.0583],[-116.5775,33.05807],[-116.57737,33.05794],[-116.57709,33.05764],[-116.57677,33.05728],[-116.57664,33.05712],[-116.57644,33.05688],[-116.57641,33.05684],[-116.57628,33.05668],[-116.57069,33.05664],[-116.57055,33.05653],[-116.57032,33.05633],[-116.5703,33.05632],[-116.56987,33.05627],[-116.5693,33.05609],[-116.56925,33.05607],[-116.56909,33.05603],[-116.56889,33.05589],[-116.56821,33.05562],[-116.56811,33.05551],[-116.56783,33.05541],[-116.56757,33.05536],[-116.56748,33.05532],[-116.56737,33.05518],[-116.56705,33.05512],[-116.5665,33.05478],[-116.56627,33.05469],[-116.56609,33.05464],[-116.56589,33.05464],[-116.56573,33.05469],[-116.56544,33.0549],[-116.56533,33.05496],[-116.56497,33.05498],[-116.56484,33.05504],[-116.56459,33.05524],[-116.56444,33.05528],[-116.56347,33.05524],[-116.56328,33.05532],[-116.5632,33.05533],[-116.56311,33.05529],[-116.56297,33.0553],[-116.56249,33.05523],[-116.56233,33.05531],[-116.56213,33.05534],[-116.56208,33.05535],[-116.56188,33.05543],[-116.56175,33.05552],[-116.56167,33.05565],[-116.56163,33.05586],[-116.56159,33.05597],[-116.56148,33.05609],[-116.56086,33.05648],[-116.56087,33.05659],[-116.56093,33.05668],[-116.56105,33.05673],[-116.56119,33.05674],[-116.56125,33.05676],[-116.56128,33.05684],[-116.56126,33.05694],[-116.56109,33.05707],[-116.56106,33.05718],[-116.56105,33.05756],[-116.561,33.05766],[-116.56089,33.05769],[-116.56077,33.05769],[-116.56019,33.05758],[-116.56012,33.05757],[-116.55985,33.05748],[-116.55964,33.05734],[-116.55948,33.05736],[-116.55934,33.0574],[-116.55917,33.05751],[-116.55898,33.05771],[-116.55857,33.05764],[-116.5584,33.05759],[-116.55817,33.05761],[-116.55776,33.05771],[-116.55749,33.05799],[-116.55748,33.058],[-116.55726,33.05808],[-116.55717,33.05819],[-116.55708,33.05824],[-116.55695,33.05825],[-116.55677,33.05825],[-116.55643,33.05819],[-116.55625,33.05827],[-116.55609,33.05832],[-116.5559,33.05829],[-116.55569,33.05838],[-116.55556,33.05847],[-116.55544,33.05846],[-116.55528,33.05836],[-116.55518,33.05838],[-116.55502,33.05845],[-116.55479,33.05849],[-116.55468,33.05859],[-116.55442,33.0586],[-116.55432,33.05866],[-116.55426,33.05873],[-116.55416,33.05891],[-116.55411,33.05898],[-116.55392,33.05901],[-116.55377,33.059],[-116.55357,33.05893],[-116.5535,33.05894],[-116.55334,33.05901],[-116.55324,33.05899],[-116.55305,33.05898],[-116.55301,33.05898],[-116.55284,33.05899],[-116.55266,33.05908],[-116.55256,33.05923],[-116.55247,33.05924],[-116.55244,33.05921],[-116.55238,33.05911],[-116.5523,33.05907],[-116.55219,33.05907],[-116.5521,33.0591],[-116.55185,33.05928],[-116.55167,33.05945],[-116.55164,33.0596],[-116.55169,33.05994],[-116.55185,33.06007],[-116.55204,33.06013],[-116.55213,33.06013],[-116.55252,33.06016],[-116.55281,33.06037],[-116.55307,33.06046],[-116.55333,33.06059],[-116.55356,33.0608],[-116.5537,33.06098],[-116.55364,33.06117],[-116.55365,33.06125],[-116.55386,33.06141],[-116.55385,33.06148],[-116.5538,33.06161],[-116.55366,33.0617],[-116.55349,33.06177],[-116.55348,33.0618],[-116.55342,33.06188],[-116.55334,33.0626],[-116.55328,33.06276],[-116.55326,33.06281],[-116.55327,33.06304],[-116.55328,33.06315],[-116.55324,33.06332],[-116.55316,33.06351],[-116.55321,33.06369],[-116.55333,33.06383],[-116.55335,33.06386],[-116.55338,33.06395],[-116.55337,33.0641],[-116.55324,33.06433],[-116.5532,33.06441],[-116.55301,33.06456],[-116.5529,33.06501],[-116.55288,33.06509],[-116.55288,33.06528],[-116.55288,33.06544],[-116.55291,33.06553],[-116.55307,33.06592],[-116.55312,33.0662],[-116.55313,33.06626],[-116.55315,33.06633],[-116.55307,33.06643],[-116.55306,33.06649],[-116.55309,33.06644],[-116.55313,33.06638],[-116.55318,33.06635],[-116.55326,33.06632],[-116.55332,33.06631],[-116.55341,33.06631],[-116.55347,33.06632],[-116.55353,33.06634],[-116.55358,33.06638],[-116.55362,33.06642],[-116.55366,33.06648],[-116.55368,33.06655],[-116.55368,33.06742],[-116.55369,33.06784],[-116.55369,33.06793],[-116.55369,33.06803],[-116.55368,33.06811],[-116.55365,33.0682],[-116.55361,33.06827],[-116.55355,33.06835],[-116.55348,33.0684],[-116.55335,33.06847],[-116.55327,33.06853],[-116.55323,33.06856],[-116.55312,33.06865],[-116.55302,33.06876],[-116.55294,33.06887],[-116.55288,33.06899],[-116.55284,33.06912],[-116.55281,33.06927],[-116.55278,33.06933],[-116.55273,33.06938],[-116.55267,33.06942],[-116.5526,33.06945],[-116.5525,33.06946],[-116.55224,33.06951],[-116.55217,33.06953],[-116.55208,33.06957],[-116.55202,33.06961],[-116.55197,33.06966],[-116.55193,33.06972],[-116.55189,33.06978],[-116.55187,33.06986],[-116.55187,33.06994],[-116.55189,33.07],[-116.55192,33.07007],[-116.55192,33.07008],[-116.55197,33.07014],[-116.55207,33.07026],[-116.55219,33.07038],[-116.55232,33.07048],[-116.55246,33.07057],[-116.55262,33.07065],[-116.55279,33.07072],[-116.55295,33.07077],[-116.55314,33.07081],[-116.55341,33.07082],[-116.55342,33.07082],[-116.55347,33.07082],[-116.55355,33.07084],[-116.55362,33.07088],[-116.55368,33.07092],[-116.55372,33.07098],[-116.55374,33.07103],[-116.55376,33.0712],[-116.55377,33.07128],[-116.55378,33.07133],[-116.55381,33.07139],[-116.55386,33.07145],[-116.5539,33.07149],[-116.55398,33.07153],[-116.55406,33.07156],[-116.55413,33.07157],[-116.55419,33.07158],[-116.55425,33.07161],[-116.5543,33.07165],[-116.55434,33.0717],[-116.55437,33.07175],[-116.55447,33.07195],[-116.55452,33.072],[-116.55457,33.07205],[-116.55463,33.07208],[-116.55471,33.0721],[-116.55477,33.07211],[-116.55502,33.07209],[-116.55507,33.07209],[-116.55517,33.0721],[-116.55526,33.07212],[-116.55533,33.07216],[-116.55539,33.07221],[-116.55545,33.07227],[-116.55548,33.07234],[-116.55561,33.0728],[-116.55564,33.07288],[-116.55568,33.07293],[-116.55575,33.07299],[-116.55583,33.07304],[-116.55591,33.07306],[-116.55599,33.07307],[-116.55607,33.07308],[-116.55631,33.07304],[-116.5568,33.07296],[-116.55691,33.07296],[-116.55709,33.07297],[-116.55719,33.07299],[-116.55725,33.073],[-116.55729,33.07301],[-116.5574,33.07305],[-116.55753,33.07311],[-116.55757,33.07312],[-116.55766,33.07317],[-116.55772,33.07322],[-116.55773,33.07322],[-116.55784,33.07331],[-116.55791,33.07337],[-116.55795,33.07341],[-116.55796,33.07343],[-116.55803,33.07352],[-116.55809,33.07363],[-116.55815,33.07375],[-116.55819,33.07389],[-116.55819,33.07391],[-116.55821,33.07402],[-116.55821,33.07415],[-116.5582,33.07426],[-116.55821,33.07433],[-116.55824,33.07441],[-116.55829,33.07447],[-116.55834,33.07452],[-116.55843,33.07456],[-116.55851,33.07458],[-116.55859,33.07458],[-116.55867,33.07457],[-116.55875,33.07455],[-116.55883,33.0745],[-116.559,33.07443],[-116.55919,33.07437],[-116.55924,33.07435],[-116.55935,33.07433],[-116.55946,33.07431],[-116.55956,33.07431],[-116.55964,33.07432],[-116.55972,33.07435],[-116.55975,33.07437],[-116.55979,33.07439],[-116.55984,33.07443],[-116.55987,33.07447],[-116.55989,33.07449],[-116.55993,33.07456],[-116.56002,33.07489],[-116.56003,33.0749],[-116.56004,33.07494],[-116.56008,33.07501],[-116.56011,33.07504],[-116.56012,33.07505],[-116.56013,33.07506],[-116.56018,33.0751],[-116.56021,33.07511],[-116.56024,33.07512],[-116.56026,33.07513],[-116.56033,33.07514],[-116.56042,33.07515],[-116.56063,33.07512],[-116.56096,33.07507],[-116.56102,33.07506],[-116.56111,33.07507],[-116.56119,33.07508],[-116.56126,33.07511],[-116.56133,33.07515],[-116.56138,33.0752],[-116.56147,33.07531],[-116.56158,33.0755],[-116.56159,33.07551],[-116.56169,33.0757],[-116.56176,33.07587],[-116.56195,33.07621],[-116.56202,33.07631],[-116.5621,33.07639],[-116.56213,33.07641],[-116.5622,33.07646],[-116.56231,33.07653],[-116.56241,33.07657],[-116.56251,33.0766],[-116.56272,33.07664],[-116.56289,33.07666],[-116.56309,33.07667],[-116.56407,33.07663],[-116.56426,33.07663],[-116.56439,33.07664],[-116.5645,33.07666],[-116.56455,33.07668],[-116.56461,33.07673],[-116.56466,33.07678],[-116.56468,33.07681],[-116.5647,33.07684],[-116.56474,33.07693],[-116.56474,33.07699],[-116.56473,33.07707],[-116.56471,33.07725],[-116.56471,33.07737],[-116.56473,33.07747],[-116.56476,33.07758],[-116.5648,33.07767],[-116.56487,33.07777],[-116.56499,33.07791],[-116.56511,33.07802],[-116.56523,33.07812],[-116.56536,33.07821],[-116.56553,33.07829],[-116.5656,33.07832],[-116.56576,33.07839],[-116.56614,33.07854],[-116.56625,33.0786],[-116.56636,33.07868],[-116.56644,33.07876],[-116.56651,33.07885],[-116.56655,33.07892],[-116.56664,33.07913],[-116.56673,33.07926],[-116.56683,33.07938],[-116.56733,33.07987],[-116.5674,33.07996],[-116.56748,33.08006],[-116.56759,33.08018],[-116.56763,33.08021],[-116.56797,33.08048],[-116.56804,33.08052],[-116.56811,33.08055],[-116.56818,33.08056],[-116.56838,33.08058],[-116.56847,33.08057],[-116.56857,33.08055],[-116.56867,33.08052],[-116.5688,33.08044],[-116.56894,33.08034],[-116.56908,33.08022],[-116.56918,33.08011],[-116.56926,33.08005],[-116.56932,33.08002],[-116.56938,33.08],[-116.56945,33.07999],[-116.56953,33.08],[-116.5696,33.08002],[-116.56967,33.08005],[-116.56974,33.0801],[-116.56982,33.08019],[-116.56992,33.0803],[-116.57004,33.0804],[-116.5701,33.08044],[-116.57014,33.08045],[-116.57018,33.08047],[-116.57026,33.08048],[-116.57032,33.08048],[-116.57121,33.08044],[-116.57136,33.08042],[-116.57148,33.08038],[-116.57164,33.08033],[-116.57178,33.08031],[-116.57193,33.08029],[-116.57206,33.08029],[-116.57217,33.0803],[-116.57227,33.08033],[-116.57234,33.08037],[-116.5724,33.08041],[-116.57246,33.08048],[-116.5725,33.08054],[-116.57253,33.08062],[-116.57253,33.08063],[-116.57254,33.0807],[-116.57254,33.08078],[-116.57252,33.08086],[-116.57249,33.08092],[-116.57246,33.08097],[-116.57217,33.08133],[-116.5721,33.08144],[-116.57206,33.08155],[-116.57203,33.08167],[-116.57198,33.08186],[-116.57192,33.08203],[-116.57188,33.08213],[-116.57181,33.08227],[-116.57179,33.08231],[-116.57175,33.08238],[-116.57172,33.08249],[-116.57171,33.0826],[-116.57172,33.08271],[-116.57175,33.0828],[-116.57179,33.08288],[-116.57214,33.08341],[-116.57222,33.0835],[-116.57232,33.08359],[-116.57243,33.08365],[-116.57254,33.08371],[-116.57265,33.08374],[-116.57354,33.08397],[-116.57372,33.08399],[-116.57382,33.08399],[-116.57402,33.08398],[-116.57411,33.08399],[-116.57421,33.08402],[-116.57445,33.08411],[-116.57469,33.08422],[-116.57494,33.08436],[-116.57507,33.08444],[-116.57513,33.08449],[-116.57518,33.08457],[-116.5752,33.08463],[-116.57521,33.0847],[-116.57521,33.08473],[-116.57521,33.08475],[-116.57518,33.08481],[-116.57515,33.08487],[-116.5751,33.08493],[-116.57504,33.08498],[-116.57479,33.08517],[-116.57472,33.08525],[-116.57466,33.08533],[-116.57465,33.08537],[-116.57463,33.08547],[-116.57464,33.08555],[-116.57465,33.08563],[-116.57469,33.08571],[-116.57474,33.08578],[-116.5748,33.08584],[-116.57553,33.0864],[-116.57565,33.08647],[-116.5758,33.08653],[-116.57611,33.08663],[-116.57627,33.08667],[-116.5765,33.0867],[-116.57664,33.08673],[-116.57679,33.08678],[-116.57688,33.08682],[-116.57696,33.08689],[-116.57704,33.08696],[-116.5771,33.08705],[-116.57719,33.08713],[-116.57728,33.08721],[-116.5775,33.08734],[-116.57763,33.08745],[-116.57776,33.08758],[-116.57787,33.0877],[-116.57806,33.08788],[-116.57829,33.08808],[-116.57847,33.08824],[-116.57884,33.08853],[-116.57899,33.08865],[-116.57904,33.08871],[-116.57908,33.08878],[-116.5791,33.08885],[-116.5791,33.08891],[-116.57908,33.0891],[-116.57908,33.08925],[-116.57909,33.08939],[-116.57909,33.08941],[-116.57911,33.08947],[-116.57916,33.08956],[-116.57922,33.08964],[-116.5793,33.08971],[-116.57936,33.08975],[-116.57947,33.0898],[-116.57952,33.08982],[-116.5796,33.08988],[-116.57966,33.08993],[-116.57972,33.09001],[-116.57984,33.09025],[-116.57995,33.09044],[-116.58004,33.09057],[-116.58011,33.09064],[-116.58023,33.09074],[-116.58038,33.09085],[-116.58048,33.09091],[-116.58124,33.09126],[-116.58133,33.09131],[-116.58145,33.09141],[-116.58155,33.0915],[-116.58167,33.09165],[-116.58173,33.09171],[-116.58182,33.09177],[-116.58192,33.09182],[-116.58203,33.09185],[-116.58213,33.09187],[-116.58227,33.09189],[-116.58242,33.09191],[-116.58243,33.09192],[-116.58259,33.09196],[-116.58276,33.09203],[-116.5828,33.09206],[-116.58283,33.09209],[-116.58285,33.09212],[-116.58287,33.09215],[-116.58288,33.09221],[-116.58286,33.09235],[-116.58287,33.09246],[-116.5829,33.09255],[-116.58293,33.09261],[-116.58303,33.09275],[-116.58318,33.09291],[-116.58337,33.09311],[-116.58348,33.0932],[-116.58374,33.09338],[-116.58393,33.09353],[-116.58412,33.0937],[-116.58419,33.09374],[-116.58431,33.09379],[-116.58443,33.09383],[-116.58454,33.09385],[-116.5848,33.09386],[-116.58499,33.09389],[-116.58518,33.09394],[-116.58531,33.09398],[-116.58564,33.09416],[-116.58596,33.09433],[-116.58607,33.09437],[-116.58618,33.0944],[-116.58629,33.09441],[-116.58651,33.09441],[-116.58671,33.09443],[-116.58688,33.09446],[-116.58704,33.0945],[-116.58722,33.09457],[-116.58735,33.09463],[-116.58748,33.09472],[-116.58757,33.09481],[-116.58765,33.0949],[-116.58771,33.095],[-116.58775,33.09511],[-116.58782,33.09533],[-116.58791,33.09556],[-116.58795,33.09564],[-116.58802,33.09571],[-116.58809,33.09577],[-116.58816,33.0958],[-116.58825,33.09584],[-116.58833,33.09585],[-116.58842,33.09586],[-116.58847,33.09586],[-116.58883,33.0958],[-116.58907,33.09575],[-116.58919,33.09575],[-116.5893,33.09578],[-116.58949,33.09584],[-116.5898,33.09604],[-116.59006,33.09624],[-116.59031,33.09642],[-116.59047,33.09655],[-116.59078,33.09672],[-116.59125,33.09695],[-116.5918,33.09727],[-116.59231,33.09752],[-116.59255,33.09761],[-116.5928,33.09764],[-116.59319,33.09771],[-116.59347,33.09771],[-116.59366,33.09763],[-116.59377,33.09755],[-116.59384,33.09743],[-116.59387,33.09718],[-116.59391,33.09684],[-116.59395,33.09644],[-116.59404,33.09612],[-116.59409,33.09612],[-116.5942,33.09613],[-116.59423,33.09615],[-116.59425,33.09615],[-116.59427,33.09618],[-116.5943,33.09621],[-116.59432,33.09632],[-116.59436,33.09669],[-116.59439,33.09698],[-116.59439,33.09705],[-116.59438,33.09723],[-116.59435,33.0974],[-116.5943,33.09758],[-116.59429,33.09765],[-116.59429,33.09773],[-116.5943,33.09778],[-116.59433,33.09783],[-116.59439,33.09788],[-116.59449,33.09794],[-116.59471,33.09808],[-116.59483,33.09815],[-116.59496,33.09826],[-116.59503,33.09834],[-116.59508,33.0984],[-116.59511,33.09849],[-116.59512,33.09857],[-116.59513,33.09865],[-116.59515,33.09871],[-116.59524,33.09885],[-116.59531,33.09893],[-116.59534,33.09896],[-116.59537,33.09899],[-116.59559,33.09916],[-116.59575,33.09926],[-116.59584,33.09929],[-116.59594,33.09931],[-116.59598,33.09931],[-116.59605,33.09931],[-116.59633,33.09931],[-116.59647,33.0993],[-116.59671,33.0993],[-116.59687,33.09931],[-116.59694,33.09932],[-116.59703,33.09934],[-116.5971,33.09938],[-116.59714,33.0994],[-116.59719,33.09944],[-116.59727,33.09951],[-116.59732,33.09958],[-116.59733,33.0996],[-116.59743,33.09965],[-116.59754,33.09968],[-116.59764,33.0997],[-116.59778,33.09974],[-116.59795,33.09979],[-116.59806,33.09983],[-116.59817,33.09989],[-116.59827,33.09996],[-116.5985,33.10015],[-116.59852,33.10017],[-116.59875,33.10036],[-116.59879,33.1004],[-116.59892,33.1005],[-116.59915,33.10068],[-116.59941,33.1009],[-116.59957,33.10103],[-116.59976,33.10119],[-116.59993,33.10132],[-116.60011,33.10145],[-116.60025,33.10154],[-116.60056,33.10175],[-116.60064,33.10182],[-116.6007,33.1019],[-116.60089,33.10227],[-116.60119,33.10292],[-116.60127,33.10307],[-116.60136,33.10318],[-116.60148,33.10331],[-116.60155,33.10336],[-116.60164,33.1034],[-116.60173,33.10343],[-116.60175,33.10343],[-116.60184,33.10344],[-116.60194,33.10344],[-116.60247,33.10335],[-116.60258,33.10334],[-116.60278,33.10333],[-116.60283,33.10333],[-116.60356,33.10335],[-116.60371,33.10335],[-116.6038,33.10335],[-116.60375,33.10306],[-116.6037,33.10279],[-116.60368,33.10262],[-116.60367,33.10238],[-116.60369,33.10216],[-116.60372,33.10193],[-116.60379,33.10161],[-116.60385,33.10138],[-116.6039,33.10125],[-116.60397,33.10112],[-116.60399,33.10109],[-116.60404,33.10101],[-116.60412,33.1009],[-116.60419,33.10078],[-116.60424,33.10065],[-116.60427,33.10052],[-116.60429,33.10035],[-116.60429,33.10019],[-116.60428,33.10004],[-116.60423,33.09988],[-116.60408,33.09949],[-116.60366,33.09834],[-116.60365,33.09825],[-116.60364,33.09815],[-116.60366,33.09804],[-116.60368,33.09799],[-116.60376,33.09782],[-116.60389,33.09756],[-116.604,33.09744],[-116.60409,33.0973],[-116.60416,33.09715],[-116.60419,33.09706],[-116.60421,33.09695],[-116.60421,33.09684],[-116.60419,33.09673],[-116.60415,33.09663],[-116.60411,33.09656],[-116.60387,33.09613],[-116.60383,33.09603],[-116.60381,33.09592],[-116.6038,33.09581],[-116.6038,33.09574],[-116.60379,33.09563],[-116.6038,33.09551],[-116.60382,33.0954],[-116.60386,33.09529],[-116.60391,33.0952],[-116.60398,33.09511],[-116.60406,33.09502],[-116.60434,33.09474],[-116.60441,33.09467],[-116.60448,33.09461],[-116.60454,33.09453],[-116.60458,33.09444],[-116.6046,33.09437],[-116.60461,33.09429],[-116.6046,33.09419],[-116.60457,33.0941],[-116.60456,33.09408],[-116.60444,33.09398],[-116.60437,33.09388],[-116.60432,33.09379],[-116.60429,33.09368],[-116.60428,33.09359],[-116.60428,33.09346],[-116.60426,33.09335],[-116.60423,33.09326],[-116.60419,33.09317],[-116.60412,33.09308],[-116.60404,33.09299],[-116.60396,33.09293],[-116.60386,33.09288],[-116.60379,33.09284],[-116.60378,33.09283],[-116.60373,33.09279],[-116.60369,33.09273],[-116.60367,33.09268],[-116.60366,33.09261],[-116.60367,33.09253],[-116.6037,33.09244],[-116.60374,33.09239],[-116.60381,33.09232],[-116.60388,33.09227],[-116.60401,33.09219],[-116.60421,33.09211],[-116.60436,33.09206],[-116.60448,33.09201],[-116.60463,33.09198],[-116.60472,33.09195],[-116.60479,33.09192],[-116.60487,33.09188],[-116.60492,33.09183],[-116.60496,33.09178],[-116.60498,33.09172],[-116.60497,33.09161],[-116.60496,33.09152],[-116.60493,33.09134],[-116.60492,33.09123],[-116.60493,33.09111],[-116.60494,33.09103],[-116.60498,33.09095],[-116.60502,33.0909],[-116.60521,33.0907],[-116.60554,33.09031],[-116.60569,33.09009],[-116.6058,33.08993],[-116.60612,33.08944],[-116.60624,33.08925],[-116.60675,33.08845],[-116.6068,33.08838],[-116.60687,33.08832],[-116.60694,33.08827],[-116.60699,33.08824],[-116.60713,33.08816],[-116.60718,33.08814],[-116.60729,33.08809],[-116.60779,33.0879],[-116.60829,33.08769],[-116.60838,33.08765],[-116.60872,33.08751],[-116.60915,33.08732],[-116.60965,33.08711],[-116.61033,33.0868],[-116.6105,33.08671],[-116.61065,33.08661],[-116.61075,33.08652],[-116.61082,33.08645],[-116.61086,33.08639],[-116.6109,33.08631],[-116.61091,33.08623],[-116.61092,33.08613],[-116.6109,33.08601],[-116.61086,33.08591],[-116.61079,33.08574],[-116.6107,33.08561],[-116.61061,33.0855],[-116.61054,33.08542],[-116.61029,33.08516],[-116.61007,33.08492],[-116.60982,33.08467],[-116.60971,33.08457],[-116.60961,33.08451],[-116.60996,33.08451],[-116.61016,33.08452],[-116.61024,33.08453],[-116.61056,33.08461],[-116.61066,33.08463],[-116.61099,33.0847],[-116.61113,33.08474],[-116.61125,33.08479],[-116.61149,33.08491],[-116.61177,33.08507],[-116.61189,33.08512],[-116.61201,33.08516],[-116.61214,33.08518],[-116.61229,33.08518],[-116.61243,33.0852],[-116.61259,33.08524],[-116.61277,33.08527],[-116.61283,33.08529],[-116.61287,33.08532],[-116.61298,33.08543],[-116.61313,33.08555],[-116.61329,33.08566],[-116.61347,33.08576],[-116.61358,33.08581],[-116.61367,33.08585],[-116.61374,33.08588],[-116.61379,33.08592],[-116.61383,33.08597],[-116.61385,33.08602],[-116.61386,33.08609],[-116.61384,33.08617],[-116.61383,33.08621],[-116.61371,33.08641],[-116.61369,33.08649],[-116.61368,33.08657],[-116.61369,33.08662],[-116.61371,33.08666],[-116.61373,33.08668],[-116.614,33.08654],[-116.61434,33.08632],[-116.61465,33.08617],[-116.61505,33.08589],[-116.61554,33.08553],[-116.61593,33.0852],[-116.61623,33.08488],[-116.61631,33.08468],[-116.61651,33.08437],[-116.61662,33.0841],[-116.61672,33.084],[-116.61701,33.08398],[-116.61719,33.08399],[-116.61758,33.08409],[-116.61783,33.08419],[-116.61803,33.08421],[-116.61815,33.08418],[-116.61834,33.0841],[-116.61844,33.08401],[-116.61905,33.08381],[-116.61929,33.08362],[-116.61956,33.08338],[-116.61981,33.08322],[-116.62018,33.08304],[-116.62034,33.08295],[-116.62075,33.0828],[-116.62077,33.08278],[-116.62117,33.08253],[-116.62162,33.08243],[-116.62173,33.0824],[-116.62193,33.08227],[-116.62211,33.08203],[-116.6224,33.08188],[-116.62245,33.08181]]]},"properties":{"GEOID":"0637582","BASENAME":"Julian","NAME":"Julian CDP","STATE":"06","PLACE":"37582","slug":"julian","designation":"International Dark Sky Community","designated_year":2021}}]}