{"type":"FeatureCollection","features":[{"type":"Feature","geometry":{"type":"Polygon","coordinates":[[[-122.3405,37.8017],[-122.2809,37.7072],[-122.2558,37.7071],[-122.2496,37.7124],[-122.2603,37.7176],[-122.2479,37.7284],[-122.2362,37.7199],[-122.2283,37.7277],[-122.2268,37.7277],[-122.2265,37.7481],[-122.2234,37.748],[-122.2242,37.7628],[-122.2266,37.7669],[-122.2435,37.7763],[-122.2466,37.7847],[-122.2527,37.787],[-122.2601,37.7845],[-122.2797,37.7934],[-122.296,37.7919],[-122.3058,37.7926],[-122.3285,37.7975],[-122.3405,37.8017]]]},"properties":{"GEOID":"0600190020","BASENAME":"Alameda","NAME":"Alameda CCD","COUNTY":"001","COUSUB":"90020"}},{"type":"Feature","geometry":{"type":"Polygon","coordinates":[[[-122.3731,37.8839],[-122.3559,37.8357],[-122.2861,37.8505],[-122.2836,37.8506],[-122.2819,37.847],[-122.2762,37.8477],[-122.2758,37.8459],[-122.2691,37.8467],[-122.269,37.8516],[-122.2636,37.8525],[-122.2533,37.8538],[-122.2529,37.8508],[-122.2342,37.8524],[-122.2348,37.8578],[-122.2416,37.8571],[-122.2426,37.8587],[-122.2446,37.859],[-122.2469,37.8854],[-122.2493,37.887],[-122.2503,37.8898],[-122.249,37.8908],[-122.2497,37.8928],[-122.253,37.8938],[-122.2537,37.8962],[-122.2559,37.896],[-122.2569,37.8998],[-122.2608,37.8997],[-122.2639,37.9037],[-122.2703,37.9044],[-122.2715,37.9049],[-122.2711,37.9058],[-122.2779,37.9031],[-122.2773,37.9017],[-122.2788,37.9007],[-122.2836,37.9],[-122.2884,37.8976],[-122.2965,37.8989],[-122.3128,37.8973],[-122.3731,37.8839]]]},"properties":{"GEOID":"0600190200","BASENAME":"Berkeley","NAME":"Berkeley CCD","COUNTY":"001","COUSUB":"90200"}},{"type":"Feature","geometry":{"type":"Polygon","coordinates":[[[-122.3559,37.8357],[-122.3469,37.8114],[-122.341,37.8018],[-122.3285,37.7975],[-122.3058,37.7926],[-122.296,37.7919],[-122.286,37.7936],[-122.2782,37.7931],[-122.2601,37.7845],[-122.2513,37.7869],[-122.2458,37.7839],[-122.2448,37.7791],[-122.2417,37.7747],[-122.2286,37.7683],[-122.2253,37.7654],[-122.2239,37.7608],[-122.2234,37.748],[-122.2265,37.7481],[-122.2268,37.7277],[-122.2283,37.7277],[-122.2362,37.7199],[-122.2479,37.7284],[-122.2603,37.7176],[-122.2496,37.7124],[-122.2558,37.7071],[-122.2809,37.7072],[-122.2187,37.6317],[-122.1753,37.6707],[-122.1806,37.6707],[-122.1915,37.6833],[-122.1923,37.6827],[-122.2005,37.6926],[-122.2097,37.7111],[-122.1944,37.7158],[-122.1947,37.7175],[-122.1934,37.7178],[-122.1929,37.7167],[-122.189,37.7179],[-122.1963,37.7233],[-122.1981,37.7262],[-122.1919,37.7273],[-122.1904,37.7289],[-122.1838,37.7257],[-122.1754,37.7253],[-122.1703,37.7277],[-122.1742,37.7311],[-122.1698,37.7322],[-122.1716,37.735],[-122.1656,37.7378],[-122.1642,37.7359],[-122.1477,37.7411],[-122.1461,37.7428],[-122.1407,37.7372],[-122.139,37.7309],[-122.1349,37.7343],[-122.1306,37.7337],[-122.1323,37.7317],[-122.1312,37.7304],[-122.1255,37.7298],[-122.1245,37.7286],[-122.1151,37.7353],[-122.1161,37.7503],[-122.1241,37.7611],[-122.1332,37.7777],[-122.1437,37.7874],[-122.1418,37.7898],[-122.1432,37.7903],[-122.1433,37.793],[-122.1523,37.7931],[-122.1523,37.7965],[-122.1595,37.7974],[-122.1584,37.798],[-122.1597,37.8001],[-122.1623,37.8],[-122.1616,37.8014],[-122.1641,37.8029],[-122.165,37.8052],[-122.1676,37.8058],[-122.1705,37.8047],[-122.1684,37.7991],[-122.176,37.8027],[-122.1753,37.8035],[-122.177,37.8047],[-122.1788,37.8045],[-122.1742,37.8103],[-122.1755,37.8146],[-122.1812,37.8193],[-122.1869,37.8221],[-122.1857,37.8254],[-122.187,37.8275],[-122.1867,37.8299],[-122.1838,37.8344],[-122.1851,37.8374],[-122.1888,37.8377],[-122.1953,37.8416],[-122.1951,37.8436],[-122.2008,37.8474],[-122.2031,37.8512],[-122.2089,37.8519],[-122.2119,37.8569],[-122.2214,37.8655],[-122.2164,37.8691],[-122.2176,37.8722],[-122.2236,37.8786],[-122.2288,37.881],[-122.2387,37.8833],[-122.242,37.8819],[-122.2469,37.8854],[-122.2446,37.859],[-122.2426,37.8587],[-122.2416,37.8571],[-122.2348,37.8578],[-122.2342,37.8524],[-122.2529,37.8508],[-122.2533,37.8538],[-122.2636,37.8525],[-122.269,37.8516],[-122.2691,37.8467],[-122.2758,37.8459],[-122.2762,37.8477],[-122.2819,37.847],[-122.2836,37.8506],[-122.2861,37.8505],[-122.3559,37.8357]]]},"properties":{"GEOID":"0600192230","BASENAME":"Oakland","NAME":"Oakland CCD","COUNTY":"001","COUSUB":"92230"}},{"type":"Feature","geometry":{"type":"Polygon","coordinates":[[[-122.0223,37.6962],[-122.0189,37.6948],[-122.0121,37.6945],[-122.0035,37.6961],[-121.9996,37.691],[-121.9878,37.6878],[-121.9835,37.6891],[-121.9768,37.6755],[-121.968,37.6715],[-121.9635,37.672],[-121.964,37.6697],[-121.9676,37.6666],[-121.9679,37.6639],[-121.9612,37.6614],[-121.9594,37.6577],[-121.9533,37.6532],[-121.9502,37.6534],[-121.942,37.6451],[-121.9417,37.6431],[-121.9393,37.6425],[-121.9386,37.6402],[-121.9354,37.6383],[-121.9311,37.6306],[-121.9276,37.6287],[-121.9257,37.6238],[-121.9236,37.6219],[-121.9239,37.6194],[-121.9135,37.6129],[-121.9114,37.6091],[-121.9057,37.6053],[-121.9024,37.6005],[-121.8959,37.5976],[-121.8982,37.5956],[-121.8959,37.595],[-121.8962,37.594],[-121.9048,37.5957],[-121.9124,37.5937],[-121.9167,37.5946],[-121.9225,37.5986],[-121.9266,37.5985],[-121.9302,37.5958],[-121.9328,37.5917],[-121.9303,37.5862],[-121.9281,37.5859],[-121.9284,37.5844],[-121.9256,37.5823],[-121.9271,37.5812],[-121.926,37.5798],[-121.9299,37.5785],[-121.9313,37.5763],[-121.9333,37.5771],[-121.933,37.5742],[-121.9276,37.5715],[-121.9257,37.5681],[-121.9231,37.5682],[-121.9202,37.5659],[-121.9194,37.5604],[-121.9238,37.5604],[-121.9237,37.5577],[-121.9185,37.5598],[-121.9188,37.561],[-121.9145,37.5608],[-121.9151,37.5563],[-121.9096,37.555],[-121.9073,37.5493],[-121.9048,37.5501],[-121.8993,37.5466],[-121.8936,37.5502],[-121.8875,37.544],[-121.8873,37.539],[-121.8831,37.5361],[-121.8781,37.5302],[-121.8811,37.5134],[-121.8808,37.5079],[-121.8766,37.5004],[-121.8733,37.4911],[-121.8745,37.4891],[-121.8701,37.4807],[-121.8653,37.4846],[-121.4719,37.4818],[-121.4712,37.4828],[-121.4693,37.4897],[-121.476,37.4954],[-121.4794,37.4965],[-121.4821,37.5014],[-121.4932,37.5024],[-121.496,37.5049],[-121.4954,37.5081],[-121.4972,37.5125],[-121.5024,37.5185],[-121.4983,37.5224],[-121.5015,37.525],[-121.5044,37.5259],[-121.5099,37.5246],[-121.5167,37.5255],[-121.5223,37.5247],[-121.5288,37.5281],[-121.5304,37.5271],[-121.5327,37.5287],[-121.5406,37.5298],[-121.5458,37.5325],[-121.5505,37.5393],[-121.5567,37.5427],[-121.557,37.8165],[-121.96,37.7185],[-121.9713,37.7296],[-122.0013,37.7037],[-122.0155,37.7031],[-122.0212,37.7015],[-122.0203,37.6993],[-122.0223,37.6962]]]},"properties":{"GEOID":"0600191660","BASENAME":"Livermore-Pleasanton","NAME":"Livermore-Pleasanton CCD","COUNTY":"001","COUSUB":"91660"}},{"type":"Feature","geometry":{"type":"Polygon","coordinates":[[[-122.1492,37.5458],[-122.1096,37.4976],[-122.0815,37.4778],[-122.0512,37.459],[-122.0478,37.459],[-122.0362,37.465],[-121.9967,37.4672],[-121.9927,37.4646],[-121.98,37.4609],[-121.9751,37.4606],[-121.9593,37.4635],[-121.9496,37.4614],[-121.9464,37.4634],[-121.9471,37.4674],[-121.9449,37.4692],[-121.9442,37.4658],[-121.9411,37.4649],[-121.9392,37.4625],[-121.936,37.4629],[-121.9347,37.4605],[-121.9312,37.4606],[-121.9311,37.4574],[-121.9327,37.4568],[-121.9326,37.4551],[-121.9284,37.4574],[-121.9278,37.4553],[-121.925,37.4542],[-121.9109,37.4615],[-121.9113,37.4622],[-121.8977,37.467],[-121.8909,37.468],[-121.8877,37.4709],[-121.8812,37.4711],[-121.8775,37.4752],[-121.8752,37.4752],[-121.8701,37.4807],[-121.8745,37.4891],[-121.8733,37.4911],[-121.8766,37.5004],[-121.8808,37.5079],[-121.8811,37.5134],[-121.8781,37.5302],[-121.8831,37.5361],[-121.8873,37.539],[-121.8875,37.544],[-121.8936,37.5502],[-121.8993,37.5466],[-121.9048,37.5501],[-121.9073,37.5493],[-121.9096,37.555],[-121.9151,37.5563],[-121.9145,37.5608],[-121.9188,37.561],[-121.9185,37.5598],[-121.9237,37.5577],[-121.9238,37.5604],[-121.9194,37.5604],[-121.9202,37.5659],[-121.9231,37.5682],[-121.9257,37.5681],[-121.9276,37.5715],[-121.9317,37.5727],[-121.9333,37.5759],[-121.9333,37.5771],[-121.9313,37.5763],[-121.9299,37.5785],[-121.926,37.5798],[-121.9271,37.5812],[-121.9256,37.5823],[-121.9284,37.5844],[-121.9281,37.5859],[-121.9303,37.5862],[-121.9328,37.5917],[-121.9369,37.5918],[-121.9384,37.5981],[-121.947,37.5979],[-121.9459,37.5981],[-121.9482,37.6038],[-121.9455,37.6067],[-121.9453,37.6094],[-121.9414,37.6113],[-121.9409,37.6136],[-121.9451,37.6166],[-121.9435,37.6184],[-121.9439,37.6264],[-121.9547,37.6359],[-121.9599,37.6366],[-121.9668,37.6432],[-121.9783,37.6394],[-121.9832,37.6346],[-121.99,37.6338],[-121.9917,37.6303],[-121.9977,37.6311],[-122.0025,37.6272],[-122.0068,37.6271],[-122.0108,37.6301],[-122.0192,37.6335],[-122.0229,37.6322],[-122.025,37.6284],[-122.03,37.6289],[-122.028,37.6228],[-122.0236,37.623],[-122.0226,37.62],[-122.0179,37.6166],[-122.0168,37.6143],[-122.0165,37.6085],[-122.02,37.6062],[-122.0232,37.609],[-122.0345,37.6091],[-122.0309,37.6059],[-122.0348,37.606],[-122.0433,37.6123],[-122.0438,37.606],[-122.0587,37.606],[-122.0594,37.6039],[-122.0688,37.6057],[-122.0664,37.6131],[-122.0785,37.6133],[-122.0875,37.6081],[-122.0913,37.6],[-122.0917,37.585],[-122.0968,37.583],[-122.0946,37.5794],[-122.0868,37.5784],[-122.0859,37.5742],[-122.0831,37.5753],[-122.0855,37.5733],[-122.0836,37.5697],[-122.0845,37.5677],[-122.0901,37.5644],[-122.0917,37.5674],[-122.0952,37.5667],[-122.0955,37.565],[-122.0927,37.563],[-122.0945,37.5619],[-122.0996,37.5649],[-122.1017,37.5623],[-122.1044,37.5639],[-122.1096,37.5604],[-122.1111,37.5614],[-122.1101,37.5655],[-122.1209,37.569],[-122.1265,37.5685],[-122.1492,37.5458]]]},"properties":{"GEOID":"0600191070","BASENAME":"Fremont","NAME":"Fremont CCD","COUNTY":"001","COUSUB":"91070"}},{"type":"Feature","geometry":{"type":"Polygon","coordinates":[[[-122.2181,37.6321],[-122.1492,37.5458],[-122.1265,37.5685],[-122.1209,37.569],[-122.1101,37.5655],[-122.1111,37.5614],[-122.1096,37.5604],[-122.1044,37.5639],[-122.1017,37.5623],[-122.0996,37.5649],[-122.0945,37.5619],[-122.0927,37.563],[-122.0955,37.565],[-122.0952,37.5667],[-122.0917,37.5674],[-122.0901,37.5644],[-122.0845,37.5677],[-122.0836,37.5697],[-122.0855,37.5733],[-122.0831,37.5753],[-122.0859,37.5742],[-122.0868,37.5784],[-122.0946,37.5794],[-122.0968,37.583],[-122.0917,37.585],[-122.0913,37.6],[-122.0875,37.6081],[-122.0785,37.6133],[-122.0664,37.6131],[-122.0688,37.6057],[-122.0594,37.6039],[-122.0587,37.606],[-122.0438,37.606],[-122.0433,37.6123],[-122.0348,37.606],[-122.0309,37.6059],[-122.0345,37.6091],[-122.0232,37.609],[-122.02,37.6062],[-122.0191,37.6067],[-122.0165,37.6085],[-122.0178,37.6165],[-122.0226,37.62],[-122.0237,37.623],[-122.028,37.6228],[-122.03,37.6289],[-122.025,37.6284],[-122.0229,37.6306],[-122.023,37.6322],[-122.0207,37.6334],[-122.0145,37.632],[-122.0068,37.6271],[-122.0025,37.6272],[-121.9977,37.6311],[-121.9917,37.6303],[-121.99,37.6338],[-121.9832,37.6346],[-121.9783,37.6394],[-121.9666,37.6432],[-121.9599,37.6366],[-121.9547,37.6359],[-121.9438,37.6263],[-121.9435,37.6184],[-121.9451,37.6166],[-121.9409,37.6136],[-121.9414,37.6113],[-121.9453,37.6094],[-121.9455,37.6067],[-121.9482,37.6038],[-121.9459,37.5981],[-121.947,37.5979],[-121.9385,37.5982],[-121.9374,37.5927],[-121.9357,37.591],[-121.9326,37.5919],[-121.9301,37.5959],[-121.9251,37.599],[-121.9124,37.5937],[-121.9052,37.5957],[-121.8959,37.5944],[-121.8982,37.5956],[-121.8959,37.5976],[-121.9024,37.6005],[-121.9057,37.6053],[-121.9114,37.6091],[-121.9135,37.6129],[-121.9239,37.6194],[-121.9236,37.6219],[-121.9257,37.6238],[-121.9276,37.6287],[-121.9311,37.6306],[-121.9354,37.6383],[-121.9386,37.6402],[-121.9393,37.6425],[-121.9417,37.6431],[-121.942,37.6451],[-121.9502,37.6534],[-121.9533,37.6532],[-121.9594,37.6577],[-121.9612,37.6614],[-121.9679,37.6639],[-121.9676,37.6666],[-121.964,37.6697],[-121.9635,37.672],[-121.968,37.6715],[-121.9768,37.6755],[-121.9835,37.6891],[-121.9878,37.6878],[-121.9996,37.691],[-122.0035,37.6961],[-122.0121,37.6945],[-122.0225,37.696],[-122.0203,37.6993],[-122.0212,37.7015],[-122.0155,37.7031],[-122.0013,37.7037],[-121.9713,37.7296],[-121.9881,37.7331],[-121.9954,37.7384],[-122.0011,37.739],[-122.0118,37.7474],[-122.0108,37.7551],[-121.9974,37.7634],[-122.0138,37.7801],[-122.0305,37.7877],[-122.0455,37.7981],[-122.0615,37.8001],[-122.0615,37.7992],[-122.1407,37.8047],[-122.1488,37.8138],[-122.1574,37.818],[-122.1669,37.8134],[-122.1728,37.8158],[-122.1779,37.8163],[-122.1755,37.8146],[-122.1742,37.8103],[-122.1792,37.805],[-122.1781,37.804],[-122.177,37.8047],[-122.1753,37.8035],[-122.176,37.8027],[-122.1684,37.7991],[-122.1705,37.8047],[-122.1676,37.8058],[-122.165,37.8052],[-122.1641,37.8029],[-122.1616,37.8014],[-122.1623,37.8],[-122.1597,37.8001],[-122.1584,37.798],[-122.1595,37.7974],[-122.1523,37.7965],[-122.1523,37.7931],[-122.1433,37.793],[-122.1432,37.7903],[-122.1418,37.7898],[-122.1437,37.7874],[-122.1332,37.7777],[-122.1241,37.7611],[-122.1161,37.7503],[-122.1148,37.7361],[-122.1245,37.7286],[-122.1255,37.7298],[-122.1312,37.7304],[-122.1323,37.7317],[-122.1306,37.7337],[-122.1349,37.7343],[-122.139,37.7309],[-122.1407,37.7372],[-122.1461,37.7428],[-122.1477,37.7411],[-122.1642,37.7359],[-122.1656,37.7378],[-122.1716,37.735],[-122.1698,37.7322],[-122.1742,37.7311],[-122.1703,37.7277],[-122.1754,37.7253],[-122.1838,37.7257],[-122.1904,37.7289],[-122.1919,37.7273],[-122.1981,37.7262],[-122.1963,37.7233],[-122.189,37.7179],[-122.1929,37.7167],[-122.1934,37.7178],[-122.1947,37.7175],[-122.1944,37.7158],[-122.2097,37.7111],[-122.2005,37.6926],[-122.1923,37.6827],[-122.1915,37.6833],[-122.1806,37.6707],[-122.1753,37.6707],[-122.2181,37.6321]]]},"properties":{"GEOID":"0600191260","BASENAME":"Hayward","NAME":"Hayward CCD","COUNTY":"001","COUSUB":"91260"}}]}