{"type":"FeatureCollection","features":[{"type":"Feature","geometry":{"type":"Polygon","coordinates":[[[-121.0277,38.5001],[-121.0273,38.4808],[-121.0023,38.484],[-120.9931,38.4795],[-120.9729,38.4665],[-120.9639,38.4648],[-120.9641,38.4483],[-120.9546,38.4463],[-120.9352,38.4451],[-120.9192,38.4462],[-120.9137,38.4478],[-120.8992,38.4466],[-120.8998,38.4305],[-120.9021,38.4277],[-120.9001,38.4201],[-120.9014,38.4157],[-120.9084,38.4042],[-120.9023,38.4066],[-120.8825,38.4058],[-120.8797,38.4075],[-120.8737,38.4073],[-120.8687,38.4044],[-120.8454,38.4068],[-120.84,38.4059],[-120.8336,38.4068],[-120.8262,38.4055],[-120.8216,38.4031],[-120.8182,38.3992],[-120.8095,38.4],[-120.8033,38.3949],[-120.8007,38.3889],[-120.8058,38.3889],[-120.8059,38.3818],[-120.8024,38.3784],[-120.7844,38.3856],[-120.7726,38.3888],[-120.7514,38.4013],[-120.7408,38.398],[-120.7179,38.4044],[-120.7082,38.404],[-120.7044,38.4026],[-120.6949,38.4053],[-120.6891,38.4041],[-120.6866,38.402],[-120.6814,38.4031],[-120.6792,38.4015],[-120.6768,38.4034],[-120.6716,38.4047],[-120.6673,38.4128],[-120.6768,38.4136],[-120.6749,38.4142],[-120.6745,38.4179],[-120.6769,38.4223],[-120.6754,38.4239],[-120.6741,38.4236],[-120.6731,38.4258],[-120.6734,38.4299],[-120.6759,38.4315],[-120.6732,38.4336],[-120.6742,38.4352],[-120.673,38.4373],[-120.6574,38.436],[-120.6528,38.4376],[-120.6513,38.4394],[-120.6471,38.4385],[-120.6445,38.4397],[-120.6398,38.438],[-120.6346,38.4406],[-120.632,38.4406],[-120.6308,38.4417],[-120.6314,38.4426],[-120.6286,38.4439],[-120.6192,38.4472],[-120.6179,38.4516],[-120.6183,38.4531],[-120.6203,38.4536],[-120.619,38.4546],[-120.6192,38.458],[-120.6239,38.4614],[-120.6227,38.4631],[-120.6237,38.4654],[-120.6227,38.467],[-120.6275,38.4755],[-120.6261,38.4774],[-120.6158,38.4819],[-120.5878,38.4894],[-120.5815,38.4939],[-120.5723,38.4952],[-120.5552,38.5001],[-120.5502,38.5012],[-120.5449,38.5005],[-120.5315,38.5037],[-120.5246,38.5021],[-120.5186,38.5063],[-120.5162,38.505],[-120.5086,38.5081],[-120.5015,38.5079],[-120.4821,38.5145],[-120.4777,38.5141],[-120.4715,38.5157],[-120.4641,38.5141],[-120.4559,38.5193],[-120.4475,38.5222],[-120.4401,38.5288],[-120.45,38.5285],[-120.4557,38.5249],[-120.4654,38.5227],[-120.4858,38.5213],[-120.4915,38.5173],[-120.4972,38.5167],[-120.5,38.5144],[-120.5106,38.5115],[-120.5372,38.5096],[-120.5538,38.5119],[-120.5797,38.5034],[-120.5892,38.5033],[-120.5923,38.5046],[-120.5947,38.5035],[-120.6026,38.5039],[-120.6062,38.5023],[-120.6121,38.5045],[-120.6144,38.5032],[-120.6218,38.5044],[-120.6284,38.5032],[-120.639,38.5078],[-120.6508,38.51],[-120.6577,38.5134],[-120.6592,38.5156],[-120.6772,38.5178],[-120.6789,38.5225],[-120.6831,38.5264],[-120.687,38.528],[-120.6905,38.5277],[-120.6907,38.5288],[-120.6995,38.532],[-120.7042,38.5362],[-120.7069,38.5352],[-120.7183,38.5418],[-120.7225,38.5472],[-120.7274,38.5468],[-120.7308,38.5481],[-120.7365,38.5456],[-120.739,38.5483],[-120.7473,38.5484],[-120.7487,38.5509],[-120.747,38.553],[-120.7496,38.5533],[-120.7548,38.5512],[-120.76,38.5549],[-120.7689,38.5526],[-120.7791,38.5544],[-120.7842,38.5509],[-120.7885,38.5541],[-120.793,38.5549],[-120.7941,38.5575],[-120.8006,38.556],[-120.8014,38.5587],[-120.8046,38.5598],[-120.805,38.5582],[-120.8105,38.5577],[-120.8126,38.5596],[-120.81,38.5615],[-120.8136,38.5622],[-120.8154,38.5612],[-120.8166,38.5582],[-120.8233,38.5597],[-120.8254,38.5559],[-120.8327,38.556],[-120.8359,38.5515],[-120.8409,38.556],[-120.8472,38.5538],[-120.8493,38.5507],[-120.8561,38.5486],[-120.8555,38.5444],[-120.8566,38.5427],[-120.8624,38.5433],[-120.8635,38.5353],[-120.871,38.5363],[-120.8738,38.5386],[-120.8736,38.5425],[-120.8763,38.5433],[-120.8781,38.5396],[-120.8837,38.5365],[-120.8807,38.5295],[-120.8861,38.5247],[-120.8896,38.5248],[-120.8902,38.5274],[-120.8925,38.5289],[-120.8948,38.5281],[-120.9024,38.5312],[-120.9054,38.5243],[-120.9088,38.5239],[-120.9108,38.5206],[-120.9227,38.5192],[-120.9238,38.5161],[-120.9264,38.515],[-120.9306,38.5183],[-120.9364,38.5194],[-120.9381,38.5269],[-120.9409,38.5286],[-120.9437,38.5274],[-120.9457,38.5237],[-120.9525,38.521],[-120.9576,38.5228],[-120.9643,38.5203],[-120.9699,38.521],[-120.9747,38.5159],[-120.9802,38.5152],[-120.9871,38.5165],[-120.9948,38.5136],[-121,38.5181],[-121.0057,38.5195],[-121.0096,38.5177],[-121.0095,38.5147],[-121.0116,38.5124],[-121.0132,38.5131],[-121.0193,38.5089],[-121.0275,38.5083],[-121.0277,38.5001]]]},"properties":{"GEOID":"0600593300","BASENAME":"Sutter Creek-Plymouth","NAME":"Sutter Creek-Plymouth CCD","COUNTY":"005","COUSUB":"93300"}},{"type":"Feature","geometry":{"type":"Polygon","coordinates":[[[-121.0273,38.4677],[-121.0271,38.3003],[-120.9955,38.2254],[-120.9923,38.2253],[-120.9857,38.2214],[-120.9811,38.2218],[-120.9721,38.218],[-120.9675,38.2205],[-120.9633,38.2199],[-120.9621,38.2217],[-120.9578,38.2229],[-120.9534,38.2263],[-120.9355,38.2209],[-120.9255,38.2276],[-120.9149,38.23],[-120.9093,38.2275],[-120.9025,38.2223],[-120.8929,38.2216],[-120.8888,38.2276],[-120.884,38.2297],[-120.8808,38.2336],[-120.8801,38.2406],[-120.8754,38.2398],[-120.8745,38.242],[-120.8683,38.2451],[-120.8565,38.2478],[-120.8544,38.2499],[-120.8525,38.2557],[-120.8501,38.2573],[-120.8524,38.2582],[-120.8572,38.2656],[-120.8605,38.2662],[-120.8651,38.2693],[-120.8705,38.2775],[-120.87,38.2808],[-120.8716,38.2886],[-120.8653,38.2902],[-120.8633,38.289],[-120.861,38.291],[-120.8545,38.2917],[-120.8476,38.2911],[-120.8377,38.2953],[-120.8309,38.295],[-120.8296,38.306],[-120.833,38.3129],[-120.8325,38.3147],[-120.8367,38.3132],[-120.8386,38.3108],[-120.8404,38.3111],[-120.8429,38.3087],[-120.8499,38.3063],[-120.868,38.3098],[-120.886,38.3038],[-120.8947,38.3036],[-120.8961,38.3026],[-120.8964,38.2994],[-120.8982,38.2986],[-120.8992,38.2962],[-120.9007,38.2962],[-120.9037,38.2914],[-120.9109,38.2875],[-120.9174,38.2899],[-120.9216,38.2888],[-120.9247,38.2894],[-120.9385,38.2936],[-120.945,38.2917],[-120.9492,38.2923],[-120.9598,38.2976],[-120.9646,38.3037],[-120.9778,38.3071],[-120.9473,38.3129],[-120.9362,38.3208],[-120.9222,38.3236],[-120.8999,38.3324],[-120.8967,38.3372],[-120.8832,38.3438],[-120.8734,38.3426],[-120.8615,38.3444],[-120.8355,38.3525],[-120.8221,38.3595],[-120.8076,38.3609],[-120.7987,38.3651],[-120.7947,38.3652],[-120.8005,38.3733],[-120.8031,38.38],[-120.8059,38.3818],[-120.8058,38.3889],[-120.8007,38.3889],[-120.8033,38.3949],[-120.8095,38.4],[-120.8182,38.3992],[-120.8236,38.4045],[-120.8336,38.4068],[-120.84,38.4059],[-120.8507,38.4066],[-120.8538,38.4052],[-120.8608,38.4057],[-120.8687,38.4044],[-120.8737,38.4073],[-120.8797,38.4075],[-120.8825,38.4058],[-120.9023,38.4066],[-120.9084,38.4042],[-120.9014,38.4157],[-120.9001,38.4201],[-120.9021,38.4277],[-120.8998,38.4305],[-120.8992,38.4466],[-120.9137,38.4478],[-120.9192,38.4462],[-120.9352,38.4451],[-120.9546,38.4463],[-120.9641,38.4483],[-120.9639,38.4648],[-120.9729,38.4665],[-120.9931,38.4795],[-121.0033,38.4842],[-121.0273,38.4808],[-121.0273,38.4677]]]},"properties":{"GEOID":"0600591410","BASENAME":"Ione","NAME":"Ione CCD","COUNTY":"005","COUSUB":"91410"}},{"type":"Feature","geometry":{"type":"Polygon","coordinates":[[[-120.9778,38.3071],[-120.9646,38.3037],[-120.9598,38.2976],[-120.9492,38.2923],[-120.945,38.2917],[-120.9385,38.2936],[-120.9247,38.2894],[-120.9216,38.2888],[-120.9174,38.2899],[-120.9109,38.2875],[-120.9037,38.2914],[-120.9007,38.2962],[-120.8992,38.2962],[-120.8982,38.2986],[-120.8964,38.2994],[-120.8961,38.3026],[-120.8947,38.3036],[-120.886,38.3038],[-120.868,38.3098],[-120.8499,38.3063],[-120.8429,38.3087],[-120.8404,38.3111],[-120.8386,38.3108],[-120.8367,38.3132],[-120.8325,38.3147],[-120.833,38.3129],[-120.8296,38.306],[-120.8309,38.295],[-120.8378,38.2953],[-120.8476,38.2911],[-120.8609,38.291],[-120.8633,38.289],[-120.8653,38.2902],[-120.8718,38.2883],[-120.87,38.2808],[-120.8705,38.2775],[-120.8651,38.2693],[-120.8605,38.2662],[-120.8572,38.2656],[-120.8524,38.2582],[-120.8501,38.2573],[-120.8468,38.2643],[-120.8432,38.2644],[-120.8348,38.2677],[-120.822,38.2755],[-120.8177,38.2835],[-120.8149,38.2838],[-120.8129,38.2818],[-120.8105,38.2816],[-120.8077,38.2887],[-120.8054,38.2879],[-120.8034,38.2889],[-120.7985,38.2856],[-120.7905,38.2886],[-120.7776,38.2877],[-120.7673,38.2903],[-120.7597,38.29],[-120.7549,38.2883],[-120.7503,38.2978],[-120.7383,38.3078],[-120.7319,38.3077],[-120.7208,38.3125],[-120.7147,38.3134],[-120.7126,38.3152],[-120.6882,38.3189],[-120.6858,38.3203],[-120.6831,38.3251],[-120.6768,38.3282],[-120.6749,38.3307],[-120.6722,38.3291],[-120.6653,38.3317],[-120.6565,38.3309],[-120.6516,38.334],[-120.6466,38.3346],[-120.6385,38.3408],[-120.6323,38.3398],[-120.6309,38.3411],[-120.6329,38.3404],[-120.637,38.3424],[-120.6409,38.3423],[-120.6368,38.344],[-120.6334,38.343],[-120.6364,38.3451],[-120.6407,38.3451],[-120.6364,38.3501],[-120.6369,38.353],[-120.6388,38.3537],[-120.64,38.3563],[-120.6423,38.3553],[-120.6419,38.3561],[-120.6453,38.3579],[-120.6467,38.3562],[-120.6501,38.3567],[-120.6506,38.3592],[-120.6485,38.3626],[-120.6489,38.3637],[-120.6538,38.3663],[-120.6575,38.3713],[-120.6684,38.3763],[-120.6714,38.3845],[-120.6783,38.3946],[-120.6778,38.3977],[-120.6708,38.4053],[-120.6697,38.4082],[-120.6716,38.4047],[-120.6768,38.4034],[-120.6796,38.4013],[-120.6814,38.4031],[-120.6864,38.402],[-120.6891,38.4041],[-120.6949,38.4053],[-120.7044,38.4026],[-120.7082,38.404],[-120.7179,38.4044],[-120.7408,38.398],[-120.7511,38.4013],[-120.7726,38.3888],[-120.7844,38.3856],[-120.7896,38.3827],[-120.8024,38.3785],[-120.8004,38.3731],[-120.7947,38.3652],[-120.7987,38.3651],[-120.8076,38.3609],[-120.8221,38.3595],[-120.8355,38.3525],[-120.8615,38.3444],[-120.8734,38.3426],[-120.8832,38.3438],[-120.8967,38.3372],[-120.8999,38.3324],[-120.9222,38.3236],[-120.9362,38.3208],[-120.9473,38.3129],[-120.9778,38.3071]]]},"properties":{"GEOID":"0600591430","BASENAME":"Jackson","NAME":"Jackson CCD","COUNTY":"005","COUSUB":"91430"}},{"type":"Feature","geometry":{"type":"Polygon","coordinates":[[[-120.6783,38.3948],[-120.6714,38.3845],[-120.6684,38.3763],[-120.6575,38.3713],[-120.6538,38.3663],[-120.6487,38.3634],[-120.6506,38.3592],[-120.6502,38.3568],[-120.6467,38.3562],[-120.6453,38.3579],[-120.6419,38.3561],[-120.6423,38.3553],[-120.64,38.3563],[-120.6388,38.3537],[-120.6369,38.353],[-120.6364,38.3501],[-120.6407,38.3451],[-120.6364,38.3451],[-120.6334,38.343],[-120.6368,38.344],[-120.6409,38.3423],[-120.637,38.3424],[-120.6326,38.3404],[-120.6306,38.3423],[-120.6318,38.346],[-120.6292,38.3504],[-120.6283,38.3554],[-120.6244,38.3575],[-120.6197,38.3577],[-120.6174,38.3626],[-120.6185,38.3665],[-120.612,38.3687],[-120.6101,38.3707],[-120.6106,38.372],[-120.6146,38.3728],[-120.6171,38.3782],[-120.6141,38.3825],[-120.6151,38.3891],[-120.6105,38.3916],[-120.6081,38.398],[-120.6014,38.3997],[-120.5901,38.3993],[-120.5814,38.4016],[-120.5743,38.4018],[-120.5706,38.4074],[-120.5723,38.4125],[-120.5716,38.4139],[-120.56,38.4151],[-120.5523,38.4183],[-120.5503,38.4203],[-120.5408,38.4231],[-120.5376,38.4185],[-120.5301,38.4189],[-120.5279,38.4224],[-120.5232,38.4227],[-120.5201,38.4272],[-120.5153,38.4293],[-120.5084,38.4371],[-120.5049,38.4391],[-120.5051,38.4442],[-120.4981,38.4444],[-120.4998,38.4476],[-120.4954,38.4496],[-120.4938,38.447],[-120.486,38.4456],[-120.4748,38.4483],[-120.4702,38.4475],[-120.4677,38.4488],[-120.4614,38.4462],[-120.4565,38.4495],[-120.4522,38.4501],[-120.4485,38.4525],[-120.4478,38.4561],[-120.4428,38.4625],[-120.4316,38.4672],[-120.4239,38.4732],[-120.4147,38.4731],[-120.4124,38.4687],[-120.4074,38.4691],[-120.4003,38.4668],[-120.3881,38.4667],[-120.3864,38.466],[-120.3845,38.462],[-120.3807,38.461],[-120.3649,38.4666],[-120.3536,38.4655],[-120.3381,38.4674],[-120.331,38.4652],[-120.3191,38.471],[-120.3046,38.4721],[-120.2948,38.4772],[-120.2886,38.4771],[-120.2833,38.4754],[-120.2691,38.4778],[-120.2599,38.4867],[-120.2546,38.4877],[-120.2409,38.4854],[-120.2355,38.4899],[-120.226,38.4907],[-120.2174,38.4977],[-120.2094,38.5008],[-120.2057,38.501],[-120.1806,38.4956],[-120.1692,38.4963],[-120.1643,38.4942],[-120.1467,38.4953],[-120.1425,38.498],[-120.1394,38.4983],[-120.1234,38.496],[-120.1115,38.4985],[-120.1083,38.5037],[-120.1034,38.5054],[-120.1003,38.504],[-120.0922,38.5075],[-120.0894,38.5064],[-120.0828,38.5083],[-120.08,38.5074],[-120.0725,38.5099],[-120.0723,38.693],[-120.0733,38.7011],[-120.0724,38.7028],[-120.0794,38.7004],[-120.0825,38.7006],[-120.0824,38.702],[-120.0777,38.7021],[-120.0776,38.7089],[-120.0983,38.709],[-120.0984,38.704],[-120.1044,38.7061],[-120.112,38.705],[-120.1176,38.6986],[-120.1225,38.6954],[-120.1243,38.6903],[-120.1234,38.6869],[-120.1167,38.6798],[-120.1231,38.6667],[-120.1285,38.6651],[-120.1322,38.6603],[-120.1351,38.6545],[-120.1314,38.6498],[-120.1401,38.6384],[-120.1454,38.6397],[-120.1501,38.6374],[-120.1524,38.6379],[-120.1538,38.6355],[-120.1581,38.6332],[-120.1718,38.6324],[-120.1786,38.6338],[-120.1913,38.6312],[-120.1971,38.6292],[-120.1977,38.6258],[-120.2018,38.6247],[-120.2034,38.6252],[-120.2047,38.6277],[-120.2143,38.6291],[-120.2157,38.6268],[-120.2146,38.6236],[-120.2207,38.6214],[-120.2271,38.6106],[-120.2237,38.6043],[-120.2287,38.6008],[-120.2326,38.6],[-120.2332,38.5964],[-120.2318,38.5922],[-120.2338,38.5883],[-120.2392,38.586],[-120.2432,38.5864],[-120.251,38.5844],[-120.2538,38.582],[-120.2619,38.5792],[-120.2664,38.5735],[-120.2666,38.5677],[-120.2745,38.5595],[-120.2783,38.5597],[-120.2839,38.557],[-120.2896,38.5561],[-120.2976,38.5568],[-120.2992,38.5561],[-120.2989,38.5521],[-120.3017,38.5491],[-120.3179,38.545],[-120.325,38.5462],[-120.3284,38.5452],[-120.3313,38.5477],[-120.3387,38.5469],[-120.3545,38.5481],[-120.3639,38.5444],[-120.3773,38.5446],[-120.3808,38.5429],[-120.3837,38.5387],[-120.3887,38.5406],[-120.3962,38.5391],[-120.3988,38.5373],[-120.4036,38.5368],[-120.4136,38.531],[-120.4246,38.5303],[-120.4337,38.5267],[-120.4389,38.5289],[-120.4413,38.5285],[-120.4475,38.5222],[-120.4559,38.5193],[-120.4641,38.5141],[-120.4715,38.5157],[-120.4777,38.5141],[-120.4821,38.5145],[-120.5015,38.5079],[-120.5086,38.5081],[-120.5162,38.505],[-120.5186,38.5063],[-120.5246,38.5021],[-120.5315,38.5037],[-120.5449,38.5005],[-120.5502,38.5012],[-120.5552,38.5001],[-120.5723,38.4952],[-120.5815,38.4939],[-120.5878,38.4894],[-120.6158,38.4819],[-120.6261,38.4774],[-120.6275,38.4755],[-120.6227,38.467],[-120.6237,38.4654],[-120.6227,38.4631],[-120.6239,38.4614],[-120.6192,38.458],[-120.619,38.4546],[-120.6203,38.4536],[-120.6183,38.4531],[-120.6179,38.4516],[-120.6192,38.4473],[-120.6286,38.4439],[-120.6314,38.4426],[-120.6308,38.4417],[-120.632,38.4406],[-120.6346,38.4406],[-120.6398,38.438],[-120.6445,38.4397],[-120.6471,38.4385],[-120.6513,38.4394],[-120.6528,38.4376],[-120.6574,38.436],[-120.673,38.4373],[-120.6742,38.4352],[-120.6732,38.4336],[-120.6759,38.4315],[-120.6734,38.4299],[-120.6731,38.4258],[-120.6741,38.4236],[-120.6754,38.4239],[-120.6769,38.4223],[-120.6745,38.4179],[-120.6749,38.4142],[-120.6768,38.4136],[-120.6673,38.4128],[-120.6705,38.4056],[-120.6778,38.3976],[-120.6783,38.3948]]]},"properties":{"GEOID":"0600592470","BASENAME":"Pine Grove-Silver Lake","NAME":"Pine Grove-Silver Lake CCD","COUNTY":"005","COUSUB":"92470"}}]}