{"type":"FeatureCollection","features":[{"type":"Feature","geometry":{"type":"Polygon","coordinates":[[[-122.0033,39.574],[-122.0014,39.569],[-121.9925,39.5671],[-121.9906,39.5643],[-121.9923,39.5623],[-122.0017,39.561],[-122.0031,39.5593],[-121.9992,39.5448],[-121.994,39.5339],[-121.9857,39.531],[-121.9841,39.5328],[-121.9768,39.5329],[-121.9734,39.5311],[-121.974,39.5289],[-121.9452,39.5361],[-121.8569,39.5369],[-121.8565,39.5336],[-121.8322,39.5599],[-121.8227,39.5667],[-121.8266,39.562],[-121.8204,39.5619],[-121.8148,39.5585],[-121.7999,39.5584],[-121.7942,39.5533],[-121.7936,39.551],[-121.7832,39.551],[-121.7644,39.5409],[-121.7446,39.5368],[-121.7183,39.5243],[-121.7084,39.5222],[-121.7,39.5239],[-121.6983,39.5255],[-121.6961,39.5246],[-121.6925,39.5267],[-121.6888,39.5268],[-121.6888,39.5868],[-121.691,39.6117],[-121.6935,39.6223],[-121.7382,39.6614],[-121.7586,39.6769],[-121.7902,39.705],[-121.8091,39.7089],[-121.7992,39.6943],[-121.7958,39.6779],[-121.8026,39.671],[-121.8061,39.6643],[-121.817,39.6941],[-121.8215,39.7008],[-121.828,39.707],[-121.8381,39.7029],[-121.8432,39.7025],[-121.8497,39.7002],[-121.8596,39.6749],[-121.8667,39.675],[-121.8667,39.6714],[-121.8732,39.669],[-121.8835,39.6698],[-121.8835,39.6676],[-121.9081,39.6668],[-121.9081,39.637],[-121.9757,39.6195],[-121.9803,39.6209],[-121.9855,39.6282],[-121.9921,39.6292],[-121.9883,39.6242],[-121.9835,39.6233],[-121.98,39.6188],[-121.9796,39.6148],[-121.9822,39.6114],[-121.9923,39.6082],[-121.994,39.6063],[-121.9966,39.6004],[-121.9958,39.5924],[-121.9969,39.5876],[-121.9952,39.5817],[-122.0033,39.574]]]},"properties":{"GEOID":"0600790750","BASENAME":"Durham","NAME":"Durham CCD","COUNTY":"007","COUSUB":"90750"}},{"type":"Feature","geometry":{"type":"Polygon","coordinates":[[[-121.6935,39.6223],[-121.691,39.6117],[-121.6888,39.5857],[-121.6883,39.4506],[-121.6555,39.4512],[-121.6506,39.4553],[-121.6431,39.4557],[-121.6394,39.4577],[-121.6364,39.455],[-121.6233,39.4573],[-121.6144,39.4565],[-121.6131,39.4515],[-121.6052,39.4513],[-121.603,39.4581],[-121.6001,39.4603],[-121.5863,39.4639],[-121.5782,39.4638],[-121.5691,39.4655],[-121.5493,39.4657],[-121.5494,39.4602],[-121.5451,39.4603],[-121.5425,39.4642],[-121.5397,39.4629],[-121.5282,39.4711],[-121.5181,39.4736],[-121.5128,39.4763],[-121.5071,39.4836],[-121.5015,39.4813],[-121.4901,39.4725],[-121.4855,39.4736],[-121.4862,39.4748],[-121.48,39.4787],[-121.4797,39.4801],[-121.4758,39.4762],[-121.4659,39.4714],[-121.4604,39.4666],[-121.459,39.4677],[-121.4552,39.4673],[-121.448,39.4583],[-121.4423,39.4572],[-121.443,39.4623],[-121.4405,39.4644],[-121.4402,39.4684],[-121.4426,39.4699],[-121.4434,39.4727],[-121.4387,39.4794],[-121.4284,39.4832],[-121.4308,39.4984],[-121.4275,39.4995],[-121.4254,39.5029],[-121.4352,39.5044],[-121.4374,39.507],[-121.4378,39.5136],[-121.444,39.5148],[-121.4346,39.5217],[-121.4324,39.5262],[-121.4334,39.5327],[-121.4364,39.5389],[-121.4347,39.5409],[-121.4331,39.5467],[-121.4305,39.5479],[-121.43,39.5499],[-121.4362,39.5495],[-121.4381,39.554],[-121.4402,39.5554],[-121.4436,39.5545],[-121.4449,39.5558],[-121.4468,39.5541],[-121.4514,39.5543],[-121.4582,39.5581],[-121.4676,39.5558],[-121.4648,39.5601],[-121.4688,39.5673],[-121.4714,39.5809],[-121.4804,39.5967],[-121.4828,39.606],[-121.4864,39.6101],[-121.4933,39.6258],[-121.4958,39.6372],[-121.4998,39.6444],[-121.4994,39.6483],[-121.4945,39.6516],[-121.4932,39.6553],[-121.4934,39.659],[-121.4952,39.6619],[-121.4983,39.6635],[-121.4983,39.6661],[-121.5002,39.668],[-121.5049,39.6695],[-121.5087,39.6684],[-121.5125,39.6641],[-121.5178,39.6619],[-121.5312,39.6659],[-121.5351,39.6622],[-121.5361,39.658],[-121.5385,39.6555],[-121.5479,39.6543],[-121.5572,39.6511],[-121.582,39.6351],[-121.6185,39.6021],[-121.6207,39.596],[-121.6193,39.5857],[-121.6223,39.5829],[-121.6645,39.6022],[-121.6808,39.6148],[-121.6935,39.6223]]]},"properties":{"GEOID":"0600792300","BASENAME":"Oroville","NAME":"Oroville CCD","COUNTY":"007","COUSUB":"92300"}},{"type":"Feature","geometry":{"type":"Polygon","coordinates":[[[-121.893,39.3635],[-121.8927,39.3619],[-121.7817,39.3625],[-121.7818,39.3916],[-121.7729,39.392],[-121.7724,39.3991],[-121.7162,39.3994],[-121.7159,39.3891],[-121.7075,39.3884],[-121.7067,39.3858],[-121.7043,39.3865],[-121.7018,39.392],[-121.696,39.3916],[-121.6944,39.3897],[-121.688,39.3925],[-121.6654,39.3923],[-121.6622,39.3847],[-121.6547,39.3849],[-121.6502,39.3803],[-121.6379,39.3808],[-121.6356,39.3839],[-121.632,39.384],[-121.624,39.3895],[-121.6237,39.3928],[-121.6197,39.398],[-121.6191,39.4023],[-121.6171,39.406],[-121.618,39.4081],[-121.6248,39.4099],[-121.6279,39.4134],[-121.6278,39.4164],[-121.6241,39.4215],[-121.6239,39.4257],[-121.6275,39.4296],[-121.6359,39.4343],[-121.6361,39.4491],[-121.6389,39.4522],[-121.6364,39.455],[-121.6393,39.4576],[-121.6431,39.4557],[-121.6506,39.4553],[-121.6555,39.4512],[-121.6883,39.4506],[-121.6888,39.5268],[-121.6925,39.5267],[-121.6961,39.5246],[-121.6983,39.5255],[-121.7,39.5239],[-121.7084,39.5222],[-121.7183,39.5243],[-121.7446,39.5368],[-121.7644,39.5409],[-121.7832,39.551],[-121.7936,39.551],[-121.7942,39.5533],[-121.7999,39.5584],[-121.8148,39.5585],[-121.8204,39.5619],[-121.8266,39.562],[-121.8232,39.5666],[-121.8378,39.5542],[-121.849,39.5408],[-121.8562,39.5344],[-121.8565,39.5326],[-121.86,39.5292],[-121.8594,39.5272],[-121.8615,39.525],[-121.8641,39.5247],[-121.8641,39.5232],[-121.8711,39.5184],[-121.8773,39.5095],[-121.8751,39.5033],[-121.8771,39.5018],[-121.8717,39.4908],[-121.8725,39.49],[-121.8709,39.4851],[-121.8713,39.483],[-121.8732,39.4821],[-121.8735,39.4786],[-121.8722,39.4769],[-121.8712,39.4672],[-121.8694,39.4662],[-121.8721,39.4617],[-121.8748,39.4605],[-121.8725,39.4534],[-121.8731,39.4509],[-121.8708,39.4487],[-121.874,39.4473],[-121.875,39.4405],[-121.8769,39.4383],[-121.8763,39.4356],[-121.8746,39.4345],[-121.8758,39.432],[-121.8752,39.4279],[-121.878,39.4277],[-121.8777,39.4249],[-121.8792,39.4239],[-121.8777,39.4228],[-121.8794,39.4227],[-121.881,39.4198],[-121.881,39.4164],[-121.8843,39.4102],[-121.8835,39.4068],[-121.8904,39.3902],[-121.8893,39.386],[-121.8902,39.3842],[-121.8839,39.3739],[-121.8877,39.372],[-121.8917,39.3661],[-121.8911,39.3645],[-121.893,39.3635]]]},"properties":{"GEOID":"0600790230","BASENAME":"Biggs","NAME":"Biggs CCD","COUNTY":"007","COUSUB":"90230"}},{"type":"Feature","geometry":{"type":"Polygon","coordinates":[[[-121.9087,39.308],[-121.9083,39.3039],[-121.8792,39.3036],[-121.6301,39.3057],[-121.6271,39.3084],[-121.6269,39.3135],[-121.6206,39.3194],[-121.6224,39.3237],[-121.6276,39.3282],[-121.6311,39.3296],[-121.6332,39.3337],[-121.6278,39.3409],[-121.6282,39.3472],[-121.6253,39.3513],[-121.6271,39.3545],[-121.6299,39.356],[-121.6347,39.3559],[-121.641,39.365],[-121.6455,39.366],[-121.651,39.3636],[-121.6475,39.366],[-121.65,39.3699],[-121.6512,39.3816],[-121.655,39.385],[-121.6622,39.3847],[-121.6654,39.3923],[-121.688,39.3925],[-121.6944,39.3897],[-121.696,39.3916],[-121.7018,39.392],[-121.7043,39.3865],[-121.7067,39.3858],[-121.7075,39.3884],[-121.7159,39.3891],[-121.7162,39.3994],[-121.7723,39.3991],[-121.7729,39.392],[-121.7818,39.3916],[-121.7817,39.3625],[-121.8927,39.3619],[-121.8935,39.3585],[-121.8956,39.3592],[-121.8991,39.3573],[-121.8997,39.354],[-121.8975,39.3443],[-121.8944,39.3411],[-121.8959,39.3377],[-121.8999,39.3358],[-121.903,39.3301],[-121.9087,39.308]]]},"properties":{"GEOID":"0600791180","BASENAME":"Gridley","NAME":"Gridley CCD","COUNTY":"007","COUSUB":"91180"}},{"type":"Feature","geometry":{"type":"Polygon","coordinates":[[[-121.5717,39.8128],[-121.5693,39.8072],[-121.571,39.8033],[-121.5704,39.8006],[-121.5666,39.7971],[-121.5657,39.7926],[-121.5623,39.7927],[-121.5638,39.7885],[-121.5618,39.7856],[-121.5623,39.7833],[-121.5597,39.7804],[-121.5628,39.7772],[-121.5633,39.7718],[-121.5615,39.7689],[-121.5642,39.7653],[-121.5631,39.7616],[-121.5652,39.7585],[-121.5641,39.7566],[-121.5682,39.7544],[-121.5676,39.7496],[-121.5652,39.7476],[-121.5662,39.7455],[-121.5618,39.7414],[-121.5651,39.7401],[-121.5658,39.7368],[-121.5646,39.7312],[-121.5623,39.729],[-121.5622,39.7248],[-121.5596,39.7218],[-121.5611,39.7128],[-121.5559,39.7129],[-121.556,39.7115],[-121.5627,39.7043],[-121.5613,39.6994],[-121.5637,39.6955],[-121.5628,39.693],[-121.5573,39.6912],[-121.559,39.6869],[-121.5538,39.682],[-121.5531,39.6755],[-121.5354,39.6673],[-121.5178,39.6619],[-121.5125,39.6641],[-121.5087,39.6684],[-121.5049,39.6695],[-121.499,39.667],[-121.4983,39.6635],[-121.4952,39.6619],[-121.4934,39.659],[-121.4932,39.6553],[-121.4945,39.6516],[-121.4994,39.6483],[-121.4998,39.6444],[-121.4958,39.6372],[-121.4933,39.6258],[-121.4864,39.6101],[-121.4828,39.606],[-121.4804,39.5967],[-121.4714,39.5809],[-121.4688,39.5673],[-121.4648,39.5601],[-121.4676,39.5558],[-121.4582,39.5581],[-121.4514,39.5543],[-121.4468,39.5541],[-121.4449,39.5558],[-121.4436,39.5545],[-121.4402,39.5554],[-121.4381,39.554],[-121.4362,39.5495],[-121.43,39.5499],[-121.4305,39.5479],[-121.4331,39.5467],[-121.4347,39.5409],[-121.4364,39.5389],[-121.4334,39.5327],[-121.4324,39.5262],[-121.4346,39.5217],[-121.444,39.5148],[-121.4378,39.5136],[-121.4374,39.507],[-121.4352,39.5044],[-121.4254,39.5029],[-121.4275,39.4995],[-121.4308,39.4984],[-121.4284,39.4832],[-121.4387,39.4794],[-121.4434,39.4727],[-121.4426,39.4699],[-121.4402,39.4684],[-121.4405,39.4644],[-121.443,39.4623],[-121.4425,39.457],[-121.44,39.4557],[-121.4372,39.4468],[-121.4331,39.4432],[-121.4235,39.4424],[-121.4177,39.4451],[-121.4132,39.4446],[-121.4113,39.4422],[-121.4069,39.4428],[-121.4038,39.446],[-121.401,39.4451],[-121.3913,39.4478],[-121.3805,39.4449],[-121.3733,39.4468],[-121.3656,39.447],[-121.3592,39.443],[-121.3533,39.4441],[-121.3507,39.4434],[-121.3514,39.438],[-121.3478,39.4365],[-121.3471,39.4407],[-121.3439,39.4422],[-121.3466,39.4452],[-121.3454,39.4473],[-121.3451,39.4526],[-121.3421,39.4543],[-121.3384,39.4544],[-121.3383,39.465],[-121.3334,39.4651],[-121.3334,39.4687],[-121.3241,39.4686],[-121.3241,39.4757],[-121.3148,39.4759],[-121.315,39.487],[-121.3102,39.4868],[-121.3102,39.4978],[-121.3054,39.4978],[-121.3051,39.5196],[-121.2768,39.5203],[-121.2771,39.5128],[-121.2402,39.5131],[-121.2405,39.5266],[-121.21,39.5272],[-121.1852,39.5267],[-121.1854,39.5197],[-121.1593,39.5196],[-121.159,39.5261],[-121.1499,39.5264],[-121.1499,39.5553],[-121.1409,39.5555],[-121.1412,39.5623],[-121.1165,39.5635],[-121.1163,39.5671],[-121.107,39.5672],[-121.1075,39.5853],[-121.0795,39.5853],[-121.0767,39.5973],[-121.0793,39.6034],[-121.0889,39.6033],[-121.0889,39.6135],[-121.0977,39.6137],[-121.0975,39.6209],[-121.1163,39.621],[-121.1166,39.628],[-121.1367,39.6282],[-121.1364,39.6568],[-121.1551,39.6568],[-121.1551,39.6639],[-121.1629,39.6638],[-121.163,39.671],[-121.1711,39.6711],[-121.1712,39.6856],[-121.1903,39.6854],[-121.1905,39.6999],[-121.2087,39.7004],[-121.2089,39.7119],[-121.2106,39.7118],[-121.2109,39.7257],[-121.2294,39.7257],[-121.2297,39.7402],[-121.2483,39.74],[-121.2484,39.7458],[-121.2506,39.754],[-121.268,39.7542],[-121.2683,39.7688],[-121.2859,39.7676],[-121.2849,39.7816],[-121.2895,39.7817],[-121.2895,39.7854],[-121.2942,39.7855],[-121.2941,39.7893],[-121.3078,39.7894],[-121.3077,39.7966],[-121.3169,39.7967],[-121.3185,39.8109],[-121.3323,39.8111],[-121.3323,39.8257],[-121.3508,39.8257],[-121.3511,39.8403],[-121.3605,39.8407],[-121.3612,39.8555],[-121.3802,39.8554],[-121.3801,39.8628],[-121.3985,39.8629],[-121.399,39.8713],[-121.4119,39.8714],[-121.411,39.9004],[-121.43,39.9003],[-121.43,39.9148],[-121.4275,39.9155],[-121.4296,39.9193],[-121.4322,39.9181],[-121.4336,39.9203],[-121.441,39.9195],[-121.4424,39.9206],[-121.449,39.9172],[-121.4537,39.9177],[-121.453,39.9139],[-121.4606,39.9154],[-121.4651,39.9143],[-121.4673,39.9125],[-121.4741,39.9132],[-121.4805,39.908],[-121.4841,39.9084],[-121.4858,39.9035],[-121.4895,39.9043],[-121.4916,39.8995],[-121.4944,39.8971],[-121.4956,39.8921],[-121.4973,39.8915],[-121.4977,39.8883],[-121.4967,39.8869],[-121.4987,39.8868],[-121.4998,39.8844],[-121.4986,39.8837],[-121.5009,39.8802],[-121.5076,39.8796],[-121.5087,39.8781],[-121.5103,39.8731],[-121.5084,39.8706],[-121.5124,39.869],[-121.5112,39.8663],[-121.5115,39.8605],[-121.5181,39.8584],[-121.5191,39.86],[-121.521,39.8591],[-121.5229,39.8616],[-121.5253,39.8596],[-121.5259,39.8633],[-121.5273,39.8642],[-121.5289,39.8622],[-121.5338,39.8614],[-121.5352,39.8594],[-121.5389,39.8587],[-121.5364,39.8564],[-121.5373,39.8543],[-121.5438,39.8521],[-121.543,39.8507],[-121.545,39.8475],[-121.5519,39.8422],[-121.5593,39.841],[-121.5592,39.8373],[-121.5615,39.8324],[-121.5641,39.8306],[-121.5672,39.8305],[-121.569,39.8238],[-121.5716,39.8218],[-121.5701,39.8155],[-121.5717,39.8128]]]},"properties":{"GEOID":"0600790970","BASENAME":"Feather Falls","NAME":"Feather Falls CCD","COUNTY":"007","COUSUB":"90970"}},{"type":"Feature","geometry":{"type":"Polygon","coordinates":[[[-122.0694,39.8405],[-122.0632,39.8322],[-122.0567,39.8273],[-122.0599,39.8178],[-122.0653,39.8137],[-122.0639,39.8106],[-122.0543,39.8041],[-122.05,39.8033],[-122.0456,39.7967],[-122.0401,39.7927],[-122.0368,39.7941],[-122.0366,39.798],[-122.0336,39.7994],[-122.0279,39.8004],[-122.0242,39.7985],[-122.0256,39.7881],[-122.0326,39.7794],[-122.0246,39.7679],[-122.0166,39.7614],[-122.0087,39.7592],[-121.9981,39.7524],[-121.9892,39.7436],[-121.9822,39.7339],[-121.9707,39.7321],[-121.9692,39.7344],[-121.9694,39.7394],[-121.9638,39.7414],[-121.9602,39.7342],[-121.9612,39.7308],[-121.965,39.7284],[-121.9679,39.7233],[-121.967,39.7208],[-121.9625,39.7177],[-121.9572,39.7191],[-121.9556,39.7208],[-121.9548,39.7256],[-121.9513,39.7328],[-121.9496,39.733],[-121.9469,39.7307],[-121.9468,39.7249],[-121.9508,39.7193],[-121.951,39.715],[-121.9489,39.7136],[-121.947,39.7065],[-121.9418,39.6997],[-121.9424,39.6943],[-121.9449,39.6909],[-121.9569,39.6875],[-121.9577,39.6816],[-121.9614,39.6773],[-121.9721,39.6765],[-121.9851,39.6702],[-121.9943,39.6715],[-121.9973,39.6685],[-121.9965,39.6639],[-121.9942,39.6619],[-121.9869,39.6601],[-121.9814,39.6637],[-121.9777,39.6642],[-121.9673,39.6544],[-121.9666,39.6524],[-121.9682,39.6483],[-121.976,39.6486],[-121.9851,39.6459],[-121.9908,39.6365],[-121.9921,39.6292],[-121.9853,39.6281],[-121.9822,39.6229],[-121.9788,39.6199],[-121.975,39.6196],[-121.9081,39.637],[-121.9081,39.6668],[-121.8835,39.6676],[-121.8835,39.6698],[-121.8732,39.669],[-121.8667,39.6714],[-121.8667,39.675],[-121.8596,39.6749],[-121.8497,39.7002],[-121.8436,39.7024],[-121.8381,39.7029],[-121.828,39.707],[-121.8241,39.7036],[-121.817,39.6941],[-121.8061,39.6643],[-121.8026,39.671],[-121.7958,39.6779],[-121.7992,39.6943],[-121.8093,39.7089],[-121.7902,39.705],[-121.7781,39.6943],[-121.7769,39.6951],[-121.7782,39.6993],[-121.7763,39.7021],[-121.7582,39.7023],[-121.7341,39.7053],[-121.729,39.7072],[-121.7477,39.739],[-121.7595,39.7356],[-121.7734,39.7345],[-121.7861,39.7392],[-121.7995,39.7391],[-121.7999,39.7404],[-121.7785,39.7454],[-121.7847,39.7595],[-121.789,39.7565],[-121.7925,39.7514],[-121.7944,39.7511],[-121.7838,39.7656],[-121.7893,39.7643],[-121.7899,39.7626],[-121.7921,39.7615],[-121.7969,39.762],[-121.8021,39.7636],[-121.8151,39.7766],[-121.826,39.7753],[-121.828,39.7769],[-121.8346,39.7771],[-121.8401,39.7791],[-121.8438,39.777],[-121.8442,39.7953],[-121.8489,39.8003],[-121.8491,39.8113],[-121.8478,39.8162],[-121.8405,39.8207],[-121.8533,39.8335],[-121.859,39.831],[-121.8607,39.8314],[-121.8569,39.8409],[-121.8735,39.884],[-122.0449,39.8838],[-122.0411,39.8821],[-122.041,39.8795],[-122.0489,39.8697],[-122.0557,39.864],[-122.0565,39.8621],[-122.0554,39.8572],[-122.0583,39.8507],[-122.0669,39.8446],[-122.0694,39.8405]]]},"properties":{"GEOID":"0600790470","BASENAME":"Chico","NAME":"Chico CCD","COUNTY":"007","COUSUB":"90470"}},{"type":"Feature","geometry":{"type":"Polygon","coordinates":[[[-121.6511,39.3805],[-121.65,39.3699],[-121.6475,39.366],[-121.651,39.3636],[-121.6455,39.366],[-121.641,39.365],[-121.6351,39.3562],[-121.6284,39.3554],[-121.6254,39.3517],[-121.6282,39.3472],[-121.6283,39.3396],[-121.6332,39.3337],[-121.6311,39.3296],[-121.6276,39.3282],[-121.6224,39.3237],[-121.6206,39.3194],[-121.6263,39.3143],[-121.6271,39.3084],[-121.6324,39.303],[-121.6267,39.2966],[-121.6238,39.2956],[-121.6182,39.301],[-121.6207,39.3033],[-121.6171,39.3117],[-121.6122,39.3163],[-121.6112,39.3193],[-121.6042,39.318],[-121.6023,39.3114],[-121.5942,39.3078],[-121.5892,39.3085],[-121.5853,39.3116],[-121.5808,39.3099],[-121.5757,39.3108],[-121.5676,39.3079],[-121.5637,39.3049],[-121.562,39.3063],[-121.5487,39.3088],[-121.5471,39.3122],[-121.5405,39.3145],[-121.5364,39.3142],[-121.5305,39.3183],[-121.5209,39.3195],[-121.5159,39.3172],[-121.5044,39.318],[-121.4994,39.3164],[-121.4978,39.3142],[-121.4953,39.319],[-121.4895,39.3195],[-121.4867,39.3174],[-121.4841,39.318],[-121.4826,39.3201],[-121.4849,39.3215],[-121.4841,39.3261],[-121.478,39.3288],[-121.4746,39.3335],[-121.4686,39.3338],[-121.4636,39.3309],[-121.4597,39.3326],[-121.4576,39.3355],[-121.4524,39.3343],[-121.447,39.3306],[-121.4428,39.3316],[-121.4378,39.3365],[-121.4348,39.3375],[-121.4306,39.3352],[-121.4263,39.335],[-121.4157,39.3401],[-121.4072,39.3399],[-121.4058,39.3415],[-121.407,39.3444],[-121.4041,39.3448],[-121.4026,39.3464],[-121.4032,39.3496],[-121.3879,39.356],[-121.3823,39.363],[-121.3797,39.3625],[-121.3724,39.3649],[-121.373,39.3669],[-121.3714,39.3683],[-121.3726,39.3736],[-121.3672,39.3782],[-121.3629,39.3885],[-121.3619,39.3959],[-121.36,39.399],[-121.3605,39.4015],[-121.3635,39.4031],[-121.3631,39.4042],[-121.3587,39.4094],[-121.354,39.4116],[-121.3512,39.4159],[-121.342,39.4203],[-121.3415,39.4228],[-121.3352,39.4247],[-121.3341,39.4264],[-121.3353,39.4304],[-121.3406,39.4316],[-121.3453,39.4389],[-121.3437,39.4407],[-121.3439,39.4422],[-121.3471,39.4407],[-121.3478,39.4365],[-121.3514,39.438],[-121.3507,39.4434],[-121.3533,39.4441],[-121.3592,39.443],[-121.3656,39.447],[-121.3733,39.4468],[-121.3805,39.4449],[-121.3913,39.4478],[-121.401,39.4451],[-121.4038,39.446],[-121.4069,39.4428],[-121.4113,39.4422],[-121.4132,39.4446],[-121.4177,39.4451],[-121.4235,39.4424],[-121.4331,39.4432],[-121.4373,39.4469],[-121.4404,39.4562],[-121.4482,39.4584],[-121.4554,39.4675],[-121.459,39.4677],[-121.4604,39.4666],[-121.4659,39.4714],[-121.4758,39.4762],[-121.4797,39.4801],[-121.48,39.4787],[-121.4862,39.4748],[-121.4855,39.4736],[-121.4906,39.4727],[-121.5012,39.4811],[-121.5071,39.4836],[-121.5128,39.4763],[-121.5181,39.4736],[-121.5282,39.4711],[-121.5397,39.4629],[-121.5425,39.4642],[-121.5451,39.4603],[-121.5494,39.4602],[-121.5493,39.4657],[-121.5691,39.4655],[-121.5782,39.4638],[-121.5863,39.4639],[-121.6001,39.4603],[-121.603,39.4581],[-121.6052,39.4513],[-121.6131,39.4515],[-121.6144,39.4565],[-121.6233,39.4573],[-121.6364,39.455],[-121.6389,39.4522],[-121.6361,39.4491],[-121.6359,39.4343],[-121.6275,39.4296],[-121.6239,39.4257],[-121.6241,39.4215],[-121.6278,39.4164],[-121.6279,39.4134],[-121.6248,39.4099],[-121.618,39.4081],[-121.6171,39.406],[-121.6191,39.4023],[-121.6197,39.398],[-121.6237,39.3928],[-121.6233,39.3904],[-121.6268,39.3869],[-121.632,39.384],[-121.6356,39.3839],[-121.6379,39.3808],[-121.6511,39.3805]]]},"properties":{"GEOID":"0600792330","BASENAME":"Palermo","NAME":"Palermo CCD","COUNTY":"007","COUSUB":"92330"}},{"type":"Feature","geometry":{"type":"Polygon","coordinates":[[[-121.8735,39.884],[-121.8569,39.8409],[-121.8607,39.8314],[-121.859,39.831],[-121.8533,39.8335],[-121.8405,39.8207],[-121.8478,39.8162],[-121.8491,39.8113],[-121.8489,39.8003],[-121.8442,39.7953],[-121.8438,39.777],[-121.8401,39.7791],[-121.8346,39.7771],[-121.828,39.7769],[-121.826,39.7753],[-121.8151,39.7766],[-121.8021,39.7636],[-121.7969,39.762],[-121.7921,39.7615],[-121.7899,39.7626],[-121.7893,39.7643],[-121.7838,39.7656],[-121.7944,39.7511],[-121.7925,39.7514],[-121.789,39.7565],[-121.7847,39.7595],[-121.7785,39.7454],[-121.7999,39.7404],[-121.7995,39.7391],[-121.7861,39.7392],[-121.7734,39.7345],[-121.7595,39.7356],[-121.7477,39.739],[-121.729,39.7072],[-121.7341,39.7053],[-121.7582,39.7023],[-121.7763,39.7021],[-121.7782,39.6993],[-121.7769,39.6951],[-121.7781,39.6943],[-121.7581,39.6765],[-121.7382,39.6614],[-121.6924,39.6213],[-121.6808,39.6148],[-121.6645,39.6022],[-121.6236,39.5829],[-121.6214,39.5832],[-121.6193,39.5857],[-121.6206,39.5975],[-121.6169,39.6039],[-121.582,39.6351],[-121.5572,39.6511],[-121.5479,39.6543],[-121.5385,39.6555],[-121.5361,39.658],[-121.5351,39.6622],[-121.5312,39.6659],[-121.5531,39.6755],[-121.5538,39.682],[-121.559,39.6869],[-121.5573,39.6912],[-121.5628,39.693],[-121.5637,39.6955],[-121.5613,39.6994],[-121.5627,39.7043],[-121.556,39.7115],[-121.5559,39.7129],[-121.5611,39.7128],[-121.5596,39.7218],[-121.5622,39.7248],[-121.5623,39.729],[-121.5646,39.7312],[-121.5658,39.7368],[-121.5651,39.7401],[-121.5618,39.7414],[-121.5662,39.7455],[-121.5652,39.7476],[-121.5676,39.7496],[-121.5682,39.7544],[-121.5641,39.7566],[-121.5652,39.7585],[-121.5631,39.7616],[-121.5642,39.7653],[-121.5615,39.7689],[-121.5633,39.7718],[-121.5628,39.7772],[-121.5597,39.7804],[-121.5623,39.7833],[-121.5618,39.7856],[-121.5638,39.7885],[-121.5623,39.7927],[-121.5657,39.7926],[-121.5664,39.7969],[-121.5705,39.8011],[-121.571,39.8033],[-121.5693,39.8072],[-121.5717,39.8127],[-121.5701,39.8155],[-121.5716,39.8218],[-121.569,39.8238],[-121.567,39.8307],[-121.5641,39.8306],[-121.5614,39.8326],[-121.5592,39.8373],[-121.5593,39.841],[-121.5519,39.8422],[-121.545,39.8475],[-121.543,39.8507],[-121.5438,39.8521],[-121.5373,39.8543],[-121.5364,39.8564],[-121.5389,39.8587],[-121.5352,39.8594],[-121.5338,39.8614],[-121.5289,39.8622],[-121.5273,39.8642],[-121.5259,39.8633],[-121.5253,39.8596],[-121.5229,39.8616],[-121.521,39.8591],[-121.5191,39.86],[-121.5181,39.8584],[-121.5115,39.8605],[-121.5112,39.8663],[-121.5124,39.869],[-121.5084,39.8706],[-121.5103,39.8731],[-121.5085,39.8787],[-121.5009,39.8802],[-121.4986,39.8837],[-121.4998,39.8844],[-121.4987,39.8868],[-121.4967,39.8869],[-121.4976,39.8909],[-121.4956,39.8921],[-121.4942,39.8974],[-121.4916,39.8995],[-121.4895,39.9043],[-121.4858,39.9035],[-121.4841,39.9084],[-121.4805,39.908],[-121.474,39.9132],[-121.4673,39.9125],[-121.4651,39.9143],[-121.4606,39.9154],[-121.453,39.9139],[-121.4537,39.9177],[-121.449,39.9172],[-121.4424,39.9206],[-121.441,39.9195],[-121.4336,39.9203],[-121.4322,39.9181],[-121.4296,39.9193],[-121.4276,39.9148],[-121.411,39.9151],[-121.4111,39.9294],[-121.4206,39.9294],[-121.4198,39.9586],[-121.4103,39.9585],[-121.4103,39.9873],[-121.4198,39.9875],[-121.4195,40.0158],[-121.4096,40.0157],[-121.4096,40.0306],[-121.4003,40.0305],[-121.4004,40.0521],[-121.3823,40.0518],[-121.382,40.057],[-121.3771,40.0571],[-121.3768,40.0717],[-121.3671,40.0719],[-121.3668,40.0861],[-121.3768,40.086],[-121.3765,40.1086],[-121.3861,40.1086],[-121.3859,40.1159],[-121.4049,40.1155],[-121.4045,40.1516],[-121.4369,40.1519],[-121.4428,40.1487],[-121.4429,40.1296],[-121.4527,40.1297],[-121.4529,40.1221],[-121.481,40.1224],[-121.481,40.1151],[-121.4909,40.1153],[-121.4909,40.108],[-121.5106,40.108],[-121.5106,40.1005],[-121.5864,40.1005],[-121.5861,40.0933],[-121.5958,40.0935],[-121.5956,40.0577],[-121.5985,40.0576],[-121.5986,40.0551],[-121.6086,40.0551],[-121.6087,40.0467],[-121.6173,40.0471],[-121.6178,40.0394],[-121.6261,40.0395],[-121.6261,40.0256],[-121.6362,40.0258],[-121.6354,39.9968],[-121.6458,39.9971],[-121.646,39.9825],[-121.7032,39.9842],[-121.7041,39.9804],[-121.7075,39.9768],[-121.7149,39.9714],[-121.7212,39.9706],[-121.725,39.9676],[-121.7296,39.9561],[-121.7358,39.9535],[-121.7446,39.9418],[-121.7463,39.9385],[-121.747,39.931],[-121.7494,39.9257],[-121.7506,39.9068],[-121.7531,39.9043],[-121.7669,39.8974],[-121.7762,39.8889],[-121.8061,39.8882],[-121.804,39.8843],[-121.8735,39.884]]]},"properties":{"GEOID":"0600792380","BASENAME":"Paradise","NAME":"Paradise CCD","COUNTY":"007","COUSUB":"92380"}}]}