{"type":"FeatureCollection","features":[{"type":"Feature","geometry":{"type":"Polygon","coordinates":[[[-120.9955,38.2254],[-120.9388,38.0883],[-120.9187,38.0708],[-120.876,38.0289],[-120.8525,38.0093],[-120.8547,38.0235],[-120.8527,38.0283],[-120.8519,38.0352],[-120.8503,38.0375],[-120.8467,38.0395],[-120.8418,38.0398],[-120.8338,38.0462],[-120.8224,38.0472],[-120.8215,38.0494],[-120.82,38.0488],[-120.8094,38.0512],[-120.8038,38.0549],[-120.8021,38.0541],[-120.802,38.0521],[-120.7993,38.0491],[-120.7942,38.0504],[-120.786,38.049],[-120.7797,38.053],[-120.78,38.055],[-120.7742,38.0572],[-120.7512,38.0575],[-120.7504,38.0538],[-120.7354,38.0537],[-120.7356,38.0558],[-120.7288,38.0584],[-120.7209,38.0495],[-120.6955,38.0487],[-120.6913,38.0474],[-120.6904,38.0497],[-120.6862,38.0492],[-120.6856,38.0536],[-120.6766,38.0538],[-120.6698,38.049],[-120.6639,38.0403],[-120.6542,38.0324],[-120.6475,38.0378],[-120.647,38.0445],[-120.6498,38.0477],[-120.6516,38.0568],[-120.6544,38.0635],[-120.6644,38.0737],[-120.666,38.0787],[-120.6617,38.0831],[-120.6625,38.0906],[-120.6643,38.0924],[-120.6606,38.0928],[-120.6597,38.0963],[-120.6598,38.101],[-120.6622,38.1066],[-120.6564,38.1095],[-120.6583,38.1146],[-120.6585,38.1229],[-120.6615,38.1257],[-120.6641,38.1317],[-120.6617,38.1426],[-120.6589,38.1394],[-120.6545,38.1392],[-120.6527,38.1362],[-120.653,38.1346],[-120.6495,38.1327],[-120.6374,38.13],[-120.6294,38.1348],[-120.6247,38.1349],[-120.6246,38.1362],[-120.6193,38.1383],[-120.6175,38.1407],[-120.6167,38.1383],[-120.607,38.1369],[-120.6023,38.1386],[-120.6008,38.1427],[-120.5914,38.1443],[-120.5871,38.1476],[-120.5754,38.1465],[-120.5709,38.1498],[-120.571,38.1523],[-120.5583,38.1584],[-120.5558,38.1577],[-120.552,38.1603],[-120.5416,38.1599],[-120.5345,38.1654],[-120.5311,38.1656],[-120.5287,38.1673],[-120.5238,38.1726],[-120.5196,38.1723],[-120.5179,38.1756],[-120.5095,38.1759],[-120.509,38.1771],[-120.5024,38.1793],[-120.5018,38.1808],[-120.4981,38.1812],[-120.4968,38.1833],[-120.4935,38.1825],[-120.4903,38.1843],[-120.4861,38.1839],[-120.4722,38.1908],[-120.4699,38.1907],[-120.4608,38.1967],[-120.4558,38.1979],[-120.4494,38.2039],[-120.4463,38.2039],[-120.4462,38.2061],[-120.4368,38.2122],[-120.4245,38.214],[-120.4205,38.2178],[-120.4076,38.2249],[-120.4007,38.2317],[-120.4004,38.2371],[-120.3982,38.2393],[-120.3984,38.2439],[-120.3943,38.2523],[-120.3945,38.255],[-120.3903,38.2583],[-120.3855,38.2581],[-120.382,38.2561],[-120.3779,38.2567],[-120.3725,38.2592],[-120.3672,38.2593],[-120.3653,38.2616],[-120.3588,38.2613],[-120.3545,38.2637],[-120.3544,38.2654],[-120.3498,38.2668],[-120.3473,38.269],[-120.3448,38.2675],[-120.3418,38.2683],[-120.3382,38.2747],[-120.3387,38.276],[-120.3348,38.2773],[-120.3363,38.2827],[-120.3391,38.2851],[-120.3394,38.2898],[-120.3377,38.2915],[-120.3382,38.2947],[-120.3348,38.2969],[-120.3479,38.293],[-120.3536,38.2933],[-120.359,38.2925],[-120.3625,38.2906],[-120.375,38.2899],[-120.383,38.2919],[-120.3804,38.2943],[-120.3824,38.2944],[-120.3887,38.2993],[-120.389,38.3028],[-120.3909,38.302],[-120.3932,38.3029],[-120.3924,38.301],[-120.3947,38.301],[-120.3979,38.3028],[-120.3979,38.3049],[-120.4052,38.3061],[-120.4099,38.2986],[-120.4135,38.2963],[-120.4179,38.2963],[-120.426,38.2926],[-120.428,38.2892],[-120.4327,38.2866],[-120.4357,38.2873],[-120.4392,38.286],[-120.4462,38.2808],[-120.4527,38.2789],[-120.4533,38.2767],[-120.4616,38.2766],[-120.4654,38.2689],[-120.4695,38.2655],[-120.4864,38.2631],[-120.492,38.265],[-120.4914,38.2681],[-120.4943,38.2709],[-120.498,38.2678],[-120.5037,38.2664],[-120.5032,38.2679],[-120.507,38.2773],[-120.5068,38.279],[-120.5048,38.2803],[-120.5054,38.2825],[-120.5041,38.2847],[-120.5183,38.2842],[-120.524,38.2824],[-120.5286,38.2829],[-120.5412,38.281],[-120.5524,38.2836],[-120.5686,38.283],[-120.5709,38.2835],[-120.5712,38.2859],[-120.5735,38.2876],[-120.5824,38.2863],[-120.586,38.2882],[-120.5915,38.2886],[-120.5939,38.2906],[-120.5935,38.2968],[-120.5945,38.3004],[-120.5974,38.3022],[-120.5964,38.3069],[-120.5977,38.3085],[-120.6019,38.3079],[-120.6043,38.3133],[-120.6026,38.3123],[-120.6008,38.3149],[-120.5994,38.3138],[-120.5976,38.3148],[-120.5985,38.3158],[-120.5961,38.3169],[-120.6018,38.3169],[-120.5982,38.3176],[-120.5978,38.3217],[-120.5939,38.3256],[-120.5962,38.3245],[-120.6005,38.3261],[-120.6003,38.3295],[-120.6018,38.3313],[-120.6061,38.3296],[-120.6082,38.3317],[-120.6101,38.3316],[-120.6129,38.3377],[-120.6165,38.3371],[-120.6256,38.3309],[-120.6316,38.3299],[-120.6298,38.3333],[-120.6268,38.3341],[-120.628,38.3364],[-120.6261,38.3369],[-120.6308,38.3363],[-120.6272,38.3395],[-120.6293,38.3409],[-120.6292,38.3395],[-120.6305,38.3411],[-120.6323,38.3398],[-120.6385,38.3408],[-120.6466,38.3346],[-120.6516,38.334],[-120.6565,38.3309],[-120.6653,38.3317],[-120.6722,38.3291],[-120.6749,38.3307],[-120.6768,38.3282],[-120.6831,38.3251],[-120.6858,38.3203],[-120.6882,38.3189],[-120.7126,38.3152],[-120.7147,38.3134],[-120.7208,38.3125],[-120.7319,38.3077],[-120.7383,38.3078],[-120.7503,38.2978],[-120.7549,38.2883],[-120.7597,38.29],[-120.7673,38.2903],[-120.7776,38.2877],[-120.7905,38.2886],[-120.7985,38.2856],[-120.8034,38.2889],[-120.8054,38.2879],[-120.8077,38.2887],[-120.8105,38.2816],[-120.8129,38.2818],[-120.8149,38.2838],[-120.8177,38.2835],[-120.822,38.2755],[-120.8348,38.2677],[-120.8432,38.2644],[-120.8468,38.2643],[-120.849,38.2588],[-120.8538,38.2538],[-120.8557,38.2483],[-120.87,38.2444],[-120.8745,38.242],[-120.8754,38.2398],[-120.8801,38.2406],[-120.881,38.2332],[-120.8848,38.229],[-120.8888,38.2276],[-120.8933,38.2214],[-120.9025,38.2223],[-120.9093,38.2275],[-120.9149,38.23],[-120.9255,38.2276],[-120.9355,38.2209],[-120.9534,38.2263],[-120.9578,38.2229],[-120.9621,38.2217],[-120.9633,38.2199],[-120.9675,38.2205],[-120.9721,38.218],[-120.9811,38.2218],[-120.9857,38.2214],[-120.9923,38.2253],[-120.9955,38.2254]]]},"properties":{"GEOID":"0600992740","BASENAME":"San Andreas","NAME":"San Andreas CCD","COUNTY":"009","COUSUB":"92740"}},{"type":"Feature","geometry":{"type":"Polygon","coordinates":[[[-120.8548,38.0225],[-120.8527,38.0156],[-120.8525,38.0093],[-120.8338,37.9947],[-120.7566,37.9269],[-120.7445,37.9124],[-120.7287,37.8977],[-120.6533,37.8319],[-120.6487,37.8376],[-120.6432,37.8408],[-120.6433,37.8445],[-120.6379,37.8478],[-120.6379,37.8527],[-120.6338,37.8606],[-120.617,37.8701],[-120.6047,37.8732],[-120.6053,37.876],[-120.5964,37.8829],[-120.5967,37.8881],[-120.5902,37.8917],[-120.5875,37.8952],[-120.5824,37.8961],[-120.5713,37.8944],[-120.5641,37.9036],[-120.5622,37.9141],[-120.556,37.9162],[-120.5511,37.9217],[-120.5424,37.9204],[-120.5373,37.9275],[-120.5373,37.9301],[-120.54,37.9358],[-120.5367,37.94],[-120.5352,37.9444],[-120.5167,37.952],[-120.5134,37.9564],[-120.5167,37.9645],[-120.527,37.97],[-120.5283,37.9759],[-120.5399,37.9743],[-120.5431,37.9752],[-120.5429,37.9772],[-120.5401,37.9791],[-120.531,37.9809],[-120.5276,37.9829],[-120.5348,37.9912],[-120.5217,37.9952],[-120.5189,38.0022],[-120.5154,38.0043],[-120.5118,38.0033],[-120.5093,37.9999],[-120.5099,37.998],[-120.5138,37.9969],[-120.5135,37.9956],[-120.5092,37.9915],[-120.5045,37.9911],[-120.4994,37.9962],[-120.5003,38.0072],[-120.4928,38.0111],[-120.4889,38.0091],[-120.4828,38.0124],[-120.4738,38.0124],[-120.4669,38.0094],[-120.4637,38.0104],[-120.4632,38.0128],[-120.4684,38.0143],[-120.4695,38.0186],[-120.4621,38.0224],[-120.461,38.0278],[-120.4537,38.0384],[-120.4539,38.0413],[-120.4434,38.0517],[-120.4425,38.0587],[-120.4391,38.0608],[-120.4318,38.0598],[-120.4306,38.0697],[-120.4313,38.0728],[-120.4247,38.0729],[-120.4243,38.0757],[-120.4223,38.0781],[-120.419,38.0805],[-120.4153,38.0811],[-120.4146,38.084],[-120.4106,38.0879],[-120.4094,38.0952],[-120.4105,38.1012],[-120.4096,38.103],[-120.388,38.1152],[-120.3836,38.1265],[-120.3782,38.1308],[-120.3787,38.1348],[-120.3727,38.1367],[-120.3711,38.1402],[-120.3897,38.1475],[-120.3927,38.1513],[-120.3923,38.1547],[-120.3949,38.157],[-120.3926,38.1595],[-120.3915,38.1635],[-120.3941,38.1627],[-120.3951,38.1606],[-120.3966,38.1608],[-120.3971,38.1625],[-120.4001,38.1619],[-120.4009,38.1591],[-120.4023,38.1585],[-120.4017,38.1572],[-120.4037,38.1558],[-120.4019,38.1541],[-120.4042,38.1533],[-120.4041,38.1518],[-120.408,38.1496],[-120.4102,38.1493],[-120.4112,38.1504],[-120.4124,38.1488],[-120.4152,38.1504],[-120.4156,38.1471],[-120.4224,38.1492],[-120.4276,38.1473],[-120.4292,38.1493],[-120.4346,38.1496],[-120.4397,38.1522],[-120.4379,38.1537],[-120.4369,38.1572],[-120.4368,38.1629],[-120.4298,38.1678],[-120.4307,38.1701],[-120.4228,38.1719],[-120.4205,38.175],[-120.4149,38.179],[-120.4076,38.1806],[-120.4014,38.1841],[-120.4038,38.1872],[-120.4046,38.1849],[-120.4082,38.1866],[-120.4089,38.1854],[-120.4111,38.1857],[-120.4041,38.1947],[-120.4122,38.1929],[-120.4191,38.1983],[-120.4269,38.1981],[-120.4403,38.1926],[-120.4414,38.1941],[-120.4395,38.194],[-120.4387,38.1955],[-120.4445,38.1971],[-120.4508,38.2027],[-120.4558,38.1979],[-120.4608,38.1967],[-120.4664,38.1924],[-120.4722,38.1908],[-120.4844,38.1844],[-120.4903,38.1843],[-120.4935,38.1825],[-120.4968,38.1833],[-120.4981,38.1812],[-120.5018,38.1808],[-120.5024,38.1793],[-120.509,38.1771],[-120.5095,38.1759],[-120.5179,38.1756],[-120.5196,38.1723],[-120.5238,38.1726],[-120.5287,38.1673],[-120.5311,38.1656],[-120.5345,38.1654],[-120.5416,38.1599],[-120.552,38.1603],[-120.5558,38.1577],[-120.5583,38.1584],[-120.571,38.1523],[-120.5709,38.1498],[-120.5754,38.1465],[-120.5871,38.1476],[-120.5914,38.1443],[-120.6008,38.1427],[-120.6023,38.1386],[-120.607,38.1369],[-120.6167,38.1383],[-120.6175,38.1407],[-120.6193,38.1383],[-120.6246,38.1362],[-120.6247,38.1349],[-120.6294,38.1348],[-120.6374,38.13],[-120.6495,38.1327],[-120.653,38.1346],[-120.6527,38.1362],[-120.6545,38.1392],[-120.6589,38.1394],[-120.6617,38.1426],[-120.6641,38.1317],[-120.6615,38.1257],[-120.6585,38.1229],[-120.6583,38.1146],[-120.6564,38.1095],[-120.6622,38.1066],[-120.6598,38.101],[-120.6597,38.0963],[-120.6606,38.0928],[-120.6643,38.0924],[-120.6625,38.0906],[-120.6617,38.0831],[-120.666,38.0787],[-120.6644,38.0737],[-120.6544,38.0635],[-120.6516,38.0568],[-120.6498,38.0477],[-120.647,38.0445],[-120.6475,38.0378],[-120.6544,38.0323],[-120.6639,38.0403],[-120.6698,38.049],[-120.6766,38.0538],[-120.6856,38.0536],[-120.6862,38.0492],[-120.6904,38.0497],[-120.6913,38.0474],[-120.6955,38.0487],[-120.7209,38.0495],[-120.7288,38.0584],[-120.7356,38.0558],[-120.7354,38.0537],[-120.7504,38.0538],[-120.7512,38.0575],[-120.7734,38.0572],[-120.78,38.055],[-120.7797,38.053],[-120.7858,38.049],[-120.7942,38.0504],[-120.7993,38.0491],[-120.802,38.0521],[-120.8021,38.0541],[-120.8038,38.0549],[-120.8094,38.0512],[-120.82,38.0488],[-120.8215,38.0494],[-120.8224,38.0472],[-120.8339,38.0462],[-120.8418,38.0398],[-120.8467,38.0395],[-120.8504,38.0374],[-120.8519,38.0352],[-120.8548,38.0225]]]},"properties":{"GEOID":"0600990060","BASENAME":"Angels City","NAME":"Angels City CCD","COUNTY":"009","COUSUB":"90060"}},{"type":"Feature","geometry":{"type":"Polygon","coordinates":[[[-120.6318,38.346],[-120.6306,38.3437],[-120.6309,38.3411],[-120.627,38.3391],[-120.63,38.338],[-120.6307,38.3362],[-120.6261,38.3368],[-120.6279,38.3364],[-120.6268,38.3341],[-120.6298,38.3333],[-120.6316,38.3299],[-120.6256,38.3309],[-120.6165,38.3371],[-120.6129,38.3377],[-120.6101,38.3316],[-120.6082,38.3317],[-120.6061,38.3296],[-120.6018,38.3313],[-120.6003,38.3295],[-120.6005,38.3261],[-120.5962,38.3245],[-120.5939,38.3256],[-120.5978,38.3217],[-120.5982,38.3176],[-120.6018,38.3169],[-120.5961,38.3169],[-120.5985,38.3158],[-120.5976,38.3148],[-120.5994,38.3138],[-120.6008,38.3149],[-120.6026,38.3123],[-120.6043,38.3133],[-120.6019,38.3079],[-120.5977,38.3085],[-120.5964,38.3069],[-120.5974,38.3022],[-120.5945,38.3004],[-120.5935,38.2968],[-120.5939,38.2906],[-120.5916,38.2886],[-120.586,38.2882],[-120.5824,38.2863],[-120.5735,38.2876],[-120.5712,38.2859],[-120.5709,38.2835],[-120.5686,38.283],[-120.5524,38.2836],[-120.5412,38.281],[-120.5286,38.2829],[-120.524,38.2824],[-120.5183,38.2842],[-120.5041,38.2847],[-120.5054,38.2825],[-120.5048,38.2803],[-120.5068,38.279],[-120.507,38.2773],[-120.5032,38.2679],[-120.5037,38.2664],[-120.498,38.2678],[-120.4943,38.2709],[-120.4914,38.2681],[-120.492,38.265],[-120.4864,38.2631],[-120.4695,38.2655],[-120.4654,38.2689],[-120.4616,38.2766],[-120.4533,38.2767],[-120.4527,38.2789],[-120.4462,38.2808],[-120.4392,38.286],[-120.4357,38.2873],[-120.4327,38.2866],[-120.428,38.2892],[-120.426,38.2926],[-120.4179,38.2963],[-120.4135,38.2963],[-120.4099,38.2986],[-120.4052,38.3061],[-120.3979,38.3049],[-120.3979,38.3028],[-120.3947,38.301],[-120.3924,38.301],[-120.3932,38.3029],[-120.3909,38.302],[-120.389,38.3028],[-120.3887,38.2993],[-120.3824,38.2944],[-120.3804,38.2943],[-120.383,38.2919],[-120.375,38.2899],[-120.3625,38.2906],[-120.359,38.2925],[-120.3536,38.2933],[-120.3479,38.293],[-120.3349,38.297],[-120.3382,38.2947],[-120.3377,38.2915],[-120.3394,38.2898],[-120.3391,38.2851],[-120.3363,38.2827],[-120.3348,38.2773],[-120.3387,38.276],[-120.3382,38.2747],[-120.3418,38.2683],[-120.3448,38.2675],[-120.3473,38.269],[-120.3498,38.2668],[-120.3544,38.2654],[-120.3545,38.2637],[-120.3588,38.2613],[-120.3653,38.2616],[-120.3672,38.2593],[-120.3725,38.2592],[-120.3779,38.2567],[-120.382,38.2561],[-120.3855,38.2581],[-120.3903,38.2583],[-120.3945,38.255],[-120.3943,38.2523],[-120.3984,38.2439],[-120.3979,38.2402],[-120.4004,38.2371],[-120.4007,38.2317],[-120.4019,38.2301],[-120.4076,38.2249],[-120.4205,38.2178],[-120.4245,38.214],[-120.4361,38.2126],[-120.4462,38.2061],[-120.4459,38.2041],[-120.4508,38.2027],[-120.4445,38.1971],[-120.4387,38.1955],[-120.4395,38.194],[-120.4414,38.1941],[-120.4403,38.1926],[-120.4269,38.1981],[-120.4191,38.1983],[-120.4122,38.1929],[-120.4041,38.1947],[-120.4111,38.1857],[-120.4089,38.1854],[-120.4082,38.1866],[-120.4046,38.1849],[-120.4038,38.1872],[-120.4014,38.1841],[-120.4076,38.1806],[-120.4149,38.179],[-120.4205,38.175],[-120.4228,38.1719],[-120.4307,38.1701],[-120.4298,38.1678],[-120.4368,38.1629],[-120.4369,38.1572],[-120.4379,38.1537],[-120.4397,38.1522],[-120.4346,38.1496],[-120.4292,38.1493],[-120.4276,38.1473],[-120.4224,38.1492],[-120.4156,38.1471],[-120.4152,38.1504],[-120.4124,38.1488],[-120.4112,38.1504],[-120.4102,38.1493],[-120.408,38.1496],[-120.4041,38.1518],[-120.4042,38.1533],[-120.4019,38.1541],[-120.4037,38.1558],[-120.4017,38.1572],[-120.4023,38.1585],[-120.4009,38.1591],[-120.4001,38.1619],[-120.3971,38.1625],[-120.3966,38.1608],[-120.3951,38.1606],[-120.3941,38.1627],[-120.3915,38.1635],[-120.3926,38.1595],[-120.3949,38.157],[-120.3923,38.1547],[-120.3927,38.1513],[-120.3879,38.1459],[-120.3762,38.1426],[-120.3688,38.1522],[-120.3575,38.1539],[-120.3579,38.1581],[-120.3603,38.1604],[-120.3536,38.1638],[-120.3505,38.1698],[-120.3443,38.1702],[-120.3405,38.1719],[-120.3405,38.1776],[-120.3372,38.1781],[-120.3395,38.1839],[-120.3355,38.185],[-120.3356,38.1879],[-120.332,38.1886],[-120.3303,38.1952],[-120.3264,38.1959],[-120.3251,38.1994],[-120.3219,38.2013],[-120.3173,38.2073],[-120.3156,38.2127],[-120.3102,38.2184],[-120.3073,38.2247],[-120.3015,38.2297],[-120.2912,38.234],[-120.2898,38.2459],[-120.2868,38.2475],[-120.2851,38.251],[-120.2822,38.2521],[-120.2759,38.2588],[-120.2724,38.2598],[-120.274,38.2644],[-120.2708,38.2707],[-120.2664,38.2722],[-120.262,38.2764],[-120.2561,38.2861],[-120.2519,38.287],[-120.247,38.2902],[-120.2367,38.2987],[-120.2373,38.3016],[-120.2343,38.304],[-120.2342,38.3061],[-120.2316,38.3075],[-120.2285,38.3147],[-120.2257,38.3154],[-120.223,38.3196],[-120.214,38.3229],[-120.2052,38.3296],[-120.1999,38.3392],[-120.1962,38.3429],[-120.1937,38.349],[-120.1909,38.3501],[-120.1895,38.3568],[-120.1848,38.3588],[-120.1822,38.3661],[-120.1766,38.3711],[-120.1765,38.3738],[-120.1741,38.3735],[-120.1736,38.3755],[-120.1705,38.3759],[-120.1668,38.3798],[-120.1612,38.3809],[-120.158,38.3858],[-120.149,38.3889],[-120.1419,38.3938],[-120.137,38.3933],[-120.1349,38.3965],[-120.1282,38.3958],[-120.1156,38.4012],[-120.1082,38.4021],[-120.1052,38.4009],[-120.099,38.4015],[-120.0955,38.4033],[-120.0879,38.4034],[-120.0808,38.4101],[-120.0757,38.4121],[-120.0735,38.4117],[-120.0736,38.4136],[-120.0703,38.4133],[-120.0679,38.4155],[-120.0643,38.4148],[-120.0623,38.4167],[-120.0571,38.4171],[-120.0554,38.4188],[-120.049,38.4194],[-120.0462,38.4221],[-120.0428,38.423],[-120.0406,38.4259],[-120.0364,38.4246],[-120.0299,38.4247],[-120.02,38.4335],[-120.0537,38.4556],[-120.0564,38.4534],[-120.0641,38.4509],[-120.0667,38.4481],[-120.0726,38.4471],[-120.0725,38.5099],[-120.08,38.5074],[-120.0828,38.5083],[-120.0894,38.5064],[-120.0922,38.5075],[-120.1003,38.504],[-120.1034,38.5054],[-120.1083,38.5037],[-120.1115,38.4985],[-120.1234,38.496],[-120.1394,38.4983],[-120.1425,38.498],[-120.1467,38.4953],[-120.1643,38.4942],[-120.1692,38.4963],[-120.1806,38.4956],[-120.2057,38.501],[-120.2094,38.5008],[-120.2174,38.4977],[-120.226,38.4907],[-120.2355,38.4899],[-120.2409,38.4854],[-120.2546,38.4877],[-120.2599,38.4867],[-120.2691,38.4778],[-120.2833,38.4754],[-120.2886,38.4771],[-120.2948,38.4772],[-120.3046,38.4721],[-120.3191,38.471],[-120.331,38.4652],[-120.3381,38.4674],[-120.3536,38.4655],[-120.3649,38.4666],[-120.3807,38.461],[-120.3845,38.462],[-120.3864,38.466],[-120.3881,38.4667],[-120.4003,38.4668],[-120.4074,38.4691],[-120.4124,38.4687],[-120.4147,38.4731],[-120.4232,38.4733],[-120.4316,38.4672],[-120.4428,38.4625],[-120.4478,38.4561],[-120.4485,38.4525],[-120.4522,38.4501],[-120.4565,38.4495],[-120.4614,38.4462],[-120.4677,38.4488],[-120.4702,38.4475],[-120.4748,38.4483],[-120.486,38.4456],[-120.4938,38.447],[-120.4954,38.4496],[-120.4998,38.4476],[-120.4981,38.4444],[-120.5051,38.4442],[-120.5049,38.4391],[-120.5084,38.4371],[-120.5153,38.4293],[-120.5201,38.4272],[-120.5232,38.4227],[-120.5279,38.4224],[-120.5301,38.4189],[-120.5376,38.4185],[-120.5408,38.4231],[-120.5503,38.4203],[-120.5523,38.4183],[-120.56,38.4151],[-120.5716,38.4139],[-120.5723,38.4125],[-120.5706,38.4074],[-120.5743,38.4018],[-120.5814,38.4016],[-120.5901,38.3993],[-120.6014,38.3997],[-120.6081,38.398],[-120.6105,38.3916],[-120.6151,38.3891],[-120.6141,38.3825],[-120.6171,38.3782],[-120.6146,38.3728],[-120.6106,38.372],[-120.6101,38.3707],[-120.612,38.3687],[-120.6183,38.3669],[-120.6174,38.3626],[-120.6188,38.3587],[-120.6279,38.3558],[-120.6292,38.3504],[-120.6318,38.346]]]},"properties":{"GEOID":"0600990105","BASENAME":"Arnold-West Point","NAME":"Arnold-West Point CCD","COUNTY":"009","COUSUB":"90105"}}]}