{"type":"FeatureCollection","features":[{"type":"Feature","geometry":{"type":"Polygon","coordinates":[[[-122.7851,39.383],[-122.7818,39.3795],[-122.7789,39.3793],[-122.7743,39.3747],[-122.7687,39.3737],[-122.7642,39.3774],[-122.7599,39.3781],[-122.7548,39.3749],[-122.7522,39.3706],[-122.7435,39.3681],[-122.7422,39.3653],[-122.7415,39.3601],[-122.7424,39.3575],[-122.7458,39.3562],[-122.7524,39.346],[-122.7612,39.3446],[-122.7653,39.3427],[-122.7658,39.3391],[-122.7645,39.3364],[-122.7682,39.3311],[-122.7683,39.3255],[-122.7725,39.324],[-122.7727,39.319],[-122.7755,39.3152],[-122.775,39.3118],[-122.7705,39.31],[-122.7678,39.3043],[-122.7662,39.3035],[-122.7661,39.301],[-122.7582,39.2939],[-122.7569,39.2869],[-122.7581,39.2854],[-122.7482,39.2791],[-122.7389,39.275],[-122.7367,39.2726],[-122.7328,39.2719],[-122.7286,39.2733],[-122.7232,39.2674],[-122.7232,39.2653],[-122.7171,39.2635],[-122.7162,39.2617],[-122.717,39.2605],[-122.7134,39.2595],[-122.7125,39.257],[-122.6914,39.2474],[-122.6869,39.2411],[-122.6809,39.2387],[-122.6817,39.2346],[-122.6761,39.2308],[-122.6765,39.229],[-122.6796,39.2268],[-122.6797,39.2245],[-122.6735,39.2257],[-122.6712,39.2242],[-122.6703,39.2214],[-122.6677,39.2208],[-122.6654,39.2175],[-122.6579,39.2149],[-122.6542,39.2153],[-122.6501,39.2139],[-122.6472,39.2162],[-122.6402,39.2186],[-122.6349,39.2232],[-122.6318,39.2223],[-122.6225,39.2232],[-122.6126,39.219],[-122.6103,39.2162],[-122.6017,39.2142],[-122.5935,39.2143],[-122.5915,39.2125],[-122.5894,39.2136],[-122.582,39.212],[-122.5744,39.2068],[-122.5734,39.2043],[-122.5702,39.2039],[-122.5533,39.2067],[-122.5414,39.2069],[-122.535,39.2116],[-122.5339,39.2101],[-122.5288,39.2114],[-122.5272,39.2095],[-122.5218,39.2104],[-122.5153,39.2092],[-122.5159,39.2036],[-122.5145,39.1972],[-122.512,39.1956],[-122.5084,39.1903],[-122.5008,39.1897],[-122.5003,39.1911],[-122.4985,39.1911],[-122.4936,39.1835],[-122.4943,39.1791],[-122.4918,39.1753],[-122.4889,39.1763],[-122.4773,39.1739],[-122.4761,39.1726],[-122.4754,39.1701],[-122.477,39.167],[-122.4826,39.1629],[-122.4785,39.1557],[-122.4796,39.1551],[-122.4782,39.1548],[-122.481,39.1528],[-122.4777,39.1514],[-122.477,39.1471],[-122.4745,39.1447],[-122.4786,39.1408],[-122.4783,39.1397],[-122.481,39.1383],[-122.4802,39.1396],[-122.4866,39.1417],[-122.4929,39.1395],[-122.4968,39.1405],[-122.4948,39.1359],[-122.4972,39.1339],[-122.4978,39.1267],[-122.5002,39.1246],[-122.5009,39.1211],[-122.4972,39.1163],[-122.4942,39.1151],[-122.4965,39.1078],[-122.4889,39.0983],[-122.4874,39.0918],[-122.4884,39.0898],[-122.486,39.0856],[-122.4862,39.0825],[-122.4905,39.0773],[-122.4905,39.0743],[-122.4887,39.0718],[-122.4887,39.0692],[-122.4862,39.0694],[-122.4839,39.067],[-122.4876,39.0648],[-122.4908,39.0648],[-122.4895,39.0614],[-122.4924,39.059],[-122.492,39.0535],[-122.4815,39.0527],[-122.4658,39.0484],[-122.4682,39.0448],[-122.467,39.0426],[-122.4613,39.0387],[-122.457,39.0384],[-122.4545,39.036],[-122.4549,39.0344],[-122.4502,39.0327],[-122.4373,39.0214],[-122.4343,39.0225],[-122.4243,39.0204],[-122.4134,39.0202],[-122.41,39.0175],[-122.4112,39.0155],[-122.4091,39.0121],[-122.4109,39.0103],[-122.4086,39.007],[-122.4119,39.0051],[-122.4109,39.0024],[-122.4119,38.9981],[-122.4157,38.9972],[-122.4141,38.9954],[-122.4148,38.9935],[-122.4193,38.9893],[-122.4186,38.9828],[-122.4167,38.978],[-122.407,38.9714],[-122.4067,38.9694],[-122.4093,38.9682],[-122.4081,38.9659],[-122.4095,38.9639],[-122.4019,38.9558],[-122.3972,38.9565],[-122.394,38.9556],[-122.373,38.9398],[-122.3676,38.939],[-122.3636,38.9356],[-122.3501,38.9288],[-122.3414,38.9271],[-122.3402,38.9242],[-122.2615,38.9241],[-122.2622,38.9263],[-122.2569,38.9306],[-122.2538,38.9296],[-122.2508,38.9311],[-122.2485,38.9457],[-122.2439,38.9505],[-122.2449,38.9603],[-122.2481,38.9653],[-122.2478,38.9673],[-122.2431,38.9726],[-122.2373,38.9835],[-122.2296,38.9911],[-122.2202,38.9965],[-122.1949,39.005],[-122.1915,39.0079],[-122.1749,39.0075],[-122.172,39.0093],[-122.1698,39.0141],[-122.1641,39.0139],[-122.1543,39.0184],[-122.1432,39.0182],[-122.1426,39.0571],[-122.1705,39.0573],[-122.1704,39.0719],[-122.1891,39.072],[-122.1896,39.1014],[-122.2083,39.1015],[-122.2082,39.1087],[-122.2173,39.1088],[-122.2173,39.1197],[-122.303,39.1206],[-122.3104,39.1299],[-122.3034,39.1343],[-122.3,39.1344],[-122.2998,39.1419],[-122.288,39.1489],[-122.2813,39.149],[-122.2815,39.1672],[-122.2486,39.1675],[-122.2484,39.1749],[-122.2438,39.1749],[-122.2438,39.19],[-122.2459,39.1939],[-122.2467,39.2621],[-122.243,39.2642],[-122.2366,39.2739],[-122.2363,39.2793],[-122.2364,39.2826],[-122.2437,39.2886],[-122.2446,39.2909],[-122.2401,39.2944],[-122.2368,39.3044],[-122.229,39.3118],[-122.229,39.3218],[-122.2313,39.3244],[-122.2299,39.3276],[-122.2306,39.3301],[-122.237,39.3344],[-122.2424,39.3361],[-122.2464,39.3403],[-122.2477,39.3441],[-122.2484,39.3583],[-122.25,39.3604],[-122.2555,39.363],[-122.2565,39.365],[-122.2546,39.3672],[-122.255,39.375],[-122.2575,39.3809],[-122.257,39.3848],[-122.4681,39.3838],[-122.5945,39.3855],[-122.6744,39.3847],[-122.7,39.383],[-122.7851,39.383]]]},"properties":{"GEOID":"0601193610","BASENAME":"West Colusa","NAME":"West Colusa CCD","COUNTY":"011","COUSUB":"93610"}},{"type":"Feature","geometry":{"type":"Polygon","coordinates":[[[-122.3104,39.1299],[-122.303,39.1206],[-122.2173,39.1197],[-122.2173,39.1088],[-122.2082,39.1087],[-122.2083,39.1015],[-122.1896,39.1014],[-122.1891,39.072],[-122.1704,39.0719],[-122.1705,39.0573],[-122.1426,39.0571],[-122.1432,39.0182],[-122.1543,39.0184],[-122.1641,39.0139],[-122.1698,39.0141],[-122.172,39.0093],[-122.1749,39.0075],[-122.1915,39.0079],[-122.1949,39.005],[-122.2202,38.9965],[-122.2296,38.9911],[-122.2373,38.9835],[-122.2431,38.9726],[-122.2478,38.9673],[-122.2481,38.9653],[-122.2449,38.9603],[-122.2439,38.9505],[-122.2485,38.9457],[-122.2508,38.9311],[-122.2538,38.9296],[-122.2569,38.9306],[-122.2622,38.9263],[-122.2615,38.9241],[-122.1508,38.9257],[-121.9151,38.9253],[-121.9081,38.9384],[-121.9075,38.9493],[-121.9212,38.965],[-121.9479,38.9839],[-121.9812,39.0129],[-121.987,39.0175],[-121.9912,39.0191],[-121.9933,39.0251],[-121.9928,39.0322],[-121.9986,39.0366],[-121.9989,39.0422],[-122.0036,39.0481],[-122.004,39.056],[-122.0067,39.0639],[-122.0153,39.072],[-122.0172,39.0801],[-122.0158,39.0871],[-122.0167,39.0961],[-122.0229,39.0966],[-122.0227,39.1003],[-122.0413,39.1001],[-122.0408,39.1446],[-122.0598,39.1449],[-122.0586,39.1877],[-122.0607,39.1894],[-122.0629,39.1956],[-122.0935,39.1957],[-122.1157,39.1837],[-122.1161,39.2179],[-122.1532,39.2183],[-122.1537,39.2764],[-122.0862,39.2755],[-122.0791,39.2809],[-122.0789,39.2863],[-122.0752,39.2873],[-122.0758,39.3115],[-122.0791,39.3144],[-122.0808,39.3213],[-122.0836,39.323],[-122.0847,39.3373],[-122.0826,39.3564],[-122.0829,39.3781],[-122.0802,39.4142],[-122.1362,39.4145],[-122.136,39.3855],[-122.257,39.3848],[-122.2575,39.3809],[-122.255,39.375],[-122.2546,39.3672],[-122.2565,39.365],[-122.2555,39.363],[-122.25,39.3604],[-122.2484,39.3583],[-122.2477,39.3441],[-122.2464,39.3403],[-122.2424,39.3361],[-122.237,39.3344],[-122.2306,39.3301],[-122.2299,39.3276],[-122.2313,39.3244],[-122.229,39.3218],[-122.229,39.3118],[-122.2368,39.3044],[-122.2401,39.2944],[-122.2446,39.2909],[-122.2437,39.2886],[-122.2364,39.2826],[-122.2363,39.2793],[-122.2366,39.2739],[-122.243,39.2642],[-122.2467,39.2621],[-122.2459,39.1939],[-122.2438,39.19],[-122.2438,39.1749],[-122.2484,39.1749],[-122.2486,39.1675],[-122.2815,39.1672],[-122.2813,39.149],[-122.288,39.1489],[-122.2998,39.1419],[-122.3,39.1344],[-122.3034,39.1343],[-122.3104,39.1299]]]},"properties":{"GEOID":"0601190430","BASENAME":"Central Colusa","NAME":"Central Colusa CCD","COUNTY":"011","COUSUB":"90430"}},{"type":"Feature","geometry":{"type":"Polygon","coordinates":[[[-122.1537,39.2764],[-122.1532,39.2183],[-122.1161,39.2179],[-122.1157,39.1837],[-122.0935,39.1957],[-122.0629,39.1956],[-122.0607,39.1894],[-122.0586,39.1877],[-122.0598,39.1449],[-122.0408,39.1446],[-122.0413,39.1001],[-122.0227,39.1003],[-122.0229,39.0966],[-122.0166,39.096],[-122.0158,39.0871],[-122.0172,39.0801],[-122.0153,39.072],[-122.0067,39.0639],[-122.004,39.056],[-122.0036,39.0481],[-121.9989,39.0422],[-121.9986,39.0366],[-121.9928,39.0322],[-121.9933,39.0251],[-121.9912,39.0191],[-121.987,39.0175],[-121.9812,39.0129],[-121.9479,38.9839],[-121.9212,38.965],[-121.9117,38.9529],[-121.9077,38.9495],[-121.9075,38.9401],[-121.9151,38.9253],[-121.8355,38.9245],[-121.8379,38.927],[-121.8351,38.9328],[-121.8302,38.9388],[-121.8366,38.9438],[-121.8366,38.9491],[-121.8406,38.9548],[-121.832,38.9605],[-121.8346,38.9652],[-121.8343,38.9687],[-121.83,38.9722],[-121.8214,38.9747],[-121.8206,38.9863],[-121.8191,38.9886],[-121.8021,38.9898],[-121.7963,38.9941],[-121.7954,38.9964],[-121.8062,39.0037],[-121.8131,39.0059],[-121.8192,39.0061],[-121.8265,39.0112],[-121.826,39.0141],[-121.821,39.0203],[-121.8229,39.0294],[-121.8244,39.0318],[-121.8307,39.0327],[-121.8296,39.038],[-121.8356,39.042],[-121.8396,39.0469],[-121.8409,39.0517],[-121.8385,39.0641],[-121.8494,39.0714],[-121.8615,39.0679],[-121.8708,39.0671],[-121.8761,39.0701],[-121.8891,39.0724],[-121.8941,39.078],[-121.8944,39.08],[-121.8897,39.0812],[-121.8902,39.0829],[-121.8952,39.0868],[-121.8935,39.0918],[-121.8938,39.0948],[-121.8944,39.0961],[-121.8985,39.0967],[-121.9,39.1002],[-121.9058,39.1031],[-121.9035,39.1081],[-121.9055,39.1148],[-121.9095,39.113],[-121.9127,39.1135],[-121.913,39.1153],[-121.91,39.1193],[-121.9111,39.1231],[-121.9137,39.1238],[-121.9214,39.1222],[-121.925,39.1282],[-121.9339,39.13],[-121.938,39.133],[-121.9395,39.1413],[-121.9378,39.144],[-121.9205,39.1413],[-121.9184,39.1433],[-121.9173,39.149],[-121.9201,39.153],[-121.9342,39.161],[-121.9389,39.1734],[-121.9457,39.1812],[-121.9407,39.1871],[-121.9345,39.1899],[-121.9365,39.1947],[-121.9283,39.1987],[-121.9333,39.2093],[-121.9324,39.2116],[-121.9379,39.2182],[-121.9361,39.221],[-121.9414,39.2217],[-121.94,39.2287],[-121.9483,39.2408],[-121.9468,39.2498],[-121.9423,39.2561],[-121.9413,39.2624],[-121.9369,39.2679],[-121.929,39.2711],[-121.9276,39.2757],[-121.921,39.2811],[-121.9221,39.2883],[-121.9189,39.2894],[-121.9187,39.2923],[-121.9164,39.2924],[-121.9169,39.2957],[-121.9134,39.2994],[-121.9077,39.3023],[-121.9087,39.308],[-121.9072,39.3152],[-121.9058,39.3166],[-121.9046,39.3259],[-121.9002,39.3354],[-121.8959,39.3377],[-121.8944,39.3411],[-121.8975,39.3443],[-121.8997,39.354],[-121.8991,39.3573],[-121.8956,39.3592],[-121.8935,39.3585],[-121.8935,39.3629],[-121.8911,39.3645],[-121.8917,39.3661],[-121.8877,39.372],[-121.8839,39.3739],[-121.8889,39.3831],[-122.0102,39.3839],[-122.0078,39.3859],[-122.0075,39.3921],[-122.0037,39.3978],[-122.0044,39.4039],[-122.0065,39.4049],[-122.0089,39.4136],[-122.0802,39.4142],[-122.0829,39.3781],[-122.0826,39.3564],[-122.0847,39.3373],[-122.0836,39.323],[-122.0808,39.3213],[-122.0791,39.3144],[-122.0758,39.3115],[-122.0752,39.2873],[-122.0789,39.2863],[-122.0791,39.2809],[-122.0862,39.2755],[-122.1537,39.2764]]]},"properties":{"GEOID":"0601190770","BASENAME":"East Colusa","NAME":"East Colusa CCD","COUNTY":"011","COUSUB":"90770"}}]}