{"type":"FeatureCollection","features":[{"type":"Feature","geometry":{"type":"Polygon","coordinates":[[[-122.2786,37.92],[-122.2794,37.9196],[-122.2777,37.9178],[-122.2763,37.918],[-122.2755,37.9162],[-122.2708,37.9136],[-122.2725,37.9119],[-122.2664,37.9075],[-122.268,37.9065],[-122.2676,37.9042],[-122.2639,37.9037],[-122.2608,37.8997],[-122.2569,37.8998],[-122.2559,37.896],[-122.2537,37.8962],[-122.253,37.8939],[-122.2502,37.8934],[-122.2491,37.8911],[-122.2463,37.893],[-122.2445,37.8923],[-122.2422,37.8933],[-122.2442,37.8966],[-122.2503,37.9006],[-122.2442,37.9049],[-122.2357,37.8993],[-122.2299,37.8982],[-122.2272,37.8998],[-122.2229,37.8983],[-122.2227,37.8993],[-122.2201,37.8993],[-122.2193,37.8977],[-122.2169,37.9002],[-122.2107,37.8993],[-122.2071,37.9019],[-122.2111,37.9064],[-122.211,37.908],[-122.2043,37.909],[-122.2006,37.9143],[-122.2001,37.9175],[-122.1962,37.922],[-122.1847,37.9192],[-122.1712,37.9183],[-122.1652,37.9204],[-122.1627,37.9258],[-122.1521,37.9286],[-122.1492,37.9308],[-122.1482,37.9337],[-122.1421,37.935],[-122.1408,37.9373],[-122.1375,37.938],[-122.1383,37.9392],[-122.1342,37.9461],[-122.1355,37.9464],[-122.1349,37.9478],[-122.1364,37.9496],[-122.135,37.9535],[-122.1353,37.9562],[-122.1382,37.9583],[-122.1352,37.9575],[-122.1333,37.9583],[-122.1322,37.9625],[-122.1262,37.9668],[-122.1261,37.9726],[-122.1275,37.9738],[-122.1248,37.9802],[-122.1258,37.9837],[-122.13,37.9907],[-122.1364,37.9896],[-122.1405,37.9904],[-122.1479,38.0005],[-122.1563,38.0052],[-122.1658,38.0067],[-122.179,38.0156],[-122.1887,38.0162],[-122.2051,38.0089],[-122.214,38.0071],[-122.2247,38.0083],[-122.2421,38.015],[-122.2537,38.0142],[-122.2481,38.0087],[-122.2391,38.0072],[-122.2377,38.0054],[-122.2448,38.0019],[-122.2415,38],[-122.2455,37.9958],[-122.2473,37.9964],[-122.2474,37.9947],[-122.2488,37.9954],[-122.25,37.9921],[-122.236,37.9834],[-122.2272,37.985],[-122.2265,37.9862],[-122.2218,37.9859],[-122.205,37.9647],[-122.21,37.9687],[-122.2149,37.9704],[-122.2214,37.9705],[-122.2237,37.9728],[-122.2312,37.9751],[-122.2374,37.9721],[-122.2432,37.9711],[-122.2431,37.9679],[-122.2464,37.9642],[-122.2532,37.964],[-122.2663,37.9592],[-122.2706,37.9559],[-122.2719,37.9532],[-122.2681,37.9476],[-122.2609,37.9457],[-122.2711,37.9398],[-122.2546,37.9206],[-122.2706,37.9214],[-122.2707,37.9239],[-122.2786,37.92]]]},"properties":{"GEOID":"0601390270","BASENAME":"Briones","NAME":"Briones CCD","COUNTY":"013","COUSUB":"90270"}},{"type":"Feature","geometry":{"type":"Polygon","coordinates":[[[-121.952,37.8325],[-121.9473,37.8302],[-121.9293,37.8256],[-121.9212,37.8217],[-121.9211,37.8158],[-121.9235,37.81],[-121.9233,37.8052],[-121.9213,37.8009],[-121.9223,37.7948],[-121.9237,37.7919],[-121.9255,37.7924],[-121.9276,37.7897],[-121.9227,37.7807],[-121.925,37.7737],[-121.9182,37.7735],[-121.9203,37.766],[-121.9143,37.7566],[-121.9156,37.7538],[-121.9139,37.7494],[-121.9151,37.7441],[-121.9105,37.7304],[-121.6973,37.7824],[-121.6939,37.7919],[-121.6888,37.7932],[-121.685,37.7964],[-121.677,37.7982],[-121.6752,37.8033],[-121.6727,37.8061],[-121.6636,37.8122],[-121.6609,37.8165],[-121.6557,37.8196],[-121.6544,37.833],[-121.6471,37.8388],[-121.6467,37.8488],[-121.653,37.8565],[-121.6779,37.8713],[-121.6898,37.8841],[-121.6951,37.8874],[-121.6965,37.8875],[-121.6966,37.8801],[-121.6984,37.8747],[-121.7104,37.8772],[-121.7204,37.8757],[-121.733,37.8706],[-121.7424,37.8708],[-121.7462,37.8695],[-121.7548,37.871],[-121.7672,37.8779],[-121.7761,37.8812],[-121.7773,37.882],[-121.7758,37.886],[-121.7663,37.8944],[-121.7668,37.8971],[-121.7647,37.8988],[-121.7634,37.9073],[-121.765,37.9087],[-121.766,37.9138],[-121.7727,37.9152],[-121.7789,37.9184],[-121.7771,37.9298],[-121.778,37.9335],[-121.7737,37.9388],[-121.7736,37.9447],[-121.7781,37.949],[-121.7776,37.9561],[-121.7789,37.9615],[-121.7809,37.964],[-121.7803,37.9659],[-121.7965,37.9714],[-121.7968,37.9699],[-121.8055,37.969],[-121.805,37.9735],[-121.8025,37.9771],[-121.8057,37.9825],[-121.809,37.9817],[-121.8115,37.9825],[-121.8114,37.9802],[-121.8129,37.9794],[-121.8256,37.9802],[-121.8295,37.9831],[-121.8415,37.9833],[-121.8529,37.9872],[-121.8555,37.9813],[-121.8618,37.9761],[-121.8636,37.9684],[-121.863,37.9591],[-121.8655,37.9561],[-121.8693,37.9564],[-121.8695,37.9576],[-121.8744,37.9561],[-121.8825,37.9584],[-121.8842,37.9648],[-121.8942,37.972],[-121.8989,37.9829],[-121.9009,37.9792],[-121.9106,37.9749],[-121.9104,37.9698],[-121.913,37.9676],[-121.9144,37.9627],[-121.9215,37.9603],[-121.9237,37.9607],[-121.926,37.9586],[-121.9248,37.9581],[-121.9246,37.9555],[-121.9146,37.9551],[-121.9144,37.9248],[-121.8976,37.9197],[-121.8921,37.9157],[-121.8822,37.9121],[-121.8763,37.9084],[-121.8742,37.906],[-121.8723,37.8968],[-121.8734,37.8919],[-121.8674,37.8877],[-121.8666,37.8834],[-121.87,37.875],[-121.8743,37.8735],[-121.8744,37.8689],[-121.8829,37.8647],[-121.8846,37.8625],[-121.8938,37.8589],[-121.8965,37.8599],[-121.9009,37.8588],[-121.9025,37.8573],[-121.9109,37.8575],[-121.911,37.8461],[-121.8934,37.8461],[-121.896,37.8382],[-121.9211,37.843],[-121.9229,37.8408],[-121.9269,37.8428],[-121.9323,37.8415],[-121.9338,37.844],[-121.9371,37.8444],[-121.9388,37.8411],[-121.9407,37.8419],[-121.9403,37.8432],[-121.9438,37.8419],[-121.9461,37.8433],[-121.9479,37.8422],[-121.9499,37.8441],[-121.9496,37.8412],[-121.9475,37.8404],[-121.9516,37.8352],[-121.952,37.8325]]]},"properties":{"GEOID":"0601393310","BASENAME":"Tassajara","NAME":"Tassajara CCD","COUNTY":"013","COUSUB":"93310"}},{"type":"Feature","geometry":{"type":"Polygon","coordinates":[[[-122.4416,37.9724],[-122.441,37.9574],[-122.4323,37.9298],[-122.3738,37.8837],[-122.3128,37.8973],[-122.2965,37.8989],[-122.2884,37.8976],[-122.2836,37.9],[-122.2788,37.9007],[-122.2773,37.9017],[-122.2779,37.9031],[-122.2736,37.9051],[-122.2711,37.9058],[-122.2715,37.9049],[-122.2703,37.9044],[-122.2676,37.9042],[-122.268,37.9065],[-122.2664,37.9075],[-122.2725,37.9119],[-122.2708,37.9136],[-122.2794,37.9196],[-122.2707,37.9239],[-122.2706,37.9214],[-122.2546,37.9206],[-122.2711,37.9398],[-122.2609,37.9457],[-122.2681,37.9476],[-122.2719,37.9532],[-122.2702,37.9563],[-122.2592,37.9625],[-122.2462,37.9642],[-122.2431,37.9679],[-122.2432,37.9711],[-122.2374,37.9721],[-122.2312,37.9751],[-122.2237,37.9728],[-122.2214,37.9705],[-122.2149,37.9704],[-122.21,37.9687],[-122.205,37.9647],[-122.2218,37.9859],[-122.2265,37.9862],[-122.2272,37.985],[-122.236,37.9834],[-122.25,37.9921],[-122.2488,37.9954],[-122.2474,37.9947],[-122.2473,37.9964],[-122.2455,37.9958],[-122.2415,38],[-122.2448,38.0019],[-122.2377,38.0054],[-122.2391,38.0072],[-122.2481,38.0087],[-122.2537,38.0142],[-122.2421,38.015],[-122.2247,38.0083],[-122.214,38.0071],[-122.2051,38.0089],[-122.1887,38.0162],[-122.1776,38.0151],[-122.1795,38.0215],[-122.1831,38.0257],[-122.1869,38.026],[-122.1878,38.0294],[-122.191,38.031],[-122.195,38.0363],[-122.1924,38.0411],[-122.1887,38.042],[-122.1838,38.0409],[-122.1825,38.0393],[-122.1835,38.0386],[-122.1808,38.0381],[-122.1794,38.0357],[-122.1747,38.036],[-122.1743,38.0346],[-122.1676,38.0367],[-122.1761,38.0478],[-122.1839,38.054],[-122.2008,38.0579],[-122.2453,38.064],[-122.2653,38.0599],[-122.3475,38.0733],[-122.376,38.0485],[-122.3928,38.027],[-122.4416,37.9739],[-122.4416,37.9724]]]},"properties":{"GEOID":"0601393620","BASENAME":"West Contra Costa","NAME":"West Contra Costa CCD","COUNTY":"013","COUSUB":"93620"}},{"type":"Feature","geometry":{"type":"Polygon","coordinates":[[[-121.9883,38.0466],[-121.9878,38.0361],[-121.9779,38.0332],[-121.9725,38.0291],[-121.9621,38.0254],[-121.9658,38.0231],[-121.9479,38.0191],[-121.9419,38.0191],[-121.9409,38.0069],[-121.9461,38.0033],[-121.949,37.9899],[-121.9513,37.9871],[-121.9391,37.9799],[-121.9391,37.9716],[-121.9405,37.9677],[-121.9453,37.9635],[-121.9487,37.9631],[-121.9491,37.9612],[-121.946,37.9598],[-121.9407,37.9629],[-121.9301,37.962],[-121.9251,37.9686],[-121.9157,37.9743],[-121.9096,37.9751],[-121.9014,37.9789],[-121.8989,37.9829],[-121.8942,37.972],[-121.8842,37.9648],[-121.8825,37.9584],[-121.8744,37.9561],[-121.8695,37.9576],[-121.8693,37.9564],[-121.8657,37.9561],[-121.863,37.9591],[-121.8636,37.9684],[-121.8618,37.9761],[-121.8555,37.9813],[-121.8529,37.9872],[-121.8415,37.9833],[-121.8295,37.9831],[-121.8256,37.9802],[-121.8129,37.9794],[-121.8114,37.9802],[-121.8115,37.9825],[-121.809,37.9817],[-121.8057,37.9825],[-121.8025,37.9771],[-121.805,37.9735],[-121.8055,37.969],[-121.7968,37.9699],[-121.7965,37.9714],[-121.7781,37.9651],[-121.76,37.9617],[-121.7601,37.9698],[-121.7627,37.9725],[-121.7626,37.9793],[-121.7661,37.9817],[-121.7649,37.9822],[-121.7605,37.9798],[-121.7489,37.9831],[-121.7436,37.9831],[-121.7505,37.9886],[-121.7517,38.0243],[-121.7635,38.0235],[-121.7775,38.0189],[-121.7831,38.0185],[-121.7908,38.0186],[-121.8013,38.0216],[-121.8107,38.0203],[-121.817,38.0215],[-121.8321,38.0311],[-121.8379,38.0389],[-121.8417,38.052],[-121.8468,38.06],[-121.8545,38.0651],[-121.8624,38.0661],[-121.8645,38.061],[-121.8695,38.0545],[-121.8782,38.0493],[-121.8896,38.0467],[-121.9101,38.045],[-121.9221,38.0459],[-121.9354,38.0488],[-121.9509,38.0539],[-121.9509,38.055],[-121.9557,38.0578],[-121.9723,38.0655],[-121.9774,38.0668],[-121.9876,38.0668],[-121.9883,38.0466]]]},"properties":{"GEOID":"0601390080","BASENAME":"Antioch-Pittsburg","NAME":"Antioch-Pittsburg CCD","COUNTY":"013","COUSUB":"90080"}},{"type":"Feature","geometry":{"type":"Polygon","coordinates":[[[-122.2503,37.9007],[-122.2442,37.8966],[-122.2422,37.8934],[-122.2445,37.8923],[-122.2463,37.893],[-122.2491,37.8911],[-122.2503,37.8898],[-122.2493,37.887],[-122.242,37.8819],[-122.2387,37.8833],[-122.2236,37.8786],[-122.2176,37.8722],[-122.2164,37.8691],[-122.2214,37.8655],[-122.2119,37.8569],[-122.2089,37.8519],[-122.2031,37.8512],[-122.2008,37.8474],[-122.1951,37.8436],[-122.1953,37.8416],[-122.1888,37.8377],[-122.1851,37.8374],[-122.1838,37.8344],[-122.187,37.8275],[-122.1857,37.8254],[-122.1869,37.8221],[-122.1856,37.8207],[-122.1812,37.8193],[-122.1779,37.8163],[-122.1728,37.8158],[-122.1669,37.8134],[-122.1574,37.818],[-122.1488,37.8138],[-122.1407,37.8047],[-122.0615,37.7992],[-122.0615,37.8001],[-122.0455,37.7981],[-122.0305,37.7877],[-122.0138,37.7801],[-121.9974,37.7634],[-122.0108,37.7551],[-122.0118,37.7474],[-122.0011,37.739],[-121.9954,37.7384],[-121.9881,37.7331],[-121.9719,37.7303],[-121.96,37.7185],[-121.9103,37.7312],[-121.9151,37.7441],[-121.9139,37.7494],[-121.9156,37.7538],[-121.9143,37.7566],[-121.9203,37.766],[-121.9182,37.7735],[-121.925,37.7737],[-121.9227,37.7807],[-121.9276,37.7897],[-121.9255,37.7924],[-121.9237,37.7919],[-121.9223,37.7948],[-121.9213,37.8009],[-121.9233,37.8052],[-121.9235,37.81],[-121.9211,37.8158],[-121.9212,37.8217],[-121.9293,37.8256],[-121.9519,37.8319],[-121.9516,37.8352],[-121.9475,37.8405],[-121.9495,37.8411],[-121.9502,37.844],[-121.9479,37.8432],[-121.9479,37.8422],[-121.9461,37.8433],[-121.9438,37.8419],[-121.9403,37.8432],[-121.9407,37.8419],[-121.9388,37.8411],[-121.9371,37.8444],[-121.9338,37.844],[-121.9323,37.8415],[-121.9269,37.8428],[-121.9229,37.8408],[-121.9211,37.843],[-121.896,37.8382],[-121.8934,37.8461],[-121.911,37.8461],[-121.9109,37.8575],[-121.9025,37.8573],[-121.9009,37.8588],[-121.8965,37.8599],[-121.8938,37.8589],[-121.8846,37.8625],[-121.8829,37.8647],[-121.8744,37.8689],[-121.8743,37.8735],[-121.87,37.875],[-121.8665,37.884],[-121.8674,37.8877],[-121.8734,37.8919],[-121.8723,37.8968],[-121.8742,37.906],[-121.8763,37.9085],[-121.8822,37.9121],[-121.8921,37.9157],[-121.8976,37.9197],[-121.9144,37.9248],[-121.9146,37.9551],[-121.9246,37.9555],[-121.9248,37.9581],[-121.9261,37.9585],[-121.9237,37.9607],[-121.9215,37.9603],[-121.9144,37.9627],[-121.913,37.9676],[-121.9104,37.9698],[-121.9106,37.9749],[-121.9157,37.9743],[-121.9249,37.9688],[-121.9306,37.9619],[-121.9407,37.9629],[-121.946,37.9598],[-121.9491,37.9612],[-121.9487,37.9631],[-121.9453,37.9635],[-121.9405,37.9677],[-121.9391,37.9716],[-121.9391,37.9799],[-121.9513,37.9871],[-121.949,37.9899],[-121.9461,38.0033],[-121.9409,38.0069],[-121.9419,38.0191],[-121.9479,38.0191],[-121.9658,38.0231],[-121.9621,38.0254],[-121.9725,38.0291],[-121.9779,38.0332],[-121.9878,38.0361],[-121.9876,38.0668],[-122.0152,38.0635],[-122.0284,38.0592],[-122.0509,38.0602],[-122.0611,38.0621],[-122.0673,38.0601],[-122.0774,38.054],[-122.0987,38.0475],[-122.121,38.038],[-122.124,38.0357],[-122.1415,38.0319],[-122.16,38.0334],[-122.1676,38.0367],[-122.1743,38.0346],[-122.1747,38.036],[-122.1796,38.0357],[-122.1808,38.0381],[-122.1835,38.0386],[-122.1825,38.0393],[-122.184,38.041],[-122.1887,38.042],[-122.1924,38.0411],[-122.195,38.0363],[-122.1942,38.0345],[-122.1878,38.0295],[-122.1869,38.026],[-122.183,38.0256],[-122.1781,38.0192],[-122.1776,38.0151],[-122.1658,38.0067],[-122.1563,38.0052],[-122.1479,38.0005],[-122.1405,37.9904],[-122.1364,37.9896],[-122.13,37.9907],[-122.1258,37.9837],[-122.1248,37.9802],[-122.1275,37.9738],[-122.1261,37.9726],[-122.1262,37.9668],[-122.1322,37.9625],[-122.1333,37.9583],[-122.1352,37.9575],[-122.1382,37.9583],[-122.1353,37.9562],[-122.135,37.9535],[-122.1364,37.9496],[-122.1349,37.9478],[-122.1355,37.9464],[-122.1342,37.9461],[-122.1383,37.9392],[-122.1374,37.9382],[-122.1408,37.9373],[-122.1421,37.935],[-122.1482,37.9337],[-122.1492,37.9308],[-122.1521,37.9286],[-122.1627,37.9258],[-122.1652,37.9204],[-122.1712,37.9183],[-122.1847,37.9192],[-122.1962,37.922],[-122.2001,37.9175],[-122.2006,37.9143],[-122.2043,37.909],[-122.211,37.908],[-122.2111,37.9064],[-122.2071,37.9019],[-122.2107,37.8993],[-122.2169,37.9002],[-122.2193,37.8977],[-122.2201,37.8993],[-122.2227,37.8993],[-122.2229,37.8983],[-122.2272,37.8998],[-122.2299,37.8982],[-122.2388,37.9009],[-122.2433,37.905],[-122.2503,37.9007]]]},"properties":{"GEOID":"0601390440","BASENAME":"Central Contra Costa","NAME":"Central Contra Costa CCD","COUNTY":"013","COUSUB":"90440"}},{"type":"Feature","geometry":{"type":"Polygon","coordinates":[[[-121.781,37.9645],[-121.7789,37.9615],[-121.7776,37.9561],[-121.7781,37.949],[-121.7736,37.9448],[-121.7737,37.9388],[-121.778,37.9335],[-121.7771,37.9298],[-121.7789,37.9184],[-121.7727,37.9152],[-121.766,37.9138],[-121.765,37.9087],[-121.7634,37.9073],[-121.7647,37.8988],[-121.7668,37.8971],[-121.7663,37.8943],[-121.7757,37.886],[-121.7773,37.882],[-121.7548,37.871],[-121.7464,37.8694],[-121.7424,37.8708],[-121.733,37.8706],[-121.7204,37.8757],[-121.7104,37.8772],[-121.6984,37.8747],[-121.6966,37.8801],[-121.6965,37.8875],[-121.6951,37.8874],[-121.6898,37.8841],[-121.6779,37.8713],[-121.6536,37.8569],[-121.6469,37.85],[-121.6469,37.8394],[-121.6542,37.8334],[-121.6557,37.8196],[-121.6609,37.8165],[-121.6636,37.8122],[-121.6727,37.8061],[-121.6752,37.8033],[-121.677,37.7982],[-121.685,37.7964],[-121.6888,37.7932],[-121.6939,37.7919],[-121.6973,37.7824],[-121.557,37.8165],[-121.5533,37.8188],[-121.5525,37.824],[-121.5512,37.8251],[-121.5521,37.8297],[-121.5495,37.8336],[-121.5442,37.8325],[-121.5382,37.8374],[-121.5382,37.8426],[-121.5341,37.8495],[-121.5372,37.8508],[-121.539,37.8489],[-121.5407,37.8494],[-121.542,37.8518],[-121.5406,37.8576],[-121.5475,37.8552],[-121.5528,37.8612],[-121.5553,37.858],[-121.5603,37.8586],[-121.5623,37.8564],[-121.5612,37.8543],[-121.562,37.8531],[-121.5659,37.8579],[-121.5705,37.8576],[-121.5683,37.86],[-121.569,37.8606],[-121.5743,37.8598],[-121.578,37.8578],[-121.5794,37.8602],[-121.5734,37.8658],[-121.5793,37.8706],[-121.5782,37.8755],[-121.5739,37.8834],[-121.5759,37.8883],[-121.5684,37.8917],[-121.5659,37.8977],[-121.567,37.8999],[-121.5718,37.9025],[-121.5728,37.9043],[-121.5633,37.9106],[-121.566,37.9163],[-121.5651,37.9192],[-121.5583,37.9214],[-121.5564,37.9236],[-121.5589,37.9279],[-121.5573,37.9322],[-121.5615,37.9359],[-121.5609,37.9399],[-121.5636,37.9434],[-121.5576,37.9465],[-121.5607,37.9476],[-121.5674,37.944],[-121.5688,37.9485],[-121.5635,37.9547],[-121.5736,37.9538],[-121.5752,37.955],[-121.5733,37.9573],[-121.5656,37.9578],[-121.5651,37.9598],[-121.5737,37.9664],[-121.5744,37.9725],[-121.5802,37.9764],[-121.5786,37.9776],[-121.5733,37.9777],[-121.5724,37.979],[-121.5795,37.9815],[-121.5825,37.9839],[-121.581,37.9895],[-121.5761,37.9949],[-121.5789,37.9985],[-121.5706,37.999],[-121.569,38.0014],[-121.5696,38.0032],[-121.5782,38.0039],[-121.5798,38.0064],[-121.5779,38.0108],[-121.5671,38.012],[-121.567,38.0135],[-121.5722,38.0159],[-121.5726,38.018],[-121.568,38.0185],[-121.5611,38.0154],[-121.5575,38.0166],[-121.5638,38.0248],[-121.5642,38.0297],[-121.5714,38.0304],[-121.5708,38.038],[-121.573,38.0422],[-121.5776,38.043],[-121.5802,38.0413],[-121.5808,38.0388],[-121.5779,38.0338],[-121.5788,38.0326],[-121.5817,38.0324],[-121.5844,38.036],[-121.5847,38.0435],[-121.5823,38.0514],[-121.5839,38.0599],[-121.5822,38.0684],[-121.5729,38.0737],[-121.5767,38.0782],[-121.5778,38.0895],[-121.58,38.0944],[-121.6049,38.0999],[-121.6274,38.0984],[-121.629,38.0973],[-121.6326,38.0886],[-121.6381,38.0861],[-121.6452,38.0874],[-121.6619,38.0956],[-121.6731,38.0935],[-121.6793,38.0893],[-121.6819,38.082],[-121.6796,38.0681],[-121.6803,38.0635],[-121.6831,38.0596],[-121.6917,38.0535],[-121.6998,38.0452],[-121.7066,38.0413],[-121.7256,38.0338],[-121.7378,38.0266],[-121.7517,38.0243],[-121.7505,37.9886],[-121.7436,37.9831],[-121.7489,37.9831],[-121.7605,37.9798],[-121.7649,37.9822],[-121.7661,37.9817],[-121.7626,37.9793],[-121.7627,37.9725],[-121.7601,37.9698],[-121.76,37.9617],[-121.7803,37.9659],[-121.781,37.9645]]]},"properties":{"GEOID":"0601390780","BASENAME":"East Contra Costa","NAME":"East Contra Costa CCD","COUNTY":"013","COUSUB":"90780"}}]}