{"type":"FeatureCollection","features":[{"type":"Feature","geometry":{"type":"Polygon","coordinates":[[[-120.0937,36.5636],[-120.0798,36.5532],[-120.0695,36.5388],[-120.0664,36.5366],[-120.0617,36.5283],[-120.0615,36.5217],[-120.0513,36.5117],[-120.05,36.5081],[-120.042,36.5044],[-120.0365,36.4987],[-120.0303,36.4965],[-120.0273,36.4974],[-120.0265,36.4955],[-120.0235,36.4943],[-120.0167,36.4874],[-120.0068,36.4871],[-120.0049,36.4853],[-119.9991,36.4884],[-119.7911,36.4893],[-119.7911,36.5038],[-119.7732,36.5038],[-119.7728,36.6198],[-119.8447,36.6196],[-119.8446,36.6341],[-119.8627,36.634],[-119.8624,36.663],[-119.8805,36.6629],[-119.8805,36.6774],[-119.9344,36.6771],[-119.9344,36.6916],[-119.9702,36.6915],[-119.9713,36.6623],[-120.0937,36.5636]]]},"properties":{"GEOID":"0601990390","BASENAME":"Caruthers-Raisin City","NAME":"Caruthers-Raisin City CCD","COUNTY":"019","COUSUB":"90390"}},{"type":"Feature","geometry":{"type":"Polygon","coordinates":[[[-119.377,36.5749],[-119.3051,36.5737],[-119.3046,36.6606],[-119.3767,36.6615],[-119.377,36.5749]]]},"properties":{"GEOID":"0601992270","BASENAME":"Orange Cove","NAME":"Orange Cove CCD","COUNTY":"019","COUSUB":"92270"}},{"type":"Feature","geometry":{"type":"Polygon","coordinates":[[[-119.5286,36.6655],[-119.5268,36.6606],[-119.5227,36.6611],[-119.5175,36.6587],[-119.5152,36.6547],[-119.5121,36.6533],[-119.5088,36.6543],[-119.497,36.653],[-119.49,36.6504],[-119.4849,36.6535],[-119.4779,36.6478],[-119.4697,36.6487],[-119.4666,36.6466],[-119.4706,36.6396],[-119.4689,36.6324],[-119.4667,36.6289],[-119.4733,36.6242],[-119.4741,36.6216],[-119.466,36.6133],[-119.4641,36.6096],[-119.4698,36.5992],[-119.4707,36.5931],[-119.4659,36.5895],[-119.4608,36.5882],[-119.4606,36.5866],[-119.4666,36.5865],[-119.4666,36.5827],[-119.4695,36.5819],[-119.4696,36.575],[-119.4715,36.5733],[-119.4626,36.5779],[-119.4578,36.5779],[-119.4578,36.5753],[-119.377,36.5747],[-119.3767,36.6615],[-119.3317,36.661],[-119.3405,36.6638],[-119.3538,36.6763],[-119.365,36.68],[-119.3694,36.6827],[-119.3733,36.6865],[-119.3798,36.6998],[-119.3842,36.7029],[-119.3867,36.7082],[-119.4006,36.709],[-119.4062,36.7112],[-119.4159,36.712],[-119.4164,36.7135],[-119.4241,36.7149],[-119.4306,36.7192],[-119.4351,36.7187],[-119.4386,36.7207],[-119.4391,36.7253],[-119.4443,36.7311],[-119.4458,36.7352],[-119.444,36.7379],[-119.4343,36.7414],[-119.4331,36.7429],[-119.4375,36.7439],[-119.435,36.751],[-119.4365,36.757],[-119.4411,36.7637],[-119.4432,36.7622],[-119.4425,36.7588],[-119.4451,36.7556],[-119.4534,36.7515],[-119.4611,36.7453],[-119.4629,36.7406],[-119.4667,36.7381],[-119.4718,36.7308],[-119.4774,36.7316],[-119.4807,36.7302],[-119.4828,36.7282],[-119.4836,36.7232],[-119.4866,36.7227],[-119.4891,36.7186],[-119.4934,36.716],[-119.4961,36.7159],[-119.4986,36.7137],[-119.4982,36.7111],[-119.4997,36.7085],[-119.5096,36.7042],[-119.5104,36.7002],[-119.5166,36.6948],[-119.52,36.6848],[-119.5239,36.6803],[-119.5247,36.6766],[-119.5281,36.6734],[-119.5286,36.6655]]]},"properties":{"GEOID":"0601992600","BASENAME":"Reedley","NAME":"Reedley CCD","COUNTY":"019","COUSUB":"92600"}},{"type":"Feature","geometry":{"type":"Polygon","coordinates":[[[-120.6829,36.2873],[-120.6808,36.2852],[-120.6738,36.2824],[-120.6726,36.2805],[-120.6762,36.2768],[-120.6742,36.2727],[-120.6754,36.2705],[-120.6782,36.2675],[-120.6804,36.2671],[-120.6793,36.2646],[-120.6754,36.2623],[-120.673,36.2577],[-120.6746,36.2555],[-120.6799,36.2542],[-120.6815,36.252],[-120.6797,36.2467],[-120.6709,36.2419],[-120.6669,36.236],[-120.6564,36.2335],[-120.6517,36.2307],[-120.6493,36.224],[-120.641,36.2198],[-120.6388,36.215],[-120.6294,36.2074],[-120.6294,36.2058],[-120.6269,36.2032],[-120.6328,36.1987],[-120.6392,36.1965],[-120.6389,36.1941],[-120.6411,36.192],[-120.6404,36.1906],[-120.6428,36.188],[-120.6424,36.1859],[-120.6449,36.1837],[-120.6447,36.1792],[-120.6489,36.1794],[-120.6487,36.1775],[-120.652,36.1741],[-120.6524,36.1729],[-120.6491,36.1696],[-120.6499,36.168],[-120.6546,36.1677],[-120.6631,36.1712],[-120.6642,36.1657],[-120.672,36.1643],[-120.6713,36.162],[-120.668,36.1606],[-120.6657,36.1519],[-120.6665,36.1496],[-120.6647,36.1473],[-120.6643,36.1414],[-120.6676,36.1381],[-120.6627,36.1367],[-120.6565,36.1326],[-120.6525,36.1252],[-120.6542,36.1227],[-120.6532,36.1188],[-120.6512,36.1171],[-120.6494,36.1178],[-120.6454,36.1162],[-120.6462,36.1108],[-120.6488,36.108],[-120.6461,36.1047],[-120.6419,36.1013],[-120.6354,36.101],[-120.6336,36.1033],[-120.6277,36.0992],[-120.6267,36.0971],[-120.6231,36.0979],[-120.6142,36.0951],[-120.6116,36.0956],[-120.6124,36.0991],[-120.6087,36.0993],[-120.608,36.1027],[-120.5994,36.1009],[-120.5898,36.0896],[-120.5932,36.0885],[-120.5928,36.0856],[-120.5949,36.0832],[-120.5961,36.0782],[-120.5923,36.0737],[-120.592,36.0713],[-120.5883,36.069],[-120.5879,36.0666],[-120.5846,36.0662],[-120.5666,36.0529],[-120.5589,36.0499],[-120.5518,36.0495],[-120.5507,36.0476],[-120.5454,36.0461],[-120.5431,36.0433],[-120.543,36.0398],[-120.5404,36.0367],[-120.5355,36.0351],[-120.5308,36.0354],[-120.5294,36.0343],[-120.527,36.0357],[-120.5298,36.029],[-120.5298,36.0243],[-120.5262,36.0228],[-120.5223,36.0231],[-120.52,36.0209],[-120.519,36.0223],[-120.5197,36.0267],[-120.5176,36.0275],[-120.5132,36.0257],[-120.5133,36.0237],[-120.5109,36.0221],[-120.5084,36.0242],[-120.5072,36.0233],[-120.5083,36.0216],[-120.5049,36.0214],[-120.5049,36.0204],[-120.5027,36.0204],[-120.5023,36.0222],[-120.5004,36.0222],[-120.5001,36.0208],[-120.4975,36.0202],[-120.4932,36.0166],[-120.4883,36.0149],[-120.4862,36.0112],[-120.483,36.0121],[-120.4793,36.0107],[-120.4784,36.0088],[-120.4804,36.0059],[-120.4778,36.0033],[-120.4774,36.0008],[-120.4731,35.9992],[-120.4734,35.9979],[-120.4706,35.9971],[-120.4686,35.9943],[-120.4637,35.9928],[-120.4598,35.9935],[-120.4537,35.9895],[-120.4497,35.9884],[-120.4491,35.9851],[-120.4382,35.9778],[-120.4365,35.9716],[-120.4344,35.9694],[-120.4312,35.9693],[-120.4228,35.9737],[-120.4085,35.976],[-120.4063,35.974],[-120.3966,35.9704],[-120.394,35.9679],[-120.3889,35.9693],[-120.3604,35.9644],[-120.36,35.9631],[-120.3625,35.9594],[-120.3593,35.9583],[-120.3575,35.9555],[-120.3565,35.9481],[-120.3496,35.9441],[-120.3458,35.9449],[-120.3402,35.939],[-120.336,35.9372],[-120.3371,35.9317],[-120.3351,35.9284],[-120.3367,35.9236],[-120.3321,35.9188],[-120.3323,35.9155],[-120.3299,35.9135],[-120.326,35.9131],[-120.3229,35.9078],[-120.3151,35.9072],[-120.1659,36.0229],[-120.2001,36.0508],[-120.2002,36.1375],[-120.2105,36.1375],[-120.2118,36.3419],[-120.1938,36.3566],[-120.1938,36.4293],[-120.338,36.4286],[-120.3387,36.4392],[-120.3432,36.4429],[-120.3932,36.4431],[-120.3945,36.434],[-120.3933,36.4306],[-120.3929,36.4138],[-120.4085,36.4088],[-120.409,36.4071],[-120.4116,36.4075],[-120.4135,36.405],[-120.417,36.4044],[-120.4164,36.4028],[-120.4186,36.4026],[-120.419,36.4008],[-120.423,36.4],[-120.4234,36.3968],[-120.4258,36.3975],[-120.4277,36.3954],[-120.4347,36.4018],[-120.4416,36.4035],[-120.4411,36.4053],[-120.4423,36.4061],[-120.4455,36.4045],[-120.4448,36.4065],[-120.4474,36.407],[-120.4458,36.4097],[-120.4481,36.4091],[-120.4494,36.4123],[-120.4517,36.4134],[-120.453,36.412],[-120.4568,36.4126],[-120.4565,36.4157],[-120.4686,36.4196],[-120.4719,36.4179],[-120.4723,36.4156],[-120.4748,36.4157],[-120.4753,36.4135],[-120.4776,36.4129],[-120.4798,36.4152],[-120.4835,36.4108],[-120.4872,36.4101],[-120.4875,36.4082],[-120.491,36.4084],[-120.4932,36.4042],[-120.5022,36.4056],[-120.503,36.403],[-120.5054,36.403],[-120.5075,36.4013],[-120.5077,36.3994],[-120.5114,36.3968],[-120.5164,36.3963],[-120.5185,36.3981],[-120.5192,36.3962],[-120.5221,36.3984],[-120.5272,36.3967],[-120.5306,36.3974],[-120.5322,36.395],[-120.5354,36.3963],[-120.5388,36.3949],[-120.5405,36.3958],[-120.5431,36.395],[-120.5443,36.3971],[-120.546,36.3958],[-120.5511,36.3954],[-120.5507,36.3942],[-120.5529,36.3918],[-120.5552,36.3931],[-120.5598,36.391],[-120.5646,36.3925],[-120.5667,36.3916],[-120.5697,36.3942],[-120.5756,36.395],[-120.5914,36.3939],[-120.5971,36.3913],[-120.5966,36.3285],[-120.6002,36.3283],[-120.6049,36.3241],[-120.6125,36.3244],[-120.6127,36.3209],[-120.6179,36.3188],[-120.6199,36.3199],[-120.6305,36.3169],[-120.6351,36.3186],[-120.6443,36.319],[-120.6461,36.317],[-120.6576,36.3165],[-120.6631,36.3144],[-120.6664,36.3114],[-120.6686,36.3072],[-120.6759,36.3028],[-120.6782,36.2981],[-120.6827,36.2944],[-120.6805,36.29],[-120.6829,36.2873]]]},"properties":{"GEOID":"0601990530","BASENAME":"Coalinga","NAME":"Coalinga CCD","COUNTY":"019","COUSUB":"90530"}},{"type":"Feature","geometry":{"type":"Polygon","coordinates":[[[-119.944,36.8341],[-119.9436,36.8151],[-119.9346,36.815],[-119.9344,36.6771],[-119.8805,36.6774],[-119.8805,36.6629],[-119.8624,36.663],[-119.8627,36.634],[-119.8446,36.6341],[-119.8447,36.6196],[-119.7728,36.6198],[-119.7728,36.6634],[-119.6639,36.6635],[-119.6638,36.6781],[-119.6104,36.6776],[-119.6099,36.8373],[-119.621,36.8374],[-119.6207,36.8664],[-119.5921,36.8668],[-119.5954,36.8692],[-119.5969,36.8737],[-119.5963,36.8774],[-119.6023,36.8785],[-119.6048,36.8805],[-119.6079,36.8802],[-119.6121,36.8838],[-119.6138,36.8874],[-119.611,36.8893],[-119.6108,36.8912],[-119.6148,36.8955],[-119.6182,36.897],[-119.6254,36.8963],[-119.6292,36.8984],[-119.6328,36.8951],[-119.6359,36.8945],[-119.6417,36.8969],[-119.6427,36.8986],[-119.6483,36.898],[-119.656,36.9054],[-119.6585,36.9054],[-119.6638,36.9079],[-119.6654,36.9111],[-119.67,36.9151],[-119.6741,36.9157],[-119.6765,36.9267],[-119.6737,36.9302],[-119.6731,36.9333],[-119.6801,36.9459],[-119.6939,36.9439],[-119.6972,36.9444],[-119.6965,36.9474],[-119.6904,36.9547],[-119.6909,36.9567],[-119.6889,36.961],[-119.6923,36.9653],[-119.6926,36.9693],[-119.6963,36.9709],[-119.7004,36.9755],[-119.7018,36.9852],[-119.7034,36.9875],[-119.7029,36.9917],[-119.7056,36.9943],[-119.7031,36.9981],[-119.7048,37.0002],[-119.7145,36.9904],[-119.7313,36.9797],[-119.7405,36.9702],[-119.7433,36.9546],[-119.7367,36.9536],[-119.7338,36.9464],[-119.7373,36.944],[-119.7416,36.9439],[-119.7457,36.939],[-119.7521,36.9359],[-119.7528,36.9337],[-119.7504,36.9305],[-119.7503,36.9283],[-119.7549,36.9225],[-119.7587,36.9202],[-119.7727,36.9186],[-119.7757,36.9091],[-119.7893,36.8967],[-119.7891,36.8901],[-119.785,36.8847],[-119.7855,36.8798],[-119.7892,36.8761],[-119.7974,36.875],[-119.8027,36.8658],[-119.8121,36.8638],[-119.8144,36.8615],[-119.8151,36.86],[-119.8123,36.8572],[-119.8139,36.8502],[-119.8234,36.8483],[-119.8348,36.8525],[-119.8373,36.8541],[-119.8384,36.8582],[-119.8409,36.8613],[-119.8466,36.8601],[-119.8503,36.8536],[-119.8539,36.8514],[-119.8609,36.8545],[-119.8659,36.8511],[-119.8662,36.8522],[-119.8706,36.8522],[-119.8794,36.856],[-119.8833,36.8591],[-119.8862,36.8592],[-119.8888,36.8577],[-119.8879,36.8547],[-119.8892,36.8521],[-119.904,36.8516],[-119.9088,36.8466],[-119.9121,36.8454],[-119.9183,36.8451],[-119.9236,36.8478],[-119.9281,36.8485],[-119.9326,36.8445],[-119.9345,36.838],[-119.944,36.8341]]]},"properties":{"GEOID":"0601991080","BASENAME":"Fresno","NAME":"Fresno CCD","COUNTY":"019","COUSUB":"91080"}},{"type":"Feature","geometry":{"type":"Polygon","coordinates":[[[-120.2119,36.3211],[-120.2105,36.1375],[-120.2002,36.1375],[-120.2001,36.0508],[-120.1659,36.0229],[-119.9589,36.1814],[-119.9601,36.375],[-119.9592,36.401],[-119.9773,36.4009],[-119.9772,36.4155],[-120.0133,36.4152],[-120.0132,36.4299],[-120.1938,36.4293],[-120.1938,36.3566],[-120.2118,36.3419],[-120.2119,36.3211]]]},"properties":{"GEOID":"0601991360","BASENAME":"Huron","NAME":"Huron CCD","COUNTY":"019","COUSUB":"91360"}},{"type":"Feature","geometry":{"type":"Polygon","coordinates":[[[-120.3697,36.7805],[-120.3695,36.7793],[-120.3662,36.7798],[-120.3612,36.7784],[-120.3588,36.7717],[-120.3509,36.7645],[-120.3519,36.7605],[-120.3494,36.759],[-120.3499,36.7572],[-120.3466,36.7514],[-120.3478,36.7436],[-120.3502,36.7423],[-120.3429,36.7377],[-120.3427,36.7328],[-120.3282,36.7343],[-120.2051,36.7346],[-120.2054,36.7239],[-120.2067,36.7192],[-120.2275,36.6837],[-120.1732,36.6462],[-120.1016,36.574],[-120.0939,36.5634],[-119.9713,36.6623],[-119.9702,36.6915],[-119.9344,36.6916],[-119.9346,36.815],[-119.9436,36.8151],[-119.9435,36.834],[-119.9585,36.8355],[-119.9666,36.8325],[-119.9705,36.8329],[-119.977,36.835],[-119.9797,36.8397],[-119.9847,36.8408],[-119.9903,36.8378],[-119.9915,36.8345],[-119.9907,36.8306],[-119.9924,36.8289],[-119.9998,36.8273],[-120.0137,36.8281],[-120.0202,36.825],[-120.0226,36.8178],[-120.0278,36.8145],[-120.0355,36.8159],[-120.0423,36.8155],[-120.0509,36.8219],[-120.056,36.8229],[-120.0661,36.8193],[-120.0714,36.8187],[-120.0737,36.8202],[-120.0761,36.8245],[-120.0821,36.8248],[-120.0916,36.8212],[-120.0986,36.8149],[-120.108,36.8127],[-120.1146,36.814],[-120.1238,36.8117],[-120.1291,36.8118],[-120.1314,36.81],[-120.1366,36.8093],[-120.1569,36.7982],[-120.1629,36.7987],[-120.1685,36.8034],[-120.1727,36.8029],[-120.1745,36.7961],[-120.182,36.7881],[-120.1815,36.7833],[-120.1897,36.7761],[-120.1926,36.7765],[-120.1949,36.7796],[-120.1997,36.7807],[-120.2018,36.7829],[-120.2011,36.7864],[-120.2031,36.7904],[-120.2071,36.7909],[-120.2093,36.7887],[-120.218,36.7886],[-120.221,36.7872],[-120.222,36.7831],[-120.2307,36.7826],[-120.2333,36.7811],[-120.2335,36.7787],[-120.2292,36.7697],[-120.2329,36.7684],[-120.2457,36.7713],[-120.2488,36.7751],[-120.2524,36.774],[-120.256,36.7696],[-120.2622,36.7726],[-120.2694,36.7714],[-120.2733,36.7742],[-120.2758,36.7729],[-120.2775,36.7688],[-120.2814,36.7666],[-120.2822,36.7673],[-120.2812,36.7721],[-120.2855,36.7735],[-120.2891,36.7716],[-120.2897,36.7696],[-120.2881,36.7641],[-120.2906,36.763],[-120.294,36.7663],[-120.2921,36.771],[-120.2932,36.7722],[-120.2977,36.7723],[-120.3027,36.7697],[-120.3061,36.7703],[-120.3057,36.7734],[-120.2998,36.7746],[-120.3004,36.7776],[-120.3126,36.782],[-120.3138,36.7819],[-120.3159,36.7783],[-120.3217,36.7777],[-120.3243,36.7799],[-120.3246,36.7816],[-120.3223,36.7846],[-120.3242,36.7863],[-120.3346,36.7829],[-120.3356,36.7842],[-120.3344,36.7915],[-120.3369,36.7924],[-120.3441,36.7914],[-120.3477,36.7982],[-120.3507,36.7975],[-120.351,36.7954],[-120.3482,36.7899],[-120.3445,36.7874],[-120.3451,36.785],[-120.3494,36.7851],[-120.3545,36.7872],[-120.3601,36.7868],[-120.3691,36.7848],[-120.3697,36.7805]]]},"properties":{"GEOID":"0601991460","BASENAME":"Kerman","NAME":"Kerman CCD","COUNTY":"019","COUSUB":"91460"}},{"type":"Feature","geometry":{"type":"Polygon","coordinates":[[[-120.8715,36.728],[-120.86,36.7078],[-120.8578,36.7023],[-120.8579,36.6977],[-120.8554,36.6925],[-120.8557,36.6896],[-120.6037,36.4882],[-120.5972,36.4882],[-120.5971,36.3913],[-120.5851,36.3951],[-120.5823,36.394],[-120.5757,36.395],[-120.5699,36.3943],[-120.5667,36.3916],[-120.5646,36.3925],[-120.5598,36.391],[-120.5552,36.3931],[-120.5529,36.3918],[-120.5507,36.3942],[-120.5511,36.3954],[-120.546,36.3958],[-120.5443,36.3971],[-120.5431,36.395],[-120.5405,36.3958],[-120.5388,36.3949],[-120.5354,36.3963],[-120.5322,36.395],[-120.5306,36.3974],[-120.5272,36.3967],[-120.5221,36.3984],[-120.5192,36.3962],[-120.5185,36.3981],[-120.5164,36.3963],[-120.5114,36.3968],[-120.5077,36.3994],[-120.5075,36.4013],[-120.5054,36.403],[-120.503,36.403],[-120.5022,36.4056],[-120.4932,36.4042],[-120.491,36.4084],[-120.4875,36.4082],[-120.4872,36.4101],[-120.4835,36.4108],[-120.4798,36.4152],[-120.4776,36.4129],[-120.4753,36.4135],[-120.4748,36.4157],[-120.4723,36.4156],[-120.4719,36.4179],[-120.4686,36.4196],[-120.4565,36.4157],[-120.4568,36.4126],[-120.453,36.412],[-120.4517,36.4134],[-120.4494,36.4123],[-120.4481,36.4091],[-120.4458,36.4097],[-120.4474,36.407],[-120.4448,36.4065],[-120.4455,36.4045],[-120.4423,36.4061],[-120.4411,36.4053],[-120.4416,36.4035],[-120.4347,36.4018],[-120.4277,36.3954],[-120.4258,36.3975],[-120.4234,36.3968],[-120.423,36.4],[-120.419,36.4008],[-120.4186,36.4026],[-120.4164,36.4028],[-120.417,36.4044],[-120.4135,36.405],[-120.4116,36.4075],[-120.409,36.4071],[-120.4085,36.4088],[-120.3929,36.4138],[-120.3933,36.4306],[-120.3945,36.434],[-120.3931,36.444],[-120.3933,36.4714],[-120.3927,36.4806],[-120.3891,36.4868],[-120.3872,36.7201],[-120.361,36.731],[-120.3427,36.7328],[-120.3424,36.7362],[-120.344,36.7386],[-120.3502,36.7423],[-120.3478,36.7436],[-120.3466,36.7514],[-120.3499,36.7572],[-120.3494,36.759],[-120.3519,36.7605],[-120.3509,36.7645],[-120.3588,36.7717],[-120.3612,36.7784],[-120.3699,36.7796],[-120.3691,36.7848],[-120.3716,36.7858],[-120.3729,36.7889],[-120.3697,36.7956],[-120.3744,36.8011],[-120.3728,36.8037],[-120.3681,36.807],[-120.3692,36.8101],[-120.3718,36.8106],[-120.3747,36.8085],[-120.3771,36.8088],[-120.3791,36.8172],[-120.3876,36.8239],[-120.3902,36.8245],[-120.3938,36.8233],[-120.3958,36.8245],[-120.3977,36.8223],[-120.4007,36.8224],[-120.404,36.8256],[-120.4049,36.8314],[-120.4091,36.8358],[-120.4099,36.8398],[-120.4122,36.8397],[-120.4141,36.8361],[-120.4171,36.8356],[-120.4222,36.8401],[-120.4305,36.8312],[-120.4396,36.8251],[-120.4243,36.8073],[-120.4374,36.8071],[-120.4204,36.7927],[-120.5306,36.7924],[-120.531,36.778],[-120.7292,36.7779],[-120.7525,36.7856],[-120.7694,36.7879],[-120.7743,36.786],[-120.7802,36.7864],[-120.7868,36.7845],[-120.7934,36.7867],[-120.8012,36.7863],[-120.8081,36.7845],[-120.8147,36.779],[-120.8337,36.7777],[-120.8385,36.7746],[-120.8471,36.7608],[-120.8597,36.7539],[-120.8584,36.7499],[-120.8623,36.7474],[-120.8693,36.7454],[-120.8692,36.743],[-120.871,36.7401],[-120.8703,36.7329],[-120.8715,36.728]]]},"properties":{"GEOID":"0601991950","BASENAME":"Mendota","NAME":"Mendota CCD","COUNTY":"019","COUSUB":"91950"}},{"type":"Feature","geometry":{"type":"Polygon","coordinates":[[[-119.7056,36.9944],[-119.7029,36.9917],[-119.7034,36.9875],[-119.7018,36.9852],[-119.7004,36.9755],[-119.6963,36.9709],[-119.6926,36.9693],[-119.6923,36.9653],[-119.6889,36.961],[-119.6909,36.9567],[-119.6904,36.9547],[-119.6965,36.9474],[-119.6972,36.9444],[-119.6939,36.9439],[-119.6801,36.9459],[-119.6731,36.9333],[-119.6737,36.9302],[-119.6765,36.9267],[-119.6737,36.9154],[-119.67,36.9151],[-119.6654,36.9111],[-119.6642,36.9082],[-119.6585,36.9054],[-119.6561,36.9055],[-119.6483,36.898],[-119.6427,36.8986],[-119.6417,36.8969],[-119.6359,36.8945],[-119.6328,36.8951],[-119.6292,36.8984],[-119.6254,36.8963],[-119.6182,36.897],[-119.6148,36.8956],[-119.6108,36.8912],[-119.611,36.8893],[-119.6138,36.8874],[-119.6121,36.8838],[-119.6079,36.8802],[-119.6048,36.8805],[-119.6023,36.8785],[-119.5963,36.8774],[-119.5969,36.8737],[-119.5954,36.8692],[-119.5915,36.866],[-119.5673,36.8512],[-119.5624,36.8506],[-119.5595,36.8516],[-119.5549,36.8488],[-119.5501,36.8482],[-119.5398,36.8375],[-119.5383,36.8305],[-119.531,36.8234],[-119.529,36.8162],[-119.5147,36.8071],[-119.5078,36.8063],[-119.4993,36.8018],[-119.4975,36.7977],[-119.4928,36.7943],[-119.4912,36.7886],[-119.4944,36.7815],[-119.4973,36.7793],[-119.4954,36.7776],[-119.4961,36.7757],[-119.4943,36.7728],[-119.4965,36.7703],[-119.4901,36.7628],[-119.478,36.7676],[-119.4674,36.77],[-119.4416,36.7647],[-119.4365,36.757],[-119.435,36.751],[-119.4375,36.7439],[-119.4331,36.7429],[-119.4343,36.7414],[-119.444,36.7379],[-119.4458,36.7352],[-119.4443,36.7311],[-119.4391,36.7253],[-119.4386,36.7207],[-119.4351,36.7187],[-119.4306,36.7192],[-119.4241,36.7149],[-119.4164,36.7135],[-119.4159,36.712],[-119.4062,36.7112],[-119.4006,36.709],[-119.3867,36.7082],[-119.3842,36.7029],[-119.3798,36.6998],[-119.3733,36.6865],[-119.3694,36.6827],[-119.365,36.68],[-119.3538,36.6763],[-119.3405,36.6638],[-119.3317,36.661],[-119.2509,36.6612],[-119.1065,36.6577],[-118.9848,36.6571],[-118.9824,36.7416],[-118.7509,36.7394],[-118.555,36.7391],[-118.5555,36.7447],[-118.3606,36.7448],[-118.3621,36.7477],[-118.3665,36.7478],[-118.3692,36.75],[-118.3717,36.7612],[-118.3747,36.7641],[-118.372,36.767],[-118.3764,36.7721],[-118.376,36.7785],[-118.3802,36.7822],[-118.3768,36.7855],[-118.375,36.7933],[-118.3728,36.7945],[-118.374,36.8002],[-118.3782,36.8042],[-118.3793,36.8087],[-118.3839,36.8102],[-118.3847,36.8153],[-118.3911,36.821],[-118.3923,36.8235],[-118.3909,36.8256],[-118.3937,36.8297],[-118.3924,36.8326],[-118.3898,36.8345],[-118.3759,36.8345],[-118.3715,36.8361],[-118.3622,36.844],[-118.3631,36.8516],[-118.3622,36.8614],[-118.3656,36.8623],[-118.3662,36.8689],[-118.3699,36.8701],[-118.3702,36.8717],[-118.3671,36.8814],[-118.3624,36.8836],[-118.3608,36.8877],[-118.365,36.8906],[-118.3692,36.8984],[-118.3698,36.9004],[-118.3674,36.907],[-118.371,36.9086],[-118.3815,36.9259],[-118.383,36.9346],[-118.3884,36.9455],[-118.3966,36.9573],[-118.4047,36.9575],[-118.403,36.962],[-118.4048,36.968],[-118.4037,36.9696],[-118.4044,36.972],[-118.4095,36.9752],[-118.4091,36.9805],[-118.4111,36.9829],[-118.4195,36.9874],[-118.4189,36.9948],[-118.4133,36.9968],[-118.4122,36.9983],[-118.4166,37.0014],[-118.4176,37.0043],[-118.4211,37.0076],[-118.4243,37.008],[-118.428,37.0112],[-118.4231,37.0169],[-118.4228,37.0258],[-118.4282,37.0308],[-118.4295,37.0339],[-118.4324,37.0343],[-118.4392,37.039],[-118.4394,37.0428],[-118.4417,37.045],[-118.435,37.0497],[-118.4382,37.0559],[-118.4361,37.0573],[-118.4371,37.0598],[-118.449,37.0691],[-118.4531,37.0673],[-118.4673,37.0667],[-118.4711,37.0727],[-118.4752,37.0743],[-118.4791,37.0742],[-118.4866,37.0774],[-118.4927,37.0875],[-118.4952,37.0881],[-118.498,37.092],[-118.5016,37.0925],[-118.5031,37.0952],[-118.5119,37.0928],[-118.5151,37.0942],[-118.5185,37.0978],[-118.5221,37.0984],[-118.5261,37.1038],[-118.5298,37.1051],[-118.5323,37.1095],[-118.5309,37.1112],[-118.5343,37.1108],[-118.538,37.1136],[-118.5444,37.1137],[-118.5451,37.1154],[-118.551,37.1139],[-118.5594,37.1145],[-118.5641,37.1132],[-118.5684,37.1153],[-118.5677,37.118],[-118.569,37.1226],[-118.5763,37.1237],[-118.5831,37.1224],[-118.5861,37.1249],[-118.5864,37.1283],[-118.588,37.1292],[-118.5899,37.1333],[-118.5891,37.1351],[-118.5927,37.1381],[-118.5996,37.1365],[-118.6059,37.1387],[-118.6074,37.1404],[-118.6124,37.1414],[-118.6134,37.143],[-118.6265,37.1397],[-118.6295,37.1374],[-118.6346,37.1389],[-118.6413,37.1372],[-118.6465,37.1408],[-118.6511,37.1402],[-118.6546,37.1418],[-118.6567,37.1472],[-118.6609,37.1484],[-118.6618,37.1509],[-118.6672,37.1546],[-118.6665,37.1614],[-118.6726,37.1673],[-118.6669,37.1728],[-118.6666,37.1758],[-118.6642,37.1781],[-118.6671,37.1824],[-118.666,37.1861],[-118.6665,37.1895],[-118.6694,37.1904],[-118.6713,37.194],[-118.6737,37.1948],[-118.6746,37.1973],[-118.6813,37.2044],[-118.6756,37.2141],[-118.6791,37.2145],[-118.6791,37.22],[-118.6808,37.2229],[-118.6842,37.2242],[-118.6864,37.2276],[-118.6822,37.234],[-118.6846,37.2376],[-118.6837,37.2444],[-118.678,37.2489],[-118.6748,37.249],[-118.6653,37.2619],[-118.6711,37.2667],[-118.6718,37.2692],[-118.6755,37.2712],[-118.6765,37.2755],[-118.6821,37.2805],[-118.6826,37.2839],[-118.6851,37.287],[-118.6852,37.2905],[-118.6896,37.2934],[-118.6949,37.3018],[-118.695,37.306],[-118.6986,37.3056],[-118.7081,37.3166],[-118.7096,37.3219],[-118.716,37.3282],[-118.7288,37.323],[-118.733,37.3179],[-118.7411,37.3153],[-118.7438,37.3195],[-118.7472,37.3222],[-118.7501,37.3225],[-118.7579,37.3288],[-118.76,37.3288],[-118.7648,37.3315],[-118.7667,37.3311],[-118.7744,37.3348],[-118.7801,37.3349],[-118.7815,37.3387],[-118.7867,37.3434],[-118.7845,37.3517],[-118.7815,37.3564],[-118.7782,37.3583],[-118.7702,37.3589],[-118.7681,37.3612],[-118.7701,37.3662],[-118.768,37.3681],[-118.771,37.3704],[-118.7733,37.3749],[-118.7786,37.376],[-118.7795,37.3816],[-118.7826,37.3827],[-118.7859,37.3891],[-118.79,37.394],[-118.782,37.4077],[-118.7836,37.4133],[-118.7798,37.4217],[-118.7746,37.4246],[-118.7693,37.4222],[-118.7675,37.4236],[-118.7651,37.4297],[-118.7602,37.4336],[-118.7589,37.4445],[-118.7619,37.4488],[-118.7637,37.4542],[-118.7633,37.4565],[-118.7674,37.4563],[-118.7689,37.4581],[-118.7733,37.4595],[-118.7777,37.4665],[-118.7779,37.4694],[-118.7851,37.4739],[-118.786,37.4787],[-118.7883,37.4795],[-118.7919,37.4846],[-118.7971,37.4887],[-118.8043,37.4889],[-118.8103,37.486],[-118.8155,37.4878],[-118.8241,37.4846],[-118.8249,37.4827],[-118.8328,37.4802],[-118.836,37.4825],[-118.8419,37.4809],[-118.8498,37.4759],[-118.856,37.4784],[-118.8572,37.4795],[-118.8554,37.4814],[-118.8596,37.4901],[-118.8585,37.4943],[-118.8608,37.5015],[-118.8675,37.5071],[-118.8757,37.5079],[-118.8817,37.5103],[-118.8813,37.5147],[-118.8829,37.5156],[-118.8837,37.5201],[-118.8875,37.521],[-118.8911,37.5253],[-118.9019,37.526],[-118.9027,37.5288],[-118.9012,37.5312],[-118.9068,37.5378],[-118.9098,37.5393],[-118.9101,37.5414],[-118.9171,37.5503],[-118.9297,37.5489],[-118.9344,37.5533],[-118.939,37.5544],[-118.9427,37.5621],[-118.9464,37.5633],[-118.947,37.565],[-118.9527,37.5658],[-118.9564,37.5627],[-118.9598,37.5631],[-118.9641,37.5581],[-118.9725,37.5594],[-118.977,37.5568],[-118.98,37.5632],[-118.9849,37.5673],[-118.9906,37.5671],[-119.0023,37.5711],[-119.0064,37.5761],[-119.0154,37.5822],[-119.0205,37.5834],[-119.0221,37.5858],[-119.2867,37.3749],[-119.3062,37.3568],[-119.3122,37.3527],[-119.3151,37.3487],[-119.3154,37.3461],[-119.3115,37.3429],[-119.3122,37.3397],[-119.3168,37.3378],[-119.3244,37.3371],[-119.3258,37.3354],[-119.3245,37.3325],[-119.3164,37.3281],[-119.3158,37.3248],[-119.3186,37.3212],[-119.3243,37.3208],[-119.3272,37.319],[-119.3354,37.3112],[-119.334,37.3039],[-119.3305,37.3017],[-119.3269,37.2919],[-119.3312,37.2821],[-119.3323,37.2744],[-119.3264,37.2699],[-119.3246,37.2655],[-119.3245,37.2586],[-119.3222,37.2534],[-119.3221,37.2474],[-119.3232,37.245],[-119.3288,37.2425],[-119.3316,37.2396],[-119.3337,37.224],[-119.3378,37.2192],[-119.336,37.2169],[-119.3307,37.2152],[-119.3294,37.21],[-119.3301,37.2074],[-119.3308,37.2055],[-119.3372,37.2005],[-119.3401,37.1927],[-119.3431,37.1891],[-119.3478,37.1868],[-119.3541,37.1857],[-119.3606,37.1805],[-119.3604,37.1701],[-119.3619,37.1678],[-119.3651,37.1657],[-119.3752,37.1641],[-119.375,37.1579],[-119.385,37.1533],[-119.3861,37.1499],[-119.3888,37.1492],[-119.3998,37.1498],[-119.4068,37.16],[-119.4158,37.1634],[-119.4258,37.1643],[-119.4321,37.1626],[-119.4331,37.1615],[-119.4331,37.152],[-119.4349,37.147],[-119.4427,37.1441],[-119.4546,37.144],[-119.4611,37.1453],[-119.4626,37.1442],[-119.4691,37.1259],[-119.4663,37.1196],[-119.4702,37.1109],[-119.4748,37.11],[-119.4833,37.1103],[-119.4913,37.1197],[-119.4932,37.1246],[-119.4913,37.1318],[-119.4891,37.1346],[-119.4892,37.1373],[-119.4931,37.1417],[-119.5027,37.1467],[-119.506,37.1503],[-119.5093,37.1505],[-119.5175,37.1468],[-119.5199,37.1386],[-119.5223,37.1354],[-119.5233,37.1298],[-119.525,37.1282],[-119.5276,37.1287],[-119.5331,37.133],[-119.54,37.1348],[-119.5432,37.1395],[-119.55,37.1446],[-119.5538,37.1452],[-119.5598,37.1435],[-119.5634,37.1395],[-119.5634,37.1283],[-119.5688,37.1171],[-119.5672,37.1159],[-119.5562,37.1155],[-119.5488,37.1168],[-119.5398,37.109],[-119.5376,37.1051],[-119.5416,37.096],[-119.5532,37.0926],[-119.559,37.0881],[-119.5633,37.0744],[-119.5605,37.0707],[-119.562,37.0687],[-119.5614,37.0655],[-119.563,37.0641],[-119.5684,37.0636],[-119.5807,37.0661],[-119.5848,37.0656],[-119.5894,37.0666],[-119.597,37.0713],[-119.6049,37.071],[-119.6097,37.0647],[-119.6106,37.0578],[-119.6136,37.052],[-119.6104,37.0457],[-119.6211,37.0266],[-119.626,37.0252],[-119.6322,37.021],[-119.6354,37.0215],[-119.636,37.0253],[-119.629,37.0346],[-119.6393,37.0433],[-119.6516,37.043],[-119.6594,37.0389],[-119.6571,37.0189],[-119.6586,37.0133],[-119.6709,37.0093],[-119.6774,37.0091],[-119.6908,37.012],[-119.6939,37.011],[-119.6981,37.0087],[-119.7007,37.0033],[-119.705,37.0007],[-119.7031,36.9981],[-119.7056,36.9944]]]},"properties":{"GEOID":"0601993010","BASENAME":"Sierra","NAME":"Sierra CCD","COUNTY":"019","COUSUB":"93010"}},{"type":"Feature","geometry":{"type":"Polygon","coordinates":[[[-119.6106,36.6065],[-119.6106,36.6053],[-119.5749,36.6051],[-119.575,36.5687],[-119.4873,36.5684],[-119.4877,36.5614],[-119.4899,36.5612],[-119.4899,36.5567],[-119.4663,36.5752],[-119.4578,36.5753],[-119.4578,36.5779],[-119.4634,36.5778],[-119.4715,36.5733],[-119.4696,36.575],[-119.4695,36.5819],[-119.4666,36.5827],[-119.4666,36.5865],[-119.4606,36.5866],[-119.4608,36.5882],[-119.4659,36.5895],[-119.4707,36.5931],[-119.4698,36.5992],[-119.4641,36.6096],[-119.466,36.6133],[-119.4741,36.6216],[-119.4733,36.6242],[-119.4667,36.6289],[-119.4689,36.6324],[-119.4706,36.6396],[-119.4668,36.6448],[-119.4667,36.6468],[-119.4697,36.6487],[-119.4779,36.6478],[-119.4849,36.6535],[-119.49,36.6504],[-119.497,36.653],[-119.5088,36.6543],[-119.5121,36.6533],[-119.5152,36.6547],[-119.5175,36.6587],[-119.5227,36.6611],[-119.5268,36.6606],[-119.5285,36.6646],[-119.5281,36.6702],[-119.5355,36.6707],[-119.5381,36.6726],[-119.5388,36.676],[-119.5416,36.6777],[-119.6104,36.6776],[-119.6106,36.6065]]]},"properties":{"GEOID":"0601992390","BASENAME":"Parlier-Del Rey","NAME":"Parlier-Del Rey CCD","COUNTY":"019","COUSUB":"92390"}},{"type":"Feature","geometry":{"type":"Polygon","coordinates":[[[-120.0313,36.433],[-120.0313,36.4299],[-120.0132,36.4299],[-120.0133,36.4152],[-119.9772,36.4155],[-119.9773,36.4009],[-119.7982,36.402],[-119.7984,36.4383],[-119.7997,36.4383],[-119.7982,36.4456],[-119.7997,36.446],[-119.7985,36.448],[-119.7975,36.4893],[-119.9994,36.4883],[-120.0106,36.481],[-120.0177,36.4674],[-120.0275,36.4591],[-120.0313,36.459],[-120.0313,36.433]]]},"properties":{"GEOID":"0601992630","BASENAME":"Riverdale","NAME":"Riverdale CCD","COUNTY":"019","COUSUB":"92630"}},{"type":"Feature","geometry":{"type":"Polygon","coordinates":[[[-119.621,36.8388],[-119.621,36.8374],[-119.6099,36.8373],[-119.6104,36.6776],[-119.542,36.6777],[-119.5388,36.676],[-119.5381,36.6726],[-119.5355,36.6707],[-119.5281,36.6702],[-119.5281,36.6734],[-119.5247,36.6766],[-119.5239,36.6803],[-119.52,36.6848],[-119.5167,36.6947],[-119.5111,36.699],[-119.5095,36.7042],[-119.4997,36.7085],[-119.4982,36.7111],[-119.4986,36.7137],[-119.4961,36.7159],[-119.4934,36.716],[-119.4891,36.7186],[-119.4866,36.7227],[-119.4836,36.7232],[-119.4828,36.7282],[-119.4807,36.7302],[-119.4774,36.7316],[-119.4718,36.7308],[-119.4667,36.7381],[-119.4629,36.7406],[-119.4612,36.7453],[-119.4534,36.7515],[-119.4465,36.7544],[-119.4426,36.7586],[-119.4432,36.7622],[-119.441,36.7637],[-119.4423,36.7651],[-119.4674,36.77],[-119.478,36.7676],[-119.4901,36.7628],[-119.4965,36.7703],[-119.4943,36.7728],[-119.4961,36.7757],[-119.4954,36.7776],[-119.4973,36.7793],[-119.4944,36.7815],[-119.4912,36.7886],[-119.4928,36.7943],[-119.4975,36.7977],[-119.4993,36.8018],[-119.5078,36.8063],[-119.5147,36.8071],[-119.529,36.8162],[-119.531,36.8234],[-119.5383,36.8305],[-119.5398,36.8375],[-119.5501,36.8482],[-119.5549,36.8488],[-119.5595,36.8516],[-119.5624,36.8506],[-119.5673,36.8512],[-119.5921,36.8668],[-119.6206,36.8664],[-119.621,36.8388]]]},"properties":{"GEOID":"0601992800","BASENAME":"Sanger","NAME":"Sanger CCD","COUNTY":"019","COUSUB":"92800"}},{"type":"Feature","geometry":{"type":"Polygon","coordinates":[[[-120.3934,36.4591],[-120.3932,36.4431],[-120.3432,36.4429],[-120.3387,36.4392],[-120.338,36.4286],[-120.0313,36.4299],[-120.0313,36.459],[-120.0275,36.4591],[-120.0175,36.4675],[-120.0107,36.4809],[-120.0049,36.4853],[-120.0068,36.4871],[-120.0103,36.4864],[-120.0174,36.4876],[-120.0273,36.4974],[-120.0303,36.4965],[-120.0365,36.4987],[-120.042,36.5044],[-120.0495,36.5077],[-120.0513,36.5117],[-120.0615,36.5217],[-120.0617,36.5283],[-120.0659,36.5359],[-120.0695,36.5388],[-120.0796,36.553],[-120.0939,36.5634],[-120.1016,36.574],[-120.1732,36.6462],[-120.2275,36.6837],[-120.2067,36.7192],[-120.2054,36.7239],[-120.2051,36.7346],[-120.3294,36.7343],[-120.361,36.731],[-120.3872,36.7201],[-120.3891,36.4868],[-120.3928,36.4803],[-120.3934,36.4591]]]},"properties":{"GEOID":"0601992820","BASENAME":"San Joaquin-Tranquillity","NAME":"San Joaquin-Tranquillity CCD","COUNTY":"019","COUSUB":"92820"}},{"type":"Feature","geometry":{"type":"Polygon","coordinates":[[[-119.7912,36.4955],[-119.7909,36.4893],[-119.5751,36.4888],[-119.5754,36.53],[-119.5764,36.5324],[-119.5753,36.5341],[-119.5749,36.6051],[-119.6823,36.6054],[-119.6824,36.5909],[-119.7004,36.5909],[-119.7005,36.5764],[-119.7729,36.5763],[-119.7732,36.5038],[-119.7911,36.5038],[-119.7912,36.4955]]]},"properties":{"GEOID":"0601992990","BASENAME":"Selma","NAME":"Selma CCD","COUNTY":"019","COUSUB":"92990"}},{"type":"Feature","geometry":{"type":"Polygon","coordinates":[[[-119.7729,36.5777],[-119.7729,36.5763],[-119.7005,36.5764],[-119.7004,36.5909],[-119.6824,36.5909],[-119.6823,36.6054],[-119.6106,36.6053],[-119.6104,36.6776],[-119.6638,36.6781],[-119.6639,36.6635],[-119.7728,36.6634],[-119.7729,36.5777]]]},"properties":{"GEOID":"0601991060","BASENAME":"Fowler","NAME":"Fowler CCD","COUNTY":"019","COUSUB":"91060"}},{"type":"Feature","geometry":{"type":"Polygon","coordinates":[[[-120.9163,36.7423],[-120.9187,36.7404],[-120.856,36.6898],[-120.8554,36.6925],[-120.8579,36.6977],[-120.8578,36.7023],[-120.86,36.7078],[-120.8715,36.728],[-120.8703,36.7329],[-120.871,36.7401],[-120.8692,36.7455],[-120.8623,36.7474],[-120.8584,36.7499],[-120.86,36.7528],[-120.8593,36.7543],[-120.8471,36.7608],[-120.8385,36.7746],[-120.8345,36.7775],[-120.8147,36.779],[-120.8081,36.7845],[-120.8012,36.7863],[-120.7934,36.7867],[-120.7868,36.7845],[-120.7802,36.7864],[-120.7743,36.786],[-120.7702,36.7879],[-120.7525,36.7856],[-120.7292,36.7779],[-120.531,36.778],[-120.5306,36.7924],[-120.4204,36.7927],[-120.4374,36.8071],[-120.4243,36.8073],[-120.4396,36.8251],[-120.4305,36.8312],[-120.4222,36.8401],[-120.4266,36.8401],[-120.4335,36.8505],[-120.4403,36.85],[-120.4385,36.8545],[-120.4395,36.8557],[-120.4474,36.8566],[-120.449,36.8585],[-120.4486,36.8602],[-120.4529,36.86],[-120.4558,36.8624],[-120.4513,36.8671],[-120.4503,36.8712],[-120.4574,36.873],[-120.4594,36.8753],[-120.4582,36.878],[-120.4546,36.8791],[-120.4537,36.8808],[-120.4565,36.8838],[-120.4653,36.8873],[-120.4668,36.8922],[-120.461,36.9023],[-120.4638,36.9054],[-120.4556,36.9054],[-120.4503,36.9112],[-120.4504,36.9128],[-120.4622,36.9172],[-120.462,36.9194],[-120.4578,36.9215],[-120.4571,36.9236],[-120.4628,36.9282],[-120.468,36.9375],[-120.4735,36.9384],[-120.4756,36.94],[-120.479,36.9488],[-120.478,36.9547],[-120.4842,36.9627],[-120.4889,36.9657],[-120.4887,36.9678],[-120.4842,36.9702],[-120.4841,36.9724],[-120.4882,36.9734],[-120.4909,36.9758],[-120.4948,36.9758],[-120.4954,36.9789],[-120.4995,36.982],[-120.5015,36.9924],[-120.5006,36.9959],[-120.5042,36.9982],[-120.503,37.0006],[-120.5082,37.0003],[-120.509,37.0076],[-120.5138,37.011],[-120.5202,37.0113],[-120.5233,37.0141],[-120.5304,37.0129],[-120.5312,37.014],[-120.5296,37.0179],[-120.5307,37.0202],[-120.5369,37.0193],[-120.5378,37.0239],[-120.5453,37.0269],[-120.5445,37.0292],[-120.5378,37.0342],[-120.5372,37.0406],[-120.5417,37.0445],[-120.5986,36.9986],[-120.5936,36.9979],[-120.5912,36.9928],[-120.588,36.9927],[-120.5852,36.9906],[-120.5864,36.9887],[-120.586,36.9853],[-120.5881,36.9853],[-120.5881,36.9816],[-120.5905,36.9816],[-120.5906,36.9526],[-120.656,36.9528],[-120.9163,36.7423]]]},"properties":{"GEOID":"0601991000","BASENAME":"Firebaugh","NAME":"Firebaugh CCD","COUNTY":"019","COUSUB":"91000"}},{"type":"Feature","geometry":{"type":"Polygon","coordinates":[[[-119.5764,36.5325],[-119.5754,36.53],[-119.5751,36.4888],[-119.5732,36.4888],[-119.5569,36.5021],[-119.5568,36.5034],[-119.5536,36.5034],[-119.5535,36.5049],[-119.55,36.5079],[-119.5463,36.5091],[-119.5463,36.5105],[-119.5372,36.5182],[-119.4899,36.5567],[-119.4899,36.5612],[-119.4877,36.5614],[-119.4873,36.5684],[-119.575,36.5687],[-119.5753,36.5341],[-119.5764,36.5325]]]},"properties":{"GEOID":"0601991480","BASENAME":"Kingsburg","NAME":"Kingsburg CCD","COUNTY":"019","COUSUB":"91480"}},{"type":"Feature","geometry":{"type":"Polygon","coordinates":[[[-119.7997,36.446],[-119.7982,36.4456],[-119.7997,36.4383],[-119.7984,36.4383],[-119.7982,36.402],[-119.7531,36.4019],[-119.7514,36.4043],[-119.7524,36.409],[-119.7469,36.4165],[-119.7384,36.4179],[-119.7349,36.4159],[-119.7301,36.4208],[-119.7214,36.4179],[-119.7134,36.419],[-119.7112,36.4202],[-119.7092,36.4247],[-119.7048,36.4272],[-119.6996,36.4249],[-119.6936,36.4245],[-119.6856,36.4262],[-119.6811,36.4297],[-119.6715,36.4311],[-119.6703,36.4295],[-119.6728,36.4266],[-119.6681,36.4232],[-119.6664,36.4189],[-119.5732,36.4888],[-119.7975,36.4893],[-119.7985,36.448],[-119.7997,36.446]]]},"properties":{"GEOID":"0601991570","BASENAME":"Laton","NAME":"Laton CCD","COUNTY":"019","COUSUB":"91570"}}]}