{"type":"FeatureCollection","features":[{"type":"Feature","geometry":{"type":"Polygon","coordinates":[[[-118.3376,36.6548],[-118.3364,36.653],[-118.3252,36.6471],[-118.3222,36.6414],[-118.3188,36.6389],[-118.3203,36.6372],[-118.3213,36.6274],[-118.311,36.6249],[-118.3093,36.6214],[-118.3028,36.619],[-118.3019,36.6181],[-118.3024,36.6146],[-118.2979,36.6111],[-118.297,36.6073],[-118.2939,36.6051],[-118.289,36.6033],[-118.2816,36.6045],[-118.2746,36.5973],[-118.278,36.5923],[-118.289,36.5907],[-118.288,36.5837],[-118.2928,36.5799],[-118.2922,36.5788],[-118.2941,36.5774],[-118.2898,36.5732],[-118.2926,36.5674],[-118.2913,36.5647],[-118.2921,36.5627],[-118.2912,36.5593],[-118.2862,36.5566],[-118.2794,36.5551],[-118.2759,36.5508],[-118.2653,36.5515],[-118.2612,36.5474],[-118.2602,36.5441],[-118.252,36.5421],[-118.2486,36.5332],[-118.2509,36.5288],[-118.2509,36.5256],[-118.2494,36.524],[-118.2467,36.5214],[-118.2388,36.5236],[-118.2391,36.5128],[-118.2374,36.5115],[-118.2393,36.51],[-118.2381,36.5058],[-118.2414,36.5],[-118.235,36.4937],[-118.2391,36.4907],[-118.2484,36.487],[-118.2499,36.4824],[-118.24,36.4773],[-118.237,36.477],[-118.237,36.4739],[-118.2326,36.4688],[-118.2326,36.4663],[-118.2302,36.4645],[-118.2232,36.4633],[-118.221,36.4598],[-118.2156,36.4563],[-118.2142,36.4482],[-118.2102,36.4448],[-118.2096,36.4421],[-118.211,36.4381],[-118.2146,36.4366],[-118.2144,36.4343],[-118.2098,36.4303],[-118.2037,36.4312],[-118.1993,36.4301],[-118.1978,36.4282],[-118.1936,36.4265],[-118.1901,36.4277],[-118.1847,36.4266],[-118.1783,36.4276],[-118.1749,36.4265],[-118.1711,36.429],[-118.1642,36.4297],[-118.1568,36.4326],[-118.1546,36.4276],[-118.1516,36.4251],[-118.1486,36.4252],[-118.1444,36.4212],[-118.1412,36.4209],[-118.1379,36.418],[-118.1374,36.4153],[-118.1403,36.4035],[-118.1462,36.3986],[-118.1539,36.3968],[-118.16,36.3938],[-118.1629,36.3894],[-118.1571,36.3883],[-118.1531,36.3795],[-118.1473,36.3791],[-118.1431,36.3759],[-118.141,36.3716],[-118.1305,36.3703],[-118.1299,36.3658],[-118.1268,36.3626],[-118.1225,36.3547],[-118.1242,36.3519],[-118.1208,36.3502],[-118.1054,36.3482],[-118.1003,36.3461],[-118.1018,36.3393],[-118.0998,36.3333],[-118.0976,36.3311],[-118.1032,36.327],[-118.103,36.3254],[-118.1076,36.3256],[-118.1125,36.322],[-118.1142,36.3193],[-118.1116,36.3156],[-118.1126,36.3133],[-118.1104,36.3098],[-118.1118,36.3083],[-118.1146,36.307],[-118.1216,36.3068],[-118.1201,36.3022],[-118.127,36.3002],[-118.1257,36.2978],[-118.125,36.2867],[-118.1272,36.2839],[-118.1276,36.2803],[-118.122,36.2777],[-118.1197,36.2731],[-118.1174,36.2712],[-118.1172,36.2657],[-118.1194,36.2556],[-118.1144,36.2478],[-118.1122,36.24],[-118.1052,36.2336],[-118.1052,36.2286],[-118.1086,36.2276],[-118.1092,36.2255],[-118.1056,36.2134],[-118.1019,36.2088],[-118.0946,36.2049],[-118.0907,36.1973],[-118.0859,36.1975],[-118.0737,36.1894],[-118.0717,36.1865],[-118.07,36.1786],[-118.0616,36.1739],[-118.0593,36.1701],[-118.0605,36.1684],[-118.0595,36.1654],[-118.0626,36.1622],[-118.059,36.1578],[-118.0597,36.1508],[-118.0703,36.1444],[-118.0735,36.1403],[-118.071,36.1337],[-118.0716,36.1292],[-118.0683,36.1255],[-118.0682,36.1202],[-118.0663,36.1193],[-118.0663,36.1146],[-118.0646,36.1104],[-118.066,36.1095],[-118.0671,36.1103],[-118.0683,36.1085],[-118.0662,36.1039],[-118.0673,36.0934],[-118.0631,36.0892],[-118.058,36.0919],[-118.0516,36.0835],[-118.0498,36.0767],[-118.0512,36.0734],[-118.0517,36.0595],[-118.0479,36.0559],[-118.0486,36.0532],[-118.0427,36.0485],[-118.044,36.0446],[-118.0463,36.0422],[-118.0395,36.0342],[-118.0414,36.0298],[-118.0371,36.0291],[-118.0346,36.0143],[-118.0354,36.013],[-118.0336,36.0089],[-118.0313,36.007],[-118.019,36.0033],[-118.0145,35.9999],[-118.0143,35.9985],[-118.0121,35.9983],[-118.0107,35.9917],[-118.0062,35.9898],[-118.0064,35.9868],[-118.0036,35.9837],[-118.0053,35.9805],[-118.0039,35.9788],[-118.0045,35.9772],[-118.0096,35.9782],[-118.0114,35.9742],[-118.0146,35.9729],[-118.0125,35.9689],[-118.018,35.9624],[-118.018,35.96],[-118.0167,35.959],[-118.0168,35.9546],[-118.0111,35.9546],[-118.0095,35.9524],[-118.0095,35.9486],[-118.0069,35.9465],[-117.9993,35.9466],[-117.9959,35.9441],[-117.9919,35.9438],[-117.9897,35.9389],[-117.9854,35.9341],[-117.9864,35.9322],[-117.9833,35.9266],[-117.9903,35.914],[-117.989,35.9079],[-117.9854,35.9053],[-117.9877,35.9026],[-117.9871,35.8992],[-117.982,35.8947],[-117.9847,35.8877],[-117.989,35.8841],[-117.9891,35.8813],[-117.9888,35.8798],[-117.9832,35.8756],[-117.9821,35.869],[-117.9808,35.8675],[-117.9895,35.8657],[-117.9937,35.8696],[-117.9967,35.8695],[-118.0023,35.8639],[-118.0055,35.8627],[-118.0074,35.8582],[-118.0048,35.8513],[-118.0054,35.8433],[-118.0029,35.8413],[-118.005,35.8391],[-118.0045,35.8361],[-118.0062,35.829],[-117.9986,35.823],[-118.0005,35.8203],[-118.0077,35.8171],[-118.0089,35.8122],[-118.0075,35.81],[-118.0105,35.8044],[-118.0075,35.7999],[-118.0094,35.7953],[-118.0081,35.7889],[-117.923,35.7867],[-117.9244,35.7984],[-117.6343,35.7977],[-117.5423,35.7958],[-117.3759,35.7951],[-117.1452,35.7955],[-117.1535,35.8131],[-117.1646,35.8288],[-117.1713,35.844],[-117.1799,35.8573],[-117.178,35.8669],[-117.1839,35.8818],[-117.1848,35.8873],[-117.2017,35.8966],[-117.2083,35.9035],[-117.2097,35.9075],[-117.2091,35.9159],[-117.2035,35.9191],[-117.2016,35.9224],[-117.2015,35.9293],[-117.2041,35.9342],[-117.2046,35.9406],[-117.2031,35.9525],[-117.2078,35.9611],[-117.2034,35.9714],[-117.2039,35.9734],[-117.208,35.9764],[-117.2112,35.9815],[-117.2198,35.988],[-117.2218,35.9951],[-117.2188,36.0055],[-117.2204,36.0088],[-117.2193,36.0122],[-117.2216,36.0141],[-117.222,36.0165],[-117.2178,36.0213],[-117.2223,36.0242],[-117.2239,36.0274],[-117.2222,36.0321],[-117.2246,36.0347],[-117.2255,36.0393],[-117.221,36.0429],[-117.2255,36.0494],[-117.2262,36.0543],[-117.2206,36.0783],[-117.2263,36.0886],[-117.2289,36.0963],[-117.2266,36.1069],[-117.2216,36.1121],[-117.2155,36.115],[-117.2157,36.1175],[-117.2137,36.1197],[-117.2147,36.1229],[-117.2136,36.1272],[-117.2202,36.1335],[-117.2255,36.1411],[-117.2303,36.1424],[-117.2394,36.1473],[-117.2486,36.1484],[-117.2656,36.1468],[-117.3001,36.1635],[-117.3003,36.169],[-117.3038,36.1705],[-117.3118,36.181],[-117.3272,36.1905],[-117.3386,36.2095],[-117.3416,36.2219],[-117.3479,36.2341],[-117.3587,36.2656],[-117.3972,36.3077],[-117.4237,36.3395],[-117.4552,36.3367],[-117.4694,36.3399],[-117.4781,36.3353],[-117.4811,36.3423],[-117.4922,36.3465],[-117.5044,36.3456],[-117.5063,36.3418],[-117.5089,36.342],[-117.5119,36.3401],[-117.5183,36.3449],[-117.5277,36.3485],[-117.5275,36.3514],[-117.5292,36.3546],[-117.5285,36.3577],[-117.5295,36.3584],[-117.5349,36.3576],[-117.5354,36.3558],[-117.5344,36.354],[-117.5363,36.3522],[-117.5351,36.3509],[-117.5359,36.3489],[-117.537,36.348],[-117.5407,36.3484],[-117.5383,36.3455],[-117.54,36.344],[-117.5437,36.3493],[-117.5489,36.3489],[-117.5506,36.3512],[-117.5533,36.3522],[-117.5573,36.3514],[-117.5644,36.3533],[-117.5716,36.3528],[-117.5745,36.3552],[-117.5749,36.3588],[-117.578,36.3587],[-117.5829,36.3617],[-117.5851,36.3694],[-117.5889,36.3745],[-117.5956,36.38],[-117.603,36.377],[-117.6341,36.3592],[-117.6583,36.3272],[-117.6665,36.3209],[-117.6776,36.3161],[-117.686,36.3169],[-117.6945,36.3247],[-117.7023,36.3288],[-117.7472,36.3349],[-117.7529,36.3374],[-117.7714,36.349],[-117.7798,36.3585],[-117.79,36.3647],[-117.8004,36.3745],[-117.8038,36.3804],[-117.8113,36.4091],[-117.8138,36.415],[-117.8618,36.4827],[-117.8709,36.4893],[-117.893,36.5101],[-117.9044,36.5238],[-117.9309,36.5405],[-118.0019,36.6042],[-118.079,36.7399],[-118.1086,36.7394],[-118.1119,36.7408],[-118.1147,36.7394],[-118.1384,36.7395],[-118.1494,36.7346],[-118.1569,36.7437],[-118.1688,36.7401],[-118.1723,36.7376],[-118.1765,36.7374],[-118.1804,36.7349],[-118.1848,36.7344],[-118.1957,36.7276],[-118.2079,36.7228],[-118.2203,36.7219],[-118.2354,36.7179],[-118.2563,36.7184],[-118.2645,36.7167],[-118.2683,36.7189],[-118.2774,36.713],[-118.2819,36.7078],[-118.2871,36.7067],[-118.2905,36.7028],[-118.2901,36.7014],[-118.2879,36.701],[-118.2877,36.6974],[-118.2938,36.6908],[-118.3026,36.6858],[-118.3114,36.6723],[-118.3151,36.6693],[-118.3185,36.6703],[-118.3237,36.6675],[-118.3286,36.6598],[-118.3376,36.6548]]]},"properties":{"GEOID":"0602791720","BASENAME":"Lone Pine","NAME":"Lone Pine CCD","COUNTY":"027","COUSUB":"91720"}},{"type":"Feature","geometry":{"type":"Polygon","coordinates":[[[-118.5384,37.1306],[-118.5374,37.1231],[-118.5327,37.1185],[-118.5307,37.1142],[-118.532,37.1085],[-118.5298,37.1051],[-118.5261,37.1038],[-118.5221,37.0984],[-118.5185,37.0978],[-118.5151,37.0942],[-118.5119,37.0928],[-118.5031,37.0952],[-118.5016,37.0925],[-118.498,37.092],[-118.4952,37.0881],[-118.4927,37.0875],[-118.4866,37.0774],[-118.4791,37.0742],[-118.4752,37.0743],[-118.4711,37.0727],[-118.4673,37.0667],[-118.4531,37.0673],[-118.449,37.0691],[-118.4371,37.0598],[-118.4361,37.0573],[-118.4382,37.0559],[-118.435,37.0497],[-118.4417,37.045],[-118.4394,37.0428],[-118.4392,37.039],[-118.4324,37.0343],[-118.4295,37.0339],[-118.4282,37.0308],[-118.4228,37.0258],[-118.4231,37.0169],[-118.428,37.0112],[-118.4243,37.008],[-118.4211,37.0076],[-118.4176,37.0043],[-118.4166,37.0014],[-118.4122,36.9983],[-118.4133,36.9968],[-118.4189,36.9948],[-118.4195,36.9874],[-118.4111,36.9829],[-118.4091,36.9805],[-118.4095,36.9752],[-118.4044,36.972],[-118.4037,36.9696],[-118.4048,36.968],[-118.403,36.962],[-118.4047,36.9575],[-118.3966,36.9573],[-118.3931,36.9526],[-118.383,36.9346],[-118.3815,36.9259],[-118.371,36.9086],[-118.3674,36.907],[-118.3698,36.9004],[-118.3692,36.8984],[-118.365,36.8906],[-118.3608,36.8877],[-118.3608,36.8858],[-118.3624,36.8836],[-118.3671,36.8814],[-118.3702,36.8707],[-118.3662,36.8689],[-118.3656,36.8623],[-118.3622,36.8614],[-118.3631,36.8516],[-118.3615,36.8453],[-118.3633,36.8425],[-118.3715,36.8361],[-118.3759,36.8345],[-118.3898,36.8345],[-118.3924,36.8326],[-118.3937,36.8297],[-118.3909,36.8256],[-118.3923,36.8235],[-118.3911,36.821],[-118.3847,36.8153],[-118.3839,36.8102],[-118.3793,36.8087],[-118.3782,36.8042],[-118.374,36.8002],[-118.3728,36.7945],[-118.375,36.7933],[-118.3768,36.7855],[-118.3802,36.7822],[-118.376,36.7785],[-118.3764,36.7721],[-118.372,36.767],[-118.3747,36.7641],[-118.3717,36.7612],[-118.3692,36.75],[-118.3665,36.7478],[-118.3621,36.7477],[-118.3601,36.7441],[-118.3567,36.7422],[-118.3513,36.741],[-118.3458,36.7339],[-118.339,36.7278],[-118.3347,36.7053],[-118.3387,36.7024],[-118.3413,36.7021],[-118.3467,36.6965],[-118.3517,36.6948],[-118.361,36.6951],[-118.3645,36.6938],[-118.3664,36.6912],[-118.3642,36.6879],[-118.361,36.686],[-118.352,36.6829],[-118.3475,36.676],[-118.3475,36.6723],[-118.3399,36.6727],[-118.3334,36.6714],[-118.3312,36.6694],[-118.3295,36.6654],[-118.3356,36.6616],[-118.3375,36.6589],[-118.3379,36.6548],[-118.3286,36.6598],[-118.3237,36.6675],[-118.3185,36.6703],[-118.3151,36.6693],[-118.3114,36.6723],[-118.3026,36.6858],[-118.2938,36.6908],[-118.2877,36.6974],[-118.2879,36.701],[-118.2901,36.7014],[-118.2905,36.7028],[-118.2871,36.7067],[-118.2819,36.7078],[-118.2774,36.713],[-118.2683,36.7189],[-118.2645,36.7167],[-118.2563,36.7184],[-118.2354,36.7179],[-118.2203,36.7219],[-118.2079,36.7228],[-118.1957,36.7276],[-118.1848,36.7344],[-118.1804,36.7349],[-118.1765,36.7374],[-118.1723,36.7376],[-118.1688,36.7401],[-118.1569,36.7437],[-118.1494,36.7346],[-118.1384,36.7395],[-118.1147,36.7394],[-118.1119,36.7408],[-118.1086,36.7394],[-118.079,36.7399],[-118.0019,36.6042],[-117.9309,36.5405],[-117.9044,36.5238],[-117.893,36.5101],[-117.8709,36.4893],[-117.8616,36.4824],[-117.8138,36.415],[-117.8113,36.4091],[-117.8031,36.3785],[-117.7996,36.3734],[-117.79,36.3647],[-117.7806,36.3592],[-117.7709,36.3486],[-117.7501,36.3359],[-117.7023,36.3288],[-117.6945,36.3247],[-117.686,36.3169],[-117.6797,36.3158],[-117.6669,36.3207],[-117.6589,36.3266],[-117.6358,36.3575],[-117.6261,36.3638],[-117.6306,36.386],[-117.6355,36.391],[-117.6367,36.3958],[-117.6334,36.4011],[-117.6334,36.4052],[-117.6405,36.419],[-117.6417,36.4264],[-117.6374,36.4306],[-117.6235,36.4328],[-117.623,36.4368],[-117.6255,36.4408],[-117.6224,36.444],[-117.6216,36.4487],[-117.6242,36.4541],[-117.6238,36.4585],[-117.627,36.4669],[-117.6152,36.4889],[-117.6129,36.4962],[-117.6064,36.5004],[-117.604,36.5035],[-117.6015,36.504],[-117.5979,36.5016],[-117.5928,36.5022],[-117.5887,36.5007],[-117.5843,36.5024],[-117.5798,36.5021],[-117.5777,36.507],[-117.5691,36.5132],[-117.5651,36.5147],[-117.5616,36.5188],[-117.5563,36.5221],[-117.5494,36.5229],[-117.5467,36.5249],[-117.5468,36.527],[-117.5654,36.5364],[-117.5679,36.5358],[-117.5659,36.5379],[-117.5677,36.5427],[-117.5723,36.5435],[-117.5742,36.5467],[-117.5731,36.5496],[-117.5752,36.5501],[-117.5769,36.5549],[-117.5811,36.5583],[-117.5871,36.5591],[-117.5867,36.5607],[-117.5888,36.5611],[-117.5897,36.564],[-117.5927,36.565],[-117.5945,36.568],[-117.6021,36.5658],[-117.6058,36.5664],[-117.6078,36.5689],[-117.6155,36.5732],[-117.6254,36.5812],[-117.6277,36.5852],[-117.6291,36.5928],[-117.6306,36.5934],[-117.6301,36.5964],[-117.6336,36.6026],[-117.6365,36.6071],[-117.6469,36.613],[-117.6489,36.6198],[-117.627,36.6395],[-117.6245,36.6448],[-117.6242,36.651],[-117.626,36.6512],[-117.6247,36.6521],[-117.6215,36.6513],[-117.6166,36.6531],[-117.6081,36.6482],[-117.5954,36.6437],[-117.5972,36.6425],[-117.5912,36.6418],[-117.5905,36.641],[-117.5925,36.6402],[-117.5847,36.637],[-117.5817,36.6378],[-117.5804,36.6402],[-117.5745,36.6416],[-117.5727,36.6523],[-117.5697,36.6567],[-117.5682,36.6679],[-117.5726,36.6841],[-117.5713,36.6928],[-117.5717,36.705],[-117.5744,36.7153],[-117.5728,36.7276],[-117.5734,36.741],[-117.5767,36.7453],[-117.5603,36.7502],[-117.5574,36.7535],[-117.538,36.7626],[-117.5312,36.7758],[-117.5196,36.7873],[-117.5205,36.7904],[-117.5198,36.7931],[-117.517,36.795],[-117.5166,36.7992],[-117.5142,36.8019],[-117.5103,36.811],[-117.5106,36.8197],[-117.4987,36.8495],[-117.4968,36.8514],[-117.5033,36.8588],[-117.4991,36.866],[-117.4989,36.8713],[-117.5007,36.875],[-117.4998,36.877],[-117.5058,36.8846],[-117.5018,36.8914],[-117.5015,36.8978],[-117.4973,36.9081],[-117.4979,36.9145],[-117.4956,36.9191],[-117.4928,36.9325],[-117.4901,36.937],[-117.4894,36.9474],[-117.483,36.9581],[-117.4768,36.961],[-117.4724,36.967],[-117.4697,36.9741],[-117.4692,36.9807],[-117.4706,36.9858],[-117.4681,36.9918],[-117.4688,36.9959],[-117.4644,37.0032],[-117.4618,37.0116],[-117.4578,37.0128],[-117.456,37.0101],[-117.454,37.0141],[-117.4499,37.0151],[-117.4469,37.0179],[-117.4359,37.0188],[-117.4181,37.0174],[-117.4131,37.0186],[-117.3924,37.0079],[-117.3666,36.9985],[-117.359,37.001],[-117.3529,37.0116],[-117.3484,37.0143],[-117.3482,37.017],[-117.344,37.0203],[-117.3415,37.0308],[-117.3341,37.0328],[-117.3288,37.0311],[-117.3215,37.033],[-117.3123,37.0324],[-117.3038,37.0346],[-117.3012,37.0393],[-117.3034,37.0418],[-117.3001,37.0481],[-117.2966,37.0494],[-117.2947,37.0517],[-117.291,37.0525],[-117.286,37.0599],[-117.5001,37.2204],[-117.5814,37.2789],[-117.6806,37.3534],[-117.7124,37.3749],[-117.8327,37.4649],[-117.9169,37.4652],[-117.9184,37.4548],[-117.9199,37.4523],[-117.9264,37.4484],[-117.9357,37.4485],[-117.9373,37.4441],[-117.9444,37.4415],[-117.9448,37.4399],[-117.9425,37.436],[-117.9385,37.4335],[-117.939,37.4304],[-117.9436,37.4295],[-117.9458,37.4334],[-117.949,37.4323],[-117.9516,37.4339],[-117.9549,37.4283],[-117.9549,37.4257],[-117.9591,37.4221],[-117.9584,37.4208],[-117.9607,37.4161],[-117.965,37.4149],[-117.968,37.4164],[-117.9693,37.4153],[-117.9811,37.3915],[-118.0409,37.3288],[-118.0649,37.323],[-118.0967,37.3181],[-118.1034,37.3136],[-118.1141,37.3124],[-118.1336,37.311],[-118.1352,37.3141],[-118.139,37.3134],[-118.1443,37.3182],[-118.1473,37.3187],[-118.1532,37.317],[-118.1555,37.3138],[-118.1563,37.3053],[-118.1536,37.2987],[-118.1506,37.2799],[-118.1522,37.2718],[-118.1571,37.2635],[-118.154,37.2608],[-118.1511,37.261],[-118.1506,37.2592],[-118.1572,37.2567],[-118.158,37.2551],[-118.1618,37.2535],[-118.1618,37.2523],[-118.1742,37.25],[-118.1802,37.2462],[-118.1843,37.2471],[-118.1858,37.2456],[-118.1952,37.2427],[-118.1986,37.2392],[-118.2012,37.2383],[-118.2081,37.2299],[-118.2158,37.2263],[-118.222,37.2214],[-118.2375,37.2139],[-118.243,37.2067],[-118.2427,37.1982],[-118.2497,37.1931],[-118.2513,37.186],[-118.2601,37.1825],[-118.2702,37.1746],[-118.2747,37.1734],[-118.2866,37.1734],[-118.296,37.1793],[-118.3043,37.1876],[-118.3077,37.1848],[-118.3076,37.1719],[-118.31,37.1685],[-118.3215,37.1631],[-118.3233,37.161],[-118.3305,37.1593],[-118.3443,37.1527],[-118.3598,37.1491],[-118.3631,37.1463],[-118.3668,37.1469],[-118.3686,37.1439],[-118.3737,37.1433],[-118.3883,37.1464],[-118.3893,37.148],[-118.3876,37.1501],[-118.3947,37.1519],[-118.3952,37.1539],[-118.3991,37.1564],[-118.4074,37.1574],[-118.4112,37.1559],[-118.4148,37.1576],[-118.4206,37.1574],[-118.4385,37.1664],[-118.443,37.1658],[-118.4475,37.1702],[-118.451,37.1711],[-118.4671,37.1704],[-118.4715,37.169],[-118.4734,37.1665],[-118.4775,37.1662],[-118.4823,37.1636],[-118.4894,37.1574],[-118.4944,37.1573],[-118.4958,37.1556],[-118.4988,37.1567],[-118.5047,37.1557],[-118.5049,37.1569],[-118.5096,37.1571],[-118.5188,37.1512],[-118.5269,37.1485],[-118.5344,37.142],[-118.5384,37.1306]]]},"properties":{"GEOID":"0602791390","BASENAME":"Independence","NAME":"Independence CCD","COUNTY":"027","COUSUB":"91390"}},{"type":"Feature","geometry":{"type":"Polygon","coordinates":[[[-118.79,37.394],[-118.7859,37.3891],[-118.7826,37.3827],[-118.7795,37.3816],[-118.7786,37.376],[-118.7733,37.3749],[-118.771,37.3704],[-118.7677,37.3677],[-118.7701,37.3662],[-118.7686,37.3598],[-118.7727,37.3583],[-118.7782,37.3583],[-118.7815,37.3564],[-118.7845,37.3517],[-118.7867,37.3434],[-118.7815,37.3387],[-118.7801,37.3349],[-118.7744,37.3348],[-118.7667,37.3311],[-118.7648,37.3315],[-118.76,37.3288],[-118.7579,37.3288],[-118.7501,37.3225],[-118.7472,37.3222],[-118.7438,37.3195],[-118.7411,37.3153],[-118.733,37.3179],[-118.7288,37.323],[-118.716,37.3282],[-118.7096,37.3219],[-118.7081,37.3166],[-118.6986,37.3056],[-118.695,37.306],[-118.6949,37.3018],[-118.6896,37.2934],[-118.6852,37.2905],[-118.6851,37.287],[-118.6826,37.2839],[-118.6821,37.2805],[-118.6765,37.2755],[-118.6755,37.2712],[-118.6718,37.2692],[-118.6711,37.2667],[-118.6653,37.2619],[-118.6748,37.249],[-118.678,37.2489],[-118.6837,37.2444],[-118.6846,37.2376],[-118.6822,37.234],[-118.6864,37.2276],[-118.6842,37.2242],[-118.6808,37.2229],[-118.6791,37.22],[-118.6791,37.2145],[-118.6756,37.2141],[-118.6813,37.2044],[-118.6746,37.1973],[-118.6737,37.1948],[-118.6713,37.194],[-118.6694,37.1904],[-118.6665,37.1895],[-118.666,37.1861],[-118.6671,37.1824],[-118.6642,37.1781],[-118.6666,37.1758],[-118.6669,37.1728],[-118.6726,37.1673],[-118.6665,37.1614],[-118.6672,37.1546],[-118.6618,37.1509],[-118.6609,37.1484],[-118.6567,37.1472],[-118.6546,37.1418],[-118.6511,37.1402],[-118.6465,37.1408],[-118.6413,37.1372],[-118.6346,37.1389],[-118.6295,37.1374],[-118.6265,37.1397],[-118.6134,37.143],[-118.6124,37.1414],[-118.6074,37.1404],[-118.6059,37.1387],[-118.5996,37.1365],[-118.5927,37.1381],[-118.5891,37.1351],[-118.5899,37.1333],[-118.5842,37.123],[-118.5819,37.1223],[-118.5756,37.1237],[-118.569,37.1226],[-118.5677,37.118],[-118.5684,37.1153],[-118.5641,37.1132],[-118.5594,37.1145],[-118.551,37.1139],[-118.5451,37.1154],[-118.5444,37.1137],[-118.538,37.1136],[-118.5329,37.1109],[-118.5306,37.1116],[-118.5314,37.1163],[-118.5374,37.1231],[-118.5387,37.1286],[-118.5353,37.1403],[-118.5324,37.1447],[-118.5096,37.1571],[-118.5049,37.1569],[-118.5047,37.1557],[-118.4988,37.1567],[-118.4958,37.1556],[-118.4944,37.1573],[-118.4894,37.1574],[-118.4823,37.1636],[-118.4775,37.1662],[-118.4734,37.1665],[-118.4715,37.169],[-118.4672,37.1704],[-118.451,37.1711],[-118.4475,37.1702],[-118.443,37.1658],[-118.4385,37.1664],[-118.4206,37.1574],[-118.4148,37.1576],[-118.4112,37.1559],[-118.4074,37.1574],[-118.3991,37.1564],[-118.3952,37.1539],[-118.3947,37.1519],[-118.3876,37.1501],[-118.3893,37.148],[-118.3883,37.1464],[-118.3737,37.1433],[-118.3686,37.1439],[-118.3668,37.1469],[-118.3631,37.1463],[-118.3598,37.1491],[-118.3443,37.1527],[-118.3305,37.1593],[-118.3233,37.161],[-118.3215,37.1631],[-118.31,37.1685],[-118.3076,37.1719],[-118.3077,37.1848],[-118.3043,37.1876],[-118.296,37.1793],[-118.2866,37.1734],[-118.2747,37.1734],[-118.2692,37.1751],[-118.2601,37.1825],[-118.2511,37.1863],[-118.2497,37.1931],[-118.2427,37.1982],[-118.243,37.2067],[-118.2375,37.2139],[-118.222,37.2214],[-118.2158,37.2263],[-118.2081,37.2299],[-118.2012,37.2383],[-118.1986,37.2392],[-118.1952,37.2427],[-118.1858,37.2456],[-118.1843,37.2471],[-118.1802,37.2462],[-118.1742,37.25],[-118.1618,37.2523],[-118.1618,37.2535],[-118.158,37.2551],[-118.1572,37.2567],[-118.1506,37.2592],[-118.1511,37.261],[-118.154,37.2608],[-118.1571,37.2635],[-118.1522,37.2718],[-118.1506,37.2799],[-118.1536,37.2987],[-118.1563,37.3053],[-118.1555,37.3138],[-118.1534,37.3168],[-118.1473,37.3187],[-118.1443,37.3182],[-118.139,37.3134],[-118.1352,37.3141],[-118.1336,37.311],[-118.1141,37.3124],[-118.1034,37.3136],[-118.0967,37.3181],[-118.0649,37.323],[-118.0404,37.3291],[-117.9811,37.3915],[-117.9693,37.4153],[-117.968,37.4164],[-117.965,37.4149],[-117.9607,37.4161],[-117.9584,37.4208],[-117.9591,37.4221],[-117.9549,37.4257],[-117.9549,37.4283],[-117.9516,37.4339],[-117.949,37.4323],[-117.9458,37.4334],[-117.9436,37.4295],[-117.939,37.4304],[-117.9385,37.4335],[-117.9425,37.436],[-117.9448,37.4399],[-117.9444,37.4415],[-117.9373,37.4441],[-117.9357,37.4485],[-117.9264,37.4484],[-117.9199,37.4523],[-117.9184,37.4548],[-117.9169,37.4652],[-118.0071,37.4633],[-118.204,37.4626],[-118.775,37.4631],[-118.7721,37.4585],[-118.7689,37.4581],[-118.7674,37.4563],[-118.7633,37.4565],[-118.7637,37.4542],[-118.7619,37.4488],[-118.7589,37.4445],[-118.7596,37.4356],[-118.7615,37.4319],[-118.7651,37.4297],[-118.7675,37.4236],[-118.7693,37.4222],[-118.7746,37.4246],[-118.7798,37.4217],[-118.7836,37.4133],[-118.782,37.4077],[-118.79,37.394]]]},"properties":{"GEOID":"0602790250","BASENAME":"Bishop","NAME":"Bishop CCD","COUNTY":"027","COUSUB":"90250"}},{"type":"Feature","geometry":{"type":"Polygon","coordinates":[[[-117.6489,36.6198],[-117.6469,36.613],[-117.6364,36.607],[-117.6301,36.5965],[-117.6306,36.5934],[-117.6291,36.5928],[-117.6276,36.585],[-117.6228,36.5788],[-117.6078,36.5689],[-117.6058,36.5664],[-117.6021,36.5658],[-117.5945,36.568],[-117.5927,36.565],[-117.5897,36.564],[-117.5888,36.5611],[-117.5867,36.5607],[-117.5871,36.5591],[-117.5811,36.5583],[-117.5769,36.5549],[-117.5752,36.5501],[-117.5731,36.5496],[-117.5742,36.5467],[-117.5723,36.5435],[-117.5677,36.5427],[-117.5659,36.5379],[-117.5679,36.5358],[-117.5654,36.5364],[-117.5468,36.527],[-117.5471,36.5241],[-117.557,36.5217],[-117.5619,36.5186],[-117.5651,36.5147],[-117.5691,36.5132],[-117.5772,36.5074],[-117.5798,36.5021],[-117.5843,36.5024],[-117.5885,36.5007],[-117.5928,36.5022],[-117.5979,36.5016],[-117.5995,36.5035],[-117.6038,36.5036],[-117.6142,36.4941],[-117.6152,36.4889],[-117.627,36.4669],[-117.6238,36.4585],[-117.6242,36.4541],[-117.6216,36.4487],[-117.6224,36.444],[-117.6255,36.4408],[-117.623,36.4368],[-117.6235,36.4328],[-117.6374,36.4306],[-117.6417,36.4264],[-117.6405,36.419],[-117.6334,36.4052],[-117.6334,36.4011],[-117.6367,36.3958],[-117.6355,36.391],[-117.6306,36.386],[-117.6261,36.3638],[-117.603,36.377],[-117.5953,36.38],[-117.5889,36.3745],[-117.5851,36.3694],[-117.5829,36.3617],[-117.578,36.3587],[-117.5749,36.3588],[-117.5745,36.3552],[-117.5716,36.3528],[-117.5644,36.3533],[-117.5573,36.3514],[-117.5533,36.3522],[-117.5506,36.3512],[-117.5489,36.3489],[-117.5437,36.3493],[-117.54,36.344],[-117.5383,36.3455],[-117.5407,36.3484],[-117.537,36.348],[-117.5359,36.3489],[-117.5351,36.3509],[-117.5363,36.3522],[-117.5344,36.354],[-117.5354,36.3558],[-117.5349,36.3576],[-117.5295,36.3584],[-117.5285,36.3577],[-117.5292,36.3546],[-117.5275,36.3514],[-117.5277,36.3485],[-117.5183,36.3449],[-117.5119,36.3401],[-117.5089,36.342],[-117.5063,36.3418],[-117.5044,36.3456],[-117.4922,36.3465],[-117.4811,36.3423],[-117.4781,36.3353],[-117.4694,36.3399],[-117.4552,36.3367],[-117.4237,36.3395],[-117.3972,36.3077],[-117.3587,36.2656],[-117.3479,36.2341],[-117.3416,36.2219],[-117.3386,36.2095],[-117.3272,36.1905],[-117.3118,36.181],[-117.3038,36.1705],[-117.3003,36.169],[-117.3001,36.1635],[-117.2656,36.1468],[-117.2486,36.1484],[-117.2394,36.1473],[-117.2303,36.1424],[-117.2255,36.1411],[-117.2202,36.1335],[-117.2136,36.1272],[-117.2147,36.1229],[-117.2137,36.1197],[-117.2157,36.1175],[-117.2155,36.115],[-117.2216,36.1121],[-117.2266,36.1069],[-117.2289,36.0963],[-117.2263,36.0886],[-117.2206,36.0783],[-117.2262,36.0543],[-117.2255,36.0494],[-117.221,36.0429],[-117.2255,36.0393],[-117.2246,36.0347],[-117.2222,36.0321],[-117.2239,36.0274],[-117.2223,36.0242],[-117.2178,36.0213],[-117.222,36.0165],[-117.2216,36.0141],[-117.2193,36.0122],[-117.2204,36.0088],[-117.2188,36.0055],[-117.2218,35.9951],[-117.2198,35.988],[-117.2112,35.9815],[-117.208,35.9764],[-117.2039,35.9734],[-117.2034,35.9714],[-117.2078,35.9611],[-117.2031,35.9525],[-117.2046,35.9406],[-117.2041,35.9342],[-117.2015,35.9293],[-117.2016,35.9224],[-117.2035,35.9191],[-117.2091,35.9159],[-117.2097,35.9075],[-117.2083,35.9035],[-117.2017,35.8966],[-117.1848,35.8873],[-117.1839,35.8818],[-117.178,35.8669],[-117.1799,35.8573],[-117.1713,35.844],[-117.1646,35.8288],[-117.1535,35.8131],[-117.1452,35.7955],[-116.6511,35.7954],[-116.2112,35.7933],[-115.7359,35.7936],[-115.7357,35.8091],[-115.6484,35.8092],[-116.0942,36.1563],[-116.3759,36.3726],[-116.3803,36.375],[-116.4882,36.4591],[-117.0009,36.8477],[-117.286,37.0599],[-117.291,37.0525],[-117.2947,37.0517],[-117.2966,37.0494],[-117.3001,37.0481],[-117.3034,37.0418],[-117.3012,37.0393],[-117.3038,37.0346],[-117.3123,37.0324],[-117.3215,37.033],[-117.3288,37.0311],[-117.3341,37.0328],[-117.3415,37.0308],[-117.344,37.0203],[-117.3482,37.017],[-117.3484,37.0143],[-117.3529,37.0116],[-117.359,37.001],[-117.3666,36.9985],[-117.3924,37.0079],[-117.4131,37.0186],[-117.4181,37.0174],[-117.4359,37.0188],[-117.4469,37.0179],[-117.4499,37.0151],[-117.454,37.0141],[-117.456,37.0101],[-117.4578,37.0128],[-117.4617,37.0117],[-117.4644,37.0032],[-117.4688,36.9959],[-117.4681,36.9918],[-117.4706,36.9858],[-117.4692,36.9807],[-117.4697,36.9741],[-117.4724,36.967],[-117.4768,36.961],[-117.483,36.9581],[-117.4894,36.9474],[-117.4901,36.937],[-117.4928,36.9325],[-117.4956,36.9191],[-117.4979,36.9145],[-117.4973,36.9081],[-117.5015,36.8978],[-117.5018,36.8914],[-117.5058,36.8846],[-117.4998,36.877],[-117.5007,36.875],[-117.4989,36.8713],[-117.4991,36.866],[-117.5033,36.8588],[-117.4968,36.8514],[-117.4987,36.8495],[-117.5106,36.8197],[-117.5103,36.811],[-117.5142,36.8019],[-117.5166,36.7992],[-117.517,36.795],[-117.5198,36.7931],[-117.5205,36.7904],[-117.5196,36.7873],[-117.5312,36.7758],[-117.538,36.7626],[-117.5574,36.7535],[-117.5603,36.7502],[-117.5767,36.7453],[-117.5734,36.741],[-117.5728,36.7276],[-117.5744,36.7153],[-117.5717,36.705],[-117.5713,36.6928],[-117.5726,36.6841],[-117.5682,36.6679],[-117.5697,36.6567],[-117.5727,36.6523],[-117.5745,36.6416],[-117.5804,36.6402],[-117.5817,36.6378],[-117.5847,36.637],[-117.5925,36.6402],[-117.5905,36.641],[-117.5912,36.6418],[-117.5972,36.6425],[-117.5954,36.6437],[-117.6081,36.6482],[-117.6166,36.6531],[-117.6215,36.6513],[-117.6247,36.6521],[-117.626,36.6512],[-117.6242,36.651],[-117.6245,36.6448],[-117.627,36.6395],[-117.6489,36.6198]]]},"properties":{"GEOID":"0602790650","BASENAME":"Death Valley","NAME":"Death Valley CCD","COUNTY":"027","COUSUB":"90650"}}]}