{"type":"FeatureCollection","features":[{"type":"Feature","geometry":{"type":"Polygon","coordinates":[[[-119.647,35.4993],[-119.6408,35.4873],[-119.6384,35.4787],[-119.638,35.4667],[-119.6327,35.4575],[-119.6115,35.4286],[-119.604,35.4222],[-119.5986,35.4154],[-119.5875,35.4083],[-119.5652,35.4011],[-119.5561,35.3928],[-119.5477,35.3918],[-119.5423,35.3893],[-119.5313,35.376],[-119.5229,35.3684],[-119.5136,35.3661],[-119.5045,35.3604],[-119.4898,35.3616],[-119.4762,35.355],[-119.4688,35.3468],[-119.458,35.3459],[-119.4513,35.3397],[-119.434,35.3359],[-119.4212,35.3301],[-119.4171,35.3245],[-119.4097,35.3255],[-119.4014,35.3222],[-119.394,35.3211],[-119.3867,35.3147],[-119.3783,35.3116],[-119.372,35.306],[-119.3682,35.3057],[-119.3554,35.3005],[-119.3498,35.3001],[-119.3409,35.2944],[-119.3385,35.2905],[-119.3328,35.2888],[-119.3263,35.2836],[-119.3199,35.2751],[-119.312,35.27],[-119.3098,35.2663],[-119.3007,35.2676],[-119.2527,35.2674],[-119.2518,35.4417],[-119.4742,35.4424],[-119.4747,35.5004],[-119.492,35.5013],[-119.5283,35.5008],[-119.5466,35.4993],[-119.647,35.4993]]]},"properties":{"GEOID":"0602990300","BASENAME":"Buttonwillow","NAME":"Buttonwillow CCD","COUNTY":"029","COUSUB":"90300"}},{"type":"Feature","geometry":{"type":"Polygon","coordinates":[[[-119.2527,35.2682],[-119.2527,35.2382],[-119.235,35.2381],[-119.2328,35.2364],[-119.2328,35.1944],[-119.1991,35.1944],[-119.199,35.1802],[-119.1099,35.1805],[-119.11,35.1638],[-119.1111,35.1596],[-119.1098,35.1554],[-119.1099,35.0945],[-118.9832,35.0955],[-118.9797,35.0946],[-119.0036,35.1701],[-119.0031,35.2377],[-118.9854,35.2378],[-118.9854,35.2959],[-119.1281,35.2962],[-119.1273,35.3489],[-119.1347,35.3531],[-119.1389,35.3541],[-119.1755,35.3552],[-119.2522,35.3544],[-119.2527,35.2682]]]},"properties":{"GEOID":"0602991160","BASENAME":"Greenfield-Panama","NAME":"Greenfield-Panama CCD","COUNTY":"029","COUSUB":"91160"}},{"type":"Feature","geometry":{"type":"Polygon","coordinates":[[[-119.2522,35.3616],[-119.2522,35.3544],[-119.1755,35.3552],[-119.1389,35.3541],[-119.1327,35.3518],[-119.1284,35.3527],[-119.1295,35.3534],[-119.1276,35.3542],[-119.1161,35.3559],[-119.1132,35.3583],[-119.0964,35.3605],[-119.0918,35.3639],[-119.0937,35.3758],[-119.0922,35.3808],[-119.0922,35.4197],[-119.11,35.4198],[-119.11,35.4128],[-119.1113,35.4128],[-119.1214,35.4252],[-119.1226,35.4415],[-119.2518,35.4417],[-119.2522,35.3616]]]},"properties":{"GEOID":"0602992650","BASENAME":"Rosedale","NAME":"Rosedale CCD","COUNTY":"029","COUSUB":"92650"}},{"type":"Feature","geometry":{"type":"Polygon","coordinates":[[[-119.9156,35.4472],[-119.9132,35.4438],[-119.9137,35.4393],[-119.88,35.4391],[-119.8804,35.3511],[-119.8092,35.3509],[-119.8094,35.2637],[-119.6666,35.2626],[-119.6673,35.175],[-119.5715,35.1802],[-119.5538,35.1801],[-119.5618,35.0878],[-119.4904,35.0916],[-119.4905,35.0767],[-119.4726,35.0767],[-119.4736,34.9379],[-119.4725,34.9014],[-119.3837,34.9008],[-119.3819,34.874],[-119.3555,34.8737],[-119.3555,34.8725],[-119.2764,34.8725],[-119.2772,34.8573],[-119.2426,34.8576],[-119.2425,34.8143],[-118.9779,34.8117],[-118.978,34.7898],[-118.8804,34.7887],[-118.8946,34.818],[-118.8817,34.8178],[-118.8641,34.835],[-118.8633,34.8394],[-118.8814,34.864],[-118.8987,34.8796],[-118.9026,34.8853],[-118.9151,34.8912],[-118.9222,34.8987],[-118.9239,34.9062],[-118.9235,34.9131],[-118.9255,34.9217],[-118.9282,34.9248],[-118.9308,34.9324],[-118.9313,34.9417],[-118.9797,35.0946],[-118.9832,35.0955],[-119.1099,35.0945],[-119.1098,35.1554],[-119.1111,35.1596],[-119.11,35.1638],[-119.1099,35.1805],[-119.199,35.1802],[-119.1991,35.1944],[-119.2328,35.1944],[-119.2328,35.2364],[-119.235,35.2381],[-119.2527,35.2382],[-119.2527,35.2674],[-119.3007,35.2676],[-119.3098,35.2663],[-119.312,35.27],[-119.3199,35.2751],[-119.3263,35.2836],[-119.3328,35.2888],[-119.3385,35.2905],[-119.3409,35.2944],[-119.3498,35.3001],[-119.3554,35.3005],[-119.3682,35.3057],[-119.372,35.306],[-119.3783,35.3116],[-119.3867,35.3147],[-119.394,35.3211],[-119.4014,35.3222],[-119.4097,35.3255],[-119.4171,35.3245],[-119.4212,35.3301],[-119.434,35.3359],[-119.4513,35.3397],[-119.458,35.3459],[-119.4688,35.3468],[-119.4762,35.355],[-119.4898,35.3616],[-119.5045,35.3604],[-119.5136,35.3661],[-119.5229,35.3684],[-119.5313,35.376],[-119.5423,35.3893],[-119.5477,35.3918],[-119.5561,35.3928],[-119.5652,35.4011],[-119.5875,35.4083],[-119.5986,35.4154],[-119.604,35.4222],[-119.6115,35.4286],[-119.6327,35.4575],[-119.638,35.4667],[-119.6384,35.4787],[-119.6408,35.4873],[-119.6477,35.4993],[-119.8077,35.499],[-119.8095,35.4977],[-119.8067,35.4946],[-119.8229,35.4845],[-119.858,35.484],[-119.8803,35.4709],[-119.8844,35.4697],[-119.8852,35.467],[-119.8925,35.463],[-119.8944,35.4584],[-119.9016,35.4556],[-119.9046,35.4563],[-119.9048,35.4539],[-119.9068,35.4523],[-119.9109,35.4527],[-119.9123,35.4489],[-119.9151,35.4494],[-119.9156,35.4472]]]},"properties":{"GEOID":"0602993635","BASENAME":"West Kern","NAME":"West Kern CCD","COUNTY":"029","COUSUB":"93635"}},{"type":"Feature","geometry":{"type":"Polygon","coordinates":[[[-119.1323,35.352],[-119.1273,35.3489],[-119.1281,35.2962],[-118.9143,35.2961],[-118.9143,35.3253],[-118.8431,35.3256],[-118.8439,35.3744],[-118.8366,35.3783],[-118.828,35.3808],[-118.8182,35.3876],[-118.8167,35.3903],[-118.818,35.3936],[-118.8125,35.3978],[-118.8099,35.3966],[-118.8083,35.3943],[-118.8059,35.3941],[-118.8003,35.3981],[-118.7993,35.4001],[-118.792,35.4028],[-118.7867,35.4024],[-118.7777,35.3991],[-118.7733,35.402],[-118.7724,35.4004],[-118.7712,35.4027],[-118.7728,35.4049],[-118.7701,35.4061],[-118.7704,35.4072],[-118.7669,35.4075],[-118.7614,35.4119],[-118.7603,35.4119],[-118.7613,35.4079],[-118.7538,35.414],[-118.7513,35.4115],[-118.7467,35.4121],[-118.7482,35.417],[-118.7442,35.4183],[-118.7419,35.4222],[-118.7406,35.4229],[-118.7406,35.4213],[-118.7392,35.4211],[-118.7352,35.4221],[-118.7323,35.4257],[-118.7312,35.4244],[-118.7299,35.4249],[-118.7277,35.4304],[-118.7307,35.4343],[-118.7291,35.4349],[-118.7304,35.4394],[-118.7284,35.4382],[-118.7242,35.4407],[-118.7137,35.4421],[-118.7795,35.4428],[-118.7809,35.4567],[-118.7987,35.4569],[-118.7991,35.4712],[-118.7811,35.4713],[-118.7819,35.4829],[-118.7843,35.4796],[-118.7862,35.4793],[-118.7884,35.4814],[-118.7905,35.4812],[-118.7931,35.484],[-118.7983,35.4827],[-118.8047,35.4888],[-118.8112,35.4887],[-118.8148,35.487],[-118.8193,35.4899],[-118.8225,35.4901],[-118.8279,35.4875],[-118.8312,35.4894],[-118.8381,35.4861],[-118.8472,35.4861],[-118.8527,35.4938],[-118.8554,35.4956],[-118.8667,35.497],[-118.872,35.4969],[-118.8749,35.4907],[-118.8791,35.4902],[-118.8801,35.4868],[-118.8849,35.4853],[-118.8909,35.49],[-118.8935,35.4878],[-118.8924,35.4931],[-118.8911,35.4943],[-118.8937,35.4967],[-118.899,35.4985],[-118.9015,35.5015],[-118.9014,35.5067],[-118.9036,35.51],[-118.9009,35.5121],[-118.9006,35.515],[-118.9069,35.5143],[-118.9186,35.5188],[-118.9234,35.5166],[-118.9267,35.5169],[-118.9331,35.525],[-118.9396,35.527],[-118.9476,35.5247],[-118.9531,35.5299],[-118.9582,35.529],[-118.9655,35.53],[-118.9725,35.5285],[-118.9771,35.5323],[-118.9791,35.5362],[-118.9812,35.537],[-119.0009,35.5386],[-119.0061,35.5358],[-119.0106,35.5356],[-119.0167,35.5401],[-119.0395,35.5409],[-119.0475,35.5505],[-119.0544,35.5524],[-119.069,35.5501],[-119.0717,35.5516],[-119.0776,35.5492],[-119.0846,35.5521],[-119.0875,35.5513],[-119.0771,35.5065],[-119.0746,35.4736],[-119.0748,35.4414],[-119.1226,35.4415],[-119.1214,35.4252],[-119.1113,35.4128],[-119.11,35.4128],[-119.11,35.4198],[-119.0922,35.4197],[-119.0922,35.3808],[-119.0937,35.3758],[-119.0918,35.3639],[-119.0964,35.3605],[-119.1132,35.3583],[-119.1161,35.3559],[-119.1276,35.3542],[-119.1295,35.3534],[-119.1284,35.3527],[-119.1323,35.352]]]},"properties":{"GEOID":"0602990180","BASENAME":"Bakersfield","NAME":"Bakersfield CCD","COUNTY":"029","COUSUB":"90180"}},{"type":"Feature","geometry":{"type":"Polygon","coordinates":[[[-119.0901,35.5868],[-119.0879,35.5775],[-119.0875,35.5513],[-119.0833,35.552],[-119.0776,35.5492],[-119.0717,35.5516],[-119.069,35.5501],[-119.0544,35.5524],[-119.0475,35.5505],[-119.0395,35.5409],[-119.0167,35.5401],[-119.0106,35.5356],[-119.0061,35.5358],[-119.0009,35.5386],[-118.9812,35.537],[-118.9791,35.5362],[-118.9771,35.5323],[-118.9725,35.5285],[-118.9655,35.53],[-118.9582,35.529],[-118.9531,35.5299],[-118.9476,35.5247],[-118.9396,35.527],[-118.9331,35.525],[-118.9267,35.5169],[-118.9234,35.5166],[-118.9186,35.5188],[-118.9069,35.5143],[-118.9006,35.515],[-118.9009,35.5121],[-118.9036,35.51],[-118.9014,35.5067],[-118.9015,35.5015],[-118.899,35.4985],[-118.8937,35.4967],[-118.8911,35.4943],[-118.8924,35.4931],[-118.8935,35.4878],[-118.8909,35.49],[-118.8849,35.4853],[-118.8801,35.4868],[-118.8791,35.4902],[-118.8749,35.4907],[-118.872,35.4969],[-118.8667,35.497],[-118.8554,35.4956],[-118.8527,35.4938],[-118.8472,35.4861],[-118.8381,35.4861],[-118.8312,35.4894],[-118.8279,35.4875],[-118.8225,35.4901],[-118.8193,35.4899],[-118.8148,35.487],[-118.8112,35.4887],[-118.8047,35.4888],[-118.7983,35.4827],[-118.7931,35.484],[-118.7905,35.4812],[-118.7884,35.4814],[-118.7862,35.4793],[-118.7843,35.4796],[-118.7819,35.4829],[-118.7811,35.4713],[-118.7991,35.4712],[-118.7987,35.4569],[-118.7809,35.4567],[-118.7795,35.4428],[-118.7275,35.4418],[-118.7139,35.4427],[-118.7242,35.4407],[-118.7284,35.4382],[-118.7304,35.4394],[-118.7291,35.4349],[-118.7307,35.4343],[-118.7277,35.4304],[-118.7299,35.4249],[-118.7312,35.4244],[-118.7323,35.4257],[-118.7352,35.4221],[-118.7392,35.4211],[-118.7406,35.4213],[-118.7406,35.4229],[-118.7419,35.4222],[-118.7442,35.4183],[-118.7482,35.417],[-118.7467,35.4121],[-118.7513,35.4115],[-118.7538,35.414],[-118.7613,35.4079],[-118.7603,35.4119],[-118.7614,35.4119],[-118.7669,35.4075],[-118.7704,35.4072],[-118.7701,35.4061],[-118.7728,35.4049],[-118.7712,35.4027],[-118.7724,35.4004],[-118.7733,35.402],[-118.7777,35.3991],[-118.7867,35.4024],[-118.792,35.4028],[-118.7993,35.4001],[-118.8003,35.3981],[-118.8059,35.3941],[-118.8083,35.3943],[-118.8099,35.3966],[-118.8125,35.3978],[-118.818,35.3936],[-118.8167,35.3903],[-118.8182,35.3876],[-118.828,35.3808],[-118.8366,35.3783],[-118.8439,35.3744],[-118.8432,35.3382],[-118.804,35.3285],[-118.788,35.3159],[-118.7816,35.3202],[-118.7805,35.3164],[-118.7755,35.3198],[-118.7725,35.32],[-118.7707,35.3213],[-118.7707,35.326],[-118.7675,35.3286],[-118.7595,35.3297],[-118.7146,35.3235],[-118.7057,35.3194],[-118.6998,35.3129],[-118.6915,35.3117],[-118.6725,35.3023],[-118.67,35.3001],[-118.6684,35.296],[-118.6563,35.2977],[-118.6495,35.2966],[-118.6458,35.2939],[-118.6335,35.2895],[-118.6173,35.2935],[-118.6099,35.2972],[-118.6062,35.297],[-118.6008,35.3003],[-118.5913,35.2991],[-118.5912,35.3017],[-118.5837,35.3048],[-118.5874,35.311],[-118.5852,35.3152],[-118.5917,35.3219],[-118.5895,35.332],[-118.5847,35.3374],[-118.5869,35.3306],[-118.5828,35.332],[-118.5851,35.3327],[-118.5791,35.3391],[-118.577,35.3388],[-118.5778,35.3377],[-118.5754,35.3359],[-118.5757,35.3379],[-118.5713,35.343],[-118.5725,35.3503],[-118.5706,35.3489],[-118.5679,35.3536],[-118.5626,35.3554],[-118.5626,35.3565],[-118.5585,35.3571],[-118.5524,35.3609],[-118.5531,35.3622],[-118.5521,35.3628],[-118.554,35.3651],[-118.5575,35.3659],[-118.5588,35.3696],[-118.5579,35.3731],[-118.5596,35.3754],[-118.5549,35.3834],[-118.5455,35.3816],[-118.5393,35.3841],[-118.5345,35.3863],[-118.5343,35.389],[-118.5206,35.3982],[-118.5204,35.4019],[-118.5098,35.402],[-118.5022,35.4059],[-118.4892,35.4054],[-118.4601,35.398],[-118.4482,35.3968],[-118.4434,35.3977],[-118.4377,35.3959],[-118.4211,35.385],[-118.4179,35.3851],[-118.4115,35.3826],[-118.4058,35.3871],[-118.4103,35.3902],[-118.4114,35.3956],[-118.4147,35.3987],[-118.4149,35.4047],[-118.4139,35.4047],[-118.4136,35.4086],[-118.4121,35.4105],[-118.4157,35.4142],[-118.4188,35.416],[-118.4202,35.4155],[-118.4218,35.42],[-118.4207,35.4227],[-118.423,35.4245],[-118.4148,35.4237],[-118.4123,35.4255],[-118.4131,35.4286],[-118.4081,35.4287],[-118.4066,35.431],[-118.4037,35.4294],[-118.3974,35.4343],[-118.3938,35.4342],[-118.3923,35.4392],[-118.3906,35.4403],[-118.3907,35.4464],[-118.3808,35.4441],[-118.3772,35.448],[-118.3764,35.452],[-118.3742,35.4532],[-118.3709,35.4523],[-118.3679,35.454],[-118.3644,35.4544],[-118.3653,35.4533],[-118.3638,35.4534],[-118.3602,35.4561],[-118.3576,35.4553],[-118.3567,35.4568],[-118.3584,35.4575],[-118.3576,35.4586],[-118.346,35.4597],[-118.3425,35.456],[-118.3425,35.4532],[-118.3386,35.4506],[-118.3383,35.4485],[-118.3325,35.4433],[-118.3262,35.444],[-118.324,35.4403],[-118.3245,35.4389],[-118.3208,35.4368],[-118.3164,35.4305],[-118.3066,35.4073],[-118.3087,35.4022],[-118.3071,35.4016],[-118.3089,35.4011],[-118.3073,35.3997],[-118.3084,35.3986],[-118.3082,35.3954],[-118.3068,35.3936],[-118.3032,35.3941],[-118.3039,35.3909],[-118.2987,35.3901],[-118.2986,35.3862],[-118.2939,35.3833],[-118.2924,35.3786],[-118.2931,35.3774],[-118.2906,35.3803],[-118.2876,35.3804],[-118.2877,35.3795],[-118.2863,35.3807],[-118.2863,35.3786],[-118.2849,35.3796],[-118.285,35.3772],[-118.2841,35.3778],[-118.2841,35.3765],[-118.2807,35.3739],[-118.2805,35.3752],[-118.2675,35.3705],[-118.264,35.3664],[-118.2535,35.3635],[-118.2435,35.3571],[-118.2375,35.3599],[-118.232,35.3595],[-118.2292,35.3606],[-118.228,35.3687],[-118.2234,35.3777],[-118.2159,35.3779],[-118.1969,35.3836],[-118.1882,35.3845],[-118.1781,35.3825],[-118.1689,35.3781],[-118.1632,35.3727],[-118.1586,35.3713],[-118.1458,35.3701],[-118.1417,35.3709],[-118.1425,35.3744],[-118.1282,35.374],[-118.1213,35.3759],[-118.1187,35.3747],[-118.1125,35.3654],[-118.1129,35.3621],[-118.1153,35.3596],[-118.1159,35.355],[-118.1132,35.3504],[-118.1118,35.343],[-118.11,35.341],[-118.111,35.3387],[-118.1103,35.336],[-118.1062,35.3251],[-118.1077,35.3246],[-118.1076,35.3225],[-118.1109,35.3235],[-118.1114,35.3189],[-118.1032,35.3103],[-118.0988,35.3091],[-118.0833,35.3176],[-118.0781,35.3177],[-118.0738,35.3159],[-118.0594,35.3141],[-118.0542,35.3155],[-118.0447,35.3155],[-118.0452,35.3238],[-118.0378,35.3463],[-118.0435,35.3587],[-118.0391,35.3627],[-118.0381,35.367],[-118.0284,35.3768],[-118.0267,35.3824],[-118.0274,35.3857],[-118.0231,35.3965],[-118.023,35.4046],[-118.0247,35.4062],[-118.0239,35.4092],[-118.0259,35.4193],[-118.0241,35.4218],[-118.0121,35.427],[-117.9954,35.4544],[-117.9986,35.4624],[-118.0132,35.4788],[-118.0135,35.482],[-118.011,35.4856],[-118.0112,35.4905],[-118.0203,35.5053],[-118.0219,35.5173],[-118.019,35.5231],[-118.0083,35.5334],[-117.998,35.5372],[-117.995,35.5455],[-117.9927,35.548],[-117.9836,35.5507],[-117.9801,35.55],[-117.963,35.5561],[-117.9427,35.5679],[-117.9328,35.5774],[-117.9293,35.5845],[-117.9215,35.5925],[-117.9226,35.5955],[-117.9168,35.5972],[-117.9134,35.6089],[-117.9105,35.6119],[-117.9034,35.6285],[-117.8963,35.6365],[-117.8975,35.6377],[-117.8948,35.6423],[-117.8944,35.6478],[-117.8877,35.6545],[-117.8863,35.6594],[-117.8879,35.6627],[-117.8931,35.6673],[-117.9028,35.6717],[-117.9083,35.6761],[-117.9019,35.7018],[-117.9106,35.7083],[-117.9078,35.7256],[-117.91,35.7291],[-117.9097,35.7357],[-117.9072,35.7366],[-117.9051,35.74],[-117.9087,35.7428],[-117.9082,35.7468],[-117.9151,35.7492],[-117.9067,35.7557],[-117.9079,35.7591],[-117.9137,35.7638],[-117.9149,35.7747],[-117.9139,35.7789],[-117.9115,35.7797],[-117.9071,35.787],[-117.9019,35.7927],[-117.9036,35.7984],[-117.9244,35.7984],[-117.923,35.7867],[-117.9384,35.7866],[-118.0677,35.7915],[-118.361,35.7903],[-118.4672,35.7925],[-118.5708,35.7897],[-119.0534,35.7908],[-119.0528,35.75],[-119.0583,35.7384],[-119.0649,35.7186],[-119.0626,35.7032],[-119.063,35.699],[-119.0693,35.6802],[-119.0757,35.6667],[-119.0808,35.6441],[-119.0849,35.6343],[-119.087,35.6056],[-119.0901,35.5868]]]},"properties":{"GEOID":"0602991520","BASENAME":"Lake Isabella","NAME":"Lake Isabella CCD","COUNTY":"029","COUSUB":"91520"}},{"type":"Feature","geometry":{"type":"Polygon","coordinates":[[[-120.1944,35.7894],[-120.194,35.6144],[-120.0862,35.6144],[-120.0868,35.5264],[-120.0688,35.5266],[-120.069,35.5129],[-120.051,35.5131],[-120.0509,35.4982],[-120.033,35.4983],[-120.0329,35.4835],[-120.0143,35.4834],[-120.0151,35.4688],[-119.9974,35.4687],[-119.9931,35.4543],[-119.9932,35.4395],[-119.9137,35.4393],[-119.9132,35.4437],[-119.9156,35.4467],[-119.9151,35.4494],[-119.9124,35.4487],[-119.9109,35.4528],[-119.9067,35.4524],[-119.9048,35.4539],[-119.9046,35.4563],[-119.9016,35.4556],[-119.8944,35.4584],[-119.8925,35.463],[-119.8852,35.467],[-119.8844,35.4697],[-119.8803,35.4709],[-119.858,35.484],[-119.8229,35.4845],[-119.8067,35.4946],[-119.8095,35.4977],[-119.8075,35.4991],[-119.5466,35.4993],[-119.5283,35.5008],[-119.492,35.5013],[-119.4747,35.5004],[-119.4746,35.5286],[-119.3321,35.529],[-119.332,35.558],[-119.2783,35.5581],[-119.2796,35.5623],[-119.2844,35.5673],[-119.2811,35.5701],[-119.2816,35.5771],[-119.2783,35.5797],[-119.2745,35.5911],[-119.2712,35.593],[-119.2699,35.5957],[-119.2664,35.5968],[-119.2627,35.6018],[-119.2769,35.6017],[-119.2768,35.6163],[-119.3313,35.616],[-119.3304,35.7174],[-119.342,35.7542],[-119.3552,35.7903],[-119.7338,35.7889],[-120.1944,35.7894]]]},"properties":{"GEOID":"0602993570","BASENAME":"Wasco","NAME":"Wasco CCD","COUNTY":"029","COUSUB":"93570"}},{"type":"Feature","geometry":{"type":"Polygon","coordinates":[[[-119.4749,35.4455],[-119.4742,35.4424],[-119.0748,35.4414],[-119.0747,35.4738],[-119.0775,35.5098],[-119.0875,35.5513],[-119.0925,35.5484],[-119.1016,35.5479],[-119.1213,35.5523],[-119.1299,35.5577],[-119.1428,35.5578],[-119.1512,35.5626],[-119.1512,35.5587],[-119.332,35.558],[-119.3321,35.529],[-119.4746,35.5286],[-119.4749,35.4455]]]},"properties":{"GEOID":"0602993000","BASENAME":"Shafter","NAME":"Shafter CCD","COUNTY":"029","COUSUB":"93000"}},{"type":"Feature","geometry":{"type":"Polygon","coordinates":[[[-118.5879,34.8338],[-118.5876,34.8183],[-118.2041,34.8202],[-117.9877,34.8226],[-117.769,34.8233],[-117.6322,34.8223],[-117.6333,35.0976],[-117.6309,35.0976],[-117.6311,35.3617],[-117.6325,35.4056],[-117.6313,35.4196],[-117.6337,35.4345],[-117.6337,35.4514],[-117.6302,35.4514],[-117.6297,35.4662],[-117.6301,35.5643],[-117.6346,35.5643],[-117.6343,35.6516],[-117.6165,35.6516],[-117.6165,35.6807],[-117.6522,35.6808],[-117.6521,35.7099],[-117.6343,35.7098],[-117.6343,35.7977],[-117.9036,35.7984],[-117.9019,35.7927],[-117.9071,35.787],[-117.9115,35.7797],[-117.9139,35.7789],[-117.9149,35.7747],[-117.9137,35.7638],[-117.9079,35.7591],[-117.9067,35.7557],[-117.9151,35.7492],[-117.9082,35.7468],[-117.9087,35.7428],[-117.9051,35.74],[-117.9072,35.7366],[-117.9097,35.7357],[-117.91,35.7291],[-117.9078,35.7256],[-117.9106,35.7083],[-117.9019,35.7018],[-117.9083,35.6761],[-117.9028,35.6717],[-117.8931,35.6673],[-117.8879,35.6627],[-117.8865,35.6582],[-117.8877,35.6545],[-117.8944,35.6478],[-117.8948,35.6423],[-117.8975,35.6377],[-117.8963,35.6365],[-117.9034,35.6285],[-117.9105,35.6119],[-117.9134,35.6089],[-117.9168,35.5972],[-117.9226,35.5955],[-117.9215,35.5925],[-117.9293,35.5845],[-117.9328,35.5774],[-117.9427,35.5679],[-117.963,35.5561],[-117.9801,35.55],[-117.9836,35.5507],[-117.9927,35.548],[-117.995,35.5455],[-117.998,35.5372],[-118.0083,35.5334],[-118.019,35.5231],[-118.0219,35.5173],[-118.0203,35.5053],[-118.0112,35.4905],[-118.011,35.4856],[-118.0135,35.482],[-118.0132,35.4788],[-117.9986,35.4624],[-117.9954,35.4544],[-118.0121,35.427],[-118.0241,35.4218],[-118.0259,35.4193],[-118.0239,35.4092],[-118.0247,35.4062],[-118.023,35.4046],[-118.0232,35.396],[-118.0274,35.3857],[-118.0267,35.3824],[-118.0284,35.3768],[-118.0381,35.367],[-118.0391,35.3627],[-118.0435,35.3587],[-118.0378,35.3463],[-118.0452,35.3238],[-118.0447,35.3153],[-118.0469,35.3078],[-118.0498,35.3044],[-118.0559,35.2916],[-118.0643,35.2865],[-118.0689,35.2709],[-118.0734,35.2663],[-118.0783,35.2561],[-118.0877,35.2491],[-118.0852,35.238],[-118.0872,35.2184],[-118.0953,35.212],[-118.0971,35.207],[-118.1041,35.2009],[-118.1052,35.1978],[-118.1088,35.1955],[-118.112,35.1956],[-118.1146,35.1927],[-118.1184,35.1913],[-118.126,35.1805],[-118.1301,35.1788],[-118.135,35.1728],[-118.1458,35.1644],[-118.1465,35.1621],[-118.1521,35.1571],[-118.1542,35.1526],[-118.1603,35.1472],[-118.1606,35.1418],[-118.1705,35.1351],[-118.173,35.1301],[-118.1831,35.1187],[-118.1839,35.1124],[-118.1896,35.1073],[-118.1918,35.1002],[-118.1971,35.0915],[-118.2028,35.0851],[-118.2035,35.0826],[-118.2115,35.0765],[-118.2166,35.0702],[-118.2303,35.0594],[-118.2421,35.043],[-118.2467,35.04],[-118.2531,35.0331],[-118.254,35.0205],[-118.2564,35.0173],[-118.2562,35.0123],[-118.2594,35.006],[-118.2695,34.9988],[-118.2909,34.9887],[-118.302,34.9776],[-118.3147,34.97],[-118.3183,34.965],[-118.3233,34.9614],[-118.3282,34.9531],[-118.3421,34.9383],[-118.3515,34.9335],[-118.3578,34.9331],[-118.3634,34.9278],[-118.3735,34.9237],[-118.3797,34.9226],[-118.3949,34.9144],[-118.4096,34.9093],[-118.4206,34.9085],[-118.431,34.9048],[-118.4437,34.9021],[-118.4472,34.9031],[-118.4545,34.9004],[-118.4557,34.8978],[-118.4514,34.896],[-118.4473,34.8905],[-118.4469,34.8848],[-118.4898,34.8562],[-118.4942,34.8552],[-118.5018,34.8571],[-118.5099,34.8563],[-118.5164,34.8578],[-118.5179,34.8568],[-118.5181,34.8545],[-118.5286,34.8539],[-118.5374,34.8497],[-118.544,34.8509],[-118.5535,34.8495],[-118.5566,34.8442],[-118.5612,34.8412],[-118.5726,34.8372],[-118.5781,34.8372],[-118.5879,34.8338]]]},"properties":{"GEOID":"0602990800","BASENAME":"East Kern","NAME":"East Kern CCD","COUNTY":"029","COUSUB":"90800"}},{"type":"Feature","geometry":{"type":"Polygon","coordinates":[[[-119.3552,35.7903],[-119.342,35.7542],[-119.3304,35.7174],[-119.3313,35.616],[-119.2768,35.6163],[-119.2769,35.6017],[-119.2627,35.6018],[-119.2664,35.5968],[-119.2699,35.5957],[-119.2712,35.593],[-119.2745,35.5911],[-119.2783,35.5797],[-119.2816,35.5771],[-119.2811,35.5701],[-119.2844,35.5673],[-119.2796,35.5623],[-119.2783,35.5581],[-119.1512,35.5587],[-119.1512,35.5626],[-119.1428,35.5578],[-119.1299,35.5577],[-119.1213,35.5523],[-119.1016,35.5479],[-119.0925,35.5484],[-119.0875,35.5513],[-119.0879,35.5775],[-119.0901,35.5868],[-119.087,35.6056],[-119.0852,35.6327],[-119.0807,35.6444],[-119.0798,35.6522],[-119.0757,35.6667],[-119.069,35.681],[-119.0628,35.6998],[-119.0649,35.7186],[-119.0585,35.7379],[-119.0527,35.7508],[-119.0534,35.7908],[-119.3552,35.7903]]]},"properties":{"GEOID":"0602990655","BASENAME":"Delano-McFarland","NAME":"Delano-McFarland CCD","COUNTY":"029","COUSUB":"90655"}},{"type":"Feature","geometry":{"type":"Polygon","coordinates":[[[-118.9558,35.0191],[-118.9313,34.9417],[-118.9308,34.9324],[-118.9282,34.9248],[-118.9253,34.9212],[-118.922,34.8983],[-118.9148,34.8909],[-118.9022,34.8849],[-118.8987,34.8796],[-118.8795,34.8619],[-118.8634,34.8397],[-118.8641,34.835],[-118.8817,34.8178],[-118.8804,34.8178],[-118.8841,34.8136],[-118.8833,34.8094],[-118.8767,34.8032],[-118.8541,34.8033],[-118.854,34.8178],[-118.5876,34.8183],[-118.5877,34.8341],[-118.5781,34.8372],[-118.5726,34.8372],[-118.5612,34.8412],[-118.5566,34.8442],[-118.5536,34.8495],[-118.5444,34.8509],[-118.5374,34.8497],[-118.5286,34.8539],[-118.5181,34.8545],[-118.5179,34.8568],[-118.5164,34.8578],[-118.5099,34.8563],[-118.5018,34.8571],[-118.4942,34.8552],[-118.4898,34.8562],[-118.4469,34.8848],[-118.4473,34.8905],[-118.4514,34.896],[-118.4557,34.8978],[-118.4545,34.9004],[-118.4472,34.9031],[-118.4437,34.9021],[-118.431,34.9048],[-118.4206,34.9085],[-118.4096,34.9093],[-118.3949,34.9144],[-118.3797,34.9226],[-118.3735,34.9237],[-118.3634,34.9278],[-118.3578,34.9331],[-118.3515,34.9335],[-118.3458,34.9358],[-118.3417,34.9386],[-118.3378,34.9439],[-118.3282,34.9531],[-118.3233,34.9614],[-118.3183,34.965],[-118.3147,34.97],[-118.302,34.9776],[-118.2909,34.9887],[-118.2695,34.9988],[-118.2614,35.0039],[-118.2562,35.0123],[-118.2564,35.0173],[-118.2539,35.0206],[-118.2531,35.0331],[-118.2467,35.04],[-118.2421,35.043],[-118.2303,35.0594],[-118.2166,35.0702],[-118.2115,35.0765],[-118.2035,35.0826],[-118.2028,35.0851],[-118.1971,35.0915],[-118.1918,35.1002],[-118.1896,35.1073],[-118.1839,35.1124],[-118.1831,35.1187],[-118.173,35.1301],[-118.1705,35.1351],[-118.1606,35.1418],[-118.1603,35.1472],[-118.1542,35.1526],[-118.1521,35.1571],[-118.1465,35.1621],[-118.1458,35.1644],[-118.135,35.1728],[-118.1301,35.1788],[-118.126,35.1805],[-118.1184,35.1913],[-118.1146,35.1927],[-118.112,35.1956],[-118.1088,35.1955],[-118.1052,35.1978],[-118.1041,35.2009],[-118.0971,35.207],[-118.0953,35.212],[-118.0872,35.2184],[-118.0852,35.238],[-118.0877,35.2491],[-118.0783,35.2561],[-118.0734,35.2663],[-118.0689,35.2709],[-118.0643,35.2864],[-118.0559,35.2916],[-118.0498,35.3044],[-118.047,35.3075],[-118.0447,35.3155],[-118.0542,35.3155],[-118.0594,35.3141],[-118.0738,35.3159],[-118.0781,35.3177],[-118.0833,35.3176],[-118.0986,35.3091],[-118.1032,35.3103],[-118.1114,35.3189],[-118.1109,35.3235],[-118.1076,35.3225],[-118.1077,35.3246],[-118.1062,35.3251],[-118.1103,35.336],[-118.111,35.3387],[-118.11,35.341],[-118.1118,35.343],[-118.1132,35.3504],[-118.1159,35.355],[-118.1153,35.3596],[-118.1129,35.3621],[-118.1125,35.3654],[-118.1174,35.3735],[-118.1209,35.3759],[-118.1282,35.374],[-118.1425,35.3744],[-118.1418,35.3708],[-118.1474,35.3702],[-118.1631,35.3727],[-118.1689,35.3781],[-118.1784,35.3826],[-118.1882,35.3845],[-118.1969,35.3836],[-118.2159,35.3779],[-118.2234,35.3777],[-118.228,35.3687],[-118.2292,35.3606],[-118.232,35.3595],[-118.2375,35.3599],[-118.2433,35.3571],[-118.2535,35.3635],[-118.264,35.3664],[-118.2675,35.3705],[-118.2805,35.3752],[-118.2807,35.3739],[-118.2841,35.3765],[-118.2841,35.3778],[-118.285,35.3772],[-118.2849,35.3796],[-118.2863,35.3786],[-118.2863,35.3807],[-118.2877,35.3795],[-118.2876,35.3804],[-118.2906,35.3803],[-118.2931,35.3774],[-118.2924,35.3786],[-118.2939,35.3833],[-118.2986,35.3862],[-118.2987,35.3901],[-118.3039,35.3909],[-118.3032,35.3941],[-118.3068,35.3936],[-118.3082,35.3954],[-118.3084,35.3986],[-118.3073,35.3997],[-118.3089,35.4011],[-118.3071,35.4016],[-118.3087,35.4022],[-118.3066,35.4073],[-118.3164,35.4305],[-118.3208,35.4368],[-118.3245,35.4389],[-118.324,35.4403],[-118.3262,35.444],[-118.3325,35.4433],[-118.3383,35.4485],[-118.3386,35.4506],[-118.3425,35.4532],[-118.3425,35.456],[-118.346,35.4597],[-118.3576,35.4586],[-118.3584,35.4575],[-118.3567,35.4568],[-118.3576,35.4553],[-118.3602,35.4561],[-118.3638,35.4534],[-118.3653,35.4533],[-118.3644,35.4544],[-118.3679,35.454],[-118.3709,35.4523],[-118.3742,35.4532],[-118.3764,35.452],[-118.3772,35.448],[-118.3808,35.4441],[-118.3907,35.4464],[-118.3906,35.4403],[-118.3923,35.4392],[-118.3938,35.4342],[-118.3974,35.4343],[-118.4037,35.4294],[-118.4066,35.431],[-118.4081,35.4287],[-118.4131,35.4286],[-118.4123,35.4255],[-118.4148,35.4237],[-118.423,35.4245],[-118.4207,35.4227],[-118.4218,35.42],[-118.4202,35.4155],[-118.4188,35.416],[-118.4157,35.4142],[-118.4121,35.4105],[-118.4136,35.4086],[-118.4139,35.4047],[-118.4149,35.4047],[-118.4147,35.3987],[-118.4114,35.3956],[-118.4103,35.3902],[-118.4058,35.3871],[-118.4115,35.3826],[-118.4179,35.3851],[-118.4211,35.385],[-118.4377,35.3959],[-118.4434,35.3977],[-118.4482,35.3968],[-118.4601,35.398],[-118.4892,35.4054],[-118.5022,35.4059],[-118.5098,35.402],[-118.5204,35.4019],[-118.5206,35.3982],[-118.5343,35.389],[-118.5345,35.3863],[-118.5393,35.3841],[-118.5455,35.3816],[-118.5549,35.3834],[-118.5596,35.3754],[-118.5579,35.3731],[-118.5588,35.3696],[-118.5575,35.3659],[-118.554,35.3651],[-118.5521,35.3628],[-118.5531,35.3622],[-118.5524,35.3609],[-118.5585,35.3571],[-118.5626,35.3565],[-118.5626,35.3554],[-118.5679,35.3536],[-118.5706,35.3489],[-118.5725,35.3503],[-118.5713,35.343],[-118.5757,35.3379],[-118.5754,35.3359],[-118.5778,35.3377],[-118.577,35.3388],[-118.5791,35.3391],[-118.5851,35.3327],[-118.5828,35.332],[-118.5869,35.3306],[-118.5847,35.3374],[-118.5895,35.332],[-118.5917,35.3219],[-118.5852,35.3152],[-118.5874,35.311],[-118.5837,35.3048],[-118.5912,35.3017],[-118.5913,35.2991],[-118.6008,35.3003],[-118.6062,35.297],[-118.6099,35.2972],[-118.6173,35.2935],[-118.6335,35.2895],[-118.6458,35.2939],[-118.6495,35.2966],[-118.6563,35.2977],[-118.6684,35.296],[-118.67,35.3001],[-118.6725,35.3023],[-118.6915,35.3117],[-118.6998,35.3129],[-118.7057,35.3194],[-118.7146,35.3235],[-118.7595,35.3297],[-118.767,35.3288],[-118.7707,35.326],[-118.7707,35.3213],[-118.7725,35.32],[-118.7755,35.3198],[-118.7805,35.3164],[-118.7816,35.3202],[-118.788,35.3159],[-118.7686,35.2993],[-118.7527,35.2924],[-118.7526,35.2094],[-118.8063,35.2092],[-118.8059,35.1805],[-118.8151,35.1803],[-118.8152,35.1912],[-118.824,35.191],[-118.8234,35.1511],[-118.8508,35.151],[-118.8504,35.0928],[-118.8465,35.0926],[-118.8466,35.0454],[-118.9176,35.0454],[-118.9361,35.0161],[-118.9558,35.0191]]]},"properties":{"GEOID":"0602993320","BASENAME":"Tehachapi","NAME":"Tehachapi CCD","COUNTY":"029","COUSUB":"93320"}},{"type":"Feature","geometry":{"type":"Polygon","coordinates":[[[-119.0036,35.1701],[-118.9558,35.0191],[-118.9361,35.0161],[-118.9176,35.0454],[-118.8466,35.0454],[-118.8465,35.0926],[-118.8504,35.0928],[-118.8508,35.151],[-118.8234,35.1511],[-118.824,35.191],[-118.8152,35.1912],[-118.8151,35.1803],[-118.8059,35.1805],[-118.8063,35.2092],[-118.7526,35.2094],[-118.7527,35.2924],[-118.7686,35.2993],[-118.8027,35.3279],[-118.8432,35.3382],[-118.8431,35.3256],[-118.9143,35.3253],[-118.9143,35.2961],[-118.9854,35.2959],[-118.9854,35.2378],[-119.0031,35.2377],[-119.0036,35.1701]]]},"properties":{"GEOID":"0602990130","BASENAME":"Arvin-Lamont","NAME":"Arvin-Lamont CCD","COUNTY":"029","COUSUB":"90130"}}]}