{"type":"FeatureCollection","features":[{"type":"Feature","geometry":{"type":"Polygon","coordinates":[[[-119.6082,36.0993],[-119.6078,36.0653],[-119.5363,36.0653],[-119.5364,36.1379],[-119.6075,36.1378],[-119.6082,36.0993]]]},"properties":{"GEOID":"0603190570","BASENAME":"Corcoran","NAME":"Corcoran CCD","COUNTY":"031","COUSUB":"90570"}},{"type":"Feature","geometry":{"type":"Polygon","coordinates":[[[-119.96,36.3758],[-119.9589,36.2555],[-119.7446,36.2549],[-119.7449,36.4011],[-119.7542,36.402],[-119.8081,36.4021],[-119.9592,36.401],[-119.96,36.3758]]]},"properties":{"GEOID":"0603191590","BASENAME":"Lemoore","NAME":"Lemoore CCD","COUNTY":"031","COUSUB":"91590"}},{"type":"Feature","geometry":{"type":"Polygon","coordinates":[[[-120.3151,35.9072],[-120.2976,35.9079],[-120.2874,35.9055],[-120.281,35.9069],[-120.2769,35.9065],[-120.2679,35.8984],[-120.2627,35.8961],[-120.2564,35.8889],[-120.2525,35.8871],[-120.2433,35.8777],[-120.2435,35.8751],[-120.2452,35.8731],[-120.2402,35.8659],[-120.246,35.8641],[-120.2486,35.8619],[-120.2503,35.8579],[-120.2563,35.8554],[-120.255,35.853],[-120.2575,35.8519],[-120.2593,35.8451],[-120.2551,35.8426],[-120.2503,35.8331],[-120.2498,35.8299],[-120.2445,35.824],[-120.2423,35.8234],[-120.2389,35.8258],[-120.2345,35.8233],[-120.2312,35.8233],[-120.2298,35.821],[-120.2254,35.8212],[-120.2199,35.8189],[-120.2179,35.8116],[-120.2194,35.806],[-120.2166,35.8036],[-120.2179,35.8022],[-120.2148,35.7952],[-120.2158,35.7901],[-120.214,35.7893],[-119.8688,35.789],[-119.8859,35.8115],[-119.89,35.8238],[-119.8889,35.8481],[-119.8925,35.8544],[-119.8918,35.8664],[-119.894,35.8749],[-119.9128,35.9043],[-119.9158,35.9072],[-119.9222,35.9219],[-119.9304,35.936],[-119.9299,35.9402],[-119.9415,35.9636],[-119.9842,36.0062],[-120.0193,36.0288],[-120.053,36.0475],[-120.0982,36.0746],[-120.3151,35.9072]]]},"properties":{"GEOID":"0603190170","BASENAME":"Avenal","NAME":"Avenal CCD","COUNTY":"031","COUSUB":"90170"}},{"type":"Feature","geometry":{"type":"Polygon","coordinates":[[[-119.7449,36.3572],[-119.7443,36.138],[-119.5291,36.1379],[-119.5294,36.2699],[-119.4746,36.269],[-119.4754,36.3277],[-119.6008,36.328],[-119.6009,36.3437],[-119.6021,36.3466],[-119.6347,36.3652],[-119.6368,36.3678],[-119.637,36.3719],[-119.6731,36.3718],[-119.6728,36.3572],[-119.7449,36.3572]]]},"properties":{"GEOID":"0603191220","BASENAME":"Hanford","NAME":"Hanford CCD","COUNTY":"031","COUSUB":"91220"}},{"type":"Feature","geometry":{"type":"Polygon","coordinates":[[[-119.7531,36.4019],[-119.7449,36.4011],[-119.7449,36.3572],[-119.6728,36.3572],[-119.6731,36.3718],[-119.637,36.3719],[-119.6368,36.3678],[-119.6347,36.3652],[-119.6021,36.3466],[-119.6009,36.3437],[-119.6008,36.328],[-119.4754,36.3277],[-119.4749,36.401],[-119.5288,36.4015],[-119.5283,36.4875],[-119.5272,36.4889],[-119.5732,36.4888],[-119.6664,36.4189],[-119.6681,36.4232],[-119.6728,36.4266],[-119.6703,36.4295],[-119.6715,36.4311],[-119.6811,36.4297],[-119.6856,36.4262],[-119.6936,36.4245],[-119.6996,36.4249],[-119.7048,36.4272],[-119.7092,36.4247],[-119.7112,36.4202],[-119.7134,36.419],[-119.7214,36.4179],[-119.7301,36.4208],[-119.7349,36.4159],[-119.7384,36.4179],[-119.7469,36.4165],[-119.7524,36.409],[-119.7514,36.4043],[-119.7531,36.4019]]]},"properties":{"GEOID":"0603191230","BASENAME":"Hanford Northeast","NAME":"Hanford Northeast CCD","COUNTY":"031","COUSUB":"91230"}},{"type":"Feature","geometry":{"type":"Polygon","coordinates":[[[-120.0982,36.0746],[-120.053,36.0475],[-120.0193,36.0288],[-119.9842,36.0062],[-119.9415,35.9636],[-119.9299,35.9402],[-119.9304,35.936],[-119.9222,35.9219],[-119.9158,35.9072],[-119.9128,35.9043],[-119.894,35.8749],[-119.8918,35.8664],[-119.8925,35.8544],[-119.8889,35.8481],[-119.89,35.8238],[-119.8859,35.8115],[-119.8688,35.789],[-119.5381,35.7899],[-119.5363,36.0653],[-119.6078,36.0653],[-119.6077,36.1379],[-119.7442,36.1379],[-119.7446,36.2549],[-119.9589,36.2555],[-119.9589,36.1814],[-120.0982,36.0746]]]},"properties":{"GEOID":"0603193250","BASENAME":"Stratford","NAME":"Stratford CCD","COUNTY":"031","COUSUB":"93250"}}]}