{"type":"FeatureCollection","features":[{"type":"Feature","geometry":{"type":"Polygon","coordinates":[[[-122.7048,38.8926],[-122.6985,38.8901],[-122.6953,38.8866],[-122.6902,38.8745],[-122.6871,38.8741],[-122.6832,38.8765],[-122.6772,38.8759],[-122.6742,38.8736],[-122.6754,38.8712],[-122.6746,38.8684],[-122.6705,38.866],[-122.6695,38.8636],[-122.6733,38.8594],[-122.6721,38.8574],[-122.6729,38.8558],[-122.6701,38.8538],[-122.6777,38.8539],[-122.6839,38.8518],[-122.6762,38.8492],[-122.6663,38.8488],[-122.662,38.845],[-122.6578,38.8447],[-122.6516,38.834],[-122.6433,38.8302],[-122.6367,38.8296],[-122.6331,38.8276],[-122.6314,38.8238],[-122.6235,38.8194],[-122.6197,38.8121],[-122.6166,38.8107],[-122.6147,38.8057],[-122.6135,38.8069],[-122.6045,38.8038],[-122.596,38.8061],[-122.5883,38.8056],[-122.5791,38.8012],[-122.5757,38.8009],[-122.5739,38.7961],[-122.5699,38.7949],[-122.5664,38.7907],[-122.566,38.7929],[-122.5672,38.795],[-122.5749,38.7998],[-122.5755,38.8019],[-122.5722,38.8139],[-122.5766,38.8199],[-122.5743,38.8207],[-122.5684,38.819],[-122.5644,38.8192],[-122.5622,38.8214],[-122.5541,38.8221],[-122.5497,38.8208],[-122.5475,38.8214],[-122.5437,38.8262],[-122.5345,38.829],[-122.5271,38.8282],[-122.5221,38.8273],[-122.5139,38.8215],[-122.5068,38.8195],[-122.5028,38.817],[-122.4995,38.8167],[-122.4957,38.8183],[-122.493,38.8157],[-122.4924,38.8126],[-122.4926,38.8023],[-122.4898,38.8013],[-122.4902,38.7988],[-122.4885,38.7979],[-122.4861,38.7936],[-122.4781,38.7896],[-122.4757,38.7912],[-122.4724,38.7904],[-122.4588,38.7926],[-122.457,38.7899],[-122.4582,38.789],[-122.458,38.7856],[-122.4544,38.7833],[-122.4538,38.7795],[-122.4422,38.7789],[-122.4409,38.7779],[-122.4405,38.7737],[-122.4378,38.7718],[-122.432,38.7719],[-122.4296,38.7703],[-122.4253,38.7715],[-122.4233,38.7704],[-122.4185,38.7712],[-122.4167,38.7704],[-122.4159,38.7682],[-122.403,38.7731],[-122.4093,38.7763],[-122.4088,38.7794],[-122.4073,38.7802],[-122.4086,38.7822],[-122.4079,38.7845],[-122.4127,38.786],[-122.4086,38.7882],[-122.4074,38.7939],[-122.4044,38.7986],[-122.3975,38.8049],[-122.3898,38.8025],[-122.3881,38.8033],[-122.3797,38.8022],[-122.3789,38.8055],[-122.3756,38.8081],[-122.3742,38.8119],[-122.3753,38.8139],[-122.3736,38.817],[-122.3768,38.8222],[-122.3754,38.8265],[-122.3794,38.8298],[-122.3817,38.8341],[-122.3851,38.8347],[-122.3896,38.8384],[-122.3909,38.8427],[-122.3944,38.8459],[-122.394,38.8473],[-122.3955,38.8479],[-122.3968,38.8509],[-122.4017,38.8562],[-122.4038,38.8558],[-122.3911,38.8673],[-122.3912,38.8687],[-122.3954,38.8707],[-122.3964,38.8741],[-122.4018,38.8762],[-122.4057,38.8799],[-122.4053,38.8834],[-122.4111,38.8894],[-122.4156,38.8971],[-122.4191,38.8982],[-122.422,38.9009],[-122.4219,38.9038],[-122.4158,38.9074],[-122.4165,38.9096],[-122.4124,38.9125],[-122.4099,38.9186],[-122.4047,38.9231],[-122.4039,38.9253],[-122.4133,38.9395],[-122.4097,38.9415],[-122.41,38.9423],[-122.4141,38.942],[-122.4166,38.9447],[-122.4156,38.9475],[-122.4175,38.9486],[-122.4217,38.9451],[-122.4253,38.9471],[-122.4293,38.9447],[-122.4356,38.9446],[-122.439,38.943],[-122.4505,38.9485],[-122.4538,38.9511],[-122.4514,38.9547],[-122.4555,38.9567],[-122.4562,38.9597],[-122.4674,38.9625],[-122.4674,38.9644],[-122.465,38.9669],[-122.4683,38.971],[-122.4674,38.9737],[-122.4694,38.9765],[-122.4776,38.98],[-122.4795,38.9831],[-122.4789,38.9882],[-122.4808,38.989],[-122.483,38.9879],[-122.4843,38.9849],[-122.4959,38.9837],[-122.5037,38.9809],[-122.5023,38.9791],[-122.4965,38.9765],[-122.4976,38.9734],[-122.5065,38.9754],[-122.5071,38.9765],[-122.5154,38.9756],[-122.5156,38.9777],[-122.5171,38.9781],[-122.521,38.9752],[-122.5191,38.9733],[-122.5234,38.9706],[-122.5283,38.9731],[-122.5347,38.9695],[-122.5387,38.9696],[-122.5397,38.967],[-122.5455,38.9639],[-122.5495,38.9541],[-122.552,38.9534],[-122.5554,38.9476],[-122.5591,38.9472],[-122.5605,38.9448],[-122.563,38.9441],[-122.5617,38.9422],[-122.5629,38.9398],[-122.5687,38.9362],[-122.5683,38.9335],[-122.5694,38.9318],[-122.5655,38.9255],[-122.5668,38.923],[-122.5756,38.9267],[-122.5864,38.9273],[-122.5985,38.9198],[-122.6056,38.9225],[-122.6094,38.9258],[-122.6151,38.9252],[-122.6199,38.9263],[-122.6291,38.9301],[-122.6306,38.9321],[-122.6396,38.9308],[-122.6436,38.9375],[-122.6412,38.9431],[-122.6424,38.9449],[-122.6459,38.9458],[-122.6471,38.9478],[-122.658,38.9356],[-122.6594,38.9324],[-122.6567,38.93],[-122.66,38.9252],[-122.6651,38.9212],[-122.6606,38.9188],[-122.6606,38.9173],[-122.6577,38.9145],[-122.65,38.9135],[-122.6461,38.9104],[-122.6485,38.9101],[-122.6525,38.907],[-122.6625,38.9051],[-122.6826,38.906],[-122.6843,38.9043],[-122.6848,38.9009],[-122.6969,38.8985],[-122.6979,38.8965],[-122.7048,38.8926]]]},"properties":{"GEOID":"0603391775","BASENAME":"Lower Lake","NAME":"Lower Lake CCD","COUNTY":"033","COUSUB":"91775"}},{"type":"Feature","geometry":{"type":"Polygon","coordinates":[[[-122.7336,38.7717],[-122.7295,38.7707],[-122.7283,38.7662],[-122.7227,38.763],[-122.7242,38.7566],[-122.7215,38.7566],[-122.7201,38.7535],[-122.7093,38.749],[-122.7088,38.7464],[-122.7123,38.7422],[-122.7111,38.7402],[-122.712,38.7376],[-122.7104,38.7321],[-122.7007,38.7286],[-122.7007,38.7263],[-122.6963,38.7201],[-122.6974,38.7189],[-122.6955,38.7131],[-122.6936,38.713],[-122.6918,38.7109],[-122.6839,38.7095],[-122.6824,38.7079],[-122.6768,38.708],[-122.6742,38.7064],[-122.6723,38.7063],[-122.6694,38.7084],[-122.6622,38.7059],[-122.6475,38.7069],[-122.6439,38.7026],[-122.6443,38.6996],[-122.6406,38.6973],[-122.6399,38.695],[-122.637,38.6937],[-122.6395,38.6891],[-122.6339,38.6853],[-122.6316,38.6802],[-122.6255,38.6744],[-122.6268,38.6708],[-122.4641,38.7061],[-122.4159,38.7682],[-122.4167,38.7704],[-122.4185,38.7712],[-122.4233,38.7704],[-122.4253,38.7715],[-122.4296,38.7703],[-122.432,38.7719],[-122.4378,38.7718],[-122.4405,38.7737],[-122.4409,38.7779],[-122.4422,38.7789],[-122.4538,38.7795],[-122.4544,38.7833],[-122.458,38.7856],[-122.4582,38.789],[-122.457,38.7899],[-122.4588,38.7926],[-122.4724,38.7904],[-122.4757,38.7912],[-122.4781,38.7896],[-122.4861,38.7936],[-122.4885,38.7979],[-122.4902,38.7988],[-122.4898,38.8013],[-122.4926,38.8023],[-122.4923,38.8115],[-122.4937,38.8165],[-122.4957,38.8183],[-122.4995,38.8167],[-122.5029,38.817],[-122.5068,38.8195],[-122.5139,38.8215],[-122.5224,38.8274],[-122.5345,38.829],[-122.5437,38.8262],[-122.5475,38.8214],[-122.5497,38.8208],[-122.5541,38.8221],[-122.5622,38.8214],[-122.5644,38.8192],[-122.5684,38.819],[-122.5743,38.8207],[-122.5766,38.8199],[-122.5722,38.8139],[-122.5755,38.8019],[-122.5749,38.7998],[-122.5672,38.795],[-122.566,38.7929],[-122.5664,38.7907],[-122.5699,38.7949],[-122.5739,38.7961],[-122.5757,38.8009],[-122.5791,38.8012],[-122.5883,38.8056],[-122.596,38.8061],[-122.6045,38.8038],[-122.6135,38.8069],[-122.6147,38.8057],[-122.6166,38.8107],[-122.6197,38.8121],[-122.6235,38.8194],[-122.6314,38.8238],[-122.6331,38.8276],[-122.6367,38.8296],[-122.6433,38.8302],[-122.6516,38.834],[-122.6578,38.8447],[-122.662,38.845],[-122.6663,38.8488],[-122.6762,38.8492],[-122.684,38.8519],[-122.688,38.8507],[-122.6867,38.8502],[-122.6886,38.8495],[-122.688,38.8484],[-122.6959,38.8477],[-122.6934,38.8473],[-122.6895,38.8443],[-122.6894,38.8425],[-122.6791,38.8311],[-122.6751,38.8312],[-122.6728,38.8298],[-122.6716,38.8307],[-122.6684,38.829],[-122.6684,38.8276],[-122.6709,38.8269],[-122.6706,38.8215],[-122.674,38.8249],[-122.6815,38.824],[-122.6842,38.8224],[-122.6861,38.8176],[-122.688,38.8166],[-122.681,38.8122],[-122.6848,38.8079],[-122.6894,38.8094],[-122.6911,38.8112],[-122.691,38.8129],[-122.6981,38.8149],[-122.6982,38.8164],[-122.6971,38.8158],[-122.6967,38.8167],[-122.6986,38.818],[-122.704,38.8171],[-122.7077,38.8179],[-122.7077,38.8147],[-122.712,38.8145],[-122.71,38.8115],[-122.7098,38.8085],[-122.7049,38.8064],[-122.7063,38.8047],[-122.7033,38.794],[-122.7007,38.7917],[-122.6968,38.7919],[-122.6923,38.7854],[-122.6856,38.7819],[-122.69,38.7803],[-122.6951,38.7834],[-122.7044,38.7821],[-122.7133,38.7849],[-122.7162,38.7833],[-122.7194,38.7835],[-122.7215,38.7796],[-122.7279,38.7774],[-122.7269,38.7747],[-122.7299,38.7754],[-122.7313,38.7738],[-122.7304,38.7729],[-122.7336,38.7717]]]},"properties":{"GEOID":"0603391975","BASENAME":"Middletown","NAME":"Middletown CCD","COUNTY":"033","COUSUB":"91975"}},{"type":"Feature","geometry":{"type":"Polygon","coordinates":[[[-122.8853,38.8942],[-122.8822,38.8871],[-122.8789,38.8852],[-122.8788,38.8809],[-122.8757,38.8808],[-122.8765,38.8731],[-122.8578,38.8733],[-122.8585,38.8658],[-122.84,38.866],[-122.8401,38.858],[-122.8214,38.8579],[-122.8216,38.8501],[-122.8197,38.849],[-122.8177,38.8498],[-122.8167,38.8476],[-122.8183,38.8446],[-122.8121,38.8429],[-122.8111,38.8413],[-122.8121,38.8384],[-122.8062,38.8362],[-122.7998,38.837],[-122.7983,38.8393],[-122.796,38.839],[-122.7954,38.8358],[-122.7914,38.8304],[-122.7894,38.8303],[-122.7861,38.8273],[-122.7802,38.8268],[-122.7666,38.8158],[-122.7676,38.8139],[-122.7614,38.8112],[-122.7588,38.8078],[-122.7482,38.8038],[-122.7462,38.7992],[-122.7482,38.7878],[-122.7424,38.7824],[-122.7389,38.7819],[-122.7367,38.7797],[-122.7353,38.7779],[-122.7364,38.7768],[-122.7359,38.7745],[-122.7337,38.7717],[-122.7304,38.7729],[-122.7313,38.7738],[-122.7299,38.7754],[-122.7269,38.7747],[-122.7279,38.7774],[-122.7215,38.7796],[-122.7194,38.7835],[-122.7162,38.7833],[-122.7133,38.7849],[-122.7044,38.7821],[-122.6951,38.7834],[-122.69,38.7803],[-122.6856,38.7819],[-122.6923,38.7854],[-122.6968,38.7919],[-122.7007,38.7917],[-122.7033,38.794],[-122.7063,38.8047],[-122.7049,38.8064],[-122.7098,38.8085],[-122.71,38.8115],[-122.712,38.8145],[-122.7077,38.8147],[-122.7077,38.8179],[-122.704,38.8171],[-122.6986,38.818],[-122.6967,38.8167],[-122.6971,38.8158],[-122.6982,38.8164],[-122.6981,38.8149],[-122.691,38.8129],[-122.6911,38.8112],[-122.6894,38.8094],[-122.6848,38.8079],[-122.681,38.8122],[-122.688,38.8166],[-122.6861,38.8176],[-122.6842,38.8224],[-122.6815,38.824],[-122.674,38.8249],[-122.6706,38.8215],[-122.6709,38.8269],[-122.6684,38.8276],[-122.6684,38.829],[-122.6716,38.8307],[-122.6728,38.8298],[-122.6751,38.8312],[-122.6791,38.8311],[-122.6894,38.8425],[-122.6895,38.8443],[-122.6934,38.8473],[-122.6959,38.8477],[-122.688,38.8484],[-122.6886,38.8495],[-122.6867,38.8502],[-122.6877,38.851],[-122.681,38.8534],[-122.6701,38.8538],[-122.6729,38.8558],[-122.6721,38.8574],[-122.6733,38.8594],[-122.6724,38.8615],[-122.6696,38.8627],[-122.6698,38.8647],[-122.6746,38.8684],[-122.6754,38.8712],[-122.6742,38.8736],[-122.6772,38.8759],[-122.6843,38.8765],[-122.6869,38.8741],[-122.6902,38.8745],[-122.6952,38.8865],[-122.6985,38.8901],[-122.7162,38.8957],[-122.7233,38.8994],[-122.7266,38.8995],[-122.728,38.9011],[-122.7338,38.9032],[-122.7413,38.9103],[-122.7537,38.9153],[-122.7513,38.9153],[-122.7511,38.9172],[-122.7486,38.9182],[-122.7415,38.9297],[-122.749,38.9326],[-122.7607,38.9399],[-122.7674,38.9423],[-122.7752,38.9432],[-122.7825,38.9399],[-122.7873,38.9422],[-122.7962,38.9436],[-122.8091,38.9424],[-122.8233,38.9477],[-122.8257,38.9498],[-122.8252,38.9446],[-122.8323,38.9482],[-122.8313,38.9499],[-122.8387,38.9546],[-122.8425,38.949],[-122.8483,38.9475],[-122.8463,38.9404],[-122.8494,38.939],[-122.8504,38.9371],[-122.8489,38.9345],[-122.8436,38.9319],[-122.8446,38.9262],[-122.8485,38.9237],[-122.8556,38.9153],[-122.8643,38.9114],[-122.8679,38.911],[-122.8713,38.9136],[-122.8754,38.9136],[-122.8772,38.9164],[-122.877,38.9139],[-122.874,38.9126],[-122.8711,38.906],[-122.8753,38.9043],[-122.8777,38.9008],[-122.8816,38.8994],[-122.8815,38.8975],[-122.8853,38.8942]]]},"properties":{"GEOID":"0603390545","BASENAME":"Cobb","NAME":"Cobb CCD","COUNTY":"033","COUSUB":"90545"}},{"type":"Feature","geometry":{"type":"Polygon","coordinates":[[[-122.8306,38.979],[-122.8274,38.978],[-122.8279,38.9754],[-122.8217,38.9747],[-122.8214,38.9723],[-122.8229,38.97],[-122.825,38.9701],[-122.8251,38.968],[-122.827,38.9675],[-122.8198,38.9639],[-122.82,38.9547],[-122.8176,38.9515],[-122.8136,38.9505],[-122.8123,38.9473],[-122.8151,38.9463],[-122.8154,38.9447],[-122.8088,38.9424],[-122.7959,38.9435],[-122.7873,38.9422],[-122.7825,38.9399],[-122.7735,38.9431],[-122.7601,38.9397],[-122.749,38.9326],[-122.7415,38.9297],[-122.7486,38.9182],[-122.7511,38.9172],[-122.7513,38.9153],[-122.7537,38.9153],[-122.7413,38.9103],[-122.7338,38.9032],[-122.728,38.9011],[-122.7266,38.8995],[-122.7233,38.8994],[-122.7162,38.8957],[-122.7048,38.8926],[-122.6979,38.8965],[-122.6969,38.8985],[-122.6848,38.9009],[-122.6843,38.9043],[-122.6826,38.906],[-122.6625,38.9051],[-122.6525,38.907],[-122.6485,38.9101],[-122.6461,38.9104],[-122.65,38.9135],[-122.6577,38.9145],[-122.6606,38.9173],[-122.6607,38.9189],[-122.6651,38.9211],[-122.66,38.9252],[-122.6567,38.93],[-122.6594,38.9324],[-122.6545,38.9404],[-122.6541,38.9391],[-122.6471,38.9478],[-122.649,38.9508],[-122.6506,38.9525],[-122.6602,38.9556],[-122.6698,38.9535],[-122.6982,38.9695],[-122.7033,38.9706],[-122.7418,38.9985],[-122.742,39.0233],[-122.7443,39.0267],[-122.807,39.0417],[-122.812,39.0213],[-122.8149,39.0178],[-122.8135,39.0132],[-122.8144,39.0079],[-122.8197,39.0072],[-122.8149,38.9965],[-122.8196,38.9964],[-122.82,38.9851],[-122.8271,38.9819],[-122.8272,38.9793],[-122.8306,38.979]]]},"properties":{"GEOID":"0603390505","BASENAME":"Clearlake Riviera","NAME":"Clearlake Riviera CCD","COUNTY":"033","COUSUB":"90505"}},{"type":"Feature","geometry":{"type":"Polygon","coordinates":[[[-123.0942,39.0889],[-123.093,39.072],[-123.0837,39.0718],[-123.0838,39.0645],[-123.0651,39.0644],[-123.0651,39.0592],[-123.0641,39.0582],[-123.0621,39.058],[-123.0628,39.0592],[-123.0604,39.0582],[-123.0579,39.0601],[-123.0529,39.0567],[-123.0494,39.0559],[-123.0474,39.0576],[-123.0448,39.0565],[-123.0405,39.0592],[-123.041,39.0603],[-123.0372,39.0621],[-123.031,39.0619],[-123.0307,39.0607],[-123.0328,39.059],[-123.0302,39.0556],[-123.0342,39.0515],[-123.0337,39.0499],[-123.0352,39.0484],[-123.034,39.0474],[-123.0237,39.0501],[-123.0217,39.0474],[-123.0173,39.0477],[-123.0167,39.049],[-123.0098,39.0459],[-123.0086,39.047],[-123.0048,39.0468],[-123.004,39.0451],[-123.003,39.0468],[-122.9971,39.0462],[-122.9961,39.0485],[-122.9921,39.0482],[-122.9906,39.047],[-122.9884,39.0476],[-122.9852,39.0442],[-122.9846,39.0449],[-122.983,39.0415],[-122.9774,39.041],[-122.9738,39.0423],[-122.9683,39.0406],[-122.966,39.0444],[-122.9618,39.0446],[-122.96,39.0476],[-122.9543,39.0501],[-122.9513,39.0536],[-122.9513,39.0584],[-122.9481,39.0613],[-122.9526,39.0631],[-122.955,39.0663],[-122.9571,39.0671],[-122.957,39.0731],[-122.9589,39.0733],[-122.9609,39.0816],[-122.9661,39.0875],[-122.9648,39.0892],[-122.9656,39.0934],[-122.9651,39.0946],[-122.9621,39.0945],[-122.9581,39.1061],[-122.9494,39.1105],[-122.9435,39.1155],[-122.9433,39.1171],[-122.9374,39.1174],[-122.9324,39.116],[-122.9208,39.1095],[-122.917,39.1108],[-122.9094,39.111],[-122.9058,39.1152],[-122.905,39.1184],[-122.9,39.1163],[-122.8915,39.121],[-122.8887,39.1182],[-122.8862,39.1183],[-122.854,39.0529],[-122.8276,39.1154],[-122.824,39.1142],[-122.8195,39.1093],[-122.819,39.1069],[-122.8133,39.1039],[-122.8121,39.1104],[-122.8101,39.1121],[-122.8228,39.1186],[-122.82,39.1185],[-122.8217,39.1226],[-122.8199,39.1225],[-122.8203,39.1242],[-122.819,39.1241],[-122.8158,39.1283],[-122.8139,39.1257],[-122.8118,39.1272],[-122.8036,39.1261],[-122.804,39.1269],[-122.8017,39.1277],[-122.8056,39.129],[-122.8066,39.1302],[-122.8058,39.1314],[-122.8075,39.1308],[-122.8083,39.1322],[-122.8086,39.1338],[-122.8063,39.136],[-122.808,39.1395],[-122.8067,39.1419],[-122.8081,39.1431],[-122.8065,39.1474],[-122.8105,39.1511],[-122.8089,39.1534],[-122.8128,39.1556],[-122.8141,39.1579],[-122.8115,39.1586],[-122.8077,39.1576],[-122.8003,39.1593],[-122.7933,39.1634],[-122.794,39.1645],[-122.7908,39.1674],[-122.8076,39.1719],[-122.8041,39.1729],[-122.8028,39.1749],[-122.805,39.1751],[-122.8052,39.1772],[-122.8076,39.1781],[-122.8053,39.1786],[-122.806,39.1791],[-122.805,39.1812],[-122.8007,39.1821],[-122.8021,39.1844],[-122.8012,39.185],[-122.809,39.1891],[-122.808,39.1901],[-122.8118,39.1922],[-122.8116,39.1953],[-122.8152,39.1987],[-122.8177,39.1997],[-122.819,39.1968],[-122.8205,39.1977],[-122.8232,39.2046],[-122.821,39.2066],[-122.8224,39.2088],[-122.8184,39.2107],[-122.8228,39.2161],[-122.8172,39.2218],[-122.8199,39.2225],[-122.8105,39.2257],[-122.8079,39.2285],[-122.8081,39.2294],[-122.8109,39.2292],[-122.8091,39.2315],[-122.8059,39.2315],[-122.8025,39.2338],[-122.8018,39.2364],[-122.8002,39.2364],[-122.7974,39.2398],[-122.7976,39.2414],[-122.7994,39.2407],[-122.8015,39.2421],[-122.8034,39.2409],[-122.8024,39.2424],[-122.7997,39.2437],[-122.7941,39.243],[-122.7951,39.2443],[-122.7933,39.2473],[-122.7915,39.2476],[-122.7909,39.2503],[-122.7929,39.2524],[-122.791,39.2526],[-122.7905,39.2542],[-122.7913,39.2571],[-122.8104,39.2721],[-122.8129,39.277],[-122.813,39.2802],[-122.8169,39.2826],[-122.8168,39.2842],[-122.8198,39.2876],[-122.8194,39.2893],[-122.8211,39.29],[-122.8188,39.2908],[-122.8213,39.2917],[-122.8195,39.2921],[-122.821,39.2926],[-122.8195,39.2933],[-122.8218,39.2953],[-122.8212,39.2969],[-122.8267,39.3011],[-122.8267,39.3025],[-122.8299,39.3029],[-122.8295,39.3039],[-122.8349,39.3103],[-122.8329,39.3114],[-122.828,39.3094],[-122.8208,39.31],[-122.8138,39.3069],[-122.8072,39.3081],[-122.7944,39.3056],[-122.7765,39.3074],[-122.7773,39.3083],[-122.7753,39.3126],[-122.7755,39.3152],[-122.7727,39.319],[-122.7725,39.324],[-122.7683,39.3255],[-122.7682,39.3311],[-122.7648,39.335],[-122.7653,39.3427],[-122.7612,39.3446],[-122.7524,39.346],[-122.7458,39.3562],[-122.7424,39.3575],[-122.7417,39.3589],[-122.7435,39.3681],[-122.7522,39.3706],[-122.7548,39.3749],[-122.7599,39.3781],[-122.7642,39.3774],[-122.7687,39.3737],[-122.7743,39.3747],[-122.7789,39.3793],[-122.7818,39.3795],[-122.7851,39.383],[-122.7391,39.3833],[-122.7393,39.4077],[-122.7417,39.4352],[-122.7326,39.4508],[-122.7316,39.4792],[-122.7324,39.4946],[-122.7365,39.5085],[-122.7356,39.5807],[-122.7539,39.5812],[-122.7725,39.5795],[-122.8141,39.5814],[-122.8284,39.5797],[-122.8854,39.5801],[-122.8858,39.5651],[-122.8903,39.529],[-122.9367,39.5307],[-122.9367,39.5164],[-123.0252,39.5187],[-123.025,39.5112],[-123.0444,39.5112],[-123.0444,39.5036],[-123.0632,39.5035],[-123.063,39.4525],[-123.0731,39.4527],[-123.0701,39.4365],[-123.0749,39.4366],[-123.0751,39.4077],[-123.0563,39.4076],[-123.0571,39.3787],[-123.0475,39.3786],[-123.0486,39.3641],[-123.0379,39.3639],[-123.0377,39.3362],[-123.0287,39.3366],[-123.0287,39.3218],[-123.0197,39.3218],[-123.0196,39.278],[-123.0045,39.2782],[-123.0036,39.2574],[-122.9945,39.2568],[-122.9948,39.2359],[-123.0127,39.2362],[-123.0125,39.221],[-123.0208,39.2207],[-123.0211,39.2137],[-123.0241,39.2137],[-123.0243,39.2071],[-123.0288,39.2068],[-123.0297,39.1996],[-123.0341,39.1997],[-123.0348,39.1924],[-123.0401,39.1925],[-123.0409,39.1807],[-123.0454,39.1806],[-123.0458,39.1735],[-123.0778,39.1738],[-123.0781,39.1387],[-123.0875,39.1384],[-123.0876,39.1101],[-123.0852,39.1101],[-123.085,39.0953],[-123.0942,39.0953],[-123.0942,39.0889]]]},"properties":{"GEOID":"0603393505","BASENAME":"Upper Lake-Nice","NAME":"Upper Lake-Nice CCD","COUNTY":"033","COUSUB":"93505"}},{"type":"Feature","geometry":{"type":"Polygon","coordinates":[[[-122.9867,38.9845],[-122.9867,38.983],[-122.9774,38.9829],[-122.9777,38.9467],[-122.9683,38.9465],[-122.9699,38.9327],[-122.9602,38.9325],[-122.9619,38.9255],[-122.9491,38.9254],[-122.95,38.9097],[-122.9489,38.9002],[-122.9114,38.9015],[-122.9114,38.8952],[-122.8939,38.8955],[-122.8946,38.8808],[-122.8788,38.8809],[-122.8789,38.8852],[-122.8822,38.8871],[-122.8853,38.8942],[-122.8815,38.8975],[-122.8816,38.8994],[-122.8777,38.9008],[-122.8753,38.9043],[-122.8711,38.906],[-122.874,38.9126],[-122.877,38.9139],[-122.8772,38.9164],[-122.8754,38.9136],[-122.8713,38.9136],[-122.8679,38.911],[-122.8643,38.9114],[-122.8556,38.9153],[-122.8485,38.9237],[-122.8446,38.9261],[-122.8436,38.9319],[-122.8504,38.9365],[-122.8494,38.939],[-122.8463,38.9404],[-122.8482,38.9476],[-122.8425,38.949],[-122.8387,38.9546],[-122.8313,38.9499],[-122.8323,38.9482],[-122.8252,38.9446],[-122.8257,38.9498],[-122.8236,38.9478],[-122.8154,38.9447],[-122.8151,38.9463],[-122.8124,38.947],[-122.8136,38.9505],[-122.8176,38.9515],[-122.82,38.9547],[-122.8198,38.9639],[-122.827,38.9675],[-122.8251,38.968],[-122.825,38.9701],[-122.8229,38.97],[-122.8214,38.9723],[-122.8217,38.9747],[-122.8279,38.9754],[-122.8274,38.978],[-122.8306,38.979],[-122.8272,38.9793],[-122.8271,38.9819],[-122.82,38.9851],[-122.8196,38.9964],[-122.8149,38.9965],[-122.8197,39.0072],[-122.8144,39.0079],[-122.8135,39.0132],[-122.8149,39.0178],[-122.812,39.0213],[-122.807,39.0417],[-122.8541,39.053],[-122.8834,39.1126],[-122.8802,39.1009],[-122.8881,39.0912],[-122.8943,39.0788],[-122.8979,39.0676],[-122.899,39.0589],[-122.9024,39.0556],[-122.9075,39.0335],[-122.9101,39.0278],[-122.9087,39.0209],[-122.9047,39.0135],[-122.8945,39.0104],[-122.8941,38.9974],[-122.9124,38.9967],[-122.914,38.9995],[-122.9185,38.9984],[-122.928,38.9932],[-122.9308,38.9957],[-122.9458,38.9951],[-122.9485,38.9966],[-122.9542,38.9941],[-122.9604,38.9932],[-122.9669,38.9949],[-122.9683,38.9887],[-122.9725,38.9877],[-122.9727,38.9859],[-122.9693,38.9841],[-122.9701,38.9824],[-122.9673,38.9808],[-122.9651,38.9811],[-122.9698,38.9805],[-122.9737,38.9829],[-122.9772,38.9828],[-122.9775,38.9847],[-122.9835,38.9865],[-122.9837,38.9891],[-122.9867,38.9889],[-122.9867,38.9845]]]},"properties":{"GEOID":"0603391455","BASENAME":"Kelseyville","NAME":"Kelseyville CCD","COUNTY":"033","COUSUB":"91455"}},{"type":"Feature","geometry":{"type":"Polygon","coordinates":[[[-123.0652,39.0532],[-123.0652,39.05],[-123.0561,39.0499],[-123.0562,39.0211],[-123.047,39.0209],[-123.0468,39.0138],[-123.0375,39.0137],[-123.0373,39.0065],[-123.028,39.0065],[-123.028,38.9966],[-123.0186,38.9966],[-123.0186,38.993],[-123.0093,38.9932],[-123.0093,38.9972],[-122.9866,38.9973],[-122.9866,38.9888],[-122.9834,38.989],[-122.9835,38.9865],[-122.9775,38.9847],[-122.9772,38.9828],[-122.974,38.9829],[-122.971,38.9808],[-122.9672,38.9803],[-122.965,38.9814],[-122.9673,38.9808],[-122.9701,38.9824],[-122.9693,38.9841],[-122.9727,38.986],[-122.9725,38.9877],[-122.9683,38.9887],[-122.9669,38.9949],[-122.9604,38.9932],[-122.9542,38.9941],[-122.9485,38.9966],[-122.9458,38.9951],[-122.9308,38.9957],[-122.928,38.9932],[-122.9185,38.9984],[-122.914,38.9995],[-122.9124,38.9967],[-122.8941,38.9974],[-122.8945,39.0104],[-122.9047,39.0135],[-122.9087,39.0209],[-122.9101,39.0278],[-122.9075,39.0335],[-122.9024,39.0556],[-122.899,39.0589],[-122.8979,39.0676],[-122.8943,39.0788],[-122.8881,39.0912],[-122.8802,39.1009],[-122.8834,39.1126],[-122.8862,39.1183],[-122.8887,39.1182],[-122.8912,39.121],[-122.9,39.1163],[-122.905,39.1184],[-122.9058,39.1152],[-122.9094,39.111],[-122.917,39.1108],[-122.9208,39.1095],[-122.9324,39.116],[-122.9374,39.1174],[-122.9428,39.1172],[-122.9494,39.1105],[-122.9581,39.1061],[-122.9621,39.0945],[-122.9651,39.0946],[-122.9656,39.0934],[-122.9648,39.0892],[-122.9661,39.0875],[-122.9609,39.0816],[-122.9589,39.0733],[-122.957,39.0731],[-122.9569,39.0668],[-122.955,39.0663],[-122.9526,39.0631],[-122.9482,39.0612],[-122.9513,39.0584],[-122.9513,39.0536],[-122.9543,39.0501],[-122.96,39.0476],[-122.9618,39.0446],[-122.966,39.0444],[-122.968,39.0406],[-122.9738,39.0423],[-122.9774,39.041],[-122.983,39.0415],[-122.9846,39.0449],[-122.9852,39.0442],[-122.9884,39.0476],[-122.9906,39.047],[-122.9921,39.0482],[-122.9961,39.0485],[-122.9971,39.0462],[-123.003,39.0468],[-123.004,39.0451],[-123.0048,39.0468],[-123.0086,39.047],[-123.0098,39.0459],[-123.0167,39.049],[-123.0173,39.0477],[-123.0217,39.0474],[-123.0237,39.0501],[-123.034,39.0474],[-123.0352,39.0484],[-123.0337,39.0499],[-123.0342,39.0515],[-123.0302,39.0556],[-123.0327,39.0591],[-123.0303,39.0614],[-123.0346,39.0625],[-123.041,39.0603],[-123.0405,39.0592],[-123.0449,39.0565],[-123.0477,39.0575],[-123.0486,39.0559],[-123.0515,39.056],[-123.0579,39.0601],[-123.0605,39.0582],[-123.0651,39.0592],[-123.0652,39.0532]]]},"properties":{"GEOID":"0603391540","BASENAME":"Lakeport","NAME":"Lakeport CCD","COUNTY":"033","COUSUB":"91540"}},{"type":"Feature","geometry":{"type":"Polygon","coordinates":[[[-122.742,39.023],[-122.7418,38.9985],[-122.7164,38.9799],[-122.7033,38.9706],[-122.6982,38.9695],[-122.6698,38.9535],[-122.6602,38.9556],[-122.6506,38.9525],[-122.6459,38.9458],[-122.6424,38.9449],[-122.6412,38.9431],[-122.6436,38.9375],[-122.6396,38.9308],[-122.6306,38.9321],[-122.6291,38.9301],[-122.6199,38.9263],[-122.6151,38.9252],[-122.6094,38.9258],[-122.6056,38.9225],[-122.5985,38.9198],[-122.5864,38.9273],[-122.5756,38.9267],[-122.5664,38.9231],[-122.5655,38.9258],[-122.5694,38.9318],[-122.5683,38.9335],[-122.5687,38.9362],[-122.5629,38.9398],[-122.5617,38.9422],[-122.563,38.9441],[-122.5605,38.9448],[-122.5591,38.9472],[-122.5554,38.9476],[-122.552,38.9534],[-122.5495,38.9541],[-122.5455,38.9639],[-122.5397,38.967],[-122.5387,38.9696],[-122.5347,38.9695],[-122.5283,38.9731],[-122.5234,38.9706],[-122.5191,38.9733],[-122.521,38.9752],[-122.5171,38.9781],[-122.5156,38.9777],[-122.5154,38.9756],[-122.5071,38.9765],[-122.5065,38.9754],[-122.4976,38.9734],[-122.4965,38.9765],[-122.5023,38.9791],[-122.5037,38.9809],[-122.4959,38.9837],[-122.4843,38.9849],[-122.483,38.9879],[-122.4808,38.989],[-122.4789,38.9882],[-122.4795,38.9831],[-122.4776,38.98],[-122.4694,38.9765],[-122.4674,38.9737],[-122.4683,38.971],[-122.465,38.9669],[-122.4674,38.9644],[-122.4674,38.9625],[-122.4562,38.9597],[-122.4555,38.9567],[-122.4514,38.9547],[-122.4536,38.9508],[-122.439,38.943],[-122.4356,38.9446],[-122.4293,38.9447],[-122.4253,38.9471],[-122.4217,38.9451],[-122.4188,38.9482],[-122.4168,38.9484],[-122.4154,38.9471],[-122.4163,38.944],[-122.4134,38.9416],[-122.4097,38.9416],[-122.4133,38.9395],[-122.4039,38.9253],[-122.3402,38.9242],[-122.3414,38.9271],[-122.3501,38.9288],[-122.3636,38.9356],[-122.3676,38.939],[-122.373,38.9398],[-122.394,38.9556],[-122.3972,38.9565],[-122.4019,38.9558],[-122.4023,38.9574],[-122.4091,38.9628],[-122.4095,38.9642],[-122.4081,38.9659],[-122.4093,38.9682],[-122.4067,38.9694],[-122.407,38.9714],[-122.4167,38.978],[-122.4193,38.9892],[-122.4148,38.9935],[-122.4141,38.9954],[-122.4157,38.9972],[-122.4119,38.9981],[-122.4109,39.0024],[-122.4119,39.0051],[-122.4086,39.007],[-122.4109,39.0103],[-122.4094,39.0113],[-122.412,39.0112],[-122.4147,39.0091],[-122.4281,39.0091],[-122.4335,39.0109],[-122.4383,39.0149],[-122.4435,39.0159],[-122.4494,39.0217],[-122.4533,39.0228],[-122.4697,39.0252],[-122.4779,39.0219],[-122.4858,39.0229],[-122.49,39.0207],[-122.4913,39.0185],[-122.4898,39.0064],[-122.4936,39.0028],[-122.4972,39.0015],[-122.5042,39.0043],[-122.5101,39.0045],[-122.5229,38.9944],[-122.5393,38.9888],[-122.5428,38.9898],[-122.5565,38.9983],[-122.5599,39.0035],[-122.5607,39.0116],[-122.5674,39.0162],[-122.5735,39.0182],[-122.5842,39.0175],[-122.5883,39.0154],[-122.5919,39.0175],[-122.5975,39.0181],[-122.6063,39.01],[-122.6157,39.0087],[-122.6364,39.0141],[-122.6489,39.0204],[-122.6489,39.0156],[-122.6593,39.0158],[-122.6597,39.0124],[-122.6649,39.0117],[-122.6656,39.0138],[-122.6887,39.0172],[-122.7136,39.0151],[-122.7363,39.0173],[-122.742,39.023]]]},"properties":{"GEOID":"0603390503","BASENAME":"Clearlake","NAME":"Clearlake CCD","COUNTY":"033","COUSUB":"90503"}},{"type":"Feature","geometry":{"type":"Polygon","coordinates":[[[-122.8458,39.0728],[-122.854,39.0529],[-122.7443,39.0267],[-122.7363,39.0173],[-122.7136,39.0151],[-122.6887,39.0172],[-122.6656,39.0138],[-122.6649,39.0117],[-122.6597,39.0124],[-122.6593,39.0158],[-122.6489,39.0156],[-122.6489,39.0204],[-122.6364,39.0141],[-122.6157,39.0087],[-122.6063,39.01],[-122.5975,39.0181],[-122.5919,39.0175],[-122.5883,39.0154],[-122.5842,39.0175],[-122.5735,39.0182],[-122.5674,39.0162],[-122.5607,39.0116],[-122.5599,39.0035],[-122.5567,38.9985],[-122.5401,38.9889],[-122.5229,38.9944],[-122.5101,39.0045],[-122.5042,39.0043],[-122.4972,39.0015],[-122.4936,39.0028],[-122.4898,39.0064],[-122.4913,39.0185],[-122.49,39.0207],[-122.4856,39.023],[-122.4784,39.0219],[-122.4697,39.0252],[-122.4533,39.0228],[-122.4494,39.0217],[-122.4435,39.0159],[-122.4383,39.0149],[-122.4335,39.0109],[-122.4276,39.009],[-122.4145,39.0091],[-122.4091,39.0121],[-122.4112,39.0155],[-122.41,39.0175],[-122.4134,39.0202],[-122.4243,39.0204],[-122.4343,39.0225],[-122.4373,39.0214],[-122.4502,39.0327],[-122.4549,39.0344],[-122.4545,39.036],[-122.457,39.0384],[-122.4613,39.0387],[-122.467,39.0426],[-122.4682,39.0448],[-122.4658,39.0484],[-122.4815,39.0527],[-122.492,39.0535],[-122.4924,39.059],[-122.4895,39.0614],[-122.4908,39.0648],[-122.4876,39.0648],[-122.4839,39.067],[-122.4862,39.0694],[-122.4887,39.0692],[-122.4887,39.0718],[-122.4905,39.0743],[-122.4905,39.0773],[-122.4862,39.0825],[-122.486,39.0856],[-122.4884,39.0898],[-122.4874,39.0918],[-122.4889,39.0983],[-122.4965,39.1078],[-122.4942,39.1151],[-122.4972,39.1163],[-122.5009,39.1211],[-122.5002,39.1246],[-122.4978,39.1267],[-122.4972,39.1339],[-122.4948,39.1359],[-122.4968,39.1405],[-122.4929,39.1395],[-122.4866,39.1417],[-122.4802,39.1396],[-122.481,39.1383],[-122.4783,39.1397],[-122.4786,39.1408],[-122.4745,39.1447],[-122.477,39.1471],[-122.4777,39.1514],[-122.481,39.1528],[-122.4782,39.1548],[-122.4796,39.1551],[-122.4785,39.1557],[-122.4826,39.1629],[-122.477,39.167],[-122.4754,39.1701],[-122.4773,39.1739],[-122.4889,39.1763],[-122.4918,39.1753],[-122.4943,39.1791],[-122.4936,39.1835],[-122.4985,39.1911],[-122.5003,39.1911],[-122.5008,39.1897],[-122.5084,39.1903],[-122.512,39.1956],[-122.5145,39.1972],[-122.5159,39.2036],[-122.5153,39.2092],[-122.5218,39.2104],[-122.5272,39.2095],[-122.5288,39.2114],[-122.5339,39.2101],[-122.535,39.2116],[-122.5414,39.2069],[-122.5533,39.2067],[-122.5702,39.2039],[-122.5734,39.2043],[-122.5744,39.2068],[-122.582,39.212],[-122.5894,39.2136],[-122.5915,39.2125],[-122.5935,39.2143],[-122.6017,39.2142],[-122.6103,39.2162],[-122.6126,39.219],[-122.6227,39.2232],[-122.6318,39.2223],[-122.6349,39.2232],[-122.6402,39.2186],[-122.6486,39.2153],[-122.6488,39.214],[-122.6542,39.2153],[-122.6579,39.2149],[-122.6654,39.2175],[-122.6677,39.2208],[-122.6703,39.2214],[-122.6712,39.2242],[-122.6735,39.2257],[-122.6797,39.2245],[-122.6796,39.2268],[-122.6765,39.229],[-122.6761,39.2308],[-122.6817,39.2346],[-122.6809,39.2387],[-122.6869,39.2411],[-122.6914,39.2474],[-122.7125,39.257],[-122.7134,39.2595],[-122.717,39.2605],[-122.7162,39.2617],[-122.7171,39.2635],[-122.7232,39.2653],[-122.7232,39.2674],[-122.7286,39.2733],[-122.7328,39.2719],[-122.7367,39.2726],[-122.7389,39.275],[-122.7571,39.2843],[-122.7581,39.2854],[-122.7569,39.2869],[-122.7582,39.2939],[-122.7661,39.301],[-122.7662,39.3035],[-122.7678,39.3043],[-122.7705,39.31],[-122.7753,39.3126],[-122.7772,39.3085],[-122.7765,39.3075],[-122.7786,39.3065],[-122.7918,39.3056],[-122.8072,39.3081],[-122.8138,39.3069],[-122.8208,39.31],[-122.828,39.3094],[-122.8329,39.3114],[-122.8349,39.3104],[-122.8295,39.3039],[-122.8299,39.3029],[-122.8267,39.3025],[-122.8267,39.3011],[-122.8212,39.2969],[-122.8218,39.2953],[-122.8195,39.2933],[-122.821,39.2926],[-122.8195,39.2921],[-122.8213,39.2917],[-122.8188,39.2908],[-122.8211,39.29],[-122.8194,39.2893],[-122.8198,39.2876],[-122.8168,39.2842],[-122.8169,39.2826],[-122.813,39.2802],[-122.8129,39.277],[-122.8104,39.2721],[-122.7911,39.2568],[-122.7906,39.2533],[-122.7929,39.2523],[-122.7909,39.2503],[-122.7915,39.2476],[-122.7933,39.2473],[-122.7951,39.2443],[-122.7941,39.243],[-122.7997,39.2437],[-122.8024,39.2424],[-122.8034,39.2409],[-122.8015,39.2421],[-122.7994,39.2407],[-122.7976,39.2414],[-122.7974,39.2398],[-122.8002,39.2364],[-122.8018,39.2364],[-122.8025,39.2338],[-122.8059,39.2315],[-122.8091,39.2315],[-122.8109,39.2292],[-122.8081,39.2294],[-122.8079,39.2285],[-122.8105,39.2257],[-122.8199,39.2225],[-122.8172,39.2218],[-122.8228,39.216],[-122.8184,39.2106],[-122.8224,39.2088],[-122.821,39.2066],[-122.8232,39.2046],[-122.8204,39.1976],[-122.819,39.1968],[-122.8177,39.1997],[-122.8152,39.1987],[-122.8116,39.1953],[-122.8118,39.1922],[-122.808,39.1901],[-122.809,39.1891],[-122.8012,39.1852],[-122.8021,39.1844],[-122.8007,39.1821],[-122.805,39.1812],[-122.806,39.1791],[-122.8053,39.1786],[-122.8076,39.1781],[-122.8052,39.1772],[-122.805,39.1751],[-122.8028,39.1749],[-122.8041,39.1729],[-122.8076,39.1719],[-122.7908,39.1674],[-122.794,39.1645],[-122.7933,39.1634],[-122.8003,39.1593],[-122.8077,39.1576],[-122.8115,39.1586],[-122.8141,39.1579],[-122.8128,39.1556],[-122.8089,39.1534],[-122.8105,39.1511],[-122.8065,39.1474],[-122.8081,39.1431],[-122.8067,39.1419],[-122.808,39.1395],[-122.8063,39.136],[-122.8086,39.1338],[-122.8083,39.1322],[-122.8075,39.1308],[-122.8058,39.1314],[-122.8066,39.1302],[-122.8056,39.129],[-122.8017,39.1277],[-122.804,39.1269],[-122.8036,39.1261],[-122.8118,39.1272],[-122.8139,39.1257],[-122.8158,39.1283],[-122.819,39.1241],[-122.8203,39.1242],[-122.8199,39.1225],[-122.8217,39.1226],[-122.82,39.1185],[-122.8228,39.1186],[-122.8101,39.1121],[-122.8121,39.1104],[-122.8133,39.1039],[-122.819,39.1069],[-122.8195,39.1093],[-122.824,39.1142],[-122.8276,39.1154],[-122.8458,39.0728]]]},"properties":{"GEOID":"0603391795","BASENAME":"Lucerne-Clearlake Oaks","NAME":"Lucerne-Clearlake Oaks CCD","COUNTY":"033","COUSUB":"91795"}}]}