{"type":"FeatureCollection","features":[{"type":"Feature","geometry":{"type":"Polygon","coordinates":[[[-118.3789,33.9544],[-118.3788,33.9526],[-118.3701,33.9527],[-118.37,33.9309],[-118.3684,33.9304],[-118.3684,33.929],[-118.3784,33.929],[-118.3784,33.92],[-118.3765,33.92],[-118.3765,33.9172],[-118.3743,33.9166],[-118.3784,33.9164],[-118.3786,33.9154],[-118.3787,33.8946],[-118.3613,33.8947],[-118.3613,33.8729],[-118.3547,33.8729],[-118.3135,33.8871],[-118.3135,33.8729],[-118.3091,33.8729],[-118.3091,33.8656],[-118.2993,33.8657],[-118.2991,33.8705],[-118.2944,33.8705],[-118.2945,33.8665],[-118.2981,33.8664],[-118.2981,33.8656],[-118.2905,33.8664],[-118.2918,33.8941],[-118.2916,33.9595],[-118.3003,33.9595],[-118.3003,33.95],[-118.3024,33.95],[-118.3025,33.9455],[-118.3052,33.9455],[-118.3052,33.9418],[-118.309,33.9418],[-118.309,33.9382],[-118.3134,33.9382],[-118.3134,33.9455],[-118.3177,33.9455],[-118.3177,33.9709],[-118.3265,33.9709],[-118.3265,33.9673],[-118.333,33.9672],[-118.333,33.9727],[-118.3352,33.9727],[-118.3352,33.9818],[-118.3667,33.9819],[-118.3703,33.9816],[-118.3701,33.968],[-118.3729,33.9676],[-118.3716,33.9669],[-118.3712,33.9634],[-118.3777,33.96],[-118.3789,33.9544]]]},"properties":{"GEOID":"0603791400","BASENAME":"Inglewood","NAME":"Inglewood CCD","COUNTY":"037","COUSUB":"91400"}},{"type":"Feature","geometry":{"type":"Polygon","coordinates":[[[-118.8207,34.6658],[-118.6706,34.3607],[-118.6664,34.3595],[-118.6655,34.3569],[-118.6622,34.3567],[-118.6607,34.3531],[-118.6577,34.3519],[-118.6476,34.3527],[-118.6442,34.3515],[-118.6403,34.3527],[-118.6326,34.35],[-118.6226,34.349],[-118.6152,34.3454],[-118.6099,34.3383],[-118.603,34.3355],[-118.5982,34.3298],[-118.5951,34.3289],[-118.5932,34.3299],[-118.5921,34.3277],[-118.5874,34.3275],[-118.584,34.3244],[-118.5771,34.3258],[-118.5746,34.322],[-118.5697,34.3194],[-118.5637,34.3231],[-118.5559,34.3208],[-118.5514,34.3219],[-118.5472,34.3247],[-118.5476,34.3274],[-118.545,34.3299],[-118.5396,34.328],[-118.5322,34.3283],[-118.5303,34.33],[-118.5323,34.3319],[-118.5335,34.337],[-118.5257,34.3379],[-118.5223,34.3367],[-118.5227,34.3382],[-118.5259,34.3394],[-118.526,34.3416],[-118.5195,34.3404],[-118.5083,34.3339],[-118.504,34.3372],[-118.5088,34.3398],[-118.5103,34.3448],[-118.5081,34.3497],[-118.5068,34.365],[-118.4943,34.3781],[-118.4899,34.3751],[-118.4833,34.3757],[-118.4791,34.3734],[-118.4649,34.3805],[-118.4539,34.3784],[-118.438,34.3785],[-118.4293,34.3764],[-118.4248,34.3768],[-118.4176,34.381],[-118.4133,34.3812],[-118.4151,34.3969],[-118.4203,34.4063],[-118.4202,34.4129],[-118.4236,34.4196],[-118.4231,34.4297],[-118.4193,34.4333],[-118.4175,34.4372],[-118.4208,34.4476],[-118.4236,34.4498],[-118.4107,34.4643],[-118.3978,34.4689],[-118.3918,34.4735],[-118.3883,34.4812],[-118.3871,34.4815],[-118.3873,34.4961],[-118.3785,34.4962],[-118.3783,34.5024],[-118.3801,34.5037],[-118.3772,34.5045],[-118.3774,34.5108],[-118.3721,34.5109],[-118.3651,34.5163],[-118.3651,34.5251],[-118.3675,34.5301],[-118.3659,34.534],[-118.3676,34.5339],[-118.3723,34.5294],[-118.3758,34.5294],[-118.3768,34.5336],[-118.3777,34.5316],[-118.3754,34.5449],[-118.3724,34.5494],[-118.3672,34.5527],[-118.3617,34.5533],[-118.359,34.5629],[-118.3526,34.5607],[-118.3389,34.562],[-118.3364,34.564],[-118.3213,34.5639],[-118.3111,34.5614],[-118.3034,34.5636],[-118.2944,34.5644],[-118.2919,34.5631],[-118.2876,34.5633],[-118.2877,34.5814],[-118.2891,34.5873],[-118.2865,34.5897],[-118.2916,34.5876],[-118.304,34.5875],[-118.3056,34.5862],[-118.3108,34.5876],[-118.308,34.5877],[-118.3093,34.5902],[-118.3105,34.5908],[-118.3096,34.589],[-118.313,34.5908],[-118.3147,34.5901],[-118.3158,34.5924],[-118.3207,34.5953],[-118.3253,34.5938],[-118.3273,34.5968],[-118.3319,34.5975],[-118.3361,34.6007],[-118.3449,34.603],[-118.3481,34.6025],[-118.3487,34.6043],[-118.3467,34.6035],[-118.3435,34.6055],[-118.3457,34.6056],[-118.3478,34.6075],[-118.347,34.6084],[-118.3507,34.6086],[-118.3518,34.6144],[-118.353,34.6131],[-118.3566,34.6168],[-118.3642,34.6177],[-118.3635,34.6191],[-118.3656,34.619],[-118.3671,34.6206],[-118.3667,34.6232],[-118.3731,34.6255],[-118.3707,34.6298],[-118.3775,34.6306],[-118.3797,34.632],[-118.3854,34.6308],[-118.3859,34.6333],[-118.3831,34.6347],[-118.3809,34.6396],[-118.3972,34.6394],[-118.4036,34.6414],[-118.4038,34.6429],[-118.4056,34.6425],[-118.4066,34.6442],[-118.4059,34.6456],[-118.4079,34.6452],[-118.4075,34.647],[-118.409,34.648],[-118.4138,34.6483],[-118.4143,34.647],[-118.4153,34.6484],[-118.4226,34.649],[-118.4262,34.647],[-118.4282,34.648],[-118.435,34.6444],[-118.4404,34.6443],[-118.4421,34.6431],[-118.4496,34.6455],[-118.4596,34.6458],[-118.4711,34.6482],[-118.4769,34.6499],[-118.4774,34.6517],[-118.4805,34.6506],[-118.4813,34.6524],[-118.4794,34.6538],[-118.4636,34.6554],[-118.4628,34.6581],[-118.4589,34.6615],[-118.4613,34.6668],[-118.4609,34.669],[-118.4639,34.6679],[-118.4627,34.6695],[-118.4636,34.6707],[-118.4665,34.6696],[-118.4692,34.6718],[-118.4725,34.6702],[-118.4725,34.6714],[-118.4746,34.6706],[-118.4826,34.675],[-118.4865,34.675],[-118.4926,34.6796],[-118.5026,34.6835],[-118.5028,34.6861],[-118.5045,34.6874],[-118.5106,34.6867],[-118.5156,34.6883],[-118.5219,34.6865],[-118.5267,34.6885],[-118.529,34.6875],[-118.53,34.684],[-118.5333,34.684],[-118.5358,34.6817],[-118.5404,34.6812],[-118.5404,34.683],[-118.542,34.684],[-118.5442,34.683],[-118.5509,34.6861],[-118.5489,34.6891],[-118.5545,34.6908],[-118.559,34.6939],[-118.5647,34.6931],[-118.5637,34.6966],[-118.5711,34.7006],[-118.583,34.6976],[-118.5851,34.6955],[-118.5929,34.6964],[-118.5965,34.6948],[-118.6071,34.6932],[-118.6159,34.6873],[-118.6188,34.6823],[-118.6239,34.6817],[-118.6274,34.684],[-118.6314,34.6892],[-118.6428,34.6903],[-118.6632,34.6977],[-118.6659,34.7025],[-118.675,34.7072],[-118.6806,34.7149],[-118.6876,34.72],[-118.6949,34.7199],[-118.6962,34.7182],[-118.7095,34.7179],[-118.7106,34.7208],[-118.7124,34.7217],[-118.7135,34.7264],[-118.7094,34.7288],[-118.7121,34.731],[-118.7122,34.7297],[-118.7294,34.7316],[-118.7471,34.7316],[-118.7475,34.7392],[-118.7571,34.7397],[-118.757,34.7473],[-118.7659,34.7473],[-118.7659,34.7536],[-118.7797,34.7582],[-118.7789,34.7574],[-118.7861,34.7512],[-118.7917,34.7535],[-118.7954,34.7486],[-118.7989,34.7272],[-118.798,34.7125],[-118.7869,34.6887],[-118.777,34.6762],[-118.7666,34.6714],[-118.7621,34.6654],[-118.7561,34.6606],[-118.7531,34.6492],[-118.7589,34.6461],[-118.7607,34.6462],[-118.7624,34.6441],[-118.7691,34.6433],[-118.7723,34.645],[-118.7706,34.6462],[-118.7709,34.648],[-118.7769,34.6483],[-118.7801,34.6524],[-118.7846,34.6522],[-118.7856,34.6574],[-118.789,34.6566],[-118.79,34.6593],[-118.7988,34.6592],[-118.7989,34.6572],[-118.8002,34.6582],[-118.8043,34.6568],[-118.807,34.6589],[-118.8081,34.6616],[-118.8133,34.6605],[-118.8175,34.6614],[-118.8182,34.6659],[-118.8207,34.6658]]]},"properties":{"GEOID":"0603792110","BASENAME":"Newhall","NAME":"Newhall CCD","COUNTY":"037","COUSUB":"92110"}},{"type":"Feature","geometry":{"type":"Polygon","coordinates":[[[-118.4832,33.8044],[-118.3617,33.8042],[-118.3337,33.7805],[-118.3313,33.7861],[-118.3284,33.7861],[-118.3286,33.784],[-118.3301,33.7834],[-118.3231,33.7825],[-118.3231,33.7859],[-118.3278,33.7862],[-118.3287,33.7873],[-118.3287,33.789],[-118.3263,33.7885],[-118.3264,33.7903],[-118.3282,33.7903],[-118.3281,33.8009],[-118.326,33.8009],[-118.3259,33.8033],[-118.3279,33.8033],[-118.3279,33.8069],[-118.3117,33.8076],[-118.3117,33.8022],[-118.3088,33.8022],[-118.3091,33.8729],[-118.3135,33.8729],[-118.3135,33.8871],[-118.3525,33.8743],[-118.3525,33.8655],[-118.359,33.8655],[-118.3584,33.8627],[-118.3536,33.8583],[-118.3755,33.8583],[-118.3751,33.8561],[-118.3784,33.855],[-118.3728,33.8273],[-118.3744,33.8274],[-118.3744,33.8157],[-118.3796,33.8165],[-118.3844,33.819],[-118.3854,33.8189],[-118.3854,33.8163],[-118.3879,33.8146],[-118.4703,33.8176],[-118.4832,33.8044]]]},"properties":{"GEOID":"0603793380","BASENAME":"Torrance","NAME":"Torrance CCD","COUNTY":"037","COUSUB":"93380"}},{"type":"Feature","geometry":{"type":"Polygon","coordinates":[[[-118.2488,34.2225],[-118.2443,34.2202],[-118.244,34.2185],[-118.2401,34.2168],[-118.2395,34.2175],[-118.2352,34.213],[-118.2352,34.2091],[-118.2332,34.2078],[-118.2251,34.2056],[-118.2203,34.2063],[-118.2203,34.205],[-118.215,34.2064],[-118.215,34.2035],[-118.2177,34.2029],[-118.2167,34.1978],[-118.2128,34.1953],[-118.2134,34.1941],[-118.2122,34.1927],[-118.2081,34.1907],[-118.2081,34.1876],[-118.1964,34.1799],[-118.1924,34.1805],[-118.1889,34.1786],[-118.191,34.1732],[-118.1905,34.1703],[-118.1842,34.1597],[-118.1816,34.1499],[-118.1838,34.1491],[-118.1846,34.1454],[-118.1804,34.141],[-118.1857,34.1389],[-118.1861,34.1337],[-118.1828,34.1312],[-118.1826,34.1292],[-118.1813,34.1295],[-118.1802,34.1264],[-118.1765,34.1266],[-118.177,34.1231],[-118.1704,34.1269],[-118.1658,34.1256],[-118.1685,34.1239],[-118.1675,34.1211],[-118.1689,34.1199],[-118.1689,34.1178],[-118.1725,34.1138],[-118.177,34.1122],[-118.178,34.1103],[-118.178,34.0986],[-118.1418,34.0988],[-118.1418,34.1041],[-118.1347,34.1041],[-118.1353,34.1064],[-118.1279,34.1111],[-118.1217,34.105],[-118.1149,34.1135],[-118.0997,34.1135],[-118.098,34.1153],[-118.0912,34.1153],[-118.0914,34.1216],[-118.0902,34.1239],[-118.091,34.1268],[-118.0675,34.1315],[-118.0682,34.173],[-118.0656,34.1724],[-118.0657,34.1793],[-118.0778,34.1789],[-118.0781,34.1824],[-118.0824,34.1824],[-118.0825,34.1934],[-118.0964,34.1934],[-118.0961,34.1898],[-118.1004,34.1898],[-118.1005,34.1968],[-118.1048,34.1968],[-118.1048,34.1949],[-118.1068,34.1958],[-118.1179,34.2041],[-118.1362,34.2145],[-118.1537,34.2154],[-118.1728,34.2197],[-118.179,34.2197],[-118.1791,34.2226],[-118.187,34.2232],[-118.1869,34.2515],[-118.1953,34.2515],[-118.1955,34.2366],[-118.2174,34.2375],[-118.2175,34.2339],[-118.2219,34.2339],[-118.2216,34.2516],[-118.2434,34.2523],[-118.2435,34.2466],[-118.2485,34.244],[-118.2488,34.2225]]]},"properties":{"GEOID":"0603792400","BASENAME":"Pasadena","NAME":"Pasadena CCD","COUNTY":"037","COUSUB":"92400"}},{"type":"Feature","geometry":{"type":"Polygon","coordinates":[[[-118.8945,34.818],[-118.8209,34.6659],[-118.8182,34.6659],[-118.8175,34.6614],[-118.8133,34.6605],[-118.8081,34.6616],[-118.807,34.6589],[-118.8043,34.6568],[-118.8002,34.6582],[-118.7989,34.6572],[-118.7988,34.6592],[-118.79,34.6593],[-118.789,34.6566],[-118.7856,34.6574],[-118.7846,34.6522],[-118.7801,34.6524],[-118.7769,34.6483],[-118.7709,34.648],[-118.7706,34.6462],[-118.7723,34.645],[-118.7691,34.6433],[-118.7624,34.6441],[-118.7607,34.6462],[-118.7589,34.6461],[-118.7531,34.6492],[-118.755,34.6586],[-118.7659,34.6709],[-118.7774,34.6766],[-118.7877,34.69],[-118.7981,34.7134],[-118.7989,34.7272],[-118.7954,34.7486],[-118.7917,34.7535],[-118.7861,34.7512],[-118.7789,34.7574],[-118.7797,34.7582],[-118.7659,34.7536],[-118.7659,34.7473],[-118.757,34.7473],[-118.7571,34.7397],[-118.7475,34.7392],[-118.7471,34.7316],[-118.7294,34.7316],[-118.7122,34.7297],[-118.7121,34.731],[-118.7094,34.7288],[-118.7135,34.7264],[-118.7124,34.7217],[-118.7106,34.7208],[-118.7095,34.7179],[-118.6962,34.7182],[-118.6949,34.7199],[-118.6876,34.72],[-118.6806,34.7149],[-118.675,34.7072],[-118.6659,34.7025],[-118.6632,34.6977],[-118.6428,34.6903],[-118.6314,34.6892],[-118.6274,34.684],[-118.6239,34.6817],[-118.6188,34.6823],[-118.6159,34.6873],[-118.6071,34.6932],[-118.5965,34.6948],[-118.5929,34.6964],[-118.5851,34.6955],[-118.583,34.6976],[-118.5711,34.7006],[-118.5637,34.6966],[-118.5647,34.6931],[-118.559,34.6939],[-118.5545,34.6908],[-118.5489,34.6891],[-118.5509,34.6861],[-118.5442,34.683],[-118.542,34.684],[-118.5404,34.683],[-118.5404,34.6812],[-118.5358,34.6817],[-118.5333,34.684],[-118.53,34.684],[-118.529,34.6875],[-118.5267,34.6885],[-118.5219,34.6865],[-118.5156,34.6883],[-118.5106,34.6867],[-118.5043,34.6874],[-118.5028,34.6861],[-118.5026,34.6835],[-118.4926,34.6796],[-118.4865,34.675],[-118.4826,34.675],[-118.4746,34.6706],[-118.4725,34.6714],[-118.4725,34.6702],[-118.4692,34.6718],[-118.4665,34.6696],[-118.4636,34.6707],[-118.4627,34.6695],[-118.4639,34.6679],[-118.4609,34.669],[-118.4613,34.6668],[-118.4589,34.6615],[-118.4628,34.6581],[-118.4636,34.6554],[-118.4794,34.6538],[-118.4813,34.6524],[-118.4805,34.6506],[-118.4774,34.6517],[-118.4769,34.6499],[-118.4711,34.6482],[-118.4596,34.6458],[-118.4496,34.6455],[-118.4421,34.6431],[-118.4404,34.6443],[-118.435,34.6444],[-118.4282,34.648],[-118.4262,34.647],[-118.4226,34.649],[-118.4153,34.6484],[-118.4143,34.647],[-118.4138,34.6483],[-118.409,34.648],[-118.4075,34.647],[-118.4079,34.6452],[-118.4059,34.6456],[-118.4066,34.6442],[-118.4056,34.6425],[-118.4038,34.6429],[-118.4036,34.6414],[-118.3972,34.6394],[-118.3809,34.6396],[-118.3831,34.6347],[-118.3859,34.6333],[-118.3854,34.6308],[-118.3797,34.632],[-118.3775,34.6306],[-118.3707,34.6298],[-118.3731,34.6255],[-118.3667,34.6232],[-118.3671,34.6206],[-118.3656,34.619],[-118.3635,34.6191],[-118.3642,34.6177],[-118.3566,34.6168],[-118.353,34.6131],[-118.3518,34.6144],[-118.3507,34.6086],[-118.347,34.6084],[-118.3478,34.6075],[-118.3457,34.6056],[-118.3435,34.6055],[-118.3467,34.6035],[-118.3487,34.6043],[-118.3482,34.6025],[-118.3449,34.603],[-118.3361,34.6007],[-118.3319,34.5975],[-118.3273,34.5968],[-118.3253,34.5938],[-118.3207,34.5953],[-118.3158,34.5924],[-118.3147,34.5901],[-118.313,34.5908],[-118.3096,34.589],[-118.3105,34.5908],[-118.3093,34.5902],[-118.308,34.5877],[-118.3108,34.5876],[-118.3056,34.5862],[-118.304,34.5875],[-118.2916,34.5876],[-118.2784,34.5918],[-118.2754,34.5948],[-118.2716,34.5953],[-118.2711,34.6117],[-118.2586,34.608],[-118.2542,34.6086],[-118.2504,34.6073],[-118.2482,34.6106],[-118.2448,34.6082],[-118.243,34.6101],[-118.2353,34.6117],[-118.2357,34.6138],[-118.2334,34.6161],[-118.2337,34.6222],[-118.2363,34.6265],[-118.2361,34.6456],[-118.2077,34.6456],[-118.1997,34.647],[-118.1933,34.6456],[-118.1123,34.6459],[-118.1123,34.6605],[-118.0589,34.6606],[-118.0588,34.646],[-117.9164,34.6464],[-117.9165,34.6315],[-117.9075,34.6315],[-117.9073,34.6237],[-117.8808,34.624],[-117.8806,34.5579],[-117.7628,34.5582],[-117.729,34.5634],[-117.7114,34.5629],[-117.7024,34.5581],[-117.6671,34.5579],[-117.6675,34.8225],[-117.9877,34.8226],[-118.4845,34.8182],[-118.854,34.8178],[-118.8541,34.8033],[-118.8721,34.8032],[-118.8767,34.8032],[-118.8833,34.8094],[-118.8842,34.8135],[-118.8804,34.8178],[-118.8945,34.818]]]},"properties":{"GEOID":"0603792140","BASENAME":"North Antelope Valley","NAME":"North Antelope Valley CCD","COUNTY":"037","COUSUB":"92140"}},{"type":"Feature","geometry":{"type":"Polygon","coordinates":[[[-118.4237,34.427],[-118.4236,34.4194],[-118.4201,34.4125],[-118.4203,34.4065],[-118.4151,34.3969],[-118.413,34.3798],[-118.4031,34.3804],[-118.4003,34.3768],[-118.3971,34.3676],[-118.3898,34.3634],[-118.3864,34.3633],[-118.3891,34.361],[-118.392,34.3607],[-118.3863,34.3608],[-118.3854,34.3592],[-118.3852,34.361],[-118.3794,34.3623],[-118.378,34.3637],[-118.3794,34.3648],[-118.3779,34.3651],[-118.3765,34.3623],[-118.3712,34.3622],[-118.3666,34.3589],[-118.3643,34.362],[-118.3525,34.3665],[-118.3528,34.3685],[-118.3501,34.3689],[-118.3424,34.3742],[-118.3376,34.3752],[-118.3381,34.3761],[-118.3415,34.376],[-118.3367,34.3778],[-118.3354,34.3808],[-118.331,34.3825],[-118.3295,34.3817],[-118.3256,34.3852],[-118.3179,34.3843],[-118.3157,34.3898],[-118.3141,34.3898],[-118.3144,34.3884],[-118.3018,34.3894],[-118.3003,34.3923],[-118.2852,34.3964],[-118.2809,34.3951],[-118.2814,34.3939],[-118.2773,34.3958],[-118.2733,34.3959],[-118.2713,34.395],[-118.2695,34.3918],[-118.2689,34.3971],[-118.27,34.3981],[-118.2691,34.399],[-118.2672,34.3982],[-118.2633,34.3994],[-118.2606,34.3984],[-118.2598,34.3966],[-118.2577,34.397],[-118.256,34.3943],[-118.2532,34.3948],[-118.2552,34.3933],[-118.2551,34.392],[-118.2548,34.3931],[-118.2512,34.3935],[-118.2531,34.3907],[-118.2515,34.387],[-118.2521,34.3828],[-118.2483,34.3796],[-118.2532,34.3798],[-118.2549,34.3772],[-118.2575,34.3775],[-118.2567,34.3752],[-118.2535,34.3759],[-118.2523,34.3742],[-118.2495,34.3747],[-118.2487,34.3735],[-118.247,34.3753],[-118.2453,34.3746],[-118.2433,34.376],[-118.2423,34.3745],[-118.2405,34.3746],[-118.2399,34.3767],[-118.2317,34.3796],[-118.2276,34.3757],[-118.2208,34.3793],[-118.2203,34.377],[-118.2153,34.3769],[-118.2133,34.3748],[-118.2104,34.3772],[-118.2045,34.3756],[-118.198,34.3783],[-118.195,34.3778],[-118.1955,34.3805],[-118.1922,34.3801],[-118.1912,34.3815],[-118.1886,34.38],[-118.1842,34.3797],[-118.1808,34.3741],[-118.1726,34.371],[-118.1711,34.3756],[-118.1722,34.3769],[-118.1689,34.3775],[-118.1688,34.3762],[-118.1639,34.3743],[-118.1642,34.3783],[-118.1623,34.3793],[-118.1576,34.3789],[-118.1543,34.3802],[-118.1498,34.3759],[-118.1428,34.3748],[-118.1395,34.3779],[-118.1327,34.3795],[-118.129,34.3821],[-118.1228,34.3811],[-118.1213,34.3795],[-118.1192,34.3823],[-118.119,34.386],[-118.1145,34.3885],[-118.1107,34.3931],[-118.107,34.3943],[-118.1065,34.3968],[-118.1026,34.3986],[-118.102,34.4],[-118.0937,34.4002],[-118.0926,34.4021],[-118.0902,34.4025],[-118.0841,34.3995],[-118.0809,34.4002],[-118.0797,34.3969],[-118.0812,34.3917],[-118.0837,34.3924],[-118.0847,34.3891],[-118.0882,34.3862],[-118.0913,34.3874],[-118.0965,34.3853],[-118.0993,34.3855],[-118.0962,34.3793],[-118.0985,34.3749],[-118.1018,34.3741],[-118.1005,34.3709],[-118.106,34.3659],[-118.1098,34.3598],[-118.1107,34.3528],[-118.1097,34.3457],[-118.1107,34.3435],[-118.1089,34.3364],[-118.1126,34.335],[-118.1168,34.3301],[-118.1259,34.3264],[-118.1315,34.3182],[-118.1357,34.3172],[-118.1359,34.313],[-118.1384,34.3109],[-118.146,34.307],[-118.1523,34.3078],[-118.1535,34.3058],[-118.1485,34.2997],[-118.1488,34.2985],[-118.1582,34.3014],[-118.1613,34.2995],[-118.1608,34.2971],[-118.165,34.2984],[-118.1667,34.2964],[-118.1693,34.2974],[-118.1731,34.2948],[-118.1744,34.2975],[-118.1761,34.2979],[-118.1791,34.2959],[-118.1815,34.2919],[-118.1902,34.2886],[-118.191,34.2847],[-118.195,34.283],[-118.2026,34.2835],[-118.2058,34.2814],[-118.2087,34.284],[-118.2142,34.2798],[-118.2166,34.2818],[-118.2174,34.2844],[-118.221,34.2851],[-118.2267,34.2895],[-118.2305,34.2902],[-118.2387,34.296],[-118.2469,34.2977],[-118.2529,34.3018],[-118.2631,34.3049],[-118.2646,34.3026],[-118.2695,34.2999],[-118.2741,34.2986],[-118.277,34.2992],[-118.2863,34.2921],[-118.2867,34.2785],[-118.2738,34.2784],[-118.2737,34.282],[-118.2385,34.2816],[-118.2388,34.2522],[-118.2216,34.2516],[-118.2219,34.2339],[-118.2175,34.2339],[-118.2174,34.2375],[-118.1955,34.2366],[-118.1953,34.2515],[-118.1869,34.2515],[-118.187,34.2232],[-118.1791,34.2226],[-118.179,34.2197],[-118.1728,34.2197],[-118.1537,34.2154],[-118.1362,34.2145],[-118.1179,34.2041],[-118.1068,34.1958],[-118.1048,34.1949],[-118.1048,34.1968],[-118.1005,34.1968],[-118.1004,34.1898],[-118.0961,34.1898],[-118.0964,34.1934],[-118.0825,34.1934],[-118.0824,34.1824],[-118.0781,34.1824],[-118.0778,34.1789],[-117.9983,34.1795],[-117.9983,34.1759],[-117.9939,34.176],[-117.9939,34.1794],[-117.9771,34.1797],[-117.9775,34.1651],[-117.9075,34.1651],[-117.9075,34.1685],[-117.8988,34.1685],[-117.8988,34.1651],[-117.8201,34.1652],[-117.8204,34.1504],[-117.8116,34.1504],[-117.8117,34.1432],[-117.8072,34.1432],[-117.8072,34.1504],[-117.794,34.1504],[-117.7941,34.1467],[-117.7854,34.1468],[-117.7854,34.1432],[-117.7811,34.1433],[-117.781,34.1506],[-117.7596,34.1509],[-117.7567,34.1544],[-117.7503,34.1544],[-117.7504,34.1652],[-117.6777,34.1652],[-117.6464,34.2892],[-117.6598,34.4528],[-117.6604,34.5579],[-117.7024,34.5581],[-117.7114,34.5629],[-117.729,34.5634],[-117.7628,34.5582],[-117.8806,34.5579],[-117.8808,34.624],[-117.9073,34.6237],[-117.9075,34.6315],[-117.9165,34.6315],[-117.9164,34.6464],[-118.0588,34.646],[-118.0589,34.6606],[-118.0767,34.6607],[-118.1123,34.6605],[-118.1123,34.6459],[-118.1933,34.6456],[-118.1997,34.647],[-118.2077,34.6456],[-118.2361,34.6456],[-118.2363,34.6265],[-118.2337,34.6222],[-118.2334,34.6161],[-118.2357,34.6138],[-118.2352,34.6119],[-118.243,34.6101],[-118.2448,34.6082],[-118.2482,34.6106],[-118.2504,34.6073],[-118.2542,34.6086],[-118.2586,34.608],[-118.2711,34.6117],[-118.2713,34.5955],[-118.2755,34.5948],[-118.2784,34.5918],[-118.2865,34.5897],[-118.289,34.5878],[-118.2877,34.5814],[-118.2876,34.5633],[-118.2919,34.5631],[-118.2944,34.5644],[-118.3034,34.5636],[-118.3111,34.5614],[-118.3213,34.5639],[-118.3364,34.564],[-118.3389,34.562],[-118.3526,34.5607],[-118.359,34.5629],[-118.3617,34.5533],[-118.3672,34.5527],[-118.3723,34.5496],[-118.3754,34.5449],[-118.3777,34.5316],[-118.3768,34.5336],[-118.3758,34.5294],[-118.3723,34.5294],[-118.3676,34.5339],[-118.3659,34.534],[-118.3675,34.5301],[-118.3651,34.5251],[-118.3651,34.5163],[-118.3721,34.5109],[-118.3774,34.5108],[-118.3772,34.5045],[-118.3801,34.5037],[-118.3783,34.5024],[-118.3785,34.4962],[-118.3873,34.4961],[-118.3871,34.4815],[-118.3883,34.4812],[-118.3918,34.4735],[-118.3978,34.4689],[-118.4107,34.4643],[-118.4236,34.4498],[-118.4208,34.4476],[-118.4175,34.4372],[-118.4195,34.4331],[-118.4229,34.4301],[-118.4237,34.427]]]},"properties":{"GEOID":"0603793090","BASENAME":"South Antelope Valley","NAME":"South Antelope Valley CCD","COUNTY":"037","COUSUB":"93090"}},{"type":"Feature","geometry":{"type":"Polygon","coordinates":[[[-118.2996,33.8034],[-118.2991,33.7978],[-118.2829,33.7976],[-118.2646,33.7991],[-118.2646,33.8045],[-118.2565,33.8048],[-118.2584,33.7994],[-118.2375,33.8005],[-118.23,33.7925],[-118.2239,33.8065],[-118.2285,33.8244],[-118.2266,33.8295],[-118.2247,33.8244],[-118.2223,33.8244],[-118.2223,33.8256],[-118.2157,33.8259],[-118.2169,33.8302],[-118.216,33.8343],[-118.2134,33.8343],[-118.2113,33.8392],[-118.2077,33.8392],[-118.2059,33.8465],[-118.2067,33.8486],[-118.2012,33.8605],[-118.2036,33.8611],[-118.2063,33.8703],[-118.2055,33.8704],[-118.2055,33.8743],[-118.2085,33.8748],[-118.2089,33.8813],[-118.1879,33.8815],[-118.1869,33.8925],[-118.1843,33.8926],[-118.1841,33.8891],[-118.1824,33.8891],[-118.1802,33.8923],[-118.1816,33.8926],[-118.1824,33.8962],[-118.1881,33.8947],[-118.1869,33.9018],[-118.1878,33.9036],[-118.1825,33.9068],[-118.1803,33.9097],[-118.1768,33.9307],[-118.1829,33.9308],[-118.1818,33.9344],[-118.2109,33.9371],[-118.2105,33.9398],[-118.2138,33.9402],[-118.2131,33.945],[-118.2168,33.9454],[-118.2142,33.9369],[-118.2232,33.9378],[-118.223,33.9398],[-118.2269,33.9402],[-118.2275,33.9431],[-118.2295,33.9431],[-118.2286,33.939],[-118.2309,33.9317],[-118.2303,33.929],[-118.2543,33.9295],[-118.2536,33.9231],[-118.2821,33.9232],[-118.2823,33.8973],[-118.2832,33.8969],[-118.2816,33.8628],[-118.2905,33.8587],[-118.2905,33.8542],[-118.2853,33.8542],[-118.286,33.8463],[-118.2992,33.8463],[-118.2993,33.8136],[-118.2983,33.8131],[-118.2996,33.8034]]]},"properties":{"GEOID":"0603790560","BASENAME":"Compton","NAME":"Compton CCD","COUNTY":"037","COUSUB":"90560"}},{"type":"Feature","geometry":{"type":"Polygon","coordinates":[[[-118.249,33.7559],[-118.2216,33.6906],[-118.1658,33.6916],[-118.1478,33.6941],[-118.1141,33.7461],[-118.092,33.7585],[-118.0923,33.7645],[-118.0971,33.7737],[-118.0967,33.7791],[-118.0862,33.7969],[-118.0847,33.8029],[-118.0728,33.8149],[-118.0632,33.8197],[-118.0633,33.8315],[-118.059,33.8352],[-118.059,33.8462],[-118.082,33.846],[-118.082,33.8496],[-118.0864,33.8496],[-118.0864,33.846],[-118.0992,33.8459],[-118.1031,33.8584],[-118.1083,33.8584],[-118.1084,33.8656],[-118.1143,33.8656],[-118.1143,33.869],[-118.1512,33.8689],[-118.1513,33.882],[-118.1774,33.882],[-118.1774,33.8854],[-118.1867,33.8855],[-118.1879,33.8815],[-118.2089,33.8813],[-118.2085,33.8748],[-118.2055,33.8743],[-118.2055,33.8704],[-118.2063,33.8703],[-118.2036,33.8611],[-118.2011,33.8607],[-118.2067,33.8486],[-118.2059,33.8465],[-118.2077,33.8392],[-118.2113,33.8392],[-118.2134,33.8343],[-118.216,33.8343],[-118.2169,33.8302],[-118.2157,33.8259],[-118.2223,33.8256],[-118.2223,33.8244],[-118.2246,33.8243],[-118.2224,33.8125],[-118.2224,33.8042],[-118.2277,33.79],[-118.2207,33.7825],[-118.2454,33.7639],[-118.2408,33.7583],[-118.249,33.7559]]]},"properties":{"GEOID":"0603791730","BASENAME":"Long Beach-Lakewood","NAME":"Long Beach-Lakewood CCD","COUNTY":"037","COUSUB":"91730"}},{"type":"Feature","geometry":{"type":"Polygon","coordinates":[[[-118.5992,34.0744],[-118.5704,34.0693],[-118.5701,34.0471],[-118.5671,34.0414],[-118.5736,34.0073],[-118.5668,33.9883],[-118.5697,33.9888],[-118.5631,33.9878],[-118.5176,34.0249],[-118.5087,34.033],[-118.5076,34.0401],[-118.504,34.0407],[-118.4945,34.0506],[-118.4838,34.0414],[-118.4773,34.0467],[-118.4592,34.0313],[-118.4577,34.0316],[-118.4571,34.0297],[-118.4531,34.028],[-118.4435,34.0166],[-118.5377,33.9669],[-118.5234,33.953],[-118.5086,33.9325],[-118.4989,33.9162],[-118.4222,33.9163],[-118.4222,33.92],[-118.4244,33.92],[-118.4244,33.9218],[-118.4266,33.9218],[-118.4277,33.9272],[-118.4288,33.9272],[-118.4288,33.9309],[-118.4263,33.9312],[-118.3789,33.9309],[-118.3787,33.929],[-118.3684,33.929],[-118.3684,33.9309],[-118.37,33.9309],[-118.3701,33.9527],[-118.3788,33.9526],[-118.3779,33.9597],[-118.3712,33.9634],[-118.3716,33.9669],[-118.3729,33.9676],[-118.3701,33.968],[-118.3703,33.9816],[-118.3352,33.9818],[-118.3352,33.9727],[-118.333,33.9727],[-118.333,33.9672],[-118.3265,33.9673],[-118.3265,33.9709],[-118.3177,33.9709],[-118.3177,33.9455],[-118.3134,33.9455],[-118.3134,33.9382],[-118.309,33.9382],[-118.309,33.9418],[-118.3052,33.9418],[-118.3052,33.9455],[-118.3025,33.9455],[-118.3024,33.95],[-118.3003,33.95],[-118.3003,33.9595],[-118.2916,33.9595],[-118.2918,33.8941],[-118.2905,33.8664],[-118.2981,33.8656],[-118.2981,33.8664],[-118.2945,33.8665],[-118.2944,33.8705],[-118.2991,33.8705],[-118.2993,33.8657],[-118.3091,33.8656],[-118.3083,33.809],[-118.3093,33.8088],[-118.3087,33.7822],[-118.3099,33.7819],[-118.3095,33.7791],[-118.3079,33.7795],[-118.3064,33.775],[-118.3089,33.775],[-118.3116,33.7631],[-118.309,33.7627],[-118.309,33.7605],[-118.3019,33.7605],[-118.301,33.7577],[-118.3091,33.7577],[-118.3096,33.7468],[-118.3184,33.7468],[-118.3185,33.7426],[-118.32,33.7415],[-118.3185,33.7363],[-118.3204,33.7358],[-118.3185,33.7353],[-118.3185,33.732],[-118.3209,33.7311],[-118.321,33.7294],[-118.3285,33.7294],[-118.3331,33.7219],[-118.352,33.6666],[-118.3454,33.6634],[-118.3191,33.6595],[-118.2742,33.6634],[-118.2545,33.6751],[-118.237,33.6906],[-118.2216,33.6906],[-118.249,33.7559],[-118.2408,33.7583],[-118.2454,33.7639],[-118.2207,33.7825],[-118.2277,33.79],[-118.2224,33.8042],[-118.2224,33.8125],[-118.2266,33.8295],[-118.2285,33.8244],[-118.2239,33.8065],[-118.23,33.7925],[-118.2375,33.8005],[-118.2584,33.7994],[-118.2565,33.8048],[-118.2646,33.8045],[-118.2646,33.7991],[-118.2991,33.7978],[-118.2983,33.8131],[-118.2993,33.8136],[-118.2992,33.8463],[-118.286,33.8463],[-118.2853,33.8542],[-118.2905,33.8542],[-118.2905,33.8587],[-118.2816,33.8628],[-118.2832,33.8969],[-118.2823,33.8973],[-118.2821,33.9232],[-118.2536,33.9231],[-118.2543,33.9295],[-118.2303,33.929],[-118.2309,33.9317],[-118.2286,33.939],[-118.2295,33.9431],[-118.2275,33.9431],[-118.2286,33.9483],[-118.234,33.9482],[-118.234,33.9533],[-118.2474,33.9543],[-118.2488,33.9534],[-118.2491,33.9433],[-118.2536,33.9433],[-118.2535,33.9513],[-118.2559,33.9531],[-118.2564,33.9602],[-118.2564,33.9895],[-118.2379,33.9894],[-118.2397,34.0147],[-118.2173,34.0156],[-118.2127,34.0143],[-118.2082,34.015],[-118.207,34.0128],[-118.205,34.0126],[-118.2051,34.0145],[-118.1914,34.0129],[-118.1926,34.0618],[-118.1653,34.0623],[-118.1618,34.071],[-118.1618,34.0746],[-118.1605,34.0751],[-118.1607,34.0934],[-118.1562,34.0965],[-118.1553,34.0987],[-118.178,34.0986],[-118.178,34.1103],[-118.177,34.1122],[-118.1725,34.1138],[-118.1689,34.1178],[-118.1689,34.1199],[-118.1675,34.1211],[-118.1685,34.1239],[-118.1658,34.1256],[-118.1704,34.1269],[-118.177,34.1231],[-118.1765,34.1266],[-118.1802,34.1264],[-118.1813,34.1295],[-118.1826,34.1292],[-118.1828,34.1312],[-118.1861,34.1337],[-118.1857,34.1389],[-118.1804,34.141],[-118.1846,34.1454],[-118.1838,34.1491],[-118.1982,34.149],[-118.1982,34.1516],[-118.2027,34.1506],[-118.2054,34.1474],[-118.211,34.1462],[-118.2262,34.1498],[-118.2288,34.146],[-118.2291,34.1381],[-118.2279,34.1381],[-118.2279,34.1356],[-118.2363,34.1345],[-118.2352,34.1267],[-118.2533,34.1244],[-118.2536,34.1233],[-118.2511,34.1209],[-118.2543,34.1188],[-118.262,34.1271],[-118.276,34.1532],[-118.279,34.1532],[-118.2805,34.1563],[-118.2915,34.1558],[-118.2956,34.1588],[-118.2989,34.1577],[-118.3043,34.1588],[-118.3087,34.1614],[-118.3103,34.1608],[-118.3129,34.154],[-118.3158,34.1545],[-118.3177,34.1563],[-118.3221,34.1557],[-118.331,34.1483],[-118.3411,34.1454],[-118.3451,34.1426],[-118.3432,34.1382],[-118.349,34.1309],[-118.3417,34.1234],[-118.3418,34.1204],[-118.3442,34.1195],[-118.3426,34.1164],[-118.347,34.1183],[-118.3477,34.1202],[-118.3531,34.1196],[-118.3593,34.1229],[-118.358,34.1238],[-118.361,34.128],[-118.3696,34.1292],[-118.3724,34.1311],[-118.3736,34.1307],[-118.3713,34.1267],[-118.374,34.1266],[-118.3757,34.1219],[-118.3808,34.1231],[-118.3861,34.1216],[-118.3874,34.1233],[-118.3891,34.1233],[-118.3932,34.1201],[-118.3971,34.119],[-118.399,34.1224],[-118.403,34.1253],[-118.4039,34.1279],[-118.4064,34.1277],[-118.4075,34.1294],[-118.414,34.129],[-118.4154,34.1264],[-118.4195,34.1276],[-118.4214,34.1299],[-118.4301,34.1321],[-118.4348,34.1306],[-118.4387,34.1317],[-118.4434,34.1303],[-118.4555,34.1329],[-118.4591,34.1305],[-118.463,34.1311],[-118.4675,34.1294],[-118.4698,34.1303],[-118.479,34.1228],[-118.4785,34.125],[-118.4805,34.1299],[-118.4825,34.1306],[-118.4851,34.1299],[-118.4927,34.1311],[-118.5012,34.129],[-118.5024,34.1293],[-118.5023,34.1305],[-118.5039,34.1277],[-118.5086,34.1311],[-118.513,34.129],[-118.5218,34.128],[-118.5319,34.1296],[-118.5327,34.131],[-118.5341,34.1299],[-118.5348,34.1316],[-118.5362,34.1303],[-118.5394,34.1312],[-118.5393,34.1298],[-118.5417,34.1289],[-118.5421,34.1275],[-118.5481,34.1258],[-118.5546,34.1265],[-118.5538,34.1287],[-118.5574,34.1266],[-118.56,34.13],[-118.5648,34.1311],[-118.5992,34.0744]]]},"properties":{"GEOID":"0603791750","BASENAME":"Los Angeles","NAME":"Los Angeles CCD","COUNTY":"037","COUSUB":"91750"}},{"type":"Feature","geometry":{"type":"MultiPolygon","coordinates":[[[[-118.6682,33.4859],[-118.6659,33.4673],[-118.6617,33.4563],[-118.6551,33.4453],[-118.6307,33.4232],[-118.6259,33.4143],[-118.6186,33.4062],[-118.6072,33.3983],[-118.5911,33.3909],[-118.5732,33.3835],[-118.5636,33.381],[-118.5534,33.3802],[-118.5479,33.3768],[-118.5496,33.375],[-118.5512,33.3694],[-118.5496,33.3506],[-118.5475,33.3405],[-118.5425,33.331],[-118.5408,33.3251],[-118.5349,33.3152],[-118.5104,33.2897],[-118.4867,33.2769],[-118.4551,33.269],[-118.4377,33.267],[-118.412,33.2663],[-118.4026,33.2679],[-118.3856,33.2654],[-118.3815,33.2623],[-118.3633,33.2551],[-118.3438,33.25],[-118.328,33.2481],[-118.3028,33.251],[-118.2807,33.2591],[-118.2592,33.2725],[-118.2509,33.2814],[-118.2509,33.2805],[-118.2491,33.2841],[-118.2427,33.3031],[-118.2411,33.313],[-118.2413,33.323],[-118.2451,33.3383],[-118.2514,33.3534],[-118.2577,33.3641],[-118.2627,33.3704],[-118.2772,33.3807],[-118.2947,33.3976],[-118.3041,33.4036],[-118.3066,33.4072],[-118.3109,33.4251],[-118.3164,33.4341],[-118.3328,33.448],[-118.3509,33.4578],[-118.3594,33.4649],[-118.3692,33.469],[-118.4032,33.4793],[-118.4208,33.4818],[-118.4271,33.4872],[-118.4368,33.4894],[-118.4475,33.5],[-118.4629,33.5104],[-118.4773,33.5154],[-118.4933,33.5157],[-118.5068,33.5249],[-118.5294,33.5312],[-118.5466,33.5308],[-118.5578,33.5283],[-118.5672,33.5295],[-118.5791,33.5284],[-118.5897,33.532],[-118.605,33.5322],[-118.6259,33.529],[-118.6441,33.5213],[-118.6557,33.5108],[-118.6637,33.5],[-118.6667,33.4935],[-118.6682,33.4859]]],[[[-118.4878,33.7799],[-118.4856,33.7537],[-118.467,33.7255],[-118.4286,33.7013],[-118.3859,33.6867],[-118.3772,33.679],[-118.352,33.6666],[-118.3331,33.7219],[-118.3285,33.7294],[-118.321,33.7294],[-118.3209,33.7311],[-118.3185,33.732],[-118.3185,33.7353],[-118.3204,33.7358],[-118.3185,33.7363],[-118.32,33.7415],[-118.3185,33.7426],[-118.3184,33.7468],[-118.3096,33.7468],[-118.3091,33.7577],[-118.301,33.7577],[-118.3019,33.7605],[-118.309,33.7605],[-118.309,33.7627],[-118.3116,33.7631],[-118.3089,33.775],[-118.3064,33.775],[-118.3079,33.7795],[-118.3095,33.7791],[-118.3088,33.8022],[-118.3117,33.8022],[-118.3117,33.8076],[-118.3279,33.8069],[-118.3279,33.8033],[-118.3259,33.8033],[-118.326,33.8009],[-118.3281,33.8009],[-118.3282,33.7903],[-118.3264,33.7903],[-118.3263,33.7885],[-118.3287,33.789],[-118.3287,33.7873],[-118.3278,33.7862],[-118.3231,33.7859],[-118.3231,33.7825],[-118.3301,33.7834],[-118.3286,33.784],[-118.3284,33.7861],[-118.3313,33.7861],[-118.3337,33.7805],[-118.3617,33.8042],[-118.4832,33.8044],[-118.4845,33.8032],[-118.4878,33.7799]]],[[[-118.6782,33.0397],[-118.6786,33.0264],[-118.6748,33.0121],[-118.671,33.0059],[-118.6702,33],[-118.6447,33],[-118.6355,32.9656],[-118.6221,32.9414],[-118.6088,32.9277],[-118.6055,32.9182],[-118.6053,32.9085],[-118.5969,32.8905],[-118.5879,32.8788],[-118.5751,32.8657],[-118.5714,32.8593],[-118.5625,32.8494],[-118.5532,32.8288],[-118.5467,32.8207],[-118.5382,32.8128],[-118.5204,32.802],[-118.5076,32.7969],[-118.485,32.7792],[-118.4739,32.7668],[-118.4647,32.7602],[-118.4538,32.7551],[-118.4365,32.75],[-118.4198,32.75],[-118.4083,32.7519],[-118.3926,32.7585],[-118.3784,32.7702],[-118.3535,32.7658],[-118.3432,32.7671],[-118.3238,32.7735],[-118.3028,32.7888],[-118.2958,32.7983],[-118.2899,32.8105],[-118.2888,32.8208],[-118.2899,32.8294],[-118.2972,32.8451],[-118.3103,32.8595],[-118.3174,32.8638],[-118.3297,32.875],[-118.3289,32.875],[-118.3375,32.8797],[-118.3625,32.9001],[-118.3908,32.9178],[-118.4233,32.9465],[-118.4489,32.9618],[-118.4895,33.0106],[-118.4911,33.0179],[-118.4956,33.0263],[-118.5077,33.0379],[-118.515,33.0499],[-118.5237,33.06],[-118.5421,33.0738],[-118.5526,33.0786],[-118.5783,33.0862],[-118.6196,33.0867],[-118.6326,33.0845],[-118.6413,33.0819],[-118.6544,33.075],[-118.6638,33.0668],[-118.6708,33.058],[-118.6756,33.0493],[-118.6782,33.0397]]]]},"properties":{"GEOID":"0603792360","BASENAME":"Palos Verdes","NAME":"Palos Verdes CCD","COUNTY":"037","COUSUB":"92360"}},{"type":"Feature","geometry":{"type":"Polygon","coordinates":[[[-118.7118,34.1054],[-118.7116,34.0967],[-118.7038,34.088],[-118.7045,34.0822],[-118.6996,34.0788],[-118.6936,34.0777],[-118.6888,34.0795],[-118.6825,34.0838],[-118.6781,34.0958],[-118.6732,34.0984],[-118.6602,34.1012],[-118.6617,34.1089],[-118.6613,34.1151],[-118.6578,34.1254],[-118.6499,34.1217],[-118.6453,34.1238],[-118.6355,34.1234],[-118.6347,34.1254],[-118.6301,34.128],[-118.6249,34.1261],[-118.6219,34.1231],[-118.6143,34.1231],[-118.6098,34.1303],[-118.6087,34.1345],[-118.6042,34.1393],[-118.6023,34.1384],[-118.6013,34.1391],[-118.6036,34.1417],[-118.6046,34.1406],[-118.6081,34.1416],[-118.6053,34.1418],[-118.6058,34.1433],[-118.6045,34.1445],[-118.6079,34.1448],[-118.6058,34.1458],[-118.5653,34.1304],[-118.564,34.1311],[-118.56,34.13],[-118.5574,34.1266],[-118.5538,34.1287],[-118.5548,34.1269],[-118.5534,34.126],[-118.5444,34.1265],[-118.5393,34.1298],[-118.5394,34.1312],[-118.5362,34.1303],[-118.5348,34.1316],[-118.5341,34.1299],[-118.5327,34.131],[-118.5319,34.1296],[-118.5218,34.128],[-118.513,34.129],[-118.5085,34.1311],[-118.5039,34.1277],[-118.5023,34.1305],[-118.5012,34.129],[-118.4907,34.1312],[-118.489,34.1301],[-118.4805,34.1299],[-118.4785,34.125],[-118.479,34.1228],[-118.4698,34.1303],[-118.4675,34.1294],[-118.463,34.1311],[-118.4591,34.1305],[-118.4555,34.1329],[-118.4434,34.1303],[-118.4387,34.1317],[-118.4348,34.1306],[-118.4301,34.1321],[-118.4214,34.1299],[-118.4195,34.1276],[-118.4154,34.1264],[-118.414,34.129],[-118.4075,34.1294],[-118.4064,34.1277],[-118.4039,34.1279],[-118.403,34.1253],[-118.399,34.1224],[-118.3971,34.119],[-118.3932,34.1201],[-118.3891,34.1233],[-118.3874,34.1233],[-118.3861,34.1216],[-118.3808,34.1231],[-118.3757,34.1219],[-118.374,34.1266],[-118.3713,34.1267],[-118.3736,34.1307],[-118.3725,34.1311],[-118.3696,34.1292],[-118.361,34.128],[-118.358,34.1238],[-118.3593,34.1229],[-118.3531,34.1196],[-118.3477,34.1202],[-118.347,34.1183],[-118.3427,34.1164],[-118.3442,34.1195],[-118.3418,34.1204],[-118.3417,34.1234],[-118.349,34.1309],[-118.3432,34.1382],[-118.3451,34.1426],[-118.3411,34.1454],[-118.331,34.1483],[-118.3221,34.1557],[-118.3177,34.1563],[-118.3158,34.1545],[-118.3129,34.154],[-118.3096,34.1613],[-118.2989,34.1577],[-118.2956,34.1588],[-118.2915,34.1558],[-118.2805,34.1563],[-118.279,34.1532],[-118.276,34.1532],[-118.262,34.1271],[-118.2543,34.1188],[-118.2511,34.1209],[-118.2536,34.1233],[-118.2533,34.1244],[-118.2352,34.1267],[-118.2363,34.1345],[-118.2279,34.1356],[-118.2279,34.1381],[-118.2291,34.1381],[-118.2288,34.146],[-118.2262,34.1498],[-118.211,34.1462],[-118.2054,34.1474],[-118.2027,34.1506],[-118.1982,34.1516],[-118.1982,34.149],[-118.1818,34.1491],[-118.1842,34.1597],[-118.1905,34.1703],[-118.191,34.1732],[-118.1889,34.1786],[-118.1924,34.1805],[-118.1964,34.1799],[-118.2081,34.1876],[-118.2081,34.1907],[-118.2122,34.1927],[-118.2134,34.1941],[-118.2128,34.1953],[-118.2167,34.1978],[-118.2177,34.2029],[-118.215,34.2035],[-118.215,34.2064],[-118.2203,34.205],[-118.2203,34.2063],[-118.2251,34.2056],[-118.2332,34.2078],[-118.2352,34.2091],[-118.2352,34.213],[-118.2395,34.2175],[-118.2401,34.2168],[-118.244,34.2185],[-118.2443,34.2202],[-118.2488,34.2222],[-118.2485,34.244],[-118.2435,34.2466],[-118.2434,34.2523],[-118.2387,34.2523],[-118.2385,34.2816],[-118.2737,34.282],[-118.2738,34.2784],[-118.2867,34.2785],[-118.2863,34.2921],[-118.277,34.2992],[-118.2741,34.2986],[-118.2695,34.2999],[-118.2646,34.3026],[-118.2635,34.3047],[-118.2615,34.305],[-118.2521,34.3014],[-118.2469,34.2977],[-118.2387,34.296],[-118.2305,34.2902],[-118.2267,34.2895],[-118.221,34.2851],[-118.2175,34.2845],[-118.2166,34.2818],[-118.214,34.2798],[-118.2087,34.284],[-118.2058,34.2814],[-118.2026,34.2835],[-118.195,34.283],[-118.191,34.2847],[-118.1902,34.2886],[-118.1815,34.2919],[-118.1791,34.2959],[-118.1761,34.2979],[-118.1744,34.2975],[-118.1731,34.2948],[-118.1693,34.2974],[-118.1667,34.2964],[-118.165,34.2984],[-118.1608,34.2971],[-118.1613,34.2995],[-118.1582,34.3014],[-118.1488,34.2985],[-118.1485,34.2997],[-118.1535,34.3058],[-118.1523,34.3078],[-118.146,34.307],[-118.1384,34.3109],[-118.1359,34.313],[-118.1357,34.3172],[-118.1315,34.3182],[-118.1259,34.3264],[-118.1168,34.3301],[-118.1126,34.335],[-118.1089,34.3364],[-118.1107,34.3435],[-118.1097,34.3457],[-118.1107,34.3528],[-118.1098,34.3598],[-118.106,34.3659],[-118.1005,34.3709],[-118.1018,34.3741],[-118.0985,34.3749],[-118.0962,34.3793],[-118.0993,34.3855],[-118.0965,34.3853],[-118.0913,34.3874],[-118.088,34.3863],[-118.0847,34.3891],[-118.0837,34.3924],[-118.0812,34.3917],[-118.0797,34.3978],[-118.0811,34.4003],[-118.0841,34.3995],[-118.0902,34.4025],[-118.0926,34.4021],[-118.0937,34.4002],[-118.102,34.4],[-118.1026,34.3986],[-118.1065,34.3968],[-118.107,34.3943],[-118.1107,34.3931],[-118.1145,34.3885],[-118.119,34.386],[-118.1192,34.3823],[-118.1213,34.3795],[-118.1228,34.3811],[-118.129,34.3821],[-118.1327,34.3795],[-118.1395,34.3779],[-118.1428,34.3748],[-118.1498,34.3759],[-118.1543,34.3802],[-118.1576,34.3789],[-118.1623,34.3793],[-118.1642,34.3783],[-118.1639,34.3743],[-118.1688,34.3762],[-118.1689,34.3775],[-118.1722,34.3769],[-118.1711,34.3756],[-118.1726,34.371],[-118.1808,34.3741],[-118.1842,34.3797],[-118.1886,34.38],[-118.1912,34.3815],[-118.1922,34.3801],[-118.1955,34.3805],[-118.195,34.3778],[-118.198,34.3783],[-118.2045,34.3756],[-118.2104,34.3772],[-118.2133,34.3748],[-118.2153,34.3769],[-118.2203,34.377],[-118.2208,34.3793],[-118.2276,34.3757],[-118.2317,34.3796],[-118.2399,34.3767],[-118.2405,34.3746],[-118.2423,34.3745],[-118.2433,34.376],[-118.2453,34.3746],[-118.247,34.3753],[-118.2487,34.3735],[-118.2495,34.3747],[-118.2523,34.3742],[-118.2535,34.3759],[-118.2567,34.3752],[-118.2575,34.3775],[-118.2549,34.3772],[-118.2532,34.3798],[-118.2483,34.3796],[-118.2521,34.3828],[-118.2515,34.387],[-118.2531,34.3907],[-118.2512,34.3935],[-118.2548,34.3931],[-118.2551,34.392],[-118.2552,34.3933],[-118.2532,34.3948],[-118.256,34.3943],[-118.2577,34.397],[-118.2598,34.3966],[-118.2606,34.3984],[-118.2633,34.3994],[-118.2672,34.3982],[-118.2691,34.399],[-118.27,34.3981],[-118.2689,34.3971],[-118.2695,34.3918],[-118.2713,34.395],[-118.2733,34.3959],[-118.2773,34.3958],[-118.2814,34.3939],[-118.2809,34.3951],[-118.2852,34.3964],[-118.3003,34.3923],[-118.3018,34.3894],[-118.3144,34.3884],[-118.3141,34.3898],[-118.3157,34.3898],[-118.3179,34.3843],[-118.3256,34.3852],[-118.3295,34.3817],[-118.331,34.3825],[-118.3354,34.3808],[-118.3367,34.3778],[-118.3415,34.376],[-118.3381,34.3761],[-118.3376,34.3752],[-118.3424,34.3742],[-118.3501,34.3689],[-118.3528,34.3685],[-118.3525,34.3665],[-118.3643,34.362],[-118.3669,34.3588],[-118.3712,34.3622],[-118.3765,34.3623],[-118.3779,34.3651],[-118.3794,34.3648],[-118.378,34.3637],[-118.3794,34.3623],[-118.3852,34.361],[-118.3854,34.3592],[-118.3863,34.3608],[-118.3919,34.3606],[-118.3891,34.361],[-118.3864,34.3633],[-118.3898,34.3634],[-118.3971,34.3676],[-118.4003,34.3768],[-118.4037,34.3807],[-118.4122,34.3792],[-118.4133,34.3812],[-118.4174,34.3811],[-118.4248,34.3768],[-118.4293,34.3764],[-118.438,34.3785],[-118.4539,34.3784],[-118.4647,34.3805],[-118.4791,34.3734],[-118.4833,34.3757],[-118.4899,34.3751],[-118.4943,34.3781],[-118.5068,34.365],[-118.5081,34.3497],[-118.5103,34.3448],[-118.5088,34.3398],[-118.504,34.3372],[-118.5083,34.3339],[-118.5195,34.3404],[-118.526,34.3416],[-118.5259,34.3394],[-118.5227,34.3382],[-118.5223,34.3367],[-118.5257,34.3379],[-118.5335,34.337],[-118.5323,34.3319],[-118.5303,34.33],[-118.5322,34.3283],[-118.5396,34.328],[-118.545,34.3299],[-118.5476,34.3274],[-118.5472,34.3247],[-118.5514,34.3219],[-118.5559,34.3208],[-118.5637,34.3231],[-118.5696,34.3194],[-118.5746,34.322],[-118.5771,34.3258],[-118.584,34.3244],[-118.5874,34.3275],[-118.5921,34.3277],[-118.5932,34.3299],[-118.5951,34.3289],[-118.5982,34.3298],[-118.603,34.3355],[-118.6099,34.3383],[-118.6152,34.3454],[-118.6226,34.349],[-118.6326,34.35],[-118.6403,34.3527],[-118.6442,34.3515],[-118.6476,34.3527],[-118.6577,34.3519],[-118.6607,34.3531],[-118.6622,34.3567],[-118.6655,34.3569],[-118.6664,34.3595],[-118.6706,34.3607],[-118.6368,34.2918],[-118.6325,34.2634],[-118.6325,34.2404],[-118.6677,34.2403],[-118.6682,34.1682],[-118.7034,34.1686],[-118.7027,34.1609],[-118.6973,34.1529],[-118.6977,34.1472],[-118.7026,34.1357],[-118.7039,34.1276],[-118.7066,34.1246],[-118.7118,34.1054]]]},"properties":{"GEOID":"0603792785","BASENAME":"San Fernando Valley","NAME":"San Fernando Valley CCD","COUNTY":"037","COUSUB":"92785"}},{"type":"Feature","geometry":{"type":"Polygon","coordinates":[[[-118.4963,33.9162],[-118.4989,33.9162],[-118.4582,33.8653],[-118.4473,33.8488],[-118.444,33.8391],[-118.4505,33.8323],[-118.4703,33.8176],[-118.3879,33.8146],[-118.3854,33.8163],[-118.3854,33.8189],[-118.3844,33.819],[-118.3796,33.8165],[-118.3744,33.8157],[-118.3744,33.8274],[-118.3728,33.8273],[-118.3784,33.855],[-118.3751,33.8561],[-118.3755,33.8583],[-118.3536,33.8583],[-118.3584,33.8627],[-118.359,33.8655],[-118.3525,33.8655],[-118.3525,33.8743],[-118.3547,33.8729],[-118.3613,33.8729],[-118.3613,33.8947],[-118.3787,33.8946],[-118.3786,33.9154],[-118.3784,33.9164],[-118.3743,33.9163],[-118.3743,33.9172],[-118.3765,33.9172],[-118.3765,33.92],[-118.3784,33.92],[-118.3787,33.9309],[-118.4288,33.9309],[-118.4277,33.9236],[-118.4266,33.9236],[-118.4266,33.9218],[-118.4244,33.9218],[-118.4244,33.92],[-118.4222,33.92],[-118.4222,33.9163],[-118.4963,33.9162]]]},"properties":{"GEOID":"0603793100","BASENAME":"South Bay Cities","NAME":"South Bay Cities CCD","COUNTY":"037","COUSUB":"93100"}},{"type":"Feature","geometry":{"type":"Polygon","coordinates":[[[-118.0826,34.1264],[-118.0793,34.1083],[-118.0756,34.0981],[-118.0737,34.0971],[-118.0738,34.0906],[-118.0618,34.0866],[-118.0631,34.0812],[-118.0594,34.0813],[-118.0594,34.0833],[-118.0577,34.0827],[-118.0568,34.085],[-118.056,34.0847],[-118.0558,34.0724],[-118.0729,34.0723],[-118.0722,34.0697],[-118.0678,34.0653],[-118.069,34.0657],[-118.0698,34.0628],[-118.0674,34.0628],[-118.0696,34.0606],[-118.0703,34.0572],[-118.0716,34.0572],[-118.0724,34.0461],[-118.075,34.0407],[-118.0747,34.0367],[-118.0708,34.0296],[-118.0729,34.031],[-118.0732,34.0279],[-118.082,34.0215],[-118.0743,34.0201],[-118.0579,34.0212],[-118.057,34.0199],[-118.0545,34.0212],[-118.0527,34.0261],[-118.0492,34.0294],[-118.0177,34.0434],[-118.0101,34.0509],[-118.0019,34.0749],[-117.9997,34.0855],[-117.9966,34.0908],[-117.9922,34.0951],[-117.9966,34.0965],[-117.9951,34.0997],[-118.0081,34.1041],[-118.0069,34.1065],[-118.0022,34.105],[-118.0005,34.1085],[-118.0041,34.1097],[-118.0034,34.1111],[-118.005,34.1101],[-118.0038,34.1173],[-118.0008,34.1163],[-117.9922,34.1177],[-117.9915,34.1197],[-117.9897,34.1204],[-117.991,34.1209],[-117.9905,34.1221],[-117.9878,34.1214],[-117.9852,34.1262],[-117.9786,34.1264],[-117.9786,34.1251],[-117.9746,34.125],[-117.9697,34.129],[-117.9697,34.1322],[-117.96,34.1322],[-117.96,34.1361],[-117.9488,34.1359],[-117.9463,34.138],[-117.9443,34.1378],[-117.9397,34.1405],[-117.9296,34.151],[-117.9346,34.154],[-117.938,34.1523],[-117.9379,34.1543],[-117.9423,34.1543],[-117.9423,34.1652],[-117.9775,34.1651],[-117.9771,34.1797],[-117.9939,34.1794],[-117.9939,34.176],[-117.9983,34.1759],[-117.9983,34.1795],[-118.0657,34.1793],[-118.0656,34.1724],[-118.0682,34.173],[-118.0675,34.1315],[-118.0811,34.1294],[-118.0826,34.1264]]]},"properties":{"GEOID":"0603793510","BASENAME":"Upper San Gabriel Valley","NAME":"Upper San Gabriel Valley CCD","COUNTY":"037","COUSUB":"93510"}},{"type":"Feature","geometry":{"type":"Polygon","coordinates":[[[-118.1227,33.9745],[-118.1105,33.9613],[-118.0934,33.9504],[-118.0984,33.9434],[-118.0883,33.9297],[-118.0841,33.9335],[-118.0825,33.9335],[-118.0824,33.9317],[-118.0727,33.9317],[-118.0726,33.9281],[-118.0683,33.9281],[-118.0683,33.9299],[-118.064,33.9299],[-118.0638,33.9171],[-118.0606,33.9171],[-118.0577,33.9137],[-118.051,33.9098],[-118.051,33.906],[-118.0528,33.906],[-118.0535,33.9024],[-118.0444,33.9025],[-118.0444,33.8988],[-118.0422,33.8988],[-118.0422,33.8952],[-118.0467,33.8952],[-118.047,33.894],[-118.0613,33.9023],[-118.064,33.9023],[-118.064,33.8954],[-118.0554,33.8951],[-118.0554,33.8876],[-118.0384,33.8878],[-118.0289,33.8826],[-118.0288,33.8733],[-118.0114,33.8734],[-118.0115,33.8808],[-118.0028,33.8809],[-118.0029,33.8882],[-117.9941,33.8882],[-117.9941,33.8955],[-117.9853,33.8955],[-117.9854,33.9028],[-117.9766,33.9028],[-117.9765,33.9461],[-117.9316,33.9461],[-117.9247,33.9539],[-117.9282,33.9541],[-117.9266,33.9585],[-117.9283,33.9615],[-117.9204,33.9635],[-117.9177,33.9656],[-117.9164,33.9688],[-117.9496,33.9765],[-117.9496,33.9746],[-117.9579,33.9726],[-117.9688,33.9726],[-117.993,33.9814],[-117.9934,33.9897],[-118.0023,33.9896],[-118.0022,33.9941],[-118.0038,33.9947],[-118.0114,34.0042],[-118.0105,34.0056],[-118.0123,34.0075],[-118.0126,34.016],[-118.0218,34.0206],[-118.0372,34.023],[-118.0379,34.0338],[-118.0508,34.0282],[-118.0545,34.0212],[-118.057,34.0199],[-118.0579,34.0212],[-118.0743,34.0201],[-118.082,34.0215],[-118.0929,34.0137],[-118.0921,34.013],[-118.0962,34.0077],[-118.0973,34.0013],[-118.1034,33.9996],[-118.1087,33.9933],[-118.1098,33.9938],[-118.1143,33.9889],[-118.1164,33.9814],[-118.12,33.9755],[-118.1227,33.9745]]]},"properties":{"GEOID":"0603793730","BASENAME":"Whittier","NAME":"Whittier CCD","COUNTY":"037","COUSUB":"93730"}},{"type":"Feature","geometry":{"type":"Polygon","coordinates":[[[-118.1881,33.8949],[-118.1824,33.8962],[-118.1816,33.8926],[-118.1799,33.8927],[-118.1824,33.8891],[-118.1841,33.8891],[-118.1843,33.8926],[-118.1869,33.8925],[-118.188,33.8854],[-118.1774,33.8854],[-118.1774,33.882],[-118.1513,33.882],[-118.1512,33.8689],[-118.1143,33.869],[-118.1143,33.8656],[-118.1084,33.8656],[-118.1083,33.8584],[-118.1031,33.8584],[-118.0992,33.8459],[-118.0864,33.846],[-118.0864,33.8496],[-118.082,33.8496],[-118.082,33.846],[-118.0547,33.8462],[-118.0547,33.8498],[-118.0504,33.8499],[-118.0504,33.8535],[-118.0461,33.8536],[-118.0462,33.8587],[-118.0419,33.8587],[-118.0419,33.8623],[-118.0375,33.8624],[-118.0376,33.866],[-118.0287,33.866],[-118.0289,33.8826],[-118.0384,33.8878],[-118.0554,33.8876],[-118.0554,33.8951],[-118.064,33.8954],[-118.064,33.9023],[-118.0613,33.9023],[-118.047,33.894],[-118.0467,33.8952],[-118.0422,33.8952],[-118.0422,33.8988],[-118.0444,33.8988],[-118.0444,33.9025],[-118.0535,33.9024],[-118.0528,33.906],[-118.051,33.906],[-118.051,33.9098],[-118.0577,33.9137],[-118.0606,33.9171],[-118.0638,33.9171],[-118.064,33.9299],[-118.0683,33.9299],[-118.0683,33.9281],[-118.0726,33.9281],[-118.0727,33.9317],[-118.0824,33.9317],[-118.0825,33.9335],[-118.0841,33.9335],[-118.0883,33.9297],[-118.0984,33.9434],[-118.0934,33.9504],[-118.1105,33.9613],[-118.1213,33.973],[-118.1255,33.9711],[-118.1343,33.9704],[-118.1397,33.9635],[-118.1537,33.9558],[-118.1586,33.9519],[-118.1563,33.951],[-118.1659,33.9385],[-118.1651,33.933],[-118.1635,33.9329],[-118.1615,33.9288],[-118.1642,33.9265],[-118.167,33.9269],[-118.1676,33.9283],[-118.1678,33.9261],[-118.1704,33.9236],[-118.1562,33.917],[-118.1584,33.9139],[-118.159,33.9099],[-118.168,33.9142],[-118.1684,33.9121],[-118.1733,33.9118],[-118.1729,33.9131],[-118.1698,33.9132],[-118.1693,33.9148],[-118.1787,33.9187],[-118.1808,33.9087],[-118.1878,33.9036],[-118.1869,33.9018],[-118.1881,33.8949]]]},"properties":{"GEOID":"0603790730","BASENAME":"Downey-Norwalk","NAME":"Downey-Norwalk CCD","COUNTY":"037","COUSUB":"90730"}},{"type":"Feature","geometry":{"type":"Polygon","coordinates":[[[-118.1696,34.0443],[-118.153,34.0442],[-118.1443,34.0401],[-118.151,34.0355],[-118.1442,34.0335],[-118.1439,34.0265],[-118.1452,34.0251],[-118.1297,34.0157],[-118.13,34.0146],[-118.1268,34.0139],[-118.1271,34.0071],[-118.1298,34.0024],[-118.1282,34.0018],[-118.1299,33.993],[-118.1252,33.9912],[-118.1285,33.9855],[-118.1333,33.9871],[-118.1342,33.9857],[-118.1228,33.9744],[-118.12,33.9755],[-118.1164,33.9814],[-118.1143,33.9889],[-118.1098,33.9938],[-118.1087,33.9933],[-118.1056,33.9962],[-118.1034,33.9996],[-118.0973,34.0013],[-118.0962,34.0077],[-118.0921,34.013],[-118.0929,34.0137],[-118.0738,34.0273],[-118.0729,34.031],[-118.0708,34.0296],[-118.0747,34.0367],[-118.075,34.0407],[-118.0724,34.0461],[-118.0716,34.0572],[-118.0703,34.0572],[-118.0696,34.0606],[-118.0674,34.0628],[-118.0698,34.0628],[-118.069,34.0657],[-118.0678,34.0653],[-118.0722,34.0697],[-118.0729,34.0723],[-118.0558,34.0724],[-118.056,34.0847],[-118.0568,34.085],[-118.0577,34.0827],[-118.0594,34.0833],[-118.0594,34.0813],[-118.0631,34.0812],[-118.0618,34.0866],[-118.0738,34.0906],[-118.0737,34.0971],[-118.0756,34.0981],[-118.0814,34.1167],[-118.0826,34.1265],[-118.0811,34.1294],[-118.091,34.1268],[-118.0902,34.1239],[-118.0914,34.1216],[-118.0912,34.1153],[-118.098,34.1153],[-118.0997,34.1135],[-118.1149,34.1135],[-118.1217,34.105],[-118.1279,34.1111],[-118.1353,34.1064],[-118.1347,34.1041],[-118.1418,34.1041],[-118.1418,34.0988],[-118.1553,34.0987],[-118.1562,34.0965],[-118.1607,34.0934],[-118.1605,34.0751],[-118.1618,34.0746],[-118.1618,34.071],[-118.1653,34.0623],[-118.1693,34.0623],[-118.1693,34.0484],[-118.168,34.0484],[-118.1696,34.0443]]]},"properties":{"GEOID":"0603793200","BASENAME":"Southwest San Gabriel Valley","NAME":"Southwest San Gabriel Valley CCD","COUNTY":"037","COUSUB":"93200"}},{"type":"Feature","geometry":{"type":"Polygon","coordinates":[[[-118.9511,33.9964],[-118.9517,33.9929],[-118.9404,33.9915],[-118.9317,33.9921],[-118.8873,33.9872],[-118.874,33.9833],[-118.8568,33.966],[-118.8411,33.9554],[-118.8249,33.949],[-118.8098,33.9469],[-118.7977,33.9482],[-118.7865,33.9514],[-118.7544,33.9678],[-118.7464,33.9755],[-118.7355,33.977],[-118.7275,33.9803],[-118.7046,33.9778],[-118.6891,33.9799],[-118.6808,33.9792],[-118.6665,33.9806],[-118.6502,33.9851],[-118.6483,33.9867],[-118.6331,33.9856],[-118.6259,33.9872],[-118.6044,33.9863],[-118.5941,33.9881],[-118.5866,33.987],[-118.5668,33.9883],[-118.5736,34.0073],[-118.5671,34.0414],[-118.5701,34.0471],[-118.5704,34.0693],[-118.5992,34.0743],[-118.5648,34.1302],[-118.6058,34.1458],[-118.6079,34.1448],[-118.6045,34.1445],[-118.6058,34.1433],[-118.6053,34.1418],[-118.6081,34.1416],[-118.6046,34.1406],[-118.6036,34.1417],[-118.6013,34.1391],[-118.6023,34.1384],[-118.6042,34.1393],[-118.6087,34.1345],[-118.6098,34.1303],[-118.6143,34.1231],[-118.6219,34.1231],[-118.6249,34.1261],[-118.6301,34.128],[-118.6347,34.1254],[-118.6355,34.1234],[-118.6453,34.1238],[-118.6499,34.1217],[-118.6578,34.1254],[-118.6613,34.1151],[-118.6617,34.1089],[-118.6602,34.1012],[-118.6732,34.0984],[-118.6781,34.0958],[-118.6825,34.0838],[-118.6936,34.0777],[-118.6996,34.0788],[-118.7045,34.0822],[-118.7038,34.088],[-118.7117,34.0972],[-118.7111,34.1108],[-118.7064,34.1251],[-118.7039,34.1276],[-118.7026,34.1357],[-118.6977,34.1472],[-118.6973,34.1529],[-118.7027,34.1609],[-118.7034,34.1686],[-118.7889,34.1682],[-118.941,34.0748],[-118.9511,33.9964]]]},"properties":{"GEOID":"0603790015","BASENAME":"Agoura Hills-Malibu","NAME":"Agoura Hills-Malibu CCD","COUNTY":"037","COUSUB":"90015"}},{"type":"Feature","geometry":{"type":"Polygon","coordinates":[[[-118.0382,34.0348],[-118.0372,34.023],[-118.0218,34.0206],[-118.0126,34.016],[-118.0123,34.0075],[-118.0105,34.0056],[-118.0114,34.0042],[-118.0038,33.9947],[-118.0022,33.9941],[-118.0023,33.9896],[-117.9934,33.9897],[-117.993,33.9814],[-117.9688,33.9726],[-117.9579,33.9726],[-117.9496,33.9746],[-117.9496,33.9765],[-117.9164,33.9688],[-117.9177,33.9656],[-117.9204,33.9635],[-117.9283,33.9615],[-117.9266,33.9585],[-117.9282,33.9541],[-117.9247,33.9539],[-117.9316,33.9461],[-117.9196,33.9461],[-117.9196,33.9476],[-117.9114,33.9461],[-117.7831,33.9463],[-117.7936,33.9538],[-117.7937,33.9681],[-117.8024,33.9683],[-117.8025,33.9756],[-117.785,34.0049],[-117.7675,34.0047],[-117.7677,34.0235],[-117.7358,34.0186],[-117.7301,34.0214],[-117.7274,34.0374],[-117.7165,34.0676],[-117.6868,34.1381],[-117.6817,34.1558],[-117.6777,34.1652],[-117.7504,34.1652],[-117.7503,34.1544],[-117.7567,34.1544],[-117.7596,34.1509],[-117.781,34.1506],[-117.7811,34.1433],[-117.7854,34.1432],[-117.7854,34.1468],[-117.7941,34.1467],[-117.794,34.1504],[-117.8072,34.1504],[-117.8072,34.1432],[-117.8117,34.1432],[-117.8116,34.1504],[-117.8204,34.1504],[-117.8201,34.1652],[-117.8988,34.1651],[-117.8988,34.1685],[-117.9075,34.1685],[-117.9075,34.1651],[-117.9423,34.1652],[-117.9423,34.1543],[-117.9379,34.1543],[-117.938,34.1523],[-117.9346,34.154],[-117.9296,34.151],[-117.9397,34.1405],[-117.9488,34.1359],[-117.96,34.1361],[-117.96,34.1322],[-117.9697,34.1322],[-117.9697,34.129],[-117.9746,34.125],[-117.9786,34.1251],[-117.9786,34.1264],[-117.9852,34.1262],[-117.9878,34.1214],[-117.9905,34.1221],[-117.991,34.1209],[-117.9897,34.1204],[-117.9915,34.1197],[-117.9922,34.1177],[-118.0008,34.1163],[-118.0038,34.1173],[-118.005,34.1101],[-118.0034,34.1111],[-118.0041,34.1097],[-118.0005,34.1085],[-118.0022,34.105],[-118.0069,34.1065],[-118.0081,34.1041],[-117.9951,34.0997],[-117.9966,34.0965],[-117.9922,34.0951],[-117.9966,34.0908],[-117.9997,34.0855],[-118.0019,34.0752],[-118.0095,34.0523],[-118.0117,34.0484],[-118.0168,34.0439],[-118.0382,34.0348]]]},"properties":{"GEOID":"0603790810","BASENAME":"East San Gabriel Valley","NAME":"East San Gabriel Valley CCD","COUNTY":"037","COUSUB":"90810"}},{"type":"Feature","geometry":{"type":"Polygon","coordinates":[[[-118.5631,33.9878],[-118.5574,33.9877],[-118.5484,33.98],[-118.5377,33.9669],[-118.4435,34.0166],[-118.4531,34.028],[-118.4571,34.0297],[-118.4577,34.0316],[-118.4592,34.0313],[-118.4773,34.0467],[-118.4838,34.0414],[-118.4945,34.0506],[-118.504,34.0407],[-118.5083,34.0392],[-118.5087,34.033],[-118.5152,34.0269],[-118.5631,33.9878]]]},"properties":{"GEOID":"0603792920","BASENAME":"Santa Monica","NAME":"Santa Monica CCD","COUNTY":"037","COUSUB":"92920"}},{"type":"Feature","geometry":{"type":"Polygon","coordinates":[[[-118.2564,33.9833],[-118.2559,33.9531],[-118.2535,33.9513],[-118.2536,33.9433],[-118.2491,33.9433],[-118.2488,33.9534],[-118.2474,33.9543],[-118.234,33.9533],[-118.234,33.9482],[-118.2286,33.9483],[-118.2269,33.9402],[-118.223,33.9398],[-118.2232,33.9378],[-118.2142,33.9369],[-118.2168,33.9454],[-118.2131,33.945],[-118.2138,33.9402],[-118.2105,33.9398],[-118.2109,33.9371],[-118.1818,33.9344],[-118.1829,33.9308],[-118.1768,33.9307],[-118.1787,33.9187],[-118.1693,33.9148],[-118.1698,33.9132],[-118.1729,33.9131],[-118.1733,33.9118],[-118.1684,33.9121],[-118.168,33.9142],[-118.159,33.9099],[-118.1584,33.9139],[-118.1562,33.917],[-118.1704,33.9236],[-118.1678,33.9261],[-118.1676,33.9283],[-118.167,33.9269],[-118.1642,33.9265],[-118.1615,33.9288],[-118.1635,33.9329],[-118.1651,33.933],[-118.1659,33.9385],[-118.1563,33.951],[-118.1586,33.9519],[-118.1537,33.9558],[-118.1397,33.9635],[-118.1343,33.9704],[-118.1255,33.9711],[-118.1213,33.973],[-118.1342,33.9857],[-118.1333,33.9871],[-118.1285,33.9855],[-118.1252,33.9912],[-118.1299,33.993],[-118.1282,34.0018],[-118.1298,34.0024],[-118.1271,34.0071],[-118.1268,34.0139],[-118.13,34.0146],[-118.1297,34.0157],[-118.1452,34.0251],[-118.1439,34.0265],[-118.1442,34.0335],[-118.151,34.0355],[-118.1443,34.0401],[-118.1454,34.0411],[-118.1533,34.0442],[-118.1696,34.0442],[-118.168,34.0484],[-118.1693,34.0484],[-118.1693,34.0623],[-118.1926,34.0618],[-118.1914,34.0129],[-118.2051,34.0145],[-118.205,34.0126],[-118.207,34.0128],[-118.2082,34.015],[-118.2127,34.0143],[-118.2173,34.0156],[-118.2397,34.0147],[-118.2379,33.9894],[-118.2564,33.9895],[-118.2564,33.9833]]]},"properties":{"GEOID":"0603793155","BASENAME":"South Gate-East Los Angeles","NAME":"South Gate-East Los Angeles CCD","COUNTY":"037","COUSUB":"93155"}}]}