{"type":"FeatureCollection","features":[{"type":"Feature","geometry":{"type":"Polygon","coordinates":[[[-120.1216,37.1585],[-120.1205,37.1559],[-120.1203,37.1475],[-120.0949,37.1288],[-120.0839,37.1292],[-120.0813,37.1234],[-120.0652,37.123],[-120.0555,37.1248],[-120.0504,37.122],[-120.0474,37.118],[-120.0395,37.1146],[-120.0388,37.1126],[-120.0347,37.1116],[-120.0349,37.1075],[-120.0393,37.105],[-120.0392,37.1015],[-120.0367,37.0982],[-120.0354,37.0933],[-120.0266,37.0918],[-120.0218,37.0827],[-120.0186,37.0803],[-120.006,37.0792],[-119.9928,37.0824],[-119.9889,37.0739],[-119.9803,37.0726],[-119.9784,37.0748],[-119.9703,37.0723],[-119.9662,37.0728],[-119.9593,37.0713],[-119.9494,37.0723],[-119.9427,37.0698],[-119.9354,37.0634],[-119.9325,37.0639],[-119.9292,37.0624],[-119.9205,37.0687],[-119.9143,37.069],[-119.911,37.0707],[-119.9083,37.069],[-119.9077,37.0634],[-119.9001,37.0567],[-119.8968,37.0545],[-119.8929,37.0557],[-119.8914,37.0547],[-119.8926,37.0489],[-119.8876,37.0431],[-119.8809,37.0385],[-119.8783,37.0382],[-119.8811,37.0339],[-119.8805,37.0288],[-119.8746,37.0267],[-119.8736,37.0252],[-119.871,37.0256],[-119.8669,37.0237],[-119.8645,37.0252],[-119.8503,37.0246],[-119.8443,37.0192],[-119.8472,37.0145],[-119.8407,37.01],[-119.8353,37.0079],[-119.8325,37.009],[-119.8299,37.0079],[-119.8261,37.0086],[-119.821,37.0055],[-119.8174,37.0014],[-119.8118,37.001],[-119.8095,36.9978],[-119.8027,36.998],[-119.7969,36.993],[-119.7982,36.9901],[-119.7962,36.9887],[-119.7952,36.9836],[-119.7961,36.9812],[-119.7939,36.9771],[-119.7931,37.0211],[-119.7792,37.0423],[-119.7661,37.069],[-119.7626,37.0727],[-119.7611,37.0771],[-119.7579,37.081],[-119.7533,37.0934],[-119.7469,37.1004],[-119.7435,37.1164],[-119.737,37.1244],[-119.7248,37.1209],[-119.7139,37.1217],[-119.7,37.1206],[-119.6964,37.1236],[-119.6901,37.1324],[-119.6728,37.1477],[-119.6647,37.1513],[-119.6526,37.1534],[-119.6475,37.1563],[-119.6299,37.1785],[-119.618,37.1911],[-119.6048,37.1951],[-119.5954,37.1938],[-119.5907,37.1957],[-119.5863,37.1953],[-119.5809,37.1974],[-119.5768,37.1975],[-119.5686,37.2098],[-119.5548,37.2096],[-119.5503,37.2199],[-119.5503,37.223],[-119.5527,37.2264],[-119.5515,37.2347],[-119.5561,37.237],[-119.5605,37.2454],[-119.5656,37.2497],[-119.568,37.2551],[-119.5699,37.2562],[-119.5746,37.2663],[-119.574,37.2737],[-119.5756,37.2763],[-119.5776,37.287],[-119.582,37.2877],[-119.5842,37.2847],[-119.5933,37.2819],[-119.6004,37.2818],[-119.6225,37.2849],[-119.6319,37.2916],[-119.6378,37.2899],[-119.642,37.2908],[-119.6482,37.2936],[-119.649,37.3011],[-119.6507,37.3044],[-119.6561,37.3097],[-119.6557,37.3138],[-119.66,37.318],[-119.6637,37.3197],[-119.6572,37.3295],[-119.6615,37.3292],[-119.675,37.3342],[-119.683,37.3349],[-119.6886,37.3398],[-119.6946,37.3375],[-119.6963,37.3383],[-119.7043,37.3363],[-119.7078,37.3336],[-119.7106,37.3343],[-119.7133,37.3333],[-119.7198,37.3359],[-119.7208,37.3382],[-119.7326,37.3442],[-119.7336,37.346],[-119.7358,37.3444],[-119.7396,37.3463],[-119.7418,37.3448],[-119.746,37.35],[-119.7439,37.3507],[-119.7422,37.3567],[-119.739,37.3585],[-119.7387,37.3606],[-119.726,37.365],[-119.7252,37.3676],[-119.7292,37.3733],[-119.7318,37.3803],[-119.7373,37.3858],[-119.7375,37.3956],[-119.7333,37.4016],[-119.7344,37.4054],[-119.7299,37.4177],[-119.7618,37.4171],[-120.0518,37.1832],[-120.0647,37.1778],[-120.0713,37.1776],[-120.0852,37.1734],[-120.0974,37.1717],[-120.1216,37.1585]]]},"properties":{"GEOID":"0603993802","BASENAME":"Yosemite Lakes","NAME":"Yosemite Lakes CCD","COUNTY":"039","COUSUB":"93802"}},{"type":"Feature","geometry":{"type":"Polygon","coordinates":[[[-119.794,37.0103],[-119.7933,36.9746],[-119.7808,36.9659],[-119.7667,36.9624],[-119.7639,36.9657],[-119.7634,36.9694],[-119.7618,36.9673],[-119.7575,36.9687],[-119.7548,36.976],[-119.7428,36.9767],[-119.7433,36.9776],[-119.7399,36.9791],[-119.7379,36.9822],[-119.7363,36.9817],[-119.7274,36.9866],[-119.7277,36.9884],[-119.7259,36.9893],[-119.7254,36.9913],[-119.7201,36.9933],[-119.7182,36.9956],[-119.7132,36.9916],[-119.705,37.0007],[-119.7007,37.0033],[-119.6981,37.0087],[-119.6939,37.011],[-119.6908,37.012],[-119.6774,37.0091],[-119.6709,37.0093],[-119.6586,37.0133],[-119.6571,37.0189],[-119.6594,37.0389],[-119.6516,37.043],[-119.6393,37.0433],[-119.629,37.0346],[-119.636,37.0253],[-119.6354,37.0215],[-119.6322,37.021],[-119.626,37.0252],[-119.6211,37.0266],[-119.6104,37.0457],[-119.6136,37.052],[-119.6106,37.0578],[-119.6097,37.0647],[-119.6049,37.071],[-119.597,37.0713],[-119.586,37.0658],[-119.5807,37.0661],[-119.5684,37.0636],[-119.5624,37.0646],[-119.5614,37.0655],[-119.562,37.0687],[-119.5605,37.0707],[-119.5633,37.0744],[-119.559,37.0881],[-119.5532,37.0926],[-119.5416,37.096],[-119.5376,37.1051],[-119.5398,37.109],[-119.5488,37.1168],[-119.5562,37.1155],[-119.5672,37.1159],[-119.5688,37.1171],[-119.5634,37.1283],[-119.5634,37.1395],[-119.5598,37.1435],[-119.5538,37.1452],[-119.55,37.1446],[-119.5432,37.1395],[-119.54,37.1348],[-119.5331,37.133],[-119.5276,37.1287],[-119.525,37.1282],[-119.5233,37.1298],[-119.5223,37.1354],[-119.5199,37.1386],[-119.5175,37.1468],[-119.5093,37.1505],[-119.506,37.1503],[-119.5027,37.1467],[-119.4931,37.1417],[-119.4892,37.1373],[-119.4891,37.1346],[-119.4913,37.1318],[-119.4932,37.1246],[-119.4913,37.1197],[-119.4833,37.1103],[-119.4748,37.11],[-119.4702,37.1109],[-119.4663,37.1196],[-119.4691,37.1259],[-119.4626,37.1442],[-119.4611,37.1453],[-119.4546,37.144],[-119.4427,37.1441],[-119.4349,37.147],[-119.4331,37.152],[-119.4331,37.1615],[-119.4321,37.1626],[-119.4258,37.1643],[-119.4158,37.1634],[-119.4068,37.16],[-119.3998,37.1498],[-119.3888,37.1492],[-119.3861,37.1499],[-119.385,37.1533],[-119.375,37.1579],[-119.3752,37.1641],[-119.3651,37.1657],[-119.3619,37.1678],[-119.3604,37.1701],[-119.3606,37.1805],[-119.3541,37.1857],[-119.3478,37.1868],[-119.3431,37.1891],[-119.3401,37.1927],[-119.3372,37.2005],[-119.3308,37.2055],[-119.3301,37.2074],[-119.3294,37.21],[-119.3307,37.2152],[-119.336,37.2169],[-119.3378,37.2192],[-119.3337,37.224],[-119.3316,37.2396],[-119.3288,37.2425],[-119.3232,37.245],[-119.3221,37.2474],[-119.3222,37.2534],[-119.3245,37.2586],[-119.3246,37.2655],[-119.3264,37.2699],[-119.3323,37.2744],[-119.3312,37.2821],[-119.3269,37.2919],[-119.3305,37.3017],[-119.334,37.3039],[-119.3354,37.3112],[-119.3272,37.319],[-119.3243,37.3208],[-119.3186,37.3212],[-119.3158,37.3248],[-119.3164,37.3281],[-119.3245,37.3325],[-119.3258,37.3354],[-119.3244,37.3371],[-119.3168,37.3378],[-119.3122,37.3397],[-119.3115,37.3429],[-119.3154,37.3461],[-119.3151,37.3487],[-119.3122,37.3527],[-119.3062,37.3568],[-119.2867,37.3749],[-119.0224,37.5857],[-119.027,37.5957],[-119.0344,37.6035],[-119.0308,37.6222],[-119.0326,37.6305],[-119.0453,37.637],[-119.0513,37.6434],[-119.0546,37.6451],[-119.0536,37.6464],[-119.0543,37.6512],[-119.0614,37.6578],[-119.0595,37.6654],[-119.0624,37.6711],[-119.062,37.6765],[-119.0652,37.6846],[-119.0729,37.6902],[-119.0734,37.6929],[-119.0826,37.6965],[-119.0881,37.7027],[-119.0931,37.7036],[-119.1016,37.7136],[-119.1018,37.7162],[-119.1074,37.7201],[-119.1097,37.7247],[-119.118,37.7303],[-119.1216,37.7311],[-119.1243,37.7339],[-119.1276,37.7347],[-119.1327,37.7339],[-119.138,37.7361],[-119.1408,37.7333],[-119.1448,37.7342],[-119.1496,37.7329],[-119.1554,37.7347],[-119.1573,37.7365],[-119.1641,37.7361],[-119.1691,37.7384],[-119.1715,37.7378],[-119.1728,37.7357],[-119.1771,37.7348],[-119.1825,37.7371],[-119.1837,37.7395],[-119.1863,37.7365],[-119.1925,37.738],[-119.1985,37.7367],[-119.2069,37.7246],[-119.2107,37.722],[-119.2163,37.7141],[-119.23,37.7174],[-119.2306,37.721],[-119.2369,37.7242],[-119.2393,37.7275],[-119.243,37.7285],[-119.251,37.7302],[-119.2537,37.7286],[-119.2552,37.7253],[-119.2579,37.7246],[-119.2601,37.7266],[-119.2612,37.7327],[-119.2641,37.7329],[-119.2655,37.7361],[-119.2694,37.7396],[-119.2718,37.7392],[-119.2821,37.7438],[-119.2884,37.745],[-119.2907,37.7493],[-119.2896,37.7499],[-119.2891,37.755],[-119.2941,37.7597],[-119.2934,37.7679],[-119.3083,37.7757],[-119.309,37.778],[-119.5836,37.5603],[-119.5842,37.4947],[-119.6151,37.4947],[-119.6155,37.4615],[-119.6512,37.4614],[-119.6512,37.4178],[-119.7299,37.4177],[-119.7344,37.4054],[-119.7333,37.4016],[-119.7375,37.3956],[-119.7373,37.3858],[-119.7318,37.3803],[-119.7292,37.3733],[-119.7252,37.3676],[-119.726,37.365],[-119.7387,37.3606],[-119.739,37.3585],[-119.7422,37.3567],[-119.7439,37.3507],[-119.746,37.35],[-119.7417,37.3447],[-119.7399,37.3463],[-119.7358,37.3444],[-119.7336,37.346],[-119.7326,37.3442],[-119.7208,37.3382],[-119.7198,37.3359],[-119.7133,37.3333],[-119.7106,37.3343],[-119.7078,37.3336],[-119.7043,37.3363],[-119.6963,37.3383],[-119.6946,37.3375],[-119.6886,37.3398],[-119.683,37.3349],[-119.675,37.3342],[-119.6615,37.3292],[-119.6572,37.3295],[-119.6637,37.3197],[-119.66,37.318],[-119.6557,37.3138],[-119.6561,37.3097],[-119.6507,37.3044],[-119.649,37.3011],[-119.6482,37.2936],[-119.646,37.2935],[-119.6427,37.291],[-119.6381,37.2899],[-119.6319,37.2916],[-119.6226,37.2849],[-119.6033,37.282],[-119.5933,37.2819],[-119.5842,37.2847],[-119.582,37.2877],[-119.5775,37.2869],[-119.5756,37.2763],[-119.574,37.2737],[-119.5746,37.2663],[-119.5699,37.2562],[-119.568,37.2551],[-119.5656,37.2497],[-119.5605,37.2454],[-119.5561,37.237],[-119.5515,37.2347],[-119.5527,37.2264],[-119.5502,37.2227],[-119.5507,37.2178],[-119.5553,37.2094],[-119.5689,37.2097],[-119.5766,37.1975],[-119.5811,37.1974],[-119.5863,37.1953],[-119.5907,37.1957],[-119.5954,37.1938],[-119.6048,37.1951],[-119.6182,37.191],[-119.6299,37.1785],[-119.6475,37.1563],[-119.6526,37.1534],[-119.6647,37.1513],[-119.6728,37.1477],[-119.6901,37.1324],[-119.6964,37.1236],[-119.7002,37.1205],[-119.7139,37.1217],[-119.7252,37.1209],[-119.737,37.1244],[-119.7435,37.1164],[-119.7469,37.1004],[-119.7533,37.0934],[-119.7579,37.081],[-119.7611,37.0771],[-119.7626,37.0727],[-119.7661,37.069],[-119.7792,37.0423],[-119.7925,37.0225],[-119.794,37.0103]]]},"properties":{"GEOID":"0603992220","BASENAME":"Oakhurst-North Fork","NAME":"Oakhurst-North Fork CCD","COUNTY":"039","COUSUB":"92220"}},{"type":"Feature","geometry":{"type":"Polygon","coordinates":[[[-120.4275,37.0463],[-120.4196,37.0276],[-120.4118,37.0231],[-120.4097,37.0155],[-120.3908,37.0134],[-120.3767,37.0048],[-120.3731,36.9959],[-120.3459,36.9961],[-120.338,37.0036],[-120.3283,37.0095],[-120.3281,37.0109],[-120.2221,37.0113],[-120.2209,37.0138],[-120.2175,37.0128],[-120.2139,37.0151],[-120.2029,37.0179],[-120.2007,37.0198],[-120.1937,37.0201],[-120.1861,37.0234],[-120.1824,37.0267],[-120.1683,37.0281],[-120.1625,37.0273],[-120.1535,37.0297],[-120.15,37.0338],[-120.1311,37.0442],[-120.1285,37.0475],[-120.1239,37.0501],[-120.122,37.0537],[-120.1067,37.0646],[-120.0972,37.075],[-120.0965,37.0797],[-120.0903,37.083],[-120.0877,37.087],[-120.0834,37.0882],[-120.0804,37.0915],[-120.0804,37.0946],[-120.077,37.0952],[-120.0725,37.0984],[-120.0696,37.1026],[-120.0702,37.1045],[-120.0687,37.1062],[-120.0675,37.1053],[-120.0663,37.1066],[-120.0684,37.1085],[-120.0666,37.1113],[-120.0683,37.112],[-120.0672,37.1134],[-120.0653,37.1127],[-120.0612,37.1149],[-120.059,37.1143],[-120.0586,37.116],[-120.0607,37.1178],[-120.0583,37.1166],[-120.0581,37.1201],[-120.0529,37.1222],[-120.0504,37.122],[-120.0561,37.1248],[-120.0652,37.123],[-120.0818,37.1234],[-120.0839,37.1292],[-120.0949,37.1288],[-120.1203,37.1475],[-120.1215,37.1591],[-120.1139,37.1621],[-120.1064,37.1672],[-120.1201,37.1655],[-120.1328,37.1674],[-120.1393,37.1648],[-120.1465,37.1639],[-120.153,37.166],[-120.1646,37.1627],[-120.1702,37.166],[-120.1741,37.1659],[-120.1765,37.1623],[-120.1855,37.1617],[-120.1876,37.1603],[-120.1948,37.1632],[-120.2021,37.1627],[-120.2087,37.1645],[-120.2137,37.1643],[-120.2195,37.1622],[-120.223,37.164],[-120.2273,37.1634],[-120.2359,37.1587],[-120.2439,37.157],[-120.2499,37.1578],[-120.2763,37.1517],[-120.2814,37.153],[-120.2898,37.1526],[-120.2964,37.1493],[-120.3038,37.1411],[-120.3109,37.1411],[-120.316,37.1378],[-120.3245,37.1364],[-120.3286,37.1339],[-120.3283,37.1311],[-120.3399,37.1263],[-120.3412,37.1246],[-120.3487,37.1237],[-120.3497,37.1226],[-120.3541,37.1234],[-120.3575,37.1225],[-120.3584,37.1206],[-120.3635,37.1197],[-120.3722,37.1211],[-120.379,37.1243],[-120.3849,37.1246],[-120.3888,37.121],[-120.3936,37.1213],[-120.3954,37.1191],[-120.4008,37.1178],[-120.401,37.0652],[-120.4072,37.0595],[-120.4165,37.0548],[-120.4182,37.0513],[-120.4226,37.0478],[-120.4275,37.0463]]]},"properties":{"GEOID":"0603990480","BASENAME":"Chowchilla","NAME":"Chowchilla CCD","COUNTY":"039","COUSUB":"90480"}},{"type":"Feature","geometry":{"type":"Polygon","coordinates":[[[-120.2568,37.011],[-120.2554,36.9235],[-119.794,36.9232],[-119.7939,36.9771],[-119.7961,36.9812],[-119.7952,36.9836],[-119.7962,36.9887],[-119.7982,36.9901],[-119.7969,36.993],[-119.8027,36.998],[-119.8095,36.9978],[-119.8118,37.001],[-119.8174,37.0014],[-119.821,37.0055],[-119.8261,37.0086],[-119.8299,37.0079],[-119.8325,37.009],[-119.8353,37.0079],[-119.8407,37.01],[-119.8472,37.0145],[-119.8443,37.0192],[-119.8503,37.0246],[-119.8645,37.0252],[-119.8669,37.0237],[-119.871,37.0256],[-119.8736,37.0252],[-119.8746,37.0267],[-119.8802,37.0285],[-119.8811,37.0339],[-119.8783,37.0382],[-119.8809,37.0385],[-119.8876,37.0431],[-119.8926,37.0489],[-119.8914,37.0547],[-119.8929,37.0557],[-119.8968,37.0545],[-119.9001,37.0567],[-119.9077,37.0634],[-119.9083,37.069],[-119.911,37.0707],[-119.9143,37.069],[-119.9205,37.0687],[-119.9292,37.0624],[-119.9325,37.0639],[-119.9354,37.0634],[-119.9427,37.0698],[-119.9494,37.0723],[-119.9593,37.0713],[-119.9662,37.0728],[-119.9703,37.0723],[-119.9784,37.0748],[-119.9803,37.0726],[-119.9889,37.0739],[-119.9928,37.0824],[-120.006,37.0792],[-120.0186,37.0803],[-120.0218,37.0827],[-120.0266,37.0918],[-120.0354,37.0933],[-120.0367,37.0982],[-120.0392,37.1015],[-120.0393,37.105],[-120.0349,37.1075],[-120.0346,37.1115],[-120.0375,37.1118],[-120.0395,37.1146],[-120.0474,37.118],[-120.0504,37.122],[-120.0529,37.1222],[-120.0581,37.1201],[-120.0583,37.1166],[-120.0607,37.1178],[-120.0586,37.116],[-120.059,37.1143],[-120.0612,37.1149],[-120.0653,37.1127],[-120.0672,37.1134],[-120.0683,37.112],[-120.0666,37.1113],[-120.0684,37.1085],[-120.0663,37.1066],[-120.0675,37.1053],[-120.0687,37.1062],[-120.0702,37.1045],[-120.0696,37.1026],[-120.0725,37.0984],[-120.077,37.0952],[-120.0804,37.0946],[-120.0804,37.0915],[-120.0834,37.0882],[-120.0877,37.087],[-120.0903,37.083],[-120.0965,37.0797],[-120.0972,37.075],[-120.1067,37.0646],[-120.122,37.0537],[-120.1239,37.0501],[-120.1285,37.0475],[-120.1311,37.0442],[-120.15,37.0338],[-120.1535,37.0297],[-120.1625,37.0273],[-120.1683,37.0281],[-120.1824,37.0267],[-120.1861,37.0234],[-120.1937,37.0201],[-120.2007,37.0198],[-120.2029,37.0179],[-120.2139,37.0151],[-120.2175,37.0128],[-120.2209,37.0138],[-120.2221,37.0113],[-120.2568,37.011]]]},"properties":{"GEOID":"0603991830","BASENAME":"Madera","NAME":"Madera CCD","COUNTY":"039","COUSUB":"91830"}},{"type":"Feature","geometry":{"type":"Polygon","coordinates":[[[-120.5455,37.0276],[-120.5446,37.0261],[-120.5378,37.0239],[-120.5369,37.0193],[-120.5307,37.0202],[-120.5296,37.0179],[-120.5312,37.014],[-120.5304,37.0129],[-120.5233,37.0141],[-120.5202,37.0113],[-120.5138,37.011],[-120.509,37.0076],[-120.5082,37.0003],[-120.503,37.0006],[-120.5042,36.9982],[-120.5006,36.9959],[-120.5015,36.9924],[-120.4995,36.982],[-120.4954,36.9789],[-120.4948,36.9758],[-120.4909,36.9758],[-120.4882,36.9734],[-120.4841,36.9724],[-120.4842,36.9702],[-120.4887,36.9678],[-120.4889,36.9657],[-120.4842,36.9627],[-120.478,36.9547],[-120.479,36.9488],[-120.4756,36.94],[-120.4735,36.9384],[-120.468,36.9375],[-120.4628,36.9282],[-120.4571,36.9236],[-120.4578,36.9215],[-120.462,36.9194],[-120.4622,36.9172],[-120.4504,36.9128],[-120.4503,36.9112],[-120.4556,36.9054],[-120.4638,36.9054],[-120.461,36.9023],[-120.4668,36.8922],[-120.4653,36.8873],[-120.4565,36.8838],[-120.4537,36.8808],[-120.4546,36.8791],[-120.4582,36.878],[-120.4594,36.8753],[-120.4574,36.873],[-120.4503,36.8712],[-120.4507,36.8681],[-120.4557,36.8635],[-120.4555,36.8619],[-120.4529,36.86],[-120.4486,36.8602],[-120.449,36.8585],[-120.4474,36.8566],[-120.4395,36.8557],[-120.4385,36.8545],[-120.4405,36.8502],[-120.4335,36.8505],[-120.4263,36.8399],[-120.4217,36.8399],[-120.4171,36.8356],[-120.4141,36.8361],[-120.4122,36.8397],[-120.4099,36.8398],[-120.4091,36.8358],[-120.4049,36.8314],[-120.404,36.8256],[-120.4007,36.8224],[-120.3977,36.8223],[-120.3958,36.8245],[-120.3938,36.8233],[-120.3902,36.8245],[-120.3876,36.8239],[-120.3791,36.8172],[-120.3771,36.8088],[-120.3747,36.8085],[-120.3718,36.8106],[-120.3692,36.8101],[-120.3681,36.807],[-120.3728,36.8037],[-120.3744,36.8011],[-120.3697,36.7956],[-120.3729,36.7897],[-120.3707,36.7852],[-120.3559,36.7873],[-120.3494,36.7851],[-120.3451,36.785],[-120.3445,36.7874],[-120.3482,36.7899],[-120.351,36.7954],[-120.3507,36.7975],[-120.3477,36.7982],[-120.3441,36.7914],[-120.3369,36.7924],[-120.3344,36.7915],[-120.3356,36.7842],[-120.3346,36.7829],[-120.3242,36.7863],[-120.3223,36.7846],[-120.3246,36.7816],[-120.3243,36.7799],[-120.3217,36.7777],[-120.3159,36.7783],[-120.3138,36.7819],[-120.3126,36.782],[-120.3004,36.7776],[-120.2998,36.7746],[-120.3057,36.7734],[-120.3061,36.7703],[-120.3027,36.7697],[-120.2977,36.7723],[-120.2932,36.7722],[-120.2921,36.771],[-120.294,36.7663],[-120.2927,36.7641],[-120.2898,36.7631],[-120.2879,36.7648],[-120.2895,36.7705],[-120.2883,36.7726],[-120.2855,36.7735],[-120.2812,36.7721],[-120.2822,36.7673],[-120.2814,36.7666],[-120.2775,36.7688],[-120.2758,36.7729],[-120.2733,36.7742],[-120.2694,36.7714],[-120.2622,36.7726],[-120.256,36.7696],[-120.2524,36.774],[-120.2488,36.7751],[-120.2457,36.7713],[-120.2347,36.7684],[-120.2299,36.7691],[-120.2292,36.7701],[-120.2335,36.7787],[-120.2333,36.7811],[-120.2307,36.7826],[-120.2227,36.7828],[-120.2207,36.7873],[-120.2141,36.7894],[-120.2084,36.789],[-120.2071,36.7909],[-120.2022,36.79],[-120.2011,36.7864],[-120.2018,36.7829],[-120.1997,36.7807],[-120.1949,36.7796],[-120.1926,36.7765],[-120.1888,36.7764],[-120.1815,36.7833],[-120.182,36.7881],[-120.1745,36.7961],[-120.1732,36.8025],[-120.1687,36.8035],[-120.169,36.8148],[-120.1871,36.8148],[-120.1872,36.8366],[-120.1827,36.8366],[-120.183,36.8801],[-120.165,36.8803],[-120.1652,36.9236],[-120.2554,36.9235],[-120.2568,37.011],[-120.3281,37.0109],[-120.3283,37.0095],[-120.338,37.0036],[-120.3459,36.9961],[-120.3731,36.9959],[-120.3767,37.0048],[-120.3908,37.0134],[-120.4097,37.0155],[-120.4118,37.0231],[-120.4196,37.0276],[-120.4275,37.0463],[-120.4226,37.0478],[-120.4182,37.0513],[-120.4165,37.0548],[-120.4072,37.0595],[-120.401,37.0652],[-120.4008,37.1178],[-120.4041,37.1157],[-120.4068,37.1109],[-120.4148,37.1109],[-120.417,37.1082],[-120.4214,37.1097],[-120.4278,37.1063],[-120.4442,37.1031],[-120.4529,37.0989],[-120.4561,37.1003],[-120.4655,37.0978],[-120.4698,37.0943],[-120.4725,37.0941],[-120.4767,37.0964],[-120.5417,37.0445],[-120.5372,37.0406],[-120.5378,37.0342],[-120.5455,37.0276]]]},"properties":{"GEOID":"0603991850","BASENAME":"Madera West","NAME":"Madera West CCD","COUNTY":"039","COUSUB":"91850"}},{"type":"Feature","geometry":{"type":"Polygon","coordinates":[[[-120.1872,36.8366],[-120.187,36.8148],[-120.169,36.8148],[-120.1687,36.8035],[-120.1629,36.7987],[-120.1588,36.7979],[-120.1553,36.7988],[-120.1489,36.8031],[-120.1435,36.8047],[-120.1366,36.8093],[-120.1314,36.81],[-120.1291,36.8118],[-120.1238,36.8117],[-120.1146,36.814],[-120.108,36.8127],[-120.0986,36.8149],[-120.0916,36.8212],[-120.0795,36.8253],[-120.0758,36.8244],[-120.0737,36.8202],[-120.0714,36.8187],[-120.0661,36.8193],[-120.056,36.8229],[-120.0509,36.8219],[-120.0423,36.8155],[-120.0355,36.8159],[-120.0278,36.8145],[-120.0226,36.8178],[-120.0202,36.825],[-120.0137,36.8281],[-119.9998,36.8273],[-119.9924,36.8289],[-119.9907,36.8306],[-119.9915,36.8345],[-119.9903,36.8378],[-119.9858,36.8405],[-119.9797,36.8397],[-119.977,36.835],[-119.9705,36.8329],[-119.9666,36.8325],[-119.9585,36.8355],[-119.9435,36.834],[-119.9345,36.838],[-119.9326,36.8445],[-119.9281,36.8485],[-119.9236,36.8478],[-119.9183,36.8451],[-119.9121,36.8454],[-119.9088,36.8466],[-119.904,36.8516],[-119.8892,36.8521],[-119.8879,36.8547],[-119.8888,36.8577],[-119.8862,36.8592],[-119.8833,36.8591],[-119.8794,36.856],[-119.8706,36.8522],[-119.8662,36.8522],[-119.8659,36.8511],[-119.8609,36.8545],[-119.8539,36.8514],[-119.8503,36.8536],[-119.8466,36.8601],[-119.8409,36.8613],[-119.8384,36.8582],[-119.8373,36.8541],[-119.8348,36.8525],[-119.8234,36.8483],[-119.8165,36.8491],[-119.8155,36.8505],[-119.8138,36.8502],[-119.8125,36.854],[-119.8124,36.8575],[-119.8152,36.8602],[-119.8141,36.8618],[-119.8121,36.8638],[-119.8025,36.8659],[-119.7972,36.8751],[-119.7892,36.8761],[-119.7861,36.8789],[-119.785,36.8847],[-119.7891,36.8901],[-119.7893,36.8967],[-119.7757,36.9091],[-119.7727,36.9186],[-119.7587,36.9202],[-119.7549,36.9225],[-119.7503,36.9283],[-119.7504,36.9305],[-119.7528,36.9337],[-119.7521,36.9359],[-119.7457,36.939],[-119.7416,36.9439],[-119.7373,36.944],[-119.7338,36.9464],[-119.7367,36.9536],[-119.7433,36.9546],[-119.7405,36.9702],[-119.7313,36.9797],[-119.7132,36.9916],[-119.7182,36.9956],[-119.7201,36.9933],[-119.7254,36.9913],[-119.7259,36.9893],[-119.7277,36.9884],[-119.7274,36.9866],[-119.7363,36.9817],[-119.7379,36.9822],[-119.7399,36.9791],[-119.7433,36.9776],[-119.7428,36.9767],[-119.7548,36.976],[-119.7575,36.9687],[-119.7618,36.9673],[-119.7634,36.9694],[-119.7639,36.9657],[-119.7673,36.9622],[-119.7808,36.9659],[-119.7933,36.9746],[-119.7939,36.9771],[-119.794,36.9232],[-120.1652,36.9236],[-120.165,36.8803],[-120.183,36.8801],[-120.1827,36.8366],[-120.1872,36.8366]]]},"properties":{"GEOID":"0603991840","BASENAME":"Madera Southeast","NAME":"Madera Southeast CCD","COUNTY":"039","COUSUB":"91840"}}]}