{"type":"FeatureCollection","features":[{"type":"Feature","geometry":{"type":"Polygon","coordinates":[[[-122.577,37.9105],[-122.5731,37.9056],[-122.5696,37.9039],[-122.5685,37.9013],[-122.5628,37.8998],[-122.5625,37.8982],[-122.5566,37.8927],[-122.5546,37.8883],[-122.5546,37.8833],[-122.5537,37.8842],[-122.5538,37.8777],[-122.5517,37.8763],[-122.5523,37.8745],[-122.5511,37.8731],[-122.5528,37.8715],[-122.5507,37.8704],[-122.5512,37.8691],[-122.549,37.8694],[-122.5512,37.8673],[-122.5487,37.8671],[-122.5438,37.8701],[-122.5399,37.8704],[-122.5372,37.866],[-122.5377,37.8644],[-122.5387,37.8652],[-122.5382,37.8636],[-122.533,37.8588],[-122.5351,37.857],[-122.5326,37.8555],[-122.5331,37.8538],[-122.5275,37.8504],[-122.5259,37.85],[-122.5248,37.851],[-122.524,37.8523],[-122.5249,37.8547],[-122.5218,37.8565],[-122.5163,37.8568],[-122.5114,37.8549],[-122.5074,37.8557],[-122.5102,37.8569],[-122.5051,37.8621],[-122.4937,37.8554],[-122.4902,37.8513],[-122.4932,37.8518],[-122.4954,37.8504],[-122.4913,37.847],[-122.4831,37.8443],[-122.4772,37.8456],[-122.4766,37.8423],[-122.4716,37.8366],[-122.4728,37.8319],[-122.4187,37.8525],[-122.4302,37.9184],[-122.4846,37.921],[-122.4879,37.9198],[-122.4872,37.9187],[-122.4891,37.9179],[-122.4892,37.9153],[-122.4957,37.9156],[-122.4959,37.9117],[-122.5049,37.9119],[-122.503,37.9093],[-122.5108,37.9094],[-122.5106,37.9078],[-122.514,37.9086],[-122.5183,37.9178],[-122.5283,37.916],[-122.5332,37.9178],[-122.537,37.9213],[-122.5445,37.9235],[-122.5464,37.9259],[-122.5484,37.9254],[-122.5491,37.9237],[-122.5582,37.9303],[-122.5604,37.9306],[-122.56,37.9254],[-122.5628,37.9253],[-122.5636,37.9244],[-122.562,37.9234],[-122.5647,37.9224],[-122.5619,37.9211],[-122.5634,37.92],[-122.5623,37.9185],[-122.5698,37.9214],[-122.57,37.9196],[-122.5665,37.9181],[-122.5668,37.9163],[-122.5687,37.9158],[-122.5681,37.9144],[-122.5722,37.9142],[-122.5738,37.9116],[-122.577,37.9105]]]},"properties":{"GEOID":"0604193140","BASENAME":"Southeast Marin","NAME":"Southeast Marin CCD","COUNTY":"041","COUSUB":"93140"}},{"type":"Feature","geometry":{"type":"Polygon","coordinates":[[[-123.1328,38.2961],[-123.1345,38.2963],[-123.1238,38.2858],[-123.1196,38.2771],[-123.111,38.2673],[-123.101,38.2614],[-123.0496,38.2143],[-123.0458,38.2049],[-123.0389,38.1975],[-123.0379,38.1925],[-123.0313,38.1815],[-123.0305,38.1725],[-123.0272,38.1642],[-123.0148,38.1491],[-123.0237,38.1249],[-123.0638,38.0365],[-123.0747,38.0272],[-123.0812,38.019],[-123.0851,38.0084],[-123.0857,37.9999],[-123.0839,37.9834],[-123.0794,37.9719],[-123.068,37.9587],[-123.059,37.9528],[-123.0501,37.948],[-123.0225,37.9421],[-122.9764,37.9401],[-122.9532,37.9411],[-122.9319,37.9467],[-122.9192,37.9548],[-122.9092,37.9646],[-122.9023,37.9774],[-122.8893,37.9741],[-122.8791,37.9666],[-122.8761,37.9663],[-122.8727,37.9625],[-122.864,37.9572],[-122.8546,37.9476],[-122.8505,37.9456],[-122.8421,37.9233],[-122.8298,37.9103],[-122.8141,37.9011],[-122.789,37.8938],[-122.7864,37.8869],[-122.7249,37.9345],[-122.7185,37.9334],[-122.7148,37.9346],[-122.7158,37.9362],[-122.7133,37.9383],[-122.7144,37.9424],[-122.7085,37.9466],[-122.7109,37.9479],[-122.7132,37.9524],[-122.7093,37.9515],[-122.7074,37.9528],[-122.6991,37.9646],[-122.6943,37.9681],[-122.697,37.972],[-122.7038,37.9774],[-122.7051,37.9805],[-122.7107,37.984],[-122.7134,37.9836],[-122.7154,37.9902],[-122.7203,37.996],[-122.7193,37.9974],[-122.7161,37.9979],[-122.7156,37.9999],[-122.7098,37.998],[-122.7088,37.9991],[-122.709,38.0045],[-122.7083,38.0017],[-122.7072,38.0042],[-122.7062,38.0039],[-122.6992,37.9955],[-122.6981,37.9958],[-122.6982,38.0003],[-122.692,38.0046],[-122.6872,38.0029],[-122.6775,38.0029],[-122.6714,37.9969],[-122.6694,37.9993],[-122.6657,38.0003],[-122.6614,37.9988],[-122.6577,37.9994],[-122.6566,37.9979],[-122.6539,37.9999],[-122.6506,37.9954],[-122.643,37.9967],[-122.6391,37.9936],[-122.6318,37.9954],[-122.6283,37.9995],[-122.6263,38],[-122.6272,38.0056],[-122.6247,38.0076],[-122.6183,38.0071],[-122.6146,38.0045],[-122.6168,38.0044],[-122.6143,38.0041],[-122.6182,38.0112],[-122.6162,38.0123],[-122.6136,38.0107],[-122.6145,38.0166],[-122.6137,38.0182],[-122.6168,38.0183],[-122.6153,38.0196],[-122.6166,38.0196],[-122.6158,38.0208],[-122.6194,38.0215],[-122.6197,38.0232],[-122.6185,38.0236],[-122.6193,38.025],[-122.6224,38.0262],[-122.6169,38.0297],[-122.6193,38.0337],[-122.6192,38.036],[-122.6231,38.0379],[-122.6246,38.0397],[-122.6244,38.0415],[-122.6218,38.0464],[-122.6225,38.0481],[-122.6206,38.0459],[-122.6188,38.0565],[-122.6161,38.0611],[-122.6132,38.0613],[-122.6062,38.058],[-122.5975,38.0671],[-122.6012,38.0705],[-122.6037,38.0761],[-122.6305,38.0898],[-122.6396,38.0917],[-122.6461,38.0882],[-122.6637,38.0936],[-122.6654,38.0957],[-122.6655,38.1041],[-122.6673,38.1128],[-122.6761,38.116],[-122.6915,38.1143],[-122.6963,38.1165],[-122.6987,38.1209],[-122.7002,38.1342],[-122.6966,38.1424],[-122.6922,38.1458],[-122.6832,38.1492],[-122.6669,38.1486],[-122.6611,38.1455],[-122.6529,38.148],[-122.6493,38.1476],[-122.6416,38.1463],[-122.6382,38.1371],[-122.6305,38.1329],[-122.6255,38.1231],[-122.6185,38.1207],[-122.6168,38.1252],[-122.6147,38.1261],[-122.6089,38.1388],[-122.6088,38.1478],[-122.5921,38.1459],[-122.5805,38.1363],[-122.5778,38.1384],[-122.5653,38.1349],[-122.5644,38.1289],[-122.5636,38.1323],[-122.5644,38.1444],[-122.5692,38.158],[-122.5979,38.1795],[-122.6007,38.1852],[-122.6041,38.1806],[-122.6125,38.1806],[-122.6151,38.1824],[-122.6226,38.1826],[-122.6257,38.1823],[-122.6282,38.1789],[-122.6358,38.1786],[-122.6379,38.1802],[-122.6492,38.1811],[-122.6537,38.1848],[-122.6586,38.1868],[-122.6639,38.1864],[-122.6672,38.1897],[-122.6806,38.1896],[-122.6879,38.1947],[-122.7014,38.1961],[-122.7044,38.1985],[-122.7143,38.2012],[-122.715,38.2034],[-122.723,38.2071],[-122.7399,38.207],[-122.8984,38.3145],[-122.8999,38.3168],[-122.9095,38.3144],[-122.9109,38.3171],[-122.9072,38.3187],[-122.9067,38.3199],[-122.9081,38.3208],[-122.916,38.3203],[-122.9182,38.3178],[-122.921,38.3168],[-122.9165,38.3128],[-122.918,38.3103],[-122.9216,38.3086],[-122.9256,38.3127],[-122.9324,38.3117],[-122.9354,38.3096],[-122.9368,38.3112],[-122.934,38.313],[-122.9343,38.314],[-122.9397,38.3108],[-122.944,38.3127],[-122.9468,38.3112],[-122.956,38.3137],[-122.9616,38.3167],[-122.9661,38.317],[-122.97,38.3101],[-122.9743,38.3115],[-122.9816,38.3111],[-122.9847,38.3079],[-122.9877,38.3081],[-122.9911,38.3056],[-122.9948,38.3062],[-122.9936,38.3001],[-123.0011,38.2974],[-123.0027,38.2957],[-123.1328,38.2961]]]},"properties":{"GEOID":"0604192200","BASENAME":"Northwest Marin","NAME":"Northwest Marin CCD","COUNTY":"041","COUSUB":"92200"}},{"type":"Feature","geometry":{"type":"Polygon","coordinates":[[[-122.7201,37.9966],[-122.7154,37.9902],[-122.7134,37.9836],[-122.7107,37.984],[-122.7051,37.9805],[-122.7038,37.9774],[-122.697,37.972],[-122.6946,37.9684],[-122.6839,37.9617],[-122.6826,37.9597],[-122.6835,37.958],[-122.6806,37.9551],[-122.6767,37.9535],[-122.676,37.9513],[-122.6737,37.9518],[-122.669,37.949],[-122.669,37.9471],[-122.6631,37.9453],[-122.6585,37.9406],[-122.6567,37.9369],[-122.6465,37.9338],[-122.6403,37.9246],[-122.63,37.9204],[-122.6288,37.9166],[-122.6246,37.9129],[-122.6256,37.9115],[-122.6192,37.9092],[-122.616,37.9091],[-122.612,37.9107],[-122.6106,37.9142],[-122.6074,37.9153],[-122.6065,37.9189],[-122.6007,37.923],[-122.5956,37.9227],[-122.5954,37.9255],[-122.5929,37.9272],[-122.5877,37.9249],[-122.5844,37.9288],[-122.58,37.9284],[-122.58,37.9305],[-122.5774,37.9322],[-122.5735,37.931],[-122.5757,37.9314],[-122.5774,37.9338],[-122.5749,37.9323],[-122.5719,37.9326],[-122.5701,37.9298],[-122.5704,37.9334],[-122.5734,37.9341],[-122.5729,37.9357],[-122.57,37.9353],[-122.5688,37.9339],[-122.5665,37.9355],[-122.5633,37.9355],[-122.5528,37.9256],[-122.5491,37.9237],[-122.5484,37.9254],[-122.5464,37.9259],[-122.5445,37.9235],[-122.537,37.9213],[-122.5332,37.9178],[-122.5283,37.916],[-122.5183,37.9178],[-122.514,37.9086],[-122.5106,37.9078],[-122.5108,37.9094],[-122.503,37.9093],[-122.5049,37.9119],[-122.4959,37.9117],[-122.4957,37.9156],[-122.4892,37.9153],[-122.4891,37.9179],[-122.4872,37.9187],[-122.4879,37.9198],[-122.4846,37.921],[-122.4302,37.9184],[-122.4323,37.9298],[-122.435,37.9368],[-122.4801,37.9429],[-122.5002,37.9469],[-122.5058,37.9512],[-122.5118,37.9526],[-122.5172,37.9517],[-122.5284,37.9588],[-122.5425,37.9645],[-122.5453,37.9665],[-122.5452,37.9685],[-122.5485,37.9708],[-122.5486,37.9723],[-122.5509,37.9722],[-122.5504,37.9808],[-122.5573,37.9835],[-122.561,37.9792],[-122.559,37.9864],[-122.5611,37.9857],[-122.5639,37.9875],[-122.5619,37.9893],[-122.5583,37.9895],[-122.5575,37.9937],[-122.571,38.0096],[-122.5897,38.0238],[-122.5882,38.026],[-122.5966,38.0292],[-122.5988,38.0287],[-122.5989,38.0274],[-122.6077,38.0265],[-122.6113,38.0249],[-122.6132,38.0215],[-122.6169,38.0184],[-122.6137,38.0182],[-122.6145,38.0166],[-122.6136,38.0107],[-122.6162,38.0123],[-122.6182,38.0112],[-122.6143,38.0041],[-122.6168,38.0044],[-122.6146,38.0045],[-122.6183,38.0071],[-122.6247,38.0076],[-122.6272,38.0056],[-122.6262,38],[-122.6272,38.0004],[-122.6294,37.9971],[-122.633,37.9949],[-122.6397,37.9936],[-122.643,37.9967],[-122.6478,37.9967],[-122.6506,37.9954],[-122.6539,37.9999],[-122.6566,37.9979],[-122.6577,37.9994],[-122.6614,37.9988],[-122.6657,38.0003],[-122.6694,37.9993],[-122.6714,37.9969],[-122.6775,38.0029],[-122.6872,38.0029],[-122.692,38.0046],[-122.6982,38.0003],[-122.6984,37.9956],[-122.705,38.0013],[-122.7062,38.0039],[-122.7072,38.0042],[-122.7083,38.0017],[-122.7086,38.0046],[-122.7088,37.9991],[-122.7103,37.9976],[-122.713,37.9996],[-122.7137,37.9985],[-122.7156,37.9999],[-122.7161,37.9979],[-122.7201,37.9966]]]},"properties":{"GEOID":"0604192670","BASENAME":"Ross Valley","NAME":"Ross Valley CCD","COUNTY":"041","COUSUB":"92670"}},{"type":"Feature","geometry":{"type":"Polygon","coordinates":[[[-122.7002,38.1342],[-122.6987,38.1209],[-122.6963,38.1165],[-122.6915,38.1143],[-122.6761,38.116],[-122.6673,38.1128],[-122.6655,38.1041],[-122.6654,38.0957],[-122.6637,38.0936],[-122.6461,38.0882],[-122.6396,38.0917],[-122.6305,38.0898],[-122.6154,38.0829],[-122.6037,38.0761],[-122.6012,38.0705],[-122.5975,38.0671],[-122.6062,38.058],[-122.5968,38.0535],[-122.5904,38.053],[-122.5883,38.0492],[-122.5829,38.0489],[-122.573,38.0454],[-122.5543,38.0468],[-122.5396,38.0432],[-122.5356,38.0411],[-122.5308,38.0423],[-122.5272,38.0401],[-122.5217,38.0394],[-122.5193,38.0406],[-122.5206,38.0526],[-122.5155,38.0512],[-122.514,38.0444],[-122.508,38.0453],[-122.5066,38.0477],[-122.376,38.0485],[-122.3475,38.0733],[-122.452,38.0985],[-122.5019,38.1124],[-122.5079,38.1181],[-122.5131,38.1322],[-122.5201,38.1407],[-122.5348,38.1492],[-122.5445,38.1587],[-122.5496,38.1573],[-122.5579,38.1602],[-122.558,38.1635],[-122.552,38.169],[-122.5543,38.1701],[-122.5592,38.1686],[-122.5632,38.1693],[-122.5645,38.1751],[-122.5685,38.177],[-122.5653,38.1827],[-122.5685,38.1842],[-122.5707,38.1871],[-122.5732,38.1863],[-122.5707,38.1835],[-122.5732,38.1833],[-122.5782,38.1836],[-122.582,38.1862],[-122.5821,38.188],[-122.5833,38.187],[-122.5866,38.1878],[-122.5911,38.186],[-122.5926,38.1888],[-122.6009,38.1853],[-122.5979,38.1795],[-122.5692,38.158],[-122.5644,38.1444],[-122.5636,38.1323],[-122.5644,38.1289],[-122.5653,38.1349],[-122.5778,38.1384],[-122.5805,38.1363],[-122.5921,38.1459],[-122.6088,38.1478],[-122.6089,38.1388],[-122.6147,38.1261],[-122.6168,38.1252],[-122.6185,38.1207],[-122.6255,38.1231],[-122.6305,38.1329],[-122.6382,38.1371],[-122.6416,38.1463],[-122.6493,38.1476],[-122.6529,38.148],[-122.6611,38.1455],[-122.6669,38.1486],[-122.6832,38.1492],[-122.6922,38.1458],[-122.6966,38.1424],[-122.7002,38.1342]]]},"properties":{"GEOID":"0604192205","BASENAME":"Novato","NAME":"Novato CCD","COUNTY":"041","COUSUB":"92205"}},{"type":"Feature","geometry":{"type":"Polygon","coordinates":[[[-122.6246,38.0398],[-122.6192,38.036],[-122.6193,38.0337],[-122.6168,38.0296],[-122.6224,38.0264],[-122.6193,38.025],[-122.6185,38.0236],[-122.6197,38.0232],[-122.6196,38.0217],[-122.6158,38.0208],[-122.6165,38.0197],[-122.6133,38.0214],[-122.6113,38.025],[-122.6077,38.0265],[-122.5989,38.0274],[-122.5986,38.0289],[-122.5966,38.0292],[-122.5882,38.026],[-122.5897,38.0238],[-122.571,38.0096],[-122.5575,37.9937],[-122.5583,37.9895],[-122.5619,37.9893],[-122.5639,37.9875],[-122.5611,37.9857],[-122.559,37.9864],[-122.561,37.9792],[-122.5573,37.9835],[-122.5504,37.9808],[-122.5509,37.9722],[-122.5486,37.9723],[-122.5485,37.9708],[-122.5452,37.9685],[-122.5453,37.9665],[-122.5425,37.9645],[-122.5284,37.9588],[-122.5172,37.9517],[-122.5118,37.9526],[-122.5058,37.9512],[-122.5002,37.9469],[-122.4801,37.9429],[-122.435,37.9368],[-122.441,37.9574],[-122.4416,37.9739],[-122.3928,38.027],[-122.376,38.0485],[-122.5066,38.0477],[-122.508,38.0453],[-122.514,38.0444],[-122.5155,38.0512],[-122.5206,38.0526],[-122.5193,38.0406],[-122.5217,38.0394],[-122.5272,38.0401],[-122.5308,38.0423],[-122.5356,38.0411],[-122.5396,38.0432],[-122.5543,38.0468],[-122.573,38.0454],[-122.5829,38.0489],[-122.5883,38.0492],[-122.5904,38.053],[-122.5968,38.0535],[-122.6132,38.0613],[-122.6161,38.0611],[-122.6188,38.0565],[-122.6206,38.0459],[-122.6225,38.0481],[-122.6218,38.0464],[-122.6246,38.0398]]]},"properties":{"GEOID":"0604192880","BASENAME":"San Rafael","NAME":"San Rafael CCD","COUNTY":"041","COUSUB":"92880"}},{"type":"Feature","geometry":{"type":"Polygon","coordinates":[[[-122.7864,37.8869],[-122.7791,37.8761],[-122.7737,37.8708],[-122.7525,37.8577],[-122.7403,37.8552],[-122.7307,37.8501],[-122.7158,37.8456],[-122.7047,37.8443],[-122.692,37.845],[-122.6757,37.8485],[-122.6674,37.8417],[-122.6432,37.8305],[-122.6325,37.8278],[-122.6261,37.8216],[-122.6123,37.8152],[-122.5277,37.8151],[-122.5289,37.8201],[-122.5255,37.8211],[-122.5229,37.8249],[-122.5113,37.8247],[-122.5059,37.8231],[-122.5045,37.821],[-122.5017,37.8215],[-122.5007,37.8199],[-122.4991,37.8199],[-122.4996,37.8219],[-122.4958,37.8221],[-122.4912,37.8266],[-122.4846,37.8269],[-122.4833,37.8256],[-122.4781,37.8253],[-122.4784,37.8309],[-122.477,37.8311],[-122.478,37.833],[-122.4745,37.8336],[-122.4728,37.8319],[-122.4716,37.8366],[-122.4766,37.8423],[-122.4772,37.8456],[-122.4831,37.8443],[-122.4913,37.847],[-122.4954,37.8504],[-122.4932,37.8518],[-122.4902,37.8513],[-122.4937,37.8554],[-122.5051,37.8621],[-122.5102,37.8569],[-122.5074,37.8557],[-122.5114,37.8549],[-122.5163,37.8568],[-122.5218,37.8565],[-122.5249,37.8547],[-122.524,37.8523],[-122.5259,37.85],[-122.5331,37.8538],[-122.5326,37.8555],[-122.5351,37.857],[-122.533,37.8588],[-122.5382,37.8636],[-122.5387,37.8652],[-122.5377,37.8644],[-122.5372,37.866],[-122.5399,37.8704],[-122.5438,37.8701],[-122.5487,37.8671],[-122.5512,37.8673],[-122.549,37.8694],[-122.5512,37.8691],[-122.5507,37.8704],[-122.5528,37.8715],[-122.5511,37.8731],[-122.5523,37.8745],[-122.5517,37.8763],[-122.5538,37.8777],[-122.5537,37.8842],[-122.5546,37.8833],[-122.5546,37.8883],[-122.5566,37.8927],[-122.5625,37.8982],[-122.5627,37.8997],[-122.5683,37.9012],[-122.5704,37.9047],[-122.5729,37.9054],[-122.577,37.91],[-122.5724,37.9128],[-122.5722,37.9142],[-122.5681,37.9144],[-122.5687,37.9158],[-122.5666,37.9167],[-122.5665,37.9181],[-122.57,37.9196],[-122.5698,37.9214],[-122.5623,37.9185],[-122.5634,37.92],[-122.5619,37.9211],[-122.5647,37.9224],[-122.562,37.9234],[-122.5636,37.9244],[-122.5628,37.9253],[-122.56,37.9254],[-122.5604,37.9306],[-122.5582,37.9303],[-122.5633,37.9355],[-122.5665,37.9355],[-122.5688,37.9339],[-122.57,37.9353],[-122.5729,37.9357],[-122.5734,37.9341],[-122.5704,37.9333],[-122.5702,37.9297],[-122.5719,37.9326],[-122.5749,37.9323],[-122.5768,37.9339],[-122.5776,37.9337],[-122.5759,37.9316],[-122.5735,37.931],[-122.5774,37.9322],[-122.58,37.9305],[-122.58,37.9284],[-122.5844,37.9288],[-122.5877,37.9249],[-122.5929,37.9272],[-122.5954,37.9255],[-122.5956,37.9227],[-122.6007,37.923],[-122.6065,37.9189],[-122.6074,37.9153],[-122.6106,37.9142],[-122.612,37.9107],[-122.616,37.9091],[-122.6192,37.9092],[-122.6256,37.9115],[-122.6246,37.9129],[-122.6288,37.9166],[-122.63,37.9204],[-122.6403,37.9246],[-122.6465,37.9338],[-122.6567,37.9369],[-122.6585,37.9406],[-122.6631,37.9453],[-122.669,37.9471],[-122.669,37.9489],[-122.6734,37.9517],[-122.676,37.9513],[-122.6767,37.9535],[-122.6805,37.955],[-122.6834,37.9579],[-122.6826,37.9597],[-122.684,37.9619],[-122.6943,37.9681],[-122.6991,37.9646],[-122.7074,37.9528],[-122.7093,37.9515],[-122.7132,37.9524],[-122.7109,37.9479],[-122.7085,37.9466],[-122.7144,37.9424],[-122.7133,37.9383],[-122.7158,37.9362],[-122.7148,37.9346],[-122.7185,37.9334],[-122.7249,37.9345],[-122.7864,37.8869]]]},"properties":{"GEOID":"0604190256","BASENAME":"Bolinas","NAME":"Bolinas CCD","COUNTY":"041","COUSUB":"90256"}}]}