{"type":"FeatureCollection","features":[{"type":"Feature","geometry":{"type":"Polygon","coordinates":[[[-119.3226,37.971],[-119.322,37.969],[-119.3153,37.9653],[-119.3139,37.9543],[-119.3084,37.9468],[-119.2959,37.9427],[-119.2939,37.9384],[-119.2879,37.933],[-119.2806,37.9338],[-119.264,37.9265],[-119.2657,37.9151],[-119.2639,37.9122],[-119.2479,37.9101],[-119.2417,37.9102],[-119.2398,37.9118],[-119.2345,37.9103],[-119.2267,37.9066],[-119.2199,37.8986],[-119.2108,37.8994],[-119.2097,37.8975],[-119.2107,37.8939],[-119.2077,37.8898],[-119.2014,37.888],[-119.2003,37.8858],[-119.2008,37.8832],[-119.2064,37.8835],[-119.2133,37.8733],[-119.2145,37.8683],[-119.2126,37.8569],[-119.2134,37.8548],[-119.216,37.8532],[-119.2169,37.8496],[-119.2155,37.847],[-119.2105,37.8456],[-119.2018,37.8475],[-119.1962,37.844],[-119.2023,37.8429],[-119.2069,37.8399],[-119.204,37.8298],[-119.2052,37.828],[-119.2133,37.825],[-119.2169,37.8187],[-119.2077,37.8121],[-119.205,37.8115],[-119.2033,37.8061],[-119.2013,37.8043],[-119.203,37.7956],[-119.2044,37.7932],[-119.2115,37.7921],[-119.2153,37.7899],[-119.2213,37.7791],[-119.2292,37.7776],[-119.2308,37.7744],[-119.2366,37.7736],[-119.2431,37.7691],[-119.2502,37.7574],[-119.255,37.7563],[-119.2557,37.7538],[-119.2543,37.7481],[-119.2559,37.745],[-119.2604,37.7427],[-119.2612,37.741],[-119.269,37.7392],[-119.2655,37.7361],[-119.2641,37.7329],[-119.2612,37.7327],[-119.2601,37.7266],[-119.2579,37.7246],[-119.2552,37.7253],[-119.2537,37.7286],[-119.251,37.7302],[-119.2393,37.7275],[-119.2369,37.7242],[-119.2304,37.7207],[-119.23,37.7174],[-119.2163,37.7141],[-119.2107,37.722],[-119.2069,37.7246],[-119.1997,37.7358],[-119.1925,37.738],[-119.1857,37.7367],[-119.1837,37.7395],[-119.1825,37.7371],[-119.1771,37.7348],[-119.1728,37.7357],[-119.1715,37.7378],[-119.1691,37.7384],[-119.1641,37.7361],[-119.1573,37.7365],[-119.1554,37.7347],[-119.1496,37.7329],[-119.1448,37.7342],[-119.1408,37.7333],[-119.138,37.7361],[-119.1327,37.7339],[-119.1276,37.7347],[-119.1144,37.7282],[-119.1097,37.7247],[-119.1068,37.7193],[-119.1018,37.7162],[-119.1016,37.7136],[-119.0931,37.7036],[-119.0881,37.7027],[-119.0826,37.6965],[-119.0734,37.6929],[-119.0729,37.6902],[-119.0652,37.6846],[-119.062,37.6765],[-119.0624,37.6711],[-119.0595,37.6654],[-119.0614,37.6578],[-119.0543,37.6512],[-119.0536,37.6464],[-119.0546,37.6451],[-119.0513,37.6434],[-119.0453,37.637],[-119.0326,37.6305],[-119.0308,37.6222],[-119.0344,37.6035],[-119.027,37.5957],[-119.0252,37.5901],[-119.0205,37.5834],[-119.0154,37.5822],[-119.0109,37.5793],[-119.0045,37.5744],[-119.0023,37.5711],[-118.9906,37.5671],[-118.9849,37.5673],[-118.98,37.5632],[-118.977,37.5568],[-118.9725,37.5594],[-118.9641,37.5581],[-118.9598,37.5631],[-118.9564,37.5627],[-118.9527,37.5658],[-118.947,37.565],[-118.9464,37.5633],[-118.9427,37.5621],[-118.939,37.5544],[-118.9344,37.5533],[-118.9297,37.5489],[-118.9171,37.5503],[-118.9101,37.5414],[-118.9098,37.5393],[-118.9068,37.5378],[-118.9012,37.5312],[-118.9027,37.5288],[-118.9019,37.526],[-118.8911,37.5253],[-118.8875,37.521],[-118.8837,37.5201],[-118.8829,37.5156],[-118.8813,37.5147],[-118.8817,37.5103],[-118.8757,37.5079],[-118.8675,37.5071],[-118.8608,37.5015],[-118.8585,37.4943],[-118.8596,37.4901],[-118.8554,37.4814],[-118.8572,37.4795],[-118.8505,37.4758],[-118.8419,37.4809],[-118.836,37.4825],[-118.8328,37.4802],[-118.8249,37.4827],[-118.8241,37.4846],[-118.8155,37.4878],[-118.8103,37.486],[-118.8043,37.4889],[-118.7971,37.4887],[-118.7947,37.4875],[-118.7897,37.4809],[-118.786,37.4787],[-118.7851,37.4739],[-118.7779,37.4694],[-118.7777,37.4665],[-118.775,37.4631],[-118.204,37.4626],[-118.0071,37.4633],[-117.9169,37.4652],[-117.8327,37.4649],[-117.8759,37.4973],[-117.9046,37.5158],[-118.0522,37.6249],[-118.501,37.949],[-118.6217,38.0344],[-118.7142,38.1021],[-118.7976,38.1606],[-119.1295,38.053],[-119.164,38.0445],[-119.1671,38.0424],[-119.1712,38.0342],[-119.179,38.031],[-119.207,38.0346],[-119.2345,38.0304],[-119.2393,38.0288],[-119.2418,38.025],[-119.2446,38.0247],[-119.2492,38.0265],[-119.2545,38.0227],[-119.2624,38.0218],[-119.2711,38.0189],[-119.282,38.0108],[-119.2912,38.0068],[-119.2966,38.0076],[-119.3025,38.0056],[-119.3038,38.0069],[-119.3089,38.0071],[-119.3106,38.0034],[-119.3099,38.0012],[-119.3184,37.9864],[-119.3143,37.9826],[-119.3147,37.9811],[-119.3186,37.9776],[-119.3226,37.971]]]},"properties":{"GEOID":"0605191865","BASENAME":"Mammoth Lakes","NAME":"Mammoth Lakes CCD","COUNTY":"051","COUSUB":"91865"}},{"type":"Feature","geometry":{"type":"Polygon","coordinates":[[[-119.6514,38.2866],[-119.6428,38.2785],[-119.6378,38.2784],[-119.6361,38.2755],[-119.6319,38.2726],[-119.6302,38.2687],[-119.6132,38.2614],[-119.6129,38.2591],[-119.6204,38.2549],[-119.6217,38.2519],[-119.6184,38.2494],[-119.614,38.2428],[-119.6046,38.2388],[-119.6049,38.2342],[-119.6093,38.2324],[-119.6148,38.2327],[-119.6191,38.2295],[-119.6244,38.2287],[-119.6238,38.2245],[-119.6248,38.2239],[-119.6235,38.2204],[-119.6267,38.2194],[-119.6254,38.2151],[-119.6271,38.2132],[-119.625,38.2069],[-119.6264,38.2047],[-119.6309,38.2039],[-119.6327,38.1989],[-119.6286,38.1954],[-119.6177,38.1905],[-119.6099,38.1904],[-119.6084,38.1887],[-119.6056,38.1884],[-119.5983,38.1816],[-119.5923,38.1851],[-119.5856,38.1844],[-119.5786,38.1769],[-119.579,38.1738],[-119.5813,38.1725],[-119.5765,38.1577],[-119.5667,38.1572],[-119.5638,38.154],[-119.5469,38.1544],[-119.5455,38.1531],[-119.548,38.1481],[-119.5468,38.1433],[-119.5419,38.1447],[-119.5312,38.1445],[-119.5255,38.1408],[-119.5167,38.1391],[-119.5155,38.1374],[-119.5065,38.1371],[-119.5052,38.1422],[-119.5063,38.1508],[-119.5078,38.1526],[-119.5056,38.1537],[-119.5045,38.1581],[-119.5029,38.159],[-119.4965,38.1567],[-119.497,38.1493],[-119.4891,38.1434],[-119.4885,38.1322],[-119.4791,38.1311],[-119.4747,38.1289],[-119.4695,38.1283],[-119.4728,38.117],[-119.4668,38.114],[-119.4621,38.1091],[-119.4574,38.1106],[-119.4591,38.1076],[-119.4645,38.1036],[-119.4637,38.0983],[-119.4598,38.0963],[-119.4544,38.0961],[-119.4493,38.0996],[-119.4459,38.0931],[-119.4405,38.0957],[-119.4416,38.1027],[-119.4356,38.1082],[-119.4305,38.1163],[-119.4257,38.1117],[-119.424,38.1074],[-119.4192,38.1067],[-119.4126,38.1079],[-119.4025,38.1056],[-119.397,38.1068],[-119.3899,38.0991],[-119.3828,38.0977],[-119.3802,38.0925],[-119.3746,38.0935],[-119.374,38.0909],[-119.3711,38.0886],[-119.3651,38.0902],[-119.3614,38.0883],[-119.3612,38.0864],[-119.3571,38.083],[-119.3498,38.0856],[-119.3459,38.0831],[-119.3367,38.0704],[-119.3373,38.0682],[-119.3358,38.0663],[-119.3341,38.0652],[-119.3279,38.0657],[-119.3242,38.0609],[-119.3226,38.0499],[-119.3112,38.0448],[-119.3106,38.0402],[-119.314,38.0345],[-119.3089,38.0332],[-119.3072,38.0275],[-119.3046,38.0239],[-119.3082,38.0195],[-119.3087,38.0152],[-119.307,38.0123],[-119.3089,38.0071],[-119.3038,38.0069],[-119.3025,38.0056],[-119.2966,38.0076],[-119.2912,38.0068],[-119.282,38.0108],[-119.2711,38.0189],[-119.2624,38.0218],[-119.2545,38.0227],[-119.2492,38.0265],[-119.2446,38.0247],[-119.2418,38.025],[-119.2393,38.0288],[-119.2345,38.0304],[-119.207,38.0346],[-119.179,38.031],[-119.1712,38.0342],[-119.1671,38.0424],[-119.164,38.0445],[-119.1295,38.053],[-118.7976,38.1606],[-118.9225,38.2499],[-119.0824,38.3613],[-119.126,38.3932],[-119.5854,38.7132],[-119.5795,38.7056],[-119.5869,38.6985],[-119.5867,38.6949],[-119.5918,38.6901],[-119.5915,38.6822],[-119.5962,38.6779],[-119.596,38.676],[-119.5993,38.6702],[-119.6074,38.6664],[-119.6133,38.6668],[-119.6147,38.6659],[-119.6129,38.6631],[-119.6131,38.6558],[-119.6145,38.6515],[-119.6139,38.6497],[-119.616,38.6488],[-119.6169,38.6446],[-119.6149,38.6382],[-119.6157,38.6348],[-119.6182,38.6321],[-119.6163,38.6297],[-119.6166,38.6259],[-119.6194,38.6243],[-119.6185,38.6193],[-119.6211,38.6144],[-119.6205,38.6107],[-119.6185,38.6069],[-119.6191,38.6035],[-119.6125,38.6005],[-119.6089,38.5947],[-119.5998,38.5933],[-119.5955,38.5903],[-119.5947,38.5877],[-119.596,38.5819],[-119.595,38.5801],[-119.5915,38.5786],[-119.5893,38.5736],[-119.5905,38.5687],[-119.5869,38.5665],[-119.5874,38.5584],[-119.5859,38.5581],[-119.5843,38.552],[-119.5794,38.5487],[-119.5741,38.5408],[-119.571,38.5417],[-119.57,38.5389],[-119.5681,38.5377],[-119.5669,38.5253],[-119.5644,38.5264],[-119.5609,38.5255],[-119.5588,38.5181],[-119.5562,38.5166],[-119.5562,38.514],[-119.5581,38.5108],[-119.5581,38.5064],[-119.5592,38.5055],[-119.5575,38.5021],[-119.5503,38.5013],[-119.5468,38.4995],[-119.5429,38.4997],[-119.5454,38.49],[-119.5423,38.4812],[-119.5434,38.4784],[-119.5452,38.4776],[-119.5461,38.4741],[-119.5562,38.4697],[-119.559,38.4604],[-119.5586,38.4576],[-119.5575,38.4573],[-119.5564,38.4475],[-119.5613,38.4426],[-119.5626,38.4386],[-119.57,38.4349],[-119.5678,38.4292],[-119.5661,38.4278],[-119.5658,38.4226],[-119.5614,38.4198],[-119.563,38.409],[-119.5696,38.404],[-119.5808,38.4005],[-119.5837,38.3969],[-119.5924,38.3989],[-119.6012,38.4054],[-119.6042,38.4024],[-119.6115,38.399],[-119.6158,38.3989],[-119.6221,38.3939],[-119.6192,38.3872],[-119.6184,38.3818],[-119.6148,38.38],[-119.6135,38.3749],[-119.6066,38.3672],[-119.617,38.3646],[-119.6283,38.3586],[-119.6318,38.3548],[-119.6356,38.3539],[-119.6298,38.3509],[-119.6279,38.3481],[-119.6321,38.3442],[-119.6319,38.3347],[-119.635,38.329],[-119.6391,38.3271],[-119.6448,38.3216],[-119.6453,38.3179],[-119.6424,38.3156],[-119.6431,38.3099],[-119.6422,38.3064],[-119.6444,38.2996],[-119.6425,38.2938],[-119.6446,38.2909],[-119.6489,38.2891],[-119.6514,38.2866]]]},"properties":{"GEOID":"0605192195","BASENAME":"North Mono","NAME":"North Mono CCD","COUNTY":"051","COUSUB":"92195"}}]}