{"type":"FeatureCollection","features":[{"type":"Feature","geometry":{"type":"Polygon","coordinates":[[[-122.5349,38.6184],[-122.5338,38.615],[-122.5228,38.6178],[-122.5033,38.6097],[-122.5019,38.6016],[-122.5044,38.5851],[-122.5098,38.5803],[-122.5196,38.5769],[-122.5209,38.5695],[-122.5195,38.5667],[-122.5107,38.5611],[-122.5109,38.5594],[-122.499,38.5535],[-122.4972,38.5506],[-122.4909,38.5475],[-122.4894,38.5389],[-122.4908,38.5303],[-122.4884,38.5284],[-122.485,38.5282],[-122.4813,38.5248],[-122.4841,38.5211],[-122.4813,38.523],[-122.4761,38.5221],[-122.4713,38.5189],[-122.4669,38.5187],[-122.4617,38.5144],[-122.4588,38.5145],[-122.4582,38.5114],[-122.4567,38.5112],[-122.4538,38.5134],[-122.4495,38.5131],[-122.4489,38.52],[-122.4394,38.5199],[-122.4397,38.5129],[-122.4443,38.5123],[-122.4452,38.5101],[-122.4421,38.5089],[-122.4521,38.5104],[-122.4383,38.5028],[-122.4342,38.5018],[-122.4322,38.4982],[-122.4281,38.4974],[-122.4258,38.4951],[-122.4244,38.4971],[-122.4188,38.4931],[-122.4044,38.4869],[-122.4027,38.4879],[-122.3979,38.4867],[-122.3918,38.4875],[-122.3767,38.4806],[-122.3724,38.4802],[-122.3721,38.479],[-122.3702,38.4811],[-122.3664,38.4806],[-122.3558,38.4829],[-122.3532,38.4873],[-122.342,38.4926],[-122.3364,38.4924],[-122.3289,38.4899],[-122.3224,38.49],[-122.3152,38.4869],[-122.3094,38.4879],[-122.3016,38.4865],[-122.2988,38.4868],[-122.2938,38.493],[-122.2926,38.4974],[-122.2966,38.5026],[-122.2964,38.5044],[-122.3013,38.5077],[-122.3045,38.5128],[-122.3082,38.5133],[-122.3121,38.5163],[-122.3199,38.5273],[-122.337,38.5354],[-122.338,38.5398],[-122.3482,38.5432],[-122.3622,38.5544],[-122.3714,38.5572],[-122.3736,38.5598],[-122.3817,38.5632],[-122.3967,38.5725],[-122.4006,38.5882],[-122.3975,38.5916],[-122.3997,38.5962],[-122.4038,38.5975],[-122.4029,38.6],[-122.4043,38.6028],[-122.4094,38.6061],[-122.4174,38.6174],[-122.4215,38.6178],[-122.4306,38.6152],[-122.4408,38.6235],[-122.4445,38.6246],[-122.4533,38.6369],[-122.4538,38.6404],[-122.4568,38.6428],[-122.4582,38.65],[-122.4629,38.651],[-122.4655,38.6544],[-122.4716,38.6545],[-122.4811,38.6508],[-122.4864,38.6458],[-122.4897,38.6387],[-122.4985,38.6335],[-122.5068,38.6339],[-122.5147,38.6312],[-122.5236,38.631],[-122.5305,38.6286],[-122.5349,38.6184]]]},"properties":{"GEOID":"0605590070","BASENAME":"Angwin","NAME":"Angwin CCD","COUNTY":"055","COUSUB":"90070"}},{"type":"Feature","geometry":{"type":"Polygon","coordinates":[[[-122.4724,38.4056],[-122.4706,38.4049],[-122.471,38.4025],[-122.468,38.4002],[-122.4703,38.3968],[-122.4658,38.3902],[-122.457,38.3867],[-122.4544,38.385],[-122.4541,38.3822],[-122.4481,38.3794],[-122.449,38.3752],[-122.4536,38.3741],[-122.4569,38.3707],[-122.4573,38.3677],[-122.4545,38.3658],[-122.4525,38.3624],[-122.447,38.3591],[-122.4395,38.3581],[-122.4367,38.3551],[-122.4309,38.3524],[-122.4293,38.3495],[-122.4268,38.349],[-122.4276,38.3457],[-122.4252,38.3456],[-122.4199,38.3383],[-122.4175,38.3398],[-122.4176,38.3376],[-122.412,38.3343],[-122.4139,38.3308],[-122.4096,38.3257],[-122.4087,38.32],[-122.4054,38.322],[-122.4016,38.3138],[-122.3963,38.3091],[-122.3947,38.3046],[-122.4003,38.3032],[-122.4038,38.2998],[-122.4017,38.2953],[-122.4017,38.2907],[-122.4002,38.2897],[-122.4017,38.2883],[-122.4023,38.2843],[-122.4047,38.2817],[-122.4004,38.2745],[-122.3964,38.2712],[-122.3934,38.2737],[-122.3876,38.2738],[-122.3898,38.2608],[-122.3843,38.2545],[-122.3809,38.2529],[-122.3768,38.2485],[-122.373,38.2472],[-122.3739,38.2439],[-122.3707,38.2443],[-122.3692,38.2474],[-122.3653,38.246],[-122.3634,38.239],[-122.3656,38.2357],[-122.3637,38.2312],[-122.3636,38.2276],[-122.3654,38.2262],[-122.3645,38.2236],[-122.3654,38.2229],[-122.3636,38.2195],[-122.3642,38.2153],[-122.3627,38.2148],[-122.3631,38.2132],[-122.361,38.2114],[-122.3615,38.21],[-122.3574,38.2087],[-122.3504,38.2012],[-122.3509,38.1969],[-122.3496,38.194],[-122.3506,38.1927],[-122.356,38.1972],[-122.3591,38.1976],[-122.3608,38.1962],[-122.3571,38.1906],[-122.3579,38.1826],[-122.3596,38.1818],[-122.3668,38.1838],[-122.369,38.1819],[-122.3695,38.1745],[-122.3656,38.166],[-122.3676,38.1588],[-122.3726,38.1577],[-122.3848,38.161],[-122.3968,38.1615],[-122.4061,38.1594],[-122.4075,38.1578],[-122.4068,38.1556],[-122.1954,38.155],[-122.1988,38.1593],[-122.194,38.1651],[-122.1953,38.1673],[-122.1981,38.1686],[-122.2034,38.1688],[-122.2033,38.1726],[-122.209,38.1729],[-122.2151,38.1797],[-122.2135,38.1811],[-122.213,38.1843],[-122.2152,38.1888],[-122.2093,38.1901],[-122.2116,38.192],[-122.2057,38.1963],[-122.2045,38.2054],[-122.1995,38.2107],[-122.1939,38.2137],[-122.1963,38.2181],[-122.1959,38.2196],[-122.1932,38.2213],[-122.193,38.2231],[-122.2015,38.2401],[-122.2041,38.2411],[-122.2051,38.2441],[-122.209,38.2446],[-122.2122,38.2488],[-122.2119,38.2508],[-122.2113,38.2528],[-122.2015,38.2489],[-122.1996,38.2512],[-122.1946,38.2518],[-122.1948,38.2552],[-122.1933,38.2564],[-122.1973,38.2589],[-122.2033,38.2598],[-122.2043,38.2588],[-122.2131,38.2592],[-122.2166,38.2625],[-122.2166,38.2647],[-122.2121,38.2731],[-122.2098,38.2717],[-122.1974,38.273],[-122.1943,38.2709],[-122.1882,38.2717],[-122.1911,38.2759],[-122.1901,38.2775],[-122.1981,38.2849],[-122.2013,38.2899],[-122.2013,38.2928],[-122.2034,38.2934],[-122.1988,38.3012],[-122.2026,38.3042],[-122.2008,38.3096],[-122.2045,38.3116],[-122.2061,38.3158],[-122.0648,38.3159],[-122.068,38.3186],[-122.0652,38.3235],[-122.0622,38.3252],[-122.0614,38.327],[-122.0624,38.332],[-122.0657,38.3343],[-122.0698,38.3428],[-122.0709,38.3484],[-122.0696,38.3509],[-122.0733,38.3569],[-122.0736,38.3615],[-122.0777,38.3638],[-122.0891,38.3846],[-122.1095,38.4045],[-122.1097,38.4074],[-122.1151,38.4123],[-122.1147,38.414],[-122.1177,38.414],[-122.1199,38.4184],[-122.1252,38.4242],[-122.1261,38.4275],[-122.1266,38.4355],[-122.1232,38.4496],[-122.1131,38.4751],[-122.109,38.482],[-122.1083,38.4863],[-122.1047,38.4909],[-122.1072,38.4945],[-122.1056,38.5012],[-122.1063,38.5083],[-122.1038,38.5102],[-122.1036,38.5122],[-122.1086,38.5116],[-122.1121,38.5092],[-122.1132,38.5075],[-122.1113,38.5056],[-122.1149,38.5051],[-122.1188,38.502],[-122.1257,38.4928],[-122.1269,38.489],[-122.1337,38.4826],[-122.1365,38.4772],[-122.1402,38.4771],[-122.1434,38.4752],[-122.1418,38.4697],[-122.1461,38.4698],[-122.1477,38.4658],[-122.1525,38.4668],[-122.1521,38.441],[-122.1539,38.4374],[-122.1531,38.4333],[-122.1563,38.4301],[-122.1635,38.4355],[-122.1711,38.4361],[-122.1744,38.4377],[-122.1788,38.4372],[-122.1938,38.4431],[-122.1973,38.447],[-122.2027,38.4498],[-122.2045,38.4527],[-122.2091,38.4544],[-122.2234,38.4638],[-122.2272,38.4712],[-122.2349,38.4757],[-122.238,38.4809],[-122.2447,38.486],[-122.2471,38.4917],[-122.247,38.4945],[-122.2542,38.4973],[-122.2575,38.5011],[-122.272,38.5088],[-122.2764,38.5075],[-122.278,38.5054],[-122.2838,38.5051],[-122.2881,38.5028],[-122.2953,38.5046],[-122.2967,38.5027],[-122.2926,38.4968],[-122.2938,38.493],[-122.2989,38.4868],[-122.3094,38.4879],[-122.3152,38.4869],[-122.3224,38.49],[-122.3289,38.4899],[-122.3364,38.4924],[-122.342,38.4926],[-122.3532,38.4873],[-122.3558,38.4829],[-122.3664,38.4806],[-122.3702,38.4811],[-122.3719,38.4789],[-122.3724,38.4802],[-122.3767,38.4806],[-122.3918,38.4875],[-122.4042,38.4873],[-122.3985,38.4822],[-122.3897,38.4774],[-122.3744,38.4639],[-122.365,38.4579],[-122.3604,38.4501],[-122.3535,38.4451],[-122.3514,38.4396],[-122.3458,38.4315],[-122.3412,38.4276],[-122.3518,38.4183],[-122.3604,38.422],[-122.37,38.4212],[-122.3793,38.4267],[-122.3903,38.4225],[-122.4005,38.4342],[-122.4148,38.4218],[-122.4273,38.4216],[-122.4254,38.4165],[-122.427,38.4116],[-122.4288,38.4112],[-122.4292,38.4083],[-122.441,38.4064],[-122.4512,38.4111],[-122.4551,38.4097],[-122.4563,38.4081],[-122.4591,38.4092],[-122.4633,38.4082],[-122.47,38.4088],[-122.4721,38.4074],[-122.4712,38.4066],[-122.4724,38.4056]]]},"properties":{"GEOID":"0605592070","BASENAME":"Napa","NAME":"Napa CCD","COUNTY":"055","COUSUB":"92070"}},{"type":"Feature","geometry":{"type":"Polygon","coordinates":[[[-122.5695,38.5295],[-122.5664,38.5284],[-122.5666,38.5256],[-122.5638,38.5254],[-122.5624,38.5271],[-122.5577,38.5257],[-122.5542,38.5262],[-122.5512,38.5242],[-122.5505,38.522],[-122.5471,38.5226],[-122.5468,38.5212],[-122.5439,38.52],[-122.5432,38.518],[-122.5453,38.5167],[-122.5417,38.5133],[-122.55,38.5112],[-122.5472,38.5103],[-122.5455,38.5068],[-122.5427,38.5072],[-122.5407,38.5031],[-122.5353,38.5017],[-122.5378,38.4982],[-122.5426,38.4991],[-122.5449,38.4963],[-122.541,38.4921],[-122.5404,38.4887],[-122.538,38.4867],[-122.5364,38.4827],[-122.5313,38.4785],[-122.5296,38.4696],[-122.5201,38.4714],[-122.5159,38.4709],[-122.5058,38.4647],[-122.5079,38.4645],[-122.5097,38.4622],[-122.5085,38.4603],[-122.5096,38.4574],[-122.5039,38.4573],[-122.4979,38.4554],[-122.4936,38.4568],[-122.4922,38.4546],[-122.4881,38.4544],[-122.4798,38.4513],[-122.48,38.4492],[-122.4823,38.4477],[-122.4832,38.444],[-122.4858,38.4414],[-122.4859,38.4382],[-122.4917,38.4346],[-122.4939,38.4307],[-122.4934,38.4293],[-122.4979,38.4246],[-122.4755,38.4093],[-122.4761,38.4079],[-122.4742,38.4056],[-122.4723,38.4054],[-122.4712,38.4066],[-122.4721,38.4074],[-122.47,38.4088],[-122.4633,38.4082],[-122.4591,38.4092],[-122.4563,38.4081],[-122.4551,38.4097],[-122.4512,38.4111],[-122.441,38.4064],[-122.4292,38.4083],[-122.4288,38.4112],[-122.427,38.4116],[-122.4254,38.4165],[-122.4273,38.4216],[-122.4148,38.4218],[-122.4005,38.4342],[-122.3903,38.4225],[-122.3793,38.4267],[-122.37,38.4212],[-122.3604,38.422],[-122.3518,38.4183],[-122.3412,38.4276],[-122.3458,38.4315],[-122.3514,38.4396],[-122.3535,38.4451],[-122.3604,38.4501],[-122.3646,38.4575],[-122.3813,38.4693],[-122.3897,38.4774],[-122.3985,38.4822],[-122.4024,38.4862],[-122.4188,38.4931],[-122.4244,38.4971],[-122.4258,38.4951],[-122.4281,38.4974],[-122.4322,38.4982],[-122.4342,38.5018],[-122.4383,38.5028],[-122.4521,38.5104],[-122.4421,38.5089],[-122.4452,38.5101],[-122.4443,38.5123],[-122.4397,38.5129],[-122.4394,38.5199],[-122.4489,38.52],[-122.4495,38.5131],[-122.4538,38.5134],[-122.4567,38.5112],[-122.4582,38.5114],[-122.4588,38.5145],[-122.4617,38.5144],[-122.4669,38.5187],[-122.4713,38.5189],[-122.4761,38.5221],[-122.4813,38.523],[-122.4841,38.5211],[-122.4813,38.5248],[-122.485,38.5282],[-122.4884,38.5284],[-122.4908,38.5303],[-122.4894,38.5389],[-122.4907,38.5472],[-122.5068,38.5578],[-122.5119,38.5573],[-122.5289,38.5476],[-122.5622,38.5381],[-122.5657,38.5363],[-122.5657,38.5319],[-122.5695,38.5295]]]},"properties":{"GEOID":"0605592710","BASENAME":"St. Helena","NAME":"St. Helena CCD","COUNTY":"055","COUSUB":"92710"}},{"type":"Feature","geometry":{"type":"Polygon","coordinates":[[[-122.4655,38.6544],[-122.4629,38.651],[-122.4582,38.65],[-122.4568,38.6428],[-122.4538,38.6404],[-122.4533,38.6369],[-122.4445,38.6246],[-122.4408,38.6235],[-122.4306,38.6152],[-122.4215,38.6178],[-122.4174,38.6174],[-122.4094,38.6061],[-122.4043,38.6028],[-122.4029,38.6],[-122.4038,38.5975],[-122.3997,38.5962],[-122.3975,38.5916],[-122.4006,38.5882],[-122.3967,38.5725],[-122.3817,38.5632],[-122.3736,38.5598],[-122.3714,38.5572],[-122.3622,38.5544],[-122.3482,38.5432],[-122.338,38.5398],[-122.337,38.5354],[-122.3199,38.5273],[-122.3121,38.5163],[-122.3082,38.5133],[-122.3045,38.5128],[-122.3013,38.5077],[-122.2961,38.5038],[-122.2938,38.5049],[-122.2881,38.5028],[-122.2838,38.5051],[-122.278,38.5054],[-122.276,38.5078],[-122.2715,38.5088],[-122.2575,38.5011],[-122.2542,38.4973],[-122.2475,38.4948],[-122.2447,38.486],[-122.238,38.4809],[-122.2349,38.4757],[-122.2272,38.4712],[-122.2231,38.4635],[-122.2091,38.4544],[-122.2048,38.4529],[-122.2027,38.4498],[-122.1973,38.447],[-122.1938,38.4431],[-122.1866,38.4395],[-122.1788,38.4372],[-122.1744,38.4377],[-122.1711,38.4361],[-122.1635,38.4355],[-122.1573,38.4302],[-122.1558,38.4303],[-122.1531,38.4333],[-122.1539,38.4374],[-122.1521,38.441],[-122.1525,38.4668],[-122.1477,38.4658],[-122.1461,38.4698],[-122.1418,38.4697],[-122.1434,38.4752],[-122.1402,38.4771],[-122.1365,38.4772],[-122.1337,38.4826],[-122.1269,38.489],[-122.1257,38.4928],[-122.1188,38.502],[-122.1149,38.5051],[-122.1113,38.5056],[-122.1132,38.5075],[-122.1121,38.5092],[-122.1086,38.5116],[-122.1036,38.5122],[-122.1046,38.5169],[-122.1096,38.5214],[-122.11,38.5241],[-122.1116,38.5241],[-122.113,38.5272],[-122.1132,38.5293],[-122.1116,38.5309],[-122.115,38.5339],[-122.1142,38.5394],[-122.1233,38.565],[-122.1213,38.5669],[-122.1216,38.5689],[-122.1268,38.5814],[-122.126,38.5838],[-122.127,38.5874],[-122.1316,38.5947],[-122.1344,38.6046],[-122.138,38.6103],[-122.14,38.6101],[-122.1417,38.6117],[-122.1437,38.6164],[-122.1494,38.6223],[-122.1484,38.6246],[-122.1494,38.6255],[-122.1558,38.6227],[-122.1595,38.6193],[-122.164,38.6179],[-122.1665,38.6197],[-122.1662,38.625],[-122.1687,38.6299],[-122.1608,38.6328],[-122.1592,38.6351],[-122.1642,38.6406],[-122.1634,38.6427],[-122.1603,38.644],[-122.1613,38.6476],[-122.1661,38.6552],[-122.1743,38.6589],[-122.1809,38.6572],[-122.1901,38.6635],[-122.1923,38.6669],[-122.1966,38.6698],[-122.2021,38.6777],[-122.1992,38.6805],[-122.198,38.6836],[-122.2006,38.687],[-122.2014,38.6907],[-122.2065,38.6958],[-122.2111,38.696],[-122.2105,38.6947],[-122.2127,38.6933],[-122.2184,38.6952],[-122.2222,38.6986],[-122.2229,38.7003],[-122.2215,38.7047],[-122.2236,38.7079],[-122.2246,38.716],[-122.2268,38.7196],[-122.2237,38.7223],[-122.2256,38.7257],[-122.2251,38.7274],[-122.2285,38.7296],[-122.229,38.7325],[-122.2331,38.7368],[-122.2321,38.7381],[-122.2341,38.7389],[-122.234,38.7404],[-122.2403,38.7433],[-122.2427,38.7497],[-122.2459,38.7511],[-122.2487,38.7551],[-122.2503,38.7667],[-122.2545,38.7816],[-122.2587,38.7864],[-122.2585,38.7895],[-122.2606,38.7909],[-122.2613,38.794],[-122.2644,38.7963],[-122.2658,38.8007],[-122.2697,38.8033],[-122.2734,38.8097],[-122.276,38.8194],[-122.2817,38.8259],[-122.2848,38.8354],[-122.2876,38.84],[-122.2953,38.8388],[-122.3017,38.8395],[-122.3029,38.8426],[-122.3154,38.8396],[-122.3187,38.8433],[-122.324,38.8463],[-122.3303,38.8423],[-122.3346,38.8438],[-122.3385,38.842],[-122.3422,38.8422],[-122.3477,38.8364],[-122.3507,38.8359],[-122.3727,38.8452],[-122.3762,38.849],[-122.3816,38.8502],[-122.3917,38.8582],[-122.3956,38.8643],[-122.4038,38.8558],[-122.4017,38.8562],[-122.3968,38.8509],[-122.3955,38.8479],[-122.394,38.8473],[-122.3944,38.8459],[-122.3909,38.8427],[-122.3896,38.8384],[-122.3851,38.8347],[-122.3817,38.8341],[-122.3794,38.8298],[-122.3754,38.8265],[-122.3768,38.8222],[-122.3736,38.817],[-122.3753,38.8139],[-122.3742,38.8118],[-122.3756,38.8081],[-122.3789,38.8055],[-122.3797,38.8022],[-122.3881,38.8033],[-122.3898,38.8025],[-122.3975,38.8049],[-122.4044,38.7986],[-122.4074,38.7939],[-122.4086,38.7882],[-122.4127,38.786],[-122.4079,38.7845],[-122.4086,38.7822],[-122.4073,38.7802],[-122.4088,38.7794],[-122.4093,38.7763],[-122.4031,38.773],[-122.4163,38.768],[-122.4645,38.7061],[-122.461,38.7026],[-122.4499,38.699],[-122.4451,38.6959],[-122.4446,38.6939],[-122.446,38.6918],[-122.4468,38.6853],[-122.4445,38.6795],[-122.4461,38.6761],[-122.4445,38.6729],[-122.4464,38.6702],[-122.4458,38.6675],[-122.4501,38.6601],[-122.4536,38.6586],[-122.4582,38.6584],[-122.4655,38.6544]]]},"properties":{"GEOID":"0605591515","BASENAME":"Lake Berryessa","NAME":"Lake Berryessa CCD","COUNTY":"055","COUSUB":"91515"}},{"type":"Feature","geometry":{"type":"Polygon","coordinates":[[[-122.6466,38.5981],[-122.6452,38.5977],[-122.6399,38.59],[-122.635,38.5864],[-122.6346,38.5814],[-122.6302,38.5785],[-122.6319,38.5765],[-122.6309,38.5751],[-122.6326,38.5718],[-122.6318,38.5694],[-122.6267,38.5702],[-122.6227,38.5677],[-122.6204,38.5657],[-122.6208,38.5603],[-122.6143,38.5587],[-122.6111,38.5584],[-122.6081,38.5599],[-122.6032,38.5588],[-122.601,38.5559],[-122.5951,38.5551],[-122.5932,38.5535],[-122.5902,38.5538],[-122.5861,38.5515],[-122.5859,38.5494],[-122.5821,38.5494],[-122.5772,38.5423],[-122.574,38.5404],[-122.5725,38.536],[-122.5696,38.5331],[-122.5703,38.5301],[-122.5695,38.5295],[-122.5657,38.5319],[-122.5657,38.5363],[-122.5622,38.5381],[-122.5417,38.5433],[-122.5395,38.5452],[-122.5297,38.5473],[-122.5219,38.5509],[-122.5091,38.5581],[-122.5109,38.5594],[-122.5107,38.5611],[-122.5197,38.5668],[-122.5209,38.5695],[-122.5204,38.5745],[-122.5196,38.5769],[-122.5098,38.5803],[-122.5044,38.5851],[-122.5019,38.6038],[-122.5033,38.6097],[-122.5228,38.6178],[-122.5338,38.615],[-122.5349,38.6184],[-122.5312,38.6281],[-122.5236,38.631],[-122.5149,38.6311],[-122.5068,38.6339],[-122.4985,38.6335],[-122.4899,38.6385],[-122.4864,38.6458],[-122.4769,38.6531],[-122.4655,38.6544],[-122.4582,38.6584],[-122.4503,38.66],[-122.4458,38.6675],[-122.4464,38.6702],[-122.4445,38.6723],[-122.4461,38.6761],[-122.4445,38.6795],[-122.4468,38.6853],[-122.4449,38.6956],[-122.4499,38.699],[-122.461,38.7026],[-122.4645,38.7061],[-122.6335,38.6693],[-122.6285,38.669],[-122.6233,38.6644],[-122.6244,38.658],[-122.6231,38.6535],[-122.6239,38.6506],[-122.6269,38.6476],[-122.6273,38.6446],[-122.6329,38.6405],[-122.6341,38.6376],[-122.6319,38.632],[-122.6325,38.628],[-122.6293,38.6272],[-122.6283,38.623],[-122.6338,38.6199],[-122.6335,38.6162],[-122.6397,38.6117],[-122.6391,38.6092],[-122.6417,38.6049],[-122.6446,38.6029],[-122.6442,38.6016],[-122.6466,38.5981]]]},"properties":{"GEOID":"0605590340","BASENAME":"Calistoga","NAME":"Calistoga CCD","COUNTY":"055","COUSUB":"90340"}}]}