{"type":"FeatureCollection","features":[{"type":"Feature","geometry":{"type":"Polygon","coordinates":[[[-117.6813,33.7725],[-117.6775,33.7628],[-117.677,33.7565],[-117.6721,33.75],[-117.6731,33.7483],[-117.6694,33.747],[-117.6667,33.7412],[-117.6551,33.7355],[-117.6516,33.7323],[-117.6411,33.7014],[-117.6383,33.699],[-117.6343,33.6979],[-117.6263,33.6906],[-117.622,33.6885],[-117.6206,33.6833],[-117.6136,33.6869],[-117.6073,33.686],[-117.6035,33.6833],[-117.6033,33.6779],[-117.6016,33.6737],[-117.6003,33.6534],[-117.5983,33.6534],[-117.5905,33.6596],[-117.5856,33.6592],[-117.5751,33.6613],[-117.565,33.6684],[-117.5649,33.6646],[-117.5603,33.664],[-117.5583,33.6576],[-117.5549,33.6545],[-117.5566,33.6498],[-117.562,33.6445],[-117.5591,33.6375],[-117.5569,33.6402],[-117.5549,33.6399],[-117.5557,33.6332],[-117.5544,33.6295],[-117.5596,33.6219],[-117.5617,33.6199],[-117.5628,33.6206],[-117.5618,33.6178],[-117.5639,33.6064],[-117.5664,33.6021],[-117.5683,33.5908],[-117.5672,33.5858],[-117.5695,33.5832],[-117.5671,33.5791],[-117.5652,33.5713],[-117.5673,33.5683],[-117.5645,33.564],[-117.5659,33.5536],[-117.5649,33.5502],[-117.564,33.5477],[-117.5609,33.546],[-117.5616,33.5436],[-117.5587,33.5421],[-117.5581,33.5389],[-117.5547,33.5378],[-117.5542,33.5341],[-117.5517,33.5376],[-117.5511,33.5343],[-117.5498,33.5338],[-117.5486,33.5408],[-117.5495,33.5441],[-117.549,33.5566],[-117.5406,33.5746],[-117.5366,33.5778],[-117.5242,33.583],[-117.5214,33.5866],[-117.515,33.5894],[-117.5118,33.5923],[-117.503,33.5902],[-117.4989,33.5905],[-117.4952,33.5927],[-117.4856,33.5939],[-117.4836,33.5953],[-117.4739,33.5918],[-117.4699,33.5915],[-117.4682,33.5934],[-117.4655,33.5936],[-117.4643,33.5968],[-117.4626,33.5969],[-117.4579,33.6022],[-117.413,33.659],[-117.458,33.6903],[-117.4746,33.7038],[-117.534,33.7104],[-117.5364,33.7577],[-117.5801,33.768],[-117.6366,33.83],[-117.639,33.8265],[-117.6384,33.8241],[-117.6405,33.8188],[-117.6437,33.8213],[-117.6515,33.8209],[-117.6506,33.8113],[-117.6533,33.8051],[-117.6552,33.8026],[-117.6577,33.8024],[-117.6583,33.7989],[-117.6571,33.7978],[-117.6629,33.7966],[-117.6618,33.7927],[-117.664,33.7919],[-117.6629,33.7915],[-117.663,33.7892],[-117.6636,33.7908],[-117.6652,33.7909],[-117.6638,33.7906],[-117.6645,33.7878],[-117.6619,33.7868],[-117.6606,33.7881],[-117.6612,33.7869],[-117.6659,33.7866],[-117.668,33.7813],[-117.6773,33.7752],[-117.6794,33.7727],[-117.6813,33.7725]]]},"properties":{"GEOID":"0605993015","BASENAME":"Silverado","NAME":"Silverado CCD","COUNTY":"059","COUSUB":"93015"}},{"type":"Feature","geometry":{"type":"Polygon","coordinates":[[[-118.0971,33.7744],[-118.0752,33.7743],[-118.0722,33.778],[-118.072,33.785],[-118.0676,33.7849],[-118.0676,33.7813],[-118.0416,33.7811],[-118.0428,33.7741],[-117.9927,33.7737],[-117.9898,33.7665],[-117.9811,33.7666],[-117.9811,33.7593],[-117.9637,33.7595],[-117.9636,33.7522],[-117.9462,33.7523],[-117.946,33.7306],[-117.9155,33.731],[-117.9155,33.7275],[-117.9179,33.7214],[-117.9307,33.7019],[-117.9195,33.7021],[-117.9194,33.6956],[-117.8922,33.6964],[-117.8922,33.6941],[-117.8682,33.6941],[-117.8676,33.6918],[-117.8721,33.6873],[-117.8649,33.686],[-117.836,33.6738],[-117.8348,33.68],[-117.8238,33.6911],[-117.8144,33.6972],[-117.8154,33.6962],[-117.8126,33.6935],[-117.8084,33.695],[-117.7998,33.7038],[-117.8038,33.7065],[-117.8037,33.7122],[-117.8026,33.7167],[-117.7979,33.7218],[-117.8086,33.729],[-117.7976,33.74],[-117.7917,33.7359],[-117.7869,33.7304],[-117.78,33.7349],[-117.7676,33.7476],[-117.7712,33.7483],[-117.7712,33.7501],[-117.7687,33.7505],[-117.7679,33.7524],[-117.7679,33.7541],[-117.7701,33.7548],[-117.7713,33.7578],[-117.7702,33.7585],[-117.7706,33.7633],[-117.7694,33.7663],[-117.764,33.7711],[-117.7585,33.7822],[-117.7614,33.7924],[-117.7533,33.7879],[-117.7459,33.7766],[-117.7364,33.7695],[-117.7264,33.7675],[-117.7188,33.7685],[-117.7126,33.7635],[-117.7017,33.7595],[-117.6929,33.7528],[-117.6838,33.7529],[-117.6781,33.7482],[-117.6731,33.7483],[-117.6721,33.75],[-117.677,33.7565],[-117.6775,33.7628],[-117.6813,33.7725],[-117.6794,33.7727],[-117.6773,33.7752],[-117.668,33.7813],[-117.6659,33.7866],[-117.6612,33.7869],[-117.6606,33.7881],[-117.6619,33.7868],[-117.6645,33.7878],[-117.6638,33.7906],[-117.6652,33.7909],[-117.6636,33.7908],[-117.663,33.7892],[-117.6629,33.7915],[-117.664,33.7919],[-117.6618,33.7927],[-117.6629,33.7966],[-117.6571,33.7978],[-117.6583,33.7989],[-117.6577,33.8024],[-117.6552,33.8026],[-117.6533,33.8051],[-117.6506,33.8113],[-117.6515,33.8209],[-117.6437,33.8213],[-117.6405,33.8188],[-117.6384,33.8241],[-117.639,33.8265],[-117.6366,33.83],[-117.6621,33.8575],[-117.6743,33.858],[-117.6751,33.8687],[-117.6716,33.8694],[-117.6793,33.8776],[-117.7381,33.9137],[-117.7831,33.9463],[-117.9114,33.9461],[-117.9196,33.9476],[-117.9196,33.9461],[-117.9765,33.9461],[-117.9766,33.9028],[-117.9854,33.9028],[-117.9853,33.8955],[-117.9941,33.8955],[-117.9941,33.8882],[-118.0029,33.8882],[-118.0028,33.8809],[-118.0115,33.8808],[-118.0114,33.8734],[-118.0288,33.8733],[-118.0287,33.866],[-118.0376,33.866],[-118.0375,33.8624],[-118.0419,33.8623],[-118.0419,33.8587],[-118.0462,33.8587],[-118.0461,33.8536],[-118.0504,33.8535],[-118.0504,33.8499],[-118.0547,33.8498],[-118.0547,33.8462],[-118.059,33.8462],[-118.059,33.8352],[-118.0633,33.8315],[-118.0632,33.8197],[-118.0728,33.8149],[-118.0847,33.8029],[-118.0862,33.7969],[-118.0966,33.7795],[-118.0971,33.7744]]]},"properties":{"GEOID":"0605990050","BASENAME":"Anaheim-Santa Ana-Garden Grove","NAME":"Anaheim-Santa Ana-Garden Grove CCD","COUNTY":"059","COUSUB":"90050"}},{"type":"Feature","geometry":{"type":"Polygon","coordinates":[[[-117.836,33.674],[-117.8118,33.6658],[-117.787,33.662],[-117.77,33.6533],[-117.7348,33.6446],[-117.7261,33.6333],[-117.7077,33.6146],[-117.6791,33.6377],[-117.6721,33.6392],[-117.6654,33.6446],[-117.6609,33.6491],[-117.6562,33.6585],[-117.6492,33.6608],[-117.6408,33.661],[-117.6291,33.666],[-117.6239,33.6734],[-117.6206,33.6833],[-117.6219,33.6884],[-117.6263,33.6906],[-117.6343,33.6979],[-117.6392,33.6995],[-117.6417,33.7022],[-117.6422,33.7063],[-117.6448,33.7106],[-117.6517,33.7325],[-117.6551,33.7355],[-117.6667,33.7412],[-117.67,33.7476],[-117.6778,33.7481],[-117.6838,33.7529],[-117.6924,33.7526],[-117.7017,33.7595],[-117.7126,33.7635],[-117.7188,33.7685],[-117.7264,33.7675],[-117.7364,33.7695],[-117.7459,33.7766],[-117.7533,33.7879],[-117.7614,33.7924],[-117.7585,33.7822],[-117.764,33.7711],[-117.7694,33.7663],[-117.7706,33.7633],[-117.7702,33.7585],[-117.7713,33.7578],[-117.7701,33.7548],[-117.7679,33.7541],[-117.7679,33.7524],[-117.7687,33.7505],[-117.7712,33.7501],[-117.7712,33.7483],[-117.7676,33.7476],[-117.78,33.7349],[-117.7869,33.7304],[-117.7917,33.7359],[-117.7976,33.74],[-117.8086,33.729],[-117.7979,33.7218],[-117.8026,33.7167],[-117.8037,33.7122],[-117.8038,33.7065],[-117.7998,33.7038],[-117.8084,33.695],[-117.8126,33.6935],[-117.8154,33.6962],[-117.8144,33.6972],[-117.8238,33.6911],[-117.8348,33.68],[-117.836,33.674]]]},"properties":{"GEOID":"0605991413","BASENAME":"Irvine-Lake Forest","NAME":"Irvine-Lake Forest CCD","COUNTY":"059","COUSUB":"91413"}},{"type":"Feature","geometry":{"type":"Polygon","coordinates":[[[-118.1415,33.7036],[-118.1478,33.6941],[-118.1259,33.6972],[-118.0965,33.6537],[-118.0751,33.6396],[-118.0498,33.62],[-118.0336,33.6094],[-118.0009,33.5932],[-117.9891,33.5858],[-117.957,33.6304],[-117.9423,33.681],[-117.9348,33.6954],[-117.9179,33.7214],[-117.9152,33.7294],[-117.9155,33.731],[-117.946,33.7306],[-117.9462,33.7523],[-117.9636,33.7522],[-117.9637,33.7595],[-117.9811,33.7593],[-117.9811,33.7666],[-117.9898,33.7665],[-117.9927,33.7737],[-118.0428,33.7741],[-118.0416,33.7811],[-118.0676,33.7813],[-118.0676,33.7849],[-118.072,33.785],[-118.0722,33.778],[-118.0752,33.7743],[-118.0971,33.7742],[-118.0923,33.7645],[-118.092,33.7585],[-118.1141,33.7461],[-118.1415,33.7036]]]},"properties":{"GEOID":"0605992150","BASENAME":"North Coast","NAME":"North Coast CCD","COUNTY":"059","COUSUB":"92150"}},{"type":"Feature","geometry":{"type":"Polygon","coordinates":[[[-117.7076,33.6147],[-117.7017,33.6099],[-117.6764,33.5982],[-117.6723,33.5938],[-117.6716,33.5752],[-117.6727,33.5481],[-117.6747,33.533],[-117.6733,33.5303],[-117.6678,33.5255],[-117.6602,33.5104],[-117.659,33.5096],[-117.6573,33.5112],[-117.6227,33.4993],[-117.6181,33.4999],[-117.6094,33.4833],[-117.6083,33.4771],[-117.6097,33.4708],[-117.6037,33.4626],[-117.6006,33.4562],[-117.5977,33.4576],[-117.5957,33.4563],[-117.5598,33.4514],[-117.5382,33.4549],[-117.5095,33.4703],[-117.5097,33.5091],[-117.5038,33.5089],[-117.5032,33.5204],[-117.5099,33.5205],[-117.5102,33.534],[-117.4579,33.6022],[-117.4626,33.5969],[-117.4643,33.5968],[-117.4654,33.5937],[-117.4682,33.5934],[-117.4699,33.5915],[-117.4745,33.5919],[-117.4834,33.5953],[-117.4924,33.5923],[-117.4968,33.5923],[-117.4994,33.5903],[-117.5121,33.5922],[-117.515,33.5894],[-117.5214,33.5866],[-117.5242,33.583],[-117.5372,33.5774],[-117.541,33.5741],[-117.549,33.5569],[-117.5495,33.5441],[-117.5486,33.5408],[-117.5498,33.5338],[-117.5511,33.5343],[-117.5517,33.5376],[-117.5542,33.5341],[-117.5547,33.5378],[-117.5581,33.5389],[-117.5587,33.5421],[-117.5616,33.5436],[-117.5609,33.546],[-117.564,33.5477],[-117.5649,33.5502],[-117.5659,33.5536],[-117.5645,33.564],[-117.5673,33.5683],[-117.5652,33.5713],[-117.5671,33.5791],[-117.5695,33.5832],[-117.5672,33.5858],[-117.5683,33.5908],[-117.5664,33.6021],[-117.5639,33.6064],[-117.5618,33.6178],[-117.5628,33.6206],[-117.5617,33.6199],[-117.5596,33.6219],[-117.5544,33.6295],[-117.5557,33.6332],[-117.5549,33.6399],[-117.5569,33.6402],[-117.5591,33.6375],[-117.562,33.6445],[-117.5566,33.6498],[-117.5549,33.6545],[-117.5583,33.6576],[-117.5603,33.664],[-117.5649,33.6646],[-117.565,33.6684],[-117.5751,33.6613],[-117.5856,33.6592],[-117.5905,33.6596],[-117.5983,33.6534],[-117.6,33.6532],[-117.6035,33.6833],[-117.6073,33.686],[-117.6136,33.6869],[-117.6206,33.6833],[-117.6239,33.6734],[-117.6291,33.666],[-117.6408,33.661],[-117.6492,33.6608],[-117.6562,33.6585],[-117.6609,33.6491],[-117.6654,33.6446],[-117.6721,33.6392],[-117.6791,33.6377],[-117.7076,33.6147]]]},"properties":{"GEOID":"0605991977","BASENAME":"Mission Viejo","NAME":"Mission Viejo CCD","COUNTY":"059","COUSUB":"91977"}},{"type":"Feature","geometry":{"type":"Polygon","coordinates":[[[-117.8699,33.5178],[-117.836,33.5],[-117.8266,33.497],[-117.8164,33.4909],[-117.8113,33.482],[-117.7933,33.4698],[-117.7905,33.4612],[-117.7651,33.4315],[-117.7414,33.4101],[-117.7353,33.4074],[-117.7136,33.4088],[-117.6662,33.375],[-117.6538,33.3648],[-117.6479,33.3636],[-117.6362,33.3491],[-117.6111,33.334],[-117.5961,33.3859],[-117.5785,33.4539],[-117.5957,33.4563],[-117.5977,33.4576],[-117.6012,33.4567],[-117.6037,33.4626],[-117.6097,33.4708],[-117.6083,33.4771],[-117.6094,33.4833],[-117.6181,33.4999],[-117.6227,33.4993],[-117.6573,33.5112],[-117.659,33.5096],[-117.6602,33.5104],[-117.6678,33.5255],[-117.6733,33.5303],[-117.6747,33.533],[-117.6727,33.5481],[-117.6716,33.5752],[-117.6723,33.5938],[-117.6764,33.5982],[-117.7034,33.611],[-117.7261,33.6333],[-117.7348,33.6446],[-117.7689,33.6529],[-117.778,33.6576],[-117.7872,33.6466],[-117.7911,33.6439],[-117.7927,33.6369],[-117.7968,33.6325],[-117.8035,33.6325],[-117.8116,33.6295],[-117.827,33.6344],[-117.8353,33.6335],[-117.8421,33.6312],[-117.8352,33.6289],[-117.8289,33.6238],[-117.8221,33.6207],[-117.8155,33.6119],[-117.7992,33.6071],[-117.8005,33.6068],[-117.7959,33.6037],[-117.7931,33.5988],[-117.7839,33.5951],[-117.7908,33.5961],[-117.7974,33.6044],[-117.7998,33.6037],[-117.8012,33.6055],[-117.8024,33.6047],[-117.8043,33.5998],[-117.8036,33.597],[-117.8052,33.5901],[-117.8126,33.5868],[-117.8129,33.5822],[-117.8155,33.58],[-117.816,33.5761],[-117.8221,33.574],[-117.8219,33.5701],[-117.8291,33.564],[-117.833,33.5656],[-117.834,33.5677],[-117.8699,33.5178]]]},"properties":{"GEOID":"0605993110","BASENAME":"South Coast","NAME":"South Coast CCD","COUNTY":"059","COUSUB":"93110"}},{"type":"Feature","geometry":{"type":"Polygon","coordinates":[[[-117.989,33.5859],[-117.934,33.5493],[-117.8699,33.5178],[-117.834,33.5677],[-117.833,33.5656],[-117.8291,33.564],[-117.8219,33.5701],[-117.8221,33.574],[-117.816,33.5761],[-117.8155,33.58],[-117.8129,33.5822],[-117.8126,33.5868],[-117.8052,33.5901],[-117.8036,33.597],[-117.8043,33.5998],[-117.8024,33.6047],[-117.8012,33.6055],[-117.7998,33.6037],[-117.7974,33.6044],[-117.7908,33.5961],[-117.7839,33.5951],[-117.7931,33.5988],[-117.7959,33.6037],[-117.8005,33.6068],[-117.7992,33.6071],[-117.8155,33.6119],[-117.8221,33.6207],[-117.8289,33.6238],[-117.8352,33.6289],[-117.8421,33.6312],[-117.8353,33.6335],[-117.827,33.6344],[-117.8116,33.6295],[-117.8035,33.6325],[-117.7968,33.6325],[-117.7927,33.6369],[-117.7911,33.6439],[-117.7872,33.6466],[-117.778,33.6576],[-117.787,33.662],[-117.8131,33.6661],[-117.8399,33.6751],[-117.8649,33.686],[-117.8721,33.6873],[-117.8676,33.6918],[-117.8682,33.6941],[-117.8922,33.6941],[-117.8922,33.6964],[-117.9194,33.6956],[-117.9195,33.7021],[-117.9307,33.7019],[-117.943,33.6793],[-117.957,33.6304],[-117.989,33.5859]]]},"properties":{"GEOID":"0605990420","BASENAME":"Central Coast","NAME":"Central Coast CCD","COUNTY":"059","COUSUB":"90420"}}]}