{"type":"FeatureCollection","features":[{"type":"Feature","geometry":{"type":"Polygon","coordinates":[[[-121.43,39.9148],[-121.43,39.9003],[-121.411,39.9004],[-121.4119,39.8714],[-121.399,39.8713],[-121.3985,39.8629],[-121.3801,39.8628],[-121.3802,39.8554],[-121.3612,39.8555],[-121.3605,39.8407],[-121.3511,39.8403],[-121.3508,39.8257],[-121.3409,39.8258],[-121.3448,39.8295],[-121.3443,39.8325],[-121.3473,39.8363],[-121.3451,39.8408],[-121.3388,39.8427],[-121.3345,39.8456],[-121.3349,39.8572],[-121.3264,39.8595],[-121.3255,39.8622],[-121.3287,39.8657],[-121.3246,39.8704],[-121.3233,39.8752],[-121.3264,39.8777],[-121.3205,39.8889],[-121.3207,39.882],[-121.3182,39.8818],[-121.3163,39.8852],[-121.3122,39.8821],[-121.3104,39.8846],[-121.3111,39.8892],[-121.3089,39.8907],[-121.3072,39.8907],[-121.3021,39.895],[-121.2972,39.8938],[-121.2914,39.8952],[-121.2876,39.8983],[-121.2847,39.8968],[-121.2814,39.8969],[-121.2803,39.8955],[-121.2791,39.8958],[-121.2781,39.8986],[-121.2748,39.8977],[-121.2727,39.9005],[-121.271,39.9005],[-121.2693,39.8978],[-121.267,39.898],[-121.2635,39.8959],[-121.2602,39.8978],[-121.2574,39.897],[-121.2555,39.9015],[-121.2532,39.9015],[-121.2511,39.8993],[-121.2467,39.9007],[-121.2379,39.8975],[-121.2336,39.9004],[-121.2314,39.8999],[-121.2317,39.8976],[-121.2287,39.8994],[-121.2291,39.9028],[-121.2365,39.9066],[-121.2362,39.9096],[-121.238,39.9143],[-121.2436,39.9161],[-121.2414,39.9217],[-121.2413,39.9259],[-121.2447,39.9248],[-121.2459,39.9299],[-121.2404,39.9354],[-121.2356,39.9382],[-121.2352,39.9403],[-121.2275,39.9453],[-121.2223,39.951],[-121.2193,39.9518],[-121.2142,39.959],[-121.2053,39.9623],[-121.1897,39.9588],[-121.1813,39.961],[-121.1782,39.9605],[-121.1681,39.9636],[-121.166,39.9622],[-121.1628,39.9549],[-121.1588,39.954],[-121.1565,39.9518],[-121.1505,39.9553],[-121.1484,39.9585],[-121.1483,39.9623],[-121.1502,39.9635],[-121.1516,39.9689],[-121.1484,39.9703],[-121.1482,39.9722],[-121.1458,39.9742],[-121.1454,39.9788],[-121.1383,39.9821],[-121.1344,39.9907],[-121.1299,39.9922],[-121.1254,39.99],[-121.1242,39.9912],[-121.1241,39.995],[-121.1214,39.9965],[-121.1139,39.995],[-121.1102,39.993],[-121.1051,39.9947],[-121.0986,39.9936],[-121.0941,39.9919],[-121.0915,39.9888],[-121.0887,39.9892],[-121.0849,39.9863],[-121.0764,39.9862],[-121.0764,39.9812],[-121.0735,39.9826],[-121.0657,39.9809],[-121.0607,39.9849],[-121.0551,39.9808],[-121.0525,39.9838],[-121.0537,39.9876],[-121.052,39.9928],[-121.0499,39.9951],[-121.0468,39.9946],[-121.0478,39.9978],[-121.0466,39.9987],[-121.0422,39.9968],[-121.0427,40.0011],[-121.0292,40.0033],[-121.0236,40.0068],[-121.0224,40.0061],[-121.0221,40.0019],[-121.0188,40.002],[-121.0139,39.9989],[-121.015,40.0029],[-121.0134,40.0041],[-121.0147,40.0079],[-121.0089,40.005],[-121.0086,40.0061],[-121.003,40.0068],[-121.0001,40.009],[-120.9993,40.0051],[-120.9954,40.0043],[-120.9968,40.0064],[-120.9949,40.0075],[-120.9937,40.0124],[-120.9904,40.0164],[-120.9922,40.0226],[-120.9957,40.0251],[-120.9967,40.0278],[-120.9917,40.0256],[-120.9908,40.0272],[-120.9863,40.0281],[-120.9854,40.0294],[-120.9799,40.0285],[-120.9772,40.03],[-120.9811,40.0335],[-120.9837,40.0401],[-120.9828,40.0412],[-120.9918,40.0468],[-120.9884,40.0567],[-120.9848,40.0623],[-120.9888,40.0729],[-120.9907,40.0748],[-120.9902,40.0824],[-120.9856,40.0862],[-120.9975,40.0985],[-121.0012,40.096],[-121.0051,40.0966],[-121.0089,40.0992],[-121.013,40.1045],[-121.0214,40.1082],[-121.018,40.1143],[-121.0193,40.1169],[-121.0186,40.1239],[-121.0162,40.1284],[-121.0167,40.1308],[-121.0225,40.13],[-121.0252,40.132],[-121.0293,40.1311],[-121.0383,40.1318],[-121.0412,40.1332],[-121.0419,40.1304],[-121.0401,40.1292],[-121.0442,40.1305],[-121.045,40.1287],[-121.0434,40.1264],[-121.0449,40.1249],[-121.0437,40.123],[-121.047,40.1181],[-121.0498,40.1174],[-121.0507,40.1123],[-121.0479,40.1103],[-121.0492,40.1073],[-121.0514,40.1062],[-121.05,40.1021],[-121.0529,40.0985],[-121.0501,40.0981],[-121.0521,40.0932],[-121.0582,40.0892],[-121.0583,40.0862],[-121.0636,40.0882],[-121.0649,40.0855],[-121.0693,40.0865],[-121.0703,40.0878],[-121.0764,40.0862],[-121.0781,40.0805],[-121.0822,40.0812],[-121.0815,40.0824],[-121.0863,40.0818],[-121.0905,40.0795],[-121.0948,40.0855],[-121.1002,40.0873],[-121.1034,40.0934],[-121.1111,40.0963],[-121.1121,40.098],[-121.1113,40.1006],[-121.1174,40.0986],[-121.1175,40.0956],[-121.1187,40.0946],[-121.1243,40.0962],[-121.1256,40.0946],[-121.1315,40.0933],[-121.1332,40.0971],[-121.134,40.1083],[-121.1414,40.1101],[-121.1443,40.1139],[-121.1552,40.1124],[-121.1564,40.1109],[-121.1642,40.11],[-121.1667,40.1082],[-121.1703,40.1092],[-121.1696,40.1063],[-121.1724,40.1088],[-121.1683,40.1036],[-121.1712,40.1012],[-121.1756,40.1017],[-121.1771,40.0993],[-121.1842,40.1015],[-121.1829,40.0947],[-121.1914,40.1013],[-121.1913,40.105],[-121.1946,40.1108],[-121.203,40.1126],[-121.2093,40.1117],[-121.2137,40.1083],[-121.2171,40.1075],[-121.2178,40.106],[-121.2231,40.105],[-121.2213,40.1033],[-121.2224,40.1024],[-121.2213,40.1],[-121.2191,40.098],[-121.2185,40.0929],[-121.2209,40.0919],[-121.2208,40.0894],[-121.2237,40.0865],[-121.2269,40.0856],[-121.2392,40.0887],[-121.2407,40.0858],[-121.2386,40.079],[-121.24,40.0759],[-121.2358,40.0716],[-121.2411,40.0693],[-121.2448,40.0698],[-121.2477,40.0687],[-121.2512,40.0658],[-121.2505,40.0643],[-121.2515,40.0631],[-121.2542,40.0634],[-121.2541,40.0648],[-121.2579,40.0677],[-121.2712,40.0711],[-121.2756,40.0747],[-121.2774,40.0783],[-121.2846,40.083],[-121.2918,40.0823],[-121.2972,40.0833],[-121.3011,40.0859],[-121.3028,40.0851],[-121.3053,40.086],[-121.318,40.0854],[-121.3237,40.0819],[-121.3442,40.0917],[-121.3568,40.0812],[-121.3622,40.0805],[-121.367,40.0777],[-121.3671,40.0719],[-121.3768,40.0717],[-121.3771,40.0571],[-121.382,40.057],[-121.3823,40.0518],[-121.4004,40.0521],[-121.4003,40.0305],[-121.4096,40.0306],[-121.4096,40.0157],[-121.4195,40.0158],[-121.4198,39.9875],[-121.4103,39.9873],[-121.4103,39.9585],[-121.4198,39.9586],[-121.4206,39.9294],[-121.4111,39.9294],[-121.411,39.9151],[-121.43,39.9148]]]},"properties":{"GEOID":"0606390975","BASENAME":"Feather River Canyon","NAME":"Feather River Canyon CCD","COUNTY":"063","COUSUB":"90975"}},{"type":"Feature","geometry":{"type":"Polygon","coordinates":[[[-121.4979,40.4326],[-121.491,40.4297],[-121.4867,40.4296],[-121.4832,40.4275],[-121.4769,40.4269],[-121.4738,40.4246],[-121.4796,40.4195],[-121.4789,40.4179],[-121.4807,40.4138],[-121.48,40.4112],[-121.4843,40.3966],[-121.4827,40.3932],[-121.4841,40.3885],[-121.4828,40.3829],[-121.4735,40.3746],[-121.481,40.3666],[-121.4791,40.3604],[-121.4745,40.357],[-121.4724,40.3516],[-121.4684,40.3498],[-121.4594,40.3504],[-121.4387,40.3479],[-121.4286,40.3503],[-121.4121,40.3427],[-121.4034,40.3415],[-121.3975,40.3421],[-121.3941,40.3397],[-121.3896,40.339],[-121.3804,40.3403],[-121.3761,40.3362],[-121.3673,40.331],[-121.3689,40.3256],[-121.3675,40.3229],[-121.3661,40.322],[-121.364,40.3231],[-121.3609,40.3223],[-121.3563,40.3197],[-121.3535,40.3155],[-121.3475,40.3139],[-121.3448,40.3107],[-121.3423,40.3098],[-121.343,40.3066],[-121.3499,40.3059],[-121.3566,40.2975],[-121.3584,40.297],[-121.3667,40.3011],[-121.3768,40.298],[-121.3755,40.2949],[-121.3713,40.2932],[-121.3697,40.2897],[-121.3703,40.288],[-121.3632,40.2875],[-121.363,40.2816],[-121.3604,40.2802],[-121.3599,40.2775],[-121.3503,40.2759],[-121.3494,40.2734],[-121.3527,40.2685],[-121.349,40.2645],[-121.3552,40.2578],[-121.3569,40.2534],[-121.3673,40.2449],[-121.3672,40.2423],[-121.3648,40.2391],[-121.3674,40.236],[-121.3664,40.2324],[-121.3625,40.2283],[-121.3617,40.2256],[-121.3677,40.2127],[-121.3761,40.2105],[-121.385,40.2103],[-121.3936,40.2014],[-121.4008,40.1998],[-121.4016,40.1953],[-121.4074,40.1914],[-121.4127,40.1943],[-121.424,40.1954],[-121.4297,40.1947],[-121.4344,40.1959],[-121.4398,40.1948],[-121.4441,40.1907],[-121.4428,40.1885],[-121.4396,40.1878],[-121.4386,40.1839],[-121.4361,40.1819],[-121.4409,40.1787],[-121.4451,40.1777],[-121.445,40.1742],[-121.4428,40.17],[-121.4437,40.164],[-121.4429,40.1619],[-121.4455,40.159],[-121.4462,40.1559],[-121.4428,40.1541],[-121.4419,40.1521],[-121.4045,40.1516],[-121.4049,40.1155],[-121.3859,40.1159],[-121.3861,40.1086],[-121.3765,40.1086],[-121.3768,40.086],[-121.3668,40.0861],[-121.367,40.0777],[-121.3622,40.0805],[-121.3569,40.0812],[-121.3504,40.0859],[-121.3487,40.0889],[-121.3426,40.0915],[-121.3237,40.0819],[-121.318,40.0854],[-121.3053,40.086],[-121.3028,40.0851],[-121.3011,40.0859],[-121.2972,40.0833],[-121.2918,40.0823],[-121.2846,40.083],[-121.2774,40.0783],[-121.2756,40.0747],[-121.2712,40.0711],[-121.2579,40.0677],[-121.2541,40.0648],[-121.2542,40.0634],[-121.2515,40.0631],[-121.2505,40.0643],[-121.2512,40.0658],[-121.2477,40.0687],[-121.2448,40.0698],[-121.2411,40.0693],[-121.2358,40.0716],[-121.24,40.0759],[-121.2386,40.079],[-121.2407,40.0858],[-121.2392,40.0887],[-121.2269,40.0856],[-121.2237,40.0865],[-121.2208,40.0894],[-121.2209,40.0919],[-121.2185,40.0929],[-121.2191,40.098],[-121.2213,40.1],[-121.2224,40.1024],[-121.2213,40.1033],[-121.2231,40.105],[-121.2178,40.106],[-121.2171,40.1075],[-121.2137,40.1083],[-121.2093,40.1117],[-121.203,40.1126],[-121.1946,40.1108],[-121.1913,40.105],[-121.1914,40.1013],[-121.1829,40.0947],[-121.1842,40.1015],[-121.1771,40.0993],[-121.1756,40.1017],[-121.1712,40.1012],[-121.1683,40.1036],[-121.1724,40.1088],[-121.1696,40.1063],[-121.1703,40.1092],[-121.1667,40.1082],[-121.1642,40.11],[-121.1564,40.1109],[-121.1552,40.1124],[-121.1443,40.1139],[-121.1414,40.1101],[-121.134,40.1083],[-121.1332,40.0971],[-121.1315,40.0933],[-121.1256,40.0946],[-121.1243,40.0962],[-121.1187,40.0946],[-121.1175,40.0956],[-121.1174,40.0986],[-121.1113,40.1006],[-121.1121,40.098],[-121.1111,40.0963],[-121.1034,40.0934],[-121.1002,40.0873],[-121.0948,40.0855],[-121.0905,40.0795],[-121.0863,40.0818],[-121.0815,40.0824],[-121.0822,40.0812],[-121.0781,40.0805],[-121.0764,40.0862],[-121.0703,40.0878],[-121.0693,40.0865],[-121.0649,40.0855],[-121.0636,40.0882],[-121.0583,40.0862],[-121.0582,40.0892],[-121.0521,40.0932],[-121.0501,40.0981],[-121.0529,40.0985],[-121.05,40.1021],[-121.0514,40.1062],[-121.0492,40.1073],[-121.0479,40.1103],[-121.0507,40.1123],[-121.0498,40.1174],[-121.047,40.1181],[-121.0437,40.123],[-121.0449,40.1249],[-121.0434,40.1264],[-121.045,40.1287],[-121.0442,40.1305],[-121.0401,40.1292],[-121.0419,40.1304],[-121.0413,40.1332],[-121.0383,40.1318],[-121.0293,40.1311],[-121.0252,40.132],[-121.0225,40.13],[-121.0179,40.1309],[-121.02,40.1354],[-121.0151,40.1428],[-121.0156,40.1465],[-121.0186,40.1474],[-121.0143,40.1534],[-121.0157,40.1586],[-121.0198,40.1628],[-121.0249,40.1636],[-121.0295,40.1674],[-121.0277,40.1715],[-121.0302,40.1717],[-121.0304,40.1727],[-121.0361,40.1715],[-121.0433,40.1741],[-121.0473,40.1773],[-121.0476,40.1797],[-121.0502,40.1825],[-121.045,40.1979],[-121.0401,40.2002],[-121.0409,40.2046],[-121.0385,40.2137],[-121.0364,40.2156],[-121.0359,40.2183],[-121.0375,40.2219],[-121.0376,40.2279],[-121.0337,40.2339],[-121.0296,40.2348],[-121.0415,40.2348],[-121.0415,40.2565],[-121.0615,40.2564],[-121.0614,40.4465],[-121.3084,40.4451],[-121.3376,40.4455],[-121.3465,40.4497],[-121.3661,40.4459],[-121.4976,40.4456],[-121.4976,40.4438],[-121.4944,40.4404],[-121.497,40.437],[-121.4979,40.4326]]]},"properties":{"GEOID":"0606390460","BASENAME":"Chester","NAME":"Chester CCD","COUNTY":"063","COUSUB":"90460"}},{"type":"Feature","geometry":{"type":"Polygon","coordinates":[[[-120.6567,39.9431],[-120.6518,39.9407],[-120.6545,39.9363],[-120.6511,39.9369],[-120.6441,39.9324],[-120.6372,39.9307],[-120.6387,39.9295],[-120.639,39.9273],[-120.6496,39.9281],[-120.6541,39.9238],[-120.6477,39.9187],[-120.6432,39.9184],[-120.6412,39.9201],[-120.6411,39.9142],[-120.6395,39.9119],[-120.6077,39.8992],[-120.6032,39.8991],[-120.5965,39.9018],[-120.5938,39.901],[-120.5927,39.8995],[-120.5928,39.8924],[-120.5915,39.887],[-120.5839,39.8827],[-120.5722,39.8734],[-120.5731,39.8688],[-120.5764,39.8652],[-120.5668,39.8633],[-120.5655,39.8608],[-120.5562,39.8596],[-120.5446,39.8553],[-120.5422,39.857],[-120.5346,39.8676],[-120.5322,39.8679],[-120.5238,39.8645],[-120.5231,39.8623],[-120.5261,39.8593],[-120.5255,39.8531],[-120.5275,39.8489],[-120.5284,39.8513],[-120.5307,39.8476],[-120.5375,39.8459],[-120.5494,39.8357],[-120.559,39.8296],[-120.5621,39.8255],[-120.562,39.8167],[-120.5569,39.8125],[-120.5499,39.7943],[-120.549,39.7847],[-120.5597,39.777],[-120.5597,39.7745],[-120.561,39.7739],[-120.5606,39.7686],[-120.5626,39.768],[-120.5635,39.7653],[-120.5718,39.7592],[-120.5722,39.7574],[-120.568,39.7536],[-120.5612,39.7588],[-120.5601,39.7588],[-120.5598,39.7572],[-120.5569,39.7571],[-120.5568,39.7545],[-120.5551,39.7566],[-120.5463,39.7578],[-120.5455,39.7594],[-120.5468,39.7617],[-120.5437,39.7643],[-120.5432,39.7666],[-120.5404,39.7666],[-120.5366,39.7693],[-120.5343,39.7692],[-120.5332,39.7749],[-120.5306,39.7763],[-120.5297,39.779],[-120.5252,39.7784],[-120.515,39.7714],[-120.513,39.769],[-120.5121,39.7632],[-120.5037,39.7601],[-120.4944,39.7512],[-120.4956,39.7499],[-120.4957,39.7469],[-120.5005,39.7413],[-120.4982,39.7396],[-120.4995,39.7359],[-120.498,39.7347],[-120.4966,39.7297],[-120.4897,39.721],[-120.4911,39.7114],[-120.488,39.7066],[-120.4654,39.7065],[-120.4463,39.7086],[-120.1471,39.7077],[-120.1466,39.7364],[-120.1278,39.7362],[-120.1276,39.751],[-120.1191,39.7511],[-120.1196,39.7656],[-120.1106,39.7658],[-120.1111,39.7808],[-120.1078,39.7942],[-120.1081,39.8813],[-120.0993,39.8812],[-120.0996,39.9103],[-120.1089,39.9104],[-120.1088,39.9395],[-120.1266,39.9396],[-120.1267,39.9477],[-120.1358,39.9478],[-120.1357,39.955],[-120.145,39.9551],[-120.145,39.9623],[-120.1544,39.9624],[-120.1543,39.9685],[-120.1637,39.9687],[-120.1634,39.9838],[-120.1733,39.9839],[-120.173,39.9983],[-120.1825,39.9985],[-120.1825,40.0133],[-120.2013,40.0135],[-120.2014,40.0427],[-120.2109,40.0428],[-120.2113,40.0563],[-120.2093,40.0563],[-120.2096,40.086],[-120.2469,40.0858],[-120.2468,40.1079],[-120.2656,40.1077],[-120.2666,40.1159],[-120.2752,40.1148],[-120.3414,40.1152],[-120.3415,40.1226],[-120.3606,40.1225],[-120.3604,40.1295],[-120.3794,40.1295],[-120.3791,40.1406],[-120.3983,40.1406],[-120.3983,40.1474],[-120.408,40.1474],[-120.4076,40.1622],[-120.4173,40.1621],[-120.4169,40.1694],[-120.4364,40.1696],[-120.4365,40.1766],[-120.4459,40.1769],[-120.4453,40.1914],[-120.4542,40.1914],[-120.4543,40.2058],[-120.4828,40.2058],[-120.4825,40.2202],[-120.4901,40.2203],[-120.4942,40.2158],[-120.4916,40.2132],[-120.4932,40.2107],[-120.4952,40.2016],[-120.49,40.1954],[-120.4932,40.1917],[-120.4924,40.1903],[-120.4952,40.1896],[-120.4979,40.1853],[-120.4969,40.1809],[-120.4948,40.1817],[-120.4978,40.177],[-120.4984,40.171],[-120.5005,40.1705],[-120.4995,40.1693],[-120.5015,40.1677],[-120.5003,40.1648],[-120.5066,40.1591],[-120.5064,40.1567],[-120.5101,40.1518],[-120.5085,40.1472],[-120.5093,40.1455],[-120.5081,40.1452],[-120.5061,40.1397],[-120.5071,40.1369],[-120.5031,40.1342],[-120.5013,40.1269],[-120.5001,40.1259],[-120.5026,40.1256],[-120.5034,40.1175],[-120.507,40.1148],[-120.5083,40.1175],[-120.5111,40.1188],[-120.5105,40.1195],[-120.5216,40.1233],[-120.5241,40.123],[-120.5284,40.1182],[-120.531,40.1192],[-120.5345,40.1179],[-120.5338,40.1149],[-120.5366,40.1054],[-120.5403,40.0993],[-120.5404,40.0962],[-120.5387,40.0951],[-120.5408,40.0919],[-120.5408,40.0894],[-120.5372,40.0859],[-120.5406,40.0808],[-120.5402,40.0745],[-120.5462,40.0742],[-120.5499,40.0723],[-120.5509,40.0702],[-120.5496,40.0687],[-120.5547,40.0655],[-120.5579,40.0672],[-120.5636,40.066],[-120.5663,40.0669],[-120.5689,40.0657],[-120.5666,40.0648],[-120.5673,40.0625],[-120.5717,40.0663],[-120.5843,40.0641],[-120.5827,40.0653],[-120.5832,40.0664],[-120.5868,40.0671],[-120.595,40.0728],[-120.6005,40.0701],[-120.5943,40.0656],[-120.5912,40.0617],[-120.5936,40.0593],[-120.5896,40.0576],[-120.5895,40.0546],[-120.5879,40.0527],[-120.5891,40.0499],[-120.5931,40.0492],[-120.5915,40.0466],[-120.5923,40.039],[-120.5976,40.0388],[-120.6015,40.041],[-120.6072,40.0354],[-120.6071,40.0291],[-120.6106,40.0313],[-120.6176,40.0118],[-120.6261,40.0042],[-120.629,39.9999],[-120.6301,39.9968],[-120.6257,39.9916],[-120.6248,39.9871],[-120.6327,39.9777],[-120.6282,39.9725],[-120.6223,39.9702],[-120.6168,39.9709],[-120.6111,39.9701],[-120.6029,39.9732],[-120.5968,39.9674],[-120.5949,39.9618],[-120.597,39.9567],[-120.6009,39.9532],[-120.6029,39.948],[-120.6105,39.9477],[-120.6152,39.9448],[-120.627,39.9444],[-120.6308,39.9403],[-120.6375,39.9428],[-120.641,39.9466],[-120.6443,39.945],[-120.65,39.9452],[-120.6567,39.9431]]]},"properties":{"GEOID":"0606392530","BASENAME":"Portola","NAME":"Portola CCD","COUNTY":"063","COUSUB":"92530"}},{"type":"Feature","geometry":{"type":"Polygon","coordinates":[[[-120.8663,39.8584],[-120.8645,39.8558],[-120.8606,39.8538],[-120.8603,39.8506],[-120.8557,39.8502],[-120.8578,39.8465],[-120.8538,39.8404],[-120.8476,39.84],[-120.848,39.837],[-120.8453,39.8375],[-120.8427,39.8344],[-120.8401,39.8353],[-120.8397,39.8329],[-120.8376,39.8324],[-120.8381,39.8311],[-120.8349,39.8278],[-120.8325,39.8281],[-120.8324,39.8258],[-120.8303,39.8243],[-120.8301,39.8214],[-120.8268,39.8207],[-120.8262,39.8178],[-120.8241,39.8182],[-120.8224,39.8164],[-120.8222,39.8137],[-120.8203,39.8138],[-120.8204,39.8119],[-120.8145,39.8072],[-120.8129,39.8013],[-120.8095,39.8004],[-120.8069,39.798],[-120.8085,39.7947],[-120.8019,39.7904],[-120.7958,39.7906],[-120.792,39.7875],[-120.7916,39.784],[-120.7887,39.7805],[-120.7827,39.7833],[-120.7781,39.7825],[-120.773,39.7801],[-120.7636,39.7704],[-120.7612,39.7705],[-120.7639,39.7663],[-120.7673,39.7498],[-120.7706,39.7426],[-120.7707,39.7347],[-120.7694,39.7312],[-120.771,39.7251],[-120.7705,39.7178],[-120.7597,39.7176],[-120.7559,39.7194],[-120.7495,39.7196],[-120.748,39.7166],[-120.7425,39.7125],[-120.7351,39.7107],[-120.7346,39.7083],[-120.7268,39.707],[-120.7205,39.7078],[-120.7162,39.7063],[-120.7129,39.7035],[-120.7108,39.6995],[-120.7076,39.699],[-120.7035,39.6923],[-120.7016,39.6912],[-120.6987,39.6925],[-120.695,39.6917],[-120.6888,39.684],[-120.6835,39.681],[-120.6808,39.6768],[-120.6792,39.6767],[-120.6766,39.6797],[-120.6738,39.6797],[-120.6739,39.6809],[-120.6713,39.6824],[-120.6666,39.6827],[-120.6598,39.6865],[-120.6547,39.6941],[-120.6554,39.6999],[-120.6542,39.7066],[-120.488,39.7066],[-120.4911,39.7114],[-120.4897,39.721],[-120.4966,39.7297],[-120.498,39.7347],[-120.4995,39.7359],[-120.4982,39.7396],[-120.5005,39.7413],[-120.4957,39.7469],[-120.4956,39.7499],[-120.4944,39.7512],[-120.5037,39.7601],[-120.5121,39.7632],[-120.513,39.769],[-120.515,39.7714],[-120.5252,39.7784],[-120.5297,39.779],[-120.5306,39.7763],[-120.5332,39.7749],[-120.5343,39.7692],[-120.5366,39.7693],[-120.5404,39.7666],[-120.5432,39.7666],[-120.5437,39.7643],[-120.5468,39.7617],[-120.5455,39.7594],[-120.5463,39.7578],[-120.5551,39.7566],[-120.5568,39.7545],[-120.5569,39.7571],[-120.5598,39.7572],[-120.5601,39.7588],[-120.5612,39.7588],[-120.568,39.7536],[-120.5722,39.7574],[-120.5718,39.7592],[-120.5635,39.7653],[-120.5626,39.768],[-120.5606,39.7686],[-120.561,39.7739],[-120.5597,39.7745],[-120.5597,39.777],[-120.549,39.7847],[-120.5499,39.7943],[-120.5569,39.8125],[-120.562,39.8167],[-120.5621,39.8255],[-120.559,39.8296],[-120.5494,39.8357],[-120.5375,39.8459],[-120.5307,39.8476],[-120.5284,39.8513],[-120.5275,39.8489],[-120.5255,39.8531],[-120.5261,39.8593],[-120.5231,39.8623],[-120.5257,39.8661],[-120.5322,39.8679],[-120.5357,39.867],[-120.5422,39.857],[-120.5446,39.8553],[-120.5562,39.8596],[-120.5655,39.8608],[-120.5668,39.8633],[-120.5764,39.8652],[-120.5844,39.8609],[-120.5859,39.8566],[-120.5831,39.8532],[-120.5928,39.8434],[-120.5949,39.8375],[-120.5979,39.836],[-120.5999,39.8326],[-120.6103,39.8344],[-120.6136,39.8275],[-120.6158,39.8297],[-120.6173,39.8259],[-120.6297,39.8207],[-120.6401,39.8236],[-120.6496,39.8228],[-120.6668,39.8243],[-120.6665,39.822],[-120.6745,39.8207],[-120.6752,39.8184],[-120.6789,39.8155],[-120.6809,39.8155],[-120.6826,39.8122],[-120.688,39.812],[-120.689,39.8084],[-120.6911,39.8068],[-120.6944,39.807],[-120.6997,39.8115],[-120.7067,39.8118],[-120.7124,39.8091],[-120.7147,39.8095],[-120.7079,39.8115],[-120.7034,39.8184],[-120.6967,39.8195],[-120.6959,39.8281],[-120.7037,39.8274],[-120.7103,39.8297],[-120.7176,39.8253],[-120.722,39.8266],[-120.7384,39.8259],[-120.7422,39.8275],[-120.7461,39.8316],[-120.7501,39.8326],[-120.75,39.8384],[-120.7462,39.8391],[-120.7519,39.8427],[-120.752,39.8405],[-120.7552,39.8409],[-120.7572,39.8376],[-120.7602,39.8421],[-120.7654,39.8417],[-120.7665,39.8394],[-120.77,39.8414],[-120.773,39.8389],[-120.7751,39.8408],[-120.7792,39.8409],[-120.7826,39.8434],[-120.7888,39.8441],[-120.7907,39.8428],[-120.7938,39.8456],[-120.7975,39.8425],[-120.8035,39.8421],[-120.8083,39.8393],[-120.811,39.8402],[-120.8111,39.8367],[-120.8143,39.8353],[-120.8163,39.8409],[-120.8174,39.8412],[-120.8155,39.843],[-120.8171,39.8451],[-120.824,39.8457],[-120.8259,39.847],[-120.826,39.849],[-120.8246,39.8504],[-120.8213,39.8499],[-120.8225,39.8525],[-120.8191,39.8519],[-120.8176,39.8543],[-120.8095,39.8504],[-120.8128,39.8539],[-120.8123,39.8573],[-120.8087,39.8583],[-120.8081,39.8644],[-120.8034,39.8668],[-120.8117,39.8672],[-120.8241,39.8734],[-120.83,39.874],[-120.8326,39.8706],[-120.8409,39.8692],[-120.8443,39.8655],[-120.844,39.8621],[-120.8478,39.8613],[-120.8498,39.8594],[-120.8546,39.8634],[-120.857,39.8617],[-120.8562,39.8599],[-120.857,39.8583],[-120.8663,39.8584]]]},"properties":{"GEOID":"0606391135","BASENAME":"Graeagle","NAME":"Graeagle CCD","COUNTY":"063","COUSUB":"91135"}},{"type":"Feature","geometry":{"type":"Polygon","coordinates":[[[-121.0502,40.1826],[-121.0476,40.1797],[-121.0473,40.1773],[-121.0433,40.1741],[-121.0361,40.1715],[-121.0304,40.1727],[-121.0302,40.1717],[-121.0277,40.1715],[-121.0295,40.1674],[-121.0249,40.1636],[-121.0198,40.1628],[-121.0157,40.1586],[-121.0143,40.1534],[-121.0186,40.1474],[-121.0156,40.1465],[-121.0151,40.1428],[-121.02,40.1354],[-121.0199,40.1337],[-121.0161,40.1294],[-121.0186,40.1239],[-121.0193,40.1168],[-121.018,40.1143],[-121.0215,40.1082],[-121.013,40.1045],[-121.0089,40.0992],[-121.0051,40.0966],[-121.0012,40.096],[-120.9975,40.0985],[-120.9856,40.0862],[-120.9902,40.0824],[-120.9907,40.0748],[-120.9888,40.0729],[-120.9848,40.0623],[-120.9884,40.0567],[-120.9916,40.0459],[-120.9766,40.0379],[-120.9664,40.0454],[-120.9603,40.0438],[-120.9517,40.0492],[-120.9448,40.05],[-120.9392,40.0488],[-120.9314,40.0507],[-120.9199,40.0604],[-120.9155,40.06],[-120.9125,40.0595],[-120.9074,40.0554],[-120.8993,40.0537],[-120.8949,40.0491],[-120.8885,40.0484],[-120.8858,40.0445],[-120.882,40.0427],[-120.872,40.0318],[-120.8683,40.0327],[-120.8595,40.0256],[-120.8554,40.0262],[-120.8524,40.0211],[-120.846,40.0223],[-120.8373,40.0182],[-120.8295,40.0185],[-120.8262,40.0174],[-120.8206,40.0181],[-120.8154,40.021],[-120.8058,40.018],[-120.8003,40.0151],[-120.7974,40.0076],[-120.7858,40.0019],[-120.7796,39.9964],[-120.776,39.995],[-120.7753,39.9909],[-120.768,39.989],[-120.7588,39.983],[-120.7554,39.9749],[-120.7505,39.9717],[-120.7492,39.9655],[-120.7417,39.9595],[-120.7375,39.9521],[-120.7297,39.948],[-120.7269,39.9427],[-120.7208,39.939],[-120.718,39.9343],[-120.7117,39.9332],[-120.7067,39.9304],[-120.696,39.9301],[-120.6905,39.9245],[-120.685,39.9244],[-120.6805,39.9218],[-120.6717,39.923],[-120.6673,39.9189],[-120.6595,39.9178],[-120.651,39.9108],[-120.6454,39.9107],[-120.6395,39.9119],[-120.6411,39.9142],[-120.6412,39.9201],[-120.6432,39.9184],[-120.6477,39.9187],[-120.654,39.9229],[-120.654,39.924],[-120.6496,39.9281],[-120.639,39.9273],[-120.6387,39.9295],[-120.6372,39.9307],[-120.6441,39.9324],[-120.6511,39.9369],[-120.6545,39.9363],[-120.6518,39.9407],[-120.6566,39.9432],[-120.65,39.9452],[-120.6443,39.945],[-120.641,39.9466],[-120.6375,39.9428],[-120.6308,39.9403],[-120.627,39.9444],[-120.6152,39.9448],[-120.6105,39.9477],[-120.6049,39.9473],[-120.6022,39.9488],[-120.6016,39.952],[-120.597,39.9567],[-120.5949,39.9618],[-120.5968,39.9674],[-120.6032,39.9734],[-120.6111,39.9701],[-120.6168,39.9709],[-120.6223,39.9702],[-120.6282,39.9725],[-120.6327,39.9777],[-120.6248,39.9871],[-120.6257,39.9916],[-120.6301,39.9968],[-120.629,39.9999],[-120.6261,40.0042],[-120.6176,40.0118],[-120.6106,40.0313],[-120.6071,40.0291],[-120.6072,40.0354],[-120.6015,40.041],[-120.5976,40.0388],[-120.5923,40.039],[-120.5915,40.0466],[-120.5931,40.0492],[-120.5891,40.0499],[-120.5879,40.0527],[-120.5895,40.0546],[-120.5896,40.0576],[-120.5936,40.0593],[-120.5912,40.0617],[-120.5943,40.0656],[-120.6005,40.0701],[-120.595,40.0728],[-120.5868,40.0671],[-120.5832,40.0664],[-120.5827,40.0653],[-120.5843,40.0641],[-120.5717,40.0663],[-120.5673,40.0625],[-120.5666,40.0648],[-120.5689,40.0657],[-120.5663,40.0669],[-120.5636,40.066],[-120.5579,40.0672],[-120.5547,40.0655],[-120.5496,40.0687],[-120.5509,40.0702],[-120.5499,40.0723],[-120.5462,40.0742],[-120.5402,40.0745],[-120.5406,40.0808],[-120.5372,40.0859],[-120.5408,40.0894],[-120.5408,40.0919],[-120.5387,40.0951],[-120.5404,40.0962],[-120.5403,40.0993],[-120.5366,40.1054],[-120.5338,40.1149],[-120.5345,40.1179],[-120.531,40.1192],[-120.5284,40.1182],[-120.5241,40.123],[-120.5216,40.1233],[-120.5105,40.1195],[-120.5111,40.1188],[-120.5083,40.1175],[-120.507,40.1148],[-120.5034,40.1175],[-120.5026,40.1256],[-120.5001,40.1259],[-120.5013,40.1269],[-120.5031,40.1342],[-120.5071,40.1369],[-120.5061,40.1397],[-120.5081,40.1452],[-120.5093,40.1455],[-120.5085,40.1472],[-120.5101,40.1518],[-120.5064,40.1567],[-120.5066,40.1591],[-120.5003,40.1648],[-120.5015,40.1677],[-120.4995,40.1693],[-120.5005,40.1705],[-120.4984,40.171],[-120.4978,40.177],[-120.4948,40.1817],[-120.4969,40.1809],[-120.4979,40.1853],[-120.4952,40.1896],[-120.4924,40.1903],[-120.4932,40.1917],[-120.49,40.1954],[-120.4952,40.2016],[-120.4932,40.2107],[-120.4916,40.2132],[-120.4943,40.2158],[-120.49,40.2198],[-120.4921,40.2203],[-120.4917,40.2348],[-120.5107,40.2347],[-120.5108,40.2489],[-120.5297,40.2492],[-120.5297,40.2562],[-120.5487,40.2563],[-120.5487,40.2636],[-120.5767,40.2638],[-120.5768,40.2854],[-120.6228,40.2857],[-120.6227,40.293],[-120.6425,40.2932],[-120.6423,40.3004],[-120.6517,40.3005],[-120.6522,40.3077],[-120.7264,40.3084],[-120.7266,40.3159],[-120.7644,40.316],[-120.7643,40.3087],[-120.7737,40.3087],[-120.7738,40.3014],[-120.7966,40.3012],[-120.796,40.2777],[-120.8147,40.2778],[-120.815,40.2707],[-120.8338,40.2707],[-120.8341,40.2562],[-120.8435,40.256],[-120.8436,40.2489],[-120.8532,40.2489],[-120.8531,40.2418],[-120.8718,40.2416],[-120.8718,40.1994],[-120.8907,40.1994],[-120.8906,40.1921],[-120.9286,40.1919],[-120.9281,40.2065],[-120.9472,40.2065],[-120.9462,40.2208],[-121.0037,40.221],[-121.0039,40.2349],[-121.0296,40.2348],[-121.0337,40.2339],[-121.0376,40.2279],[-121.0375,40.2219],[-121.0359,40.2183],[-121.0364,40.2156],[-121.0385,40.2137],[-121.0409,40.2046],[-121.0401,40.2002],[-121.045,40.1979],[-121.0502,40.1826]]]},"properties":{"GEOID":"0606391170","BASENAME":"Greenville","NAME":"Greenville CCD","COUNTY":"063","COUSUB":"91170"}},{"type":"Feature","geometry":{"type":"Polygon","coordinates":[[[-121.3473,39.8363],[-121.3443,39.8325],[-121.3448,39.8295],[-121.3409,39.8258],[-121.3323,39.8257],[-121.3323,39.8111],[-121.3185,39.8109],[-121.3169,39.7967],[-121.3077,39.7966],[-121.3078,39.7894],[-121.2941,39.7893],[-121.2942,39.7855],[-121.2895,39.7854],[-121.2895,39.7817],[-121.2849,39.7816],[-121.2859,39.7676],[-121.2683,39.7688],[-121.268,39.7542],[-121.2506,39.754],[-121.2484,39.7458],[-121.2483,39.74],[-121.2297,39.7402],[-121.2294,39.7257],[-121.2109,39.7257],[-121.2106,39.7118],[-121.2089,39.7119],[-121.2087,39.7004],[-121.1905,39.6999],[-121.1903,39.6854],[-121.1712,39.6856],[-121.1711,39.6711],[-121.163,39.671],[-121.1629,39.6638],[-121.1551,39.6639],[-121.1551,39.6568],[-121.1364,39.6568],[-121.1367,39.6282],[-121.1166,39.628],[-121.1163,39.621],[-121.0975,39.6209],[-121.0977,39.6137],[-121.0889,39.6135],[-121.0889,39.6033],[-121.0793,39.6034],[-121.0767,39.5973],[-121.0095,39.6395],[-121.006,39.6395],[-121.0039,39.638],[-121.0007,39.6387],[-120.9982,39.6404],[-120.9952,39.6404],[-120.9905,39.6442],[-120.9864,39.6447],[-120.9839,39.6468],[-120.9834,39.649],[-120.9786,39.6488],[-120.973,39.655],[-120.9683,39.6572],[-120.9648,39.6614],[-120.9638,39.6652],[-120.9581,39.6671],[-120.9578,39.6691],[-120.9545,39.6688],[-120.9501,39.6718],[-120.9494,39.6729],[-120.9521,39.6764],[-120.9445,39.6809],[-120.9418,39.684],[-120.9422,39.6855],[-120.9391,39.6889],[-120.9399,39.6905],[-120.9384,39.6911],[-120.94,39.6927],[-120.9365,39.6932],[-120.9376,39.695],[-120.9356,39.6978],[-120.9377,39.6998],[-120.9341,39.7016],[-120.9344,39.7388],[-120.9256,39.7443],[-120.923,39.7508],[-120.9168,39.7532],[-120.9139,39.7572],[-120.906,39.7573],[-120.9018,39.7602],[-120.8952,39.7598],[-120.8877,39.7672],[-120.8808,39.771],[-120.8758,39.7721],[-120.8733,39.7762],[-120.8708,39.7769],[-120.8636,39.7713],[-120.8595,39.7705],[-120.8584,39.7663],[-120.8544,39.7599],[-120.8443,39.7561],[-120.8443,39.7517],[-120.8419,39.7505],[-120.8394,39.7463],[-120.8369,39.7455],[-120.8287,39.7468],[-120.8263,39.742],[-120.8194,39.7438],[-120.8156,39.747],[-120.813,39.7423],[-120.8145,39.7368],[-120.8128,39.7338],[-120.812,39.726],[-120.8092,39.7232],[-120.8093,39.7208],[-120.8083,39.7199],[-120.804,39.7209],[-120.7948,39.7184],[-120.7916,39.715],[-120.7924,39.7097],[-120.79,39.7106],[-120.783,39.7098],[-120.781,39.7123],[-120.7718,39.7135],[-120.7706,39.7155],[-120.771,39.7251],[-120.7694,39.7312],[-120.7707,39.7347],[-120.7706,39.7426],[-120.7673,39.7498],[-120.7639,39.7663],[-120.7612,39.7705],[-120.7636,39.7704],[-120.773,39.7801],[-120.7781,39.7825],[-120.7827,39.7833],[-120.7887,39.7805],[-120.7916,39.784],[-120.792,39.7875],[-120.7958,39.7906],[-120.8019,39.7904],[-120.8085,39.7947],[-120.8069,39.798],[-120.8095,39.8004],[-120.8129,39.8013],[-120.8145,39.8072],[-120.8204,39.8119],[-120.8203,39.8138],[-120.8222,39.8137],[-120.8224,39.8164],[-120.8241,39.8182],[-120.8262,39.8178],[-120.8268,39.8207],[-120.8301,39.8214],[-120.8303,39.8243],[-120.8324,39.8258],[-120.8325,39.8281],[-120.8349,39.8278],[-120.8381,39.8311],[-120.8376,39.8324],[-120.8397,39.8329],[-120.8401,39.8353],[-120.8427,39.8344],[-120.8453,39.8375],[-120.848,39.837],[-120.8476,39.84],[-120.8538,39.8404],[-120.8578,39.8465],[-120.8557,39.8502],[-120.8603,39.8506],[-120.8606,39.8538],[-120.8645,39.8558],[-120.8663,39.8584],[-120.857,39.8583],[-120.8562,39.8599],[-120.857,39.8617],[-120.8546,39.8634],[-120.8498,39.8594],[-120.8478,39.8613],[-120.844,39.8621],[-120.8443,39.8655],[-120.8409,39.8692],[-120.8326,39.8706],[-120.83,39.874],[-120.8241,39.8734],[-120.8117,39.8672],[-120.8034,39.8668],[-120.8081,39.8644],[-120.8087,39.8583],[-120.8123,39.8573],[-120.8128,39.8539],[-120.8095,39.8504],[-120.8176,39.8543],[-120.8191,39.8519],[-120.8225,39.8525],[-120.8213,39.8499],[-120.8246,39.8504],[-120.826,39.849],[-120.8259,39.847],[-120.824,39.8457],[-120.8171,39.8451],[-120.8155,39.843],[-120.8174,39.8412],[-120.8163,39.8409],[-120.8143,39.8353],[-120.8111,39.8367],[-120.811,39.8402],[-120.8083,39.8393],[-120.8035,39.8421],[-120.7975,39.8425],[-120.7938,39.8456],[-120.7907,39.8428],[-120.7888,39.8441],[-120.7826,39.8434],[-120.7792,39.8409],[-120.7751,39.8408],[-120.773,39.8389],[-120.77,39.8414],[-120.7665,39.8394],[-120.7654,39.8417],[-120.7602,39.8421],[-120.7572,39.8376],[-120.7552,39.8409],[-120.752,39.8405],[-120.7519,39.8427],[-120.7462,39.8391],[-120.75,39.8384],[-120.7501,39.8326],[-120.7461,39.8316],[-120.7422,39.8275],[-120.7384,39.8259],[-120.722,39.8266],[-120.7176,39.8253],[-120.7103,39.8297],[-120.7037,39.8274],[-120.6959,39.8281],[-120.6967,39.8195],[-120.7034,39.8184],[-120.7079,39.8115],[-120.7147,39.8095],[-120.7124,39.8091],[-120.7067,39.8118],[-120.6997,39.8115],[-120.6944,39.807],[-120.6911,39.8068],[-120.689,39.8084],[-120.688,39.812],[-120.6826,39.8122],[-120.6809,39.8155],[-120.6789,39.8155],[-120.6752,39.8184],[-120.6745,39.8207],[-120.6665,39.822],[-120.6668,39.8243],[-120.6496,39.8228],[-120.6401,39.8236],[-120.6297,39.8207],[-120.6173,39.8259],[-120.6158,39.8297],[-120.6136,39.8275],[-120.6103,39.8344],[-120.5999,39.8326],[-120.5979,39.836],[-120.5949,39.8375],[-120.5928,39.8434],[-120.5831,39.8532],[-120.5859,39.8566],[-120.5844,39.8609],[-120.5751,39.866],[-120.572,39.8729],[-120.5839,39.8827],[-120.5915,39.887],[-120.5928,39.8924],[-120.5927,39.8995],[-120.5942,39.9014],[-120.5965,39.9018],[-120.6045,39.8989],[-120.6094,39.8996],[-120.6395,39.9119],[-120.651,39.9108],[-120.6595,39.9178],[-120.6673,39.9189],[-120.6717,39.923],[-120.6805,39.9218],[-120.685,39.9244],[-120.6905,39.9245],[-120.696,39.9301],[-120.7067,39.9304],[-120.7117,39.9332],[-120.7177,39.9341],[-120.7208,39.939],[-120.7269,39.9427],[-120.7297,39.948],[-120.7375,39.9521],[-120.7417,39.9595],[-120.7492,39.9655],[-120.7505,39.9717],[-120.7554,39.9749],[-120.7588,39.983],[-120.768,39.989],[-120.7753,39.9909],[-120.7764,39.9953],[-120.7796,39.9964],[-120.7858,40.0019],[-120.7974,40.0076],[-120.8003,40.0151],[-120.8154,40.021],[-120.8206,40.0181],[-120.8262,40.0174],[-120.8295,40.0185],[-120.8373,40.0182],[-120.846,40.0223],[-120.8524,40.0211],[-120.8554,40.0262],[-120.8595,40.0256],[-120.8683,40.0327],[-120.872,40.0318],[-120.882,40.0427],[-120.8858,40.0445],[-120.8885,40.0484],[-120.8949,40.0491],[-120.8993,40.0537],[-120.9086,40.0559],[-120.9125,40.0595],[-120.9199,40.0604],[-120.9314,40.0507],[-120.9392,40.0488],[-120.9448,40.05],[-120.9517,40.0492],[-120.9603,40.0438],[-120.9664,40.0454],[-120.9766,40.0379],[-120.9828,40.0412],[-120.9837,40.0401],[-120.9811,40.0335],[-120.9772,40.03],[-120.9799,40.0285],[-120.9854,40.0294],[-120.9863,40.0281],[-120.9908,40.0272],[-120.9917,40.0256],[-120.9967,40.0278],[-120.9957,40.0251],[-120.9922,40.0226],[-120.9904,40.0164],[-120.9937,40.0124],[-120.9949,40.0075],[-120.9968,40.0064],[-120.9954,40.0043],[-120.9993,40.0051],[-121.0001,40.009],[-121.003,40.0068],[-121.0086,40.0061],[-121.0089,40.005],[-121.0147,40.0079],[-121.0134,40.0041],[-121.015,40.0029],[-121.0139,39.9989],[-121.0188,40.002],[-121.0221,40.0019],[-121.0224,40.0061],[-121.0236,40.0068],[-121.0292,40.0033],[-121.0427,40.0011],[-121.0422,39.9968],[-121.0466,39.9987],[-121.0478,39.9978],[-121.0468,39.9946],[-121.0499,39.9951],[-121.052,39.9928],[-121.0537,39.9876],[-121.0525,39.9838],[-121.0549,39.9809],[-121.0607,39.9849],[-121.0657,39.9809],[-121.0735,39.9826],[-121.0764,39.9812],[-121.0764,39.9862],[-121.0849,39.9863],[-121.0887,39.9892],[-121.0915,39.9888],[-121.0941,39.9919],[-121.0986,39.9936],[-121.1051,39.9947],[-121.1102,39.993],[-121.1139,39.995],[-121.1214,39.9965],[-121.1241,39.995],[-121.1242,39.9912],[-121.1254,39.99],[-121.1299,39.9922],[-121.1344,39.9907],[-121.1383,39.9821],[-121.1454,39.9788],[-121.1458,39.9742],[-121.1482,39.9722],[-121.1484,39.9703],[-121.1516,39.9689],[-121.1502,39.9635],[-121.1483,39.9623],[-121.1484,39.9585],[-121.1505,39.9553],[-121.1565,39.9518],[-121.1588,39.954],[-121.1628,39.9549],[-121.166,39.9622],[-121.1681,39.9636],[-121.1782,39.9605],[-121.1813,39.961],[-121.1897,39.9588],[-121.2053,39.9623],[-121.2142,39.959],[-121.2193,39.9518],[-121.2223,39.951],[-121.2275,39.9453],[-121.2352,39.9403],[-121.2356,39.9382],[-121.2404,39.9354],[-121.2459,39.9299],[-121.2447,39.9248],[-121.2413,39.9259],[-121.2414,39.9217],[-121.2436,39.9161],[-121.238,39.9143],[-121.2362,39.9096],[-121.2365,39.9066],[-121.2291,39.9028],[-121.2287,39.8994],[-121.2317,39.8976],[-121.2314,39.8999],[-121.2336,39.9004],[-121.2379,39.8975],[-121.2467,39.9007],[-121.2511,39.8993],[-121.2532,39.9015],[-121.2555,39.9015],[-121.2574,39.897],[-121.2602,39.8978],[-121.2635,39.8959],[-121.267,39.898],[-121.2693,39.8978],[-121.271,39.9005],[-121.2727,39.9005],[-121.2748,39.8977],[-121.2781,39.8986],[-121.2791,39.8958],[-121.2803,39.8955],[-121.2814,39.8969],[-121.2847,39.8968],[-121.2876,39.8983],[-121.2914,39.8952],[-121.2972,39.8938],[-121.3021,39.895],[-121.3072,39.8907],[-121.3089,39.8907],[-121.3111,39.8892],[-121.3104,39.8846],[-121.3122,39.8821],[-121.3163,39.8852],[-121.3182,39.8818],[-121.3207,39.882],[-121.3205,39.8889],[-121.3264,39.8777],[-121.3233,39.8752],[-121.3246,39.8704],[-121.3287,39.8657],[-121.3255,39.8622],[-121.3264,39.8595],[-121.3349,39.8572],[-121.3345,39.8456],[-121.3388,39.8427],[-121.3451,39.8408],[-121.3473,39.8363]]]},"properties":{"GEOID":"0606392540","BASENAME":"Quincy","NAME":"Quincy CCD","COUNTY":"063","COUSUB":"92540"}}]}