{"type":"FeatureCollection","features":[{"type":"Feature","geometry":{"type":"Polygon","coordinates":[[[-117.6751,33.8687],[-117.6743,33.858],[-117.6621,33.8575],[-117.5801,33.768],[-117.5364,33.7577],[-117.534,33.7104],[-117.4746,33.7038],[-117.458,33.6903],[-117.413,33.659],[-117.4877,33.5643],[-117.5102,33.534],[-117.5099,33.5205],[-117.5032,33.5204],[-117.5038,33.5089],[-117.5097,33.5091],[-117.5097,33.5052],[-117.3639,33.5051],[-117.3421,33.5602],[-117.3274,33.5714],[-117.2965,33.6061],[-117.3021,33.6049],[-117.2994,33.611],[-117.2942,33.617],[-117.2728,33.6038],[-117.2653,33.6122],[-117.2604,33.6124],[-117.2731,33.6269],[-117.265,33.6269],[-117.2647,33.6295],[-117.2609,33.6335],[-117.2684,33.6369],[-117.2647,33.6382],[-117.2626,33.6412],[-117.2631,33.6443],[-117.2616,33.645],[-117.2586,33.6503],[-117.2575,33.6582],[-117.2541,33.6611],[-117.2577,33.6655],[-117.2638,33.6684],[-117.2617,33.6712],[-117.2632,33.6735],[-117.2674,33.6744],[-117.2712,33.6732],[-117.275,33.6775],[-117.2721,33.6847],[-117.2674,33.6905],[-117.2689,33.6984],[-117.2795,33.6973],[-117.2883,33.7001],[-117.29,33.7024],[-117.2897,33.7079],[-117.2923,33.7106],[-117.2927,33.7133],[-117.2999,33.7133],[-117.3003,33.7163],[-117.3192,33.7093],[-117.3233,33.7063],[-117.3266,33.709],[-117.3269,33.7168],[-117.3321,33.7198],[-117.3336,33.7199],[-117.3447,33.7076],[-117.3581,33.7071],[-117.3638,33.7191],[-117.372,33.7256],[-117.3893,33.7297],[-117.3984,33.7304],[-117.4057,33.733],[-117.4185,33.7336],[-117.4307,33.7405],[-117.4412,33.7432],[-117.4515,33.7479],[-117.4589,33.7554],[-117.4724,33.762],[-117.4707,33.7626],[-117.4721,33.7646],[-117.4699,33.7711],[-117.4738,33.7821],[-117.4841,33.784],[-117.4903,33.789],[-117.4924,33.7984],[-117.4994,33.8062],[-117.4983,33.8181],[-117.505,33.8244],[-117.5026,33.8244],[-117.5035,33.8255],[-117.5085,33.8283],[-117.5072,33.8336],[-117.5102,33.8395],[-117.5091,33.8443],[-117.5119,33.8526],[-117.5206,33.8533],[-117.5244,33.8601],[-117.5297,33.8627],[-117.5369,33.8597],[-117.5356,33.8539],[-117.5362,33.8449],[-117.5323,33.8418],[-117.5364,33.8358],[-117.5369,33.8214],[-117.5409,33.8213],[-117.541,33.8176],[-117.5454,33.8176],[-117.5557,33.8133],[-117.5779,33.8236],[-117.5844,33.8297],[-117.5891,33.8297],[-117.5891,33.8339],[-117.5972,33.8414],[-117.5973,33.8365],[-117.6019,33.8371],[-117.6029,33.8423],[-117.5998,33.8435],[-117.6142,33.8546],[-117.6134,33.8593],[-117.6233,33.8594],[-117.6233,33.8567],[-117.632,33.8567],[-117.632,33.8594],[-117.6448,33.8594],[-117.645,33.8687],[-117.6496,33.8695],[-117.651,33.8789],[-117.6555,33.8777],[-117.6579,33.8786],[-117.6659,33.872],[-117.6751,33.8687]]]},"properties":{"GEOID":"0606590880","BASENAME":"Elsinore Valley","NAME":"Elsinore Valley CCD","COUNTY":"065","COUSUB":"90880"}},{"type":"Feature","geometry":{"type":"Polygon","coordinates":[[[-114.7664,33.4342],[-114.6271,33.4336],[-114.6223,33.4476],[-114.6229,33.4566],[-114.6125,33.4708],[-114.6017,33.4814],[-114.5924,33.4987],[-114.5892,33.5018],[-114.5805,33.5065],[-114.5695,33.5092],[-114.561,33.5167],[-114.5608,33.5243],[-114.5589,33.5318],[-114.5318,33.5479],[-114.5304,33.5501],[-114.5246,33.5522],[-114.5268,33.5575],[-114.5316,33.5617],[-114.5368,33.571],[-114.5403,33.5806],[-114.5406,33.5914],[-114.5292,33.6067],[-114.5221,33.6113],[-114.5218,33.6125],[-114.5224,33.6142],[-114.5274,33.6178],[-114.5312,33.6239],[-114.531,33.6282],[-114.5264,33.6303],[-114.5238,33.6347],[-114.5254,33.6407],[-114.5332,33.6484],[-114.5332,33.6517],[-114.5306,33.6545],[-114.5252,33.6559],[-114.5183,33.6559],[-114.5146,33.658],[-114.5141,33.6602],[-114.5171,33.6629],[-114.5264,33.6639],[-114.5303,33.6668],[-114.5321,33.6697],[-114.5315,33.6751],[-114.5303,33.6792],[-114.524,33.6859],[-114.4965,33.6969],[-114.4942,33.7079],[-114.4966,33.7192],[-114.5008,33.7222],[-114.5042,33.7281],[-114.5103,33.7321],[-114.512,33.735],[-114.5156,33.7345],[-114.5167,33.7264],[-114.5185,33.7233],[-114.5332,33.7123],[-114.5476,33.7117],[-114.5543,33.7094],[-114.5629,33.7038],[-114.5719,33.7019],[-114.5748,33.7025],[-114.5998,33.6919],[-114.6003,33.6903],[-114.6061,33.6891],[-114.621,33.6825],[-114.6246,33.679],[-114.6269,33.6798],[-114.6281,33.6685],[-114.6358,33.6667],[-114.7124,33.5842],[-114.7532,33.5304],[-114.7664,33.4342]]]},"properties":{"GEOID":"0606590253","BASENAME":"Blythe","NAME":"Blythe CCD","COUNTY":"065","COUSUB":"90253"}},{"type":"Feature","geometry":{"type":"Polygon","coordinates":[[[-116.4585,33.9771],[-116.4585,33.9753],[-116.4469,33.9719],[-116.4469,33.9736],[-116.4446,33.9736],[-116.4446,33.9719],[-116.4413,33.9719],[-116.4413,33.9698],[-116.3995,33.9437],[-116.3967,33.9436],[-116.3967,33.9422],[-116.3839,33.9388],[-116.3839,33.9397],[-116.3794,33.9398],[-116.3795,33.937],[-116.3273,33.9166],[-116.3246,33.9167],[-116.325,33.9158],[-116.3231,33.915],[-116.3188,33.915],[-116.3187,33.913],[-116.277,33.894],[-116.2768,33.8988],[-116.2749,33.8988],[-116.2738,33.8943],[-116.2666,33.8893],[-116.2719,33.891],[-116.2768,33.8895],[-116.2809,33.8859],[-116.3018,33.8756],[-116.2904,33.8706],[-116.2487,33.8483],[-116.2486,33.8457],[-116.2424,33.8449],[-116.187,33.8015],[-116.1643,33.7479],[-116.1642,33.7265],[-116.1582,33.7213],[-116.1547,33.7149],[-116.1405,33.7025],[-116.1361,33.7],[-116.1221,33.6849],[-116.115,33.6795],[-116.1128,33.6748],[-116.1056,33.6678],[-116.1032,33.6575],[-116.0939,33.6487],[-116.0902,33.6412],[-116.0851,33.6376],[-116.0782,33.6376],[-116.0733,33.635],[-116.0717,33.6284],[-116.0659,33.6203],[-116.0548,33.6092],[-116.0484,33.6052],[-116.0385,33.5926],[-116.0325,33.5876],[-116.0264,33.5864],[-116.0261,33.5989],[-116.0088,33.5989],[-116.0086,33.5842],[-115.9914,33.5842],[-115.9914,33.5696],[-115.9963,33.5696],[-115.9901,33.5661],[-115.9839,33.5649],[-115.9648,33.5665],[-115.9565,33.5657],[-115.9456,33.5557],[-115.9337,33.5535],[-115.9303,33.5511],[-115.9289,33.5485],[-115.9226,33.5444],[-115.918,33.536],[-115.9133,33.5333],[-115.9101,33.5277],[-115.8611,33.52],[-115.848,33.5215],[-115.8313,33.5213],[-115.82,33.5149],[-115.8061,33.5114],[-115.7786,33.5108],[-115.768,33.5089],[-115.7662,33.5057],[-115.7666,33.4967],[-115.7636,33.4881],[-115.7493,33.4682],[-115.7309,33.4581],[-115.7137,33.4535],[-115.7138,33.4548],[-115.7034,33.4446],[-115.6905,33.4385],[-115.6808,33.429],[-115.6775,33.4274],[-115.498,33.4269],[-115.4675,33.427],[-115.4675,33.4284],[-115.1258,33.429],[-115.0632,33.4281],[-114.8308,33.4301],[-114.8309,33.4337],[-114.7665,33.4337],[-114.7532,33.5304],[-114.7124,33.5842],[-114.6358,33.6667],[-114.6281,33.6685],[-114.6269,33.6798],[-114.6246,33.679],[-114.621,33.6825],[-114.6061,33.6891],[-114.6003,33.6903],[-114.5998,33.6919],[-114.5748,33.7025],[-114.5719,33.7019],[-114.5629,33.7038],[-114.5543,33.7094],[-114.5476,33.7117],[-114.5339,33.712],[-114.5175,33.7246],[-114.5156,33.7345],[-114.512,33.735],[-114.506,33.7463],[-114.5043,33.7564],[-114.5071,33.7679],[-114.5167,33.7883],[-114.5189,33.7973],[-114.528,33.815],[-114.5227,33.819],[-114.52,33.8254],[-114.5296,33.8481],[-114.5306,33.8554],[-114.5299,33.8576],[-114.5257,33.86],[-114.5156,33.8583],[-114.5066,33.8635],[-114.5031,33.8672],[-114.5034,33.875],[-114.5228,33.8926],[-114.5257,33.8994],[-114.5257,33.9014],[-114.5243,33.9016],[-114.5163,33.8979],[-114.5124,33.8984],[-114.508,33.9018],[-114.5086,33.9061],[-114.5124,33.9121],[-114.521,33.9195],[-114.5284,33.9237],[-114.535,33.9257],[-114.5355,33.9347],[-114.5287,33.9478],[-114.522,33.9556],[-114.5159,33.9581],[-114.5096,33.9573],[-114.4999,33.9618],[-114.4848,33.9755],[-114.4815,33.9813],[-114.4711,33.988],[-114.4679,33.9929],[-114.4593,33.9947],[-114.458,33.9972],[-114.4592,34],[-114.4673,34.0052],[-114.4659,34.011],[-114.4633,34.0123],[-114.4548,34.011],[-114.4502,34.0126],[-114.4438,34.0162],[-114.4383,34.0226],[-114.4362,34.0281],[-114.4349,34.0378],[-114.4394,34.0538],[-114.4393,34.0579],[-114.4377,34.0719],[-114.4354,34.0797],[-115.1258,34.0798],[-115.1924,34.0794],[-115.1924,34.0778],[-115.3161,34.0778],[-115.3162,34.0341],[-115.8409,34.0354],[-116.1845,34.0336],[-116.3006,34.0344],[-116.3006,34.0325],[-116.3159,34.0325],[-116.4574,34.0329],[-116.4585,33.9771]]]},"properties":{"GEOID":"0606590492","BASENAME":"Chuckwalla Valley","NAME":"Chuckwalla Valley CCD","COUNTY":"065","COUSUB":"90492"}},{"type":"Feature","geometry":{"type":"Polygon","coordinates":[[[-117.0717,33.6858],[-117.0699,33.6811],[-117.0642,33.6773],[-117.0618,33.6783],[-117.0375,33.6783],[-117.0329,33.6825],[-117.0222,33.6856],[-116.9712,33.6858],[-116.9709,33.672],[-116.9495,33.6713],[-116.9479,33.6656],[-116.945,33.664],[-116.9448,33.6572],[-116.9421,33.6532],[-116.9372,33.6341],[-116.9373,33.6255],[-116.9339,33.6154],[-116.9348,33.6113],[-116.9324,33.6108],[-116.929,33.6128],[-116.9213,33.6132],[-116.9167,33.6159],[-116.9128,33.6167],[-116.9028,33.6161],[-116.9002,33.6194],[-116.9003,33.6262],[-116.8973,33.6278],[-116.8961,33.6315],[-116.894,33.6325],[-116.8856,33.6318],[-116.8716,33.6339],[-116.8681,33.6313],[-116.868,33.6261],[-116.8608,33.6216],[-116.8584,33.6218],[-116.8585,33.6865],[-116.8413,33.6865],[-116.8412,33.6875],[-116.8419,33.802],[-116.8757,33.8018],[-116.8758,33.8093],[-116.8857,33.8088],[-116.8856,33.8055],[-116.896,33.8053],[-116.9077,33.8171],[-116.9325,33.818],[-117.0009,33.8573],[-117.0095,33.857],[-117.0041,33.8457],[-117.0087,33.8462],[-117.02,33.8583],[-117.03,33.8651],[-117.0335,33.8666],[-117.0388,33.8666],[-117.0441,33.8698],[-117.0681,33.8554],[-117.0686,33.8401],[-117.0599,33.8385],[-117.0373,33.8245],[-117.0337,33.8235],[-117.0333,33.7686],[-117.0363,33.7547],[-117.036,33.7502],[-117.0329,33.7454],[-117.0329,33.7053],[-117.0406,33.6993],[-117.0471,33.6985],[-117.0502,33.6957],[-117.0588,33.6952],[-117.0678,33.6921],[-117.071,33.6901],[-117.0717,33.6858]]]},"properties":{"GEOID":"0606591280","BASENAME":"Hemet-San Jacinto","NAME":"Hemet-San Jacinto CCD","COUNTY":"065","COUSUB":"91280"}},{"type":"Feature","geometry":{"type":"Polygon","coordinates":[[[-117.3708,33.4907],[-117.2415,33.4488],[-117.2414,33.4319],[-117.1388,33.4326],[-117.1044,33.4303],[-117.0309,33.4299],[-117.0309,33.4269],[-116.8367,33.4269],[-116.8381,33.4301],[-116.8428,33.4342],[-116.8489,33.4331],[-116.8495,33.4371],[-116.8532,33.4398],[-116.8702,33.4443],[-116.882,33.4438],[-116.8938,33.4489],[-116.8997,33.4571],[-116.9035,33.4594],[-116.9086,33.4602],[-116.9145,33.4639],[-116.9125,33.4686],[-116.914,33.4747],[-116.9119,33.479],[-116.9127,33.4832],[-116.9117,33.4857],[-116.9064,33.4947],[-116.9025,33.4957],[-116.8967,33.5031],[-116.8971,33.5098],[-116.9012,33.5197],[-116.8993,33.529],[-116.9006,33.53],[-116.9069,33.5294],[-116.9094,33.5325],[-116.9074,33.5357],[-116.9079,33.5416],[-116.9061,33.5448],[-116.9086,33.5502],[-116.9089,33.5541],[-116.92,33.5659],[-116.9219,33.569],[-116.9217,33.5725],[-116.925,33.572],[-116.9266,33.573],[-116.9326,33.5818],[-116.9334,33.5853],[-116.939,33.5915],[-116.9395,33.601],[-116.9353,33.609],[-116.9339,33.6154],[-116.9373,33.6255],[-116.937,33.6331],[-116.9421,33.6532],[-116.9448,33.6572],[-116.945,33.664],[-116.9479,33.6656],[-116.9495,33.6713],[-116.9709,33.672],[-116.9712,33.6858],[-117.0059,33.6856],[-117.0063,33.6795],[-117.0169,33.6778],[-117.0115,33.6745],[-117.0089,33.6651],[-117.007,33.6633],[-117.0086,33.6616],[-117.0092,33.6557],[-117.0044,33.65],[-117.0094,33.647],[-117.0113,33.6442],[-117.0099,33.6413],[-117.0148,33.6413],[-117.0194,33.6378],[-117.0236,33.639],[-117.0355,33.6384],[-117.0398,33.6399],[-117.0445,33.6376],[-117.0473,33.6341],[-117.0515,33.6341],[-117.0616,33.6284],[-117.0694,33.6304],[-117.075,33.6375],[-117.0804,33.6381],[-117.081,33.6372],[-117.0828,33.6395],[-117.0905,33.6418],[-117.2235,33.6415],[-117.2257,33.6493],[-117.2299,33.6495],[-117.2363,33.6541],[-117.242,33.655],[-117.246,33.6592],[-117.2506,33.6589],[-117.2541,33.6611],[-117.2575,33.6582],[-117.2586,33.6503],[-117.2616,33.645],[-117.2631,33.6443],[-117.2626,33.6412],[-117.2647,33.6382],[-117.2684,33.6369],[-117.2609,33.6335],[-117.2647,33.6295],[-117.265,33.6269],[-117.2731,33.6269],[-117.2604,33.6124],[-117.2653,33.6122],[-117.2728,33.6038],[-117.2942,33.617],[-117.2994,33.611],[-117.3021,33.6049],[-117.2965,33.6061],[-117.3274,33.5714],[-117.3421,33.5602],[-117.3619,33.5093],[-117.3708,33.4907]]]},"properties":{"GEOID":"0606592060","BASENAME":"Murrieta","NAME":"Murrieta CCD","COUNTY":"065","COUSUB":"92060"}},{"type":"Feature","geometry":{"type":"Polygon","coordinates":[[[-117.5977,33.9238],[-117.5799,33.9053],[-117.5763,33.9075],[-117.5703,33.9007],[-117.5721,33.8996],[-117.5691,33.8962],[-117.5678,33.8966],[-117.5686,33.8958],[-117.5666,33.8937],[-117.5628,33.896],[-117.5584,33.8949],[-117.56,33.8986],[-117.5573,33.9],[-117.5569,33.902],[-117.5543,33.9019],[-117.5542,33.8994],[-117.5508,33.8962],[-117.5457,33.8986],[-117.5399,33.8974],[-117.5385,33.8979],[-117.5389,33.901],[-117.5379,33.9025],[-117.5262,33.9079],[-117.5257,33.9043],[-117.5242,33.9044],[-117.5236,33.9021],[-117.5149,33.9023],[-117.5152,33.9092],[-117.5141,33.9092],[-117.512,33.9149],[-117.5173,33.93],[-117.5151,33.9355],[-117.5125,33.9372],[-117.5117,33.9412],[-117.5165,33.946],[-117.5238,33.9459],[-117.5238,33.9537],[-117.5263,33.9545],[-117.5268,33.9572],[-117.5388,33.9564],[-117.5443,33.9535],[-117.5471,33.9537],[-117.5512,33.947],[-117.5576,33.9457],[-117.5633,33.9464],[-117.5653,33.9434],[-117.5751,33.9377],[-117.5784,33.9368],[-117.5827,33.9375],[-117.5844,33.9337],[-117.5883,33.9335],[-117.5898,33.9311],[-117.5963,33.9269],[-117.5977,33.9238]]]},"properties":{"GEOID":"0606592130","BASENAME":"Norco","NAME":"Norco CCD","COUNTY":"065","COUSUB":"92130"}},{"type":"Feature","geometry":{"type":"Polygon","coordinates":[[[-117.5292,33.9578],[-117.5268,33.9572],[-117.5263,33.9545],[-117.5238,33.9537],[-117.5238,33.9459],[-117.5165,33.946],[-117.5117,33.9412],[-117.5125,33.9372],[-117.5151,33.9355],[-117.5173,33.93],[-117.512,33.9149],[-117.5141,33.9092],[-117.5108,33.9093],[-117.5106,33.9017],[-117.5078,33.9022],[-117.4944,33.8858],[-117.4909,33.8886],[-117.4831,33.8918],[-117.4783,33.8866],[-117.4745,33.8881],[-117.4717,33.8846],[-117.4671,33.8858],[-117.4524,33.8942],[-117.4466,33.8872],[-117.4102,33.887],[-117.4055,33.8845],[-117.399,33.8771],[-117.3852,33.8683],[-117.3786,33.8586],[-117.375,33.858],[-117.34,33.8579],[-117.3401,33.8763],[-117.3313,33.8764],[-117.3313,33.8801],[-117.3139,33.8803],[-117.3139,33.8657],[-117.2619,33.8658],[-117.2611,33.8662],[-117.2624,33.8701],[-117.2562,33.8702],[-117.2549,33.8699],[-117.2491,33.8618],[-117.2515,33.8616],[-117.2495,33.8609],[-117.2491,33.8581],[-117.247,33.8556],[-117.2439,33.8572],[-117.2438,33.8664],[-117.2261,33.8665],[-117.2263,33.9064],[-117.209,33.9065],[-117.2089,33.9393],[-117.1382,33.9394],[-117.1107,33.9351],[-117.0999,33.9371],[-117.0993,33.94],[-117.1011,33.944],[-117.1069,33.9489],[-117.1171,33.9608],[-117.1371,33.9706],[-117.1491,33.9802],[-117.1804,33.9878],[-117.1946,33.9898],[-117.2018,33.9932],[-117.2123,34.0041],[-117.2254,34.0042],[-117.2255,34.018],[-117.3701,34.0194],[-117.3684,34.0182],[-117.3729,34.0135],[-117.3845,34.0046],[-117.3933,33.9909],[-117.3921,33.9896],[-117.3974,33.9843],[-117.4028,33.9763],[-117.4105,33.9757],[-117.4205,33.9707],[-117.4292,33.9681],[-117.4335,33.9675],[-117.4358,33.9685],[-117.4361,33.9669],[-117.447,33.9669],[-117.4491,33.9651],[-117.4536,33.9651],[-117.4536,33.9669],[-117.4611,33.9645],[-117.4761,33.9647],[-117.4929,33.9699],[-117.499,33.9688],[-117.5057,33.9733],[-117.5056,33.9708],[-117.5123,33.9715],[-117.5232,33.9649],[-117.5258,33.9645],[-117.5275,33.9584],[-117.5292,33.9578]]]},"properties":{"GEOID":"0606592640","BASENAME":"Riverside","NAME":"Riverside CCD","COUNTY":"065","COUSUB":"92640"}},{"type":"Feature","geometry":{"type":"Polygon","coordinates":[[[-117.3633,33.8294],[-117.3629,33.8271],[-117.3601,33.8241],[-117.3599,33.8196],[-117.3582,33.8173],[-117.3579,33.8096],[-117.3597,33.8024],[-117.3589,33.7912],[-117.3544,33.7913],[-117.3499,33.7932],[-117.3452,33.7919],[-117.3453,33.7859],[-117.3473,33.7828],[-117.3467,33.7806],[-117.3364,33.779],[-117.3386,33.7714],[-117.3366,33.7695],[-117.3372,33.7644],[-117.3419,33.7614],[-117.3438,33.7619],[-117.3458,33.7602],[-117.3456,33.7585],[-117.3399,33.7477],[-117.341,33.7446],[-117.3311,33.7315],[-117.3343,33.7211],[-117.3269,33.7168],[-117.3266,33.7089],[-117.3233,33.7063],[-117.3192,33.7093],[-117.3003,33.7163],[-117.2999,33.7133],[-117.2927,33.7133],[-117.2923,33.7106],[-117.2897,33.7079],[-117.29,33.7024],[-117.2883,33.7001],[-117.2795,33.6973],[-117.2689,33.6984],[-117.2674,33.6905],[-117.2721,33.6847],[-117.275,33.6791],[-117.2748,33.6772],[-117.2712,33.6732],[-117.2674,33.6744],[-117.2632,33.6735],[-117.2617,33.6712],[-117.2638,33.6684],[-117.2577,33.6655],[-117.2524,33.6596],[-117.246,33.6592],[-117.242,33.655],[-117.2363,33.6541],[-117.2299,33.6495],[-117.2257,33.6493],[-117.2235,33.6415],[-117.0905,33.6418],[-117.0828,33.6395],[-117.081,33.6372],[-117.0804,33.6381],[-117.075,33.6375],[-117.0694,33.6304],[-117.0618,33.6284],[-117.0515,33.6341],[-117.0473,33.6341],[-117.0445,33.6376],[-117.0398,33.6399],[-117.0355,33.6384],[-117.0236,33.639],[-117.0194,33.6378],[-117.0148,33.6413],[-117.0099,33.6413],[-117.0113,33.6442],[-117.0094,33.647],[-117.0044,33.65],[-117.0092,33.6557],[-117.0086,33.6616],[-117.007,33.6633],[-117.0089,33.6651],[-117.0115,33.6745],[-117.0169,33.6778],[-117.0063,33.6795],[-117.0059,33.6856],[-117.0222,33.6856],[-117.0329,33.6825],[-117.0375,33.6783],[-117.0618,33.6783],[-117.0642,33.6773],[-117.0699,33.6811],[-117.0719,33.6854],[-117.071,33.6901],[-117.0678,33.6921],[-117.0588,33.6952],[-117.0502,33.6957],[-117.0471,33.6985],[-117.0406,33.6993],[-117.0329,33.7053],[-117.0329,33.7454],[-117.036,33.7502],[-117.0363,33.7547],[-117.0333,33.7686],[-117.0337,33.8235],[-117.0373,33.8245],[-117.0599,33.8385],[-117.0686,33.8401],[-117.0681,33.8554],[-117.0441,33.8698],[-117.0672,33.888],[-117.077,33.8908],[-117.0804,33.8931],[-117.0833,33.8983],[-117.0991,33.9165],[-117.1206,33.9282],[-117.1237,33.9315],[-117.1268,33.9382],[-117.1393,33.9394],[-117.2089,33.9393],[-117.209,33.9065],[-117.2263,33.9064],[-117.2261,33.8665],[-117.2438,33.8664],[-117.2439,33.8572],[-117.2473,33.8556],[-117.2495,33.8609],[-117.2515,33.8616],[-117.2491,33.8618],[-117.2549,33.8699],[-117.2627,33.8698],[-117.2487,33.8377],[-117.3483,33.8362],[-117.3623,33.8324],[-117.3633,33.8294]]]},"properties":{"GEOID":"0606592450","BASENAME":"Perris Valley","NAME":"Perris Valley CCD","COUNTY":"065","COUSUB":"92450"}},{"type":"Feature","geometry":{"type":"Polygon","coordinates":[[[-117.6724,33.8703],[-117.6659,33.872],[-117.6579,33.8786],[-117.6555,33.8777],[-117.651,33.8789],[-117.6496,33.8695],[-117.645,33.8687],[-117.6448,33.8594],[-117.632,33.8594],[-117.632,33.8567],[-117.6233,33.8567],[-117.6233,33.8594],[-117.6134,33.8593],[-117.6142,33.8546],[-117.5998,33.8435],[-117.6029,33.8423],[-117.6019,33.8371],[-117.5973,33.8365],[-117.5972,33.8414],[-117.5891,33.8339],[-117.5891,33.8297],[-117.5844,33.8297],[-117.5779,33.8236],[-117.5557,33.8133],[-117.5454,33.8176],[-117.541,33.8176],[-117.5409,33.8213],[-117.5369,33.8214],[-117.5364,33.8358],[-117.5323,33.8418],[-117.5362,33.8449],[-117.5356,33.8539],[-117.5369,33.8597],[-117.5352,33.8609],[-117.5297,33.8627],[-117.5244,33.8601],[-117.5206,33.8533],[-117.5116,33.8523],[-117.5112,33.848],[-117.5091,33.844],[-117.5102,33.8395],[-117.5072,33.8336],[-117.5085,33.8285],[-117.5026,33.8244],[-117.4931,33.8275],[-117.4879,33.8284],[-117.4852,33.8275],[-117.4784,33.8295],[-117.4723,33.8278],[-117.4693,33.8307],[-117.4665,33.8293],[-117.4603,33.8292],[-117.4619,33.8371],[-117.461,33.8405],[-117.4638,33.843],[-117.4637,33.8447],[-117.4586,33.8515],[-117.455,33.8528],[-117.4531,33.858],[-117.4385,33.8582],[-117.4392,33.866],[-117.4365,33.8711],[-117.4361,33.8765],[-117.4342,33.8791],[-117.4375,33.8823],[-117.439,33.887],[-117.4466,33.8872],[-117.4524,33.8942],[-117.4671,33.8858],[-117.4717,33.8846],[-117.4745,33.8881],[-117.4783,33.8866],[-117.4831,33.8918],[-117.4909,33.8886],[-117.4944,33.8858],[-117.5078,33.9022],[-117.5106,33.9017],[-117.5108,33.9093],[-117.5152,33.9092],[-117.5149,33.9023],[-117.5236,33.9021],[-117.5242,33.9044],[-117.5257,33.9043],[-117.5262,33.9079],[-117.5379,33.9025],[-117.5389,33.901],[-117.5385,33.8979],[-117.5399,33.8974],[-117.5457,33.8986],[-117.5508,33.8962],[-117.5542,33.8994],[-117.5543,33.9019],[-117.5569,33.902],[-117.5573,33.9],[-117.56,33.8986],[-117.5584,33.8949],[-117.5628,33.896],[-117.5666,33.8937],[-117.5686,33.8958],[-117.5678,33.8966],[-117.5691,33.8962],[-117.5721,33.8996],[-117.5703,33.9007],[-117.5763,33.9075],[-117.5799,33.9053],[-117.5976,33.9237],[-117.6085,33.9125],[-117.6149,33.9072],[-117.6189,33.9055],[-117.6213,33.9025],[-117.6256,33.9015],[-117.6296,33.8963],[-117.6364,33.8936],[-117.6423,33.893],[-117.6449,33.8908],[-117.6434,33.8865],[-117.645,33.8835],[-117.6488,33.8822],[-117.6519,33.8827],[-117.6589,33.8865],[-117.6655,33.8835],[-117.6689,33.8723],[-117.6724,33.8703]]]},"properties":{"GEOID":"0606590590","BASENAME":"Corona","NAME":"Corona CCD","COUNTY":"065","COUSUB":"90590"}},{"type":"Feature","geometry":{"type":"Polygon","coordinates":[[[-117.6763,33.8886],[-117.6728,33.8867],[-117.669,33.8808],[-117.6732,33.8754],[-117.6708,33.8743],[-117.6731,33.871],[-117.6724,33.8703],[-117.6689,33.8723],[-117.6658,33.8833],[-117.6589,33.8865],[-117.6519,33.8827],[-117.6488,33.8822],[-117.6448,33.8836],[-117.6434,33.8865],[-117.6449,33.8908],[-117.6423,33.893],[-117.6364,33.8936],[-117.6296,33.8963],[-117.6256,33.9015],[-117.6213,33.9025],[-117.6189,33.9055],[-117.6149,33.9072],[-117.6,33.9209],[-117.5963,33.9269],[-117.5898,33.9311],[-117.5883,33.9335],[-117.584,33.9341],[-117.5833,33.9372],[-117.5751,33.9377],[-117.5653,33.9434],[-117.5633,33.9464],[-117.5576,33.9457],[-117.5512,33.947],[-117.5459,33.9543],[-117.5443,33.9535],[-117.5388,33.9564],[-117.5298,33.9572],[-117.5275,33.9584],[-117.5258,33.9645],[-117.5232,33.9649],[-117.5123,33.9715],[-117.5056,33.9708],[-117.5057,33.9733],[-117.499,33.9688],[-117.4929,33.9699],[-117.4761,33.9647],[-117.4611,33.9645],[-117.4536,33.9669],[-117.4536,33.9651],[-117.4491,33.9651],[-117.447,33.9669],[-117.4361,33.9669],[-117.4358,33.9685],[-117.4335,33.9675],[-117.4292,33.9681],[-117.4205,33.9707],[-117.4105,33.9757],[-117.4028,33.9763],[-117.3974,33.9843],[-117.3921,33.9896],[-117.3933,33.9909],[-117.3845,34.0046],[-117.3684,34.0182],[-117.3701,34.0194],[-117.3754,34.0194],[-117.3754,34.0254],[-117.3773,34.0267],[-117.3742,34.0308],[-117.3753,34.0339],[-117.5583,34.0335],[-117.5584,33.9884],[-117.6109,33.9718],[-117.611,33.9242],[-117.6552,33.9249],[-117.6548,33.8887],[-117.6763,33.8886]]]},"properties":{"GEOID":"0606591450","BASENAME":"Jurupa","NAME":"Jurupa CCD","COUNTY":"065","COUSUB":"91450"}},{"type":"Feature","geometry":{"type":"Polygon","coordinates":[[[-116.9396,33.6005],[-116.9391,33.5918],[-116.9377,33.589],[-116.9334,33.5853],[-116.9326,33.5818],[-116.9266,33.573],[-116.925,33.572],[-116.9217,33.5725],[-116.9219,33.569],[-116.92,33.5659],[-116.9089,33.5541],[-116.9086,33.5502],[-116.9061,33.5448],[-116.9079,33.5416],[-116.9074,33.5357],[-116.9094,33.5325],[-116.9069,33.5294],[-116.9006,33.53],[-116.8992,33.5289],[-116.9012,33.5197],[-116.8971,33.5098],[-116.8967,33.5031],[-116.9025,33.4957],[-116.9064,33.4947],[-116.9117,33.4857],[-116.9127,33.4832],[-116.9119,33.479],[-116.914,33.4747],[-116.9125,33.4686],[-116.9145,33.4639],[-116.9086,33.4602],[-116.9035,33.4594],[-116.8997,33.4571],[-116.8938,33.4489],[-116.882,33.4438],[-116.8702,33.4443],[-116.8532,33.4398],[-116.8495,33.4371],[-116.8489,33.4331],[-116.8428,33.4342],[-116.8381,33.4301],[-116.8367,33.4269],[-116.2985,33.4275],[-116.1977,33.4289],[-116.1126,33.4263],[-116.1128,33.4909],[-116.1193,33.4989],[-116.1301,33.4988],[-116.1298,33.5106],[-116.1388,33.5253],[-116.2156,33.5259],[-116.2157,33.5636],[-116.2503,33.5633],[-116.2503,33.5837],[-116.2849,33.5838],[-116.285,33.5981],[-116.268,33.5981],[-116.2681,33.6127],[-116.3215,33.6126],[-116.3215,33.642],[-116.3992,33.642],[-116.404,33.6338],[-116.4026,33.6313],[-116.4037,33.6254],[-116.4115,33.6218],[-116.4153,33.6152],[-116.4146,33.6129],[-116.4161,33.6094],[-116.4203,33.6075],[-116.4191,33.6033],[-116.4217,33.6008],[-116.4214,33.5982],[-116.4258,33.5982],[-116.4255,33.6272],[-116.4602,33.6273],[-116.4602,33.6125],[-116.4775,33.6124],[-116.4775,33.627],[-116.4948,33.6269],[-116.495,33.656],[-116.5121,33.6559],[-116.5122,33.6849],[-116.6144,33.6847],[-116.6143,33.7722],[-116.6157,33.7722],[-116.6144,33.7737],[-116.6144,33.7869],[-116.6157,33.7869],[-116.6156,33.8015],[-116.6144,33.8015],[-116.6145,33.816],[-116.6154,33.816],[-116.6147,33.8592],[-116.6327,33.8592],[-116.6326,33.8738],[-116.6669,33.8738],[-116.6673,33.8591],[-116.6847,33.859],[-116.6847,33.8881],[-116.6839,33.8883],[-116.6864,33.8907],[-116.6838,33.8921],[-116.6814,33.8972],[-116.6697,33.9115],[-116.6913,33.9178],[-116.6953,33.9214],[-116.7022,33.9168],[-116.7287,33.9166],[-116.7303,33.9154],[-116.7307,33.9099],[-116.737,33.9061],[-116.7369,33.9034],[-116.7199,33.9033],[-116.7199,33.8862],[-116.772,33.8861],[-116.7719,33.8787],[-116.7894,33.8787],[-116.7894,33.886],[-116.8243,33.8862],[-116.8244,33.8571],[-116.8424,33.857],[-116.8426,33.842],[-116.8597,33.842],[-116.8599,33.8021],[-116.8419,33.802],[-116.8411,33.7536],[-116.8413,33.6865],[-116.8585,33.6865],[-116.8584,33.6218],[-116.8608,33.6216],[-116.868,33.6261],[-116.8681,33.6313],[-116.8716,33.6339],[-116.8856,33.6318],[-116.8943,33.6324],[-116.8961,33.6315],[-116.8973,33.6278],[-116.9003,33.6262],[-116.9002,33.6194],[-116.9028,33.6161],[-116.9128,33.6167],[-116.9167,33.6159],[-116.9213,33.6132],[-116.929,33.6128],[-116.9324,33.6108],[-116.9348,33.6113],[-116.9396,33.6005]]]},"properties":{"GEOID":"0606591370","BASENAME":"Idyllwild","NAME":"Idyllwild CCD","COUNTY":"065","COUSUB":"91370"}},{"type":"Feature","geometry":{"type":"Polygon","coordinates":[[[-116.7374,33.9472],[-116.7372,33.9329],[-116.7197,33.9327],[-116.7197,33.9318],[-116.7198,33.9179],[-116.7373,33.918],[-116.737,33.9061],[-116.7307,33.9099],[-116.7303,33.9154],[-116.7287,33.9166],[-116.7022,33.9168],[-116.6953,33.9214],[-116.6913,33.9178],[-116.6697,33.9115],[-116.6676,33.9141],[-116.6606,33.9125],[-116.65,33.9055],[-116.6378,33.901],[-116.6377,33.9034],[-116.6243,33.9034],[-116.6044,33.9006],[-116.5567,33.9016],[-116.5504,33.8994],[-116.5403,33.8929],[-116.5284,33.8884],[-116.4761,33.8572],[-116.4761,33.8594],[-116.4233,33.8594],[-116.4235,33.8453],[-116.4057,33.8454],[-116.4064,33.8228],[-116.4012,33.8164],[-116.4058,33.8157],[-116.3233,33.7668],[-116.3018,33.7595],[-116.301,33.7614],[-116.3037,33.7618],[-116.3037,33.765],[-116.3011,33.7652],[-116.3037,33.7711],[-116.3011,33.776],[-116.3012,33.8039],[-116.3269,33.8162],[-116.3267,33.8193],[-116.3067,33.836],[-116.3101,33.842],[-116.3108,33.8492],[-116.3065,33.857],[-116.3018,33.8756],[-116.2809,33.8859],[-116.2768,33.8895],[-116.2719,33.891],[-116.2666,33.8893],[-116.2738,33.8943],[-116.2749,33.8988],[-116.2768,33.8988],[-116.277,33.894],[-116.3187,33.913],[-116.3188,33.915],[-116.3231,33.915],[-116.325,33.9158],[-116.3246,33.9167],[-116.3273,33.9166],[-116.3795,33.937],[-116.3794,33.9398],[-116.3839,33.9397],[-116.3839,33.9388],[-116.3967,33.9422],[-116.3967,33.9436],[-116.3995,33.9437],[-116.4413,33.9698],[-116.4413,33.9719],[-116.4446,33.9719],[-116.4446,33.9736],[-116.4469,33.9736],[-116.4469,33.9719],[-116.4585,33.9753],[-116.4578,34.0329],[-116.6156,34.0326],[-116.7197,34.0338],[-116.7197,33.9618],[-116.7284,33.9617],[-116.7285,33.9545],[-116.7197,33.9546],[-116.7197,33.9473],[-116.7374,33.9472]]]},"properties":{"GEOID":"0606590670","BASENAME":"Desert Hot Springs","NAME":"Desert Hot Springs CCD","COUNTY":"065","COUSUB":"90670"}},{"type":"Feature","geometry":{"type":"Polygon","coordinates":[[[-117.505,33.8244],[-117.4983,33.818],[-117.4994,33.8062],[-117.4924,33.7984],[-117.4899,33.7884],[-117.4841,33.784],[-117.4754,33.7829],[-117.4731,33.7813],[-117.4727,33.7772],[-117.4699,33.7709],[-117.4721,33.7646],[-117.4707,33.7626],[-117.4724,33.762],[-117.4589,33.7554],[-117.4508,33.7475],[-117.4412,33.7432],[-117.4307,33.7405],[-117.4196,33.734],[-117.4057,33.733],[-117.3984,33.7304],[-117.3893,33.7297],[-117.372,33.7256],[-117.3638,33.7191],[-117.3581,33.7071],[-117.3532,33.7081],[-117.3475,33.7071],[-117.3416,33.71],[-117.3339,33.7192],[-117.3339,33.725],[-117.3309,33.7294],[-117.3327,33.7348],[-117.341,33.7446],[-117.3399,33.7477],[-117.3458,33.7601],[-117.3438,33.7619],[-117.3423,33.7612],[-117.3375,33.7638],[-117.3366,33.7695],[-117.3386,33.7715],[-117.3364,33.779],[-117.3467,33.7806],[-117.3473,33.7828],[-117.3453,33.7859],[-117.3452,33.7919],[-117.3499,33.7932],[-117.3544,33.7913],[-117.3589,33.7912],[-117.3597,33.8024],[-117.3579,33.8096],[-117.3582,33.8173],[-117.3599,33.8196],[-117.3601,33.8241],[-117.3631,33.8274],[-117.3623,33.8324],[-117.3477,33.8362],[-117.2487,33.8377],[-117.2611,33.8662],[-117.3139,33.8657],[-117.3139,33.8803],[-117.3313,33.8801],[-117.3313,33.8764],[-117.3401,33.8763],[-117.34,33.8579],[-117.3751,33.858],[-117.3786,33.8586],[-117.3852,33.8683],[-117.399,33.8771],[-117.408,33.8862],[-117.439,33.887],[-117.4375,33.8823],[-117.4342,33.8791],[-117.4361,33.8765],[-117.4365,33.8711],[-117.4392,33.866],[-117.4385,33.8582],[-117.4531,33.858],[-117.455,33.8528],[-117.4586,33.8515],[-117.4628,33.846],[-117.464,33.8437],[-117.461,33.8407],[-117.4619,33.8371],[-117.4603,33.8292],[-117.4665,33.8293],[-117.4693,33.8307],[-117.4727,33.8278],[-117.4784,33.8295],[-117.505,33.8244]]]},"properties":{"GEOID":"0606591530","BASENAME":"Lake Mathews","NAME":"Lake Mathews CCD","COUNTY":"065","COUSUB":"91530"}},{"type":"Feature","geometry":{"type":"Polygon","coordinates":[[[-116.6864,33.8907],[-116.6839,33.8883],[-116.6847,33.8881],[-116.6847,33.859],[-116.6673,33.8591],[-116.6669,33.8738],[-116.6326,33.8738],[-116.6327,33.8592],[-116.6147,33.8592],[-116.6154,33.816],[-116.6145,33.816],[-116.6144,33.8015],[-116.6156,33.8015],[-116.6157,33.7869],[-116.6144,33.7869],[-116.6144,33.7737],[-116.6157,33.7722],[-116.6143,33.7722],[-116.6144,33.6847],[-116.5122,33.6849],[-116.5121,33.6559],[-116.495,33.656],[-116.4948,33.6269],[-116.4775,33.627],[-116.4775,33.6124],[-116.4602,33.6125],[-116.4601,33.6416],[-116.4428,33.6416],[-116.4428,33.6561],[-116.4602,33.656],[-116.4607,33.7427],[-116.4778,33.7427],[-116.4777,33.7594],[-116.4816,33.7607],[-116.4773,33.7724],[-116.4755,33.7724],[-116.4756,33.8159],[-116.5107,33.8159],[-116.5106,33.8304],[-116.5282,33.8304],[-116.5282,33.8449],[-116.5106,33.8449],[-116.5106,33.8486],[-116.5107,33.855],[-116.5221,33.8648],[-116.5287,33.8687],[-116.5383,33.8705],[-116.5555,33.8704],[-116.5641,33.869],[-116.5706,33.8663],[-116.5899,33.8796],[-116.6213,33.8985],[-116.6285,33.8981],[-116.6365,33.9006],[-116.65,33.9055],[-116.6599,33.9122],[-116.6676,33.9141],[-116.6814,33.8972],[-116.6838,33.8921],[-116.6864,33.8907]]]},"properties":{"GEOID":"0606592340","BASENAME":"Palm Springs","NAME":"Palm Springs CCD","COUNTY":"065","COUSUB":"92340"}},{"type":"Feature","geometry":{"type":"Polygon","coordinates":[[[-117.2123,34.0041],[-117.2018,33.9932],[-117.1972,33.9908],[-117.1502,33.9807],[-117.1371,33.9706],[-117.1171,33.9608],[-117.1069,33.9489],[-117.1011,33.944],[-117.0995,33.9386],[-117.0999,33.9371],[-117.1103,33.9351],[-117.1268,33.9382],[-117.1225,33.9298],[-117.0997,33.9171],[-117.0833,33.8983],[-117.0804,33.8931],[-117.077,33.8908],[-117.0672,33.888],[-117.0473,33.8717],[-117.0395,33.8669],[-117.0335,33.8666],[-117.03,33.8651],[-117.02,33.8583],[-117.0092,33.8464],[-117.0041,33.8457],[-117.0095,33.857],[-117.0009,33.8573],[-116.9325,33.818],[-116.9077,33.8171],[-116.896,33.8053],[-116.8856,33.8055],[-116.8857,33.8088],[-116.8758,33.8093],[-116.8757,33.8018],[-116.8599,33.8021],[-116.8597,33.842],[-116.8426,33.842],[-116.8424,33.857],[-116.8244,33.8571],[-116.8243,33.8862],[-116.7894,33.886],[-116.7894,33.8787],[-116.7719,33.8787],[-116.772,33.8861],[-116.7199,33.8862],[-116.7199,33.9033],[-116.7369,33.9034],[-116.7373,33.918],[-116.7198,33.9179],[-116.7197,33.9327],[-116.7372,33.9329],[-116.7374,33.9472],[-116.7197,33.9473],[-116.7197,33.9546],[-116.7285,33.9545],[-116.7284,33.9617],[-116.7197,33.9618],[-116.7197,34.0338],[-116.9296,34.0341],[-116.9294,34.0049],[-117.1213,34.0035],[-117.2123,34.0041]]]},"properties":{"GEOID":"0606592810","BASENAME":"San Gorgonio Pass","NAME":"San Gorgonio Pass CCD","COUNTY":"065","COUSUB":"92810"}},{"type":"Feature","geometry":{"type":"Polygon","coordinates":[[[-116.6378,33.9012],[-116.6285,33.8981],[-116.6213,33.8985],[-116.5899,33.8796],[-116.5706,33.8663],[-116.5641,33.869],[-116.5555,33.8704],[-116.5339,33.8701],[-116.5258,33.8674],[-116.5107,33.855],[-116.5106,33.8449],[-116.5282,33.8449],[-116.5282,33.8304],[-116.5106,33.8304],[-116.5107,33.8159],[-116.4756,33.8159],[-116.4755,33.7724],[-116.4773,33.7724],[-116.4816,33.7607],[-116.4777,33.7594],[-116.4778,33.7427],[-116.4607,33.7427],[-116.4602,33.656],[-116.4428,33.6561],[-116.4428,33.6416],[-116.4601,33.6416],[-116.4602,33.6273],[-116.4255,33.6272],[-116.4258,33.5982],[-116.4214,33.5982],[-116.4217,33.6008],[-116.4191,33.6033],[-116.4203,33.6075],[-116.4161,33.6094],[-116.4146,33.6129],[-116.4153,33.6152],[-116.4115,33.6218],[-116.4037,33.6254],[-116.4026,33.6313],[-116.404,33.6338],[-116.3992,33.642],[-116.3215,33.642],[-116.3215,33.6126],[-116.2681,33.6127],[-116.2681,33.627],[-116.2722,33.6286],[-116.2779,33.6342],[-116.2782,33.6375],[-116.274,33.6389],[-116.2743,33.6431],[-116.2762,33.6506],[-116.2799,33.6551],[-116.2765,33.66],[-116.277,33.6667],[-116.2685,33.6671],[-116.2688,33.7073],[-116.2797,33.7073],[-116.2879,33.7089],[-116.2949,33.715],[-116.2958,33.72],[-116.3031,33.7265],[-116.3038,33.7546],[-116.3018,33.7595],[-116.3233,33.7668],[-116.4058,33.8157],[-116.4012,33.8164],[-116.4064,33.8228],[-116.4057,33.8454],[-116.4235,33.8453],[-116.4233,33.8594],[-116.4761,33.8594],[-116.4761,33.8572],[-116.5284,33.8884],[-116.5403,33.8929],[-116.5504,33.8994],[-116.556,33.9014],[-116.6044,33.9006],[-116.6243,33.9034],[-116.6377,33.9034],[-116.6378,33.9012]]]},"properties":{"GEOID":"0606590410","BASENAME":"Cathedral City-Palm Desert","NAME":"Cathedral City-Palm Desert CCD","COUNTY":"065","COUSUB":"90410"}},{"type":"Feature","geometry":{"type":"Polygon","coordinates":[[[-116.3267,33.8166],[-116.3012,33.8039],[-116.3011,33.776],[-116.3037,33.7711],[-116.3011,33.7652],[-116.3037,33.765],[-116.3037,33.7618],[-116.301,33.7614],[-116.3038,33.7546],[-116.3033,33.7268],[-116.2961,33.7203],[-116.2949,33.715],[-116.2885,33.7092],[-116.2797,33.7073],[-116.2688,33.7073],[-116.2685,33.6671],[-116.277,33.6667],[-116.2765,33.66],[-116.2799,33.6551],[-116.2762,33.6506],[-116.2743,33.6431],[-116.274,33.6389],[-116.2782,33.6375],[-116.2779,33.6342],[-116.2722,33.6286],[-116.2681,33.627],[-116.268,33.5981],[-116.285,33.5981],[-116.2849,33.5838],[-116.2503,33.5837],[-116.2503,33.5633],[-116.2157,33.5636],[-116.2156,33.5259],[-116.1388,33.5253],[-116.1298,33.5106],[-116.1301,33.4988],[-116.1193,33.4989],[-116.1128,33.4909],[-116.1126,33.4263],[-115.6775,33.4274],[-115.6808,33.429],[-115.6905,33.4385],[-115.7034,33.4446],[-115.7138,33.4548],[-115.7137,33.4535],[-115.7309,33.4581],[-115.7493,33.4682],[-115.7636,33.4881],[-115.7666,33.4967],[-115.7662,33.5057],[-115.768,33.5089],[-115.7786,33.5108],[-115.8061,33.5114],[-115.82,33.5149],[-115.8313,33.5213],[-115.848,33.5215],[-115.8611,33.52],[-115.9101,33.5277],[-115.9133,33.5333],[-115.918,33.536],[-115.9226,33.5444],[-115.9289,33.5485],[-115.9303,33.5511],[-115.9337,33.5535],[-115.9456,33.5557],[-115.9565,33.5657],[-115.9648,33.5665],[-115.9839,33.5649],[-115.9901,33.5661],[-115.9963,33.5696],[-115.9914,33.5696],[-115.9914,33.5842],[-116.0086,33.5842],[-116.0088,33.5989],[-116.0261,33.5989],[-116.0264,33.5864],[-116.0325,33.5876],[-116.0385,33.5926],[-116.0484,33.6052],[-116.0548,33.6092],[-116.0659,33.6203],[-116.0717,33.6284],[-116.0733,33.635],[-116.0782,33.6376],[-116.0851,33.6376],[-116.0902,33.6412],[-116.0939,33.6487],[-116.1032,33.6575],[-116.1056,33.6678],[-116.1128,33.6748],[-116.115,33.6795],[-116.1221,33.6849],[-116.1361,33.7],[-116.1405,33.7025],[-116.1547,33.7149],[-116.1582,33.7213],[-116.1642,33.7265],[-116.1643,33.7479],[-116.1865,33.801],[-116.2424,33.8449],[-116.2486,33.8457],[-116.2487,33.8483],[-116.2904,33.8706],[-116.3018,33.8756],[-116.3065,33.857],[-116.3108,33.8492],[-116.3101,33.842],[-116.3067,33.836],[-116.3157,33.8277],[-116.326,33.8204],[-116.3267,33.8166]]]},"properties":{"GEOID":"0606590520","BASENAME":"Coachella Valley","NAME":"Coachella Valley CCD","COUNTY":"065","COUSUB":"90520"}}]}