{"type":"FeatureCollection","features":[{"type":"Feature","geometry":{"type":"Polygon","coordinates":[[[-121.8625,38.0679],[-121.8625,38.066],[-121.8536,38.0648],[-121.8468,38.06],[-121.8417,38.052],[-121.8379,38.0389],[-121.8321,38.0311],[-121.8182,38.0222],[-121.8107,38.0203],[-121.8013,38.0216],[-121.7896,38.0185],[-121.7775,38.0189],[-121.7635,38.0235],[-121.7489,38.0244],[-121.7378,38.0266],[-121.7256,38.0338],[-121.7096,38.0399],[-121.6998,38.0452],[-121.6809,38.0621],[-121.6796,38.0695],[-121.6819,38.082],[-121.6793,38.0893],[-121.6731,38.0935],[-121.6619,38.0956],[-121.6452,38.0874],[-121.6381,38.0861],[-121.6326,38.0886],[-121.629,38.0973],[-121.6274,38.0984],[-121.6049,38.0999],[-121.5853,38.0964],[-121.5813,38.0939],[-121.5655,38.0985],[-121.564,38.1014],[-121.5658,38.1053],[-121.582,38.112],[-121.5835,38.1135],[-121.5841,38.1202],[-121.5763,38.1291],[-121.5624,38.136],[-121.5577,38.1368],[-121.5573,38.1391],[-121.5601,38.1421],[-121.5592,38.1439],[-121.5506,38.1456],[-121.5472,38.1481],[-121.5438,38.1473],[-121.5414,38.1519],[-121.5363,38.1516],[-121.5345,38.1557],[-121.5362,38.1582],[-121.5337,38.16],[-121.5335,38.1626],[-121.5312,38.1633],[-121.5293,38.169],[-121.5243,38.1727],[-121.5278,38.1817],[-121.5245,38.1855],[-121.5289,38.193],[-121.5289,38.1953],[-121.5256,38.1973],[-121.5207,38.2029],[-121.5136,38.2024],[-121.5116,38.2033],[-121.5083,38.2071],[-121.5078,38.2096],[-121.5047,38.2115],[-121.5075,38.2226],[-121.5064,38.2246],[-121.5112,38.229],[-121.4992,38.235],[-121.4968,38.2416],[-121.4992,38.2552],[-121.4939,38.2595],[-121.4952,38.2633],[-121.4985,38.2657],[-121.4969,38.2693],[-121.4983,38.2731],[-121.4985,38.2799],[-121.5041,38.2849],[-121.5057,38.2904],[-121.5105,38.2956],[-121.5112,38.3074],[-121.5175,38.3129],[-121.519,38.3198],[-121.5183,38.3217],[-121.5211,38.3283],[-121.521,38.3325],[-121.5248,38.3377],[-121.5368,38.3453],[-121.5369,38.3478],[-121.5594,38.3426],[-121.5756,38.327],[-121.5809,38.3311],[-121.5835,38.3319],[-121.5848,38.3308],[-121.5852,38.3255],[-121.5898,38.3227],[-121.5901,38.3182],[-121.5922,38.314],[-121.5987,38.3099],[-121.5976,38.3072],[-121.5997,38.3046],[-121.5999,38.3015],[-121.6052,38.2961],[-121.6039,38.2895],[-121.6054,38.2857],[-121.6014,38.2813],[-121.6007,38.2784],[-121.604,38.2701],[-121.6002,38.2578],[-121.6021,38.252],[-121.6018,38.2447],[-121.6032,38.2373],[-121.6021,38.2216],[-121.6104,38.2084],[-121.6121,38.2001],[-121.6145,38.1965],[-121.617,38.1951],[-121.6238,38.1932],[-121.6323,38.1943],[-121.6421,38.19],[-121.6466,38.186],[-121.6629,38.1819],[-121.678,38.1649],[-121.6856,38.1596],[-121.6877,38.1468],[-121.6921,38.1331],[-121.6984,38.1213],[-121.7052,38.1138],[-121.7072,38.1098],[-121.7084,38.0915],[-121.7109,38.0865],[-121.7139,38.0845],[-121.7293,38.0823],[-121.7432,38.0872],[-121.8001,38.0596],[-121.8108,38.0608],[-121.8279,38.0662],[-121.8376,38.0744],[-121.8424,38.0767],[-121.8596,38.0711],[-121.8625,38.0679]]]},"properties":{"GEOID":"0606791416","BASENAME":"Isleton","NAME":"Isleton CCD","COUNTY":"067","COUSUB":"91416"}},{"type":"Feature","geometry":{"type":"Polygon","coordinates":[[[-121.4398,38.2558],[-121.4344,38.2543],[-121.4293,38.2548],[-121.4276,38.2516],[-121.4251,38.2504],[-121.4254,38.2468],[-121.4277,38.2457],[-121.4205,38.2372],[-121.4157,38.2356],[-121.4112,38.2319],[-121.4099,38.233],[-121.4052,38.23],[-121.4017,38.2307],[-121.3984,38.2274],[-121.396,38.2277],[-121.3952,38.2295],[-121.3891,38.2332],[-121.3852,38.2313],[-121.3825,38.2321],[-121.3786,38.2306],[-121.3732,38.2311],[-121.3709,38.2297],[-121.3663,38.2312],[-121.3632,38.2283],[-121.3624,38.2299],[-121.3547,38.231],[-121.3448,38.2282],[-121.3423,38.2296],[-121.3382,38.2291],[-121.3293,38.2328],[-121.322,38.2326],[-121.3177,38.2352],[-121.309,38.2358],[-121.3053,38.2348],[-121.2955,38.2376],[-121.2925,38.239],[-121.288,38.2458],[-121.283,38.2497],[-121.2774,38.2491],[-121.2684,38.2523],[-121.259,38.2503],[-121.2476,38.2454],[-121.2424,38.2454],[-121.2375,38.2475],[-121.2318,38.2467],[-121.2293,38.2475],[-121.223,38.2444],[-121.215,38.2488],[-121.2034,38.2488],[-121.192,38.2567],[-121.182,38.2568],[-121.1792,38.2551],[-121.1731,38.2552],[-121.1705,38.2576],[-121.1634,38.2604],[-121.157,38.2608],[-121.147,38.2639],[-121.1416,38.2692],[-121.1377,38.2716],[-121.1338,38.2719],[-121.1278,38.2774],[-121.1163,38.2774],[-121.1095,38.2811],[-121.1022,38.2832],[-121.0942,38.2819],[-121.0928,38.2838],[-121.0894,38.2841],[-121.0858,38.287],[-121.0838,38.2865],[-121.0793,38.2896],[-121.0784,38.2916],[-121.0741,38.2931],[-121.0667,38.2991],[-121.0617,38.2989],[-121.0534,38.2932],[-121.047,38.2913],[-121.0406,38.2977],[-121.0271,38.3003],[-121.0272,38.3977],[-121.0306,38.3994],[-121.0296,38.4018],[-121.0316,38.4043],[-121.037,38.4045],[-121.0438,38.4076],[-121.0443,38.409],[-121.0473,38.4084],[-121.0508,38.4114],[-121.058,38.4121],[-121.0616,38.4142],[-121.0652,38.4143],[-121.0704,38.4175],[-121.0805,38.4194],[-121.0899,38.4184],[-121.0919,38.4223],[-121.0957,38.4237],[-121.0989,38.4227],[-121.1018,38.4248],[-121.1042,38.4232],[-121.1074,38.424],[-121.1111,38.4228],[-121.1127,38.4191],[-121.1165,38.4165],[-121.1198,38.4173],[-121.1221,38.4154],[-121.1247,38.4154],[-121.1264,38.413],[-121.1247,38.4103],[-121.1288,38.4095],[-121.1315,38.4043],[-121.1491,38.4033],[-121.1509,38.4379],[-121.1602,38.4377],[-121.1601,38.4439],[-121.1816,38.4565],[-121.1836,38.4527],[-121.196,38.4597],[-121.1961,38.4581],[-121.2067,38.4608],[-121.2093,38.4586],[-121.2117,38.4537],[-121.211,38.4515],[-121.2145,38.4467],[-121.22,38.4473],[-121.2297,38.4408],[-121.237,38.44],[-121.2379,38.4312],[-121.2452,38.4255],[-121.2542,38.4256],[-121.2587,38.4217],[-121.2653,38.4189],[-121.2664,38.4168],[-121.2781,38.4178],[-121.2797,38.4169],[-121.2826,38.4101],[-121.2861,38.4054],[-121.2913,38.4053],[-121.2915,38.4006],[-121.2959,38.399],[-121.2977,38.3908],[-121.3001,38.3884],[-121.3002,38.3849],[-121.3058,38.3823],[-121.3137,38.3816],[-121.3192,38.3789],[-121.3247,38.3729],[-121.3239,38.369],[-121.3264,38.3652],[-121.3346,38.3642],[-121.3421,38.3602],[-121.3477,38.354],[-121.3516,38.3465],[-121.3514,38.3417],[-121.3529,38.3401],[-121.3529,38.3376],[-121.3591,38.3343],[-121.3659,38.3278],[-121.3674,38.3237],[-121.3709,38.3206],[-121.3708,38.3172],[-121.3743,38.3144],[-121.3824,38.3019],[-121.3829,38.2998],[-121.3797,38.2946],[-121.3822,38.2843],[-121.381,38.2806],[-121.39,38.2745],[-121.3887,38.2707],[-121.3988,38.2615],[-121.4018,38.2547],[-121.4068,38.2534],[-121.4225,38.2545],[-121.4261,38.2571],[-121.4299,38.2575],[-121.4373,38.2571],[-121.4398,38.2558]]]},"properties":{"GEOID":"0606791090","BASENAME":"Galt","NAME":"Galt CCD","COUNTY":"067","COUSUB":"91090"}},{"type":"Feature","geometry":{"type":"Polygon","coordinates":[[[-121.2612,38.528],[-121.2607,38.4723],[-121.2565,38.4723],[-121.2368,38.4618],[-121.234,38.4577],[-121.2299,38.4569],[-121.2277,38.4545],[-121.2252,38.4552],[-121.2221,38.459],[-121.2111,38.4547],[-121.2067,38.4608],[-121.1961,38.4581],[-121.196,38.4597],[-121.1836,38.4527],[-121.1816,38.4565],[-121.1624,38.4454],[-121.16,38.4437],[-121.1602,38.4377],[-121.1509,38.4379],[-121.1491,38.4033],[-121.1315,38.4043],[-121.1288,38.4095],[-121.1247,38.4103],[-121.1264,38.413],[-121.1247,38.4154],[-121.1221,38.4154],[-121.1198,38.4173],[-121.1165,38.4165],[-121.1127,38.4191],[-121.1111,38.4228],[-121.1074,38.424],[-121.1042,38.4232],[-121.1018,38.4248],[-121.0989,38.4227],[-121.0957,38.4237],[-121.0919,38.4223],[-121.0899,38.4184],[-121.0805,38.4194],[-121.0704,38.4175],[-121.0652,38.4143],[-121.0616,38.4142],[-121.058,38.4121],[-121.0508,38.4114],[-121.0473,38.4084],[-121.0443,38.409],[-121.0438,38.4076],[-121.037,38.4045],[-121.0316,38.4043],[-121.0296,38.4018],[-121.0306,38.3994],[-121.0272,38.3977],[-121.0274,38.5081],[-121.0705,38.6076],[-121.0793,38.6329],[-121.0838,38.6284],[-121.116,38.6217],[-121.1225,38.6192],[-121.1394,38.6177],[-121.1493,38.6152],[-121.1787,38.603],[-121.1753,38.598],[-121.1874,38.5811],[-121.1878,38.5345],[-121.2233,38.5019],[-121.2425,38.5058],[-121.2427,38.5256],[-121.2522,38.5256],[-121.2612,38.528]]]},"properties":{"GEOID":"0606793030","BASENAME":"Sloughhouse","NAME":"Sloughhouse CCD","COUNTY":"067","COUSUB":"93030"}},{"type":"Feature","geometry":{"type":"Polygon","coordinates":[[[-121.419,38.4743],[-121.3879,38.4077],[-121.3768,38.3914],[-121.3436,38.3576],[-121.3418,38.3604],[-121.3366,38.3635],[-121.3264,38.3652],[-121.3239,38.369],[-121.3247,38.3729],[-121.3192,38.3789],[-121.3137,38.3816],[-121.3058,38.3823],[-121.3002,38.3849],[-121.3001,38.3884],[-121.2977,38.3908],[-121.2959,38.399],[-121.2915,38.4006],[-121.2913,38.4053],[-121.2861,38.4054],[-121.2795,38.417],[-121.2781,38.4178],[-121.2664,38.4168],[-121.2653,38.4189],[-121.2587,38.4217],[-121.2542,38.4256],[-121.2455,38.4254],[-121.2379,38.4312],[-121.237,38.44],[-121.2297,38.4408],[-121.22,38.4473],[-121.2147,38.4466],[-121.2109,38.4518],[-121.2111,38.4547],[-121.2203,38.4592],[-121.2223,38.459],[-121.2252,38.4552],[-121.2277,38.4545],[-121.2299,38.4569],[-121.234,38.4577],[-121.2368,38.4618],[-121.2565,38.4723],[-121.2607,38.4723],[-121.2608,38.4851],[-121.2649,38.4851],[-121.2654,38.4833],[-121.268,38.483],[-121.2716,38.485],[-121.2789,38.4863],[-121.2794,38.4851],[-121.2845,38.4833],[-121.2829,38.4801],[-121.2852,38.4802],[-121.2861,38.4786],[-121.2912,38.4772],[-121.2917,38.4752],[-121.2976,38.4703],[-121.2977,38.4816],[-121.4088,38.4817],[-121.4087,38.4744],[-121.419,38.4743]]]},"properties":{"GEOID":"0606790870","BASENAME":"Elk Grove","NAME":"Elk Grove CCD","COUNTY":"067","COUSUB":"90870"}},{"type":"Feature","geometry":{"type":"Polygon","coordinates":[[[-121.6342,38.6898],[-121.6319,38.6806],[-121.6287,38.6754],[-121.6096,38.6611],[-121.5941,38.6441],[-121.5898,38.6424],[-121.5872,38.6427],[-121.5761,38.6486],[-121.5705,38.6476],[-121.5669,38.6451],[-121.5651,38.6423],[-121.5616,38.6186],[-121.5583,38.6082],[-121.5499,38.5994],[-121.5446,38.5977],[-121.5391,38.6019],[-121.5277,38.6046],[-121.5158,38.6027],[-121.5116,38.6009],[-121.5087,38.5968],[-121.5063,38.5863],[-121.5083,38.5805],[-121.5116,38.575],[-121.521,38.5662],[-121.5113,38.5463],[-121.5126,38.5417],[-121.5204,38.5354],[-121.5305,38.5303],[-121.5306,38.5276],[-121.5241,38.5213],[-121.5252,38.519],[-121.5518,38.5139],[-121.5583,38.5038],[-121.559,38.4996],[-121.557,38.4943],[-121.5427,38.4764],[-121.5349,38.4739],[-121.5151,38.4743],[-121.5066,38.4714],[-121.5041,38.4666],[-121.5015,38.4539],[-121.5019,38.4429],[-121.5066,38.4373],[-121.5154,38.4345],[-121.5284,38.4345],[-121.5326,38.4315],[-121.5318,38.4282],[-121.5165,38.4072],[-121.5131,38.396],[-121.5148,38.3872],[-121.5243,38.379],[-121.521,38.3669],[-121.521,38.3612],[-121.5369,38.3478],[-121.5368,38.3453],[-121.5259,38.3386],[-121.521,38.3325],[-121.5211,38.3283],[-121.5183,38.3217],[-121.519,38.3198],[-121.5175,38.3129],[-121.5116,38.3082],[-121.5105,38.2956],[-121.5057,38.2904],[-121.5041,38.2849],[-121.4986,38.2801],[-121.4983,38.2731],[-121.4969,38.2693],[-121.4985,38.2657],[-121.4952,38.2633],[-121.4939,38.2595],[-121.4992,38.2552],[-121.4967,38.2432],[-121.4987,38.2357],[-121.5113,38.2285],[-121.5061,38.2244],[-121.4992,38.2275],[-121.4917,38.2277],[-121.4905,38.233],[-121.4868,38.2358],[-121.4871,38.2399],[-121.4786,38.2462],[-121.4785,38.2511],[-121.4801,38.2536],[-121.4762,38.2578],[-121.4717,38.2598],[-121.461,38.2591],[-121.4504,38.2546],[-121.4449,38.2568],[-121.4399,38.2555],[-121.4373,38.2571],[-121.4321,38.2576],[-121.4261,38.2571],[-121.4225,38.2545],[-121.4068,38.2534],[-121.4025,38.2542],[-121.3994,38.2582],[-121.3988,38.2615],[-121.3887,38.2707],[-121.39,38.2745],[-121.381,38.2806],[-121.3822,38.2843],[-121.3797,38.2946],[-121.3829,38.2998],[-121.3824,38.3019],[-121.3743,38.3144],[-121.3708,38.3172],[-121.3709,38.3206],[-121.3674,38.3237],[-121.3659,38.3278],[-121.3591,38.3343],[-121.3529,38.3376],[-121.3529,38.3401],[-121.3514,38.3417],[-121.3516,38.3465],[-121.3477,38.354],[-121.3437,38.3577],[-121.3768,38.3914],[-121.3879,38.4077],[-121.419,38.4743],[-121.4087,38.4744],[-121.4088,38.4817],[-121.2977,38.4816],[-121.2976,38.4703],[-121.2917,38.4752],[-121.2912,38.4772],[-121.2861,38.4786],[-121.2852,38.4802],[-121.2829,38.4801],[-121.2845,38.4833],[-121.2794,38.4851],[-121.2789,38.4863],[-121.2716,38.485],[-121.268,38.483],[-121.2654,38.4833],[-121.2649,38.4851],[-121.2608,38.4851],[-121.261,38.5099],[-121.371,38.5388],[-121.3726,38.5503],[-121.382,38.5625],[-121.3828,38.5668],[-121.3587,38.5711],[-121.343,38.5795],[-121.3295,38.5793],[-121.3269,38.5867],[-121.3308,38.5909],[-121.3311,38.5979],[-121.3245,38.6036],[-121.3228,38.6043],[-121.3171,38.603],[-121.3069,38.6091],[-121.3032,38.6142],[-121.3064,38.6194],[-121.3042,38.6242],[-121.2947,38.6303],[-121.2894,38.6307],[-121.2884,38.6288],[-121.2901,38.6235],[-121.2856,38.6206],[-121.2763,38.6292],[-121.2617,38.6378],[-121.256,38.6385],[-121.2436,38.6333],[-121.2346,38.6324],[-121.225,38.6361],[-121.2068,38.6404],[-121.1949,38.6453],[-121.1926,38.6501],[-121.1893,38.6655],[-121.1908,38.6748],[-121.1882,38.6766],[-121.191,38.68],[-121.1953,38.6778],[-121.2,38.6781],[-121.1999,38.6817],[-121.1976,38.6817],[-121.1975,38.6845],[-121.1928,38.6866],[-121.1926,38.6997],[-121.1944,38.6997],[-121.1937,38.7139],[-121.1886,38.7143],[-121.4936,38.7352],[-121.5218,38.7364],[-121.6029,38.7358],[-121.6065,38.7171],[-121.6142,38.709],[-121.6304,38.6976],[-121.6342,38.6898]]]},"properties":{"GEOID":"0606792690","BASENAME":"Sacramento","NAME":"Sacramento CCD","COUNTY":"067","COUSUB":"92690"}},{"type":"Feature","geometry":{"type":"Polygon","coordinates":[[[-121.2068,38.6404],[-121.206,38.6368],[-121.1996,38.6396],[-121.1751,38.6427],[-121.1565,38.6422],[-121.1555,38.6383],[-121.1504,38.6328],[-121.1505,38.6146],[-121.1394,38.6177],[-121.1221,38.6192],[-121.116,38.6217],[-121.0838,38.6284],[-121.0793,38.6329],[-121.119,38.7179],[-121.1193,38.715],[-121.1215,38.7141],[-121.124,38.7105],[-121.1332,38.7054],[-121.1425,38.7121],[-121.1466,38.7114],[-121.1936,38.714],[-121.1944,38.6997],[-121.1926,38.6997],[-121.1928,38.6866],[-121.1975,38.6845],[-121.1976,38.6817],[-121.1999,38.6817],[-121.2,38.6781],[-121.1953,38.6778],[-121.191,38.68],[-121.1882,38.6766],[-121.1909,38.674],[-121.1893,38.6655],[-121.1944,38.6458],[-121.2068,38.6404]]]},"properties":{"GEOID":"0606791010","BASENAME":"Folsom","NAME":"Folsom CCD","COUNTY":"067","COUSUB":"91010"}},{"type":"Feature","geometry":{"type":"Polygon","coordinates":[[[-121.3828,38.5668],[-121.382,38.5625],[-121.3726,38.5503],[-121.371,38.5388],[-121.2611,38.5099],[-121.2612,38.528],[-121.2522,38.5256],[-121.2427,38.5256],[-121.2425,38.5058],[-121.2233,38.5019],[-121.188,38.534],[-121.1874,38.5811],[-121.1753,38.598],[-121.1787,38.603],[-121.1505,38.6146],[-121.1504,38.6329],[-121.1555,38.6383],[-121.1565,38.6422],[-121.1731,38.6428],[-121.1996,38.6396],[-121.206,38.6368],[-121.2068,38.6404],[-121.225,38.6361],[-121.2346,38.6324],[-121.2436,38.6333],[-121.256,38.6385],[-121.2617,38.6378],[-121.2763,38.6292],[-121.2856,38.6206],[-121.2901,38.6235],[-121.2884,38.6288],[-121.2894,38.6307],[-121.2947,38.6303],[-121.3042,38.6242],[-121.3064,38.6194],[-121.3032,38.6142],[-121.3069,38.6091],[-121.3171,38.603],[-121.3228,38.6043],[-121.3245,38.6036],[-121.3311,38.5979],[-121.3308,38.5909],[-121.3269,38.5867],[-121.3295,38.5793],[-121.343,38.5795],[-121.3587,38.5711],[-121.3828,38.5668]]]},"properties":{"GEOID":"0606792555","BASENAME":"Rancho Cordova","NAME":"Rancho Cordova CCD","COUNTY":"067","COUSUB":"92555"}}]}