{"type":"FeatureCollection","features":[{"type":"Feature","geometry":{"type":"Polygon","coordinates":[[[-121.5629,36.8963],[-121.5619,36.8948],[-121.5626,36.8919],[-121.5595,36.8871],[-121.5491,36.8829],[-121.5473,36.8802],[-121.5488,36.8769],[-121.5478,36.875],[-121.5329,36.8724],[-121.531,36.8678],[-121.5237,36.8663],[-121.5146,36.8674],[-121.511,36.8619],[-121.5088,36.8613],[-121.503,36.8635],[-121.491,36.8608],[-121.4748,36.8601],[-121.4692,36.8613],[-121.4579,36.8587],[-121.4447,36.8585],[-121.4403,36.8566],[-121.4372,36.8536],[-121.4308,36.8515],[-121.4362,36.8498],[-121.445,36.8525],[-121.4498,36.8517],[-121.4577,36.8424],[-121.4561,36.8385],[-121.4503,36.8378],[-121.4399,36.8342],[-121.428,36.826],[-121.425,36.8256],[-121.4196,36.8273],[-121.4066,36.8242],[-121.4037,36.8255],[-121.4003,36.8231],[-121.3996,36.8208],[-121.4041,36.8173],[-121.3969,36.8099],[-121.4015,36.8064],[-121.4059,36.8059],[-121.4081,36.8026],[-121.409,36.7963],[-121.4025,36.7903],[-121.4053,36.7838],[-121.404,36.7798],[-121.4092,36.7761],[-121.4122,36.7687],[-121.4143,36.7692],[-121.4151,36.7713],[-121.4241,36.7743],[-121.4284,36.7771],[-121.4331,36.778],[-121.4462,36.7871],[-121.4563,36.7911],[-121.4546,36.7895],[-121.4563,36.7878],[-121.4554,36.7863],[-121.4641,36.7859],[-121.467,36.7842],[-121.4668,36.7803],[-121.4751,36.7757],[-121.4803,36.7703],[-121.4805,36.7678],[-121.483,36.7653],[-121.4815,36.7654],[-121.4793,36.7611],[-121.4772,36.7607],[-121.4747,36.7575],[-121.4767,36.7534],[-121.4757,36.7492],[-121.4742,36.7493],[-121.4717,36.7455],[-121.4668,36.7456],[-121.4658,36.7436],[-121.4624,36.7439],[-121.46,36.7409],[-121.4602,36.7373],[-121.4574,36.7368],[-121.4597,36.7355],[-121.4592,36.7343],[-121.4526,36.7292],[-121.4513,36.7248],[-121.4531,36.723],[-121.4531,36.7212],[-121.4559,36.7214],[-121.4613,36.7177],[-121.4658,36.7181],[-121.4744,36.7167],[-121.4768,36.7153],[-121.4834,36.7155],[-121.4845,36.7131],[-121.4836,36.7092],[-121.4823,36.7096],[-121.4805,36.7065],[-121.4817,36.7046],[-121.4775,36.703],[-121.4767,36.7],[-121.4749,36.6991],[-121.4757,36.6982],[-121.4728,36.6969],[-121.4716,36.6923],[-121.4687,36.6895],[-121.469,36.6854],[-121.4654,36.6847],[-121.461,36.6867],[-121.459,36.6857],[-121.4571,36.6821],[-121.4495,36.6788],[-121.4461,36.6738],[-121.4443,36.6731],[-121.4316,36.6787],[-121.4239,36.6743],[-121.4216,36.6763],[-121.4185,36.6763],[-121.4144,36.6751],[-121.4136,36.6736],[-121.411,36.6736],[-121.4051,36.6766],[-121.4006,36.685],[-121.3958,36.6865],[-121.3656,36.6846],[-121.3616,36.6861],[-121.3575,36.6858],[-121.3525,36.6885],[-121.3445,36.6884],[-121.3404,36.6922],[-121.3304,36.6981],[-121.3283,36.7074],[-121.3223,36.7048],[-121.3181,36.6989],[-121.3057,36.6925],[-121.2895,36.6775],[-121.2767,36.6776],[-121.277,36.6852],[-121.2747,36.6895],[-121.2721,36.6896],[-121.2719,36.6945],[-121.2786,36.7085],[-121.2769,36.7128],[-121.2793,36.7241],[-121.2789,36.7289],[-121.269,36.7265],[-121.2459,36.7097],[-121.2358,36.7092],[-121.2262,36.7124],[-121.2161,36.7184],[-121.2106,36.7196],[-121.2072,36.7228],[-121.2092,36.7259],[-121.2087,36.7273],[-121.1954,36.7319],[-121.1938,36.7336],[-121.1943,36.7362],[-121.1916,36.7367],[-121.2012,36.7445],[-121.2076,36.7475],[-121.2077,36.7492],[-121.2115,36.7514],[-121.211,36.7537],[-121.2162,36.7582],[-121.2202,36.7585],[-121.2235,36.7625],[-121.2293,36.7657],[-121.2362,36.7717],[-121.2365,36.7733],[-121.2406,36.7752],[-121.2441,36.7801],[-121.2504,36.7846],[-121.2541,36.7855],[-121.2568,36.7892],[-121.2593,36.7904],[-121.2616,36.7932],[-121.2615,36.7954],[-121.2647,36.797],[-121.2609,36.7999],[-121.2606,36.8051],[-121.2535,36.8083],[-121.2523,36.8112],[-121.25,36.8122],[-121.2402,36.8116],[-121.2259,36.8157],[-121.223,36.8138],[-121.2171,36.8185],[-121.2079,36.8213],[-121.2052,36.8282],[-121.2072,36.8314],[-121.2075,36.8364],[-121.2058,36.8414],[-121.203,36.8435],[-121.2047,36.8452],[-121.201,36.8486],[-121.1981,36.8556],[-121.1942,36.8579],[-121.1941,36.8593],[-121.1797,36.8622],[-121.1756,36.8588],[-121.1663,36.8576],[-121.1594,36.8607],[-121.1577,36.8575],[-121.1563,36.8572],[-121.1572,36.8569],[-121.1561,36.8569],[-121.1575,36.8561],[-121.1536,36.8554],[-121.1532,36.8543],[-121.1507,36.8552],[-121.1485,36.8538],[-121.15,36.8576],[-121.152,36.8591],[-121.1528,36.8656],[-121.1636,36.8692],[-121.1666,36.8755],[-121.1661,36.8798],[-121.1691,36.885],[-121.1741,36.8857],[-121.1764,36.8894],[-121.1796,36.8904],[-121.1843,36.8964],[-121.1829,36.9019],[-121.1839,36.9081],[-121.1886,36.9131],[-121.1927,36.9126],[-121.1983,36.9143],[-121.2084,36.9115],[-121.2166,36.9136],[-121.2217,36.9104],[-121.2234,36.9129],[-121.2242,36.9199],[-121.2302,36.9212],[-121.2343,36.9261],[-121.2334,36.932],[-121.2305,36.9359],[-121.2292,36.941],[-121.2255,36.9448],[-121.2219,36.9453],[-121.2185,36.9479],[-121.2118,36.9571],[-121.2145,36.9612],[-121.4182,36.9605],[-121.4346,36.974],[-121.4377,36.9785],[-121.4473,36.983],[-121.4497,36.9861],[-121.4491,36.9882],[-121.4506,36.9889],[-121.4637,36.9849],[-121.4659,36.9821],[-121.4636,36.9783],[-121.4679,36.9768],[-121.4889,36.9831],[-121.5018,36.9716],[-121.5046,36.9678],[-121.5054,36.9641],[-121.5081,36.9636],[-121.5094,36.96],[-121.5124,36.9588],[-121.5103,36.9565],[-121.5102,36.9541],[-121.5121,36.9526],[-121.5117,36.9493],[-121.5138,36.9452],[-121.5216,36.9402],[-121.5236,36.9371],[-121.5392,36.9273],[-121.5409,36.9252],[-121.5391,36.9229],[-121.5403,36.9205],[-121.5535,36.9152],[-121.5585,36.9105],[-121.5601,36.8974],[-121.5629,36.8963]]]},"properties":{"GEOID":"0606991300","BASENAME":"Hollister","NAME":"Hollister CCD","COUNTY":"069","COUSUB":"91300"}},{"type":"Feature","geometry":{"type":"Polygon","coordinates":[[[-121.4234,36.6745],[-121.4148,36.6725],[-121.4118,36.6643],[-121.4092,36.6612],[-121.4093,36.6583],[-121.407,36.656],[-121.4019,36.6554],[-121.3966,36.6569],[-121.3939,36.6549],[-121.39,36.6556],[-121.3836,36.6533],[-121.3807,36.654],[-121.3783,36.6529],[-121.3734,36.6555],[-121.3662,36.6566],[-121.3564,36.6501],[-121.3532,36.6495],[-121.353,36.6479],[-121.3501,36.6484],[-121.3507,36.6462],[-121.3495,36.6433],[-121.3466,36.6432],[-121.3416,36.6383],[-121.3435,36.6354],[-121.3416,36.6333],[-121.3421,36.6314],[-121.3384,36.6284],[-121.3326,36.6206],[-121.3303,36.62],[-121.3231,36.6125],[-121.3184,36.61],[-121.3197,36.6065],[-121.3187,36.6049],[-121.3221,36.6041],[-121.3238,36.6024],[-121.3253,36.5925],[-121.3242,36.5884],[-121.3274,36.5859],[-121.3272,36.5842],[-121.3255,36.5839],[-121.3249,36.5825],[-121.3262,36.5806],[-121.3235,36.5776],[-121.3314,36.5762],[-121.3339,36.5744],[-121.3335,36.5717],[-121.3311,36.57],[-121.3316,36.5659],[-121.3306,36.5637],[-121.332,36.5622],[-121.3287,36.5611],[-121.3298,36.558],[-121.3287,36.5547],[-121.3206,36.5526],[-121.3165,36.5495],[-121.3135,36.5499],[-121.31,36.5459],[-121.3079,36.5456],[-121.3079,36.5433],[-121.3051,36.5407],[-121.3016,36.5392],[-121.2985,36.5331],[-121.2968,36.5323],[-121.2971,36.5303],[-121.2954,36.5271],[-121.2972,36.5243],[-121.3032,36.5201],[-121.3032,36.5181],[-121.3072,36.5168],[-121.3068,36.5122],[-121.3106,36.5093],[-121.3098,36.5062],[-121.3118,36.5051],[-121.3118,36.5027],[-121.3094,36.4999],[-121.3077,36.4997],[-121.3007,36.5058],[-121.2971,36.5039],[-121.2941,36.5062],[-121.2872,36.5048],[-121.285,36.5057],[-121.282,36.5027],[-121.2735,36.5033],[-121.269,36.502],[-121.2596,36.5045],[-121.2549,36.5035],[-121.2522,36.5056],[-121.2496,36.5048],[-121.2472,36.5069],[-121.2441,36.5069],[-121.2393,36.5048],[-121.2369,36.4976],[-121.2308,36.4917],[-121.2326,36.489],[-121.2281,36.4846],[-121.229,36.4822],[-121.228,36.4805],[-121.2305,36.4786],[-121.2295,36.4753],[-121.2255,36.472],[-121.2236,36.4721],[-121.2224,36.4738],[-121.2189,36.4724],[-121.2168,36.474],[-121.2151,36.4732],[-121.2098,36.4648],[-121.2056,36.4624],[-121.202,36.4579],[-121.1977,36.4551],[-121.1979,36.4517],[-121.1935,36.4458],[-121.0408,36.324],[-121.0403,36.2711],[-121.0361,36.2729],[-121.0363,36.2755],[-121.0274,36.2753],[-121.0255,36.2713],[-121.0286,36.2698],[-121.0279,36.2644],[-121.0262,36.2632],[-121.0277,36.2618],[-121.0272,36.2599],[-121.0223,36.2615],[-121.0188,36.2597],[-121.0144,36.2687],[-121.0118,36.2645],[-121.0105,36.2688],[-121.0047,36.267],[-121.0002,36.2708],[-120.9924,36.2699],[-120.9871,36.2757],[-120.9881,36.2852],[-120.9851,36.2902],[-120.9864,36.292],[-120.9858,36.2929],[-120.979,36.29],[-120.9738,36.2903],[-120.9725,36.2879],[-120.9645,36.2827],[-120.9644,36.2805],[-120.9593,36.2808],[-120.9567,36.276],[-120.9534,36.2747],[-120.9401,36.2823],[-120.9392,36.2852],[-120.9412,36.2866],[-120.9362,36.2896],[-120.9346,36.2893],[-120.9365,36.294],[-120.9339,36.2965],[-120.9331,36.2998],[-120.9304,36.3014],[-120.9281,36.3006],[-120.926,36.3015],[-120.9256,36.3081],[-120.9235,36.3101],[-120.9191,36.3109],[-120.9161,36.3088],[-120.9117,36.3083],[-120.9089,36.3043],[-120.9049,36.304],[-120.9045,36.3022],[-120.899,36.3008],[-120.8895,36.2903],[-120.8841,36.2941],[-120.8817,36.2934],[-120.8791,36.2954],[-120.8741,36.2952],[-120.8718,36.2934],[-120.8651,36.2926],[-120.8625,36.2898],[-120.8599,36.2905],[-120.8598,36.2881],[-120.8565,36.2847],[-120.8514,36.2859],[-120.8509,36.2826],[-120.845,36.2809],[-120.8399,36.2762],[-120.8396,36.2729],[-120.8369,36.2721],[-120.8372,36.2707],[-120.8394,36.2708],[-120.8362,36.2656],[-120.8368,36.2624],[-120.8335,36.2624],[-120.8329,36.2592],[-120.8282,36.2586],[-120.8293,36.2572],[-120.8256,36.2578],[-120.826,36.2545],[-120.8235,36.2572],[-120.8203,36.2538],[-120.8143,36.2532],[-120.8136,36.2502],[-120.8108,36.2517],[-120.8104,36.2485],[-120.8122,36.2452],[-120.8073,36.2438],[-120.8055,36.2402],[-120.8007,36.2403],[-120.8006,36.2386],[-120.8021,36.2378],[-120.7991,36.2355],[-120.7953,36.2366],[-120.7937,36.2343],[-120.7893,36.235],[-120.789,36.2305],[-120.7832,36.2292],[-120.7807,36.2248],[-120.7813,36.2224],[-120.7787,36.2232],[-120.776,36.2201],[-120.7723,36.2202],[-120.7685,36.2139],[-120.7653,36.2135],[-120.767,36.2101],[-120.7638,36.2091],[-120.7613,36.2034],[-120.7583,36.202],[-120.7559,36.2033],[-120.7528,36.1995],[-120.7444,36.1988],[-120.7375,36.2025],[-120.7318,36.204],[-120.7307,36.2016],[-120.7285,36.2027],[-120.7268,36.2012],[-120.7245,36.2013],[-120.7204,36.1996],[-120.7207,36.1984],[-120.7182,36.1968],[-120.7117,36.1985],[-120.7111,36.2008],[-120.7061,36.2037],[-120.7049,36.2117],[-120.706,36.2126],[-120.7074,36.2318],[-120.7094,36.2367],[-120.7119,36.2391],[-120.711,36.2401],[-120.7122,36.2413],[-120.7128,36.2462],[-120.7175,36.2547],[-120.7177,36.26],[-120.7194,36.2607],[-120.7215,36.2648],[-120.7243,36.2669],[-120.7248,36.2703],[-120.7321,36.2755],[-120.7338,36.2842],[-120.7383,36.2883],[-120.7431,36.2981],[-120.751,36.3042],[-120.7557,36.3053],[-120.7583,36.3086],[-120.7529,36.3078],[-120.7504,36.3102],[-120.7467,36.3102],[-120.741,36.3058],[-120.7256,36.2973],[-120.7226,36.2927],[-120.7169,36.2924],[-120.7161,36.2902],[-120.7077,36.2858],[-120.7054,36.2872],[-120.702,36.2862],[-120.7011,36.2841],[-120.6975,36.2827],[-120.6949,36.278],[-120.6931,36.2779],[-120.6885,36.2722],[-120.684,36.2709],[-120.6824,36.272],[-120.6786,36.2673],[-120.6742,36.2727],[-120.6762,36.2768],[-120.6726,36.2805],[-120.6738,36.2824],[-120.6829,36.2868],[-120.6804,36.2907],[-120.6828,36.2943],[-120.6782,36.2981],[-120.6759,36.3028],[-120.6686,36.3072],[-120.6664,36.3114],[-120.6631,36.3144],[-120.6576,36.3165],[-120.6461,36.317],[-120.6443,36.319],[-120.6351,36.3186],[-120.6305,36.3169],[-120.6199,36.3199],[-120.6179,36.3188],[-120.6127,36.3209],[-120.6125,36.3244],[-120.6049,36.3241],[-120.6002,36.3283],[-120.5966,36.3285],[-120.5972,36.4882],[-120.6037,36.4882],[-120.9337,36.7519],[-121.1415,36.8367],[-121.143,36.8463],[-121.1455,36.8473],[-121.1474,36.8522],[-121.1506,36.8552],[-121.1532,36.8543],[-121.1536,36.8554],[-121.1575,36.8561],[-121.1561,36.8569],[-121.1577,36.8575],[-121.1593,36.8607],[-121.1663,36.8576],[-121.1756,36.8588],[-121.1797,36.8622],[-121.1942,36.8593],[-121.1942,36.8579],[-121.1981,36.8556],[-121.201,36.8486],[-121.2047,36.8452],[-121.203,36.8435],[-121.2058,36.8414],[-121.2075,36.8364],[-121.2072,36.8314],[-121.2052,36.8282],[-121.2079,36.8213],[-121.2171,36.8185],[-121.223,36.8138],[-121.2259,36.8157],[-121.2402,36.8116],[-121.2499,36.8122],[-121.2522,36.8113],[-121.2534,36.8084],[-121.2606,36.8051],[-121.2609,36.7999],[-121.2647,36.797],[-121.2615,36.7954],[-121.2608,36.792],[-121.2568,36.7892],[-121.2546,36.7859],[-121.2504,36.7846],[-121.2441,36.7801],[-121.2406,36.7752],[-121.2365,36.7733],[-121.2362,36.7717],[-121.2296,36.7659],[-121.2235,36.7626],[-121.2202,36.7585],[-121.2167,36.7585],[-121.2113,36.7541],[-121.2115,36.7514],[-121.2077,36.7492],[-121.2076,36.7475],[-121.2012,36.7445],[-121.1916,36.7367],[-121.1943,36.7362],[-121.1938,36.7336],[-121.1954,36.7319],[-121.2087,36.7273],[-121.2092,36.7259],[-121.2072,36.7228],[-121.2106,36.7196],[-121.2161,36.7184],[-121.2318,36.7103],[-121.2435,36.7093],[-121.2459,36.7097],[-121.2574,36.7172],[-121.2691,36.7265],[-121.2789,36.7289],[-121.2793,36.7241],[-121.2769,36.7128],[-121.2786,36.7085],[-121.2719,36.6945],[-121.2721,36.6896],[-121.2747,36.6895],[-121.277,36.6852],[-121.2768,36.6776],[-121.2895,36.6775],[-121.3057,36.6925],[-121.3181,36.6989],[-121.3223,36.7048],[-121.3283,36.7074],[-121.3304,36.6981],[-121.3404,36.6922],[-121.3443,36.6884],[-121.3525,36.6885],[-121.3575,36.6858],[-121.3616,36.6861],[-121.3656,36.6846],[-121.3958,36.6865],[-121.4006,36.685],[-121.4028,36.6794],[-121.4086,36.6743],[-121.4136,36.6736],[-121.4163,36.6761],[-121.4199,36.6764],[-121.4234,36.6745]]]},"properties":{"GEOID":"0606992760","BASENAME":"San Benito-Bitterwater","NAME":"San Benito-Bitterwater CCD","COUNTY":"069","COUSUB":"92760"}},{"type":"Feature","geometry":{"type":"Polygon","coordinates":[[[-121.644,36.894],[-121.6413,36.8798],[-121.6426,36.8737],[-121.6221,36.8462],[-121.5977,36.8373],[-121.504,36.7572],[-121.5024,36.7602],[-121.4974,36.7604],[-121.4926,36.7633],[-121.4835,36.7647],[-121.4805,36.7678],[-121.4803,36.7703],[-121.4751,36.7757],[-121.4668,36.7803],[-121.467,36.7842],[-121.4641,36.7859],[-121.4554,36.7863],[-121.4563,36.7878],[-121.4546,36.7895],[-121.4564,36.7911],[-121.4462,36.7871],[-121.4329,36.7779],[-121.4284,36.7771],[-121.4241,36.7743],[-121.415,36.7713],[-121.4143,36.7692],[-121.4126,36.7687],[-121.4092,36.7761],[-121.404,36.7798],[-121.4053,36.7838],[-121.4025,36.7904],[-121.4093,36.7972],[-121.406,36.8058],[-121.4015,36.8064],[-121.3969,36.8099],[-121.4041,36.8173],[-121.3996,36.8208],[-121.4005,36.8233],[-121.4037,36.8255],[-121.4066,36.8242],[-121.4196,36.8273],[-121.425,36.8256],[-121.428,36.826],[-121.4399,36.8342],[-121.4568,36.8393],[-121.4577,36.8424],[-121.4497,36.8517],[-121.445,36.8525],[-121.4362,36.8498],[-121.4308,36.8515],[-121.4372,36.8536],[-121.4403,36.8566],[-121.4447,36.8585],[-121.4579,36.8587],[-121.4692,36.8613],[-121.4748,36.8601],[-121.491,36.8608],[-121.503,36.8635],[-121.5084,36.8613],[-121.5104,36.8616],[-121.5146,36.8674],[-121.5275,36.8667],[-121.531,36.8678],[-121.5329,36.8724],[-121.5478,36.875],[-121.5488,36.8769],[-121.5473,36.8802],[-121.5491,36.8829],[-121.5595,36.8871],[-121.5626,36.8919],[-121.5619,36.8948],[-121.5629,36.8963],[-121.5714,36.8971],[-121.5756,36.893],[-121.5803,36.8985],[-121.586,36.901],[-121.6074,36.8995],[-121.6198,36.9089],[-121.6284,36.9118],[-121.6331,36.9067],[-121.6381,36.8983],[-121.644,36.894]]]},"properties":{"GEOID":"0606992840","BASENAME":"San Juan Bautista","NAME":"San Juan Bautista CCD","COUNTY":"069","COUSUB":"92840"}}]}