{"type":"FeatureCollection","features":[{"type":"Feature","geometry":{"type":"Polygon","coordinates":[[[-117.0831,35.2726],[-117.0823,35.2],[-117.0454,35.1989],[-116.9586,35.1993],[-116.9584,35.1848],[-116.9445,35.1845],[-116.9418,35.1778],[-116.9383,35.1579],[-116.9382,35.1531],[-116.9404,35.1474],[-116.9397,35.1458],[-116.9367,35.1474],[-116.9336,35.1451],[-116.9165,35.1433],[-116.8981,35.1363],[-116.8947,35.1381],[-116.8866,35.1378],[-116.8813,35.1358],[-116.8701,35.1357],[-116.8642,35.137],[-116.8616,35.1308],[-116.856,35.1226],[-116.8478,35.1154],[-116.8365,35.1118],[-116.8247,35.1038],[-116.8072,35.0966],[-116.7933,35.095],[-116.7916,35.0928],[-116.7917,35.0897],[-116.7894,35.089],[-116.7936,35.0841],[-116.8043,35.0774],[-116.8045,35.0733],[-116.7946,35.069],[-116.7891,35.0638],[-116.7877,35.0599],[-116.7738,35.0522],[-116.7679,35.0444],[-116.7633,35.0342],[-116.7656,35.0151],[-116.768,35.0063],[-116.7641,34.9748],[-116.7678,34.9652],[-116.7665,34.9626],[-116.7607,34.9589],[-116.749,34.9468],[-116.7474,34.9394],[-116.7508,34.9278],[-116.7628,34.9186],[-116.7628,34.9168],[-116.7604,34.9155],[-116.772,34.8961],[-116.7781,34.897],[-116.7861,34.8964],[-116.7908,34.8946],[-116.8018,34.8938],[-116.8163,34.8898],[-116.8201,34.885],[-116.8248,34.8819],[-116.8344,34.8787],[-116.864,34.8802],[-116.8793,34.8626],[-116.8663,34.8603],[-116.8663,34.8595],[-116.874,34.8533],[-116.8799,34.8524],[-116.8736,34.851],[-116.8479,34.8237],[-116.8426,34.8043],[-116.8419,34.7837],[-116.8285,34.7675],[-116.8181,34.7593],[-116.8187,34.755],[-116.821,34.7549],[-116.8225,34.7533],[-116.8247,34.7474],[-116.8219,34.7385],[-116.812,34.7315],[-116.7875,34.7217],[-116.7352,34.687],[-116.7336,34.6831],[-116.7306,34.68],[-116.7074,34.6725],[-116.7156,34.6535],[-116.7258,34.639],[-116.7317,34.6247],[-116.7423,34.6081],[-116.7478,34.6056],[-116.7067,34.6074],[-116.6838,34.6141],[-116.6178,34.6148],[-116.6041,34.6208],[-116.5634,34.6516],[-116.5062,34.6797],[-116.5059,34.6811],[-116.5033,34.68],[-116.5015,34.6821],[-116.5003,34.6818],[-116.4925,34.6898],[-116.4916,34.6889],[-116.4885,34.6915],[-116.4896,34.6925],[-116.4648,34.7134],[-116.4218,34.7343],[-116.3468,34.7343],[-116.3466,34.7199],[-116.3294,34.72],[-116.3289,34.6906],[-116.2064,34.6907],[-116.2063,34.6758],[-116.1892,34.6757],[-116.1892,34.6711],[-116.1892,34.6612],[-116.2063,34.6612],[-116.2062,34.6469],[-116.1892,34.6468],[-116.1891,34.6379],[-116.1891,34.6328],[-116.2062,34.6329],[-116.2061,34.6184],[-116.189,34.6184],[-116.1889,34.6047],[-115.9891,34.6036],[-115.9903,34.56],[-115.884,34.5604],[-115.884,34.5592],[-115.879,34.5594],[-115.8818,34.5705],[-115.8817,34.583],[-115.8773,34.5831],[-115.8792,34.5835],[-115.8777,34.586],[-115.6479,34.5308],[-115.4721,34.5179],[-115.4585,34.5229],[-115.4492,34.5287],[-115.4364,34.5389],[-115.4252,34.5449],[-115.4047,34.5639],[-115.3835,34.5808],[-115.3542,34.6248],[-115.34,34.6423],[-115.3227,34.6685],[-115.311,34.683],[-115.2998,34.6916],[-115.2814,34.7023],[-115.2405,34.7363],[-115.2269,34.7455],[-115.2176,34.758],[-115.2095,34.7752],[-115.1954,34.7994],[-115.1847,34.8121],[-115.1238,34.8575],[-115.099,34.8865],[-115.0917,34.8987],[-115.0731,34.9145],[-115.0631,34.9196],[-115.054,34.9216],[-114.9625,34.9178],[-114.9303,34.919],[-114.9144,34.9229],[-114.8908,34.932],[-114.8808,34.9332],[-114.8719,34.9359],[-114.8507,34.9377],[-114.8246,34.9429],[-114.8332,34.9682],[-114.8314,35.0256],[-114.8243,35.0374],[-114.8276,35.0467],[-114.83,35.1408],[-114.8464,35.1661],[-114.8493,35.1758],[-114.9947,35.2925],[-115.101,35.3757],[-115.2597,35.5035],[-115.6484,35.8092],[-115.7357,35.8091],[-115.7359,35.7936],[-116.2112,35.7933],[-116.6511,35.7954],[-116.9357,35.7954],[-116.9373,35.7325],[-116.9701,35.7323],[-116.9701,35.7237],[-116.9747,35.7237],[-116.9747,35.7166],[-116.9443,35.7165],[-116.9443,35.7099],[-116.9256,35.71],[-116.927,35.2725],[-117.0831,35.2726]]]},"properties":{"GEOID":"0607192102","BASENAME":"Newberry Springs-Baker","NAME":"Newberry Springs-Baker CCD","COUNTY":"071","COUSUB":"92102"}},{"type":"Feature","geometry":{"type":"Polygon","coordinates":[[[-116.8597,34.3739],[-116.8581,34.3644],[-116.8547,34.359],[-116.8478,34.3538],[-116.8466,34.3515],[-116.821,34.3515],[-116.8211,34.3555],[-116.7886,34.3558],[-116.7886,34.3412],[-116.7711,34.3412],[-116.7712,34.3228],[-116.7357,34.3228],[-116.7357,34.3083],[-116.7183,34.3083],[-116.7182,34.2936],[-116.6825,34.2934],[-116.6824,34.2794],[-116.6649,34.2793],[-116.6643,34.2356],[-116.6472,34.2356],[-116.6476,34.1781],[-116.6829,34.1771],[-116.6824,34.1487],[-116.6993,34.1485],[-116.6991,34.1343],[-116.7179,34.1341],[-116.7178,34.1196],[-116.7198,34.1195],[-116.7197,34.0338],[-116.6156,34.0326],[-116.3159,34.0325],[-116.3006,34.0325],[-116.3006,34.0344],[-116.1819,34.0336],[-115.9848,34.0351],[-115.5957,34.0354],[-115.3162,34.0341],[-115.3161,34.0778],[-115.1924,34.0778],[-115.1924,34.0794],[-115.1258,34.0798],[-114.8295,34.0796],[-114.9008,34.0976],[-114.934,34.1153],[-114.9214,34.1149],[-114.919,34.117],[-114.9291,34.13],[-114.9326,34.1376],[-114.9296,34.1471],[-114.9492,34.1807],[-114.9563,34.1774],[-114.9723,34.1731],[-114.9822,34.167],[-114.9867,34.1669],[-115.0111,34.1921],[-115.1266,34.2782],[-115.1322,34.2796],[-115.1634,34.2769],[-115.1748,34.2773],[-115.1846,34.2797],[-115.1949,34.2803],[-115.2349,34.3072],[-115.2603,34.3317],[-115.2789,34.3565],[-115.2922,34.3713],[-115.3173,34.3895],[-115.3315,34.4035],[-115.3606,34.4185],[-115.3967,34.4316],[-115.4154,34.441],[-115.4218,34.446],[-115.4307,34.4489],[-115.5074,34.5194],[-115.6479,34.5308],[-115.8777,34.586],[-115.8792,34.5835],[-115.8773,34.5831],[-115.8817,34.583],[-115.8818,34.5705],[-115.879,34.5594],[-115.884,34.5592],[-115.884,34.5604],[-115.9903,34.56],[-115.9891,34.6036],[-116.1889,34.6047],[-116.189,34.6184],[-116.2061,34.6184],[-116.2062,34.6329],[-116.1891,34.6328],[-116.1891,34.6379],[-116.1892,34.6468],[-116.2062,34.6469],[-116.2063,34.6612],[-116.1892,34.6612],[-116.1892,34.6711],[-116.1892,34.6757],[-116.2063,34.6758],[-116.2064,34.6907],[-116.3289,34.6906],[-116.3294,34.72],[-116.3466,34.7199],[-116.3468,34.7343],[-116.4218,34.7343],[-116.4648,34.7134],[-116.4896,34.6925],[-116.4885,34.6915],[-116.4916,34.6889],[-116.4925,34.6898],[-116.5003,34.6818],[-116.5015,34.6821],[-116.5033,34.68],[-116.5059,34.6811],[-116.5062,34.6797],[-116.5634,34.6516],[-116.6041,34.6208],[-116.6178,34.6148],[-116.6838,34.6141],[-116.7067,34.6074],[-116.7489,34.605],[-116.7734,34.5769],[-116.7792,34.5685],[-116.7818,34.5608],[-116.7832,34.5607],[-116.7866,34.5558],[-116.8019,34.545],[-116.8092,34.5425],[-116.8422,34.5137],[-116.858,34.5017],[-116.8584,34.3888],[-116.8597,34.3739]]]},"properties":{"GEOID":"0607193482","BASENAME":"Twentynine Palms-Yucca Valley","NAME":"Twentynine Palms-Yucca Valley CCD","COUNTY":"071","COUSUB":"93482"}},{"type":"Feature","geometry":{"type":"Polygon","coordinates":[[[-117.139,34.0484],[-117.1379,34.0381],[-117.1388,34.0333],[-117.1275,34.0285],[-117.1071,34.0235],[-117.0941,34.016],[-117.0721,34.0121],[-117.068,34.0094],[-117.0649,34.0039],[-116.9294,34.0049],[-116.9294,34.0497],[-116.9558,34.0496],[-116.9559,34.0569],[-116.9822,34.0563],[-116.9822,34.0637],[-116.9995,34.0628],[-116.9995,34.0773],[-117.0349,34.0775],[-117.0347,34.092],[-117.0415,34.0872],[-117.0429,34.0828],[-117.0488,34.0784],[-117.0411,34.0744],[-117.0365,34.0684],[-117.043,34.0683],[-117.0462,34.0645],[-117.0521,34.0639],[-117.0519,34.0557],[-117.0606,34.0556],[-117.0606,34.0485],[-117.0933,34.0483],[-117.0953,34.0453],[-117.0992,34.0449],[-117.0996,34.0421],[-117.0978,34.0412],[-117.1033,34.0402],[-117.1119,34.0425],[-117.1186,34.0482],[-117.139,34.0484]]]},"properties":{"GEOID":"0607193850","BASENAME":"Yucaipa","NAME":"Yucaipa CCD","COUNTY":"071","COUSUB":"93850"}},{"type":"Feature","geometry":{"type":"Polygon","coordinates":[[[-115.5088,34.5199],[-115.5058,34.5184],[-115.4307,34.4489],[-115.4218,34.446],[-115.4154,34.441],[-115.3967,34.4316],[-115.3606,34.4185],[-115.3315,34.4035],[-115.3173,34.3895],[-115.2922,34.3713],[-115.2789,34.3565],[-115.2603,34.3317],[-115.2349,34.3072],[-115.1949,34.2803],[-115.1846,34.2797],[-115.1748,34.2773],[-115.1634,34.2769],[-115.1322,34.2796],[-115.1266,34.2782],[-115.0111,34.1921],[-114.9867,34.1669],[-114.9822,34.167],[-114.9723,34.1731],[-114.9563,34.1774],[-114.9492,34.1807],[-114.9296,34.1471],[-114.9326,34.1376],[-114.9291,34.13],[-114.919,34.117],[-114.9214,34.1149],[-114.934,34.1153],[-114.9019,34.0979],[-114.8354,34.0807],[-114.8295,34.0796],[-114.7513,34.0793],[-114.4354,34.0797],[-114.4334,34.0884],[-114.428,34.0928],[-114.4262,34.097],[-114.4205,34.1035],[-114.4117,34.11],[-114.4013,34.1116],[-114.3906,34.1101],[-114.3792,34.116],[-114.3665,34.1186],[-114.3604,34.1236],[-114.3564,34.1304],[-114.353,34.1331],[-114.3481,34.1345],[-114.3361,34.134],[-114.3208,34.1386],[-114.3122,34.1448],[-114.2928,34.1667],[-114.2873,34.1705],[-114.2753,34.1721],[-114.2685,34.1702],[-114.257,34.1728],[-114.2444,34.1794],[-114.2407,34.1832],[-114.2297,34.1869],[-114.227,34.1889],[-114.2249,34.1939],[-114.2252,34.2036],[-114.2118,34.2115],[-114.1909,34.2309],[-114.1781,34.24],[-114.1764,34.2415],[-114.1746,34.2473],[-114.1661,34.25],[-114.1639,34.2533],[-114.1653,34.2585],[-114.1646,34.2597],[-114.1533,34.2583],[-114.1448,34.2596],[-114.1355,34.2579],[-114.1315,34.2604],[-114.1312,34.2627],[-114.1367,34.2744],[-114.1361,34.2808],[-114.1395,34.2958],[-114.1383,34.3032],[-114.1572,34.3179],[-114.1688,34.3395],[-114.1769,34.3493],[-114.1995,34.3614],[-114.2138,34.3625],[-114.2261,34.3659],[-114.2297,34.3689],[-114.2343,34.3767],[-114.2453,34.3857],[-114.2527,34.3901],[-114.2643,34.4013],[-114.2801,34.4031],[-114.2887,34.4066],[-114.2918,34.4111],[-114.2922,34.4176],[-114.2948,34.4214],[-114.301,34.4268],[-114.3123,34.4327],[-114.3191,34.4358],[-114.3261,34.4373],[-114.3307,34.4453],[-114.3354,34.45],[-114.3426,34.4514],[-114.3737,34.4469],[-114.3867,34.4579],[-114.3872,34.462],[-114.3817,34.476],[-114.383,34.4889],[-114.3824,34.4958],[-114.3781,34.5073],[-114.3782,34.5165],[-114.3808,34.5297],[-114.4052,34.5696],[-114.4224,34.5807],[-114.4368,34.5961],[-114.4253,34.6008],[-114.4243,34.6023],[-114.4242,34.6105],[-114.4387,34.6215],[-114.4414,34.6302],[-114.4403,34.6382],[-114.4415,34.6425],[-114.4495,34.6514],[-114.458,34.6571],[-114.4577,34.6593],[-114.4518,34.6639],[-114.4505,34.6668],[-114.4543,34.6712],[-114.4555,34.6773],[-114.4652,34.6912],[-114.4686,34.7076],[-114.4705,34.7114],[-114.4737,34.714],[-114.4828,34.7145],[-114.4875,34.7166],[-114.492,34.7257],[-114.5166,34.7367],[-114.5296,34.7508],[-114.5403,34.7571],[-114.5527,34.7669],[-114.5587,34.7739],[-114.571,34.7943],[-114.5745,34.8042],[-114.5765,34.8153],[-114.5868,34.8357],[-114.6007,34.8474],[-114.6239,34.8597],[-114.6306,34.8664],[-114.6344,34.8729],[-114.6367,34.8891],[-114.6309,34.9073],[-114.6306,34.9119],[-114.6333,34.9246],[-114.6298,34.9387],[-114.6298,34.943],[-114.635,34.9589],[-114.6352,34.9651],[-114.6291,34.9861],[-114.6294,34.9918],[-114.6334,35.0018],[-114.8493,35.1758],[-114.8464,35.1661],[-114.83,35.1408],[-114.8276,35.0467],[-114.8243,35.0374],[-114.8314,35.0256],[-114.8332,34.9682],[-114.8246,34.9429],[-114.8507,34.9377],[-114.8719,34.9359],[-114.8808,34.9332],[-114.8908,34.932],[-114.9144,34.9229],[-114.9303,34.919],[-114.9625,34.9178],[-115.054,34.9216],[-115.0629,34.9197],[-115.0719,34.9153],[-115.0917,34.8987],[-115.099,34.8865],[-115.1238,34.8575],[-115.1847,34.8121],[-115.1954,34.7994],[-115.2095,34.7752],[-115.2176,34.758],[-115.2269,34.7455],[-115.2405,34.7363],[-115.2814,34.7023],[-115.2998,34.6916],[-115.311,34.683],[-115.3227,34.6685],[-115.34,34.6423],[-115.3542,34.6248],[-115.3849,34.5796],[-115.4047,34.5639],[-115.4249,34.5451],[-115.4364,34.5389],[-115.4492,34.5287],[-115.4596,34.5224],[-115.4744,34.5176],[-115.5088,34.5199]]]},"properties":{"GEOID":"0607192080","BASENAME":"Needles","NAME":"Needles CCD","COUNTY":"071","COUSUB":"92080"}},{"type":"Feature","geometry":{"type":"Polygon","coordinates":[[[-117.2417,34.3413],[-117.23,34.3422],[-117.2285,34.3453],[-117.225,34.3391],[-117.2229,34.3429],[-117.2215,34.3434],[-117.2191,34.3413],[-117.2138,34.3426],[-117.2089,34.3406],[-117.1988,34.3437],[-117.1968,34.3428],[-117.1945,34.3453],[-117.1911,34.3423],[-117.1883,34.3431],[-117.186,34.3414],[-117.1812,34.3433],[-117.1799,34.34],[-117.1777,34.339],[-117.1777,34.3423],[-117.1755,34.3435],[-117.1733,34.3412],[-117.1706,34.3417],[-117.1687,34.3387],[-117.1659,34.3388],[-117.1593,34.3352],[-117.1591,34.3339],[-117.1615,34.3316],[-117.1569,34.3266],[-117.1526,34.3265],[-117.1513,34.324],[-117.1486,34.3267],[-117.1462,34.3267],[-117.1432,34.3237],[-117.1452,34.3232],[-117.144,34.3202],[-117.1378,34.3172],[-117.1392,34.3148],[-117.1371,34.3105],[-117.1389,34.3083],[-117.1356,34.3076],[-117.1339,34.3059],[-117.1312,34.3061],[-117.1284,34.3016],[-117.1243,34.3009],[-117.1244,34.2966],[-117.1262,34.2921],[-117.1284,34.2905],[-117.1263,34.2888],[-117.1283,34.2835],[-117.1257,34.2843],[-117.1245,34.282],[-117.1279,34.2813],[-117.1269,34.2747],[-117.1308,34.271],[-117.1274,34.2654],[-117.1256,34.2653],[-117.1257,34.2632],[-117.1272,34.2612],[-117.1354,34.2574],[-117.136,34.2546],[-117.1435,34.2479],[-117.1468,34.2384],[-117.1533,34.237],[-117.1518,34.2357],[-117.1482,34.2357],[-117.147,34.2334],[-117.1635,34.2333],[-117.1661,34.2301],[-117.1655,34.2273],[-117.1636,34.2262],[-117.1648,34.2253],[-117.1644,34.219],[-117.167,34.2151],[-117.1686,34.2093],[-117.171,34.2075],[-117.1709,34.198],[-117.176,34.1914],[-117.1747,34.1882],[-117.182,34.1842],[-117.1839,34.1815],[-117.1853,34.1766],[-117.1813,34.1718],[-117.1829,34.1677],[-117.1815,34.1657],[-117.1836,34.1623],[-117.183,34.1601],[-117.1848,34.1582],[-117.1839,34.156],[-117.1885,34.1523],[-117.1893,34.1501],[-117.1736,34.1499],[-117.1736,34.1428],[-117.1694,34.1426],[-117.1693,34.1462],[-117.1651,34.146],[-117.1651,34.1353],[-117.1393,34.1349],[-117.1391,34.117],[-117.1347,34.1169],[-117.1347,34.1152],[-117.1324,34.1134],[-117.1302,34.1134],[-117.1301,34.1062],[-117.1036,34.1057],[-117.1036,34.0911],[-117.0347,34.092],[-117.0349,34.0775],[-116.9995,34.0773],[-116.9995,34.0628],[-116.9822,34.0637],[-116.9822,34.0563],[-116.9559,34.0569],[-116.9558,34.0496],[-116.9294,34.0497],[-116.9296,34.0341],[-116.7197,34.0338],[-116.7198,34.1195],[-116.7178,34.1196],[-116.7179,34.1341],[-116.6991,34.1343],[-116.6993,34.1485],[-116.6824,34.1487],[-116.6829,34.1771],[-116.6476,34.1781],[-116.6472,34.2356],[-116.6643,34.2356],[-116.6649,34.2793],[-116.6824,34.2794],[-116.6825,34.2934],[-116.7182,34.2936],[-116.7183,34.3083],[-116.7357,34.3083],[-116.7357,34.3228],[-116.7712,34.3228],[-116.7711,34.3412],[-116.7886,34.3412],[-116.7886,34.3558],[-116.8211,34.3555],[-116.821,34.3515],[-116.8317,34.3513],[-116.9075,34.3516],[-116.9452,34.3533],[-116.9612,34.3522],[-116.96,34.3664],[-117.104,34.3677],[-117.1041,34.3526],[-117.2415,34.3535],[-117.2417,34.3413]]]},"properties":{"GEOID":"0607190220","BASENAME":"Big Bear","NAME":"Big Bear CCD","COUNTY":"071","COUSUB":"90220"}},{"type":"Feature","geometry":{"type":"Polygon","coordinates":[[[-117.6673,34.7328],[-117.6671,34.5579],[-117.6604,34.5579],[-117.6598,34.4528],[-117.6552,34.397],[-117.6421,34.3973],[-117.642,34.39],[-117.6248,34.3899],[-117.6246,34.3828],[-117.4854,34.3834],[-117.4856,34.3686],[-117.4512,34.3685],[-117.4511,34.3542],[-117.4333,34.3542],[-117.4334,34.3398],[-117.4255,34.3398],[-117.4249,34.3255],[-117.4159,34.3255],[-117.4161,34.3182],[-117.3984,34.3181],[-117.3985,34.3108],[-117.259,34.311],[-117.2588,34.326],[-117.2504,34.3257],[-117.25,34.3404],[-117.2417,34.3405],[-117.2415,34.3535],[-117.1041,34.3526],[-117.104,34.3677],[-116.96,34.3664],[-116.9612,34.3522],[-116.9452,34.3533],[-116.9075,34.3516],[-116.8466,34.3515],[-116.8478,34.3538],[-116.8547,34.359],[-116.8579,34.3641],[-116.8597,34.3734],[-116.8584,34.3888],[-116.858,34.5017],[-116.8422,34.5137],[-116.8092,34.5425],[-116.8011,34.5455],[-116.7895,34.5534],[-116.7832,34.5607],[-116.7818,34.5608],[-116.7792,34.5685],[-116.7734,34.5769],[-116.7491,34.6049],[-116.7414,34.6092],[-116.7317,34.6247],[-116.725,34.6402],[-116.7156,34.6535],[-116.7074,34.6725],[-116.7307,34.68],[-116.7336,34.6831],[-116.7352,34.687],[-116.7794,34.7164],[-116.7893,34.7138],[-116.8005,34.7087],[-116.8293,34.7126],[-116.8468,34.7046],[-116.894,34.6964],[-116.9222,34.686],[-116.956,34.6858],[-116.9663,34.681],[-117.0094,34.7589],[-117.028,34.8194],[-117.0386,34.817],[-117.0429,34.8225],[-117.0468,34.8242],[-117.0784,34.8148],[-117.0827,34.8155],[-117.0843,34.8124],[-117.0885,34.8103],[-117.0963,34.8109],[-117.1017,34.8053],[-117.1664,34.753],[-117.1732,34.7566],[-117.1809,34.7642],[-117.1986,34.7765],[-117.2036,34.782],[-117.2146,34.7888],[-117.2195,34.7969],[-117.2197,34.7988],[-117.2082,34.8033],[-117.1898,34.8192],[-117.1845,34.8272],[-117.1803,34.8303],[-117.1867,34.8345],[-117.1921,34.8356],[-117.1944,34.8286],[-117.1984,34.8224],[-117.2047,34.8164],[-117.227,34.8022],[-117.2343,34.7992],[-117.2485,34.8021],[-117.2548,34.8012],[-117.2609,34.7985],[-117.277,34.7849],[-117.2893,34.7788],[-117.2992,34.7719],[-117.3174,34.7578],[-117.3226,34.7515],[-117.3357,34.7398],[-117.3428,34.7249],[-117.3536,34.7317],[-117.3611,34.7324],[-117.529,34.7236],[-117.54,34.7267],[-117.5899,34.7235],[-117.5915,34.7213],[-117.5972,34.7196],[-117.6139,34.7195],[-117.6142,34.7337],[-117.6165,34.7343],[-117.6672,34.7343],[-117.6673,34.7328]]]},"properties":{"GEOID":"0607193555","BASENAME":"Victorville-Hesperia","NAME":"Victorville-Hesperia CCD","COUNTY":"071","COUSUB":"93555"}},{"type":"Feature","geometry":{"type":"Polygon","coordinates":[[[-117.5934,34.066],[-117.5934,34.0625],[-117.5811,34.0629],[-117.5758,34.0615],[-117.5759,34.0483],[-117.5933,34.0483],[-117.5932,34.0191],[-117.5583,34.0189],[-117.5583,34.0335],[-117.3753,34.0339],[-117.3742,34.0308],[-117.3773,34.0267],[-117.3754,34.0254],[-117.3754,34.0194],[-117.2255,34.018],[-117.2254,34.0042],[-117.0649,34.0039],[-117.068,34.0094],[-117.0721,34.0121],[-117.0941,34.016],[-117.1071,34.0235],[-117.1275,34.0285],[-117.1388,34.0333],[-117.1379,34.0381],[-117.139,34.0484],[-117.1186,34.0482],[-117.1119,34.0425],[-117.1033,34.0402],[-117.0978,34.0412],[-117.0996,34.0421],[-117.0992,34.0449],[-117.0953,34.0453],[-117.0933,34.0483],[-117.0606,34.0485],[-117.0606,34.0556],[-117.0519,34.0557],[-117.0521,34.0639],[-117.0462,34.0645],[-117.043,34.0683],[-117.0365,34.0684],[-117.0411,34.0744],[-117.0488,34.0784],[-117.0429,34.0828],[-117.0416,34.0871],[-117.036,34.0919],[-117.1036,34.0911],[-117.1036,34.1057],[-117.1301,34.1062],[-117.1302,34.1134],[-117.1324,34.1134],[-117.1347,34.1152],[-117.1347,34.1169],[-117.1391,34.117],[-117.1393,34.1349],[-117.1651,34.1353],[-117.1651,34.146],[-117.1693,34.1462],[-117.1694,34.1426],[-117.1736,34.1428],[-117.1736,34.1499],[-117.1912,34.1502],[-117.1913,34.1466],[-117.2,34.1465],[-117.1999,34.1501],[-117.2043,34.1502],[-117.2043,34.1454],[-117.2087,34.1466],[-117.2087,34.145],[-117.2129,34.1457],[-117.2129,34.1467],[-117.2187,34.1467],[-117.2195,34.1481],[-117.2252,34.1499],[-117.2246,34.1483],[-117.226,34.1483],[-117.226,34.1467],[-117.2281,34.1467],[-117.2275,34.1495],[-117.2306,34.1494],[-117.2306,34.1522],[-117.232,34.1522],[-117.2325,34.1575],[-117.226,34.1574],[-117.2259,34.1648],[-117.2301,34.1648],[-117.234,34.1594],[-117.2377,34.1578],[-117.2441,34.1581],[-117.2524,34.164],[-117.2568,34.1649],[-117.2579,34.1674],[-117.2609,34.1686],[-117.262,34.1678],[-117.2619,34.169],[-117.2828,34.1777],[-117.2873,34.1777],[-117.2873,34.1796],[-117.3097,34.1892],[-117.3093,34.1935],[-117.3048,34.1935],[-117.3049,34.2008],[-117.3136,34.2009],[-117.3136,34.1972],[-117.3199,34.1972],[-117.32,34.196],[-117.3223,34.1958],[-117.3223,34.1942],[-117.3252,34.1943],[-117.3316,34.2009],[-117.3298,34.2119],[-117.3269,34.2118],[-117.3268,34.2151],[-117.3293,34.2146],[-117.3297,34.2158],[-117.3354,34.2184],[-117.3357,34.2084],[-117.3482,34.2084],[-117.3482,34.2102],[-117.3526,34.2102],[-117.3526,34.212],[-117.3548,34.2121],[-117.3548,34.2138],[-117.357,34.2139],[-117.357,34.2156],[-117.3683,34.2157],[-117.3678,34.2251],[-117.3748,34.2288],[-117.3792,34.2264],[-117.3831,34.2275],[-117.3973,34.2351],[-117.398,34.237],[-117.4052,34.2378],[-117.4153,34.2422],[-117.4164,34.2455],[-117.4199,34.247],[-117.4236,34.2427],[-117.4263,34.2346],[-117.4097,34.2253],[-117.4148,34.2036],[-117.4203,34.1942],[-117.4367,34.1815],[-117.4458,34.1986],[-117.4498,34.2008],[-117.4419,34.1855],[-117.4442,34.1805],[-117.4494,34.1779],[-117.4536,34.1724],[-117.4535,34.1504],[-117.4787,34.1504],[-117.4884,34.1423],[-117.4888,34.1066],[-117.5456,34.1064],[-117.5458,34.0923],[-117.5441,34.0924],[-117.5451,34.0675],[-117.5934,34.0677],[-117.5934,34.066]]]},"properties":{"GEOID":"0607192770","BASENAME":"San Bernardino","NAME":"San Bernardino CCD","COUNTY":"071","COUSUB":"92770"}},{"type":"Feature","geometry":{"type":"Polygon","coordinates":[[[-117.4821,34.3302],[-117.4817,34.3222],[-117.4786,34.3156],[-117.4685,34.3063],[-117.4608,34.3023],[-117.4532,34.2929],[-117.4537,34.281],[-117.4511,34.2722],[-117.4553,34.268],[-117.4636,34.2659],[-117.467,34.2634],[-117.4675,34.2605],[-117.4646,34.2565],[-117.4263,34.2346],[-117.4236,34.2427],[-117.4199,34.247],[-117.4164,34.2455],[-117.4153,34.2422],[-117.4052,34.2378],[-117.398,34.237],[-117.3973,34.2351],[-117.3831,34.2275],[-117.3792,34.2264],[-117.3748,34.2288],[-117.3678,34.2251],[-117.3683,34.2157],[-117.357,34.2156],[-117.357,34.2139],[-117.3548,34.2138],[-117.3548,34.2121],[-117.3526,34.212],[-117.3526,34.2102],[-117.3482,34.2102],[-117.3482,34.2084],[-117.3357,34.2084],[-117.3354,34.2184],[-117.3297,34.2158],[-117.3293,34.2146],[-117.3268,34.2151],[-117.3269,34.2118],[-117.3298,34.2119],[-117.3316,34.2009],[-117.3252,34.1943],[-117.3223,34.1942],[-117.3223,34.1958],[-117.32,34.196],[-117.3199,34.1972],[-117.3136,34.1972],[-117.3136,34.2009],[-117.3049,34.2008],[-117.3048,34.1935],[-117.3093,34.1935],[-117.3097,34.1892],[-117.2873,34.1796],[-117.2873,34.1777],[-117.2828,34.1777],[-117.2619,34.169],[-117.262,34.1678],[-117.2609,34.1686],[-117.2579,34.1674],[-117.2568,34.1649],[-117.2524,34.164],[-117.2437,34.158],[-117.2377,34.1578],[-117.234,34.1594],[-117.2301,34.1648],[-117.2259,34.1648],[-117.226,34.1574],[-117.2325,34.1575],[-117.232,34.1522],[-117.2306,34.1522],[-117.2306,34.1494],[-117.2275,34.1495],[-117.2281,34.1467],[-117.226,34.1467],[-117.2246,34.1499],[-117.2195,34.1481],[-117.2187,34.1467],[-117.2129,34.1467],[-117.2129,34.1457],[-117.2087,34.145],[-117.2087,34.1466],[-117.2067,34.1467],[-117.2043,34.1454],[-117.2043,34.1502],[-117.1999,34.1501],[-117.2,34.1465],[-117.1913,34.1466],[-117.1912,34.1502],[-117.1893,34.1501],[-117.1885,34.1523],[-117.1839,34.156],[-117.1848,34.1582],[-117.183,34.1601],[-117.1836,34.1623],[-117.1815,34.1657],[-117.1829,34.1677],[-117.1813,34.1718],[-117.1853,34.1766],[-117.1839,34.1815],[-117.182,34.1842],[-117.1747,34.1882],[-117.176,34.1914],[-117.1709,34.198],[-117.171,34.2075],[-117.1686,34.2093],[-117.167,34.2151],[-117.1644,34.219],[-117.1648,34.2253],[-117.1636,34.2262],[-117.1655,34.2273],[-117.1661,34.2301],[-117.1635,34.2333],[-117.147,34.2334],[-117.1482,34.2357],[-117.1518,34.2357],[-117.1533,34.237],[-117.1468,34.2384],[-117.1435,34.2479],[-117.136,34.2546],[-117.1354,34.2574],[-117.1272,34.2612],[-117.1257,34.2632],[-117.1256,34.2653],[-117.1274,34.2654],[-117.1308,34.271],[-117.1269,34.2747],[-117.1279,34.2813],[-117.1245,34.282],[-117.1257,34.2843],[-117.1283,34.2835],[-117.1263,34.2888],[-117.1284,34.2905],[-117.1262,34.2921],[-117.1244,34.2966],[-117.1244,34.3012],[-117.1283,34.3015],[-117.1312,34.3061],[-117.1339,34.3059],[-117.1356,34.3076],[-117.1389,34.3083],[-117.1371,34.3105],[-117.1392,34.3148],[-117.1378,34.3172],[-117.144,34.3202],[-117.1452,34.3232],[-117.1432,34.3237],[-117.1462,34.3267],[-117.1486,34.3267],[-117.1513,34.324],[-117.1526,34.3265],[-117.1569,34.3266],[-117.1615,34.3316],[-117.1591,34.3339],[-117.1593,34.3352],[-117.1659,34.3388],[-117.1687,34.3387],[-117.1706,34.3417],[-117.1733,34.3412],[-117.1755,34.3435],[-117.1777,34.3423],[-117.1777,34.339],[-117.1799,34.34],[-117.1812,34.3433],[-117.186,34.3414],[-117.1883,34.3431],[-117.1911,34.3423],[-117.1945,34.3453],[-117.1968,34.3428],[-117.1988,34.3437],[-117.2089,34.3406],[-117.2138,34.3426],[-117.2191,34.3413],[-117.2215,34.3434],[-117.2229,34.3429],[-117.225,34.3391],[-117.2285,34.3453],[-117.23,34.3422],[-117.25,34.3404],[-117.2504,34.3257],[-117.2588,34.326],[-117.259,34.311],[-117.3985,34.3108],[-117.3984,34.3181],[-117.4161,34.3182],[-117.4159,34.3255],[-117.4249,34.3255],[-117.4255,34.3398],[-117.4334,34.3398],[-117.4333,34.3542],[-117.438,34.3542],[-117.4396,34.3498],[-117.4428,34.3466],[-117.4559,34.3415],[-117.4776,34.3391],[-117.4814,34.3353],[-117.4821,34.3302]]]},"properties":{"GEOID":"0607191513","BASENAME":"Lake Arrowhead","NAME":"Lake Arrowhead CCD","COUNTY":"071","COUSUB":"91513"}},{"type":"Feature","geometry":{"type":"Polygon","coordinates":[[[-117.6774,34.1661],[-117.6767,34.1652],[-117.4968,34.165],[-117.4882,34.1666],[-117.4882,34.1794],[-117.4839,34.1793],[-117.4839,34.1722],[-117.4818,34.1722],[-117.48,34.1686],[-117.4691,34.1707],[-117.4531,34.1764],[-117.4491,34.1796],[-117.4442,34.1805],[-117.4419,34.1855],[-117.4498,34.2008],[-117.4458,34.1986],[-117.4367,34.1815],[-117.4215,34.1931],[-117.4135,34.2066],[-117.4097,34.2253],[-117.4663,34.2581],[-117.4677,34.2615],[-117.4667,34.2637],[-117.4636,34.2659],[-117.4553,34.268],[-117.4511,34.2721],[-117.4537,34.281],[-117.4532,34.2929],[-117.4608,34.3023],[-117.4685,34.3063],[-117.4773,34.3141],[-117.4803,34.3184],[-117.4819,34.3234],[-117.4819,34.3338],[-117.4789,34.3382],[-117.4732,34.3403],[-117.4595,34.3405],[-117.4465,34.3448],[-117.4406,34.3486],[-117.438,34.3542],[-117.4511,34.3542],[-117.4512,34.3685],[-117.4856,34.3686],[-117.4854,34.3834],[-117.6246,34.3828],[-117.6248,34.3899],[-117.642,34.39],[-117.6421,34.3973],[-117.6552,34.397],[-117.6464,34.2892],[-117.6774,34.1661]]]},"properties":{"GEOID":"0607192040","BASENAME":"Mount Baldy-Wrightwood","NAME":"Mount Baldy-Wrightwood CCD","COUNTY":"071","COUSUB":"92040"}},{"type":"Feature","geometry":{"type":"Polygon","coordinates":[[[-117.8025,33.9756],[-117.8024,33.9683],[-117.7937,33.9681],[-117.7936,33.9538],[-117.7381,33.9137],[-117.6793,33.8776],[-117.6723,33.8712],[-117.6708,33.8743],[-117.6732,33.8754],[-117.669,33.8808],[-117.6728,33.8867],[-117.6763,33.8886],[-117.6548,33.8887],[-117.6552,33.9249],[-117.611,33.9242],[-117.6109,33.9718],[-117.5584,33.9884],[-117.5583,34.0189],[-117.5932,34.0191],[-117.5933,34.0483],[-117.5759,34.0483],[-117.5758,34.0615],[-117.5811,34.0629],[-117.5934,34.0625],[-117.5934,34.0677],[-117.5451,34.0675],[-117.5441,34.0924],[-117.5458,34.0923],[-117.5456,34.1064],[-117.4888,34.1066],[-117.4884,34.1423],[-117.4787,34.1504],[-117.4535,34.1504],[-117.4536,34.1724],[-117.4496,34.1778],[-117.4466,34.1796],[-117.4491,34.1796],[-117.4531,34.1764],[-117.4691,34.1707],[-117.48,34.1686],[-117.4818,34.1722],[-117.4839,34.1722],[-117.4839,34.1793],[-117.4882,34.1794],[-117.4882,34.1666],[-117.4968,34.165],[-117.6767,34.1652],[-117.6772,34.1674],[-117.6868,34.1381],[-117.7165,34.0676],[-117.7274,34.0374],[-117.7301,34.0214],[-117.7358,34.0186],[-117.7677,34.0235],[-117.7675,34.0047],[-117.785,34.0049],[-117.8025,33.9756]]]},"properties":{"GEOID":"0607192260","BASENAME":"Ontario","NAME":"Ontario CCD","COUNTY":"071","COUSUB":"92260"}},{"type":"Feature","geometry":{"type":"Polygon","coordinates":[[[-117.6522,35.6817],[-117.652,35.6808],[-117.6165,35.6807],[-117.6165,35.6516],[-117.6343,35.6516],[-117.6346,35.5643],[-117.6301,35.5643],[-117.6297,35.4662],[-117.6302,35.4514],[-117.6337,35.4514],[-117.6337,35.4345],[-117.6313,35.4196],[-117.6325,35.4056],[-117.6311,35.3617],[-117.631,35.2474],[-117.5763,35.2646],[-117.5225,35.2864],[-117.4561,35.3102],[-117.4533,35.3135],[-117.4455,35.3134],[-117.4049,35.3298],[-117.3921,35.3368],[-117.3808,35.345],[-117.3537,35.3562],[-117.3461,35.3577],[-117.341,35.3649],[-117.3399,35.3689],[-117.3165,35.3852],[-117.3139,35.3888],[-117.2619,35.394],[-117.2618,35.2729],[-116.9914,35.2717],[-116.927,35.2725],[-116.9256,35.71],[-116.9443,35.7099],[-116.9443,35.7165],[-116.9747,35.7166],[-116.9747,35.7237],[-116.9701,35.7237],[-116.9701,35.7323],[-116.9373,35.7325],[-116.9357,35.7954],[-117.3759,35.7951],[-117.6343,35.7973],[-117.6343,35.7098],[-117.6521,35.7099],[-117.6522,35.6817]]]},"properties":{"GEOID":"0607192955","BASENAME":"Searles Valley","NAME":"Searles Valley CCD","COUNTY":"071","COUSUB":"92955"}},{"type":"Feature","geometry":{"type":"Polygon","coordinates":[[[-117.6675,34.8225],[-117.6672,34.7343],[-117.6142,34.7337],[-117.6139,34.7195],[-117.5972,34.7196],[-117.5915,34.7213],[-117.5899,34.7235],[-117.54,34.7267],[-117.529,34.7236],[-117.3611,34.7324],[-117.3536,34.7317],[-117.3428,34.7249],[-117.3357,34.7398],[-117.3226,34.7515],[-117.3174,34.7578],[-117.2992,34.7719],[-117.2893,34.7788],[-117.277,34.7849],[-117.2609,34.7985],[-117.2548,34.8012],[-117.2485,34.8021],[-117.2343,34.7992],[-117.227,34.8022],[-117.2047,34.8164],[-117.1984,34.8224],[-117.1944,34.8286],[-117.1921,34.8356],[-117.1867,34.8345],[-117.1803,34.8303],[-117.1845,34.8272],[-117.1898,34.8192],[-117.2082,34.8033],[-117.2197,34.7988],[-117.2195,34.7969],[-117.2146,34.7888],[-117.2036,34.782],[-117.1986,34.7765],[-117.1809,34.7642],[-117.1732,34.7566],[-117.1664,34.753],[-117.1017,34.8053],[-117.0963,34.8109],[-117.0885,34.8103],[-117.0843,34.8124],[-117.0827,34.8155],[-117.0784,34.8148],[-117.0468,34.8242],[-117.0429,34.8225],[-117.0386,34.817],[-117.028,34.8194],[-117.0094,34.7589],[-116.9663,34.681],[-116.956,34.6858],[-116.9222,34.686],[-116.894,34.6964],[-116.8468,34.7046],[-116.8293,34.7126],[-116.7996,34.7089],[-116.7893,34.7138],[-116.7794,34.7164],[-116.7941,34.7249],[-116.8124,34.7317],[-116.8222,34.7389],[-116.8247,34.7474],[-116.8225,34.7533],[-116.821,34.7549],[-116.8187,34.755],[-116.8181,34.7594],[-116.8285,34.7675],[-116.8419,34.7837],[-116.8426,34.8044],[-116.8489,34.8253],[-116.8737,34.851],[-116.8799,34.8524],[-116.874,34.8533],[-116.8663,34.8603],[-116.8793,34.8626],[-116.864,34.8802],[-116.8344,34.8787],[-116.8248,34.8819],[-116.8201,34.885],[-116.8163,34.8898],[-116.8018,34.8938],[-116.7908,34.8946],[-116.7861,34.8964],[-116.7781,34.897],[-116.772,34.8961],[-116.7604,34.9155],[-116.7626,34.9166],[-116.763,34.9183],[-116.7508,34.9278],[-116.7474,34.9394],[-116.7493,34.9474],[-116.7607,34.9589],[-116.7665,34.9626],[-116.7678,34.9652],[-116.7641,34.9748],[-116.768,35.0063],[-116.7656,35.0151],[-116.7633,35.0342],[-116.7679,35.0444],[-116.7738,35.0522],[-116.7877,35.0599],[-116.7891,35.0638],[-116.7946,35.069],[-116.8045,35.0733],[-116.8043,35.0774],[-116.7938,35.0839],[-116.7896,35.0881],[-116.7896,35.0894],[-116.7918,35.0898],[-116.7916,35.0928],[-116.7932,35.095],[-116.8072,35.0966],[-116.8247,35.1038],[-116.8365,35.1118],[-116.8478,35.1154],[-116.856,35.1226],[-116.8616,35.1308],[-116.8642,35.137],[-116.8701,35.1357],[-116.8813,35.1358],[-116.8866,35.1378],[-116.8947,35.1381],[-116.8981,35.1363],[-116.9165,35.1433],[-116.9336,35.1451],[-116.9367,35.1474],[-116.9397,35.1458],[-116.9404,35.1474],[-116.9382,35.1531],[-116.9383,35.1579],[-116.9418,35.1778],[-116.9445,35.1845],[-116.9584,35.1848],[-116.9586,35.1993],[-117.0454,35.1989],[-117.0823,35.2],[-117.0831,35.2726],[-117.2618,35.2729],[-117.2619,35.394],[-117.3112,35.3897],[-117.314,35.3887],[-117.3165,35.3852],[-117.3399,35.3689],[-117.341,35.3649],[-117.3461,35.3577],[-117.3537,35.3562],[-117.3808,35.345],[-117.3921,35.3368],[-117.4049,35.3298],[-117.4455,35.3134],[-117.4533,35.3135],[-117.4561,35.3102],[-117.5225,35.2864],[-117.5763,35.2646],[-117.631,35.2474],[-117.6309,35.0976],[-117.6333,35.0976],[-117.6322,34.8223],[-117.6675,34.8225]]]},"properties":{"GEOID":"0607190188","BASENAME":"Barstow","NAME":"Barstow CCD","COUNTY":"071","COUSUB":"90188"}}]}