{"type":"FeatureCollection","features":[{"type":"Feature","geometry":{"type":"Polygon","coordinates":[[[-117.611,33.3341],[-117.5715,33.3123],[-117.5496,33.2944],[-117.521,33.2689],[-117.5009,33.2422],[-117.4679,33.2125],[-117.4374,33.1795],[-117.4024,33.2056],[-117.3976,33.2098],[-117.3984,33.2107],[-117.3956,33.214],[-117.3937,33.2127],[-117.3941,33.2085],[-117.3925,33.207],[-117.3904,33.2071],[-117.2693,33.3],[-117.2658,33.3292],[-117.2492,33.3289],[-117.2494,33.3396],[-117.2535,33.3398],[-117.2538,33.3582],[-117.2621,33.3583],[-117.2553,33.4065],[-117.2743,33.4074],[-117.2953,33.4178],[-117.3135,33.4079],[-117.3136,33.4129],[-117.318,33.413],[-117.318,33.4166],[-117.3231,33.4165],[-117.3231,33.4131],[-117.3247,33.4131],[-117.3245,33.4165],[-117.3265,33.4167],[-117.3264,33.4235],[-117.3306,33.4235],[-117.3307,33.42],[-117.3394,33.4201],[-117.3395,33.4269],[-117.335,33.427],[-117.335,33.4307],[-117.3634,33.4302],[-117.3635,33.4447],[-117.3974,33.4446],[-117.4005,33.4558],[-117.4078,33.4601],[-117.458,33.4757],[-117.4651,33.4773],[-117.4667,33.4737],[-117.4699,33.4712],[-117.4754,33.4702],[-117.4719,33.4879],[-117.4783,33.4948],[-117.4837,33.4975],[-117.4827,33.5001],[-117.4877,33.5033],[-117.5094,33.4841],[-117.5095,33.4703],[-117.5382,33.4549],[-117.5598,33.4514],[-117.5785,33.4538],[-117.5961,33.3859],[-117.611,33.3341]]]},"properties":{"GEOID":"0607390355","BASENAME":"Camp Pendleton","NAME":"Camp Pendleton CCD","COUNTY":"073","COUSUB":"90355"}},{"type":"Feature","geometry":{"type":"Polygon","coordinates":[[[-116.8289,32.7929],[-116.8284,32.7905],[-116.8145,32.7911],[-116.8144,32.7802],[-116.824,32.7796],[-116.8238,32.7725],[-116.8257,32.7725],[-116.819,32.7718],[-116.8162,32.7703],[-116.8119,32.7706],[-116.8097,32.7725],[-116.8071,32.7725],[-116.8068,32.7744],[-116.8056,32.7745],[-116.7988,32.772],[-116.7935,32.7743],[-116.7915,32.7788],[-116.794,32.7827],[-116.7918,32.7847],[-116.7835,32.7866],[-116.7753,32.7855],[-116.7732,32.7873],[-116.7653,32.7862],[-116.7597,32.7949],[-116.7507,32.7919],[-116.7511,32.7976],[-116.7463,32.8015],[-116.7458,32.8061],[-116.7429,32.8064],[-116.7433,32.8125],[-116.7411,32.8142],[-116.7385,32.8145],[-116.7386,32.8125],[-116.7331,32.8102],[-116.7242,32.8129],[-116.7174,32.8111],[-116.7139,32.813],[-116.7105,32.8181],[-116.7038,32.8219],[-116.6948,32.8221],[-116.6891,32.8198],[-116.6777,32.8237],[-116.6763,32.8265],[-116.6714,32.8274],[-116.6766,32.8359],[-116.6766,32.8379],[-116.6811,32.8384],[-116.6815,32.8402],[-116.6838,32.8418],[-116.6876,32.8418],[-116.6874,32.8435],[-116.7015,32.842],[-116.7014,32.8383],[-116.7109,32.8382],[-116.7111,32.8491],[-116.7068,32.8491],[-116.7066,32.8565],[-116.7025,32.8565],[-116.7028,32.8665],[-116.6987,32.8665],[-116.6983,32.8635],[-116.6946,32.8642],[-116.6981,32.8738],[-116.7193,32.8742],[-116.7195,32.8891],[-116.7552,32.8882],[-116.7558,32.874],[-116.7725,32.874],[-116.7728,32.8818],[-116.7877,32.8809],[-116.7894,32.8762],[-116.7899,32.8884],[-116.7943,32.8834],[-116.793,32.8781],[-116.7952,32.8722],[-116.7949,32.8683],[-116.798,32.8652],[-116.799,32.8604],[-116.8039,32.855],[-116.8053,32.8484],[-116.8074,32.8478],[-116.8094,32.8443],[-116.8076,32.8417],[-116.8155,32.8312],[-116.811,32.8254],[-116.8064,32.8224],[-116.8068,32.819],[-116.81,32.8185],[-116.8093,32.8122],[-116.8123,32.8077],[-116.8238,32.8009],[-116.8281,32.7958],[-116.8289,32.7929]]]},"properties":{"GEOID":"0607390030","BASENAME":"Alpine","NAME":"Alpine CCD","COUNTY":"073","COUSUB":"90030"}},{"type":"Feature","geometry":{"type":"Polygon","coordinates":[[[-116.6184,33.3772],[-116.618,33.3633],[-116.5674,33.3629],[-116.5676,33.3559],[-116.5803,33.3542],[-116.5803,33.3488],[-116.5715,33.3487],[-116.5714,33.3472],[-116.5676,33.3473],[-116.567,33.3416],[-116.5014,33.3411],[-116.5008,33.2491],[-116.4999,33.2468],[-116.4915,33.2466],[-116.4916,33.2319],[-116.4959,33.2321],[-116.4953,33.2105],[-116.5082,33.2104],[-116.5082,33.2029],[-116.4997,33.2029],[-116.4995,33.1917],[-116.495,33.1898],[-116.4926,33.1865],[-116.4974,33.1838],[-116.4993,33.1852],[-116.5003,33.1846],[-116.5014,33.1777],[-116.5124,33.1781],[-116.5125,33.1812],[-116.517,33.1816],[-116.5162,33.1675],[-116.5115,33.1623],[-116.5066,33.1623],[-116.4959,33.1577],[-116.4855,33.1572],[-116.4801,33.1553],[-116.4761,33.1521],[-116.4621,33.152],[-116.4498,33.1476],[-116.435,33.1397],[-116.422,33.1347],[-116.417,33.1345],[-116.4202,33.1295],[-116.4345,33.1286],[-116.4358,33.1245],[-116.4345,33.1195],[-116.4491,33.1106],[-116.451,33.1058],[-116.4542,33.103],[-116.4594,33.1006],[-116.4682,33.0996],[-116.5317,33.0784],[-116.5466,33.0689],[-116.5477,33.0675],[-116.5448,33.0672],[-116.5476,33.0635],[-116.5469,33.0605],[-116.5407,33.0506],[-116.5383,33.0501],[-116.5402,33.0449],[-116.5374,33.0409],[-116.5361,33.0349],[-116.5312,33.0282],[-116.53,33.0238],[-116.5276,33.0206],[-116.5266,33.0142],[-116.5291,33.0118],[-116.5302,33.013],[-116.5329,33.0126],[-116.5325,33.0138],[-116.5343,33.0146],[-116.5351,33.0125],[-116.5372,33.0135],[-116.538,33.0109],[-116.5403,33.0106],[-116.5441,33.0187],[-116.5504,33.0201],[-116.5586,33.0172],[-116.5613,33.0186],[-116.5625,33.0159],[-116.5612,33.0109],[-116.545,32.9953],[-116.5383,32.9939],[-116.5346,32.9917],[-116.5331,32.989],[-116.533,32.9845],[-116.5307,32.9811],[-116.5177,32.9749],[-116.5138,32.9704],[-116.5077,32.954],[-116.5045,32.9488],[-116.5014,32.9476],[-116.4995,32.9448],[-116.4937,32.9446],[-116.487,32.936],[-116.4826,32.9345],[-116.4808,32.9288],[-116.4824,32.9241],[-116.4773,32.9244],[-116.4613,32.9115],[-116.4533,32.8986],[-116.4497,32.8973],[-116.448,32.8932],[-116.4305,32.8842],[-116.4295,32.8858],[-116.428,32.8855],[-116.4266,32.8893],[-116.4276,32.8918],[-116.4242,32.8928],[-116.4215,32.891],[-116.4192,32.8879],[-116.4179,32.8823],[-116.4161,32.8831],[-116.4114,32.8735],[-116.4145,32.8724],[-116.4126,32.8716],[-116.416,32.8711],[-116.4158,32.8696],[-116.4139,32.8691],[-116.4141,32.8648],[-116.4129,32.8637],[-116.4123,32.8654],[-116.3778,32.8655],[-116.3775,32.8584],[-116.3598,32.8585],[-116.3597,32.8559],[-116.3573,32.8576],[-116.3432,32.8614],[-116.341,32.8636],[-116.3337,32.8643],[-116.3312,32.8657],[-116.3242,32.8647],[-116.3182,32.8717],[-116.3182,32.8585],[-116.3224,32.8586],[-116.3223,32.8549],[-116.3265,32.855],[-116.3265,32.8514],[-116.3349,32.8514],[-116.3346,32.8297],[-116.3263,32.8295],[-116.3262,32.8149],[-116.3095,32.8151],[-116.309,32.8294],[-116.2201,32.8288],[-116.2234,32.7263],[-116.2093,32.7266],[-116.208,32.7117],[-116.2094,32.6972],[-116.2087,32.6614],[-116.1954,32.6502],[-116.1762,32.6428],[-116.1647,32.6359],[-116.1473,32.6339],[-116.1134,32.637],[-116.11,32.6383],[-116.1058,32.6446],[-116.1056,32.7263],[-116.103,32.7264],[-116.1033,33.0748],[-116.0812,33.0749],[-116.0812,33.1908],[-116.0852,33.3392],[-116.0849,33.4263],[-116.1299,33.4261],[-116.1977,33.4289],[-116.2985,33.4275],[-116.6177,33.4274],[-116.6184,33.3772]]]},"properties":{"GEOID":"0607390258","BASENAME":"Borrego Springs","NAME":"Borrego Springs CCD","COUNTY":"073","COUSUB":"90258"}},{"type":"Feature","geometry":{"type":"Polygon","coordinates":[[[-116.7903,32.9122],[-116.7894,32.8762],[-116.7877,32.8809],[-116.7728,32.8818],[-116.7725,32.874],[-116.7552,32.874],[-116.7552,32.8882],[-116.7195,32.8891],[-116.7193,32.8742],[-116.6981,32.8738],[-116.6946,32.8642],[-116.6983,32.8635],[-116.6987,32.8665],[-116.7028,32.8665],[-116.7025,32.8565],[-116.7066,32.8565],[-116.7068,32.8491],[-116.7111,32.8491],[-116.7109,32.8382],[-116.7014,32.8383],[-116.7015,32.842],[-116.6874,32.8435],[-116.6876,32.8418],[-116.6838,32.8418],[-116.6815,32.8402],[-116.6811,32.8384],[-116.6766,32.8379],[-116.6766,32.8359],[-116.6713,32.8272],[-116.6763,32.8265],[-116.6777,32.8237],[-116.6891,32.8198],[-116.6948,32.8221],[-116.7038,32.8219],[-116.7105,32.8181],[-116.7139,32.813],[-116.7175,32.811],[-116.7242,32.8129],[-116.7331,32.8102],[-116.7386,32.8125],[-116.7384,32.8145],[-116.741,32.8142],[-116.7433,32.8128],[-116.7429,32.8064],[-116.7458,32.8061],[-116.7463,32.8015],[-116.7514,32.7966],[-116.7502,32.793],[-116.7451,32.7956],[-116.7355,32.7933],[-116.7318,32.7956],[-116.7224,32.7938],[-116.7187,32.7912],[-116.7105,32.7895],[-116.7084,32.7872],[-116.7083,32.7852],[-116.71,32.7828],[-116.7088,32.7801],[-116.7096,32.7775],[-116.7083,32.7759],[-116.7142,32.7779],[-116.7086,32.7748],[-116.7052,32.7712],[-116.699,32.7703],[-116.6887,32.7648],[-116.6752,32.7645],[-116.674,32.7595],[-116.6758,32.7558],[-116.6682,32.7486],[-116.6699,32.7439],[-116.6738,32.7432],[-116.6824,32.7275],[-116.6814,32.7244],[-116.6792,32.7241],[-116.6776,32.7216],[-116.6795,32.7185],[-116.673,32.7146],[-116.6724,32.709],[-116.667,32.7094],[-116.6642,32.7227],[-116.6586,32.7212],[-116.6577,32.7248],[-116.6511,32.7337],[-116.654,32.7385],[-116.6508,32.7385],[-116.6515,32.7408],[-116.6498,32.7431],[-116.6509,32.7454],[-116.6494,32.7484],[-116.6504,32.7513],[-116.648,32.7537],[-116.648,32.7579],[-116.6435,32.7597],[-116.6413,32.7626],[-116.6433,32.7643],[-116.6396,32.7685],[-116.6411,32.7721],[-116.6371,32.7728],[-116.6386,32.7757],[-116.6362,32.7743],[-116.6357,32.7775],[-116.6324,32.777],[-116.6333,32.7805],[-116.6303,32.7814],[-116.6302,32.7837],[-116.6264,32.7836],[-116.6258,32.7872],[-116.6233,32.7868],[-116.6218,32.7886],[-116.6194,32.7887],[-116.6086,32.7982],[-116.6012,32.7972],[-116.5988,32.7985],[-116.5948,32.7982],[-116.5939,32.7993],[-116.5894,32.798],[-116.582,32.8001],[-116.5745,32.8003],[-116.5733,32.8018],[-116.5746,32.8045],[-116.5712,32.8051],[-116.5709,32.807],[-116.568,32.8074],[-116.5674,32.8137],[-116.5653,32.8153],[-116.5658,32.8178],[-116.5622,32.8189],[-116.5601,32.8233],[-116.5533,32.8229],[-116.5436,32.8188],[-116.5322,32.8186],[-116.5105,32.8113],[-116.5086,32.8151],[-116.5102,32.8189],[-116.5082,32.8218],[-116.5053,32.8224],[-116.5038,32.8246],[-116.4999,32.8244],[-116.4962,32.8258],[-116.4952,32.8284],[-116.4967,32.8365],[-116.4951,32.8383],[-116.4957,32.8421],[-116.4942,32.845],[-116.4873,32.8461],[-116.4851,32.8496],[-116.4757,32.8549],[-116.4673,32.8556],[-116.4642,32.8574],[-116.4605,32.8622],[-116.4586,32.8615],[-116.4575,32.8578],[-116.4458,32.846],[-116.4408,32.8445],[-116.4361,32.8473],[-116.4297,32.8479],[-116.4305,32.8411],[-116.4248,32.8342],[-116.4238,32.8358],[-116.4217,32.8355],[-116.4207,32.8396],[-116.4181,32.8411],[-116.4194,32.8506],[-116.4212,32.8529],[-116.4205,32.855],[-116.4223,32.8565],[-116.4207,32.8587],[-116.4137,32.8592],[-116.4133,32.8673],[-116.416,32.8711],[-116.4126,32.8716],[-116.4145,32.8724],[-116.4114,32.8735],[-116.4161,32.8831],[-116.4179,32.8823],[-116.4192,32.8879],[-116.4227,32.892],[-116.4245,32.8928],[-116.4276,32.8918],[-116.4266,32.8893],[-116.428,32.8855],[-116.4295,32.8858],[-116.4305,32.8842],[-116.4432,32.8902],[-116.4481,32.8934],[-116.4499,32.8974],[-116.4532,32.8985],[-116.4613,32.9115],[-116.4773,32.9244],[-116.4824,32.9241],[-116.4808,32.9288],[-116.4824,32.9343],[-116.487,32.936],[-116.4937,32.9446],[-116.4995,32.9448],[-116.5014,32.9476],[-116.5045,32.9488],[-116.5077,32.954],[-116.5138,32.9704],[-116.5177,32.9749],[-116.5307,32.9811],[-116.533,32.9845],[-116.5331,32.989],[-116.5346,32.9917],[-116.5383,32.9939],[-116.5452,32.9954],[-116.5551,33.0041],[-116.5597,33.0103],[-116.5612,33.0109],[-116.5636,33.0081],[-116.5644,33.0025],[-116.5668,32.999],[-116.5723,32.993],[-116.5765,32.9907],[-116.5857,32.9917],[-116.5864,32.9945],[-116.5889,32.9944],[-116.5904,32.9963],[-116.5953,32.9975],[-116.5986,33.0012],[-116.6031,33.0033],[-116.604,33.0101],[-116.6069,33.0122],[-116.614,33.0082],[-116.6118,33.0118],[-116.6182,33.0097],[-116.6211,33.0048],[-116.6224,33.0091],[-116.6213,33.0098],[-116.6216,33.0122],[-116.6256,33.0114],[-116.6312,33.0175],[-116.6349,33.0168],[-116.6364,33.0235],[-116.6347,33.0258],[-116.6373,33.0251],[-116.6395,33.0272],[-116.638,33.0302],[-116.6353,33.0294],[-116.6341,33.0308],[-116.6356,33.0316],[-116.6335,33.0352],[-116.6362,33.0379],[-116.6356,33.0405],[-116.6371,33.0416],[-116.6354,33.0445],[-116.6361,33.0484],[-116.6389,33.047],[-116.6402,33.0435],[-116.6445,33.0424],[-116.6464,33.0435],[-116.6485,33.0382],[-116.6463,33.0358],[-116.6472,33.0345],[-116.65,33.0345],[-116.6517,33.0321],[-116.6542,33.0334],[-116.6654,33.0267],[-116.673,33.0254],[-116.6768,33.0213],[-116.6864,33.0204],[-116.6949,33.0269],[-116.7039,33.0241],[-116.7052,33.0219],[-116.7037,33.021],[-116.7083,33.0208],[-116.71,33.0193],[-116.7151,33.0023],[-116.7194,33.0031],[-116.7202,33.0021],[-116.7229,33.0033],[-116.7255,33.0024],[-116.7294,32.9972],[-116.7281,32.9939],[-116.7323,32.9935],[-116.7397,32.9889],[-116.7391,32.9881],[-116.7408,32.9875],[-116.7437,32.9817],[-116.7408,32.9777],[-116.7711,32.9782],[-116.7705,32.9633],[-116.773,32.9497],[-116.7893,32.9492],[-116.7903,32.9122]]]},"properties":{"GEOID":"0607391510","BASENAME":"Laguna-Pine Valley","NAME":"Laguna-Pine Valley CCD","COUNTY":"073","COUSUB":"91510"}},{"type":"Feature","geometry":{"type":"Polygon","coordinates":[[[-117.4372,33.1798],[-117.3759,33.0752],[-117.3149,33.0884],[-117.3131,33.087],[-117.2994,33.0912],[-117.2765,33.0902],[-117.2693,33.0888],[-117.2628,33.0739],[-117.2622,33.0676],[-117.2486,33.0674],[-117.2405,33.0739],[-117.2379,33.0804],[-117.2315,33.0864],[-117.2256,33.0953],[-117.2239,33.0955],[-117.2219,33.0999],[-117.2146,33.0996],[-117.208,33.0947],[-117.2055,33.0941],[-117.1998,33.0978],[-117.1976,33.0976],[-117.1963,33.1007],[-117.1939,33.0993],[-117.1892,33.1008],[-117.1859,33.0994],[-117.1826,33.0958],[-117.1724,33.0975],[-117.1703,33.0926],[-117.1665,33.0913],[-117.1648,33.0885],[-117.1658,33.0795],[-117.1633,33.0728],[-117.1653,33.0711],[-117.1697,33.0705],[-117.1702,33.0669],[-117.1724,33.0636],[-117.1666,33.0637],[-117.1634,33.0622],[-117.1625,33.0633],[-117.1604,33.0626],[-117.1575,33.0641],[-117.1546,33.0633],[-117.1439,33.0662],[-117.1391,33.0631],[-117.1372,33.0598],[-117.1348,33.0595],[-117.1266,33.0628],[-117.1232,33.0614],[-117.1171,33.063],[-117.1163,33.0705],[-117.1138,33.0722],[-117.1109,33.0688],[-117.11,33.0619],[-117.0986,33.0604],[-117.0892,33.0538],[-117.0875,33.0538],[-117.0817,33.0592],[-117.0752,33.057],[-117.0703,33.0595],[-117.0717,33.0559],[-117.0671,33.0529],[-117.0614,33.0539],[-117.0456,33.0512],[-117.0394,33.0527],[-117.0351,33.0564],[-117.031,33.0578],[-117.03,33.0619],[-117.0277,33.0621],[-117.027,33.0636],[-117.0208,33.0628],[-117.0141,33.0664],[-117.0005,33.0662],[-116.9968,33.0683],[-116.9837,33.067],[-116.982,33.0637],[-116.9712,33.0567],[-116.971,33.0627],[-116.9726,33.0672],[-116.9777,33.0737],[-116.9746,33.0753],[-116.9735,33.0785],[-116.9695,33.0825],[-116.9558,33.0854],[-116.9549,33.0877],[-116.9467,33.0878],[-116.9463,33.0895],[-116.943,33.0911],[-116.9382,33.0904],[-116.9352,33.0861],[-116.931,33.0859],[-116.9295,33.0874],[-116.9228,33.086],[-116.9206,33.0828],[-116.9194,33.0849],[-116.9159,33.0869],[-116.9118,33.0863],[-116.9105,33.0885],[-116.9065,33.0899],[-116.9025,33.0898],[-116.8979,33.0878],[-116.8973,33.0921],[-116.8926,33.0902],[-116.8931,33.1641],[-116.9022,33.163],[-116.9168,33.1522],[-116.9195,33.1567],[-116.9197,33.1604],[-116.9214,33.1614],[-116.9318,33.1583],[-116.9355,33.1594],[-116.9363,33.1613],[-116.9424,33.1604],[-116.9438,33.1649],[-116.9432,33.1685],[-116.9453,33.1698],[-116.9477,33.1699],[-116.9513,33.167],[-116.9558,33.1666],[-116.9608,33.1689],[-116.9645,33.1662],[-116.9673,33.1679],[-116.9677,33.1714],[-116.9715,33.1781],[-116.9712,33.1833],[-116.9848,33.1832],[-116.9848,33.1904],[-116.9803,33.1905],[-116.9803,33.1979],[-117.0198,33.2005],[-117.028,33.198],[-117.0291,33.1993],[-117.0309,33.1984],[-117.0336,33.21],[-117.0371,33.21],[-117.0373,33.2111],[-117.0498,33.2114],[-117.0551,33.2102],[-117.0633,33.2116],[-117.0723,33.2113],[-117.0727,33.2149],[-117.0777,33.214],[-117.087,33.2158],[-117.0881,33.2131],[-117.0858,33.2105],[-117.089,33.212],[-117.0897,33.2087],[-117.1021,33.2096],[-117.0993,33.2127],[-117.1086,33.2116],[-117.1081,33.2107],[-117.1116,33.2049],[-117.1178,33.2023],[-117.1198,33.1993],[-117.1259,33.1972],[-117.1423,33.2212],[-117.1562,33.2529],[-117.1735,33.2514],[-117.1801,33.2536],[-117.1851,33.2525],[-117.2013,33.2528],[-117.2129,33.2569],[-117.2126,33.2587],[-117.2148,33.2605],[-117.2239,33.2635],[-117.2291,33.2668],[-117.2331,33.2673],[-117.2364,33.2597],[-117.2369,33.2673],[-117.2415,33.2685],[-117.245,33.2671],[-117.245,33.278],[-117.2475,33.2811],[-117.2461,33.2846],[-117.2425,33.2883],[-117.2415,33.2926],[-117.2432,33.2937],[-117.2424,33.3025],[-117.2448,33.3046],[-117.249,33.313],[-117.2492,33.3218],[-117.2601,33.3219],[-117.2601,33.3292],[-117.2658,33.3292],[-117.2693,33.3],[-117.3904,33.2071],[-117.3925,33.207],[-117.3941,33.2085],[-117.3937,33.2127],[-117.3956,33.214],[-117.3984,33.2107],[-117.3976,33.2098],[-117.4024,33.2056],[-117.4372,33.1798]]]},"properties":{"GEOID":"0607392240","BASENAME":"Oceanside-Escondido","NAME":"Oceanside-Escondido CCD","COUNTY":"073","COUSUB":"92240"}},{"type":"Feature","geometry":{"type":"Polygon","coordinates":[[[-116.9794,32.9902],[-116.9753,32.9854],[-116.9702,32.971],[-116.9725,32.961],[-116.9675,32.9526],[-116.9623,32.9457],[-116.9558,32.9409],[-116.9509,32.944],[-116.945,32.9442],[-116.942,32.9425],[-116.9407,32.9389],[-116.9366,32.9379],[-116.9365,32.9361],[-116.9387,32.9344],[-116.9362,32.9278],[-116.9312,32.9206],[-116.9264,32.9164],[-116.9232,32.9186],[-116.9222,32.9255],[-116.9189,32.9298],[-116.9161,32.9305],[-116.9105,32.9285],[-116.9064,32.931],[-116.9099,32.94],[-116.9053,32.9439],[-116.9047,32.9465],[-116.9072,32.9532],[-116.8973,32.9632],[-116.8953,32.9629],[-116.891,32.9656],[-116.8872,32.9646],[-116.8793,32.9692],[-116.8792,32.9681],[-116.8718,32.9672],[-116.8665,32.9636],[-116.8613,32.9636],[-116.8598,32.962],[-116.8556,32.9624],[-116.8524,32.9569],[-116.8528,32.9553],[-116.8493,32.956],[-116.8483,32.9633],[-116.8404,32.9642],[-116.8413,32.9934],[-116.8163,32.9929],[-116.818,32.9829],[-116.8134,32.9784],[-116.8062,32.9784],[-116.8063,32.9633],[-116.8048,32.9596],[-116.8011,32.9644],[-116.7982,32.9657],[-116.7986,32.9675],[-116.797,32.9694],[-116.7946,32.969],[-116.7911,32.9721],[-116.7886,32.9704],[-116.787,32.9728],[-116.7805,32.9773],[-116.7743,32.9765],[-116.7739,32.9742],[-116.7716,32.974],[-116.7711,32.9724],[-116.7711,32.9782],[-116.7408,32.9777],[-116.7437,32.9814],[-116.7411,32.9855],[-116.7405,32.99],[-116.736,32.9917],[-116.7327,32.9957],[-116.7256,33.0081],[-116.7246,33.0121],[-116.7264,33.0129],[-116.7259,33.0169],[-116.73,33.0259],[-116.7301,33.0326],[-116.7266,33.0387],[-116.7258,33.0432],[-116.7235,33.0449],[-116.7212,33.0498],[-116.7217,33.0516],[-116.726,33.0525],[-116.7215,33.0524],[-116.7199,33.0544],[-116.7204,33.07],[-116.7173,33.0778],[-116.7125,33.0829],[-116.7162,33.0847],[-116.7217,33.0838],[-116.722,33.0866],[-116.7267,33.0864],[-116.7258,33.0866],[-116.7272,33.0887],[-116.7274,33.0941],[-116.7301,33.0945],[-116.7337,33.1022],[-116.739,33.1047],[-116.7394,33.1085],[-116.7418,33.1107],[-116.7525,33.1141],[-116.7545,33.1134],[-116.755,33.1117],[-116.7603,33.1097],[-116.7652,33.1035],[-116.7775,33.1018],[-116.7803,33.1029],[-116.7859,33.1154],[-116.7858,33.1204],[-116.7876,33.123],[-116.7899,33.1234],[-116.7915,33.122],[-116.7946,33.1249],[-116.8024,33.1236],[-116.8067,33.1259],[-116.8079,33.1218],[-116.8145,33.1229],[-116.8182,33.1201],[-116.8203,33.1246],[-116.8229,33.1252],[-116.836,33.1238],[-116.8454,33.1178],[-116.8529,33.1202],[-116.8548,33.1181],[-116.8555,33.1134],[-116.854,33.1092],[-116.8557,33.1066],[-116.8684,33.107],[-116.8714,33.1026],[-116.8786,33.1002],[-116.8835,33.0947],[-116.8924,33.0927],[-116.8934,33.0899],[-116.8973,33.0921],[-116.8979,33.0878],[-116.9025,33.0898],[-116.9065,33.0899],[-116.9105,33.0885],[-116.9118,33.0863],[-116.9159,33.0869],[-116.9194,33.0849],[-116.9206,33.0828],[-116.9229,33.086],[-116.9295,33.0874],[-116.9312,33.0859],[-116.9356,33.0862],[-116.9381,33.0903],[-116.9412,33.0914],[-116.9462,33.0895],[-116.9467,33.0878],[-116.9549,33.0877],[-116.9558,33.0854],[-116.9697,33.0824],[-116.9735,33.0785],[-116.9746,33.0753],[-116.9777,33.0737],[-116.9726,33.0672],[-116.971,33.0627],[-116.9701,33.0514],[-116.9711,33.0474],[-116.9741,33.0444],[-116.9714,33.0428],[-116.9724,33.0404],[-116.971,33.0385],[-116.9714,33.0371],[-116.9736,33.0364],[-116.974,33.0318],[-116.9698,33.0298],[-116.9587,33.0331],[-116.9571,33.0264],[-116.9533,33.0188],[-116.9528,33.0123],[-116.9543,33.0111],[-116.9591,32.9991],[-116.975,32.9952],[-116.9784,32.9928],[-116.9794,32.9902]]]},"properties":{"GEOID":"0607392550","BASENAME":"Ramona","NAME":"Ramona CCD","COUNTY":"073","COUSUB":"92550"}},{"type":"Feature","geometry":{"type":"Polygon","coordinates":[[[-116.7651,32.5673],[-116.7573,32.5655],[-116.1062,32.6184],[-116.1058,32.6446],[-116.1091,32.6392],[-116.1128,32.6371],[-116.1478,32.6339],[-116.1628,32.6356],[-116.1659,32.6362],[-116.1762,32.6428],[-116.1948,32.6499],[-116.2081,32.6603],[-116.2094,32.6972],[-116.208,32.7117],[-116.2093,32.7266],[-116.2234,32.7263],[-116.2201,32.8288],[-116.309,32.8294],[-116.3095,32.8151],[-116.3262,32.8149],[-116.3263,32.8295],[-116.3346,32.8297],[-116.3349,32.8514],[-116.3265,32.8514],[-116.3265,32.855],[-116.3223,32.8549],[-116.3224,32.8586],[-116.3182,32.8585],[-116.3182,32.8717],[-116.3242,32.8647],[-116.3312,32.8657],[-116.3337,32.8643],[-116.341,32.8636],[-116.3432,32.8614],[-116.3573,32.8576],[-116.3597,32.8559],[-116.3598,32.8585],[-116.3775,32.8584],[-116.3778,32.8655],[-116.4123,32.8654],[-116.4137,32.8592],[-116.4207,32.8587],[-116.4223,32.8565],[-116.4205,32.855],[-116.4212,32.8529],[-116.4194,32.8506],[-116.4181,32.8411],[-116.4207,32.8396],[-116.4217,32.8355],[-116.4238,32.8358],[-116.4249,32.8341],[-116.4305,32.8411],[-116.4297,32.8479],[-116.4361,32.8473],[-116.4408,32.8445],[-116.4458,32.846],[-116.4575,32.8578],[-116.4586,32.8615],[-116.4605,32.8622],[-116.4642,32.8574],[-116.4673,32.8556],[-116.4757,32.8549],[-116.4851,32.8496],[-116.4873,32.8461],[-116.4942,32.845],[-116.4957,32.8421],[-116.4951,32.8383],[-116.4967,32.8365],[-116.4952,32.8284],[-116.4962,32.8258],[-116.4999,32.8244],[-116.5038,32.8246],[-116.5053,32.8224],[-116.5082,32.8218],[-116.5102,32.8189],[-116.5086,32.8151],[-116.5105,32.8113],[-116.5322,32.8186],[-116.5436,32.8188],[-116.5533,32.8229],[-116.5601,32.8233],[-116.5622,32.8189],[-116.5658,32.8178],[-116.5653,32.8153],[-116.5674,32.8137],[-116.568,32.8074],[-116.5709,32.807],[-116.5712,32.8051],[-116.5746,32.8045],[-116.5733,32.8018],[-116.5745,32.8003],[-116.582,32.8001],[-116.5894,32.798],[-116.5939,32.7993],[-116.5948,32.7982],[-116.5988,32.7985],[-116.6012,32.7972],[-116.6076,32.7987],[-116.6194,32.7887],[-116.6218,32.7886],[-116.6233,32.7868],[-116.6258,32.7872],[-116.6264,32.7836],[-116.6302,32.7837],[-116.6303,32.7814],[-116.6333,32.7805],[-116.6324,32.777],[-116.6357,32.7775],[-116.6362,32.7743],[-116.6386,32.7757],[-116.6371,32.7728],[-116.6411,32.7721],[-116.6396,32.7685],[-116.6433,32.7643],[-116.6413,32.7626],[-116.6435,32.7597],[-116.648,32.7579],[-116.648,32.7537],[-116.6504,32.7513],[-116.6494,32.7484],[-116.6509,32.7454],[-116.6498,32.7431],[-116.6515,32.7408],[-116.6508,32.7385],[-116.654,32.7385],[-116.6511,32.7337],[-116.6577,32.7248],[-116.6586,32.7212],[-116.6642,32.7227],[-116.6661,32.7105],[-116.6687,32.709],[-116.6724,32.709],[-116.6734,32.7016],[-116.6767,32.699],[-116.6725,32.6932],[-116.6693,32.6806],[-116.6698,32.6789],[-116.6718,32.678],[-116.6731,32.6717],[-116.6764,32.6648],[-116.6805,32.6591],[-116.6806,32.6568],[-116.6783,32.6537],[-116.6812,32.6422],[-116.6863,32.6413],[-116.687,32.6396],[-116.687,32.6379],[-116.6827,32.6358],[-116.6834,32.6331],[-116.6879,32.6327],[-116.6857,32.6297],[-116.6862,32.6248],[-116.698,32.6162],[-116.6993,32.6137],[-116.6989,32.6097],[-116.6959,32.6081],[-116.6959,32.606],[-116.702,32.6064],[-116.708,32.6087],[-116.7132,32.6074],[-116.7151,32.6022],[-116.7204,32.5972],[-116.7223,32.5931],[-116.7369,32.5882],[-116.7464,32.5878],[-116.7472,32.5861],[-116.744,32.5826],[-116.7449,32.578],[-116.7569,32.5736],[-116.7651,32.5673]]]},"properties":{"GEOID":"0607392030","BASENAME":"Mountain Empire","NAME":"Mountain Empire CCD","COUNTY":"073","COUSUB":"92030"}},{"type":"Feature","geometry":{"type":"Polygon","coordinates":[[[-117.1584,33.3239],[-117.1515,33.3112],[-117.1502,33.3003],[-117.1431,33.2995],[-117.1416,33.301],[-117.1334,33.299],[-117.1243,33.2946],[-117.1207,33.2895],[-117.1208,33.2852],[-117.1144,33.281],[-117.1126,33.2771],[-117.1122,33.2686],[-117.1105,33.268],[-117.1088,33.2695],[-117.1025,33.2707],[-117.0954,33.2709],[-117.0917,33.2695],[-117.0849,33.2713],[-117.0835,33.2795],[-117.0836,33.2898],[-117.0814,33.2906],[-117.0827,33.296],[-117.0864,33.2962],[-117.0833,33.3067],[-117.0839,33.3107],[-117.0786,33.3133],[-117.0726,33.314],[-117.0725,33.3208],[-117.0692,33.3208],[-117.0692,33.3171],[-117.065,33.3171],[-117.0649,33.3137],[-117.0541,33.3109],[-117.0506,33.3084],[-117.0455,33.2971],[-117.028,33.2904],[-117.0239,33.2929],[-117.0215,33.2976],[-117.0114,33.3047],[-117.0125,33.3057],[-117.0186,33.3043],[-117.0199,33.3056],[-117.0193,33.3071],[-117.0113,33.3094],[-116.9929,33.3189],[-116.9784,33.3033],[-116.9734,33.3008],[-116.9669,33.2899],[-116.9587,33.2884],[-116.9553,33.2853],[-116.9485,33.2854],[-116.9411,33.2837],[-116.9279,33.2873],[-116.9271,33.2555],[-116.8706,33.2558],[-116.8706,33.2522],[-116.8584,33.2523],[-116.8585,33.2487],[-116.8498,33.2488],[-116.8499,33.2523],[-116.8412,33.2521],[-116.8411,33.2562],[-116.8152,33.256],[-116.8147,33.27],[-116.8241,33.2701],[-116.8239,33.2845],[-116.8412,33.2851],[-116.8405,33.2995],[-116.8958,33.2994],[-116.8957,33.3139],[-116.902,33.3139],[-116.9012,33.3151],[-116.9208,33.3238],[-116.9701,33.3427],[-116.9278,33.3429],[-116.9278,33.3865],[-117.0158,33.3865],[-117.0162,33.4007],[-117.0321,33.4007],[-117.033,33.4151],[-117.052,33.4153],[-117.0523,33.4301],[-117.0988,33.4303],[-117.1008,33.4261],[-117.1028,33.4261],[-117.1073,33.4224],[-117.109,33.4188],[-117.1116,33.4176],[-117.1152,33.4184],[-117.1154,33.4159],[-117.1179,33.4165],[-117.1226,33.4095],[-117.1283,33.4089],[-117.1268,33.4027],[-117.1302,33.3982],[-117.1296,33.3926],[-117.1309,33.388],[-117.134,33.387],[-117.1345,33.3847],[-117.1335,33.3836],[-117.125,33.3828],[-117.1249,33.3817],[-117.1227,33.3818],[-117.1206,33.3792],[-117.1213,33.3724],[-117.1268,33.3715],[-117.1276,33.3681],[-117.1304,33.3648],[-117.1364,33.3612],[-117.1346,33.3573],[-117.1354,33.3506],[-117.1328,33.3393],[-117.135,33.3368],[-117.1411,33.3399],[-117.1584,33.3239]]]},"properties":{"GEOID":"0607392430","BASENAME":"Pauma Valley","NAME":"Pauma Valley CCD","COUNTY":"073","COUSUB":"92430"}},{"type":"Feature","geometry":{"type":"Polygon","coordinates":[[[-117.3759,33.0752],[-117.3233,32.9031],[-117.3326,32.8822],[-117.3397,32.8592],[-117.342,32.8404],[-117.3303,32.8048],[-117.3256,32.7317],[-117.3209,32.6898],[-117.3092,32.6564],[-117.2975,32.6418],[-117.2769,32.6235],[-117.2673,32.6189],[-117.252,32.6149],[-117.2335,32.6167],[-117.2233,32.6212],[-117.2182,32.6103],[-117.2141,32.5948],[-117.21,32.5729],[-117.21,32.5546],[-117.2051,32.5295],[-117.1247,32.5343],[-116.853,32.5574],[-116.855,32.5615],[-116.8594,32.5651],[-116.8613,32.5717],[-116.8701,32.572],[-116.8713,32.5693],[-116.8766,32.571],[-116.877,32.5745],[-116.8788,32.5746],[-116.879,32.5759],[-116.892,32.5744],[-116.8937,32.5753],[-116.8944,32.5786],[-116.9037,32.5812],[-116.9079,32.5818],[-116.9083,32.5786],[-116.9104,32.5823],[-116.9239,32.5821],[-116.9357,32.5939],[-116.9383,32.5983],[-116.9273,32.6019],[-116.9267,32.6077],[-116.9283,32.6088],[-116.9257,32.6101],[-116.9276,32.614],[-116.9267,32.6279],[-116.9303,32.6391],[-116.9297,32.6468],[-116.9334,32.6509],[-116.9346,32.6556],[-116.9376,32.6587],[-116.9473,32.6623],[-116.953,32.6612],[-116.967,32.6624],[-116.967,32.6674],[-116.9632,32.6673],[-116.9606,32.6708],[-116.9611,32.6746],[-116.958,32.677],[-116.9578,32.6806],[-116.9538,32.6897],[-116.9619,32.6972],[-116.9648,32.7057],[-116.9613,32.7043],[-116.9594,32.7048],[-116.9572,32.713],[-116.9479,32.7212],[-116.9448,32.7298],[-116.9406,32.7334],[-116.943,32.7396],[-116.9293,32.7448],[-116.9235,32.7428],[-116.9192,32.7439],[-116.9122,32.7477],[-116.9031,32.7573],[-116.8907,32.7622],[-116.8834,32.7666],[-116.8825,32.7696],[-116.8865,32.7726],[-116.8881,32.7769],[-116.8878,32.7806],[-116.8896,32.7832],[-116.8882,32.7885],[-116.8693,32.7792],[-116.8568,32.782],[-116.8524,32.7814],[-116.8513,32.7749],[-116.8479,32.7737],[-116.8471,32.7723],[-116.8475,32.7684],[-116.85,32.7658],[-116.8466,32.7636],[-116.843,32.7636],[-116.8404,32.7656],[-116.8326,32.7658],[-116.8313,32.7673],[-116.8316,32.7704],[-116.8285,32.7724],[-116.8238,32.7725],[-116.824,32.7796],[-116.8144,32.7802],[-116.8145,32.7911],[-116.8284,32.7905],[-116.8289,32.7929],[-116.8281,32.7958],[-116.8238,32.8009],[-116.8123,32.8077],[-116.8093,32.8122],[-116.81,32.8185],[-116.8068,32.819],[-116.8067,32.8229],[-116.811,32.8254],[-116.8155,32.8312],[-116.8076,32.8417],[-116.8094,32.8443],[-116.8074,32.8478],[-116.8053,32.8484],[-116.8039,32.855],[-116.799,32.8604],[-116.798,32.8652],[-116.7949,32.8683],[-116.7952,32.8722],[-116.793,32.8781],[-116.7943,32.8834],[-116.7899,32.8884],[-116.7893,32.9492],[-116.773,32.9497],[-116.7705,32.9633],[-116.7716,32.974],[-116.7737,32.974],[-116.7742,32.9765],[-116.7779,32.9777],[-116.7821,32.9767],[-116.7886,32.9704],[-116.7911,32.9721],[-116.7946,32.969],[-116.797,32.9693],[-116.7986,32.9675],[-116.7982,32.9657],[-116.8011,32.9644],[-116.8048,32.9596],[-116.8063,32.9633],[-116.8062,32.9784],[-116.8134,32.9784],[-116.818,32.9829],[-116.8163,32.9929],[-116.8413,32.9934],[-116.8404,32.9642],[-116.8483,32.9633],[-116.8493,32.956],[-116.8528,32.9553],[-116.8524,32.9569],[-116.8556,32.9624],[-116.8598,32.962],[-116.8613,32.9636],[-116.8665,32.9636],[-116.8718,32.9672],[-116.8792,32.9681],[-116.8793,32.9692],[-116.8872,32.9646],[-116.891,32.9656],[-116.8953,32.9629],[-116.8973,32.9632],[-116.9072,32.9532],[-116.9047,32.9465],[-116.9053,32.9439],[-116.9099,32.94],[-116.9064,32.931],[-116.9105,32.9285],[-116.9161,32.9305],[-116.9189,32.9298],[-116.9222,32.9255],[-116.9232,32.9186],[-116.9264,32.9164],[-116.9312,32.9206],[-116.9362,32.9278],[-116.9387,32.9344],[-116.9365,32.9361],[-116.9366,32.9379],[-116.9407,32.9389],[-116.942,32.9425],[-116.945,32.9442],[-116.9509,32.944],[-116.9558,32.9409],[-116.9625,32.9459],[-116.9722,32.9599],[-116.9701,32.9706],[-116.9752,32.9852],[-116.979,32.9888],[-116.9791,32.9915],[-116.975,32.9952],[-116.9585,32.9997],[-116.9543,33.0111],[-116.9528,33.0123],[-116.9532,33.018],[-116.9587,33.0331],[-116.9698,33.0298],[-116.9738,33.0315],[-116.9736,33.0364],[-116.9714,33.0371],[-116.971,33.0385],[-116.9724,33.0404],[-116.9714,33.0428],[-116.9741,33.0444],[-116.9707,33.0487],[-116.9708,33.0561],[-116.9786,33.0624],[-116.982,33.0637],[-116.9838,33.067],[-116.9968,33.0683],[-117.0005,33.0662],[-117.0141,33.0664],[-117.0208,33.0628],[-117.027,33.0636],[-117.0277,33.0621],[-117.03,33.0619],[-117.031,33.0578],[-117.0351,33.0564],[-117.0394,33.0527],[-117.0456,33.0512],[-117.0614,33.0539],[-117.0671,33.0529],[-117.0717,33.0559],[-117.0703,33.0595],[-117.0752,33.057],[-117.0817,33.0592],[-117.0875,33.0538],[-117.0892,33.0538],[-117.0986,33.0604],[-117.11,33.0619],[-117.1109,33.0688],[-117.1138,33.0722],[-117.1163,33.0705],[-117.1171,33.063],[-117.1231,33.0614],[-117.1265,33.0628],[-117.1308,33.0604],[-117.1369,33.0597],[-117.1391,33.0631],[-117.1439,33.0662],[-117.1546,33.0633],[-117.1575,33.0641],[-117.1604,33.0626],[-117.1625,33.0633],[-117.1636,33.0622],[-117.1666,33.0637],[-117.1724,33.0639],[-117.1702,33.0669],[-117.1697,33.0705],[-117.1653,33.0711],[-117.1633,33.0728],[-117.1658,33.0795],[-117.1645,33.0859],[-117.1662,33.0909],[-117.1703,33.0926],[-117.1725,33.0976],[-117.1826,33.0958],[-117.1859,33.0994],[-117.1892,33.1008],[-117.1939,33.0993],[-117.1963,33.1007],[-117.1976,33.0976],[-117.1998,33.0978],[-117.2055,33.0941],[-117.208,33.0947],[-117.2146,33.0996],[-117.2219,33.0999],[-117.2239,33.0955],[-117.2256,33.0953],[-117.2315,33.0864],[-117.2379,33.0804],[-117.2405,33.0739],[-117.2486,33.0674],[-117.2622,33.0676],[-117.2628,33.0739],[-117.2693,33.0888],[-117.2765,33.0902],[-117.2994,33.0912],[-117.3131,33.087],[-117.3149,33.0884],[-117.3759,33.0752]]]},"properties":{"GEOID":"0607392780","BASENAME":"San Diego","NAME":"San Diego CCD","COUNTY":"073","COUSUB":"92780"}},{"type":"Feature","geometry":{"type":"Polygon","coordinates":[[[-116.967,32.6629],[-116.9632,32.6616],[-116.9533,32.6612],[-116.947,32.6623],[-116.9399,32.6587],[-116.9376,32.6587],[-116.9346,32.6556],[-116.9334,32.6509],[-116.9297,32.6468],[-116.9303,32.6391],[-116.9267,32.6279],[-116.9277,32.6155],[-116.9257,32.6101],[-116.9283,32.6088],[-116.9267,32.6077],[-116.9265,32.6052],[-116.9273,32.6019],[-116.9384,32.598],[-116.9326,32.5903],[-116.9239,32.5821],[-116.9104,32.5823],[-116.9083,32.5786],[-116.9079,32.5818],[-116.9037,32.5812],[-116.8944,32.5786],[-116.8937,32.5753],[-116.892,32.5744],[-116.879,32.5759],[-116.8788,32.5746],[-116.877,32.5745],[-116.8766,32.571],[-116.8713,32.5693],[-116.8701,32.572],[-116.8613,32.5717],[-116.8594,32.5651],[-116.855,32.5615],[-116.853,32.5574],[-116.7573,32.5655],[-116.7654,32.5671],[-116.7569,32.5736],[-116.7449,32.578],[-116.744,32.5826],[-116.7472,32.5861],[-116.7469,32.5875],[-116.7369,32.5882],[-116.7229,32.5928],[-116.7204,32.5972],[-116.7151,32.6022],[-116.7137,32.6069],[-116.7115,32.6082],[-116.708,32.6087],[-116.702,32.6064],[-116.696,32.6059],[-116.6959,32.6081],[-116.6989,32.6097],[-116.6987,32.615],[-116.6921,32.6197],[-116.6892,32.6235],[-116.6862,32.6248],[-116.6857,32.6297],[-116.6879,32.6327],[-116.6834,32.6331],[-116.6827,32.6358],[-116.687,32.6379],[-116.687,32.6396],[-116.6863,32.6413],[-116.6812,32.6422],[-116.6783,32.6537],[-116.6806,32.6568],[-116.6805,32.6591],[-116.6764,32.6648],[-116.6731,32.6717],[-116.6718,32.678],[-116.6698,32.6789],[-116.6693,32.6811],[-116.6725,32.6932],[-116.6768,32.6985],[-116.6731,32.7024],[-116.6721,32.7115],[-116.6733,32.715],[-116.6795,32.7185],[-116.6776,32.7216],[-116.6792,32.7241],[-116.6814,32.7244],[-116.6824,32.7284],[-116.6789,32.7323],[-116.6788,32.7346],[-116.6738,32.7432],[-116.6699,32.744],[-116.6682,32.7489],[-116.6758,32.7558],[-116.674,32.7595],[-116.6752,32.7645],[-116.6887,32.7648],[-116.699,32.7703],[-116.7051,32.7712],[-116.7086,32.7748],[-116.7142,32.7779],[-116.7083,32.7759],[-116.7096,32.7775],[-116.7088,32.7801],[-116.71,32.7828],[-116.7083,32.7852],[-116.709,32.7888],[-116.7295,32.7953],[-116.7324,32.7956],[-116.7357,32.7933],[-116.7451,32.7956],[-116.7509,32.7918],[-116.76,32.7949],[-116.7653,32.7862],[-116.7732,32.7873],[-116.7753,32.7855],[-116.7835,32.7866],[-116.7928,32.7843],[-116.794,32.7827],[-116.7915,32.7786],[-116.7933,32.7748],[-116.7988,32.772],[-116.8056,32.7745],[-116.8068,32.7744],[-116.8073,32.7724],[-116.8145,32.7704],[-116.8285,32.7724],[-116.832,32.77],[-116.8312,32.7676],[-116.8326,32.7658],[-116.8404,32.7656],[-116.8446,32.7635],[-116.8478,32.7638],[-116.85,32.7658],[-116.8475,32.7684],[-116.8471,32.7723],[-116.8479,32.7737],[-116.8513,32.7749],[-116.8524,32.7814],[-116.8568,32.782],[-116.8693,32.7792],[-116.8882,32.7885],[-116.8896,32.7832],[-116.8878,32.7806],[-116.8881,32.7769],[-116.8865,32.7726],[-116.8825,32.7696],[-116.8834,32.7666],[-116.8907,32.7622],[-116.9031,32.7573],[-116.9122,32.7477],[-116.9192,32.7439],[-116.9235,32.7428],[-116.9293,32.7448],[-116.943,32.7396],[-116.9406,32.7334],[-116.9448,32.7298],[-116.9479,32.7212],[-116.9572,32.713],[-116.9594,32.7048],[-116.9613,32.7043],[-116.9648,32.7057],[-116.9619,32.6972],[-116.9538,32.6897],[-116.9578,32.6806],[-116.958,32.677],[-116.9611,32.6746],[-116.9606,32.6708],[-116.9632,32.6673],[-116.967,32.6674],[-116.967,32.6629]]]},"properties":{"GEOID":"0607391440","BASENAME":"Jamul","NAME":"Jamul CCD","COUNTY":"073","COUSUB":"91440"}},{"type":"Feature","geometry":{"type":"Polygon","coordinates":[[[-117.0523,33.4251],[-117.0519,33.4153],[-117.033,33.4151],[-117.0321,33.4007],[-117.0162,33.4007],[-117.0158,33.3865],[-116.9278,33.3865],[-116.9278,33.3429],[-116.9701,33.3427],[-116.9208,33.3238],[-116.9012,33.3151],[-116.902,33.3139],[-116.8957,33.3139],[-116.8958,33.2994],[-116.8405,33.2995],[-116.8412,33.2851],[-116.8239,33.2845],[-116.8241,33.2701],[-116.8147,33.27],[-116.8152,33.256],[-116.8411,33.2562],[-116.8418,33.2116],[-116.8503,33.2116],[-116.8502,33.2042],[-116.861,33.2044],[-116.8681,33.2012],[-116.8744,33.1932],[-116.8794,33.1808],[-116.8795,33.1774],[-116.888,33.1736],[-116.8931,33.1697],[-116.8926,33.0902],[-116.8924,33.0927],[-116.8833,33.0947],[-116.8786,33.1002],[-116.8714,33.1026],[-116.8684,33.107],[-116.8557,33.1066],[-116.854,33.1092],[-116.8555,33.1134],[-116.8542,33.1194],[-116.8516,33.1202],[-116.8454,33.1178],[-116.8363,33.1237],[-116.8325,33.1244],[-116.8208,33.1248],[-116.8184,33.1201],[-116.8145,33.1229],[-116.808,33.1218],[-116.8068,33.1259],[-116.8023,33.1236],[-116.7945,33.1249],[-116.7915,33.122],[-116.7882,33.1233],[-116.7858,33.1205],[-116.7859,33.1154],[-116.7803,33.1029],[-116.7775,33.1018],[-116.7652,33.1035],[-116.7603,33.1097],[-116.755,33.1117],[-116.7545,33.1134],[-116.7524,33.1141],[-116.7405,33.11],[-116.7386,33.1064],[-116.739,33.1047],[-116.7337,33.1022],[-116.7301,33.0945],[-116.7274,33.0941],[-116.7272,33.0887],[-116.7258,33.0866],[-116.7267,33.0864],[-116.722,33.0866],[-116.7217,33.0838],[-116.7162,33.0847],[-116.7125,33.0829],[-116.7173,33.0778],[-116.7204,33.07],[-116.7199,33.0544],[-116.7215,33.0524],[-116.726,33.0525],[-116.7217,33.0516],[-116.7212,33.0498],[-116.7235,33.0449],[-116.7258,33.0432],[-116.7266,33.0387],[-116.7301,33.0326],[-116.73,33.0259],[-116.7259,33.0169],[-116.7264,33.0129],[-116.7246,33.0121],[-116.7256,33.0081],[-116.7326,32.9958],[-116.736,32.9917],[-116.7401,32.9906],[-116.7408,32.9875],[-116.7392,32.9879],[-116.7398,32.9888],[-116.7384,32.9902],[-116.7325,32.9935],[-116.7281,32.9939],[-116.7294,32.9972],[-116.7255,33.0024],[-116.7229,33.0033],[-116.7202,33.0021],[-116.7194,33.0031],[-116.7151,33.0023],[-116.71,33.0193],[-116.7083,33.0208],[-116.7037,33.021],[-116.7052,33.0219],[-116.7039,33.0241],[-116.6949,33.0269],[-116.6864,33.0204],[-116.6768,33.0213],[-116.673,33.0254],[-116.6654,33.0267],[-116.6542,33.0334],[-116.6517,33.0321],[-116.65,33.0345],[-116.6472,33.0345],[-116.6463,33.0358],[-116.6485,33.0382],[-116.6464,33.0435],[-116.6445,33.0424],[-116.6402,33.0435],[-116.6389,33.047],[-116.6362,33.0484],[-116.6354,33.0445],[-116.6371,33.0416],[-116.6356,33.0405],[-116.6362,33.0379],[-116.6335,33.0352],[-116.6356,33.0316],[-116.6341,33.0308],[-116.6353,33.0294],[-116.638,33.0302],[-116.6396,33.0274],[-116.6373,33.0251],[-116.6347,33.0258],[-116.6364,33.0235],[-116.6349,33.0168],[-116.6312,33.0175],[-116.6256,33.0114],[-116.6217,33.0122],[-116.6213,33.0098],[-116.6224,33.009],[-116.6211,33.0048],[-116.6182,33.0097],[-116.6118,33.0118],[-116.614,33.0082],[-116.6069,33.0122],[-116.604,33.0101],[-116.6031,33.0033],[-116.5986,33.0012],[-116.5952,32.9975],[-116.5904,32.9963],[-116.5889,32.9944],[-116.5863,32.9944],[-116.5857,32.9917],[-116.5763,32.9908],[-116.5723,32.993],[-116.5668,32.999],[-116.5644,33.0025],[-116.5636,33.0079],[-116.5612,33.011],[-116.5625,33.0159],[-116.5613,33.0186],[-116.5588,33.0171],[-116.5504,33.0201],[-116.5447,33.019],[-116.5402,33.0106],[-116.538,33.0109],[-116.5372,33.0135],[-116.5351,33.0125],[-116.5342,33.0147],[-116.5325,33.0138],[-116.5329,33.0126],[-116.5281,33.0121],[-116.5266,33.0142],[-116.5276,33.0206],[-116.53,33.0238],[-116.5312,33.0282],[-116.5361,33.0349],[-116.5374,33.0409],[-116.5402,33.0449],[-116.5383,33.0501],[-116.5407,33.0506],[-116.5469,33.0605],[-116.5476,33.0635],[-116.5448,33.0672],[-116.547,33.0671],[-116.5473,33.0682],[-116.5317,33.0784],[-116.4682,33.0996],[-116.4594,33.1006],[-116.4542,33.103],[-116.451,33.1058],[-116.4491,33.1106],[-116.4345,33.1195],[-116.4358,33.1245],[-116.4344,33.1287],[-116.4202,33.1295],[-116.4174,33.1327],[-116.417,33.1345],[-116.422,33.1347],[-116.435,33.1397],[-116.4498,33.1476],[-116.4621,33.152],[-116.4761,33.1521],[-116.4801,33.1553],[-116.4855,33.1572],[-116.4961,33.1577],[-116.5066,33.1623],[-116.5115,33.1623],[-116.5162,33.1675],[-116.517,33.1816],[-116.5125,33.1812],[-116.5124,33.1781],[-116.5014,33.1777],[-116.5003,33.1846],[-116.4993,33.1852],[-116.4974,33.1838],[-116.4926,33.1865],[-116.495,33.1898],[-116.4995,33.1917],[-116.4997,33.2029],[-116.5082,33.2029],[-116.5082,33.2104],[-116.4953,33.2105],[-116.4959,33.2321],[-116.4916,33.2319],[-116.4915,33.2466],[-116.4999,33.2468],[-116.5008,33.2491],[-116.5014,33.3411],[-116.567,33.3416],[-116.5676,33.3473],[-116.5714,33.3472],[-116.5715,33.3487],[-116.5803,33.3488],[-116.5803,33.3542],[-116.5676,33.3559],[-116.5674,33.3629],[-116.618,33.3633],[-116.6177,33.4274],[-117.0309,33.4269],[-117.0309,33.4299],[-117.0523,33.4301],[-117.0523,33.4251]]]},"properties":{"GEOID":"0607392350","BASENAME":"Palomar-Julian","NAME":"Palomar-Julian CCD","COUNTY":"073","COUSUB":"92350"}},{"type":"Feature","geometry":{"type":"Polygon","coordinates":[[[-117.1589,33.2628],[-117.1572,33.2553],[-117.143,33.2225],[-117.1259,33.1972],[-117.1198,33.1993],[-117.1178,33.2023],[-117.1116,33.2049],[-117.1081,33.2107],[-117.1086,33.2116],[-117.0993,33.2127],[-117.1021,33.2096],[-117.0897,33.2087],[-117.089,33.212],[-117.0858,33.2105],[-117.0881,33.2131],[-117.087,33.2158],[-117.0777,33.214],[-117.0727,33.2149],[-117.0723,33.2113],[-117.0633,33.2116],[-117.0551,33.2102],[-117.0498,33.2114],[-117.0373,33.2111],[-117.0371,33.21],[-117.0336,33.21],[-117.0309,33.1984],[-117.0291,33.1993],[-117.028,33.198],[-117.0198,33.2005],[-116.9803,33.1979],[-116.9803,33.1905],[-116.9848,33.1904],[-116.9848,33.1832],[-116.9712,33.1833],[-116.9716,33.1782],[-116.9677,33.1714],[-116.9669,33.1674],[-116.964,33.1662],[-116.9607,33.1689],[-116.9562,33.1666],[-116.9516,33.1669],[-116.9477,33.1699],[-116.9453,33.1698],[-116.9432,33.1685],[-116.9438,33.1649],[-116.9425,33.1605],[-116.9363,33.1613],[-116.9355,33.1594],[-116.9318,33.1583],[-116.9214,33.1614],[-116.9197,33.1604],[-116.9195,33.1567],[-116.9169,33.1522],[-116.9022,33.163],[-116.8931,33.1641],[-116.8931,33.1697],[-116.888,33.1736],[-116.8795,33.1774],[-116.8794,33.1808],[-116.8744,33.1932],[-116.8681,33.2012],[-116.861,33.2044],[-116.8502,33.2042],[-116.8503,33.2116],[-116.8418,33.2116],[-116.8412,33.2521],[-116.8499,33.2523],[-116.8498,33.2488],[-116.8585,33.2487],[-116.8584,33.2523],[-116.8706,33.2522],[-116.8706,33.2558],[-116.9271,33.2555],[-116.9279,33.2873],[-116.9411,33.2837],[-116.9485,33.2854],[-116.9553,33.2853],[-116.9587,33.2884],[-116.9669,33.2899],[-116.9734,33.3008],[-116.9784,33.3033],[-116.9929,33.3189],[-117.0113,33.3094],[-117.0193,33.3071],[-117.0199,33.3056],[-117.0186,33.3043],[-117.0125,33.3057],[-117.0114,33.3047],[-117.0215,33.2976],[-117.0239,33.2929],[-117.028,33.2904],[-117.0455,33.2971],[-117.0506,33.3084],[-117.0541,33.3109],[-117.0649,33.3137],[-117.065,33.3171],[-117.0692,33.3171],[-117.0692,33.3208],[-117.0725,33.3208],[-117.0726,33.314],[-117.0786,33.3133],[-117.0839,33.3107],[-117.0833,33.3067],[-117.0864,33.2962],[-117.0827,33.296],[-117.0814,33.2906],[-117.0836,33.2898],[-117.0845,33.2724],[-117.0849,33.2713],[-117.0917,33.2695],[-117.0954,33.2709],[-117.1024,33.2707],[-117.1088,33.2695],[-117.1099,33.268],[-117.1122,33.2686],[-117.1126,33.2771],[-117.1143,33.2809],[-117.1208,33.2852],[-117.1207,33.2895],[-117.1243,33.2946],[-117.1334,33.299],[-117.1416,33.301],[-117.1431,33.2995],[-117.1502,33.3003],[-117.1499,33.2852],[-117.1575,33.2702],[-117.1589,33.2628]]]},"properties":{"GEOID":"0607393540","BASENAME":"Valley Center","NAME":"Valley Center CCD","COUNTY":"073","COUSUB":"93540"}},{"type":"Feature","geometry":{"type":"Polygon","coordinates":[[[-117.5097,33.5052],[-117.5094,33.4841],[-117.4877,33.5033],[-117.4827,33.5001],[-117.4837,33.4975],[-117.4783,33.4948],[-117.4719,33.4879],[-117.4754,33.4702],[-117.4699,33.4712],[-117.4667,33.4737],[-117.4651,33.4773],[-117.458,33.4757],[-117.4078,33.4601],[-117.4005,33.4558],[-117.3974,33.4446],[-117.3635,33.4447],[-117.3634,33.4302],[-117.335,33.4307],[-117.335,33.427],[-117.3395,33.4269],[-117.3394,33.4201],[-117.3307,33.42],[-117.3306,33.4235],[-117.3264,33.4235],[-117.3265,33.4167],[-117.3245,33.4165],[-117.3247,33.4131],[-117.3231,33.4131],[-117.3231,33.4165],[-117.318,33.4166],[-117.318,33.413],[-117.3136,33.4129],[-117.3135,33.4079],[-117.2953,33.4178],[-117.2743,33.4074],[-117.2553,33.4065],[-117.2621,33.3583],[-117.2538,33.3582],[-117.2535,33.3398],[-117.2494,33.3396],[-117.2492,33.3289],[-117.2601,33.3292],[-117.2601,33.3219],[-117.2492,33.3218],[-117.249,33.313],[-117.2448,33.3046],[-117.2425,33.3026],[-117.2432,33.2937],[-117.2415,33.2926],[-117.2425,33.2883],[-117.2461,33.2846],[-117.2475,33.2811],[-117.245,33.278],[-117.245,33.2671],[-117.2415,33.2685],[-117.2369,33.2673],[-117.2364,33.2597],[-117.2331,33.2673],[-117.2291,33.2668],[-117.2239,33.2635],[-117.2148,33.2605],[-117.2126,33.2587],[-117.2129,33.2569],[-117.2013,33.2528],[-117.1851,33.2525],[-117.1801,33.2536],[-117.1735,33.2514],[-117.1562,33.2529],[-117.1587,33.2605],[-117.1584,33.2672],[-117.1509,33.2823],[-117.1495,33.2887],[-117.151,33.3095],[-117.1584,33.3239],[-117.1411,33.3399],[-117.135,33.3368],[-117.1328,33.3393],[-117.1354,33.3506],[-117.1346,33.3573],[-117.1364,33.3612],[-117.1304,33.3648],[-117.1276,33.3681],[-117.1268,33.3715],[-117.1213,33.3724],[-117.1206,33.3792],[-117.1227,33.3818],[-117.1249,33.3817],[-117.125,33.3828],[-117.1335,33.3836],[-117.1345,33.3847],[-117.134,33.387],[-117.1309,33.388],[-117.1296,33.3926],[-117.1302,33.3982],[-117.1268,33.4027],[-117.1283,33.4088],[-117.1226,33.4095],[-117.1179,33.4165],[-117.1154,33.4159],[-117.1152,33.4184],[-117.1116,33.4176],[-117.109,33.4188],[-117.1073,33.4224],[-117.1028,33.4261],[-117.1008,33.4261],[-117.0988,33.4303],[-117.1388,33.4326],[-117.2414,33.4319],[-117.2415,33.4488],[-117.3708,33.4907],[-117.3643,33.5049],[-117.5097,33.5052]]]},"properties":{"GEOID":"0607390960","BASENAME":"Fallbrook","NAME":"Fallbrook CCD","COUNTY":"073","COUSUB":"90960"}}]}