{"type":"FeatureCollection","features":[{"type":"Feature","geometry":{"type":"Polygon","coordinates":[[[-122.5127,37.7351],[-122.5102,37.7187],[-122.5071,37.7081],[-122.4368,37.7079],[-122.4239,37.7082],[-122.4233,37.7093],[-122.4192,37.7081],[-122.4054,37.7083],[-122.3986,37.7162],[-122.4022,37.7281],[-122.407,37.738],[-122.4095,37.735],[-122.4144,37.7324],[-122.4256,37.7316],[-122.428,37.732],[-122.4262,37.734],[-122.4286,37.7351],[-122.4325,37.7331],[-122.4436,37.7357],[-122.4427,37.7397],[-122.4468,37.7425],[-122.4534,37.7434],[-122.4604,37.7378],[-122.4595,37.7343],[-122.4631,37.737],[-122.4631,37.7358],[-122.4649,37.736],[-122.4645,37.7351],[-122.4716,37.7347],[-122.4966,37.7339],[-122.5026,37.7356],[-122.5127,37.7351]]]},"properties":{"GEOID":"0607591964","BASENAME":"Merced-McLaren","NAME":"Merced-McLaren CCD","COUNTY":"075","COUSUB":"91964"}},{"type":"Feature","geometry":{"type":"MultiPolygon","coordinates":[[[[-123.1738,37.7757],[-123.1729,37.7636],[-123.17,37.7559],[-123.1628,37.7435],[-123.1568,37.7378],[-123.1326,37.7194],[-123.1261,37.7167],[-123.1049,37.7126],[-123.0929,37.7137],[-123.0861,37.7007],[-123.0749,37.6901],[-123.0731,37.6826],[-123.0686,37.673],[-123.0536,37.6586],[-123.0407,37.6503],[-123.0272,37.6452],[-123.0116,37.6415],[-123.0011,37.6418],[-123.0011,37.6398],[-122.9867,37.6418],[-122.973,37.6466],[-122.963,37.652],[-122.9491,37.6634],[-122.9414,37.6766],[-122.9357,37.6976],[-122.9359,37.7025],[-122.9423,37.7211],[-122.95,37.7322],[-122.9641,37.7443],[-122.9733,37.7487],[-122.9814,37.7589],[-122.9975,37.7708],[-123.0106,37.7749],[-123.0314,37.7772],[-123.0338,37.7784],[-123.0387,37.7889],[-123.0488,37.7998],[-123.0705,37.8138],[-123.0953,37.8219],[-123.1183,37.8231],[-123.1323,37.8197],[-123.1472,37.812],[-123.1609,37.802],[-123.166,37.7969],[-123.1691,37.7924],[-123.1738,37.7757]]],[[[-122.6123,37.8152],[-122.5882,37.7894],[-122.5847,37.7792],[-122.5813,37.7602],[-122.5752,37.7067],[-122.5071,37.7081],[-122.5102,37.7187],[-122.5127,37.7351],[-122.5026,37.7356],[-122.4966,37.7339],[-122.4716,37.7347],[-122.4645,37.7351],[-122.4649,37.736],[-122.4631,37.7358],[-122.4631,37.737],[-122.4595,37.7343],[-122.4604,37.7377],[-122.4593,37.739],[-122.4534,37.7434],[-122.4499,37.743],[-122.4517,37.7456],[-122.4491,37.7469],[-122.4477,37.7495],[-122.4456,37.749],[-122.448,37.7503],[-122.4497,37.7495],[-122.447,37.7517],[-122.448,37.7557],[-122.4452,37.7557],[-122.4479,37.7576],[-122.4464,37.7589],[-122.4465,37.7614],[-122.452,37.7615],[-122.4529,37.7664],[-122.5169,37.7637],[-122.5174,37.7752],[-122.5189,37.7805],[-122.5341,37.8153],[-122.6123,37.8152]]]]},"properties":{"GEOID":"0607593267","BASENAME":"Sunset","NAME":"Sunset CCD","COUNTY":"075","COUSUB":"93267"}},{"type":"Feature","geometry":{"type":"Polygon","coordinates":[[[-122.5341,37.8153],[-122.5189,37.7805],[-122.5174,37.7752],[-122.5169,37.7637],[-122.4529,37.7664],[-122.4539,37.7711],[-122.4407,37.7727],[-122.4409,37.7736],[-122.4541,37.7719],[-122.4552,37.7775],[-122.4534,37.7778],[-122.4542,37.7817],[-122.4428,37.7829],[-122.4438,37.7876],[-122.4224,37.7904],[-122.4268,37.8086],[-122.4249,37.8108],[-122.4259,37.8121],[-122.4252,37.8126],[-122.4487,37.8086],[-122.454,37.839],[-122.4728,37.8319],[-122.4745,37.8336],[-122.4778,37.8332],[-122.477,37.8311],[-122.4784,37.8309],[-122.4781,37.8253],[-122.4833,37.8256],[-122.4846,37.8269],[-122.4912,37.8266],[-122.4958,37.8221],[-122.4996,37.8219],[-122.4991,37.8199],[-122.5007,37.8199],[-122.5017,37.8215],[-122.5045,37.821],[-122.5059,37.8231],[-122.5113,37.8247],[-122.5229,37.8249],[-122.5255,37.8211],[-122.5289,37.8201],[-122.5277,37.8151],[-122.5341,37.8153]]]},"properties":{"GEOID":"0607592605","BASENAME":"Richmond-Presidio-Marina","NAME":"Richmond-Presidio-Marina CCD","COUNTY":"075","COUSUB":"92605"}},{"type":"Feature","geometry":{"type":"Polygon","coordinates":[[[-122.4552,37.7776],[-122.4541,37.7719],[-122.4409,37.7736],[-122.4407,37.7727],[-122.4539,37.7711],[-122.452,37.7615],[-122.4468,37.7618],[-122.4464,37.7589],[-122.4479,37.7576],[-122.4452,37.7557],[-122.448,37.7557],[-122.447,37.7517],[-122.4497,37.7495],[-122.448,37.7503],[-122.4457,37.7489],[-122.4477,37.7495],[-122.4491,37.7469],[-122.4516,37.7455],[-122.4496,37.7431],[-122.4426,37.7395],[-122.4436,37.7357],[-122.4325,37.7331],[-122.4286,37.7351],[-122.4251,37.7379],[-122.4223,37.7452],[-122.4226,37.748],[-122.4247,37.7478],[-122.4269,37.7692],[-122.4193,37.7752],[-122.4224,37.7904],[-122.4438,37.7876],[-122.4428,37.7829],[-122.4542,37.7817],[-122.4534,37.7778],[-122.4552,37.7776]]]},"properties":{"GEOID":"0607593625","BASENAME":"Western Addition-Buena Vista-Eureka Valley","NAME":"Western Addition-Buena Vista-Eureka Valley CCD","COUNTY":"075","COUSUB":"93625"}},{"type":"Feature","geometry":{"type":"Polygon","coordinates":[[[-122.4286,37.7351],[-122.4262,37.734],[-122.428,37.732],[-122.4159,37.7321],[-122.4099,37.7347],[-122.407,37.738],[-122.4068,37.7409],[-122.4042,37.7452],[-122.403,37.7527],[-122.4035,37.7568],[-122.4065,37.7603],[-122.4045,37.7647],[-122.405,37.7697],[-122.408,37.7692],[-122.4097,37.7703],[-122.4109,37.7694],[-122.4187,37.7756],[-122.4269,37.7692],[-122.4247,37.7478],[-122.4226,37.748],[-122.4223,37.7453],[-122.4247,37.7384],[-122.4286,37.7351]]]},"properties":{"GEOID":"0607591976","BASENAME":"Mission-Bernal","NAME":"Mission-Bernal CCD","COUNTY":"075","COUSUB":"91976"}},{"type":"Feature","geometry":{"type":"Polygon","coordinates":[[[-122.4071,37.7391],[-122.3985,37.7165],[-122.4054,37.7083],[-122.3604,37.7083],[-122.3566,37.7297],[-122.3658,37.7371],[-122.3732,37.7459],[-122.3761,37.7526],[-122.378,37.7536],[-122.3965,37.7523],[-122.3964,37.7512],[-122.4026,37.7506],[-122.4071,37.7391]]]},"properties":{"GEOID":"0607590195","BASENAME":"Bayview","NAME":"Bayview CCD","COUNTY":"075","COUSUB":"90195"}},{"type":"Feature","geometry":{"type":"Polygon","coordinates":[[[-122.4156,37.7731],[-122.4109,37.7694],[-122.4097,37.7703],[-122.408,37.7692],[-122.405,37.7697],[-122.4045,37.7647],[-122.4065,37.7603],[-122.4033,37.7562],[-122.4038,37.7494],[-122.4026,37.7506],[-122.3964,37.7512],[-122.3965,37.7523],[-122.378,37.7536],[-122.3817,37.7835],[-122.3851,37.7914],[-122.389,37.7966],[-122.3915,37.7939],[-122.3932,37.7932],[-122.3949,37.7945],[-122.3974,37.7924],[-122.3943,37.7899],[-122.4156,37.7731]]]},"properties":{"GEOID":"0607593067","BASENAME":"SoMa-Potrero-Mission Bay","NAME":"SoMa-Potrero-Mission Bay CCD","COUNTY":"075","COUSUB":"93067"}},{"type":"Feature","geometry":{"type":"Polygon","coordinates":[[[-122.454,37.839],[-122.4487,37.8086],[-122.4252,37.8126],[-122.4259,37.8121],[-122.4249,37.8108],[-122.4268,37.8086],[-122.4193,37.7752],[-122.4156,37.7731],[-122.3943,37.7899],[-122.3974,37.7924],[-122.3963,37.7933],[-122.3947,37.7945],[-122.3932,37.7932],[-122.3915,37.7939],[-122.389,37.7966],[-122.3878,37.7951],[-122.3817,37.7835],[-122.378,37.7536],[-122.3761,37.7526],[-122.3732,37.7459],[-122.3658,37.7371],[-122.3566,37.7297],[-122.3604,37.7083],[-122.2818,37.7082],[-122.3467,37.811],[-122.3738,37.8837],[-122.4323,37.9298],[-122.4187,37.8525],[-122.454,37.839]]]},"properties":{"GEOID":"0607590734","BASENAME":"Downtown-Northeast Neighborhoods-Treasure Island","NAME":"Downtown-Northeast Neighborhoods-Treasure Island CCD","COUNTY":"075","COUSUB":"90734"}}]}