{"type":"FeatureCollection","features":[{"type":"Feature","geometry":{"type":"Polygon","coordinates":[[[-121.1473,37.905],[-121.1448,37.8375],[-121.1197,37.8349],[-121.109,37.8362],[-121.1032,37.8325],[-121.0972,37.8321],[-121.0871,37.8273],[-121.0817,37.8273],[-121.0711,37.8201],[-121.0693,37.7581],[-121.0647,37.7581],[-121.0645,37.75],[-121.0669,37.7447],[-121.0634,37.7437],[-121.0647,37.7467],[-121.0614,37.7463],[-121.0605,37.7494],[-121.0583,37.7488],[-121.0567,37.7505],[-121.0517,37.7481],[-121.0536,37.7459],[-121.0507,37.7457],[-121.0514,37.742],[-121.0468,37.7429],[-121.044,37.7387],[-121.0428,37.7391],[-121.0438,37.7415],[-121.0426,37.7418],[-121.0379,37.7392],[-121.0365,37.743],[-121.033,37.7429],[-121.0288,37.7407],[-121.0257,37.7424],[-121.0241,37.7467],[-121.0206,37.7481],[-121.0213,37.7501],[-121.0177,37.7553],[-121.0147,37.7565],[-121.0112,37.7558],[-121.014,37.7545],[-121.0108,37.7516],[-121.0127,37.7497],[-121.008,37.7491],[-121.0063,37.7515],[-120.9993,37.7536],[-120.9978,37.7553],[-120.9989,37.7571],[-120.9934,37.7609],[-120.9873,37.7566],[-120.9818,37.7567],[-120.9814,37.7545],[-120.9772,37.7528],[-120.9732,37.748],[-120.954,37.7384],[-120.942,37.7423],[-120.9236,37.7376],[-120.9207,37.7382],[-120.9222,37.7484],[-120.9206,37.7493],[-120.9226,37.7503],[-120.9234,37.758],[-120.9233,37.7936],[-120.9263,37.8867],[-120.9999,37.8864],[-120.9999,37.8936],[-121.1121,37.8917],[-121.1215,37.8968],[-121.1473,37.905]]]},"properties":{"GEOID":"0607790900","BASENAME":"Escalon","NAME":"Escalon CCD","COUNTY":"077","COUSUB":"90900"}},{"type":"Feature","geometry":{"type":"Polygon","coordinates":[[[-121.2153,38.1378],[-121.215,38.116],[-121.2133,38.116],[-121.215,38.1082],[-121.215,38.0826],[-121.2109,38.0711],[-121.2102,38.0638],[-121.2104,38.0373],[-121.2044,38.0398],[-121.2027,38.0446],[-121.1942,38.0466],[-121.1917,38.0486],[-121.1933,38.0511],[-121.1926,38.0523],[-121.1768,38.05],[-121.1705,38.0536],[-121.1664,38.0579],[-121.1632,38.0586],[-121.163,38.0607],[-121.1602,38.0612],[-121.1567,38.0652],[-121.1499,38.0657],[-121.1477,38.0681],[-121.1437,38.0683],[-121.1419,38.0654],[-121.1364,38.0641],[-121.126,38.0682],[-121.126,38.0703],[-121.1204,38.0692],[-121.1127,38.0649],[-121.1062,38.0634],[-121.1048,38.0609],[-121.1022,38.0597],[-121.1021,38.0578],[-121.0958,38.0551],[-121.0957,38.052],[-121.0924,38.0487],[-121.0897,38.0474],[-121.0827,38.0489],[-121.0799,38.0462],[-121.0764,38.0453],[-121.0727,38.047],[-121.0721,38.049],[-121.0686,38.051],[-121.0609,38.0481],[-121.0507,38.0522],[-121.0407,38.0505],[-121.0365,38.0527],[-121.0308,38.0537],[-121.0246,38.0573],[-121.0133,38.0532],[-121.003,38.0539],[-120.9987,38.0559],[-120.9991,38.057],[-120.9958,38.0603],[-120.9852,38.0657],[-120.9835,38.0677],[-120.9783,38.065],[-120.9735,38.0668],[-120.9658,38.0655],[-120.9588,38.0618],[-120.9561,38.0631],[-120.9509,38.0694],[-120.9445,38.071],[-120.945,38.073],[-120.9373,38.0722],[-120.9265,38.0731],[-120.9264,38.0774],[-120.9388,38.0883],[-120.9818,38.1941],[-121.0271,38.3003],[-121.0406,38.2977],[-121.0436,38.2937],[-121.0481,38.2911],[-121.0534,38.2932],[-121.0617,38.2989],[-121.0675,38.2989],[-121.0838,38.2865],[-121.0858,38.287],[-121.0894,38.2841],[-121.0928,38.2838],[-121.0942,38.2819],[-121.1022,38.2832],[-121.1095,38.2811],[-121.1163,38.2774],[-121.1278,38.2774],[-121.1338,38.2719],[-121.1377,38.2716],[-121.1416,38.2692],[-121.147,38.2639],[-121.157,38.2608],[-121.1634,38.2604],[-121.1705,38.2576],[-121.1731,38.2552],[-121.1792,38.2551],[-121.182,38.2568],[-121.192,38.2567],[-121.2032,38.2489],[-121.2079,38.2488],[-121.2073,38.1896],[-121.1797,38.19],[-121.1792,38.1775],[-121.1701,38.1777],[-121.1699,38.1793],[-121.1677,38.1794],[-121.1656,38.1779],[-121.1695,38.1747],[-121.1703,38.1717],[-121.1721,38.1706],[-121.1715,38.1688],[-121.1732,38.1678],[-121.1697,38.1642],[-121.1718,38.162],[-121.1796,38.159],[-121.1824,38.1547],[-121.1851,38.1536],[-121.1819,38.1536],[-121.1852,38.1534],[-121.1854,38.1516],[-121.1895,38.1495],[-121.1888,38.1483],[-121.1923,38.1504],[-121.1931,38.1482],[-121.1968,38.1509],[-121.1946,38.1562],[-121.203,38.1597],[-121.2043,38.1585],[-121.2062,38.1595],[-121.206,38.1379],[-121.2153,38.1378]]]},"properties":{"GEOID":"0607791690","BASENAME":"Lockeford","NAME":"Lockeford CCD","COUNTY":"077","COUSUB":"91690"}},{"type":"Feature","geometry":{"type":"Polygon","coordinates":[[[-121.411,38.232],[-121.4103,38.2261],[-121.4049,38.2245],[-121.4008,38.2216],[-121.3957,38.2211],[-121.3936,38.2194],[-121.3938,38.2136],[-121.3912,38.211],[-121.3805,38.2101],[-121.3809,38.2116],[-121.3794,38.2122],[-121.3766,38.21],[-121.3728,38.2093],[-121.3719,38.1748],[-121.3997,38.1749],[-121.3983,38.1219],[-121.3862,38.098],[-121.3528,38.0749],[-121.3518,38.0577],[-121.3254,38.0576],[-121.3171,38.0428],[-121.3022,38.0426],[-121.2953,38.0442],[-121.2951,38.0369],[-121.2583,38.0373],[-121.2594,38.0574],[-121.2102,38.0578],[-121.2109,38.0709],[-121.215,38.0826],[-121.215,38.1082],[-121.2133,38.116],[-121.215,38.116],[-121.2153,38.1378],[-121.206,38.1379],[-121.2062,38.1595],[-121.2043,38.1585],[-121.203,38.1597],[-121.1946,38.1562],[-121.1968,38.1509],[-121.1931,38.1482],[-121.1923,38.1504],[-121.1888,38.1483],[-121.1895,38.1495],[-121.1854,38.1516],[-121.1852,38.1534],[-121.1819,38.1536],[-121.1851,38.1536],[-121.1824,38.1547],[-121.1796,38.159],[-121.1718,38.162],[-121.1697,38.1642],[-121.1732,38.1678],[-121.1715,38.1688],[-121.1721,38.1706],[-121.1703,38.1717],[-121.1695,38.1747],[-121.1656,38.1779],[-121.1677,38.1794],[-121.1699,38.1793],[-121.1701,38.1777],[-121.1792,38.1775],[-121.1797,38.19],[-121.2073,38.1896],[-121.2079,38.2488],[-121.215,38.2488],[-121.2225,38.2444],[-121.2256,38.2449],[-121.2293,38.2475],[-121.2318,38.2467],[-121.2375,38.2475],[-121.2449,38.2452],[-121.2684,38.2523],[-121.2774,38.2491],[-121.283,38.2497],[-121.288,38.2458],[-121.2925,38.239],[-121.2955,38.2376],[-121.3053,38.2348],[-121.309,38.2358],[-121.3177,38.2352],[-121.322,38.2326],[-121.3293,38.2328],[-121.3382,38.2291],[-121.3423,38.2296],[-121.3448,38.2282],[-121.3547,38.231],[-121.3624,38.2299],[-121.3632,38.2283],[-121.3663,38.2312],[-121.3709,38.2297],[-121.3732,38.2311],[-121.3786,38.2306],[-121.3825,38.2321],[-121.3852,38.2313],[-121.3891,38.2332],[-121.3975,38.2273],[-121.4017,38.2307],[-121.4049,38.2299],[-121.4099,38.233],[-121.411,38.232]]]},"properties":{"GEOID":"0607791700","BASENAME":"Lodi","NAME":"Lodi CCD","COUNTY":"077","COUSUB":"91700"}},{"type":"Feature","geometry":{"type":"Polygon","coordinates":[[[-121.3269,37.8088],[-121.3234,37.8056],[-121.317,37.8064],[-121.3126,37.8043],[-121.3124,37.7978],[-121.3141,37.7939],[-121.3118,37.7933],[-121.3097,37.7959],[-121.3067,37.7946],[-121.3072,37.787],[-121.303,37.7839],[-121.2994,37.778],[-121.3031,37.7737],[-121.3011,37.7712],[-121.3015,37.7692],[-121.3081,37.7662],[-121.3086,37.7615],[-121.3078,37.7601],[-121.305,37.7595],[-121.3029,37.7512],[-121.2931,37.752],[-121.2905,37.7476],[-121.291,37.7447],[-121.2965,37.7391],[-121.2954,37.7329],[-121.2982,37.7276],[-121.2923,37.7224],[-121.2903,37.7165],[-121.2829,37.7139],[-121.2784,37.7094],[-121.2769,37.7122],[-121.2786,37.7174],[-121.278,37.7197],[-121.264,37.7217],[-121.2592,37.7188],[-121.2679,37.7123],[-121.2748,37.7006],[-121.2701,37.694],[-121.2751,37.688],[-121.2583,37.6879],[-121.2562,37.6863],[-121.2575,37.6827],[-121.2653,37.6778],[-121.2634,37.6739],[-121.258,37.6723],[-121.2496,37.6642],[-121.2469,37.6658],[-121.2465,37.6719],[-121.2449,37.6732],[-121.2429,37.6716],[-121.241,37.6654],[-121.2316,37.6626],[-121.2291,37.6643],[-121.2292,37.6689],[-121.2223,37.67],[-121.2185,37.6736],[-121.2191,37.6765],[-121.2217,37.675],[-121.2228,37.6772],[-121.219,37.6779],[-121.2183,37.6794],[-121.2226,37.6804],[-121.2235,37.6836],[-121.221,37.683],[-121.2164,37.6879],[-121.212,37.6859],[-121.2087,37.6863],[-121.2052,37.6915],[-121.2064,37.6948],[-121.2042,37.6934],[-121.2028,37.6958],[-121.1995,37.6962],[-121.1992,37.6943],[-121.2014,37.6928],[-121.1988,37.6902],[-121.1963,37.6926],[-121.1964,37.6946],[-121.1941,37.6949],[-121.1919,37.6905],[-121.189,37.6916],[-121.1895,37.6897],[-121.1876,37.69],[-121.1874,37.6875],[-121.1857,37.6889],[-121.1812,37.6879],[-121.1831,37.69],[-121.1788,37.6918],[-121.1795,37.693],[-121.1822,37.6916],[-121.1839,37.6923],[-121.1828,37.6936],[-121.1806,37.6936],[-121.1802,37.6953],[-121.1824,37.6966],[-121.1826,37.6985],[-121.1759,37.6994],[-121.1769,37.7025],[-121.1789,37.7019],[-121.1802,37.7034],[-121.1784,37.7055],[-121.1794,37.7794],[-121.1429,37.7794],[-121.1473,37.905],[-121.1744,37.9128],[-121.184,37.9118],[-121.1839,37.9054],[-121.2228,37.9049],[-121.2203,37.8977],[-121.2186,37.8599],[-121.2375,37.8654],[-121.2535,37.8737],[-121.2562,37.8681],[-121.2555,37.8556],[-121.2819,37.8556],[-121.2791,37.8658],[-121.323,37.8648],[-121.3178,37.8592],[-121.3205,37.8563],[-121.3203,37.854],[-121.3236,37.8539],[-121.3218,37.8507],[-121.3244,37.8488],[-121.3242,37.8475],[-121.3214,37.8447],[-121.321,37.8424],[-121.3182,37.8412],[-121.3167,37.8363],[-121.3121,37.8316],[-121.31,37.8263],[-121.3207,37.8209],[-121.319,37.8188],[-121.315,37.8183],[-121.316,37.8162],[-121.3199,37.8157],[-121.3177,37.8125],[-121.3269,37.8088]]]},"properties":{"GEOID":"0607791870","BASENAME":"Manteca","NAME":"Manteca CCD","COUNTY":"077","COUSUB":"91870"}},{"type":"Feature","geometry":{"type":"Polygon","coordinates":[[[-121.1794,37.7794],[-121.1784,37.7055],[-121.1765,37.7061],[-121.1763,37.704],[-121.1689,37.6991],[-121.1637,37.7004],[-121.1667,37.7018],[-121.1657,37.7043],[-121.1624,37.7038],[-121.1586,37.7054],[-121.1621,37.7081],[-121.1593,37.7085],[-121.1608,37.7111],[-121.1584,37.7118],[-121.1578,37.7134],[-121.1591,37.7166],[-121.1561,37.7168],[-121.1571,37.7178],[-121.1551,37.7203],[-121.1545,37.7191],[-121.1503,37.7194],[-121.1461,37.7175],[-121.1454,37.72],[-121.1419,37.7208],[-121.1428,37.7221],[-121.138,37.7223],[-121.1365,37.7247],[-121.1353,37.723],[-121.1338,37.7238],[-121.1318,37.7221],[-121.1287,37.7243],[-121.1259,37.7226],[-121.1227,37.7241],[-121.1236,37.7228],[-121.1214,37.7219],[-121.1214,37.7245],[-121.1168,37.7241],[-121.1168,37.7265],[-121.1129,37.7277],[-121.1076,37.7323],[-121.1113,37.74],[-121.11,37.7421],[-121.1068,37.7401],[-121.1029,37.7413],[-121.0998,37.7402],[-121.101,37.7377],[-121.0992,37.7381],[-121.0958,37.7362],[-121.0968,37.7346],[-121.0954,37.7332],[-121.0944,37.7337],[-121.0951,37.7345],[-121.0905,37.7359],[-121.0877,37.7414],[-121.0831,37.7418],[-121.0821,37.7399],[-121.0798,37.7402],[-121.0794,37.7384],[-121.0775,37.7375],[-121.0751,37.7389],[-121.0712,37.738],[-121.0666,37.74],[-121.0674,37.743],[-121.0645,37.75],[-121.0647,37.7581],[-121.0693,37.7581],[-121.0711,37.8201],[-121.0817,37.8273],[-121.0871,37.8273],[-121.0972,37.8321],[-121.1067,37.8339],[-121.1091,37.8362],[-121.1197,37.8349],[-121.1448,37.8375],[-121.1429,37.7794],[-121.1794,37.7794]]]},"properties":{"GEOID":"0607792620","BASENAME":"Ripon","NAME":"Ripon CCD","COUNTY":"077","COUSUB":"92620"}},{"type":"Feature","geometry":{"type":"Polygon","coordinates":[[[-121.5851,38.0403],[-121.5836,38.0344],[-121.5799,38.0321],[-121.5779,38.0338],[-121.5808,38.0388],[-121.5802,38.0413],[-121.5776,38.043],[-121.573,38.0422],[-121.5708,38.038],[-121.5714,38.0304],[-121.5642,38.0297],[-121.5638,38.0248],[-121.5575,38.0166],[-121.5611,38.0154],[-121.568,38.0185],[-121.5721,38.0184],[-121.5726,38.0164],[-121.567,38.0135],[-121.5671,38.012],[-121.577,38.0111],[-121.5799,38.0078],[-121.5782,38.0039],[-121.5688,38.0022],[-121.5706,37.999],[-121.5792,37.9981],[-121.5761,37.9949],[-121.581,37.9895],[-121.5824,37.9835],[-121.5724,37.979],[-121.5733,37.9777],[-121.5786,37.9776],[-121.5802,37.9764],[-121.5748,37.973],[-121.5737,37.9664],[-121.565,37.959],[-121.5656,37.9578],[-121.5745,37.9569],[-121.5752,37.955],[-121.5736,37.9538],[-121.5635,37.9547],[-121.5688,37.9485],[-121.5674,37.944],[-121.5607,37.9476],[-121.5578,37.947],[-121.5582,37.9454],[-121.5628,37.9447],[-121.5636,37.9434],[-121.5609,37.9399],[-121.5615,37.9359],[-121.5573,37.9322],[-121.5589,37.9279],[-121.5564,37.9236],[-121.5583,37.9214],[-121.5651,37.9192],[-121.566,37.9163],[-121.5633,37.9106],[-121.5728,37.9043],[-121.5718,37.9025],[-121.567,37.8999],[-121.5659,37.8977],[-121.5684,37.8917],[-121.5759,37.8883],[-121.5739,37.8834],[-121.5782,37.8755],[-121.5793,37.8706],[-121.5734,37.8658],[-121.5744,37.8638],[-121.5795,37.8611],[-121.579,37.8585],[-121.578,37.8578],[-121.5743,37.8598],[-121.569,37.8606],[-121.5683,37.86],[-121.5705,37.8576],[-121.5659,37.8579],[-121.562,37.8531],[-121.5612,37.8543],[-121.5623,37.8564],[-121.5603,37.8586],[-121.5553,37.858],[-121.5528,37.8612],[-121.5475,37.8552],[-121.5406,37.8576],[-121.542,37.8518],[-121.5407,37.8494],[-121.539,37.8489],[-121.5372,37.8508],[-121.5341,37.8495],[-121.5382,37.8426],[-121.5389,37.8395],[-121.5381,37.8378],[-121.5442,37.8325],[-121.5495,37.8336],[-121.5521,37.8297],[-121.5512,37.8251],[-121.5525,37.824],[-121.5533,37.8188],[-121.5569,37.8172],[-121.557,37.816],[-121.5532,37.8151],[-121.5336,37.8049],[-121.527,37.7989],[-121.5227,37.7977],[-121.5137,37.7891],[-121.5123,37.7892],[-121.5168,37.7932],[-121.5133,37.7897],[-121.511,37.7907],[-121.5066,37.7901],[-121.5,37.7861],[-121.497,37.7818],[-121.4921,37.7838],[-121.4883,37.7817],[-121.4835,37.7828],[-121.4706,37.7945],[-121.4682,37.8013],[-121.4663,37.8025],[-121.4583,37.803],[-121.4611,37.802],[-121.4593,37.8015],[-121.4562,37.8028],[-121.4562,37.8051],[-121.4547,37.8023],[-121.4556,37.804],[-121.4559,37.8026],[-121.4541,37.8015],[-121.4499,37.8048],[-121.4439,37.8052],[-121.4439,37.8041],[-121.4455,37.8048],[-121.4462,37.8038],[-121.4441,37.8024],[-121.4412,37.8019],[-121.4374,37.8036],[-121.4361,37.8019],[-121.438,37.803],[-121.4388,37.8023],[-121.4375,37.8012],[-121.4334,37.8009],[-121.4347,37.8007],[-121.4343,37.7977],[-121.4312,37.8022],[-121.4297,37.8016],[-121.4311,37.802],[-121.4311,37.8012],[-121.4268,37.7996],[-121.4287,37.8016],[-121.4266,37.804],[-121.4217,37.8025],[-121.4197,37.8053],[-121.4176,37.8057],[-121.412,37.8032],[-121.4088,37.8064],[-121.3983,37.8058],[-121.3964,37.8096],[-121.3927,37.8094],[-121.3839,37.8117],[-121.3824,37.8168],[-121.3797,37.8175],[-121.3803,37.8199],[-121.3762,37.8223],[-121.3695,37.8214],[-121.3665,37.8193],[-121.3611,37.8196],[-121.3587,37.8175],[-121.3539,37.8169],[-121.3511,37.8179],[-121.348,37.8218],[-121.3421,37.8173],[-121.341,37.8216],[-121.3396,37.8222],[-121.333,37.818],[-121.3354,37.8121],[-121.3335,37.8086],[-121.3278,37.8084],[-121.325,37.8103],[-121.3195,37.8112],[-121.3176,37.8129],[-121.3199,37.8145],[-121.3197,37.816],[-121.316,37.8162],[-121.3149,37.8177],[-121.319,37.8188],[-121.3207,37.8209],[-121.31,37.8263],[-121.3121,37.8316],[-121.3167,37.8363],[-121.3182,37.8412],[-121.321,37.8424],[-121.3214,37.8447],[-121.3242,37.8475],[-121.3244,37.8488],[-121.3218,37.8507],[-121.3236,37.8539],[-121.3203,37.854],[-121.3205,37.8563],[-121.3178,37.8592],[-121.323,37.8648],[-121.2791,37.8658],[-121.2819,37.8556],[-121.2555,37.8556],[-121.2562,37.8681],[-121.2535,37.8737],[-121.2375,37.8654],[-121.2186,37.8599],[-121.2203,37.8977],[-121.2228,37.9049],[-121.1839,37.9054],[-121.184,37.9118],[-121.1744,37.9128],[-121.1473,37.905],[-121.1509,38.0657],[-121.1567,38.0652],[-121.1602,38.0612],[-121.163,38.0607],[-121.1632,38.0586],[-121.1664,38.0579],[-121.1705,38.0536],[-121.1768,38.05],[-121.1926,38.0523],[-121.1933,38.0511],[-121.1917,38.0486],[-121.1942,38.0466],[-121.2027,38.0446],[-121.2044,38.0398],[-121.2104,38.0373],[-121.2102,38.0578],[-121.2594,38.0574],[-121.2583,38.0373],[-121.2608,38.0371],[-121.2951,38.0369],[-121.2953,38.0442],[-121.3022,38.0426],[-121.3171,38.0428],[-121.3254,38.0576],[-121.3518,38.0577],[-121.3506,38.0462],[-121.348,38.0429],[-121.3507,38.0428],[-121.3858,38.0429],[-121.386,38.0447],[-121.4054,38.0471],[-121.4069,38.0465],[-121.4071,38.0448],[-121.4112,38.0432],[-121.4134,38.0441],[-121.4175,38.0431],[-121.4208,38.0444],[-121.4277,38.0428],[-121.4306,38.0445],[-121.4432,38.044],[-121.4478,38.0474],[-121.4492,38.0527],[-121.4598,38.056],[-121.4603,38.0546],[-121.4638,38.0544],[-121.4707,38.0483],[-121.4758,38.0473],[-121.4827,38.0395],[-121.4881,38.0383],[-121.5018,38.0459],[-121.5067,38.0515],[-121.5116,38.0531],[-121.5463,38.0577],[-121.5562,38.0607],[-121.5606,38.0709],[-121.5729,38.0742],[-121.5748,38.0718],[-121.5822,38.0684],[-121.5839,38.0599],[-121.5823,38.0514],[-121.5851,38.0403]]]},"properties":{"GEOID":"0607793240","BASENAME":"Stockton","NAME":"Stockton CCD","COUNTY":"077","COUSUB":"93240"}},{"type":"Feature","geometry":{"type":"Polygon","coordinates":[[[-121.5844,38.1183],[-121.5835,38.1135],[-121.5808,38.111],[-121.5672,38.1062],[-121.5643,38.1029],[-121.5646,38.0993],[-121.5672,38.0973],[-121.58,38.0944],[-121.5778,38.0895],[-121.5767,38.0782],[-121.5729,38.0742],[-121.5606,38.0709],[-121.5562,38.0607],[-121.5463,38.0577],[-121.5116,38.0531],[-121.5067,38.0515],[-121.5018,38.0459],[-121.489,38.0384],[-121.4827,38.0395],[-121.4758,38.0473],[-121.4707,38.0483],[-121.4638,38.0544],[-121.4603,38.0546],[-121.4598,38.056],[-121.4492,38.0527],[-121.4478,38.0474],[-121.4432,38.044],[-121.4306,38.0445],[-121.4277,38.0428],[-121.4208,38.0444],[-121.4175,38.0431],[-121.4134,38.0441],[-121.4112,38.0432],[-121.4071,38.0448],[-121.4069,38.0465],[-121.4054,38.0471],[-121.386,38.0447],[-121.3858,38.0429],[-121.348,38.0429],[-121.3507,38.0467],[-121.3528,38.0749],[-121.3862,38.098],[-121.3983,38.1219],[-121.3997,38.1749],[-121.3719,38.1748],[-121.3728,38.2093],[-121.3766,38.21],[-121.3794,38.2122],[-121.3809,38.2116],[-121.3805,38.2101],[-121.3906,38.2107],[-121.3938,38.2136],[-121.3931,38.2186],[-121.3954,38.2209],[-121.4008,38.2216],[-121.4049,38.2245],[-121.4103,38.2261],[-121.411,38.2319],[-121.4157,38.2356],[-121.4205,38.2372],[-121.4272,38.2448],[-121.4268,38.247],[-121.4254,38.2468],[-121.4251,38.2504],[-121.4276,38.2516],[-121.4295,38.2549],[-121.4348,38.2543],[-121.4449,38.2568],[-121.4504,38.2546],[-121.4555,38.2575],[-121.4583,38.2572],[-121.461,38.2591],[-121.4665,38.26],[-121.4717,38.2598],[-121.4762,38.2578],[-121.4801,38.2536],[-121.4785,38.2511],[-121.4786,38.2462],[-121.4871,38.2399],[-121.4868,38.2358],[-121.4905,38.233],[-121.4917,38.2277],[-121.4984,38.2277],[-121.5064,38.2246],[-121.5073,38.2215],[-121.5043,38.2121],[-121.5081,38.2092],[-121.5099,38.2046],[-121.5132,38.2024],[-121.5207,38.2029],[-121.5256,38.1973],[-121.5289,38.1953],[-121.5289,38.193],[-121.5245,38.1855],[-121.5278,38.1817],[-121.5243,38.1727],[-121.5293,38.169],[-121.5312,38.1633],[-121.5335,38.1626],[-121.5337,38.16],[-121.5362,38.1582],[-121.5345,38.1557],[-121.5363,38.1516],[-121.5414,38.1519],[-121.5438,38.1473],[-121.5472,38.1481],[-121.5506,38.1456],[-121.5592,38.1439],[-121.5601,38.1421],[-121.5573,38.1391],[-121.5577,38.1368],[-121.5624,38.136],[-121.5763,38.1291],[-121.581,38.1248],[-121.5844,38.1183]]]},"properties":{"GEOID":"0607793340","BASENAME":"Thornton","NAME":"Thornton CCD","COUNTY":"077","COUSUB":"93340"}},{"type":"Feature","geometry":{"type":"Polygon","coordinates":[[[-121.5573,37.6167],[-121.5567,37.5427],[-121.5505,37.5393],[-121.5458,37.5325],[-121.5406,37.5298],[-121.5327,37.5287],[-121.5304,37.5271],[-121.5288,37.5281],[-121.5223,37.5247],[-121.5167,37.5255],[-121.5099,37.5246],[-121.5044,37.5259],[-121.5015,37.525],[-121.4983,37.5224],[-121.5024,37.5185],[-121.4972,37.5125],[-121.4954,37.5081],[-121.496,37.5049],[-121.4932,37.5024],[-121.4821,37.5014],[-121.4794,37.4965],[-121.476,37.4954],[-121.4693,37.4897],[-121.4719,37.4818],[-121.24,37.6649],[-121.2419,37.6668],[-121.2429,37.6716],[-121.2449,37.6732],[-121.2465,37.6719],[-121.2469,37.6658],[-121.2496,37.6642],[-121.258,37.6723],[-121.264,37.6745],[-121.2653,37.6778],[-121.2574,37.6829],[-121.256,37.685],[-121.2573,37.6877],[-121.2752,37.6881],[-121.2715,37.6911],[-121.2701,37.694],[-121.2747,37.701],[-121.2679,37.7123],[-121.2592,37.7188],[-121.264,37.7217],[-121.278,37.7197],[-121.2786,37.7174],[-121.2769,37.7122],[-121.2784,37.7094],[-121.2829,37.7139],[-121.2903,37.7165],[-121.2923,37.7224],[-121.2982,37.7276],[-121.2954,37.7329],[-121.2965,37.7391],[-121.291,37.7447],[-121.2905,37.7476],[-121.2931,37.752],[-121.3029,37.7512],[-121.305,37.7595],[-121.3078,37.7601],[-121.3086,37.7615],[-121.3081,37.7662],[-121.3015,37.7692],[-121.3011,37.7712],[-121.3031,37.7737],[-121.2994,37.778],[-121.303,37.7839],[-121.3072,37.787],[-121.3063,37.7939],[-121.3097,37.7959],[-121.3118,37.7933],[-121.3139,37.7935],[-121.3123,37.7981],[-121.3123,37.8033],[-121.3134,37.805],[-121.3178,37.8065],[-121.3227,37.8055],[-121.3265,37.809],[-121.3316,37.8081],[-121.3346,37.8094],[-121.3352,37.8133],[-121.333,37.818],[-121.3394,37.8221],[-121.341,37.8216],[-121.3421,37.8173],[-121.348,37.8218],[-121.3511,37.8179],[-121.3539,37.8169],[-121.3587,37.8175],[-121.3611,37.8196],[-121.3665,37.8193],[-121.3699,37.8215],[-121.3766,37.8222],[-121.3782,37.8202],[-121.3803,37.8199],[-121.3797,37.8175],[-121.3824,37.8168],[-121.3839,37.8117],[-121.3927,37.8094],[-121.3964,37.8096],[-121.3983,37.8058],[-121.4088,37.8064],[-121.412,37.8032],[-121.4176,37.8057],[-121.4197,37.8053],[-121.4217,37.8025],[-121.4266,37.804],[-121.4287,37.8016],[-121.4268,37.7996],[-121.4311,37.8012],[-121.4311,37.802],[-121.4297,37.8016],[-121.4312,37.8022],[-121.4343,37.7977],[-121.4347,37.8007],[-121.4334,37.8009],[-121.4375,37.8012],[-121.4388,37.8023],[-121.438,37.803],[-121.4361,37.8019],[-121.4374,37.8036],[-121.4412,37.8019],[-121.4441,37.8024],[-121.4462,37.8038],[-121.4455,37.8048],[-121.4439,37.8041],[-121.4439,37.8052],[-121.4499,37.8048],[-121.4541,37.8015],[-121.4559,37.8026],[-121.4556,37.804],[-121.4547,37.8023],[-121.4562,37.8051],[-121.4562,37.8028],[-121.4593,37.8015],[-121.4611,37.802],[-121.4583,37.803],[-121.4663,37.8025],[-121.4682,37.8013],[-121.4707,37.7943],[-121.4726,37.7937],[-121.4835,37.7828],[-121.488,37.7817],[-121.4921,37.7838],[-121.4972,37.7819],[-121.5026,37.7878],[-121.5079,37.7905],[-121.5134,37.7898],[-121.5168,37.7932],[-121.5123,37.7892],[-121.5137,37.7891],[-121.5227,37.7977],[-121.527,37.7989],[-121.5336,37.8049],[-121.5532,37.8151],[-121.557,37.816],[-121.5573,37.6167]]]},"properties":{"GEOID":"0607793400","BASENAME":"Tracy","NAME":"Tracy CCD","COUNTY":"077","COUSUB":"93400"}},{"type":"Feature","geometry":{"type":"Polygon","coordinates":[[[-121.1509,38.0616],[-121.1473,37.905],[-121.1215,37.8968],[-121.1121,37.8917],[-120.9999,37.8936],[-120.9999,37.8864],[-120.9263,37.8867],[-120.9265,38.0731],[-120.9373,38.0722],[-120.945,38.073],[-120.9445,38.071],[-120.9509,38.0694],[-120.9561,38.0631],[-120.9588,38.0618],[-120.9658,38.0655],[-120.9735,38.0668],[-120.9783,38.065],[-120.9835,38.0677],[-120.9852,38.0657],[-120.9958,38.0603],[-120.9991,38.057],[-120.9987,38.0559],[-121.003,38.0539],[-121.0133,38.0532],[-121.0246,38.0573],[-121.0308,38.0537],[-121.0365,38.0527],[-121.0407,38.0505],[-121.0507,38.0522],[-121.0609,38.0481],[-121.0686,38.051],[-121.0721,38.049],[-121.0727,38.047],[-121.0764,38.0453],[-121.0799,38.0462],[-121.0827,38.0489],[-121.0897,38.0474],[-121.0924,38.0487],[-121.0957,38.052],[-121.0958,38.0551],[-121.1021,38.0578],[-121.1022,38.0597],[-121.1048,38.0609],[-121.1062,38.0634],[-121.1127,38.0649],[-121.1208,38.0693],[-121.126,38.0703],[-121.126,38.0682],[-121.1364,38.0641],[-121.1419,38.0654],[-121.1437,38.0683],[-121.1479,38.0681],[-121.1509,38.0657],[-121.1509,38.0616]]]},"properties":{"GEOID":"0607791630","BASENAME":"Linden-Farmington","NAME":"Linden-Farmington CCD","COUNTY":"077","COUSUB":"91630"}}]}