{"type":"FeatureCollection","features":[{"type":"Feature","geometry":{"type":"Polygon","coordinates":[[[-120.7192,35.1763],[-120.7164,35.1739],[-120.719,35.1098],[-120.7071,35.1043],[-120.6896,35.0988],[-120.6878,35.0775],[-120.6917,35.0604],[-120.6947,35.0288],[-120.7028,35],[-120.6491,34.9746],[-120.6341,34.9596],[-120.6289,34.9629],[-120.6163,34.9659],[-120.6131,34.9713],[-120.6022,34.9727],[-120.5955,34.9665],[-120.5855,34.9672],[-120.5823,34.9723],[-120.5752,34.9783],[-120.5655,34.9773],[-120.5549,34.9739],[-120.5471,34.9788],[-120.5439,34.9794],[-120.5386,34.9838],[-120.4962,34.9932],[-120.439,34.988],[-120.391,34.9633],[-120.3612,34.9465],[-120.353,34.9393],[-120.3359,34.9311],[-120.3244,34.9222],[-120.3245,34.9193],[-120.3183,34.907],[-120.3115,34.9038],[-120.3018,34.9056],[-120.2994,34.9071],[-120.2988,34.9094],[-120.3002,34.9154],[-120.2935,34.9248],[-120.2922,34.9303],[-120.2945,34.9466],[-120.2959,34.9497],[-120.3022,34.9537],[-120.3038,34.9561],[-120.304,34.9589],[-120.3019,34.9634],[-120.3083,34.9703],[-120.3156,34.9749],[-120.3161,34.9766],[-120.3144,34.98],[-120.316,34.984],[-120.319,34.986],[-120.3263,34.9857],[-120.3334,34.9948],[-120.3354,35.0035],[-120.3345,35.0063],[-120.3238,35.0173],[-120.3099,35.0092],[-120.2902,35.0154],[-120.2786,35.0116],[-120.2771,35.0176],[-120.2737,35.0208],[-120.2666,35.0213],[-120.2614,35.0266],[-120.2599,35.0259],[-120.2613,35.0214],[-120.2588,35.0177],[-120.2575,35.0176],[-120.2548,35.021],[-120.2527,35.0281],[-120.25,35.0301],[-120.2477,35.0265],[-120.2407,35.0224],[-120.233,35.0236],[-120.2318,35.0205],[-120.2246,35.0227],[-120.2209,35.0211],[-120.2158,35.0226],[-120.2112,35.0205],[-120.2095,35.0212],[-120.2103,35.0238],[-120.2048,35.0255],[-120.2031,35.0287],[-120.1884,35.0304],[-120.1882,35.0339],[-120.1864,35.0366],[-120.1805,35.038],[-120.1803,35.0393],[-120.1832,35.0422],[-120.1819,35.0435],[-120.1849,35.0491],[-120.1806,35.0547],[-120.1801,35.0616],[-120.1729,35.0643],[-120.1739,35.0657],[-120.1728,35.0685],[-120.1746,35.0689],[-120.1745,35.0704],[-120.1717,35.0703],[-120.1676,35.0753],[-120.1556,35.0781],[-120.1553,35.082],[-120.1494,35.0815],[-120.149,35.0845],[-120.1429,35.0822],[-120.1409,35.0868],[-120.1442,35.0868],[-120.1453,35.0882],[-120.1443,35.0905],[-120.1415,35.0911],[-120.1436,35.0941],[-120.1429,35.0959],[-120.1383,35.0942],[-120.136,35.0979],[-120.1322,35.0954],[-120.13,35.0961],[-120.1305,35.0915],[-120.1276,35.0909],[-120.1244,35.0997],[-120.1227,35.0995],[-120.1222,35.0978],[-120.1193,35.0984],[-120.1184,35.101],[-120.1197,35.1029],[-120.1167,35.1044],[-120.117,35.1066],[-120.1158,35.1067],[-120.1127,35.1035],[-120.108,35.1041],[-120.1083,35.1089],[-120.1023,35.1084],[-120.1018,35.1134],[-120.0994,35.1126],[-120.0992,35.1098],[-120.0969,35.1096],[-120.0962,35.1138],[-120.0984,35.1168],[-120.0998,35.1165],[-120.0996,35.1178],[-120.102,35.1205],[-120.0992,35.124],[-120.0998,35.1267],[-120.0976,35.1298],[-120.0978,35.1345],[-120.0942,35.1385],[-120.0888,35.1374],[-120.0844,35.1388],[-120.08,35.1435],[-120.0782,35.1483],[-120.0742,35.1519],[-120.0738,35.1563],[-120.0701,35.1626],[-120.0773,35.1668],[-120.0778,35.1736],[-120.0808,35.178],[-120.0814,35.1829],[-120.0848,35.184],[-120.0902,35.1808],[-120.0899,35.1788],[-120.0938,35.1805],[-120.0936,35.1792],[-120.0955,35.1795],[-120.097,35.1781],[-120.0937,35.1879],[-120.1013,35.1934],[-120.1044,35.1994],[-120.112,35.2045],[-120.1146,35.2054],[-120.1319,35.1998],[-120.1201,35.2075],[-120.1272,35.2161],[-120.127,35.2189],[-120.1328,35.2229],[-120.1338,35.2265],[-120.1396,35.2298],[-120.1427,35.237],[-120.1449,35.2368],[-120.1466,35.2386],[-120.1527,35.2405],[-120.1549,35.2433],[-120.1608,35.2398],[-120.1609,35.2379],[-120.1654,35.2361],[-120.1678,35.2377],[-120.1684,35.2368],[-120.1685,35.2401],[-120.1737,35.2432],[-120.1766,35.2488],[-120.1814,35.2511],[-120.1823,35.2531],[-120.1842,35.2543],[-120.1851,35.2526],[-120.1883,35.2522],[-120.1985,35.255],[-120.2014,35.2608],[-120.204,35.2584],[-120.2045,35.2546],[-120.2021,35.2494],[-120.2017,35.2441],[-120.2089,35.2358],[-120.2095,35.2314],[-120.2082,35.2232],[-120.2163,35.2245],[-120.2196,35.2238],[-120.2235,35.2259],[-120.2225,35.2202],[-120.2283,35.2119],[-120.2291,35.2125],[-120.2297,35.2116],[-120.2297,35.2061],[-120.2359,35.2097],[-120.243,35.2092],[-120.2439,35.213],[-120.2487,35.2152],[-120.2519,35.2187],[-120.2551,35.2189],[-120.2578,35.2222],[-120.2625,35.224],[-120.2655,35.2268],[-120.2645,35.231],[-120.2725,35.2347],[-120.2778,35.235],[-120.2795,35.2375],[-120.2843,35.2393],[-120.2926,35.24],[-120.2893,35.2495],[-120.2933,35.2544],[-120.2911,35.2565],[-120.2886,35.2565],[-120.2898,35.2611],[-120.2932,35.2568],[-120.297,35.2564],[-120.3065,35.2627],[-120.3097,35.2662],[-120.3129,35.2669],[-120.3157,35.2647],[-120.3206,35.2639],[-120.3229,35.2615],[-120.3275,35.2612],[-120.331,35.2578],[-120.3331,35.2611],[-120.3414,35.261],[-120.3428,35.2634],[-120.3466,35.2653],[-120.3499,35.2649],[-120.3505,35.2634],[-120.3533,35.2624],[-120.3653,35.2674],[-120.3674,35.2694],[-120.3773,35.2683],[-120.3877,35.2732],[-120.3944,35.274],[-120.3979,35.2731],[-120.4033,35.2669],[-120.4093,35.265],[-120.4014,35.2635],[-120.3823,35.2483],[-120.3801,35.2435],[-120.3808,35.2422],[-120.3841,35.2453],[-120.3831,35.2438],[-120.3846,35.241],[-120.3761,35.233],[-120.3758,35.2254],[-120.3705,35.2209],[-120.3698,35.2131],[-120.367,35.2124],[-120.3669,35.2109],[-120.3745,35.206],[-120.3831,35.2073],[-120.4191,35.2063],[-120.422,35.2032],[-120.4269,35.2033],[-120.4287,35.2021],[-120.4294,35.1992],[-120.4316,35.198],[-120.4343,35.1903],[-120.4376,35.188],[-120.4381,35.1846],[-120.4409,35.1864],[-120.4541,35.1869],[-120.4577,35.1884],[-120.4608,35.1859],[-120.4671,35.1931],[-120.4703,35.194],[-120.4743,35.1871],[-120.4774,35.1867],[-120.4793,35.1845],[-120.4892,35.1885],[-120.4926,35.1871],[-120.4955,35.1879],[-120.5028,35.1837],[-120.5133,35.1816],[-120.5184,35.1818],[-120.5209,35.1783],[-120.53,35.1726],[-120.5322,35.1753],[-120.5402,35.1777],[-120.556,35.186],[-120.5594,35.1907],[-120.568,35.1985],[-120.5854,35.2093],[-120.5957,35.2173],[-120.5972,35.2207],[-120.6164,35.215],[-120.6158,35.2096],[-120.6117,35.2023],[-120.6107,35.198],[-120.6125,35.1944],[-120.6127,35.1873],[-120.6182,35.1857],[-120.6174,35.1844],[-120.6214,35.1739],[-120.6234,35.1729],[-120.6284,35.1658],[-120.6339,35.1621],[-120.6364,35.1662],[-120.6473,35.1713],[-120.6474,35.1753],[-120.6489,35.1784],[-120.6573,35.1814],[-120.6591,35.184],[-120.6671,35.1841],[-120.684,35.1768],[-120.6988,35.1803],[-120.7004,35.1798],[-120.6983,35.1763],[-120.7079,35.1748],[-120.7162,35.1772],[-120.7192,35.1763]]]},"properties":{"GEOID":"0607990120","BASENAME":"Arroyo Grande","NAME":"Arroyo Grande CCD","COUNTY":"079","COUSUB":"90120"}},{"type":"Feature","geometry":{"type":"Polygon","coordinates":[[[-121.1851,35.7942],[-121.1805,35.792],[-121.1782,35.7893],[-121.1787,35.7865],[-121.1802,35.7856],[-121.1801,35.7834],[-121.1827,35.7823],[-121.1828,35.7789],[-121.184,35.7783],[-121.1815,35.7741],[-121.1769,35.7728],[-121.1608,35.762],[-121.1611,35.7603],[-121.1538,35.7528],[-121.152,35.7485],[-121.134,35.7427],[-121.1337,35.7407],[-121.1286,35.7359],[-121.1294,35.7318],[-121.1252,35.7253],[-121.1273,35.722],[-121.1175,35.7182],[-121.1137,35.7153],[-121.1091,35.7171],[-121.1094,35.7189],[-121.1063,35.7177],[-121.0997,35.7099],[-121.099,35.7059],[-121.1,35.7031],[-121.099,35.7012],[-121.0953,35.6963],[-121.0916,35.6952],[-121.0903,35.6906],[-121.0767,35.6868],[-121.0747,35.6842],[-121.0624,35.6819],[-121.0627,35.68],[-121.0607,35.6768],[-121.0548,35.6754],[-121.0482,35.6707],[-121.0412,35.6692],[-121.035,35.6621],[-121.0306,35.6613],[-121.0264,35.6582],[-121.0225,35.6525],[-121.0143,35.6456],[-121.0019,35.6442],[-120.9947,35.6394],[-120.9875,35.6375],[-120.9842,35.6348],[-120.9806,35.634],[-120.9741,35.6279],[-120.9675,35.617],[-120.963,35.6152],[-120.957,35.6154],[-120.9554,35.6138],[-120.9551,35.6064],[-120.9522,35.6018],[-120.9464,35.5974],[-120.93,35.593],[-120.9272,35.5856],[-120.9248,35.5836],[-120.9167,35.5823],[-120.9092,35.5783],[-120.911,35.5786],[-120.9134,35.5764],[-120.9097,35.5734],[-120.9123,35.5732],[-120.9107,35.5706],[-120.9126,35.5686],[-120.9072,35.5652],[-120.9067,35.5632],[-120.899,35.5587],[-120.8915,35.5573],[-120.8751,35.5466],[-120.8707,35.5466],[-120.8653,35.5434],[-120.8638,35.5384],[-120.8605,35.5366],[-120.8593,35.534],[-120.8534,35.5357],[-120.8455,35.5338],[-120.8444,35.5353],[-120.8363,35.5379],[-120.8297,35.5377],[-120.831,35.5398],[-120.8262,35.5444],[-120.8201,35.5414],[-120.8158,35.5418],[-120.8095,35.5397],[-120.8048,35.5399],[-120.7939,35.5472],[-120.7756,35.5513],[-120.7739,35.5575],[-120.7623,35.5581],[-120.7603,35.5634],[-120.753,35.566],[-120.7445,35.5666],[-120.7151,35.5834],[-120.6989,35.5893],[-120.6954,35.5893],[-120.6976,35.5746],[-120.7019,35.5658],[-120.7006,35.5638],[-120.7008,35.5596],[-120.6897,35.5593],[-120.6807,35.5567],[-120.6685,35.5618],[-120.6581,35.564],[-120.651,35.5625],[-120.645,35.563],[-120.6367,35.5609],[-120.6248,35.5558],[-120.605,35.5516],[-120.5878,35.5522],[-120.579,35.5512],[-120.5636,35.5472],[-120.5608,35.5476],[-120.5608,35.5419],[-120.559,35.5356],[-120.557,35.5339],[-120.5238,35.5344],[-120.5125,35.5278],[-120.5027,35.5267],[-120.4952,35.5227],[-120.4859,35.5081],[-120.4692,35.5014],[-120.4626,35.4962],[-120.4477,35.4906],[-120.4366,35.4896],[-120.4243,35.4809],[-120.4165,35.4801],[-120.393,35.4721],[-120.3811,35.4706],[-120.3738,35.4653],[-120.3432,35.4604],[-120.3332,35.4582],[-120.3274,35.4545],[-120.3213,35.454],[-120.3149,35.4486],[-120.3091,35.4409],[-120.3001,35.4368],[-120.2971,35.4333],[-120.2894,35.4295],[-120.2893,35.4257],[-120.2861,35.4196],[-120.2815,35.4154],[-120.281,35.4051],[-120.2795,35.4037],[-120.2593,35.4053],[-120.2487,35.4114],[-120.2372,35.4221],[-120.2277,35.4257],[-120.2176,35.4192],[-120.2112,35.4045],[-120.2053,35.4017],[-120.2012,35.4023],[-120.1883,35.4003],[-120.1826,35.3964],[-120.1777,35.391],[-120.1652,35.3865],[-120.1609,35.3875],[-120.145,35.387],[-120.1318,35.3804],[-120.122,35.3829],[-120.1064,35.3787],[-120.0943,35.3737],[-120.0944,35.4508],[-120.0924,35.4582],[-120.0879,35.4631],[-120.0765,35.4699],[-120.0738,35.4733],[-120.057,35.4853],[-120.0697,35.4958],[-120.0769,35.4988],[-120.078,35.5016],[-120.0813,35.5035],[-120.0869,35.5189],[-120.0862,35.6144],[-120.194,35.6144],[-120.1944,35.7894],[-120.7505,35.7911],[-121.1851,35.7942]]]},"properties":{"GEOID":"0607992410","BASENAME":"Paso Robles","NAME":"Paso Robles CCD","COUNTY":"079","COUSUB":"92410"}},{"type":"Feature","geometry":{"type":"Polygon","coordinates":[[[-120.8593,35.534],[-120.857,35.528],[-120.8588,35.525],[-120.8505,35.514],[-120.8436,35.5145],[-120.8426,35.5122],[-120.8346,35.508],[-120.8193,35.5021],[-120.8153,35.4989],[-120.8146,35.4946],[-120.809,35.4952],[-120.8032,35.4927],[-120.8006,35.4936],[-120.7973,35.4915],[-120.7956,35.4886],[-120.7851,35.4822],[-120.7831,35.486],[-120.7844,35.4883],[-120.7893,35.4917],[-120.7832,35.4876],[-120.7814,35.4878],[-120.7708,35.4822],[-120.7675,35.4833],[-120.7604,35.4801],[-120.7538,35.4819],[-120.7535,35.4798],[-120.7515,35.4799],[-120.751,35.4769],[-120.7465,35.4767],[-120.7461,35.4737],[-120.7423,35.4697],[-120.739,35.4606],[-120.7323,35.4606],[-120.726,35.4589],[-120.7203,35.4595],[-120.7159,35.4567],[-120.7132,35.4539],[-120.7137,35.4523],[-120.7167,35.4487],[-120.7202,35.4349],[-120.7233,35.4347],[-120.7236,35.4262],[-120.7262,35.4226],[-120.7258,35.4212],[-120.7347,35.4149],[-120.7345,35.4132],[-120.7365,35.4127],[-120.7355,35.4119],[-120.7391,35.4138],[-120.7395,35.411],[-120.7278,35.4061],[-120.7255,35.4034],[-120.7203,35.4021],[-120.7175,35.3997],[-120.717,35.3965],[-120.7111,35.3947],[-120.7095,35.3914],[-120.7064,35.3903],[-120.7042,35.3869],[-120.7,35.3842],[-120.6927,35.3822],[-120.6936,35.3809],[-120.6917,35.3792],[-120.6916,35.3767],[-120.686,35.3731],[-120.6808,35.3722],[-120.6786,35.3697],[-120.673,35.3673],[-120.6688,35.3679],[-120.6578,35.3642],[-120.6578,35.3611],[-120.6554,35.356],[-120.6534,35.3561],[-120.6528,35.354],[-120.6476,35.3509],[-120.6436,35.3456],[-120.6372,35.3449],[-120.6326,35.3472],[-120.6328,35.3455],[-120.6311,35.3464],[-120.631,35.3484],[-120.6298,35.3475],[-120.6326,35.3516],[-120.6307,35.3512],[-120.6294,35.3488],[-120.6241,35.3451],[-120.6249,35.3444],[-120.6235,35.3419],[-120.6188,35.3411],[-120.6193,35.34],[-120.6162,35.3361],[-120.6131,35.3371],[-120.6098,35.334],[-120.6108,35.3327],[-120.6091,35.3305],[-120.608,35.3255],[-120.6047,35.3226],[-120.6044,35.3196],[-120.6031,35.3187],[-120.5998,35.3207],[-120.5909,35.3197],[-120.5849,35.3207],[-120.5811,35.324],[-120.5687,35.321],[-120.5672,35.3188],[-120.5619,35.3181],[-120.5591,35.3145],[-120.5518,35.3112],[-120.5386,35.3081],[-120.5272,35.3017],[-120.5246,35.3016],[-120.5201,35.2988],[-120.519,35.2958],[-120.5171,35.2954],[-120.5137,35.2974],[-120.5109,35.2949],[-120.5066,35.2935],[-120.508,35.2892],[-120.5058,35.2877],[-120.5055,35.2857],[-120.4988,35.2817],[-120.4986,35.28],[-120.4923,35.2795],[-120.4878,35.2756],[-120.4875,35.2775],[-120.4848,35.2761],[-120.4834,35.277],[-120.4829,35.276],[-120.481,35.2774],[-120.4801,35.277],[-120.4805,35.2747],[-120.4776,35.2752],[-120.4748,35.2726],[-120.4736,35.2731],[-120.4739,35.2748],[-120.4714,35.2747],[-120.4689,35.2764],[-120.4663,35.2746],[-120.4675,35.2722],[-120.465,35.2729],[-120.4607,35.2709],[-120.4576,35.2671],[-120.4554,35.2677],[-120.4525,35.266],[-120.4436,35.265],[-120.4404,35.2612],[-120.4402,35.2641],[-120.4379,35.2651],[-120.4368,35.2649],[-120.4373,35.2638],[-120.4361,35.2624],[-120.4325,35.2609],[-120.4273,35.2608],[-120.4258,35.2615],[-120.4259,35.2629],[-120.4192,35.2649],[-120.4186,35.2631],[-120.4177,35.2641],[-120.4169,35.2626],[-120.4143,35.2626],[-120.4117,35.265],[-120.4033,35.2669],[-120.3979,35.2731],[-120.3944,35.274],[-120.3877,35.2732],[-120.3773,35.2683],[-120.3674,35.2694],[-120.3653,35.2674],[-120.3533,35.2624],[-120.3505,35.2634],[-120.3499,35.2649],[-120.3466,35.2653],[-120.3428,35.2634],[-120.3414,35.261],[-120.3331,35.2611],[-120.331,35.2578],[-120.3275,35.2612],[-120.3229,35.2615],[-120.3206,35.2639],[-120.3157,35.2647],[-120.3129,35.2669],[-120.3097,35.2662],[-120.3065,35.2627],[-120.297,35.2564],[-120.2932,35.2568],[-120.2898,35.2611],[-120.2886,35.2565],[-120.2911,35.2565],[-120.2933,35.2544],[-120.2893,35.2495],[-120.2926,35.24],[-120.2843,35.2393],[-120.2795,35.2375],[-120.2778,35.235],[-120.2725,35.2347],[-120.2645,35.231],[-120.2655,35.2268],[-120.2625,35.224],[-120.2578,35.2222],[-120.2551,35.2189],[-120.2519,35.2187],[-120.2487,35.2152],[-120.2439,35.213],[-120.243,35.2092],[-120.2359,35.2097],[-120.2298,35.2062],[-120.2297,35.2116],[-120.2291,35.2125],[-120.2283,35.2119],[-120.2225,35.2202],[-120.2235,35.2259],[-120.2196,35.2238],[-120.2163,35.2245],[-120.2082,35.2232],[-120.2095,35.2314],[-120.2089,35.2358],[-120.2017,35.2441],[-120.2021,35.2494],[-120.2045,35.2546],[-120.204,35.2584],[-120.2014,35.2608],[-120.1985,35.255],[-120.1883,35.2522],[-120.1851,35.2526],[-120.1842,35.2543],[-120.1823,35.2531],[-120.1814,35.2511],[-120.1766,35.2488],[-120.1737,35.2432],[-120.1685,35.2401],[-120.1684,35.2368],[-120.1678,35.2377],[-120.1654,35.2361],[-120.1609,35.2379],[-120.1608,35.2398],[-120.1549,35.2433],[-120.1527,35.2405],[-120.1466,35.2386],[-120.1449,35.2368],[-120.1427,35.237],[-120.1396,35.2298],[-120.1338,35.2265],[-120.1328,35.2229],[-120.127,35.2189],[-120.1272,35.2161],[-120.1201,35.2075],[-120.1319,35.1998],[-120.1146,35.2054],[-120.1044,35.1994],[-120.1013,35.1934],[-120.0937,35.1879],[-120.097,35.1781],[-120.0955,35.1795],[-120.0936,35.1792],[-120.0938,35.1805],[-120.0899,35.1788],[-120.0902,35.1808],[-120.0848,35.184],[-120.0812,35.1827],[-120.0808,35.178],[-120.0778,35.1736],[-120.0773,35.1668],[-120.0701,35.1626],[-120.0738,35.1563],[-120.0742,35.1519],[-120.0782,35.1483],[-120.08,35.1435],[-120.0844,35.1388],[-120.0888,35.1374],[-120.0942,35.1385],[-120.0978,35.1345],[-120.0976,35.1298],[-120.0998,35.1267],[-120.0992,35.124],[-120.102,35.1205],[-120.0996,35.1178],[-120.0998,35.1165],[-120.0984,35.1168],[-120.0957,35.1127],[-120.0932,35.1142],[-120.0883,35.113],[-120.0808,35.1143],[-120.0793,35.1127],[-120.0834,35.1096],[-120.0856,35.1096],[-120.0846,35.1073],[-120.0807,35.1049],[-120.0724,35.1047],[-120.072,35.1018],[-120.0673,35.0968],[-120.0612,35.0954],[-120.0599,35.093],[-120.0485,35.0899],[-120.044,35.086],[-120.0419,35.0859],[-120.0396,35.0892],[-120.0328,35.0878],[-120.0293,35.0836],[-120.0258,35.0848],[-120.0241,35.084],[-120.0249,35.081],[-120.0233,35.0803],[-120.0183,35.0824],[-120.014,35.0814],[-120.0136,35.0756],[-120.0098,35.0753],[-120.0056,35.0718],[-120.002,35.0732],[-119.9926,35.0629],[-119.9895,35.0635],[-119.9886,35.0649],[-119.9825,35.0612],[-119.9797,35.0619],[-119.9796,35.0591],[-119.9813,35.0583],[-119.9801,35.0576],[-119.9779,35.0595],[-119.9757,35.0583],[-119.9709,35.0588],[-119.9669,35.0563],[-119.965,35.0588],[-119.9619,35.0583],[-119.9607,35.0557],[-119.9558,35.0572],[-119.9559,35.0549],[-119.9543,35.0546],[-119.9522,35.0573],[-119.9488,35.0572],[-119.9492,35.0559],[-119.9456,35.0561],[-119.9451,35.0546],[-119.9427,35.0544],[-119.9399,35.058],[-119.9379,35.0571],[-119.939,35.055],[-119.9316,35.0563],[-119.9284,35.0598],[-119.926,35.0583],[-119.9262,35.0562],[-119.9218,35.0525],[-119.9184,35.0531],[-119.9173,35.049],[-119.9094,35.046],[-119.9121,35.0447],[-119.9083,35.0436],[-119.9103,35.0396],[-119.9069,35.0392],[-119.9071,35.0379],[-119.9019,35.039],[-119.902,35.0358],[-119.8897,35.0406],[-119.883,35.0393],[-119.8783,35.0397],[-119.8751,35.0357],[-119.866,35.0351],[-119.8633,35.0314],[-119.8545,35.0321],[-119.8515,35.0307],[-119.8515,35.0276],[-119.848,35.0254],[-119.8442,35.0155],[-119.8412,35.015],[-119.8308,35.0058],[-119.8244,35.005],[-119.8132,35.0007],[-119.8111,35.0007],[-119.8099,35.0021],[-119.8039,34.9976],[-119.801,34.9989],[-119.8004,34.9953],[-119.7973,34.9923],[-119.7872,34.9882],[-119.7804,34.9907],[-119.7639,34.9821],[-119.755,34.98],[-119.7456,34.9737],[-119.7401,34.9731],[-119.7293,34.9746],[-119.727,34.9761],[-119.7247,34.9736],[-119.7186,34.9715],[-119.7085,34.9755],[-119.7006,34.9767],[-119.6932,34.9737],[-119.6846,34.9721],[-119.6786,34.9718],[-119.6732,34.9735],[-119.6643,34.9699],[-119.6553,34.9638],[-119.6525,34.9599],[-119.6467,34.9569],[-119.6443,34.9536],[-119.6349,34.9539],[-119.6248,34.9492],[-119.6169,34.9506],[-119.6131,34.9495],[-119.5925,34.9351],[-119.5861,34.9273],[-119.5799,34.9228],[-119.563,34.9148],[-119.5358,34.8976],[-119.4905,34.8975],[-119.4904,34.9012],[-119.4725,34.9012],[-119.4736,34.9379],[-119.4726,35.0767],[-119.4905,35.0767],[-119.4904,35.0916],[-119.5618,35.0878],[-119.5538,35.1801],[-119.5715,35.1802],[-119.6673,35.175],[-119.6666,35.2626],[-119.8094,35.2637],[-119.8092,35.3509],[-119.8804,35.3511],[-119.88,35.4391],[-119.9932,35.4395],[-119.9931,35.4543],[-119.9974,35.4687],[-120.0151,35.4688],[-120.0143,35.4834],[-120.0329,35.4835],[-120.033,35.4983],[-120.0509,35.4982],[-120.051,35.5131],[-120.069,35.5129],[-120.0688,35.5266],[-120.0868,35.5264],[-120.086,35.5152],[-120.0814,35.5037],[-120.078,35.5016],[-120.077,35.4989],[-120.0697,35.4958],[-120.057,35.4853],[-120.0738,35.4733],[-120.0765,35.4699],[-120.0879,35.4631],[-120.0924,35.4582],[-120.0944,35.4508],[-120.0943,35.3737],[-120.1064,35.3787],[-120.122,35.3829],[-120.1318,35.3804],[-120.145,35.387],[-120.1609,35.3875],[-120.1652,35.3865],[-120.1777,35.391],[-120.1826,35.3964],[-120.1883,35.4003],[-120.2012,35.4023],[-120.2053,35.4017],[-120.2112,35.4045],[-120.2176,35.4192],[-120.2277,35.4257],[-120.2372,35.4221],[-120.2487,35.4114],[-120.2593,35.4053],[-120.2795,35.4037],[-120.281,35.4051],[-120.2815,35.4154],[-120.2861,35.4196],[-120.2893,35.4257],[-120.2894,35.4295],[-120.2971,35.4333],[-120.3001,35.4368],[-120.3091,35.4409],[-120.3149,35.4486],[-120.3213,35.454],[-120.3274,35.4545],[-120.3332,35.4582],[-120.3432,35.4604],[-120.3738,35.4653],[-120.3811,35.4706],[-120.393,35.4721],[-120.4165,35.4801],[-120.4243,35.4809],[-120.4366,35.4896],[-120.4477,35.4906],[-120.4626,35.4962],[-120.4692,35.5014],[-120.4859,35.5081],[-120.4952,35.5227],[-120.5027,35.5267],[-120.5125,35.5278],[-120.5238,35.5344],[-120.557,35.5339],[-120.559,35.5356],[-120.5608,35.5419],[-120.5608,35.5476],[-120.5636,35.5472],[-120.579,35.5512],[-120.5878,35.5522],[-120.605,35.5516],[-120.6248,35.5558],[-120.6367,35.5609],[-120.645,35.563],[-120.651,35.5625],[-120.6581,35.564],[-120.6685,35.5618],[-120.6807,35.5567],[-120.6897,35.5593],[-120.7008,35.5596],[-120.7006,35.5638],[-120.7019,35.5658],[-120.6976,35.5746],[-120.6954,35.5893],[-120.6989,35.5893],[-120.7151,35.5834],[-120.7445,35.5666],[-120.753,35.566],[-120.7603,35.5634],[-120.7623,35.5581],[-120.7739,35.5575],[-120.7756,35.5513],[-120.7939,35.5472],[-120.8048,35.5399],[-120.8095,35.5397],[-120.8158,35.5418],[-120.8201,35.5414],[-120.8262,35.5444],[-120.831,35.5398],[-120.8297,35.5377],[-120.8363,35.5379],[-120.8444,35.5353],[-120.8455,35.5338],[-120.8534,35.5357],[-120.8593,35.534]]]},"properties":{"GEOID":"0607990140","BASENAME":"Atascadero","NAME":"Atascadero CCD","COUNTY":"079","COUSUB":"90140"}},{"type":"Feature","geometry":{"type":"Polygon","coordinates":[[[-120.9614,35.2561],[-120.9602,35.2436],[-120.949,35.221],[-120.9439,35.2138],[-120.9373,35.208],[-120.9302,35.2046],[-120.924,35.194],[-120.9053,35.1772],[-120.8878,35.1656],[-120.876,35.1597],[-120.8717,35.1537],[-120.8649,35.1478],[-120.8473,35.1379],[-120.8306,35.1319],[-120.822,35.1314],[-120.8084,35.1205],[-120.8004,35.1166],[-120.7727,35.1105],[-120.7607,35.1111],[-120.7524,35.1095],[-120.7385,35.1096],[-120.7255,35.1136],[-120.719,35.1098],[-120.7164,35.1739],[-120.7194,35.1762],[-120.718,35.1772],[-120.7069,35.1748],[-120.6983,35.1763],[-120.7004,35.1798],[-120.6988,35.1803],[-120.6844,35.1768],[-120.6671,35.1841],[-120.6591,35.184],[-120.6573,35.1814],[-120.6489,35.1784],[-120.6474,35.1753],[-120.6473,35.1713],[-120.6364,35.1662],[-120.6339,35.1621],[-120.6284,35.1658],[-120.6234,35.1729],[-120.6214,35.1739],[-120.6174,35.1844],[-120.6182,35.1857],[-120.6127,35.1873],[-120.6125,35.1944],[-120.6107,35.198],[-120.6117,35.2023],[-120.6158,35.2096],[-120.6164,35.215],[-120.5972,35.2207],[-120.5957,35.2173],[-120.5854,35.2093],[-120.568,35.1985],[-120.5594,35.1907],[-120.556,35.186],[-120.5402,35.1777],[-120.5322,35.1753],[-120.53,35.1726],[-120.5209,35.1783],[-120.5184,35.1818],[-120.5133,35.1816],[-120.5028,35.1837],[-120.4955,35.1879],[-120.4926,35.1871],[-120.4892,35.1885],[-120.4793,35.1845],[-120.4774,35.1867],[-120.4743,35.1871],[-120.4703,35.194],[-120.4671,35.1931],[-120.4608,35.1859],[-120.4577,35.1884],[-120.4541,35.1869],[-120.4409,35.1864],[-120.4381,35.1846],[-120.4376,35.188],[-120.4343,35.1903],[-120.4316,35.198],[-120.4294,35.1992],[-120.4287,35.2021],[-120.4269,35.2033],[-120.422,35.2032],[-120.4191,35.2063],[-120.3831,35.2073],[-120.3745,35.206],[-120.3669,35.2109],[-120.367,35.2124],[-120.3698,35.2131],[-120.3705,35.2209],[-120.3758,35.2254],[-120.3761,35.233],[-120.3846,35.241],[-120.3831,35.2438],[-120.3841,35.2453],[-120.3808,35.2422],[-120.3801,35.2435],[-120.3823,35.2483],[-120.4014,35.2635],[-120.4093,35.265],[-120.408,35.2662],[-120.4148,35.2624],[-120.4169,35.2626],[-120.4177,35.2641],[-120.4186,35.2631],[-120.4192,35.2649],[-120.4259,35.2629],[-120.4258,35.2615],[-120.4273,35.2608],[-120.4325,35.2609],[-120.4361,35.2624],[-120.4373,35.2638],[-120.4368,35.2649],[-120.4379,35.2651],[-120.4402,35.2641],[-120.4404,35.2612],[-120.4436,35.265],[-120.4525,35.266],[-120.4554,35.2677],[-120.4576,35.2671],[-120.4607,35.2709],[-120.465,35.2729],[-120.4675,35.2722],[-120.4663,35.2746],[-120.4689,35.2764],[-120.4714,35.2747],[-120.4739,35.2748],[-120.4736,35.2731],[-120.4748,35.2726],[-120.4776,35.2752],[-120.4805,35.2747],[-120.4801,35.277],[-120.481,35.2774],[-120.4829,35.276],[-120.4834,35.277],[-120.4848,35.2761],[-120.4875,35.2775],[-120.4878,35.2756],[-120.4923,35.2795],[-120.4986,35.28],[-120.4988,35.2817],[-120.5055,35.2857],[-120.5058,35.2877],[-120.508,35.2892],[-120.5066,35.2935],[-120.5109,35.2949],[-120.5137,35.2974],[-120.5171,35.2954],[-120.519,35.2958],[-120.5201,35.2988],[-120.5246,35.3016],[-120.5272,35.3017],[-120.5386,35.3081],[-120.5518,35.3112],[-120.5591,35.3145],[-120.5619,35.3181],[-120.5672,35.3188],[-120.5687,35.321],[-120.5811,35.324],[-120.5849,35.3207],[-120.5909,35.3197],[-120.5998,35.3207],[-120.6031,35.3187],[-120.6044,35.3196],[-120.6047,35.3226],[-120.608,35.3255],[-120.6091,35.3305],[-120.6108,35.3327],[-120.6098,35.334],[-120.6131,35.3371],[-120.6162,35.3361],[-120.6193,35.34],[-120.6188,35.3411],[-120.6235,35.3419],[-120.6249,35.3444],[-120.6241,35.3451],[-120.6294,35.3488],[-120.6307,35.3512],[-120.6326,35.3516],[-120.6298,35.3475],[-120.631,35.3484],[-120.6311,35.3464],[-120.6328,35.3455],[-120.6326,35.3472],[-120.6372,35.3449],[-120.6435,35.3456],[-120.6476,35.3509],[-120.6528,35.354],[-120.6534,35.3561],[-120.6554,35.356],[-120.6578,35.3611],[-120.6578,35.3642],[-120.6688,35.3679],[-120.673,35.3673],[-120.6786,35.3697],[-120.6808,35.3722],[-120.686,35.3731],[-120.6916,35.3767],[-120.6917,35.3792],[-120.6936,35.3809],[-120.6927,35.3821],[-120.695,35.3829],[-120.6952,35.3794],[-120.7006,35.3753],[-120.7073,35.3767],[-120.7163,35.3731],[-120.7216,35.3737],[-120.7234,35.3722],[-120.7292,35.3718],[-120.7315,35.3718],[-120.7331,35.3738],[-120.737,35.3705],[-120.7422,35.3703],[-120.7517,35.3647],[-120.7546,35.3643],[-120.7598,35.3602],[-120.7689,35.3614],[-120.7738,35.3601],[-120.7742,35.3486],[-120.7778,35.3323],[-120.7569,35.3167],[-120.7292,35.3027],[-120.716,35.292],[-120.7084,35.2817],[-120.7115,35.2766],[-120.7064,35.2709],[-120.7113,35.2719],[-120.7143,35.2699],[-120.7197,35.2693],[-120.7181,35.2664],[-120.7128,35.2627],[-120.7225,35.2651],[-120.7252,35.263],[-120.728,35.2653],[-120.7326,35.266],[-120.7332,35.2639],[-120.7381,35.2589],[-120.7518,35.2606],[-120.7552,35.2626],[-120.7566,35.2617],[-120.7553,35.2611],[-120.7556,35.2593],[-120.7598,35.2603],[-120.7586,35.2602],[-120.7578,35.2579],[-120.7596,35.2548],[-120.7655,35.2531],[-120.7704,35.2555],[-120.7758,35.2532],[-120.7778,35.2483],[-120.7769,35.2446],[-120.7788,35.2415],[-120.7876,35.2399],[-120.802,35.2436],[-120.803,35.2414],[-120.8063,35.2407],[-120.8092,35.241],[-120.8121,35.2431],[-120.8136,35.2393],[-120.8177,35.2405],[-120.8198,35.2381],[-120.8269,35.2383],[-120.8429,35.2432],[-120.8504,35.2432],[-120.8562,35.2455],[-120.8582,35.2449],[-120.8683,35.2486],[-120.8698,35.2507],[-120.8763,35.2531],[-120.8806,35.2541],[-120.8824,35.2528],[-120.8863,35.2547],[-120.8913,35.2596],[-120.8928,35.2585],[-120.8968,35.2604],[-120.96,35.2627],[-120.9614,35.2561]]]},"properties":{"GEOID":"0607992860","BASENAME":"San Luis Obispo","NAME":"San Luis Obispo CCD","COUNTY":"079","COUSUB":"92860"}},{"type":"Feature","geometry":{"type":"Polygon","coordinates":[[[-121.4382,35.7967],[-121.4285,35.7859],[-121.3998,35.7653],[-121.3935,35.7634],[-121.3937,35.75],[-121.3917,35.7439],[-121.3856,35.7337],[-121.3793,35.727],[-121.3771,35.7165],[-121.379,35.706],[-121.3664,35.6804],[-121.3477,35.665],[-121.3477,35.663],[-121.3461,35.6614],[-121.3456,35.656],[-121.3396,35.6424],[-121.3235,35.625],[-121.31,35.6171],[-121.286,35.6084],[-121.2704,35.6065],[-121.2598,35.6018],[-121.2466,35.6004],[-121.2318,35.594],[-121.2201,35.5869],[-121.2016,35.5837],[-121.1877,35.5691],[-121.1778,35.5613],[-121.1511,35.5164],[-121.1283,35.4956],[-121.122,35.4936],[-121.1182,35.4906],[-121.1112,35.4813],[-121.1001,35.4709],[-121.0922,35.4667],[-121.083,35.4556],[-121.0691,35.4473],[-121.0523,35.4285],[-121.0416,35.42],[-121.0317,35.4156],[-121.015,35.4106],[-121.0056,35.4095],[-120.9896,35.4111],[-120.9768,35.4036],[-120.9597,35.3965],[-120.9333,35.3927],[-120.9283,35.3868],[-120.9302,35.3831],[-120.9308,35.375],[-120.9283,35.361],[-120.9234,35.3484],[-120.9286,35.3307],[-120.9402,35.3077],[-120.9513,35.2901],[-120.96,35.2627],[-120.8968,35.2604],[-120.8928,35.2585],[-120.8913,35.2596],[-120.8863,35.2547],[-120.8824,35.2528],[-120.8806,35.2541],[-120.8763,35.2531],[-120.8698,35.2507],[-120.8683,35.2486],[-120.8582,35.2449],[-120.8562,35.2455],[-120.8504,35.2432],[-120.8429,35.2432],[-120.8269,35.2383],[-120.8198,35.2381],[-120.8177,35.2405],[-120.8136,35.2393],[-120.8121,35.2431],[-120.8092,35.241],[-120.8063,35.2407],[-120.803,35.2414],[-120.802,35.2436],[-120.7876,35.2399],[-120.7788,35.2415],[-120.7769,35.2446],[-120.7778,35.2483],[-120.7758,35.2532],[-120.7704,35.2555],[-120.7655,35.2531],[-120.7596,35.2548],[-120.7578,35.2579],[-120.7586,35.2602],[-120.7598,35.2603],[-120.7556,35.2593],[-120.7561,35.2622],[-120.7518,35.2606],[-120.7377,35.259],[-120.7332,35.2639],[-120.7331,35.2657],[-120.7315,35.2661],[-120.7252,35.263],[-120.7225,35.2651],[-120.7128,35.2627],[-120.7181,35.2664],[-120.7197,35.2693],[-120.7143,35.2699],[-120.7113,35.2719],[-120.7064,35.2709],[-120.7115,35.2766],[-120.7084,35.2817],[-120.7161,35.2921],[-120.7292,35.3027],[-120.7569,35.3167],[-120.7778,35.3323],[-120.7742,35.3486],[-120.7737,35.3602],[-120.7685,35.3614],[-120.7598,35.3602],[-120.7546,35.3643],[-120.7517,35.3647],[-120.7422,35.3703],[-120.737,35.3705],[-120.7331,35.3738],[-120.7315,35.3718],[-120.7292,35.3718],[-120.7234,35.3722],[-120.7216,35.3737],[-120.7163,35.3731],[-120.7073,35.3767],[-120.7008,35.3753],[-120.6952,35.3794],[-120.695,35.3829],[-120.7013,35.3849],[-120.7047,35.3874],[-120.7064,35.3903],[-120.7095,35.3914],[-120.7111,35.3947],[-120.717,35.3965],[-120.7175,35.3997],[-120.7203,35.4021],[-120.7255,35.4034],[-120.7278,35.4061],[-120.7398,35.4116],[-120.739,35.4138],[-120.7355,35.4119],[-120.7365,35.4127],[-120.7345,35.4132],[-120.7347,35.4149],[-120.7258,35.4212],[-120.7262,35.4226],[-120.7236,35.4262],[-120.7233,35.4347],[-120.7202,35.4349],[-120.7167,35.4487],[-120.7139,35.4516],[-120.7141,35.4549],[-120.7203,35.4595],[-120.726,35.4589],[-120.7323,35.4606],[-120.739,35.4606],[-120.7423,35.4697],[-120.7461,35.4737],[-120.7465,35.4767],[-120.751,35.4769],[-120.7515,35.4799],[-120.7535,35.4798],[-120.7538,35.4819],[-120.7604,35.4801],[-120.7675,35.4833],[-120.7708,35.4822],[-120.7814,35.4878],[-120.7832,35.4876],[-120.7893,35.4917],[-120.7844,35.4883],[-120.7831,35.486],[-120.7851,35.4822],[-120.7956,35.4886],[-120.7973,35.4915],[-120.8006,35.4936],[-120.8032,35.4927],[-120.809,35.4952],[-120.8146,35.4946],[-120.8153,35.4988],[-120.8173,35.501],[-120.8346,35.508],[-120.8426,35.5122],[-120.8434,35.5144],[-120.8504,35.5139],[-120.8588,35.5249],[-120.857,35.528],[-120.8584,35.5327],[-120.8604,35.5365],[-120.8638,35.5384],[-120.8652,35.5434],[-120.8707,35.5466],[-120.8751,35.5466],[-120.8915,35.5573],[-120.899,35.5587],[-120.9067,35.5632],[-120.9072,35.5652],[-120.9126,35.5686],[-120.9107,35.5706],[-120.9123,35.5732],[-120.9097,35.5734],[-120.9134,35.5764],[-120.911,35.5786],[-120.9092,35.5783],[-120.9167,35.5823],[-120.9248,35.5836],[-120.9272,35.5856],[-120.93,35.593],[-120.9464,35.5974],[-120.9522,35.6018],[-120.9551,35.6064],[-120.9554,35.6138],[-120.957,35.6154],[-120.963,35.6152],[-120.9675,35.617],[-120.9741,35.6279],[-120.9786,35.6326],[-120.9875,35.6375],[-120.9947,35.6394],[-121.0019,35.6442],[-121.0124,35.6449],[-121.0162,35.6466],[-121.0225,35.6525],[-121.0264,35.6582],[-121.0306,35.6613],[-121.035,35.6621],[-121.0414,35.6693],[-121.0482,35.6707],[-121.0548,35.6754],[-121.0606,35.6767],[-121.0627,35.68],[-121.0626,35.682],[-121.0747,35.6842],[-121.0767,35.6868],[-121.0903,35.6906],[-121.0916,35.6952],[-121.0953,35.6963],[-121.099,35.7012],[-121.1,35.7031],[-121.099,35.7059],[-121.0997,35.7099],[-121.1063,35.7177],[-121.1094,35.7189],[-121.1091,35.7171],[-121.1137,35.7153],[-121.1175,35.7182],[-121.1273,35.722],[-121.1252,35.7253],[-121.1294,35.7318],[-121.1286,35.7359],[-121.1337,35.7407],[-121.134,35.7427],[-121.152,35.7485],[-121.1538,35.7528],[-121.1611,35.7603],[-121.1608,35.762],[-121.1769,35.7728],[-121.1815,35.7741],[-121.184,35.7782],[-121.1823,35.7803],[-121.1827,35.7823],[-121.1801,35.7833],[-121.1802,35.7856],[-121.1784,35.7877],[-121.1782,35.7895],[-121.1805,35.792],[-121.1851,35.7942],[-121.3997,35.7952],[-121.4382,35.7967]]]},"properties":{"GEOID":"0607992160","BASENAME":"North Coast","NAME":"North Coast CCD","COUNTY":"079","COUSUB":"92160"}}]}