{"type":"FeatureCollection","features":[{"type":"Feature","geometry":{"type":"Polygon","coordinates":[[[-122.5882,37.5794],[-122.5865,37.5619],[-122.5796,37.5459],[-122.575,37.4999],[-122.571,37.4845],[-122.5681,37.4792],[-122.5595,37.4699],[-122.547,37.4579],[-122.5373,37.4507],[-122.5276,37.4461],[-122.5099,37.4416],[-122.5077,37.4227],[-122.5035,37.4119],[-122.4875,37.3883],[-122.467,37.3499],[-122.4659,37.3412],[-122.4818,37.2711],[-122.484,37.2499],[-122.4831,37.2347],[-122.4817,37.2291],[-122.4791,37.2217],[-122.4722,37.2122],[-122.4685,37.1958],[-122.4681,37.188],[-122.4641,37.1778],[-122.4554,37.1666],[-122.4515,37.1582],[-122.4456,37.15],[-122.4285,37.1378],[-122.4213,37.1351],[-122.4134,37.1218],[-122.4044,37.1139],[-122.3969,37.1099],[-122.3969,37.1028],[-122.3931,37.0872],[-122.3857,37.0759],[-122.3761,37.0656],[-122.36,37.0584],[-122.3482,37.0557],[-122.3364,37.0539],[-122.3139,37.0548],[-122.2994,37.0964],[-122.2894,37.1135],[-122.3118,37.1475],[-122.3177,37.1869],[-122.2886,37.1867],[-122.2689,37.1898],[-122.2427,37.19],[-122.2426,37.2151],[-122.1528,37.2154],[-122.153,37.2224],[-122.1515,37.23],[-122.1526,37.244],[-122.1529,37.2891],[-122.1562,37.2918],[-122.1668,37.2952],[-122.1627,37.3007],[-122.1636,37.3015],[-122.1621,37.3042],[-122.1666,37.3056],[-122.1708,37.312],[-122.1758,37.3127],[-122.1818,37.3096],[-122.1838,37.31],[-122.1856,37.3117],[-122.1866,37.3155],[-122.2049,37.3247],[-122.2152,37.3333],[-122.2172,37.3356],[-122.2177,37.3401],[-122.2281,37.3447],[-122.2316,37.3485],[-122.2401,37.3518],[-122.2473,37.3585],[-122.2476,37.3673],[-122.2522,37.3718],[-122.2577,37.3669],[-122.2566,37.363],[-122.2521,37.3631],[-122.2545,37.361],[-122.2531,37.36],[-122.2544,37.3595],[-122.2589,37.3615],[-122.2605,37.3585],[-122.2634,37.3592],[-122.2661,37.3572],[-122.2638,37.3596],[-122.2607,37.3599],[-122.2603,37.3631],[-122.2644,37.3626],[-122.2666,37.3749],[-122.2652,37.381],[-122.2661,37.3837],[-122.2707,37.3874],[-122.2809,37.3877],[-122.2848,37.3901],[-122.2915,37.3919],[-122.2904,37.3922],[-122.292,37.3936],[-122.2919,37.3955],[-122.2939,37.3965],[-122.2928,37.3985],[-122.2937,37.3997],[-122.2973,37.4007],[-122.3072,37.4075],[-122.3065,37.4119],[-122.319,37.418],[-122.3193,37.4238],[-122.3151,37.4241],[-122.3112,37.4263],[-122.311,37.4281],[-122.3168,37.434],[-122.3207,37.4355],[-122.3255,37.4424],[-122.3343,37.4476],[-122.3196,37.4553],[-122.2992,37.4547],[-122.3007,37.4576],[-122.2975,37.4597],[-122.2992,37.4625],[-122.2924,37.4685],[-122.2993,37.4764],[-122.2986,37.4874],[-122.2995,37.4902],[-122.3036,37.4937],[-122.3184,37.4994],[-122.3304,37.5015],[-122.3472,37.5125],[-122.3539,37.519],[-122.3661,37.5398],[-122.382,37.5589],[-122.388,37.5648],[-122.3939,37.5675],[-122.3992,37.5726],[-122.4067,37.584],[-122.4261,37.6015],[-122.4456,37.6221],[-122.4514,37.6171],[-122.4501,37.6156],[-122.4439,37.5936],[-122.4631,37.5846],[-122.4598,37.5845],[-122.4597,37.5781],[-122.451,37.578],[-122.4509,37.5705],[-122.4594,37.5707],[-122.4595,37.566],[-122.4676,37.5663],[-122.4676,37.5635],[-122.4777,37.5635],[-122.4779,37.5621],[-122.4801,37.5621],[-122.4854,37.5655],[-122.4926,37.5666],[-122.4944,37.5703],[-122.5091,37.5741],[-122.5141,37.5791],[-122.5123,37.5816],[-122.5147,37.5846],[-122.5132,37.5853],[-122.5173,37.5868],[-122.5871,37.5875],[-122.5882,37.5794]]]},"properties":{"GEOID":"0608191215","BASENAME":"Half Moon Bay","NAME":"Half Moon Bay CCD","COUNTY":"081","COUSUB":"91215"}},{"type":"Feature","geometry":{"type":"Polygon","coordinates":[[[-122.3935,37.57],[-122.3908,37.5662],[-122.382,37.5589],[-122.3673,37.5414],[-122.3541,37.5194],[-122.3472,37.5125],[-122.3304,37.5015],[-122.3184,37.4994],[-122.3036,37.4937],[-122.2995,37.4902],[-122.2986,37.4874],[-122.2993,37.4764],[-122.2924,37.4685],[-122.2992,37.4625],[-122.2975,37.4597],[-122.3007,37.4576],[-122.2992,37.4547],[-122.3196,37.4553],[-122.3343,37.4476],[-122.3255,37.4424],[-122.3207,37.4355],[-122.3168,37.434],[-122.311,37.4281],[-122.3112,37.4263],[-122.3151,37.4241],[-122.3193,37.4238],[-122.319,37.418],[-122.3065,37.4119],[-122.3072,37.4075],[-122.2973,37.4007],[-122.2937,37.3997],[-122.2928,37.3985],[-122.2939,37.3965],[-122.2919,37.3955],[-122.292,37.3936],[-122.2904,37.3922],[-122.2915,37.3919],[-122.2848,37.3901],[-122.2809,37.3877],[-122.2707,37.3874],[-122.2661,37.3837],[-122.2652,37.381],[-122.2666,37.3749],[-122.2644,37.3626],[-122.2603,37.3631],[-122.2607,37.3599],[-122.2638,37.3596],[-122.2661,37.3572],[-122.2634,37.3592],[-122.2605,37.3585],[-122.2589,37.3615],[-122.2544,37.3595],[-122.2531,37.36],[-122.2545,37.361],[-122.2521,37.3631],[-122.2566,37.363],[-122.2577,37.3669],[-122.2524,37.3719],[-122.2476,37.3673],[-122.2468,37.3579],[-122.2392,37.3512],[-122.2316,37.3485],[-122.2281,37.3447],[-122.2177,37.3401],[-122.217,37.3353],[-122.2049,37.3247],[-122.1925,37.3188],[-122.1865,37.322],[-122.183,37.3273],[-122.1785,37.3252],[-122.1751,37.3257],[-122.1828,37.333],[-122.186,37.3387],[-122.1942,37.3457],[-122.1959,37.3482],[-122.1961,37.3513],[-122.2025,37.3603],[-122.2007,37.372],[-122.1905,37.3853],[-122.19,37.3949],[-122.1918,37.3972],[-122.1926,37.4042],[-122.1945,37.4079],[-122.1923,37.4139],[-122.1876,37.4147],[-122.1872,37.4163],[-122.1903,37.4185],[-122.1879,37.4202],[-122.1884,37.4225],[-122.1913,37.4252],[-122.1894,37.4275],[-122.1905,37.4313],[-122.1844,37.4342],[-122.1822,37.4395],[-122.1801,37.4393],[-122.1798,37.441],[-122.1757,37.4419],[-122.1718,37.4467],[-122.1687,37.4474],[-122.1676,37.4508],[-122.166,37.4508],[-122.1652,37.453],[-122.1641,37.4525],[-122.1604,37.4547],[-122.1577,37.4535],[-122.1558,37.4541],[-122.1559,37.4555],[-122.1525,37.4577],[-122.1475,37.4565],[-122.1444,37.4583],[-122.1407,37.4573],[-122.1388,37.4548],[-122.1321,37.454],[-122.1286,37.4519],[-122.1269,37.4536],[-122.1241,37.4528],[-122.1218,37.4542],[-122.1239,37.4611],[-122.1177,37.4652],[-122.1133,37.4675],[-122.1115,37.4663],[-122.0966,37.4661],[-122.0968,37.4619],[-122.0815,37.4778],[-122.1096,37.4976],[-122.1979,37.6064],[-122.2884,37.6064],[-122.2883,37.6021],[-122.3337,37.6016],[-122.333,37.5879],[-122.3347,37.5866],[-122.3308,37.583],[-122.3429,37.5745],[-122.342,37.5742],[-122.3519,37.5699],[-122.3541,37.5721],[-122.3529,37.5728],[-122.3538,37.5745],[-122.3527,37.5771],[-122.356,37.5785],[-122.3588,37.5772],[-122.3635,37.5806],[-122.3693,37.578],[-122.372,37.5809],[-122.3782,37.5774],[-122.3809,37.5775],[-122.38,37.5763],[-122.3813,37.5746],[-122.3834,37.5746],[-122.3879,37.5691],[-122.3898,37.5688],[-122.3913,37.5713],[-122.3935,37.57]]]},"properties":{"GEOID":"0608192870","BASENAME":"San Mateo","NAME":"San Mateo CCD","COUNTY":"081","COUSUB":"92870"}},{"type":"Feature","geometry":{"type":"Polygon","coordinates":[[[-122.5868,37.59],[-122.5867,37.5874],[-122.5147,37.5861],[-122.5132,37.5853],[-122.5147,37.5846],[-122.5123,37.5823],[-122.5141,37.579],[-122.5091,37.5741],[-122.4944,37.5703],[-122.4926,37.5666],[-122.4854,37.5655],[-122.4815,37.5626],[-122.4779,37.5621],[-122.4777,37.5635],[-122.4676,37.5635],[-122.4676,37.5663],[-122.4595,37.566],[-122.4594,37.5707],[-122.4509,37.5705],[-122.451,37.578],[-122.4597,37.5781],[-122.4598,37.5845],[-122.4631,37.5846],[-122.4439,37.5936],[-122.4501,37.6156],[-122.4514,37.6171],[-122.4456,37.6221],[-122.4261,37.6015],[-122.4067,37.584],[-122.3992,37.5726],[-122.3939,37.5675],[-122.3908,37.5662],[-122.3935,37.57],[-122.3913,37.5713],[-122.3898,37.5688],[-122.3879,37.5691],[-122.3834,37.5746],[-122.3813,37.5746],[-122.38,37.5763],[-122.3809,37.5775],[-122.3782,37.5774],[-122.372,37.5809],[-122.3693,37.578],[-122.3635,37.5806],[-122.3588,37.5772],[-122.356,37.5785],[-122.3527,37.5771],[-122.3538,37.5745],[-122.3529,37.5728],[-122.3541,37.5721],[-122.3519,37.5699],[-122.342,37.5742],[-122.3429,37.5745],[-122.3308,37.583],[-122.3347,37.5866],[-122.333,37.5879],[-122.3337,37.6016],[-122.2883,37.6021],[-122.2884,37.6064],[-122.1979,37.6064],[-122.2818,37.7082],[-122.4192,37.7081],[-122.4233,37.7093],[-122.4239,37.7082],[-122.4368,37.7079],[-122.5752,37.7067],[-122.5675,37.6392],[-122.5796,37.6115],[-122.5868,37.59]]]},"properties":{"GEOID":"0608193170","BASENAME":"South San Francisco","NAME":"South San Francisco CCD","COUNTY":"081","COUSUB":"93170"}}]}