{"type":"FeatureCollection","features":[{"type":"Feature","geometry":{"type":"Polygon","coordinates":[[[-120.7343,34.9007],[-120.7307,34.8864],[-120.7241,34.8737],[-120.7203,34.8692],[-120.713,34.8629],[-120.7049,34.8581],[-120.6956,34.8546],[-120.6841,34.8445],[-120.6733,34.8386],[-120.6844,34.8037],[-120.6929,34.7827],[-120.6998,34.7709],[-120.7022,34.7602],[-120.7021,34.7483],[-120.6983,34.7378],[-120.6932,34.73],[-120.6847,34.7211],[-120.6773,34.7097],[-120.6658,34.6994],[-120.6647,34.6963],[-120.6865,34.645],[-120.7013,34.63],[-120.7053,34.6214],[-120.7084,34.6099],[-120.7071,34.5975],[-120.7121,34.5842],[-120.7133,34.575],[-120.7128,34.5683],[-120.7065,34.5519],[-120.6988,34.5431],[-120.695,34.5406],[-120.6907,34.5336],[-120.6845,34.5271],[-120.6561,34.5086],[-120.6424,34.5038],[-120.6095,34.5019],[-120.5943,34.5041],[-120.5815,34.4966],[-120.5594,34.4885],[-120.5583,34.4826],[-120.5531,34.471],[-120.5446,34.4602],[-120.5357,34.4527],[-120.5356,34.4395],[-120.5329,34.4332],[-120.5236,34.4195],[-120.501,34.4031],[-120.4881,34.3983],[-120.4752,34.3967],[-120.4687,34.3939],[-120.451,34.3912],[-120.4362,34.3932],[-120.426,34.3967],[-120.4085,34.3987],[-120.3906,34.4033],[-120.3869,34.4057],[-120.3673,34.4085],[-120.3489,34.4073],[-120.34,34.4094],[-120.3245,34.4097],[-120.2871,34.4176],[-120.2802,34.4163],[-120.2255,34.419],[-120.2255,34.4706],[-120.2195,34.4708],[-120.2187,34.4734],[-120.2245,34.4736],[-120.2273,34.4755],[-120.2304,34.4829],[-120.2262,34.4881],[-120.226,34.4917],[-120.2302,34.4952],[-120.2308,34.4982],[-120.2266,34.5034],[-120.2254,34.5098],[-120.2169,34.5182],[-120.2099,34.5233],[-120.2004,34.5248],[-120.1967,34.5286],[-120.1968,34.54],[-120.1917,34.5494],[-120.1921,34.5577],[-120.1897,34.5633],[-120.1899,34.567],[-120.1933,34.5728],[-120.1938,34.5766],[-120.1938,34.5825],[-120.1911,34.5882],[-120.1943,34.5938],[-120.191,34.6066],[-120.1976,34.606],[-120.2056,34.6079],[-120.212,34.6135],[-120.2138,34.6176],[-120.2157,34.6184],[-120.2193,34.6174],[-120.2225,34.6184],[-120.2388,34.6147],[-120.2464,34.615],[-120.2511,34.6062],[-120.2471,34.5994],[-120.2508,34.5961],[-120.2726,34.6006],[-120.2826,34.6096],[-120.2908,34.6074],[-120.2923,34.6082],[-120.2921,34.6094],[-120.2887,34.61],[-120.2851,34.617],[-120.289,34.6324],[-120.2858,34.637],[-120.2855,34.6422],[-120.2888,34.6566],[-120.2887,34.6655],[-120.2871,34.6706],[-120.2882,34.6739],[-120.2877,34.69],[-120.2856,34.7007],[-120.2816,34.7051],[-120.284,34.7051],[-120.2853,34.7071],[-120.2823,34.7099],[-120.2826,34.7085],[-120.2815,34.7107],[-120.2802,34.7101],[-120.2766,34.7124],[-120.2763,34.7173],[-120.274,34.7151],[-120.2734,34.7172],[-120.2809,34.7247],[-120.279,34.7372],[-120.2798,34.7404],[-120.2833,34.7413],[-120.2831,34.7443],[-120.3138,34.7493],[-120.3187,34.7522],[-120.3381,34.7565],[-120.3654,34.7546],[-120.3921,34.7588],[-120.4056,34.7592],[-120.4261,34.7675],[-120.4287,34.7727],[-120.4328,34.7672],[-120.4405,34.7637],[-120.4525,34.7608],[-120.4552,34.7613],[-120.4551,34.7721],[-120.4398,34.7745],[-120.4444,34.8032],[-120.4483,34.8115],[-120.4725,34.8118],[-120.4722,34.8306],[-120.5246,34.8315],[-120.5245,34.8377],[-120.5324,34.8362],[-120.5459,34.8288],[-120.5513,34.8276],[-120.55,34.829],[-120.5611,34.848],[-120.5936,34.8898],[-120.5978,34.8934],[-120.6068,34.8962],[-120.6081,34.8983],[-120.6158,34.8991],[-120.6212,34.9027],[-120.6257,34.9017],[-120.6345,34.9026],[-120.6453,34.907],[-120.6453,34.9001],[-120.642,34.9006],[-120.6421,34.8978],[-120.6392,34.8937],[-120.64,34.8895],[-120.6423,34.891],[-120.6425,34.8938],[-120.6452,34.8985],[-120.6493,34.9012],[-120.6525,34.8997],[-120.6577,34.901],[-120.6642,34.9003],[-120.6668,34.8972],[-120.668,34.8979],[-120.6668,34.9003],[-120.6721,34.9021],[-120.7343,34.9007]]]},"properties":{"GEOID":"0608391708","BASENAME":"Lompoc","NAME":"Lompoc CCD","COUNTY":"083","COUSUB":"91708"}},{"type":"Feature","geometry":{"type":"Polygon","coordinates":[[[-120.2951,34.7553],[-120.2886,34.7467],[-120.2831,34.7443],[-120.2833,34.7413],[-120.2798,34.7404],[-120.279,34.7371],[-120.2809,34.7247],[-120.2734,34.7172],[-120.274,34.7151],[-120.2763,34.7173],[-120.2766,34.7124],[-120.2802,34.7101],[-120.2815,34.7107],[-120.2826,34.7085],[-120.2823,34.7099],[-120.2853,34.7071],[-120.284,34.7051],[-120.2816,34.7051],[-120.2856,34.7007],[-120.2877,34.69],[-120.2882,34.6739],[-120.2871,34.6706],[-120.2887,34.6655],[-120.2888,34.6566],[-120.2855,34.6422],[-120.2858,34.637],[-120.289,34.6324],[-120.2851,34.617],[-120.2887,34.61],[-120.2921,34.6094],[-120.2923,34.6082],[-120.2908,34.6074],[-120.2826,34.6096],[-120.2726,34.6006],[-120.2508,34.5961],[-120.2471,34.5994],[-120.2511,34.6062],[-120.2464,34.615],[-120.2388,34.6147],[-120.2225,34.6184],[-120.2193,34.6174],[-120.2157,34.6184],[-120.2138,34.6176],[-120.212,34.6135],[-120.2056,34.6079],[-120.1976,34.606],[-120.191,34.6066],[-120.1943,34.5938],[-120.1911,34.5882],[-120.1938,34.5825],[-120.1938,34.5766],[-120.1933,34.5728],[-120.1899,34.567],[-120.1897,34.5633],[-120.1921,34.5577],[-120.1917,34.5494],[-120.1968,34.54],[-120.1967,34.5286],[-120.2004,34.5248],[-120.2099,34.5233],[-120.2166,34.5185],[-120.2254,34.5098],[-120.2263,34.5047],[-120.2182,34.5078],[-120.2122,34.5075],[-120.2052,34.5046],[-120.1981,34.505],[-120.1959,34.5065],[-120.1775,34.5099],[-120.1712,34.5137],[-120.1708,34.5126],[-120.1678,34.5138],[-120.1667,34.5131],[-120.1634,34.5153],[-120.1542,34.5171],[-120.1525,34.5192],[-120.148,34.5173],[-120.1406,34.5185],[-120.1334,34.5201],[-120.1299,34.5229],[-120.1277,34.5204],[-120.1136,34.5196],[-120.1048,34.5232],[-120.0948,34.5298],[-120.0906,34.5282],[-120.0824,34.5301],[-120.0682,34.5281],[-120.0657,34.5315],[-120.0629,34.5321],[-120.0621,34.5336],[-120.0594,34.5326],[-120.0576,34.5354],[-120.0541,34.5334],[-120.0503,34.5372],[-120.0436,34.5355],[-120.0338,34.5295],[-120.034,34.5339],[-120.027,34.5329],[-120.0232,34.5341],[-120.0206,34.5321],[-120.0159,34.5325],[-120.0066,34.5278],[-119.9935,34.5312],[-119.985,34.5294],[-119.9791,34.5248],[-119.9738,34.5263],[-119.9664,34.5259],[-119.9596,34.5229],[-119.9536,34.5262],[-119.9473,34.5269],[-119.9464,34.5277],[-119.9469,34.5306],[-119.9456,34.5309],[-119.9448,34.5276],[-119.9432,34.5269],[-119.9325,34.5274],[-119.9299,34.5261],[-119.9285,34.5234],[-119.9209,34.5253],[-119.9147,34.5204],[-119.8987,34.5208],[-119.8961,34.5178],[-119.8891,34.5153],[-119.887,34.5123],[-119.8792,34.5107],[-119.8786,34.5091],[-119.8729,34.5076],[-119.8711,34.5052],[-119.8714,34.5072],[-119.8672,34.5081],[-119.8652,34.5065],[-119.8656,34.5031],[-119.8636,34.5013],[-119.8602,34.5007],[-119.8526,34.5026],[-119.8442,34.4998],[-119.8322,34.5005],[-119.8297,34.5028],[-119.8243,34.5038],[-119.8202,34.5032],[-119.8185,34.5042],[-119.8193,34.5053],[-119.8179,34.5043],[-119.8138,34.5048],[-119.8229,34.5097],[-119.8228,34.5112],[-119.8104,34.5109],[-119.8099,34.5122],[-119.8059,34.5108],[-119.8031,34.5143],[-119.7972,34.5136],[-119.7959,34.5161],[-119.7935,34.514],[-119.7921,34.5152],[-119.794,34.5181],[-119.7879,34.5195],[-119.7801,34.5171],[-119.7719,34.5084],[-119.7689,34.5088],[-119.7676,34.506],[-119.7629,34.5074],[-119.7561,34.507],[-119.754,34.5046],[-119.7528,34.5054],[-119.7548,34.5083],[-119.754,34.5099],[-119.7517,34.5105],[-119.7523,34.5127],[-119.7495,34.5152],[-119.753,34.5158],[-119.7492,34.5196],[-119.7513,34.5187],[-119.7496,34.521],[-119.7504,34.5218],[-119.7529,34.519],[-119.7552,34.5199],[-119.7539,34.5207],[-119.7541,34.5225],[-119.7486,34.5245],[-119.7499,34.5256],[-119.7532,34.5252],[-119.7552,34.5269],[-119.751,34.5289],[-119.7546,34.5319],[-119.7547,34.5294],[-119.7573,34.5298],[-119.7583,34.5369],[-119.7625,34.5376],[-119.7614,34.5401],[-119.7649,34.54],[-119.7682,34.5426],[-119.7755,34.5447],[-119.7789,34.5481],[-119.7808,34.5474],[-119.7821,34.5439],[-119.7836,34.5433],[-119.7952,34.5471],[-119.7987,34.5429],[-119.8052,34.5449],[-119.8142,34.5436],[-119.816,34.547],[-119.819,34.5489],[-119.8267,34.544],[-119.833,34.5465],[-119.8434,34.5451],[-119.8539,34.5475],[-119.8571,34.5472],[-119.8598,34.5441],[-119.8635,34.5431],[-119.8665,34.5488],[-119.8712,34.5486],[-119.8755,34.5505],[-119.8831,34.5602],[-119.888,34.5595],[-119.8916,34.5518],[-119.894,34.5512],[-119.8985,34.5554],[-119.899,34.5621],[-119.9026,34.5683],[-119.9047,34.5698],[-119.9193,34.5675],[-119.9274,34.5694],[-119.9344,34.573],[-119.9485,34.5833],[-119.959,34.5882],[-119.9684,34.5868],[-119.9795,34.5824],[-119.9845,34.5867],[-119.9957,34.5901],[-120.0008,34.5905],[-120.0064,34.5948],[-120.0258,34.5896],[-120.032,34.5897],[-120.0286,34.5985],[-120.03,34.6001],[-120.0289,34.6044],[-120.0301,34.6075],[-120.0281,34.607],[-120.0254,34.609],[-120.0223,34.62],[-120.014,34.6201],[-120.0028,34.6232],[-119.9858,34.6233],[-119.9722,34.6297],[-119.9634,34.6401],[-119.9533,34.6467],[-119.9438,34.6637],[-119.9408,34.6656],[-119.938,34.665],[-119.9381,34.6659],[-119.935,34.666],[-119.9345,34.6684],[-119.9323,34.6681],[-119.9322,34.6697],[-119.9237,34.6716],[-119.9234,34.6737],[-119.9192,34.675],[-119.918,34.677],[-119.9191,34.6787],[-119.918,34.6829],[-119.9154,34.684],[-119.9145,34.6874],[-119.9079,34.6895],[-119.9104,34.6953],[-119.9166,34.7002],[-119.9164,34.7058],[-119.9146,34.7102],[-119.9157,34.7187],[-119.9199,34.7271],[-119.9205,34.7316],[-119.927,34.7411],[-119.9249,34.7435],[-119.9256,34.7457],[-119.9238,34.7478],[-119.9303,34.75],[-119.933,34.7531],[-119.9439,34.7539],[-119.9483,34.7553],[-119.9507,34.7578],[-119.9548,34.7586],[-119.9535,34.7625],[-119.9499,34.7638],[-119.9481,34.7655],[-119.9487,34.767],[-119.945,34.7696],[-119.9443,34.7717],[-119.9459,34.7738],[-119.9509,34.7748],[-119.9556,34.7778],[-119.9548,34.7793],[-119.9604,34.7802],[-119.9723,34.7878],[-119.9763,34.7875],[-119.9782,34.79],[-119.9818,34.7893],[-119.9807,34.7955],[-119.9821,34.799],[-119.9843,34.8009],[-119.9838,34.8021],[-119.9818,34.8021],[-119.9841,34.8049],[-119.9867,34.8029],[-119.9879,34.8033],[-119.9879,34.8046],[-119.9897,34.8041],[-119.9908,34.8012],[-119.9932,34.8001],[-119.9907,34.7983],[-119.9929,34.7964],[-119.9964,34.8004],[-120.0054,34.8025],[-120.004,34.8046],[-120.0073,34.8085],[-120.0028,34.814],[-119.9975,34.813],[-119.9997,34.8175],[-119.9983,34.8196],[-119.9993,34.8233],[-119.995,34.8231],[-119.9937,34.8255],[-119.995,34.8274],[-120.002,34.8266],[-120.0054,34.8285],[-120.0087,34.8332],[-120.0137,34.8326],[-120.0212,34.8348],[-120.0198,34.835],[-120.0221,34.8369],[-120.0241,34.8362],[-120.0255,34.8399],[-120.0314,34.8439],[-120.0368,34.8426],[-120.0443,34.8471],[-120.0505,34.8475],[-120.056,34.8454],[-120.0558,34.8486],[-120.0613,34.8505],[-120.0631,34.8534],[-120.0652,34.8505],[-120.0687,34.8501],[-120.069,34.8458],[-120.0797,34.8462],[-120.0853,34.8433],[-120.0883,34.8435],[-120.0894,34.8415],[-120.0938,34.8399],[-120.1015,34.8333],[-120.1044,34.8341],[-120.1068,34.8329],[-120.1161,34.8327],[-120.1205,34.8369],[-120.1275,34.8372],[-120.1413,34.8309],[-120.1481,34.8298],[-120.1492,34.8304],[-120.1481,34.8317],[-120.1494,34.8352],[-120.1506,34.8353],[-120.1515,34.8334],[-120.1541,34.8333],[-120.1568,34.8362],[-120.1597,34.8367],[-120.16,34.8396],[-120.1641,34.8435],[-120.1664,34.8431],[-120.1662,34.841],[-120.17,34.8386],[-120.1723,34.8344],[-120.175,34.8338],[-120.1807,34.8361],[-120.1897,34.8442],[-120.1943,34.8444],[-120.2049,34.8492],[-120.2097,34.8493],[-120.2178,34.8471],[-120.2301,34.8503],[-120.2381,34.8557],[-120.2546,34.8616],[-120.2581,34.8614],[-120.2597,34.8598],[-120.2597,34.8533],[-120.2639,34.8536],[-120.2728,34.8579],[-120.2773,34.8586],[-120.2765,34.8422],[-120.2727,34.8352],[-120.2669,34.8288],[-120.2662,34.8252],[-120.2679,34.824],[-120.2797,34.8248],[-120.2875,34.8193],[-120.2832,34.8172],[-120.2817,34.8144],[-120.2798,34.8136],[-120.2764,34.8136],[-120.2701,34.811],[-120.2654,34.8117],[-120.2641,34.81],[-120.2589,34.8095],[-120.2583,34.8071],[-120.2601,34.7992],[-120.2633,34.7967],[-120.2623,34.7959],[-120.2635,34.7943],[-120.2624,34.7932],[-120.2622,34.7789],[-120.2666,34.7719],[-120.2771,34.7649],[-120.2862,34.766],[-120.2925,34.7642],[-120.2951,34.7553]]]},"properties":{"GEOID":"0608393065","BASENAME":"Solvang-Santa Ynez","NAME":"Solvang-Santa Ynez CCD","COUNTY":"083","COUSUB":"93065"}},{"type":"Feature","geometry":{"type":"Polygon","coordinates":[[[-119.6125,34.4222],[-119.6123,34.3674],[-119.6021,34.3637],[-119.5903,34.3612],[-119.5848,34.3617],[-119.5745,34.3538],[-119.5558,34.345],[-119.5478,34.3444],[-119.5327,34.3388],[-119.5279,34.3388],[-119.5229,34.3359],[-119.5195,34.3361],[-119.5108,34.3309],[-119.501,34.3269],[-119.4767,34.3732],[-119.476,34.3751],[-119.4782,34.3765],[-119.4777,34.3796],[-119.473,34.3795],[-119.4727,34.3837],[-119.4684,34.3866],[-119.4687,34.3884],[-119.4648,34.389],[-119.4518,34.397],[-119.451,34.3995],[-119.449,34.4018],[-119.447,34.4019],[-119.4469,34.4038],[-119.4456,34.4043],[-119.4454,34.4089],[-119.4544,34.4183],[-119.4537,34.4195],[-119.4546,34.4216],[-119.453,34.423],[-119.4531,34.4289],[-119.4447,34.4295],[-119.4445,34.4336],[-119.4431,34.4343],[-119.4437,34.4367],[-119.4404,34.4418],[-119.4415,34.4479],[-119.4433,34.4495],[-119.4416,34.4519],[-119.4424,34.4909],[-119.461,34.4905],[-119.4702,34.4922],[-119.4759,34.489],[-119.4777,34.4903],[-119.483,34.4887],[-119.4913,34.489],[-119.4933,34.4877],[-119.5024,34.4887],[-119.508,34.4925],[-119.5093,34.4913],[-119.5079,34.4893],[-119.5092,34.4889],[-119.5111,34.4907],[-119.5131,34.4907],[-119.5122,34.4921],[-119.5146,34.4944],[-119.5185,34.4936],[-119.5166,34.4913],[-119.5169,34.4893],[-119.5279,34.4867],[-119.5341,34.4885],[-119.543,34.4865],[-119.5461,34.4886],[-119.547,34.4869],[-119.5492,34.4886],[-119.5511,34.488],[-119.5516,34.4859],[-119.5594,34.4866],[-119.566,34.4857],[-119.5652,34.4829],[-119.5665,34.4822],[-119.5638,34.4799],[-119.5655,34.4797],[-119.5673,34.477],[-119.5678,34.4806],[-119.5694,34.482],[-119.5727,34.4797],[-119.5745,34.4813],[-119.5894,34.4801],[-119.5912,34.4783],[-119.5954,34.4774],[-119.596,34.4754],[-119.6028,34.47],[-119.6016,34.4679],[-119.6044,34.4672],[-119.6017,34.4633],[-119.5994,34.4657],[-119.5965,34.4646],[-119.5941,34.4694],[-119.5964,34.4711],[-119.5929,34.4715],[-119.5928,34.4734],[-119.5866,34.4701],[-119.5891,34.4692],[-119.5897,34.4669],[-119.5888,34.4638],[-119.5867,34.4628],[-119.5876,34.4612],[-119.5852,34.4596],[-119.5838,34.4604],[-119.5831,34.4586],[-119.5757,34.453],[-119.5773,34.451],[-119.5783,34.4433],[-119.5768,34.4362],[-119.5842,34.4363],[-119.5849,34.4345],[-119.5983,34.4324],[-119.6043,34.4295],[-119.6086,34.4239],[-119.6109,34.4239],[-119.6125,34.4222]]]},"properties":{"GEOID":"0608390378","BASENAME":"Carpinteria","NAME":"Carpinteria CCD","COUNTY":"083","COUSUB":"90378"}},{"type":"Feature","geometry":{"type":"Polygon","coordinates":[[[-120.258,34.8614],[-120.2477,34.8594],[-120.2381,34.8557],[-120.2301,34.8503],[-120.2178,34.8471],[-120.2097,34.8493],[-120.2049,34.8492],[-120.1943,34.8444],[-120.1897,34.8442],[-120.1771,34.8341],[-120.1731,34.8338],[-120.17,34.8386],[-120.1662,34.841],[-120.1664,34.8431],[-120.1641,34.8435],[-120.16,34.8396],[-120.1597,34.8367],[-120.1568,34.8362],[-120.1541,34.8333],[-120.1515,34.8334],[-120.1506,34.8353],[-120.1494,34.8352],[-120.1481,34.8317],[-120.1492,34.8304],[-120.1481,34.8298],[-120.1413,34.8309],[-120.1275,34.8372],[-120.1205,34.8369],[-120.1161,34.8327],[-120.1068,34.8329],[-120.1044,34.8341],[-120.1015,34.8333],[-120.0938,34.8399],[-120.0894,34.8415],[-120.0883,34.8435],[-120.0853,34.8433],[-120.0797,34.8462],[-120.069,34.8458],[-120.0687,34.8501],[-120.0652,34.8505],[-120.0633,34.8534],[-120.0613,34.8505],[-120.0558,34.8486],[-120.056,34.8454],[-120.0505,34.8475],[-120.0443,34.8471],[-120.0368,34.8426],[-120.0313,34.8439],[-120.0255,34.8399],[-120.0241,34.8362],[-120.0221,34.8369],[-120.0198,34.835],[-120.0212,34.8348],[-120.0137,34.8326],[-120.0087,34.8332],[-120.0054,34.8285],[-120.002,34.8266],[-119.9945,34.8271],[-119.9937,34.8254],[-119.995,34.8231],[-119.9993,34.8233],[-119.9983,34.8196],[-119.9997,34.8175],[-119.9975,34.813],[-120.0028,34.814],[-120.0073,34.8085],[-120.004,34.8046],[-120.0054,34.8025],[-119.9964,34.8004],[-119.9929,34.7964],[-119.9907,34.7983],[-119.9932,34.8001],[-119.9908,34.8012],[-119.9897,34.8041],[-119.9879,34.8046],[-119.9879,34.8033],[-119.9867,34.8029],[-119.9841,34.8049],[-119.9818,34.8021],[-119.9838,34.8021],[-119.9843,34.8009],[-119.9821,34.799],[-119.9807,34.7955],[-119.9818,34.7893],[-119.9782,34.79],[-119.9763,34.7875],[-119.9723,34.7878],[-119.9604,34.7802],[-119.9548,34.7793],[-119.9555,34.7777],[-119.9509,34.7748],[-119.9463,34.7742],[-119.9443,34.7717],[-119.945,34.7695],[-119.9488,34.767],[-119.9485,34.7649],[-119.9535,34.7625],[-119.9548,34.7585],[-119.9507,34.7578],[-119.9483,34.7553],[-119.9439,34.7539],[-119.933,34.7531],[-119.9303,34.75],[-119.9238,34.7478],[-119.9256,34.7457],[-119.9249,34.7435],[-119.927,34.7411],[-119.9205,34.7316],[-119.9199,34.7271],[-119.9157,34.7187],[-119.9146,34.7102],[-119.9164,34.7058],[-119.9166,34.7002],[-119.9103,34.6951],[-119.9079,34.6894],[-119.9145,34.6874],[-119.9154,34.684],[-119.918,34.6829],[-119.9191,34.6787],[-119.918,34.677],[-119.9192,34.675],[-119.9234,34.6737],[-119.9237,34.6716],[-119.9322,34.6697],[-119.9323,34.6681],[-119.9345,34.6684],[-119.935,34.666],[-119.9381,34.6659],[-119.938,34.665],[-119.9408,34.6656],[-119.9438,34.6637],[-119.9533,34.6467],[-119.9634,34.6401],[-119.9722,34.6297],[-119.9858,34.6233],[-120.0028,34.6232],[-120.014,34.6201],[-120.0223,34.62],[-120.0254,34.609],[-120.0281,34.607],[-120.0301,34.6075],[-120.0289,34.6044],[-120.03,34.6001],[-120.0286,34.5985],[-120.032,34.5897],[-120.0306,34.589],[-120.0064,34.5948],[-120.0008,34.5905],[-119.9957,34.5901],[-119.9845,34.5867],[-119.9795,34.5824],[-119.9684,34.5868],[-119.959,34.5882],[-119.9485,34.5833],[-119.9344,34.573],[-119.9274,34.5694],[-119.9193,34.5675],[-119.9047,34.5698],[-119.9026,34.5683],[-119.899,34.5621],[-119.8985,34.5554],[-119.894,34.5512],[-119.8916,34.5518],[-119.888,34.5595],[-119.8831,34.5602],[-119.8755,34.5505],[-119.8712,34.5486],[-119.8665,34.5488],[-119.8635,34.5431],[-119.8598,34.5441],[-119.8571,34.5472],[-119.8539,34.5475],[-119.8434,34.5451],[-119.833,34.5465],[-119.8267,34.544],[-119.819,34.5489],[-119.816,34.547],[-119.8142,34.5436],[-119.8052,34.5449],[-119.7987,34.5429],[-119.7952,34.5471],[-119.7836,34.5433],[-119.7821,34.5439],[-119.7808,34.5474],[-119.7789,34.5481],[-119.7755,34.5447],[-119.7682,34.5426],[-119.7649,34.54],[-119.7614,34.5401],[-119.7625,34.5376],[-119.7583,34.5369],[-119.7573,34.5298],[-119.7547,34.5294],[-119.7546,34.5319],[-119.751,34.5289],[-119.7552,34.5269],[-119.7532,34.5252],[-119.7499,34.5256],[-119.7486,34.5245],[-119.7541,34.5225],[-119.7539,34.5207],[-119.7552,34.5199],[-119.7529,34.519],[-119.7504,34.5218],[-119.7496,34.521],[-119.7513,34.5187],[-119.7492,34.5196],[-119.753,34.5158],[-119.7495,34.5152],[-119.7523,34.5127],[-119.7517,34.5105],[-119.754,34.5099],[-119.7548,34.5083],[-119.7528,34.5054],[-119.7452,34.5048],[-119.7421,34.5065],[-119.7411,34.5054],[-119.7335,34.5053],[-119.7329,34.5007],[-119.7227,34.5016],[-119.7194,34.5004],[-119.714,34.4954],[-119.7079,34.4954],[-119.7014,34.4933],[-119.7005,34.4941],[-119.7013,34.4956],[-119.6993,34.4963],[-119.6874,34.4907],[-119.6852,34.4922],[-119.6816,34.4912],[-119.68,34.4925],[-119.6707,34.4885],[-119.6646,34.4901],[-119.6547,34.4884],[-119.6505,34.4891],[-119.6485,34.4874],[-119.6444,34.4879],[-119.6412,34.4858],[-119.6392,34.4862],[-119.6389,34.4843],[-119.6341,34.4832],[-119.6286,34.4852],[-119.6216,34.4821],[-119.6186,34.4821],[-119.6143,34.4788],[-119.6099,34.4778],[-119.6041,34.4793],[-119.601,34.4776],[-119.6016,34.4761],[-119.5979,34.4753],[-119.5893,34.4801],[-119.5854,34.4797],[-119.5815,34.4813],[-119.5745,34.4813],[-119.5727,34.4797],[-119.5693,34.482],[-119.5678,34.4806],[-119.5672,34.477],[-119.5655,34.4797],[-119.5638,34.4799],[-119.5665,34.4822],[-119.5652,34.4829],[-119.566,34.4857],[-119.5594,34.4866],[-119.5516,34.4859],[-119.5511,34.488],[-119.5492,34.4886],[-119.547,34.4869],[-119.5461,34.4886],[-119.543,34.4865],[-119.5341,34.4885],[-119.5279,34.4867],[-119.5169,34.4893],[-119.5166,34.4913],[-119.5185,34.4936],[-119.5146,34.4944],[-119.5122,34.4921],[-119.5131,34.4907],[-119.5111,34.4907],[-119.5092,34.4889],[-119.5079,34.4893],[-119.5093,34.4913],[-119.508,34.4925],[-119.5024,34.4887],[-119.4933,34.4877],[-119.4913,34.489],[-119.483,34.4887],[-119.4777,34.4903],[-119.4759,34.489],[-119.4702,34.4922],[-119.461,34.4905],[-119.4424,34.4909],[-119.4437,34.9012],[-119.4904,34.9012],[-119.4905,34.8975],[-119.5358,34.8976],[-119.563,34.9148],[-119.5799,34.9228],[-119.5861,34.9273],[-119.5925,34.9351],[-119.6131,34.9495],[-119.6169,34.9506],[-119.6248,34.9492],[-119.6349,34.9539],[-119.6443,34.9536],[-119.6467,34.9569],[-119.6525,34.9599],[-119.6553,34.9638],[-119.6643,34.9699],[-119.6732,34.9735],[-119.6786,34.9718],[-119.6846,34.9721],[-119.6932,34.9737],[-119.7006,34.9767],[-119.7085,34.9755],[-119.7186,34.9715],[-119.7247,34.9736],[-119.727,34.9761],[-119.7293,34.9746],[-119.7401,34.9731],[-119.7456,34.9737],[-119.755,34.98],[-119.7639,34.9821],[-119.7804,34.9907],[-119.7872,34.9882],[-119.7973,34.9923],[-119.8004,34.9953],[-119.801,34.9989],[-119.8039,34.9976],[-119.8099,35.0021],[-119.8111,35.0007],[-119.8132,35.0007],[-119.8244,35.005],[-119.8308,35.0058],[-119.8412,35.015],[-119.8442,35.0155],[-119.848,35.0254],[-119.8515,35.0276],[-119.8515,35.0307],[-119.8545,35.0321],[-119.8633,35.0314],[-119.866,35.0351],[-119.8751,35.0357],[-119.8783,35.0397],[-119.883,35.0393],[-119.8897,35.0406],[-119.902,35.0358],[-119.9019,35.039],[-119.9071,35.0379],[-119.9069,35.0392],[-119.9103,35.0396],[-119.9083,35.0436],[-119.9121,35.0447],[-119.9094,35.046],[-119.9173,35.049],[-119.9184,35.0531],[-119.9218,35.0525],[-119.9262,35.0562],[-119.926,35.0583],[-119.9284,35.0598],[-119.9316,35.0563],[-119.939,35.055],[-119.9379,35.0571],[-119.9399,35.058],[-119.9427,35.0544],[-119.9451,35.0546],[-119.9456,35.0561],[-119.9492,35.0559],[-119.9488,35.0572],[-119.9522,35.0573],[-119.9543,35.0546],[-119.9559,35.0549],[-119.9558,35.0572],[-119.9607,35.0557],[-119.9619,35.0583],[-119.965,35.0588],[-119.9669,35.0563],[-119.9709,35.0588],[-119.9757,35.0583],[-119.9779,35.0595],[-119.9801,35.0576],[-119.9813,35.0583],[-119.9796,35.0591],[-119.9797,35.0619],[-119.9825,35.0612],[-119.9886,35.0649],[-119.9895,35.0635],[-119.9926,35.0629],[-120.002,35.0732],[-120.0056,35.0718],[-120.0098,35.0753],[-120.0136,35.0756],[-120.014,35.0814],[-120.0183,35.0824],[-120.0233,35.0803],[-120.0249,35.081],[-120.0241,35.084],[-120.0258,35.0848],[-120.0293,35.0836],[-120.0328,35.0878],[-120.0396,35.0892],[-120.0419,35.0859],[-120.044,35.086],[-120.0485,35.0899],[-120.0599,35.093],[-120.0612,35.0954],[-120.0673,35.0968],[-120.072,35.1018],[-120.0724,35.1047],[-120.0807,35.1049],[-120.0838,35.1065],[-120.0858,35.1092],[-120.0793,35.1127],[-120.081,35.1145],[-120.0883,35.113],[-120.0932,35.1142],[-120.0957,35.1127],[-120.097,35.1096],[-120.0992,35.1098],[-120.0994,35.1126],[-120.1022,35.1134],[-120.1023,35.1084],[-120.1083,35.1089],[-120.1074,35.1047],[-120.1096,35.1035],[-120.1127,35.1035],[-120.1158,35.1067],[-120.117,35.1066],[-120.1167,35.1044],[-120.1197,35.1029],[-120.1184,35.101],[-120.1193,35.0984],[-120.1222,35.0978],[-120.1227,35.0995],[-120.1244,35.0997],[-120.1276,35.0909],[-120.1305,35.0915],[-120.13,35.0961],[-120.1322,35.0954],[-120.136,35.0979],[-120.1383,35.0942],[-120.1432,35.0957],[-120.1434,35.0936],[-120.1415,35.0911],[-120.1443,35.0905],[-120.1453,35.0882],[-120.1442,35.0868],[-120.1409,35.0868],[-120.1429,35.0822],[-120.149,35.0845],[-120.1494,35.0815],[-120.1553,35.082],[-120.1556,35.0781],[-120.1676,35.0753],[-120.1717,35.0703],[-120.1746,35.0702],[-120.1746,35.0689],[-120.1728,35.0685],[-120.1739,35.0657],[-120.1729,35.0643],[-120.1801,35.0616],[-120.1806,35.0547],[-120.1849,35.0491],[-120.1819,35.0435],[-120.1832,35.0422],[-120.1803,35.0393],[-120.1805,35.038],[-120.1864,35.0366],[-120.1882,35.0339],[-120.1884,35.0304],[-120.2031,35.0287],[-120.2048,35.0255],[-120.2103,35.0238],[-120.2096,35.0215],[-120.2079,35.0223],[-120.2058,35.0193],[-120.2067,35.0107],[-120.2056,35.0055],[-120.1988,34.994],[-120.1968,34.9927],[-120.1968,34.9913],[-120.1962,34.9924],[-120.1953,34.9918],[-120.1965,34.9884],[-120.1981,34.9878],[-120.1968,34.987],[-120.1976,34.9849],[-120.1958,34.9833],[-120.1931,34.9845],[-120.1962,34.9802],[-120.1986,34.9812],[-120.2027,34.9861],[-120.2055,34.9876],[-120.2066,34.9866],[-120.2055,34.9818],[-120.2068,34.9798],[-120.2085,34.9805],[-120.2086,34.9781],[-120.2115,34.9757],[-120.2168,34.9571],[-120.2197,34.9537],[-120.2259,34.9504],[-120.23,34.9443],[-120.2279,34.9419],[-120.2273,34.938],[-120.2217,34.9319],[-120.2201,34.9226],[-120.2266,34.9105],[-120.2283,34.8998],[-120.2328,34.8916],[-120.2333,34.8879],[-120.2415,34.8745],[-120.2448,34.8731],[-120.2487,34.8681],[-120.258,34.8614]]]},"properties":{"GEOID":"0608390630","BASENAME":"Cuyama","NAME":"Cuyama CCD","COUNTY":"083","COUSUB":"90630"}},{"type":"Feature","geometry":{"type":"MultiPolygon","coordinates":[[[[-120.5823,34.1075],[-120.5815,34.0915],[-120.5738,34.076],[-120.567,34.0686],[-120.5594,34.0624],[-120.5501,34.0573],[-120.5311,34.0517],[-120.5234,34.0511],[-120.5265,34.0415],[-120.5259,34.033],[-120.5231,34.0228],[-120.5188,34.0141],[-120.5062,34],[-120.501,33.9963],[-120.4977,33.9912],[-120.4882,33.9843],[-120.4808,33.9803],[-120.4668,33.9761],[-120.4462,33.9774],[-120.4322,33.9747],[-120.4226,33.9749],[-120.4118,33.977],[-120.3956,33.9674],[-120.3671,33.961],[-120.3469,33.9635],[-120.3323,33.9684],[-120.327,33.9667],[-120.3174,33.9664],[-120.3082,33.9664],[-120.299,33.9685],[-120.28,33.9539],[-120.2794,33.9487],[-120.2731,33.9296],[-120.2645,33.9189],[-120.251,33.9084],[-120.2387,33.9041],[-120.2296,33.8923],[-120.2211,33.8842],[-120.1995,33.875],[-120.1934,33.8685],[-120.1882,33.8664],[-120.183,33.8663],[-120.1703,33.8574],[-120.1571,33.8534],[-120.1496,33.848],[-120.1399,33.8448],[-120.1173,33.8416],[-120.1041,33.8424],[-120.0801,33.8505],[-120.0706,33.8565],[-120.0479,33.8636],[-120.0345,33.8645],[-120.0278,33.8665],[-120.0193,33.8706],[-120.0154,33.8751],[-120.0086,33.8788],[-120.001,33.8852],[-119.9808,33.8923],[-119.9724,33.8914],[-119.9627,33.8924],[-119.9503,33.8944],[-119.9392,33.8986],[-119.9288,33.9055],[-119.9189,33.9144],[-119.911,33.9239],[-119.9067,33.9324],[-119.9048,33.9397],[-119.8962,33.9357],[-119.8841,33.926],[-119.862,33.9108],[-119.8552,33.9075],[-119.8344,33.9008],[-119.8232,33.8994],[-119.8102,33.9013],[-119.7894,33.9101],[-119.7783,33.9106],[-119.7728,33.9124],[-119.7586,33.9108],[-119.7413,33.9126],[-119.7314,33.9103],[-119.7075,33.9104],[-119.6876,33.9156],[-119.6806,33.9195],[-119.6691,33.9231],[-119.6612,33.9283],[-119.6536,33.9301],[-119.6367,33.9383],[-119.626,33.936],[-119.6021,33.9368],[-119.5907,33.9396],[-119.5724,33.9411],[-119.5633,33.945],[-119.5505,33.945],[-119.5389,33.9477],[-119.5233,33.9549],[-119.5122,33.9622],[-119.501,33.9715],[-119.4923,33.9832],[-119.4681,34.0631],[-119.4773,34.0718],[-119.4888,34.0792],[-119.4975,34.0828],[-119.5121,34.0935],[-119.5384,34.1054],[-119.5483,34.1078],[-119.5655,34.1088],[-119.5741,34.1081],[-119.582,34.1057],[-119.5999,34.104],[-119.6143,34.0994],[-119.6452,34.0801],[-119.6549,34.0712],[-119.693,34.0949],[-119.7095,34.1007],[-119.726,34.1021],[-119.751,34.1126],[-119.751,34.1117],[-119.769,34.1119],[-119.7926,34.1064],[-119.8292,34.1187],[-119.8521,34.121],[-119.876,34.1262],[-119.8942,34.1258],[-119.9056,34.1294],[-119.9134,34.1301],[-119.9288,34.1299],[-119.9478,34.125],[-119.9655,34.1126],[-119.9724,34.1033],[-119.9744,34.0967],[-119.9819,34.0894],[-119.9916,34.0649],[-120.001,34.0768],[-120.001,34.0787],[-120.0102,34.084],[-120.0195,34.0877],[-120.0452,34.0906],[-120.0633,34.0897],[-120.0803,34.0864],[-120.1029,34.0745],[-120.1201,34.0789],[-120.135,34.0788],[-120.1711,34.0733],[-120.1855,34.0662],[-120.1941,34.0587],[-120.1976,34.0581],[-120.2104,34.0609],[-120.2249,34.0613],[-120.2528,34.058],[-120.2624,34.0651],[-120.2716,34.0741],[-120.2743,34.0818],[-120.2847,34.0948],[-120.2978,34.1041],[-120.3117,34.1095],[-120.3211,34.1105],[-120.3243,34.1138],[-120.3386,34.1217],[-120.3427,34.1315],[-120.3505,34.1415],[-120.3552,34.145],[-120.3687,34.151],[-120.4012,34.1587],[-120.4188,34.1606],[-120.4327,34.1575],[-120.4491,34.1506],[-120.4717,34.1341],[-120.4814,34.1422],[-120.4974,34.1499],[-120.516,34.1528],[-120.5381,34.1503],[-120.561,34.1407],[-120.5678,34.1356],[-120.5751,34.1265],[-120.5791,34.1186],[-120.5823,34.1075]]],[[[-119.1172,33.5056],[-119.1189,33.5],[-119.1072,33.5],[-119.1097,33.4623],[-119.1089,33.4512],[-119.1062,33.445],[-119.1008,33.4352],[-119.0941,33.4269],[-119.0865,33.4214],[-119.0719,33.4138],[-119.0531,33.411],[-119.027,33.4129],[-119.0095,33.4168],[-119.0009,33.4213],[-119.0009,33.4185],[-118.9887,33.4234],[-118.9785,33.4311],[-118.9638,33.4668],[-118.9628,33.4852],[-118.966,33.5],[-118.971,33.5107],[-118.9821,33.5243],[-118.99,33.5303],[-119.0009,33.5359],[-119.0174,33.5392],[-119.0307,33.5401],[-119.0566,33.536],[-119.0662,33.5367],[-119.0765,33.5351],[-119.0905,33.5303],[-119.1042,33.5229],[-119.1117,33.5155],[-119.1172,33.5056]]],[[[-120.2309,34.4973],[-120.2302,34.4952],[-120.226,34.4917],[-120.2262,34.4881],[-120.2304,34.4829],[-120.2273,34.4755],[-120.2245,34.4736],[-120.2187,34.4734],[-120.2195,34.4708],[-120.2255,34.4706],[-120.2255,34.419],[-120.2055,34.4221],[-120.1842,34.42],[-120.1764,34.4209],[-120.1636,34.4204],[-120.1473,34.4229],[-120.1351,34.4221],[-120.1083,34.4129],[-120.0907,34.4093],[-120.0831,34.4094],[-120.0764,34.4111],[-120.0703,34.4098],[-120.0568,34.4099],[-120.0448,34.4125],[-120.0361,34.4099],[-120.0244,34.4093],[-120.0094,34.4015],[-119.9234,34.3735],[-119.9165,34.3726],[-119.9054,34.3644],[-119.8915,34.3575],[-119.876,34.3556],[-119.8659,34.3572],[-119.8553,34.3543],[-119.8379,34.3543],[-119.8231,34.357],[-119.8058,34.3653],[-119.7971,34.3653],[-119.7855,34.3599],[-119.7636,34.3529],[-119.732,34.3397],[-119.7161,34.3361],[-119.7076,34.3373],[-119.6978,34.3409],[-119.6661,34.3545],[-119.6514,34.3667],[-119.626,34.3662],[-119.6175,34.3687],[-119.6123,34.3674],[-119.6125,34.4222],[-119.6109,34.4239],[-119.6086,34.4239],[-119.6043,34.4295],[-119.5983,34.4324],[-119.5849,34.4345],[-119.5842,34.4363],[-119.5768,34.4362],[-119.5783,34.4433],[-119.5759,34.4534],[-119.5831,34.4586],[-119.5838,34.4604],[-119.5851,34.4596],[-119.5871,34.4605],[-119.5867,34.4628],[-119.5888,34.4638],[-119.5897,34.4669],[-119.5891,34.4692],[-119.5866,34.4701],[-119.5925,34.4734],[-119.5936,34.4727],[-119.5929,34.4715],[-119.5964,34.4711],[-119.5941,34.4694],[-119.5965,34.4646],[-119.5994,34.4657],[-119.602,34.4633],[-119.6044,34.4674],[-119.6016,34.4679],[-119.6028,34.47],[-119.596,34.4756],[-119.6016,34.4761],[-119.6009,34.4775],[-119.602,34.4786],[-119.6045,34.4794],[-119.6101,34.4778],[-119.6143,34.4788],[-119.6186,34.4821],[-119.6216,34.4821],[-119.6286,34.4852],[-119.6331,34.4833],[-119.6369,34.4836],[-119.639,34.4844],[-119.6392,34.4862],[-119.6412,34.4858],[-119.6444,34.4879],[-119.6485,34.4874],[-119.6505,34.4891],[-119.6547,34.4884],[-119.6646,34.4901],[-119.6707,34.4885],[-119.6799,34.4925],[-119.6816,34.4912],[-119.685,34.4923],[-119.6873,34.4907],[-119.69,34.4912],[-119.6993,34.4963],[-119.7013,34.4956],[-119.7005,34.4941],[-119.7014,34.4933],[-119.7079,34.4954],[-119.7129,34.4952],[-119.7194,34.5004],[-119.7227,34.5016],[-119.7332,34.5008],[-119.7335,34.5053],[-119.7411,34.5054],[-119.7421,34.5065],[-119.7451,34.5048],[-119.7515,34.5059],[-119.754,34.5046],[-119.7561,34.507],[-119.763,34.5074],[-119.7676,34.506],[-119.7689,34.5088],[-119.7719,34.5084],[-119.78,34.517],[-119.7879,34.5195],[-119.794,34.5181],[-119.7921,34.5152],[-119.7935,34.514],[-119.7959,34.5161],[-119.7972,34.5136],[-119.8031,34.5143],[-119.8059,34.5108],[-119.8099,34.5122],[-119.8104,34.5109],[-119.8228,34.5112],[-119.8229,34.5097],[-119.8138,34.5048],[-119.8179,34.5043],[-119.8193,34.5053],[-119.8185,34.5042],[-119.8202,34.5032],[-119.8243,34.5038],[-119.8297,34.5028],[-119.8322,34.5005],[-119.8442,34.4998],[-119.8526,34.5026],[-119.8602,34.5007],[-119.8636,34.5013],[-119.8656,34.5031],[-119.8652,34.5065],[-119.8672,34.5081],[-119.8714,34.5072],[-119.8711,34.5052],[-119.8729,34.5076],[-119.8786,34.5091],[-119.8792,34.5107],[-119.887,34.5123],[-119.8891,34.5153],[-119.8961,34.5178],[-119.8987,34.5208],[-119.9147,34.5204],[-119.9209,34.5253],[-119.9285,34.5234],[-119.9299,34.5261],[-119.9325,34.5274],[-119.9432,34.5269],[-119.9448,34.5276],[-119.9456,34.5309],[-119.9469,34.5306],[-119.9464,34.5277],[-119.9473,34.5269],[-119.9536,34.5262],[-119.9596,34.5229],[-119.9664,34.5259],[-119.9738,34.5263],[-119.9791,34.5248],[-119.985,34.5294],[-119.9935,34.5312],[-120.0066,34.5278],[-120.0159,34.5325],[-120.0206,34.5321],[-120.0232,34.5341],[-120.027,34.5329],[-120.034,34.5339],[-120.0338,34.5295],[-120.0436,34.5355],[-120.0506,34.5372],[-120.0541,34.5334],[-120.0576,34.5354],[-120.0594,34.5326],[-120.0621,34.5336],[-120.0629,34.5321],[-120.0657,34.5315],[-120.0682,34.5281],[-120.0824,34.5301],[-120.0906,34.5282],[-120.0948,34.5298],[-120.1048,34.5232],[-120.1136,34.5196],[-120.1277,34.5204],[-120.1299,34.5229],[-120.1334,34.5201],[-120.1406,34.5185],[-120.148,34.5173],[-120.1525,34.5192],[-120.1542,34.5171],[-120.1634,34.5153],[-120.1667,34.5131],[-120.1678,34.5138],[-120.1708,34.5126],[-120.1712,34.5137],[-120.1775,34.5099],[-120.1959,34.5065],[-120.1981,34.505],[-120.2052,34.5046],[-120.2122,34.5075],[-120.2186,34.5078],[-120.2263,34.5047],[-120.2309,34.4973]]]]},"properties":{"GEOID":"0608392890","BASENAME":"Santa Barbara","NAME":"Santa Barbara CCD","COUNTY":"083","COUSUB":"92890"}},{"type":"Feature","geometry":{"type":"Polygon","coordinates":[[[-120.7343,34.9048],[-120.7343,34.9007],[-120.6721,34.9021],[-120.6668,34.9003],[-120.668,34.8979],[-120.6668,34.8972],[-120.6642,34.9003],[-120.6577,34.901],[-120.6525,34.8997],[-120.6493,34.9012],[-120.6452,34.8985],[-120.6425,34.8938],[-120.6423,34.891],[-120.64,34.8895],[-120.6392,34.8937],[-120.6421,34.8978],[-120.642,34.9006],[-120.6453,34.9001],[-120.6453,34.907],[-120.6345,34.9026],[-120.6257,34.9017],[-120.6212,34.9027],[-120.6158,34.8991],[-120.6081,34.8983],[-120.6068,34.8962],[-120.5955,34.8921],[-120.5611,34.848],[-120.55,34.829],[-120.5513,34.8276],[-120.549,34.8278],[-120.5331,34.836],[-120.5277,34.8371],[-120.5253,34.8425],[-120.5223,34.8685],[-120.5118,34.8776],[-120.5039,34.8774],[-120.5003,34.8786],[-120.491,34.8884],[-120.4896,34.9091],[-120.4896,34.9554],[-120.5084,34.957],[-120.5139,34.9893],[-120.5386,34.9838],[-120.5439,34.9794],[-120.5471,34.9788],[-120.5549,34.9739],[-120.5655,34.9773],[-120.5752,34.9783],[-120.5823,34.9723],[-120.5855,34.9672],[-120.5955,34.9665],[-120.6022,34.9727],[-120.6131,34.9713],[-120.6163,34.9659],[-120.6289,34.9629],[-120.6341,34.9596],[-120.6491,34.9746],[-120.7028,35],[-120.7144,34.9635],[-120.7203,34.9563],[-120.7268,34.9438],[-120.7285,34.9316],[-120.7272,34.9233],[-120.7319,34.9143],[-120.7343,34.9048]]]},"properties":{"GEOID":"0608391200","BASENAME":"Guadalupe","NAME":"Guadalupe CCD","COUNTY":"083","COUSUB":"91200"}},{"type":"Feature","geometry":{"type":"Polygon","coordinates":[[[-120.5273,34.8377],[-120.5245,34.8377],[-120.5246,34.8315],[-120.4722,34.8306],[-120.4725,34.8118],[-120.4483,34.8115],[-120.4444,34.8032],[-120.4398,34.7745],[-120.4551,34.7721],[-120.4552,34.7613],[-120.4525,34.7608],[-120.4405,34.7637],[-120.4328,34.7672],[-120.4287,34.7727],[-120.4261,34.7675],[-120.4056,34.7592],[-120.3921,34.7588],[-120.3654,34.7546],[-120.3381,34.7565],[-120.3187,34.7522],[-120.3138,34.7493],[-120.2863,34.7451],[-120.2953,34.7552],[-120.2937,34.7625],[-120.2923,34.7644],[-120.2883,34.7658],[-120.2774,34.7648],[-120.2661,34.7725],[-120.2622,34.7789],[-120.2624,34.7932],[-120.2635,34.7943],[-120.2623,34.7959],[-120.2632,34.797],[-120.2601,34.7992],[-120.2583,34.8072],[-120.2594,34.8099],[-120.2641,34.81],[-120.2662,34.8118],[-120.2702,34.811],[-120.2764,34.8136],[-120.2814,34.8142],[-120.2832,34.8172],[-120.2875,34.8193],[-120.2797,34.8248],[-120.2679,34.824],[-120.2662,34.8252],[-120.2669,34.8288],[-120.2727,34.8352],[-120.2765,34.8422],[-120.2773,34.8586],[-120.2728,34.8579],[-120.2639,34.8536],[-120.2597,34.8533],[-120.2597,34.8598],[-120.2487,34.8681],[-120.2448,34.8731],[-120.2415,34.8745],[-120.2333,34.8879],[-120.2328,34.8916],[-120.2283,34.8998],[-120.2266,34.9105],[-120.2199,34.9232],[-120.2217,34.932],[-120.2273,34.938],[-120.2279,34.9419],[-120.23,34.9443],[-120.2259,34.9504],[-120.2197,34.9537],[-120.2168,34.9571],[-120.2115,34.9757],[-120.2086,34.9781],[-120.2085,34.9805],[-120.2068,34.9798],[-120.2055,34.9818],[-120.2066,34.9866],[-120.2055,34.9876],[-120.2027,34.9861],[-120.1986,34.9812],[-120.1962,34.9802],[-120.1931,34.9845],[-120.1958,34.9833],[-120.1976,34.9849],[-120.1968,34.987],[-120.1981,34.9878],[-120.1964,34.9885],[-120.1954,34.992],[-120.1968,34.9913],[-120.2063,35.0071],[-120.2059,35.0194],[-120.2079,35.0223],[-120.2112,35.0205],[-120.2158,35.0226],[-120.2209,35.0211],[-120.2246,35.0227],[-120.2318,35.0205],[-120.233,35.0236],[-120.2407,35.0224],[-120.2477,35.0265],[-120.25,35.0301],[-120.2527,35.0281],[-120.2548,35.021],[-120.2575,35.0176],[-120.2588,35.0177],[-120.2613,35.0214],[-120.2599,35.0259],[-120.2614,35.0266],[-120.2666,35.0213],[-120.2737,35.0208],[-120.2771,35.0176],[-120.2786,35.0116],[-120.2902,35.0154],[-120.3099,35.0092],[-120.3238,35.0173],[-120.3345,35.0063],[-120.3354,35.0035],[-120.3334,34.9948],[-120.3263,34.9857],[-120.319,34.986],[-120.316,34.984],[-120.3144,34.98],[-120.3161,34.9766],[-120.3156,34.9749],[-120.3083,34.9703],[-120.3019,34.9634],[-120.304,34.9589],[-120.3038,34.9561],[-120.3022,34.9537],[-120.2959,34.9497],[-120.2945,34.9466],[-120.2922,34.9303],[-120.2935,34.9248],[-120.3002,34.9154],[-120.2988,34.9094],[-120.2994,34.9071],[-120.3109,34.9038],[-120.3183,34.907],[-120.3245,34.9193],[-120.3244,34.9222],[-120.3359,34.9311],[-120.3402,34.9338],[-120.3459,34.9352],[-120.3548,34.9405],[-120.3612,34.9465],[-120.436,34.9871],[-120.4442,34.9888],[-120.4962,34.9932],[-120.5139,34.9893],[-120.5084,34.957],[-120.4896,34.9554],[-120.4906,34.8903],[-120.4918,34.8873],[-120.5003,34.8786],[-120.5039,34.8774],[-120.5118,34.8776],[-120.5223,34.8685],[-120.5253,34.8425],[-120.5273,34.8377]]]},"properties":{"GEOID":"0608392908","BASENAME":"Santa Maria","NAME":"Santa Maria CCD","COUNTY":"083","COUSUB":"92908"}}]}