{"type":"FeatureCollection","features":[{"type":"Feature","geometry":{"type":"Polygon","coordinates":[[[-122.1942,37.4091],[-122.189,37.4064],[-122.1756,37.3933],[-122.1544,37.387],[-122.1504,37.3783],[-122.1395,37.3678],[-122.1226,37.3633],[-122.1161,37.3561],[-122.1078,37.3531],[-122.1031,37.3482],[-122.0787,37.334],[-122.0685,37.3342],[-122.0714,37.3322],[-122.0721,37.327],[-122.0754,37.3235],[-122.0783,37.3231],[-122.0815,37.3205],[-122.0936,37.3061],[-122.0962,37.3009],[-122.0899,37.3006],[-122.0872,37.2973],[-122.0806,37.2944],[-122.0799,37.2882],[-122.0779,37.2879],[-122.0773,37.2844],[-122.0753,37.2838],[-122.0751,37.2817],[-122.071,37.279],[-122.0718,37.2775],[-122.0709,37.2782],[-122.0696,37.2753],[-122.0678,37.2751],[-122.0679,37.2654],[-122.0791,37.2654],[-122.0835,37.2619],[-122.0838,37.2586],[-122.0753,37.261],[-122.0681,37.2578],[-122.0643,37.2521],[-122.0577,37.2524],[-122.0532,37.251],[-122.0488,37.252],[-122.0529,37.2508],[-122.0551,37.2456],[-122.0482,37.2396],[-122.0485,37.2371],[-122.0459,37.2317],[-122.0409,37.2332],[-122.0377,37.2314],[-122.039,37.2304],[-122.0399,37.2265],[-122.0368,37.2242],[-122.0372,37.2232],[-122.0334,37.2196],[-122.0333,37.2178],[-122.0285,37.2174],[-122.0252,37.215],[-122.0247,37.2158],[-122.0123,37.2144],[-122.0077,37.2123],[-122.0054,37.2081],[-122.0008,37.2044],[-121.9949,37.202],[-121.992,37.2035],[-121.993,37.198],[-121.9914,37.1982],[-121.9917,37.2004],[-121.9901,37.2014],[-121.9853,37.2008],[-121.9833,37.1989],[-121.9806,37.201],[-121.9722,37.2033],[-121.9555,37.1978],[-121.9282,37.1947],[-121.9279,37.1971],[-121.9236,37.2008],[-121.922,37.2047],[-121.9136,37.2109],[-121.9124,37.2136],[-121.9094,37.2127],[-121.9069,37.2106],[-121.9047,37.2109],[-121.8995,37.2065],[-121.897,37.2066],[-121.8965,37.2043],[-121.884,37.2019],[-121.8801,37.1985],[-121.8783,37.1986],[-121.8727,37.1949],[-121.8733,37.1926],[-121.8713,37.1845],[-121.8735,37.1811],[-121.8696,37.1827],[-121.8634,37.1798],[-121.8662,37.1781],[-121.8644,37.1776],[-121.8607,37.1696],[-121.8584,37.1673],[-121.8428,37.1609],[-121.8401,37.1628],[-121.8314,37.1624],[-121.8293,37.1584],[-121.8211,37.1503],[-121.8235,37.1464],[-121.8208,37.144],[-121.8238,37.1386],[-121.8172,37.1427],[-121.8148,37.1517],[-121.8131,37.1538],[-121.808,37.1527],[-121.805,37.1531],[-121.8019,37.1564],[-121.7992,37.1554],[-121.7997,37.1569],[-121.7987,37.1571],[-121.8034,37.166],[-121.7998,37.1682],[-121.7986,37.171],[-121.7965,37.1723],[-121.7879,37.1719],[-121.7837,37.1754],[-121.7852,37.1755],[-121.7853,37.1788],[-121.7796,37.179],[-121.7824,37.1795],[-121.7827,37.1812],[-121.7843,37.1806],[-121.7819,37.1828],[-121.7761,37.1825],[-121.7764,37.1839],[-121.7733,37.1833],[-121.7738,37.1814],[-121.7673,37.1782],[-121.766,37.1797],[-121.7638,37.1775],[-121.7656,37.1806],[-121.7612,37.1817],[-121.7589,37.1723],[-121.7556,37.1679],[-121.7556,37.1644],[-121.7495,37.1599],[-121.7489,37.1521],[-121.7408,37.1483],[-121.7381,37.145],[-121.7357,37.1399],[-121.7365,37.1358],[-121.7333,37.1265],[-121.7206,37.1272],[-121.7128,37.1234],[-121.7082,37.1243],[-121.7012,37.1314],[-121.7002,37.1366],[-121.6981,37.1393],[-121.6976,37.1435],[-121.6991,37.1454],[-121.6959,37.1452],[-121.6902,37.1516],[-121.6675,37.167],[-121.6866,37.1857],[-121.7058,37.1992],[-121.7219,37.2085],[-121.7308,37.2171],[-121.7475,37.2295],[-121.7464,37.2319],[-121.7398,37.235],[-121.7294,37.235],[-121.7267,37.2376],[-121.7184,37.2369],[-121.7334,37.2488],[-121.7276,37.2641],[-121.717,37.2855],[-121.71,37.2911],[-121.7114,37.2971],[-121.7106,37.3015],[-121.741,37.3538],[-121.7459,37.3607],[-121.7539,37.3638],[-121.7541,37.3655],[-121.7602,37.3688],[-121.7598,37.3699],[-121.762,37.3701],[-121.7625,37.3721],[-121.7667,37.3753],[-121.772,37.383],[-121.7752,37.385],[-121.7793,37.3844],[-121.7829,37.3868],[-121.7841,37.3954],[-121.7865,37.3986],[-121.7862,37.4009],[-121.791,37.4021],[-121.792,37.4035],[-121.7908,37.4053],[-121.7851,37.4037],[-121.7819,37.4046],[-121.8083,37.4344],[-121.813,37.4334],[-121.8199,37.4355],[-121.8245,37.4327],[-121.8235,37.4319],[-121.8308,37.4319],[-121.833,37.4294],[-121.8302,37.4252],[-121.8312,37.4232],[-121.8415,37.421],[-121.8472,37.4185],[-121.8512,37.422],[-121.8543,37.4211],[-121.8551,37.4183],[-121.8572,37.421],[-121.8611,37.422],[-121.8646,37.4335],[-121.8727,37.4382],[-121.8683,37.4392],[-121.8638,37.4437],[-121.8577,37.446],[-121.8604,37.4498],[-121.8602,37.4524],[-121.8664,37.4568],[-121.8635,37.4582],[-121.8696,37.4614],[-121.8687,37.4626],[-121.8702,37.464],[-121.8694,37.4655],[-121.8716,37.4665],[-121.8697,37.4689],[-121.8651,37.4697],[-121.8666,37.4739],[-121.8602,37.4727],[-121.8625,37.4756],[-121.8623,37.482],[-121.8638,37.4831],[-121.8634,37.4846],[-121.8699,37.4817],[-121.8746,37.4758],[-121.8775,37.4752],[-121.8812,37.4711],[-121.8877,37.4709],[-121.8909,37.468],[-121.8977,37.467],[-121.9113,37.4622],[-121.9109,37.4615],[-121.925,37.4542],[-121.9278,37.4553],[-121.9284,37.4574],[-121.9326,37.4551],[-121.9327,37.4568],[-121.9311,37.4574],[-121.9312,37.4606],[-121.9347,37.4605],[-121.936,37.4629],[-121.9392,37.4625],[-121.9411,37.4649],[-121.9442,37.4658],[-121.9449,37.4692],[-121.9471,37.4674],[-121.9464,37.4634],[-121.9496,37.4614],[-121.9593,37.4635],[-121.9751,37.4606],[-121.98,37.4609],[-121.9927,37.4646],[-121.9967,37.4672],[-122.0362,37.465],[-122.0478,37.459],[-122.0512,37.459],[-122.0815,37.4778],[-122.0968,37.4619],[-122.0966,37.4661],[-122.1115,37.4663],[-122.1133,37.4675],[-122.1177,37.4652],[-122.1239,37.4611],[-122.1218,37.4542],[-122.1241,37.4528],[-122.1269,37.4536],[-122.1286,37.4519],[-122.1321,37.454],[-122.1388,37.4548],[-122.1407,37.4573],[-122.1444,37.4583],[-122.1475,37.4565],[-122.1525,37.4577],[-122.1559,37.4555],[-122.1558,37.4541],[-122.1577,37.4535],[-122.1604,37.4547],[-122.1641,37.4525],[-122.1652,37.453],[-122.166,37.4508],[-122.1676,37.4508],[-122.1687,37.4474],[-122.1718,37.4467],[-122.1757,37.4419],[-122.1798,37.441],[-122.1801,37.4393],[-122.1822,37.4395],[-122.1844,37.4342],[-122.1905,37.4313],[-122.1894,37.4275],[-122.1913,37.4252],[-122.1884,37.4225],[-122.1879,37.4202],[-122.1903,37.4185],[-122.1872,37.4163],[-122.1876,37.4147],[-122.1923,37.4139],[-122.1942,37.4091]]]},"properties":{"GEOID":"0608592830","BASENAME":"San Jose","NAME":"San Jose CCD","COUNTY":"085","COUSUB":"92830"}},{"type":"Feature","geometry":{"type":"Polygon","coordinates":[[[-121.8727,37.4382],[-121.8647,37.4336],[-121.8619,37.4232],[-121.8571,37.421],[-121.8551,37.4183],[-121.853,37.4219],[-121.8509,37.4218],[-121.8473,37.4185],[-121.8415,37.421],[-121.8312,37.4232],[-121.8302,37.4252],[-121.833,37.4294],[-121.8305,37.432],[-121.8235,37.4319],[-121.8245,37.4327],[-121.8199,37.4355],[-121.813,37.4334],[-121.8083,37.4344],[-121.7819,37.4046],[-121.7851,37.4037],[-121.7908,37.4053],[-121.792,37.4035],[-121.791,37.4021],[-121.7862,37.4009],[-121.7865,37.3986],[-121.7841,37.3954],[-121.7829,37.3868],[-121.7793,37.3844],[-121.7752,37.385],[-121.772,37.383],[-121.7667,37.3753],[-121.7625,37.3721],[-121.762,37.3701],[-121.7598,37.3699],[-121.7602,37.3688],[-121.7541,37.3655],[-121.7539,37.3638],[-121.7459,37.3607],[-121.741,37.3538],[-121.7106,37.3015],[-121.7114,37.2971],[-121.71,37.2911],[-121.717,37.2855],[-121.7276,37.2641],[-121.7334,37.2488],[-121.7184,37.2369],[-121.7267,37.2376],[-121.7294,37.235],[-121.7398,37.235],[-121.7464,37.2319],[-121.7475,37.2295],[-121.7308,37.2171],[-121.7219,37.2085],[-121.7058,37.1992],[-121.6866,37.1857],[-121.6633,37.1624],[-121.659,37.1656],[-121.6554,37.1649],[-121.6518,37.1689],[-121.6499,37.1687],[-121.645,37.1644],[-121.6421,37.1642],[-121.631,37.1649],[-121.6337,37.1662],[-121.6333,37.1673],[-121.6254,37.1671],[-121.6214,37.1701],[-121.6195,37.1693],[-121.613,37.162],[-121.6039,37.1598],[-121.5952,37.1537],[-121.5899,37.1533],[-121.585,37.1546],[-121.5796,37.1535],[-121.5748,37.1458],[-121.5586,37.1317],[-121.5579,37.1285],[-121.5542,37.126],[-121.5529,37.1211],[-121.5493,37.119],[-121.5485,37.1128],[-121.5457,37.1086],[-121.5446,37.0984],[-121.5347,37.0868],[-121.5292,37.0835],[-121.5308,37.0827],[-121.5296,37.0827],[-121.527,37.0783],[-121.5114,37.0765],[-121.5023,37.0728],[-121.4999,37.0738],[-121.4971,37.0772],[-121.4913,37.0774],[-121.4887,37.0767],[-121.4898,37.0739],[-121.4884,37.0722],[-121.4834,37.0741],[-121.4778,37.0725],[-121.47,37.0601],[-121.465,37.0492],[-121.4576,37.0415],[-121.4557,37.034],[-121.4579,37.0332],[-121.4557,37.0275],[-121.4562,37.0245],[-121.4585,37.02],[-121.465,37.0154],[-121.4679,37.0072],[-121.4748,37.0076],[-121.4749,37.0041],[-121.478,37.0048],[-121.4839,37.0131],[-121.49,37.0153],[-121.4902,37.0167],[-121.4947,37.0165],[-121.488,37.0016],[-121.4861,37.0012],[-121.4712,36.978],[-121.4679,36.9768],[-121.4636,36.9783],[-121.4659,36.9821],[-121.4637,36.9849],[-121.4506,36.9889],[-121.4491,36.9882],[-121.4497,36.9861],[-121.4473,36.983],[-121.4377,36.9785],[-121.4346,36.974],[-121.4182,36.9605],[-121.2154,36.9612],[-121.2208,36.9636],[-121.2248,36.9674],[-121.2321,36.9689],[-121.2439,36.9801],[-121.2466,36.9852],[-121.2451,36.9929],[-121.2429,36.9943],[-121.2415,36.9974],[-121.2331,36.9993],[-121.2355,37.0058],[-121.237,37.0066],[-121.2363,37.0083],[-121.2382,37.0093],[-121.2333,37.0117],[-121.246,37.0256],[-121.2486,37.0337],[-121.2406,37.0318],[-121.2361,37.0369],[-121.2245,37.0397],[-121.2258,37.0521],[-121.2232,37.0552],[-121.2245,37.0562],[-121.2234,37.0575],[-121.2187,37.0571],[-121.2126,37.0551],[-121.209,37.0587],[-121.2082,37.0613],[-121.2103,37.066],[-121.2096,37.0682],[-121.2158,37.0692],[-121.2224,37.0734],[-121.2246,37.0789],[-121.2355,37.0862],[-121.242,37.0851],[-121.2455,37.0891],[-121.2426,37.0931],[-121.2384,37.0934],[-121.2304,37.0969],[-121.2305,37.1048],[-121.2255,37.1068],[-121.2263,37.1097],[-121.2238,37.1151],[-121.2213,37.1164],[-121.2173,37.123],[-121.2207,37.1247],[-121.2231,37.1286],[-121.2229,37.1313],[-121.2323,37.1399],[-121.236,37.1491],[-121.2355,37.1529],[-121.2366,37.1567],[-121.2438,37.1586],[-121.2488,37.1577],[-121.2621,37.1593],[-121.2695,37.1712],[-121.2731,37.1733],[-121.2754,37.1787],[-121.2778,37.1796],[-121.2811,37.1836],[-121.2834,37.1832],[-121.2843,37.1809],[-121.2861,37.1811],[-121.2877,37.1774],[-121.291,37.1754],[-121.2915,37.1703],[-121.2956,37.1689],[-121.2986,37.166],[-121.3026,37.1682],[-121.306,37.1666],[-121.3129,37.1701],[-121.314,37.1679],[-121.3284,37.1659],[-121.3325,37.1713],[-121.3343,37.1708],[-121.3383,37.1735],[-121.3431,37.1747],[-121.3437,37.1769],[-121.3475,37.1804],[-121.3546,37.1839],[-121.3596,37.1845],[-121.3632,37.1835],[-121.365,37.18],[-121.3722,37.177],[-121.3734,37.1737],[-121.3763,37.1725],[-121.3797,37.168],[-121.3829,37.1679],[-121.3843,37.1662],[-121.3832,37.163],[-121.384,37.1602],[-121.3816,37.1571],[-121.3836,37.1515],[-121.3911,37.1507],[-121.393,37.1482],[-121.3975,37.1506],[-121.399,37.1501],[-121.4011,37.1549],[-121.4046,37.156],[-121.4065,37.1588],[-121.4077,37.169],[-121.4134,37.1723],[-121.4104,37.1745],[-121.4111,37.1779],[-121.4088,37.1825],[-121.4115,37.1854],[-121.4105,37.192],[-121.4157,37.1996],[-121.4169,37.2113],[-121.4211,37.2148],[-121.4218,37.2213],[-121.4308,37.2275],[-121.4339,37.2263],[-121.4361,37.2294],[-121.4417,37.2311],[-121.4487,37.2373],[-121.4481,37.2395],[-121.4557,37.2494],[-121.455,37.2555],[-121.4573,37.2609],[-121.4548,37.2631],[-121.454,37.2772],[-121.4591,37.2823],[-121.4581,37.2841],[-121.454,37.2841],[-121.453,37.2867],[-121.4487,37.2903],[-121.4496,37.2939],[-121.4436,37.2966],[-121.4411,37.2939],[-121.4368,37.292],[-121.4314,37.295],[-121.4258,37.2963],[-121.4235,37.2953],[-121.4227,37.2991],[-121.4184,37.3033],[-121.4058,37.311],[-121.4075,37.3131],[-121.4094,37.3215],[-121.4119,37.3244],[-121.4102,37.3251],[-121.4111,37.3275],[-121.4091,37.3306],[-121.4207,37.3447],[-121.4194,37.352],[-121.4237,37.3588],[-121.4225,37.3631],[-121.4193,37.3644],[-121.4158,37.3759],[-121.4091,37.3807],[-121.4125,37.3894],[-121.4195,37.3907],[-121.4241,37.3936],[-121.4315,37.3942],[-121.4361,37.3961],[-121.4427,37.3928],[-121.4452,37.3933],[-121.4482,37.3917],[-121.4504,37.3925],[-121.4516,37.3946],[-121.4567,37.3955],[-121.4583,37.3981],[-121.4557,37.401],[-121.4564,37.4067],[-121.4636,37.4159],[-121.4663,37.415],[-121.4726,37.4233],[-121.4689,37.425],[-121.4703,37.4301],[-121.465,37.437],[-121.4619,37.4388],[-121.4635,37.4457],[-121.4629,37.4515],[-121.4647,37.4545],[-121.4672,37.4533],[-121.4689,37.4539],[-121.4696,37.4557],[-121.4727,37.4564],[-121.475,37.4621],[-121.4843,37.466],[-121.4868,37.4757],[-121.4834,37.4754],[-121.4777,37.4803],[-121.4745,37.4793],[-121.4726,37.4822],[-121.8634,37.4846],[-121.8638,37.4831],[-121.8623,37.482],[-121.8625,37.4756],[-121.8602,37.4727],[-121.8666,37.4739],[-121.8651,37.4697],[-121.8697,37.4689],[-121.8716,37.4665],[-121.8694,37.4655],[-121.8702,37.464],[-121.8687,37.4626],[-121.8696,37.4614],[-121.8635,37.4582],[-121.8664,37.4568],[-121.8602,37.4524],[-121.8604,37.4498],[-121.8577,37.446],[-121.8638,37.4437],[-121.8683,37.4392],[-121.8727,37.4382]]]},"properties":{"GEOID":"0608590680","BASENAME":"Diablo Range","NAME":"Diablo Range CCD","COUNTY":"085","COUSUB":"90680"}},{"type":"Feature","geometry":{"type":"Polygon","coordinates":[[[-121.8482,37.1056],[-121.843,37.1012],[-121.844,37.0976],[-121.8463,37.097],[-121.8446,37.0967],[-121.8441,37.0947],[-121.841,37.0944],[-121.838,37.0916],[-121.8342,37.0912],[-121.8304,37.0881],[-121.8242,37.0878],[-121.8236,37.086],[-121.8182,37.0837],[-121.8165,37.0804],[-121.8172,37.0779],[-121.8127,37.0754],[-121.8091,37.0693],[-121.8021,37.0679],[-121.8003,37.0655],[-121.7968,37.0638],[-121.7935,37.0643],[-121.786,37.062],[-121.7815,37.057],[-121.7761,37.0549],[-121.7753,37.053],[-121.7672,37.0533],[-121.7634,37.052],[-121.7649,37.0495],[-121.762,37.0478],[-121.7576,37.0496],[-121.7555,37.049],[-121.7464,37.0347],[-121.7398,37.0277],[-121.7266,37.0219],[-121.7258,37.0206],[-121.7283,37.0209],[-121.7287,37.0199],[-121.7308,37.0203],[-121.7304,37.0222],[-121.7313,37.0224],[-121.7362,37.0153],[-121.7278,37.0099],[-121.7266,37.0121],[-121.7188,37.0076],[-121.7296,36.9979],[-121.7283,36.9968],[-121.7298,36.9936],[-121.7342,36.9928],[-121.7349,36.9911],[-121.7387,36.99],[-121.7323,36.9897],[-121.7179,36.9956],[-121.7147,36.9931],[-121.7109,36.9931],[-121.7107,36.9897],[-121.7098,36.9906],[-121.7055,36.9894],[-121.7052,36.9862],[-121.6954,36.9851],[-121.6984,36.975],[-121.6978,36.9721],[-121.6933,36.9682],[-121.6902,36.9674],[-121.6783,36.9679],[-121.6772,36.9655],[-121.6727,36.9655],[-121.6699,36.9636],[-121.6648,36.9637],[-121.6629,36.9592],[-121.6643,36.9551],[-121.6633,36.9519],[-121.654,36.9506],[-121.6537,36.9477],[-121.6523,36.9476],[-121.6541,36.9448],[-121.6531,36.9418],[-121.6458,36.9323],[-121.641,36.9322],[-121.6423,36.9364],[-121.6371,36.9391],[-121.6319,36.9393],[-121.6305,36.9405],[-121.624,36.9385],[-121.6248,36.9405],[-121.6072,36.9261],[-121.5904,36.9262],[-121.5902,36.9193],[-121.5812,36.9193],[-121.5814,36.8992],[-121.5767,36.8936],[-121.5754,36.893],[-121.5714,36.8971],[-121.5629,36.8963],[-121.5603,36.8971],[-121.5586,36.9103],[-121.5535,36.9152],[-121.548,36.9174],[-121.5475,36.9191],[-121.5469,36.9279],[-121.5521,36.9353],[-121.5526,36.9429],[-121.5654,36.9458],[-121.5685,36.9483],[-121.5724,36.9477],[-121.5803,36.9529],[-121.5828,36.9585],[-121.5852,36.9569],[-121.5927,36.9591],[-121.5932,36.9622],[-121.6008,36.9665],[-121.6043,36.9705],[-121.6216,36.9768],[-121.6163,36.982],[-121.6164,36.9896],[-121.6134,36.9927],[-121.6116,36.9978],[-121.6133,37.003],[-121.6128,37.0077],[-121.6139,37.0085],[-121.6112,37.0102],[-121.6109,37.0119],[-121.6263,37.0117],[-121.63,37.0188],[-121.6374,37.0217],[-121.6374,37.0279],[-121.6441,37.028],[-121.6451,37.0297],[-121.6562,37.03],[-121.6574,37.0335],[-121.6532,37.0459],[-121.6541,37.0482],[-121.6606,37.0544],[-121.6629,37.0598],[-121.6534,37.085],[-121.6566,37.0853],[-121.6595,37.0888],[-121.6714,37.0949],[-121.6723,37.1018],[-121.6768,37.1071],[-121.6791,37.1074],[-121.6833,37.1108],[-121.6843,37.1133],[-121.6884,37.1147],[-121.6877,37.1162],[-121.7014,37.1193],[-121.7053,37.126],[-121.7126,37.1234],[-121.7206,37.1272],[-121.7333,37.1265],[-121.7365,37.1358],[-121.7357,37.1399],[-121.7381,37.145],[-121.7408,37.1483],[-121.7489,37.1521],[-121.7495,37.1599],[-121.7556,37.1644],[-121.7556,37.1679],[-121.7589,37.1723],[-121.7612,37.1817],[-121.7656,37.1806],[-121.7638,37.1775],[-121.766,37.1797],[-121.7673,37.1782],[-121.7738,37.1814],[-121.7733,37.1833],[-121.7764,37.1839],[-121.7761,37.1825],[-121.7818,37.1828],[-121.7843,37.1806],[-121.7827,37.1812],[-121.7824,37.1795],[-121.7796,37.179],[-121.7853,37.1788],[-121.7852,37.1755],[-121.7837,37.1754],[-121.7879,37.1719],[-121.7965,37.1723],[-121.7986,37.171],[-121.7998,37.1682],[-121.8035,37.1656],[-121.7987,37.1571],[-121.7997,37.1569],[-121.7992,37.1554],[-121.8019,37.1564],[-121.8053,37.153],[-121.8132,37.1537],[-121.8148,37.1517],[-121.8172,37.1427],[-121.8238,37.1386],[-121.8265,37.1275],[-121.8293,37.1251],[-121.8295,37.1173],[-121.8327,37.1122],[-121.8443,37.111],[-121.8456,37.1084],[-121.8419,37.1096],[-121.8444,37.1067],[-121.8482,37.1056]]]},"properties":{"GEOID":"0608591680","BASENAME":"Llagas-Uvas","NAME":"Llagas-Uvas CCD","COUNTY":"085","COUSUB":"91680"}},{"type":"Feature","geometry":{"type":"Polygon","coordinates":[[[-121.7062,37.1261],[-121.7048,37.1255],[-121.7012,37.1192],[-121.6877,37.1162],[-121.6884,37.1147],[-121.6843,37.1133],[-121.6831,37.1107],[-121.6743,37.1046],[-121.6722,37.1017],[-121.6714,37.0949],[-121.6595,37.0888],[-121.6566,37.0853],[-121.6534,37.085],[-121.6629,37.0598],[-121.6606,37.0544],[-121.6541,37.0482],[-121.6532,37.0459],[-121.6574,37.0335],[-121.6562,37.03],[-121.6451,37.0297],[-121.6441,37.028],[-121.6374,37.0279],[-121.6374,37.0217],[-121.63,37.0188],[-121.6263,37.0117],[-121.6109,37.0119],[-121.6112,37.0102],[-121.6139,37.0085],[-121.6128,37.0077],[-121.6133,37.003],[-121.6116,36.9978],[-121.6134,36.9927],[-121.6164,36.9896],[-121.6163,36.982],[-121.6216,36.9768],[-121.6043,36.9705],[-121.6008,36.9665],[-121.5932,36.9622],[-121.5927,36.9591],[-121.5852,36.9569],[-121.5828,36.9585],[-121.5803,36.9529],[-121.5724,36.9477],[-121.5685,36.9483],[-121.5654,36.9458],[-121.5526,36.9429],[-121.5521,36.9353],[-121.5469,36.9279],[-121.548,36.9174],[-121.5401,36.9207],[-121.5391,36.9229],[-121.5409,36.9252],[-121.5392,36.9273],[-121.5236,36.9371],[-121.5216,36.9402],[-121.5138,36.9452],[-121.5117,36.9493],[-121.5121,36.9526],[-121.5102,36.9541],[-121.5103,36.9565],[-121.5124,36.9588],[-121.5094,36.96],[-121.5081,36.9636],[-121.5054,36.9641],[-121.5046,36.9678],[-121.5018,36.9716],[-121.4889,36.9831],[-121.4712,36.978],[-121.4861,37.0012],[-121.488,37.0016],[-121.4947,37.0165],[-121.4902,37.0167],[-121.49,37.0153],[-121.4839,37.0131],[-121.4767,37.0039],[-121.4745,37.0043],[-121.4748,37.0076],[-121.4681,37.0071],[-121.465,37.0154],[-121.4585,37.02],[-121.4562,37.0245],[-121.4557,37.0275],[-121.4579,37.0332],[-121.4557,37.034],[-121.4585,37.0431],[-121.465,37.0492],[-121.47,37.0601],[-121.478,37.0726],[-121.4834,37.0741],[-121.4884,37.0722],[-121.4898,37.0739],[-121.4887,37.0767],[-121.4913,37.0774],[-121.4971,37.0772],[-121.4999,37.0738],[-121.5023,37.0728],[-121.5114,37.0765],[-121.5281,37.0791],[-121.5296,37.0827],[-121.5308,37.0827],[-121.5292,37.0835],[-121.5347,37.0868],[-121.5446,37.0984],[-121.5457,37.1086],[-121.5485,37.1128],[-121.5493,37.119],[-121.5529,37.1211],[-121.5542,37.126],[-121.5579,37.1285],[-121.5586,37.1317],[-121.5748,37.1458],[-121.5796,37.1535],[-121.585,37.1546],[-121.5899,37.1533],[-121.5952,37.1537],[-121.6039,37.1598],[-121.613,37.162],[-121.6195,37.1693],[-121.6214,37.1701],[-121.6254,37.1671],[-121.6333,37.1673],[-121.6337,37.1662],[-121.631,37.1649],[-121.6421,37.1642],[-121.645,37.1644],[-121.6499,37.1687],[-121.6518,37.1689],[-121.6554,37.1649],[-121.659,37.1656],[-121.6633,37.1624],[-121.6675,37.167],[-121.6902,37.1516],[-121.6959,37.1452],[-121.6991,37.1454],[-121.6976,37.1434],[-121.6981,37.1392],[-121.7002,37.1366],[-121.7002,37.1332],[-121.7062,37.1261]]]},"properties":{"GEOID":"0608593175","BASENAME":"South Santa Clara Valley","NAME":"South Santa Clara Valley CCD","COUNTY":"085","COUSUB":"93175"}},{"type":"Feature","geometry":{"type":"Polygon","coordinates":[[[-122.2026,37.3632],[-122.2024,37.36],[-122.1961,37.3513],[-122.1952,37.347],[-122.186,37.3387],[-122.1828,37.333],[-122.1751,37.3257],[-122.1785,37.3252],[-122.183,37.3273],[-122.1865,37.322],[-122.1931,37.3183],[-122.1866,37.3155],[-122.1856,37.3117],[-122.1838,37.31],[-122.1818,37.3096],[-122.1758,37.3127],[-122.1712,37.3121],[-122.1666,37.3056],[-122.1621,37.3042],[-122.1636,37.3015],[-122.1627,37.3007],[-122.1668,37.2952],[-122.1581,37.2926],[-122.1534,37.2897],[-122.1511,37.2835],[-122.1487,37.281],[-122.1505,37.2759],[-122.1484,37.2755],[-122.1442,37.2702],[-122.1358,37.2657],[-122.1317,37.2609],[-122.1284,37.2592],[-122.1239,37.2597],[-122.1216,37.2586],[-122.1056,37.2407],[-122.1042,37.2343],[-122.0995,37.2332],[-122.0934,37.2292],[-122.0927,37.2254],[-122.0898,37.2233],[-122.0788,37.223],[-122.0766,37.2202],[-122.07,37.2167],[-122.0659,37.2104],[-122.0628,37.2104],[-122.0594,37.213],[-122.0551,37.2125],[-122.0546,37.21],[-122.0475,37.2049],[-122.0441,37.2005],[-122.0319,37.2041],[-122.0286,37.2074],[-122.0303,37.2091],[-122.0288,37.2175],[-122.0333,37.2178],[-122.0334,37.2196],[-122.0372,37.2232],[-122.0368,37.2242],[-122.0399,37.2265],[-122.039,37.2304],[-122.0377,37.2314],[-122.0409,37.2332],[-122.0459,37.2317],[-122.0485,37.2371],[-122.0482,37.2396],[-122.0551,37.2456],[-122.0529,37.2508],[-122.0488,37.252],[-122.0532,37.251],[-122.0577,37.2524],[-122.0643,37.2521],[-122.0681,37.2578],[-122.0753,37.261],[-122.0838,37.2586],[-122.0835,37.2619],[-122.0791,37.2654],[-122.0679,37.2654],[-122.0678,37.2751],[-122.0696,37.2753],[-122.0709,37.2782],[-122.0718,37.2775],[-122.071,37.279],[-122.0751,37.2817],[-122.0753,37.2838],[-122.0773,37.2844],[-122.0779,37.2879],[-122.0799,37.2882],[-122.0806,37.2944],[-122.0872,37.2973],[-122.0899,37.3006],[-122.0962,37.3009],[-122.0936,37.3061],[-122.0815,37.3205],[-122.0783,37.3231],[-122.0754,37.3235],[-122.0721,37.327],[-122.0714,37.3322],[-122.0685,37.3342],[-122.0787,37.334],[-122.1031,37.3482],[-122.1078,37.3531],[-122.1161,37.3561],[-122.1226,37.3633],[-122.1395,37.3678],[-122.1504,37.3783],[-122.1544,37.387],[-122.1756,37.3933],[-122.189,37.4064],[-122.1943,37.4089],[-122.1918,37.3972],[-122.19,37.3949],[-122.1905,37.3853],[-122.2007,37.372],[-122.2026,37.3632]]]},"properties":{"GEOID":"0608593660","BASENAME":"West Santa Clara","NAME":"West Santa Clara CCD","COUNTY":"085","COUSUB":"93660"}},{"type":"Feature","geometry":{"type":"Polygon","coordinates":[[[-122.0441,37.2005],[-122.0408,37.1952],[-122.0307,37.19],[-122.0326,37.1861],[-122.0319,37.1823],[-122.0294,37.1795],[-122.0289,37.1769],[-122.0265,37.1761],[-122.0276,37.1741],[-122.0256,37.1738],[-122.0277,37.1708],[-122.0256,37.1691],[-122.0262,37.1669],[-122.0159,37.1657],[-122.0138,37.1628],[-122.009,37.1598],[-122.0025,37.1583],[-122,37.1545],[-121.9942,37.1498],[-121.9911,37.1443],[-121.9886,37.1438],[-121.9872,37.1448],[-121.9808,37.1423],[-121.9727,37.1417],[-121.9637,37.1335],[-121.9574,37.1306],[-121.942,37.1264],[-121.932,37.122],[-121.929,37.1234],[-121.9107,37.1133],[-121.9057,37.1132],[-121.9038,37.111],[-121.9011,37.1115],[-121.8948,37.1098],[-121.8948,37.1086],[-121.8923,37.1085],[-121.892,37.1071],[-121.8901,37.1066],[-121.8909,37.1053],[-121.8873,37.1049],[-121.8848,37.1078],[-121.8701,37.1022],[-121.86,37.1042],[-121.8619,37.0993],[-121.8538,37.0984],[-121.8496,37.0991],[-121.8469,37.097],[-121.8441,37.0975],[-121.843,37.1012],[-121.8481,37.1059],[-121.8444,37.1067],[-121.8419,37.1096],[-121.8456,37.1084],[-121.8443,37.111],[-121.8327,37.1122],[-121.8295,37.1173],[-121.8293,37.1251],[-121.8265,37.1275],[-121.8238,37.1386],[-121.8208,37.144],[-121.8235,37.1464],[-121.8211,37.1503],[-121.8293,37.1584],[-121.8314,37.1624],[-121.8401,37.1628],[-121.8428,37.1609],[-121.8509,37.165],[-121.8555,37.1657],[-121.8606,37.1694],[-121.8634,37.1762],[-121.8662,37.1781],[-121.8634,37.1798],[-121.8696,37.1827],[-121.8735,37.1811],[-121.8713,37.1845],[-121.873,37.1951],[-121.8783,37.1986],[-121.8801,37.1985],[-121.884,37.2019],[-121.8965,37.2043],[-121.897,37.2066],[-121.8995,37.2065],[-121.9047,37.2109],[-121.9069,37.2106],[-121.9124,37.2136],[-121.9136,37.2109],[-121.922,37.2047],[-121.9236,37.2008],[-121.9279,37.1971],[-121.9282,37.1947],[-121.9555,37.1978],[-121.9722,37.2033],[-121.9806,37.201],[-121.9833,37.1989],[-121.9853,37.2008],[-121.9901,37.2014],[-121.9917,37.2004],[-121.9914,37.1982],[-121.993,37.198],[-121.992,37.2035],[-121.9949,37.202],[-122.0008,37.2044],[-122.0054,37.2081],[-122.0074,37.2122],[-122.0123,37.2144],[-122.0247,37.2158],[-122.0252,37.215],[-122.0287,37.2175],[-122.0303,37.2091],[-122.0286,37.2074],[-122.0319,37.2041],[-122.0441,37.2005]]]},"properties":{"GEOID":"0608591602","BASENAME":"Lexington Hills","NAME":"Lexington Hills CCD","COUNTY":"085","COUSUB":"91602"}}]}