{"type":"FeatureCollection","features":[{"type":"Feature","geometry":{"type":"Polygon","coordinates":[[[-121.9853,37.142],[-121.9841,37.1357],[-121.9738,37.1261],[-121.9729,37.1234],[-121.9761,37.1203],[-121.9746,37.114],[-121.9772,37.1081],[-121.9749,37.1051],[-121.9777,37.1017],[-121.9751,37.0974],[-121.9785,37.0927],[-121.9775,37.0895],[-121.9788,37.086],[-121.9767,37.0823],[-121.9729,37.0855],[-121.9686,37.0852],[-121.9662,37.0834],[-121.9649,37.0803],[-121.9608,37.0782],[-121.9586,37.0713],[-121.9593,37.0706],[-121.9556,37.0693],[-121.9534,37.0705],[-121.9532,37.0694],[-121.9504,37.0687],[-121.9488,37.0656],[-121.946,37.0644],[-121.9418,37.0561],[-121.9397,37.0548],[-121.938,37.0504],[-121.938,37.0445],[-121.9313,37.0474],[-121.9173,37.0609],[-121.9137,37.063],[-121.9109,37.0607],[-121.909,37.0602],[-121.9074,37.0613],[-121.9041,37.0596],[-121.8986,37.0548],[-121.8959,37.0562],[-121.8924,37.0544],[-121.8892,37.0556],[-121.8876,37.0546],[-121.8861,37.0551],[-121.8872,37.0561],[-121.887,37.0594],[-121.885,37.0584],[-121.8799,37.0598],[-121.8775,37.059],[-121.8753,37.0604],[-121.8757,37.0649],[-121.8734,37.066],[-121.8734,37.0685],[-121.871,37.0705],[-121.8711,37.072],[-121.8689,37.0727],[-121.8684,37.0765],[-121.86,37.076],[-121.8559,37.0708],[-121.8548,37.0716],[-121.8523,37.0703],[-121.8498,37.0706],[-121.8506,37.0691],[-121.8498,37.0675],[-121.8442,37.0684],[-121.841,37.0651],[-121.8421,37.0675],[-121.8412,37.0679],[-121.8416,37.0707],[-121.8301,37.0651],[-121.83,37.067],[-121.8254,37.0678],[-121.817,37.0648],[-121.813,37.065],[-121.8092,37.069],[-121.8127,37.0754],[-121.8172,37.0779],[-121.8165,37.0804],[-121.8182,37.0837],[-121.8236,37.086],[-121.8242,37.0878],[-121.8304,37.0881],[-121.8342,37.0912],[-121.8382,37.0917],[-121.8386,37.0932],[-121.8441,37.0947],[-121.8446,37.0967],[-121.8491,37.099],[-121.8619,37.0993],[-121.86,37.1042],[-121.8701,37.1022],[-121.8848,37.1078],[-121.8873,37.1049],[-121.8909,37.1053],[-121.8901,37.1066],[-121.892,37.1071],[-121.8923,37.1085],[-121.8948,37.1086],[-121.8948,37.1098],[-121.9011,37.1115],[-121.9038,37.111],[-121.9057,37.1132],[-121.9107,37.1133],[-121.929,37.1234],[-121.932,37.122],[-121.942,37.1264],[-121.9574,37.1306],[-121.9637,37.1335],[-121.9727,37.1417],[-121.9808,37.1423],[-121.9841,37.1437],[-121.9853,37.142]]]},"properties":{"GEOID":"0608793265","BASENAME":"Summit Road","NAME":"Summit Road CCD","COUNTY":"087","COUSUB":"93265"}},{"type":"Feature","geometry":{"type":"Polygon","coordinates":[[[-122.1059,36.9172],[-122.0764,36.9102],[-122.0683,36.875],[-122.0519,36.8196],[-121.9683,36.8502],[-121.9388,36.8735],[-121.8659,36.9374],[-121.8668,36.9407],[-121.8636,36.9442],[-121.8643,36.9564],[-121.8627,36.9606],[-121.8733,36.9703],[-121.8625,36.9848],[-121.8592,36.9866],[-121.8326,36.9872],[-121.8313,36.9898],[-121.8264,36.9898],[-121.8159,36.9943],[-121.8165,36.999],[-121.8191,37.0011],[-121.816,37.0049],[-121.8191,37.0065],[-121.8188,37.0081],[-121.8205,37.0103],[-121.8291,37.0128],[-121.8306,37.0143],[-121.833,37.0137],[-121.834,37.0172],[-121.8378,37.019],[-121.8368,37.0208],[-121.8433,37.022],[-121.8435,37.0237],[-121.8421,37.0244],[-121.8445,37.0274],[-121.8442,37.0292],[-121.8408,37.0298],[-121.8414,37.0282],[-121.8398,37.0269],[-121.8391,37.0288],[-121.8368,37.0241],[-121.8324,37.0227],[-121.828,37.0188],[-121.8191,37.0166],[-121.8274,37.0224],[-121.8268,37.0237],[-121.8308,37.0318],[-121.8301,37.0336],[-121.8404,37.0378],[-121.8441,37.0413],[-121.8434,37.0424],[-121.8443,37.0442],[-121.8417,37.0466],[-121.8412,37.0496],[-121.8384,37.0509],[-121.8364,37.054],[-121.8386,37.0583],[-121.8403,37.0591],[-121.8402,37.0632],[-121.8413,37.0656],[-121.8442,37.0684],[-121.8498,37.0675],[-121.8506,37.0691],[-121.8498,37.0706],[-121.8523,37.0703],[-121.8548,37.0716],[-121.8559,37.0708],[-121.861,37.0764],[-121.869,37.0763],[-121.8689,37.0727],[-121.8711,37.072],[-121.871,37.0705],[-121.8734,37.0685],[-121.8734,37.066],[-121.8757,37.0649],[-121.8754,37.0601],[-121.885,37.0584],[-121.887,37.0594],[-121.8872,37.0561],[-121.8861,37.0551],[-121.8892,37.0556],[-121.8921,37.0543],[-121.8959,37.0562],[-121.8986,37.0548],[-121.9041,37.0596],[-121.9074,37.0613],[-121.909,37.0602],[-121.9109,37.0607],[-121.9137,37.063],[-121.9173,37.0609],[-121.9313,37.0474],[-121.9373,37.0444],[-121.9388,37.0458],[-121.938,37.0504],[-121.9397,37.0549],[-121.9418,37.0561],[-121.946,37.0644],[-121.9489,37.0656],[-121.9504,37.0687],[-121.9536,37.0705],[-121.9556,37.0693],[-121.9593,37.0706],[-121.9586,37.0713],[-121.9608,37.0782],[-121.9649,37.0803],[-121.9662,37.0834],[-121.969,37.0854],[-121.9729,37.0855],[-121.9767,37.0823],[-121.979,37.0867],[-121.9775,37.0895],[-121.9784,37.0929],[-121.9751,37.0974],[-121.9766,37.0999],[-121.9875,37.103],[-121.9909,37.098],[-122.002,37.0971],[-122.0067,37.0924],[-122.0106,37.0914],[-122.013,37.0931],[-122.0133,37.0918],[-122.016,37.0915],[-122.0184,37.0933],[-122.0177,37.0941],[-122.019,37.0962],[-122.0207,37.0957],[-122.0209,37.0936],[-122.0234,37.0957],[-122.0288,37.0954],[-122.0307,37.0966],[-122.0331,37.0953],[-122.0379,37.0856],[-122.0408,37.0848],[-122.0429,37.0826],[-122.0434,37.0762],[-122.0461,37.071],[-122.0438,37.0616],[-122.0457,37.0563],[-122.054,37.0548],[-122.0605,37.0558],[-122.0643,37.0481],[-122.0683,37.0513],[-122.0733,37.0531],[-122.073,37.0441],[-122.0754,37.0439],[-122.0821,37.0391],[-122.0836,37.0358],[-122.0915,37.0345],[-122.0942,37.0357],[-122.0972,37.0335],[-122.1019,37.0367],[-122.1003,37.0339],[-122.1023,37.0334],[-122.1033,37.0309],[-122.0988,37.0264],[-122.0896,37.0241],[-122.076,37.0152],[-122.0749,37.0068],[-122.0686,36.9984],[-122.0705,36.9934],[-122.0701,36.9862],[-122.0722,36.9843],[-122.0733,36.9767],[-122.0816,36.9675],[-122.0843,36.9628],[-122.0813,36.96],[-122.0826,36.9576],[-122.0779,36.9556],[-122.0772,36.9537],[-122.0852,36.9413],[-122.1059,36.9172]]]},"properties":{"GEOID":"0608792900","BASENAME":"Santa Cruz","NAME":"Santa Cruz CCD","COUNTY":"087","COUSUB":"92900"}},{"type":"Feature","geometry":{"type":"Polygon","coordinates":[[[-122.3177,37.1869],[-122.3118,37.1475],[-122.2894,37.1135],[-122.2994,37.0964],[-122.3139,37.0548],[-122.2903,37.0321],[-122.2764,37.0248],[-122.2657,37.0001],[-122.261,36.9935],[-122.2511,36.9858],[-122.2093,36.9616],[-122.172,36.9427],[-122.1306,36.9253],[-122.1059,36.9172],[-122.0852,36.9413],[-122.0772,36.9537],[-122.0779,36.9556],[-122.0826,36.9576],[-122.0813,36.96],[-122.0843,36.9628],[-122.0816,36.9675],[-122.0733,36.9767],[-122.0722,36.9843],[-122.0701,36.9862],[-122.0705,36.9934],[-122.0687,36.9987],[-122.0699,37.0012],[-122.0725,37.0022],[-122.0749,37.0068],[-122.0752,37.0131],[-122.0773,37.0165],[-122.0896,37.0241],[-122.0953,37.0264],[-122.0987,37.0263],[-122.1033,37.0309],[-122.1072,37.0292],[-122.1087,37.0299],[-122.1101,37.0329],[-122.106,37.0373],[-122.1076,37.0387],[-122.1064,37.0422],[-122.1094,37.0454],[-122.1149,37.0485],[-122.1154,37.0533],[-122.1214,37.0559],[-122.1244,37.059],[-122.1214,37.0615],[-122.1232,37.0639],[-122.1227,37.0673],[-122.1246,37.0706],[-122.1296,37.0733],[-122.1316,37.0775],[-122.1335,37.0786],[-122.1365,37.0877],[-122.1397,37.0909],[-122.138,37.091],[-122.139,37.099],[-122.1417,37.0998],[-122.1428,37.0985],[-122.1437,37.0995],[-122.1409,37.1039],[-122.1432,37.1072],[-122.1542,37.1146],[-122.1594,37.1235],[-122.1669,37.1299],[-122.1734,37.139],[-122.1782,37.1385],[-122.1794,37.1399],[-122.1834,37.14],[-122.187,37.1419],[-122.1851,37.1429],[-122.1815,37.142],[-122.1826,37.1433],[-122.1803,37.1432],[-122.18,37.1468],[-122.1743,37.148],[-122.1752,37.1492],[-122.1774,37.1489],[-122.1778,37.1511],[-122.1703,37.1492],[-122.1645,37.1498],[-122.1578,37.1462],[-122.1572,37.1489],[-122.1618,37.1547],[-122.1632,37.1695],[-122.1662,37.1726],[-122.1696,37.1732],[-122.1723,37.1752],[-122.1724,37.177],[-122.1769,37.1782],[-122.1805,37.1835],[-122.1883,37.1863],[-122.1909,37.1885],[-122.1898,37.1899],[-122.1918,37.1932],[-122.1935,37.1929],[-122.1943,37.196],[-122.2015,37.1998],[-122.2009,37.2023],[-122.2167,37.2152],[-122.2426,37.2151],[-122.2427,37.19],[-122.2689,37.1898],[-122.2886,37.1867],[-122.3177,37.1869]]]},"properties":{"GEOID":"0608793665","BASENAME":"West Santa Cruz","NAME":"West Santa Cruz CCD","COUNTY":"087","COUSUB":"93665"}},{"type":"Feature","geometry":{"type":"Polygon","coordinates":[[[-122.0462,36.8217],[-122.0519,36.8196],[-122.0011,36.8242],[-121.8761,36.839],[-121.81,36.8508],[-121.8007,36.8579],[-121.8032,36.8688],[-121.7974,36.8737],[-121.7938,36.8795],[-121.7874,36.8847],[-121.7835,36.8858],[-121.7775,36.8832],[-121.7695,36.8851],[-121.7651,36.8883],[-121.7641,36.8916],[-121.7605,36.8945],[-121.7573,36.9003],[-121.7515,36.9052],[-121.7453,36.9093],[-121.7348,36.9087],[-121.7284,36.9114],[-121.7264,36.9143],[-121.7218,36.913],[-121.7147,36.9088],[-121.71,36.9153],[-121.7068,36.9151],[-121.7,36.9197],[-121.6985,36.9185],[-121.6985,36.9167],[-121.701,36.9137],[-121.7068,36.9112],[-121.7055,36.9095],[-121.7023,36.9082],[-121.6974,36.9116],[-121.6863,36.9079],[-121.6806,36.9033],[-121.6673,36.9122],[-121.6618,36.9141],[-121.6577,36.9138],[-121.6543,36.9122],[-121.6523,36.9095],[-121.6537,36.9038],[-121.6529,36.9017],[-121.65,36.9002],[-121.6479,36.9027],[-121.6462,36.9026],[-121.646,36.8957],[-121.6444,36.8939],[-121.6381,36.8983],[-121.6331,36.9067],[-121.6284,36.9118],[-121.6198,36.9089],[-121.6074,36.8995],[-121.5889,36.9013],[-121.5814,36.8992],[-121.5812,36.9193],[-121.5902,36.9193],[-121.5904,36.9262],[-121.6072,36.9261],[-121.6248,36.9405],[-121.624,36.9385],[-121.6305,36.9405],[-121.6319,36.9393],[-121.6371,36.9391],[-121.6423,36.9364],[-121.641,36.9322],[-121.6458,36.9323],[-121.6531,36.9418],[-121.6541,36.9448],[-121.6523,36.9476],[-121.6537,36.9477],[-121.654,36.9506],[-121.6633,36.9519],[-121.6643,36.9551],[-121.6629,36.9592],[-121.6648,36.9637],[-121.6699,36.9636],[-121.6727,36.9655],[-121.6772,36.9655],[-121.6783,36.9679],[-121.6902,36.9674],[-121.6933,36.9682],[-121.6978,36.9721],[-121.6984,36.975],[-121.6954,36.9851],[-121.7052,36.9862],[-121.7055,36.9894],[-121.7098,36.9906],[-121.7107,36.9897],[-121.7109,36.9931],[-121.7147,36.9931],[-121.7179,36.9956],[-121.7323,36.9897],[-121.7387,36.99],[-121.7349,36.9911],[-121.7342,36.9928],[-121.7298,36.9936],[-121.7283,36.9968],[-121.7296,36.9979],[-121.7188,37.0076],[-121.7266,37.0121],[-121.7278,37.0099],[-121.7362,37.0153],[-121.7313,37.0224],[-121.7304,37.0222],[-121.7308,37.0203],[-121.7287,37.0199],[-121.7261,37.0213],[-121.7398,37.0277],[-121.7464,37.0347],[-121.7555,37.049],[-121.7576,37.0496],[-121.762,37.0478],[-121.7649,37.0495],[-121.7633,37.0507],[-121.7645,37.0524],[-121.7753,37.053],[-121.7761,37.0549],[-121.7815,37.057],[-121.786,37.062],[-121.7935,37.0643],[-121.7968,37.0638],[-121.804,37.0685],[-121.8091,37.0693],[-121.8132,37.0649],[-121.817,37.0648],[-121.8254,37.0678],[-121.83,37.067],[-121.8301,37.0651],[-121.8418,37.0707],[-121.8403,37.0591],[-121.8386,37.0583],[-121.8364,37.054],[-121.8384,37.0509],[-121.8412,37.0496],[-121.8417,37.0466],[-121.8443,37.0442],[-121.8434,37.0424],[-121.8441,37.0413],[-121.8404,37.0378],[-121.8301,37.0336],[-121.8308,37.0318],[-121.8268,37.0237],[-121.8274,37.0224],[-121.8191,37.0166],[-121.828,37.0188],[-121.8324,37.0227],[-121.8368,37.0241],[-121.8391,37.0288],[-121.8398,37.0269],[-121.8414,37.0282],[-121.8409,37.0299],[-121.8443,37.0291],[-121.8435,37.0253],[-121.8421,37.0244],[-121.8438,37.0224],[-121.8365,37.0205],[-121.8378,37.019],[-121.834,37.0172],[-121.833,37.0137],[-121.8306,37.0143],[-121.8291,37.0128],[-121.8205,37.0103],[-121.8188,37.0081],[-121.8191,37.0065],[-121.816,37.0048],[-121.8191,37.0011],[-121.8165,36.999],[-121.8159,36.9943],[-121.8264,36.9898],[-121.8313,36.9898],[-121.8326,36.9872],[-121.8592,36.9866],[-121.8625,36.9848],[-121.8733,36.9703],[-121.8627,36.9606],[-121.8643,36.9564],[-121.8636,36.9442],[-121.8668,36.9407],[-121.8659,36.9374],[-121.9388,36.8735],[-121.9683,36.8502],[-122.0462,36.8217]]]},"properties":{"GEOID":"0608793590","BASENAME":"Watsonville","NAME":"Watsonville CCD","COUNTY":"087","COUSUB":"93590"}},{"type":"Feature","geometry":{"type":"Polygon","coordinates":[[[-122.2167,37.2152],[-122.2009,37.2023],[-122.2015,37.1998],[-122.1943,37.196],[-122.1935,37.1929],[-122.1918,37.1932],[-122.1898,37.1899],[-122.1909,37.1885],[-122.1883,37.1863],[-122.1805,37.1835],[-122.1769,37.1782],[-122.1724,37.177],[-122.1723,37.1752],[-122.1696,37.1732],[-122.1662,37.1726],[-122.1632,37.1695],[-122.1618,37.1547],[-122.1572,37.1489],[-122.1578,37.1462],[-122.1645,37.1498],[-122.1703,37.1492],[-122.1778,37.1511],[-122.1774,37.1489],[-122.1752,37.1492],[-122.1743,37.148],[-122.18,37.1468],[-122.1803,37.1432],[-122.1826,37.1433],[-122.1815,37.142],[-122.1851,37.1429],[-122.187,37.1419],[-122.1834,37.14],[-122.1794,37.1399],[-122.1782,37.1385],[-122.1734,37.139],[-122.1669,37.1299],[-122.1594,37.1235],[-122.1544,37.1148],[-122.1443,37.1082],[-122.1411,37.1043],[-122.1437,37.0996],[-122.1428,37.0985],[-122.1417,37.0998],[-122.139,37.099],[-122.138,37.091],[-122.1397,37.0909],[-122.1365,37.0877],[-122.1333,37.0783],[-122.1316,37.0775],[-122.1296,37.0733],[-122.1246,37.0706],[-122.1227,37.0672],[-122.1232,37.0639],[-122.1214,37.0615],[-122.1244,37.059],[-122.1214,37.0559],[-122.1154,37.0533],[-122.1149,37.0485],[-122.1094,37.0454],[-122.1064,37.0422],[-122.1076,37.0387],[-122.106,37.0373],[-122.1101,37.0326],[-122.1079,37.0293],[-122.1052,37.0297],[-122.1023,37.0334],[-122.1003,37.0338],[-122.1017,37.037],[-122.0972,37.0335],[-122.0942,37.0357],[-122.0915,37.0345],[-122.0835,37.0359],[-122.0821,37.0391],[-122.0754,37.0439],[-122.073,37.0441],[-122.0733,37.0531],[-122.0683,37.0513],[-122.0643,37.0481],[-122.0605,37.0558],[-122.054,37.0548],[-122.0457,37.0563],[-122.0438,37.0616],[-122.0461,37.071],[-122.0434,37.0762],[-122.0429,37.0826],[-122.0408,37.0848],[-122.0379,37.0856],[-122.0331,37.0953],[-122.0307,37.0966],[-122.0288,37.0954],[-122.0234,37.0957],[-122.0209,37.0936],[-122.0207,37.0957],[-122.019,37.0962],[-122.0177,37.0941],[-122.0184,37.0933],[-122.016,37.0915],[-122.0133,37.0918],[-122.013,37.0931],[-122.0106,37.0914],[-122.0067,37.0924],[-122.002,37.0971],[-121.9909,37.098],[-121.9875,37.103],[-121.9766,37.0999],[-121.9776,37.1024],[-121.9749,37.1052],[-121.9772,37.1083],[-121.9746,37.1142],[-121.9761,37.1203],[-121.9729,37.1236],[-121.9738,37.1261],[-121.9842,37.1359],[-121.9859,37.1446],[-121.9911,37.1443],[-121.9942,37.1498],[-122,37.1545],[-122.0025,37.1583],[-122.009,37.1598],[-122.0138,37.1628],[-122.0159,37.1657],[-122.0262,37.1669],[-122.0256,37.1691],[-122.0277,37.1708],[-122.0256,37.1738],[-122.0276,37.1741],[-122.0265,37.1761],[-122.0289,37.1769],[-122.0294,37.1795],[-122.0319,37.1823],[-122.0326,37.1861],[-122.0307,37.19],[-122.0408,37.1952],[-122.044,37.2011],[-122.0546,37.21],[-122.0551,37.2125],[-122.0594,37.213],[-122.0628,37.2104],[-122.0659,37.2104],[-122.07,37.2167],[-122.0766,37.2202],[-122.0788,37.223],[-122.0898,37.2233],[-122.0927,37.2254],[-122.0934,37.2292],[-122.0995,37.2332],[-122.1042,37.2343],[-122.1056,37.2407],[-122.1216,37.2586],[-122.1239,37.2597],[-122.1284,37.2592],[-122.1317,37.2609],[-122.1358,37.2657],[-122.1442,37.2702],[-122.1484,37.2755],[-122.1505,37.2759],[-122.1487,37.281],[-122.1523,37.2861],[-122.1526,37.244],[-122.1515,37.23],[-122.153,37.2224],[-122.1528,37.2154],[-122.2167,37.2152]]]},"properties":{"GEOID":"0608792850","BASENAME":"San Lorenzo Valley","NAME":"San Lorenzo Valley CCD","COUNTY":"087","COUSUB":"92850"}}]}