{"type":"FeatureCollection","features":[{"type":"Feature","geometry":{"type":"Polygon","coordinates":[[[-122.6223,40.8738],[-122.6204,40.8704],[-122.6116,40.8676],[-122.6106,40.8654],[-122.6069,40.8636],[-122.6049,40.8597],[-122.6051,40.8545],[-122.6022,40.852],[-122.6013,40.8474],[-122.5995,40.8453],[-122.5977,40.8458],[-122.5984,40.8482],[-122.5947,40.8479],[-122.5933,40.8502],[-122.5875,40.8488],[-122.5876,40.8504],[-122.585,40.853],[-122.5874,40.8537],[-122.5895,40.8566],[-122.5864,40.8582],[-122.572,40.8519],[-122.5613,40.8508],[-122.5229,40.8567],[-122.5139,40.8559],[-122.5112,40.8543],[-122.5058,40.856],[-122.4965,40.8551],[-122.4899,40.8569],[-122.4907,40.8533],[-122.4873,40.8492],[-122.4812,40.8458],[-122.4804,40.8409],[-122.4792,40.8404],[-122.4773,40.835],[-122.4713,40.8329],[-122.4702,40.8302],[-122.4684,40.8298],[-122.4678,40.8265],[-122.4691,40.8253],[-122.4663,40.8248],[-122.4668,40.8222],[-122.463,40.8226],[-122.4627,40.8207],[-122.4593,40.8176],[-122.4545,40.8181],[-122.4523,40.8151],[-122.445,40.8168],[-122.4444,40.8151],[-122.4406,40.8141],[-122.4411,40.8125],[-122.4351,40.8115],[-122.4339,40.8093],[-122.4297,40.8066],[-122.43,40.8048],[-122.4264,40.7993],[-122.4274,40.7973],[-122.4252,40.7957],[-122.4246,40.7911],[-122.4258,40.7881],[-122.4242,40.785],[-122.4147,40.7772],[-122.4095,40.7711],[-122.4085,40.7499],[-122.4098,40.741],[-122.4007,40.7417],[-122.3928,40.7396],[-122.3877,40.7408],[-122.3835,40.7449],[-122.3825,40.7522],[-122.3804,40.7545],[-122.3379,40.7545],[-122.3339,40.7556],[-122.3333,40.7545],[-122.3329,40.756],[-122.3295,40.7578],[-122.3209,40.7618],[-122.3132,40.7637],[-122.3097,40.7668],[-122.3056,40.7675],[-122.3046,40.7704],[-122.3007,40.7719],[-122.3013,40.7736],[-122.3,40.7736],[-122.2997,40.7843],[-122.2921,40.8027],[-122.2942,40.8071],[-122.2846,40.8161],[-122.2774,40.8196],[-122.2675,40.8275],[-122.2604,40.8484],[-122.252,40.8595],[-122.2459,40.8628],[-122.24,40.8707],[-122.2341,40.8726],[-122.2313,40.8749],[-122.2273,40.8812],[-122.2269,40.8847],[-122.2224,40.8875],[-122.2235,40.8905],[-122.2277,40.8951],[-122.2249,40.9016],[-122.2329,40.905],[-122.2345,40.9115],[-122.243,40.9176],[-122.2457,40.9228],[-122.2461,40.9286],[-122.2489,40.9292],[-122.2495,40.9321],[-122.2437,40.9446],[-122.2399,40.9464],[-122.2399,40.9491],[-122.2348,40.9528],[-122.2345,40.9554],[-122.222,40.9556],[-122.2191,40.959],[-122.216,40.9591],[-122.2077,40.9637],[-122.2061,40.9651],[-122.2079,40.9694],[-122.2033,40.9713],[-122.2007,40.9753],[-122.2021,40.9779],[-122.1963,40.98],[-122.1971,40.9838],[-122.2037,40.9827],[-122.2071,40.9889],[-122.2137,40.9912],[-122.21,40.9952],[-122.2086,40.9993],[-122.2144,41.0037],[-122.2129,41.0077],[-122.2134,41.0094],[-122.2183,41.0136],[-122.2214,41.0204],[-122.2155,41.0282],[-122.217,41.0323],[-122.2142,41.0364],[-122.209,41.04],[-122.2025,41.0412],[-122.199,41.0394],[-122.1975,41.0432],[-122.1951,41.0441],[-122.1896,41.042],[-122.1859,41.0452],[-122.1782,41.0437],[-122.1794,41.0476],[-122.1754,41.0501],[-122.175,41.0575],[-122.171,41.0613],[-122.166,41.0629],[-122.1661,41.066],[-122.1641,41.0703],[-122.1587,41.0697],[-122.1577,41.0733],[-122.1536,41.0742],[-122.1507,41.0783],[-122.1502,41.0818],[-122.1443,41.0815],[-122.1433,41.0832],[-122.1441,41.0852],[-122.1416,41.0879],[-122.1364,41.0897],[-122.1372,41.0919],[-122.1362,41.0952],[-122.134,41.0943],[-122.1328,41.0918],[-122.1275,41.0916],[-122.1257,41.0898],[-122.1238,41.0898],[-122.1211,41.0909],[-122.1188,41.094],[-122.1139,41.094],[-122.1134,41.0978],[-122.1074,41.098],[-122.1072,41.1014],[-122.1053,41.1028],[-122.1033,41.108],[-122.0987,41.109],[-122.0935,41.1126],[-122.0897,41.1124],[-122.0869,41.114],[-122.0775,41.1133],[-122.0705,41.1145],[-122.0669,41.114],[-122.0647,41.1121],[-122.0619,41.1128],[-122.0611,41.1161],[-122.0651,41.1228],[-122.0687,41.1252],[-122.0689,41.1272],[-122.0709,41.1279],[-122.0702,41.1286],[-122.0724,41.1315],[-122.0747,41.132],[-122.0757,41.1348],[-122.0804,41.1351],[-122.0817,41.1372],[-122.0816,41.15],[-122.0835,41.152],[-122.0764,41.1563],[-122.0744,41.1595],[-122.0747,41.1613],[-122.0787,41.1651],[-122.0764,41.1696],[-122.0771,41.1735],[-122.0744,41.1754],[-122.0762,41.1773],[-122.0717,41.1779],[-122.0733,41.1802],[-122.0727,41.1829],[-122.1261,41.183],[-122.1476,41.1846],[-122.2946,41.185],[-122.3809,41.1828],[-122.4984,41.1827],[-122.4988,41.1796],[-122.4926,41.176],[-122.4861,41.1771],[-122.4759,41.1765],[-122.4683,41.1692],[-122.463,41.1672],[-122.4574,41.1683],[-122.454,41.1663],[-122.4499,41.1592],[-122.446,41.1592],[-122.4455,41.1579],[-122.4506,41.1469],[-122.4481,41.1359],[-122.446,41.1333],[-122.4483,41.1307],[-122.4486,41.1182],[-122.4535,41.1135],[-122.4519,41.1082],[-122.4554,41.1032],[-122.4571,41.0966],[-122.4591,41.0962],[-122.4623,41.0977],[-122.4681,41.0968],[-122.4737,41.0946],[-122.4766,41.092],[-122.4806,41.0916],[-122.4933,41.086],[-122.5,41.0876],[-122.5062,41.086],[-122.5134,41.0882],[-122.5164,41.0849],[-122.5212,41.0831],[-122.5288,41.0768],[-122.5359,41.0759],[-122.5398,41.0726],[-122.5379,41.065],[-122.5276,41.0642],[-122.5232,41.0592],[-122.5224,41.0523],[-122.5273,41.0457],[-122.5268,41.0417],[-122.5289,41.0365],[-122.5283,41.0244],[-122.5271,41.0211],[-122.5287,41.0176],[-122.5278,41.0144],[-122.5304,41.0106],[-122.5351,41.0081],[-122.5351,41.006],[-122.5379,41.0024],[-122.5453,41.0051],[-122.5545,41.0036],[-122.5554,40.9995],[-122.561,40.9966],[-122.563,40.9937],[-122.5639,40.9886],[-122.5692,40.985],[-122.5808,40.9829],[-122.5892,40.9854],[-122.5896,40.9796],[-122.5914,40.9767],[-122.5949,40.9779],[-122.5985,40.9758],[-122.5991,40.9736],[-122.6015,40.9715],[-122.6011,40.9639],[-122.6031,40.9594],[-122.6071,40.9581],[-122.6075,40.9556],[-122.6039,40.9457],[-122.605,40.9441],[-122.6032,40.9406],[-122.6071,40.9382],[-122.6074,40.9297],[-122.6128,40.9212],[-122.6098,40.9177],[-122.6097,40.9139],[-122.6037,40.9089],[-122.6,40.9003],[-122.6049,40.8972],[-122.6047,40.8928],[-122.6092,40.8853],[-122.6179,40.8784],[-122.6199,40.8784],[-122.6223,40.8738]]]},"properties":{"GEOID":"0608992700","BASENAME":"Sacramento Canyon","NAME":"Sacramento Canyon CCD","COUNTY":"089","COUSUB":"92700"}},{"type":"Feature","geometry":{"type":"Polygon","coordinates":[[[-121.8411,40.9595],[-121.8397,40.9555],[-121.8355,40.9534],[-121.8331,40.9513],[-121.8329,40.949],[-121.8269,40.9449],[-121.8277,40.9412],[-121.8246,40.9345],[-121.832,40.9342],[-121.8344,40.9352],[-121.8351,40.9322],[-121.8333,40.9276],[-121.8331,40.9223],[-121.8308,40.9211],[-121.8278,40.9214],[-121.8261,40.9153],[-121.8223,40.9145],[-121.8202,40.9102],[-121.8159,40.9086],[-121.8065,40.8992],[-121.7989,40.8942],[-121.792,40.8865],[-121.7819,40.8808],[-121.7826,40.8787],[-121.7811,40.8763],[-121.7769,40.873],[-121.768,40.8694],[-121.7646,40.8698],[-121.7616,40.8678],[-121.7652,40.8662],[-121.7647,40.8556],[-121.7618,40.8536],[-121.7617,40.8508],[-121.7653,40.8462],[-121.7658,40.8428],[-121.7635,40.8399],[-121.7636,40.838],[-121.7672,40.8311],[-121.7639,40.8282],[-121.764,40.8243],[-121.7613,40.8175],[-121.7535,40.8096],[-121.7533,40.8075],[-121.7507,40.8094],[-121.7436,40.8084],[-121.7301,40.8099],[-121.7244,40.809],[-121.72,40.8107],[-121.7159,40.8079],[-121.7176,40.8016],[-121.7141,40.8001],[-121.7125,40.7979],[-121.706,40.7968],[-121.7076,40.792],[-121.7067,40.7782],[-121.7037,40.7707],[-121.6998,40.7687],[-121.6982,40.7663],[-121.6972,40.761],[-121.6942,40.7559],[-121.6945,40.7523],[-121.6984,40.7492],[-121.6986,40.747],[-121.6955,40.7443],[-121.6892,40.7428],[-121.6857,40.7391],[-121.6865,40.7305],[-121.6842,40.7264],[-121.6832,40.7147],[-121.6773,40.7039],[-121.6787,40.7006],[-121.6771,40.6948],[-121.6728,40.6913],[-121.6708,40.6855],[-121.6654,40.6784],[-121.6656,40.6706],[-121.6672,40.6646],[-121.6578,40.6604],[-121.6488,40.6598],[-121.6392,40.656],[-121.6333,40.6609],[-121.6257,40.6622],[-121.6144,40.6552],[-121.6106,40.6467],[-121.6065,40.6449],[-121.6045,40.6462],[-121.6012,40.6445],[-121.5826,40.6266],[-121.572,40.6256],[-121.5661,40.6213],[-121.5644,40.6195],[-121.5616,40.6097],[-121.5613,40.6067],[-121.5628,40.604],[-121.5613,40.6022],[-121.5487,40.5955],[-121.5422,40.5997],[-121.532,40.6015],[-121.5322,40.5937],[-121.5308,40.5932],[-121.5327,40.5889],[-121.5299,40.5865],[-121.5244,40.5853],[-121.5201,40.574],[-121.5156,40.5703],[-121.5172,40.5699],[-121.5183,40.5661],[-121.5203,40.5651],[-121.5067,40.5653],[-121.5075,40.5624],[-121.5065,40.5614],[-121.4995,40.5597],[-121.5003,40.5562],[-121.4995,40.5543],[-121.4918,40.5544],[-121.4917,40.5508],[-121.4872,40.5508],[-121.4874,40.5436],[-121.4635,40.5437],[-121.4636,40.5558],[-121.447,40.556],[-121.447,40.5634],[-121.3706,40.5633],[-121.3703,40.5852],[-121.3229,40.5849],[-121.3211,40.75],[-121.3212,40.8887],[-121.32,40.9059],[-121.3323,40.9054],[-121.331,40.9346],[-121.3318,41.1839],[-121.8074,41.1833],[-121.807,41.1805],[-121.8088,41.1799],[-121.8102,41.1761],[-121.8146,41.1731],[-121.8027,41.1741],[-121.8008,41.1719],[-121.7972,41.1718],[-121.7896,41.1749],[-121.7864,41.1722],[-121.7862,41.1807],[-121.7843,41.1818],[-121.7798,41.1776],[-121.7811,41.1753],[-121.7748,41.1716],[-121.7737,41.1689],[-121.7749,41.1673],[-121.7787,41.1664],[-121.7802,41.1631],[-121.7777,41.1596],[-121.7737,41.1575],[-121.7707,41.1519],[-121.7675,41.1501],[-121.7709,41.1491],[-121.7689,41.1472],[-121.7696,41.1457],[-121.7748,41.1432],[-121.7705,41.1408],[-121.7715,41.138],[-121.7707,41.1368],[-121.7667,41.1352],[-121.7641,41.1326],[-121.7641,41.1302],[-121.7604,41.128],[-121.761,41.1257],[-121.7633,41.1241],[-121.7738,41.1256],[-121.7753,41.1213],[-121.7778,41.1199],[-121.7763,41.1156],[-121.7827,41.1135],[-121.7879,41.1098],[-121.7852,41.1062],[-121.79,41.1037],[-121.7905,41.1011],[-121.796,41.0985],[-121.7957,41.0954],[-121.8011,41.091],[-121.7974,41.0835],[-121.7984,41.0774],[-121.7952,41.0751],[-121.7954,41.0733],[-121.7907,41.0715],[-121.7949,41.0701],[-121.7913,41.0673],[-121.7903,41.0632],[-121.7914,41.0604],[-121.789,41.0578],[-121.7918,41.0546],[-121.7922,41.0513],[-121.7918,41.0486],[-121.7894,41.0477],[-121.788,41.045],[-121.7889,41.0411],[-121.7878,41.0362],[-121.7889,41.0331],[-121.7875,41.03],[-121.7906,41.0302],[-121.792,41.0274],[-121.7848,41.0242],[-121.7878,41.0199],[-121.783,41.0197],[-121.7822,41.0244],[-121.7757,41.0201],[-121.7633,41.0218],[-121.7606,41.025],[-121.7577,41.0253],[-121.7394,41.0233],[-121.7286,41.0186],[-121.7191,41.0215],[-121.7176,41.025],[-121.7149,41.0245],[-121.7135,41.0266],[-121.7147,41.0277],[-121.7126,41.0263],[-121.7136,41.023],[-121.7091,41.0208],[-121.7093,41.0186],[-121.7068,41.0143],[-121.7046,41.0131],[-121.7047,41.011],[-121.7096,41.007],[-121.7144,41.0083],[-121.729,40.9965],[-121.7343,40.9947],[-121.7451,40.9943],[-121.7533,40.9987],[-121.7575,40.9988],[-121.7617,40.9968],[-121.767,40.9896],[-121.7715,40.9867],[-121.7754,40.9862],[-121.7789,40.9823],[-121.7771,40.9784],[-121.7794,40.976],[-121.7806,40.9708],[-121.7855,40.97],[-121.7912,40.9625],[-121.7954,40.9608],[-121.7987,40.9574],[-121.8019,40.9574],[-121.803,40.9613],[-121.8076,40.9639],[-121.8131,40.9632],[-121.8226,40.966],[-121.8335,40.9633],[-121.8375,40.9639],[-121.8411,40.9595]]]},"properties":{"GEOID":"0608990820","BASENAME":"East Shasta","NAME":"East Shasta CCD","COUNTY":"089","COUSUB":"90820"}},{"type":"Feature","geometry":{"type":"Polygon","coordinates":[[[-122.5387,40.5066],[-122.5292,40.5036],[-122.5263,40.5003],[-122.5207,40.5],[-122.5191,40.4984],[-122.5197,40.4956],[-122.5162,40.4927],[-122.5162,40.4897],[-122.5178,40.4879],[-122.5286,40.4904],[-122.5159,40.4866],[-122.4989,40.4735],[-122.4906,40.4691],[-122.4759,40.4481],[-122.4739,40.447],[-122.4733,40.4444],[-122.4701,40.4428],[-122.4693,40.4373],[-122.4658,40.4314],[-122.4587,40.4256],[-122.455,40.4202],[-122.4463,40.4128],[-122.4433,40.4123],[-122.4377,40.4058],[-122.4344,40.4045],[-122.4324,40.4002],[-122.4286,40.3987],[-122.4274,40.3945],[-122.423,40.3912],[-122.4242,40.3847],[-122.4223,40.3792],[-122.4167,40.3793],[-122.4126,40.3745],[-122.4022,40.3743],[-122.3949,40.3721],[-122.3858,40.3743],[-122.3799,40.3719],[-122.377,40.3731],[-122.3696,40.3725],[-122.3638,40.3742],[-122.3554,40.3719],[-122.344,40.3709],[-122.3404,40.3713],[-122.3369,40.3742],[-122.33,40.3728],[-122.321,40.3749],[-122.3092,40.3712],[-122.2994,40.3755],[-122.2941,40.3805],[-122.2891,40.3774],[-122.2809,40.3758],[-122.2757,40.3778],[-122.2704,40.3775],[-122.2644,40.3798],[-122.257,40.3794],[-122.2556,40.3805],[-122.2549,40.3848],[-122.2518,40.3872],[-122.2355,40.3854],[-122.2314,40.3865],[-122.2303,40.3888],[-122.2272,40.3893],[-122.2232,40.3862],[-122.2177,40.3853],[-122.2145,40.3826],[-122.2073,40.382],[-122.2035,40.3782],[-122.1992,40.3779],[-122.1909,40.4007],[-122.1952,40.4277],[-122.2033,40.4336],[-122.2102,40.4429],[-122.2217,40.4502],[-122.2267,40.4568],[-122.2282,40.4619],[-122.2313,40.4635],[-122.2296,40.4691],[-122.2267,40.4734],[-122.2318,40.4829],[-122.2302,40.4858],[-122.2332,40.4892],[-122.2318,40.4912],[-122.2341,40.4941],[-122.2331,40.5031],[-122.2298,40.5077],[-122.2259,40.5094],[-122.2251,40.512],[-122.2294,40.5182],[-122.2307,40.5244],[-122.2385,40.5321],[-122.2336,40.5348],[-122.2285,40.5351],[-122.2261,40.545],[-122.2199,40.5493],[-122.2199,40.5792],[-122.2214,40.5818],[-122.2237,40.5822],[-122.2239,40.5883],[-122.2249,40.5914],[-122.2269,40.5916],[-122.2248,40.5958],[-122.2258,40.5979],[-122.2238,40.6007],[-122.227,40.6047],[-122.2253,40.6066],[-122.2274,40.6099],[-122.2258,40.6217],[-122.2231,40.6231],[-122.218,40.6293],[-122.2094,40.6466],[-122.2046,40.6485],[-122.2025,40.6544],[-122.1959,40.6611],[-122.2036,40.6618],[-122.2103,40.6598],[-122.215,40.6561],[-122.2228,40.6469],[-122.2355,40.6394],[-122.2414,40.6386],[-122.2429,40.6417],[-122.2422,40.6455],[-122.2454,40.6522],[-122.2443,40.6542],[-122.2404,40.655],[-122.2429,40.6638],[-122.2422,40.6701],[-122.2406,40.6733],[-122.243,40.6771],[-122.2427,40.6802],[-122.246,40.6842],[-122.2445,40.6957],[-122.2463,40.7034],[-122.2418,40.7131],[-122.242,40.7168],[-122.2367,40.7236],[-122.2375,40.7278],[-122.2367,40.73],[-122.2258,40.7347],[-122.2194,40.7448],[-122.2132,40.7499],[-122.2126,40.7562],[-122.2143,40.7602],[-122.2273,40.7666],[-122.2327,40.7667],[-122.2389,40.7651],[-122.2519,40.7562],[-122.2576,40.7545],[-122.2716,40.7605],[-122.3031,40.765],[-122.3071,40.7672],[-122.3097,40.7668],[-122.3132,40.7637],[-122.3209,40.7618],[-122.3295,40.7578],[-122.3329,40.756],[-122.3333,40.7545],[-122.3339,40.7556],[-122.3379,40.7545],[-122.3804,40.7545],[-122.3825,40.7522],[-122.3835,40.7449],[-122.3877,40.7408],[-122.3928,40.7396],[-122.4007,40.7417],[-122.4098,40.741],[-122.4139,40.7358],[-122.4152,40.7253],[-122.4204,40.717],[-122.427,40.7156],[-122.4337,40.7117],[-122.44,40.7103],[-122.4416,40.7063],[-122.4503,40.6998],[-122.4512,40.6968],[-122.4486,40.6937],[-122.4506,40.6884],[-122.4495,40.6839],[-122.4516,40.6804],[-122.4606,40.6724],[-122.4592,40.6599],[-122.4533,40.6575],[-122.441,40.6579],[-122.4383,40.6524],[-122.4446,40.64],[-122.4501,40.6359],[-122.4514,40.6297],[-122.462,40.6304],[-122.4639,40.6289],[-122.4663,40.629],[-122.4664,40.6226],[-122.4589,40.6119],[-122.4621,40.608],[-122.466,40.5963],[-122.4656,40.5943],[-122.461,40.5911],[-122.4608,40.5898],[-122.4709,40.5911],[-122.4794,40.5907],[-122.4833,40.5889],[-122.4841,40.587],[-122.4804,40.5778],[-122.475,40.5726],[-122.4713,40.5669],[-122.4741,40.5604],[-122.474,40.5439],[-122.4728,40.5386],[-122.4765,40.5235],[-122.4819,40.5187],[-122.4884,40.518],[-122.4981,40.52],[-122.5073,40.5156],[-122.5163,40.5155],[-122.5222,40.5114],[-122.5257,40.5141],[-122.5259,40.5123],[-122.5274,40.5116],[-122.5255,40.5115],[-122.5243,40.5098],[-122.5283,40.509],[-122.5344,40.5099],[-122.5379,40.5086],[-122.5387,40.5066]]]},"properties":{"GEOID":"0608992568","BASENAME":"Redding","NAME":"Redding CCD","COUNTY":"089","COUSUB":"92568"}},{"type":"Feature","geometry":{"type":"Polygon","coordinates":[[[-122.3067,40.7673],[-122.3031,40.765],[-122.2716,40.7605],[-122.2576,40.7545],[-122.2519,40.7562],[-122.2389,40.7651],[-122.2327,40.7667],[-122.2273,40.7666],[-122.2143,40.7602],[-122.2126,40.7562],[-122.2132,40.7499],[-122.2194,40.7448],[-122.2258,40.7347],[-122.2371,40.7293],[-122.2367,40.7236],[-122.242,40.7168],[-122.2418,40.7131],[-122.2463,40.7034],[-122.2445,40.6957],[-122.246,40.6842],[-122.2427,40.6802],[-122.243,40.6771],[-122.2406,40.6733],[-122.2422,40.6701],[-122.2429,40.6638],[-122.2404,40.655],[-122.2443,40.6542],[-122.2454,40.6522],[-122.2422,40.6455],[-122.2428,40.6413],[-122.2414,40.6386],[-122.2335,40.64],[-122.2222,40.6474],[-122.215,40.6561],[-122.2103,40.6598],[-122.2036,40.6618],[-122.1959,40.6611],[-122.2025,40.6544],[-122.2046,40.6485],[-122.2094,40.6466],[-122.218,40.6293],[-122.2231,40.6231],[-122.2258,40.6217],[-122.2274,40.6099],[-122.2253,40.6066],[-122.227,40.6047],[-122.2238,40.6007],[-122.2258,40.5979],[-122.2248,40.5958],[-122.2269,40.5916],[-122.2249,40.5914],[-122.2239,40.5883],[-122.2237,40.5822],[-122.2214,40.5818],[-122.2199,40.5792],[-122.2199,40.5493],[-122.2261,40.545],[-122.2285,40.5351],[-122.2336,40.5348],[-122.2385,40.5321],[-122.2307,40.5244],[-122.2294,40.5182],[-122.2251,40.512],[-122.2259,40.5094],[-122.2298,40.5077],[-122.2331,40.5031],[-122.2341,40.4941],[-122.2318,40.4912],[-122.2332,40.4892],[-122.2302,40.4858],[-122.2318,40.4829],[-122.2267,40.4734],[-122.2296,40.4691],[-122.2313,40.4635],[-122.2282,40.4619],[-122.2267,40.4568],[-122.2217,40.4502],[-122.2102,40.4429],[-122.2033,40.4336],[-122.1952,40.4278],[-122.1909,40.4024],[-122.1936,40.3923],[-122.1921,40.386],[-122.1901,40.3834],[-122.1836,40.3793],[-122.1729,40.3792],[-122.1803,40.3848],[-122.1826,40.3839],[-122.1877,40.3853],[-122.1885,40.3875],[-122.185,40.3888],[-122.1837,40.3924],[-122.1779,40.3918],[-122.1715,40.3937],[-122.1634,40.3931],[-122.1595,40.397],[-122.1497,40.3981],[-122.1336,40.3976],[-122.1291,40.3989],[-122.129,40.4038],[-122.1213,40.4034],[-122.1179,40.4066],[-122.1113,40.4054],[-122.1107,40.4078],[-122.104,40.4105],[-122.099,40.4148],[-122.0985,40.4105],[-122.0968,40.4099],[-122.0916,40.4143],[-122.0903,40.414],[-122.0919,40.4111],[-122.0912,40.4105],[-122.0891,40.4122],[-122.0802,40.4123],[-122.0721,40.4153],[-122.0574,40.4165],[-122.0521,40.4204],[-122.0419,40.4182],[-122.0353,40.4197],[-122.031,40.4173],[-122.0301,40.4177],[-122.0304,40.4208],[-122.0219,40.4241],[-122.0148,40.421],[-122.0136,40.4248],[-122.0099,40.4268],[-122.0079,40.4257],[-122.005,40.4264],[-121.9976,40.4228],[-121.9939,40.4257],[-121.9902,40.4233],[-121.9875,40.4246],[-121.9848,40.4228],[-121.9796,40.4227],[-121.9775,40.421],[-121.9743,40.4225],[-121.967,40.4221],[-121.9618,40.4208],[-121.9606,40.4193],[-121.9519,40.4178],[-121.9508,40.4189],[-121.941,40.4153],[-121.9354,40.4177],[-121.927,40.4184],[-121.9217,40.4231],[-121.9148,40.426],[-121.911,40.4229],[-121.9068,40.4217],[-121.9039,40.4226],[-121.9007,40.421],[-121.8956,40.427],[-121.8923,40.4269],[-121.8875,40.4289],[-121.8796,40.4362],[-121.8727,40.4362],[-121.8636,40.4406],[-121.8514,40.4426],[-121.8456,40.4395],[-121.8417,40.4401],[-121.8385,40.4376],[-121.8341,40.4373],[-121.8138,40.4413],[-121.8067,40.445],[-121.8043,40.4435],[-121.7963,40.4425],[-121.7926,40.4432],[-121.7903,40.4421],[-121.79,40.4433],[-121.7877,40.4437],[-121.7788,40.4383],[-121.7766,40.4387],[-121.7763,40.4376],[-121.773,40.4385],[-121.765,40.4367],[-121.7346,40.4356],[-121.7258,40.4417],[-121.7198,40.4486],[-121.7153,40.4485],[-121.7089,40.4508],[-121.6983,40.4483],[-121.6912,40.4519],[-121.6858,40.4531],[-121.6773,40.4502],[-121.672,40.4504],[-121.6705,40.4476],[-121.6619,40.4447],[-121.6585,40.4416],[-121.6554,40.4417],[-121.6463,40.4347],[-121.6382,40.4371],[-121.6263,40.4381],[-121.6211,40.4372],[-121.614,40.4391],[-121.6089,40.4384],[-121.6061,40.435],[-121.6004,40.4318],[-121.5931,40.4311],[-121.5886,40.4317],[-121.5826,40.4352],[-121.5771,40.4425],[-121.5651,40.4458],[-121.5323,40.4463],[-121.5146,40.4449],[-121.4547,40.4462],[-121.3661,40.4459],[-121.3465,40.4497],[-121.3376,40.4455],[-121.3278,40.4454],[-121.3267,40.4976],[-121.323,40.4976],[-121.3229,40.5849],[-121.3703,40.5852],[-121.3706,40.5633],[-121.447,40.5634],[-121.447,40.556],[-121.4636,40.5558],[-121.4635,40.5437],[-121.4874,40.5436],[-121.4872,40.5508],[-121.4917,40.5508],[-121.4918,40.5544],[-121.4995,40.5543],[-121.5003,40.5562],[-121.4995,40.5597],[-121.5065,40.5614],[-121.5075,40.5624],[-121.5067,40.5653],[-121.5203,40.5651],[-121.5183,40.5661],[-121.5172,40.5699],[-121.5156,40.5703],[-121.5201,40.574],[-121.5244,40.5853],[-121.5299,40.5865],[-121.5327,40.5889],[-121.5308,40.5932],[-121.5322,40.5937],[-121.532,40.6015],[-121.5422,40.5997],[-121.5487,40.5955],[-121.5613,40.6022],[-121.5628,40.604],[-121.5613,40.6067],[-121.5616,40.6097],[-121.5644,40.6195],[-121.5661,40.6213],[-121.572,40.6256],[-121.5826,40.6266],[-121.6012,40.6445],[-121.6045,40.6462],[-121.6065,40.6449],[-121.6106,40.6467],[-121.6144,40.6552],[-121.6257,40.6622],[-121.6333,40.6609],[-121.6392,40.656],[-121.6488,40.6598],[-121.6578,40.6604],[-121.6674,40.6648],[-121.6656,40.6704],[-121.6654,40.6784],[-121.6708,40.6855],[-121.6728,40.6913],[-121.6771,40.6948],[-121.6787,40.7006],[-121.6773,40.7039],[-121.6832,40.7147],[-121.6842,40.7264],[-121.6865,40.7305],[-121.6857,40.7391],[-121.6892,40.7428],[-121.6955,40.7443],[-121.6986,40.747],[-121.6984,40.7492],[-121.6945,40.7523],[-121.6942,40.7559],[-121.6972,40.761],[-121.6982,40.7663],[-121.6998,40.7687],[-121.7037,40.7707],[-121.7067,40.7782],[-121.7076,40.792],[-121.706,40.7968],[-121.7125,40.7979],[-121.7141,40.8001],[-121.7176,40.8016],[-121.7159,40.8079],[-121.72,40.8107],[-121.7244,40.809],[-121.7301,40.8099],[-121.7436,40.8084],[-121.7507,40.8094],[-121.7533,40.8075],[-121.7535,40.8096],[-121.7613,40.8175],[-121.764,40.8243],[-121.7639,40.8282],[-121.7672,40.8311],[-121.7636,40.838],[-121.7635,40.8399],[-121.7658,40.8428],[-121.7653,40.8462],[-121.7617,40.8508],[-121.7618,40.8536],[-121.7647,40.8556],[-121.7652,40.8662],[-121.7616,40.8678],[-121.7646,40.8698],[-121.768,40.8694],[-121.7769,40.873],[-121.7811,40.8763],[-121.7826,40.8787],[-121.7819,40.8808],[-121.792,40.8865],[-121.7989,40.8942],[-121.8065,40.8992],[-121.8159,40.9086],[-121.8202,40.9102],[-121.8223,40.9145],[-121.8261,40.9153],[-121.8278,40.9214],[-121.8308,40.9211],[-121.8332,40.9224],[-121.8333,40.9276],[-121.8351,40.9322],[-121.8344,40.9352],[-121.832,40.9342],[-121.8246,40.9345],[-121.8277,40.9412],[-121.827,40.945],[-121.8329,40.949],[-121.8331,40.9513],[-121.8355,40.9534],[-121.8399,40.956],[-121.8411,40.9595],[-121.8382,40.9636],[-121.8335,40.9633],[-121.8226,40.966],[-121.8131,40.9632],[-121.8079,40.964],[-121.803,40.9613],[-121.8019,40.9574],[-121.7987,40.9574],[-121.7954,40.9608],[-121.7912,40.9625],[-121.7855,40.97],[-121.7806,40.9708],[-121.7794,40.976],[-121.7771,40.9784],[-121.7789,40.9823],[-121.7754,40.9862],[-121.7715,40.9867],[-121.767,40.9896],[-121.7617,40.9968],[-121.7575,40.9988],[-121.7533,40.9987],[-121.7451,40.9943],[-121.7343,40.9947],[-121.729,40.9965],[-121.7144,41.0083],[-121.7096,41.007],[-121.7047,41.011],[-121.7046,41.0131],[-121.7068,41.0143],[-121.7093,41.0186],[-121.7091,41.0208],[-121.7136,41.023],[-121.7126,41.0263],[-121.7147,41.0277],[-121.7135,41.0266],[-121.7149,41.0245],[-121.7176,41.025],[-121.7191,41.0215],[-121.7287,41.0186],[-121.7394,41.0233],[-121.7577,41.0253],[-121.7606,41.025],[-121.7633,41.0218],[-121.7757,41.0201],[-121.7822,41.0244],[-121.7828,41.0198],[-121.7871,41.0195],[-121.7878,41.0204],[-121.7848,41.0242],[-121.7918,41.0268],[-121.7907,41.0301],[-121.7875,41.0303],[-121.7889,41.0331],[-121.7878,41.0362],[-121.7889,41.0411],[-121.788,41.045],[-121.7894,41.0477],[-121.7918,41.0486],[-121.7922,41.0513],[-121.7918,41.0546],[-121.789,41.0578],[-121.7914,41.0604],[-121.7903,41.0632],[-121.7913,41.0673],[-121.7949,41.0701],[-121.7907,41.0715],[-121.7954,41.0733],[-121.7952,41.0751],[-121.7984,41.0774],[-121.7974,41.0835],[-121.8011,41.091],[-121.7957,41.0954],[-121.796,41.0985],[-121.7905,41.1011],[-121.79,41.1037],[-121.7852,41.1062],[-121.7879,41.1098],[-121.7827,41.1135],[-121.7763,41.1156],[-121.7778,41.1199],[-121.7753,41.1213],[-121.7738,41.1256],[-121.7633,41.1241],[-121.761,41.1257],[-121.7604,41.128],[-121.7641,41.1302],[-121.7641,41.1326],[-121.7667,41.1352],[-121.7707,41.1368],[-121.7715,41.138],[-121.7705,41.1408],[-121.7748,41.1432],[-121.7696,41.1457],[-121.7689,41.1472],[-121.7709,41.1491],[-121.7675,41.1501],[-121.7707,41.1519],[-121.7737,41.1575],[-121.7777,41.1596],[-121.7802,41.1631],[-121.7787,41.1664],[-121.7742,41.1678],[-121.7739,41.1703],[-121.7811,41.1753],[-121.7797,41.1776],[-121.7839,41.1818],[-121.7862,41.1807],[-121.7863,41.1723],[-121.7896,41.1749],[-121.7973,41.1718],[-121.8008,41.1719],[-121.8027,41.1741],[-121.8146,41.1731],[-121.8101,41.1762],[-121.8088,41.1799],[-121.807,41.1806],[-121.8074,41.1833],[-122.0728,41.1831],[-122.0733,41.1802],[-122.0717,41.1779],[-122.0762,41.1773],[-122.0744,41.1754],[-122.0771,41.1735],[-122.0764,41.1696],[-122.0787,41.1651],[-122.0747,41.1613],[-122.0744,41.1595],[-122.0764,41.1563],[-122.0835,41.152],[-122.0816,41.15],[-122.0817,41.1372],[-122.0804,41.1351],[-122.0757,41.1348],[-122.0747,41.132],[-122.0724,41.1315],[-122.0702,41.1286],[-122.0709,41.1279],[-122.0689,41.1272],[-122.0687,41.1252],[-122.0651,41.1228],[-122.0611,41.1161],[-122.0619,41.1128],[-122.0647,41.1121],[-122.0669,41.114],[-122.0705,41.1145],[-122.0775,41.1133],[-122.0869,41.114],[-122.0897,41.1124],[-122.0935,41.1126],[-122.0987,41.109],[-122.1033,41.108],[-122.1053,41.1028],[-122.1072,41.1014],[-122.1074,41.098],[-122.1134,41.0978],[-122.1139,41.094],[-122.1188,41.094],[-122.1211,41.0909],[-122.1238,41.0898],[-122.1257,41.0898],[-122.1275,41.0916],[-122.1328,41.0918],[-122.134,41.0943],[-122.1362,41.0952],[-122.1372,41.0919],[-122.1364,41.0897],[-122.1416,41.0879],[-122.1441,41.0852],[-122.1433,41.0832],[-122.1443,41.0815],[-122.1502,41.0818],[-122.1507,41.0783],[-122.1536,41.0742],[-122.1577,41.0733],[-122.1587,41.0697],[-122.1641,41.0703],[-122.1661,41.066],[-122.166,41.0629],[-122.171,41.0613],[-122.175,41.0575],[-122.1754,41.0501],[-122.1794,41.0476],[-122.1782,41.0437],[-122.1859,41.0452],[-122.1896,41.042],[-122.1951,41.0441],[-122.1975,41.0432],[-122.199,41.0394],[-122.2025,41.0412],[-122.209,41.04],[-122.2142,41.0364],[-122.217,41.0323],[-122.2155,41.0282],[-122.2214,41.0204],[-122.2183,41.0136],[-122.2134,41.0094],[-122.2129,41.0077],[-122.2144,41.0037],[-122.2086,40.9993],[-122.21,40.9952],[-122.2137,40.9912],[-122.2071,40.9889],[-122.2037,40.9827],[-122.1971,40.9838],[-122.1963,40.98],[-122.2021,40.9779],[-122.2007,40.9753],[-122.2033,40.9713],[-122.2079,40.9694],[-122.2061,40.9651],[-122.2077,40.9637],[-122.216,40.9591],[-122.2191,40.959],[-122.222,40.9556],[-122.2345,40.9554],[-122.2348,40.9528],[-122.2399,40.9491],[-122.2399,40.9464],[-122.2437,40.9446],[-122.2495,40.9321],[-122.2489,40.9292],[-122.2461,40.9286],[-122.2457,40.9228],[-122.243,40.9176],[-122.2345,40.9115],[-122.2329,40.905],[-122.2249,40.9016],[-122.2277,40.8951],[-122.2235,40.8905],[-122.2224,40.8875],[-122.2269,40.8847],[-122.2273,40.8812],[-122.2313,40.8749],[-122.2341,40.8726],[-122.24,40.8707],[-122.2459,40.8628],[-122.252,40.8595],[-122.2604,40.8484],[-122.2675,40.8275],[-122.2774,40.8196],[-122.2846,40.8161],[-122.2942,40.8071],[-122.2921,40.8027],[-122.2997,40.7843],[-122.3,40.7736],[-122.3013,40.7736],[-122.3007,40.7719],[-122.3046,40.7704],[-122.3067,40.7673]]]},"properties":{"GEOID":"0608990450","BASENAME":"Central Shasta","NAME":"Central Shasta CCD","COUNTY":"089","COUSUB":"90450"}},{"type":"Feature","geometry":{"type":"Polygon","coordinates":[[[-123.0688,40.3083],[-123.0684,40.3035],[-123.065,40.2988],[-123.0663,40.2941],[-123.0645,40.2886],[-123.0654,40.287],[-123.0567,40.2854],[-123.0512,40.2875],[-123.0473,40.2917],[-123.0413,40.291],[-123.0335,40.299],[-123.0299,40.2999],[-123.0252,40.3037],[-123.0211,40.3026],[-123.0138,40.3031],[-123.0117,40.3066],[-122.9997,40.3084],[-122.9986,40.3075],[-122.9923,40.3105],[-122.9899,40.3099],[-122.9878,40.3119],[-122.986,40.3113],[-122.9837,40.3134],[-122.9797,40.3129],[-122.9769,40.3151],[-122.9727,40.3133],[-122.9704,40.3104],[-122.9515,40.3102],[-122.9498,40.308],[-122.9469,40.3082],[-122.9463,40.3107],[-122.9438,40.3101],[-122.9422,40.3125],[-122.9394,40.3116],[-122.9344,40.3132],[-122.9342,40.3109],[-122.9298,40.3098],[-122.93,40.3076],[-122.9253,40.3062],[-122.9233,40.3078],[-122.9223,40.3066],[-122.9192,40.3066],[-122.9167,40.3104],[-122.915,40.3112],[-122.9134,40.3102],[-122.9125,40.3117],[-122.9111,40.3115],[-122.9115,40.3133],[-122.9095,40.3127],[-122.9071,40.3178],[-122.9036,40.3162],[-122.9015,40.3194],[-122.9026,40.3217],[-122.9007,40.322],[-122.9013,40.3231],[-122.8996,40.3245],[-122.898,40.3243],[-122.8936,40.331],[-122.883,40.3397],[-122.884,40.3422],[-122.8802,40.342],[-122.8807,40.344],[-122.8782,40.3447],[-122.8781,40.3467],[-122.8727,40.3489],[-122.8699,40.3471],[-122.8647,40.3479],[-122.8626,40.3449],[-122.856,40.3446],[-122.8538,40.3428],[-122.8439,40.3455],[-122.8392,40.3455],[-122.8353,40.3487],[-122.833,40.3479],[-122.8286,40.35],[-122.8217,40.3496],[-122.8128,40.3513],[-122.8059,40.3559],[-122.7881,40.3553],[-122.7812,40.3586],[-122.7746,40.3587],[-122.7718,40.3607],[-122.7587,40.3633],[-122.7556,40.3609],[-122.7525,40.3605],[-122.7518,40.364],[-122.7486,40.3657],[-122.7394,40.3647],[-122.7302,40.3583],[-122.732,40.3553],[-122.7317,40.347],[-122.7096,40.3482],[-122.7059,40.3452],[-122.6936,40.3416],[-122.6872,40.3369],[-122.6773,40.3363],[-122.6753,40.335],[-122.6754,40.3323],[-122.6737,40.3304],[-122.6695,40.33],[-122.6634,40.3322],[-122.6513,40.3283],[-122.6459,40.3332],[-122.6344,40.3338],[-122.6321,40.3387],[-122.6219,40.3404],[-122.6213,40.3423],[-122.6239,40.344],[-122.6252,40.3475],[-122.6206,40.3482],[-122.6102,40.3464],[-122.602,40.3512],[-122.5969,40.3572],[-122.5858,40.3593],[-122.5821,40.3628],[-122.5825,40.3657],[-122.5813,40.3673],[-122.5676,40.3672],[-122.564,40.3656],[-122.5588,40.3693],[-122.5563,40.3697],[-122.5552,40.3725],[-122.5507,40.3749],[-122.5506,40.3784],[-122.5417,40.3765],[-122.5421,40.3818],[-122.5409,40.3824],[-122.5322,40.3798],[-122.5308,40.3815],[-122.5309,40.3842],[-122.5257,40.3876],[-122.522,40.3878],[-122.5233,40.3915],[-122.526,40.3931],[-122.5246,40.3945],[-122.52,40.3937],[-122.5138,40.3884],[-122.505,40.3894],[-122.5026,40.3868],[-122.5021,40.3838],[-122.5001,40.3825],[-122.4898,40.3836],[-122.4827,40.3805],[-122.4783,40.3845],[-122.4695,40.3836],[-122.4654,40.3804],[-122.4626,40.3755],[-122.4529,40.3785],[-122.445,40.3734],[-122.4409,40.3732],[-122.4289,40.3755],[-122.4223,40.3792],[-122.4242,40.3847],[-122.423,40.3912],[-122.4274,40.3945],[-122.4286,40.3987],[-122.4324,40.4002],[-122.4344,40.4045],[-122.4388,40.4068],[-122.4433,40.4123],[-122.4477,40.414],[-122.4573,40.4225],[-122.4587,40.4256],[-122.4643,40.4297],[-122.4693,40.4373],[-122.4701,40.4428],[-122.4733,40.4444],[-122.4739,40.447],[-122.4759,40.4481],[-122.4906,40.4691],[-122.4989,40.4735],[-122.5159,40.4866],[-122.5286,40.4904],[-122.5178,40.4879],[-122.5162,40.4897],[-122.5162,40.4927],[-122.5197,40.4956],[-122.5191,40.4984],[-122.5207,40.5],[-122.5263,40.5003],[-122.5292,40.5036],[-122.5388,40.5065],[-122.5379,40.5086],[-122.5344,40.5099],[-122.5283,40.509],[-122.5243,40.5098],[-122.5255,40.5115],[-122.5274,40.5116],[-122.5259,40.5123],[-122.5257,40.5141],[-122.5222,40.5114],[-122.5163,40.5155],[-122.5073,40.5156],[-122.4981,40.52],[-122.4884,40.518],[-122.4819,40.5187],[-122.4763,40.5239],[-122.4728,40.5386],[-122.474,40.5439],[-122.4741,40.5604],[-122.4713,40.5669],[-122.475,40.5726],[-122.4804,40.5778],[-122.4841,40.587],[-122.4833,40.5889],[-122.4794,40.5907],[-122.4709,40.5911],[-122.4608,40.5898],[-122.461,40.5911],[-122.4656,40.5943],[-122.466,40.5963],[-122.4621,40.608],[-122.4589,40.6119],[-122.4664,40.6226],[-122.4663,40.629],[-122.4639,40.6289],[-122.462,40.6304],[-122.4514,40.6297],[-122.4501,40.6359],[-122.4446,40.64],[-122.4383,40.6524],[-122.441,40.6579],[-122.4533,40.6575],[-122.4592,40.6599],[-122.4606,40.6724],[-122.4516,40.6804],[-122.4495,40.6839],[-122.4506,40.6884],[-122.4486,40.6937],[-122.4512,40.6968],[-122.4503,40.6998],[-122.4416,40.7063],[-122.44,40.7103],[-122.4337,40.7117],[-122.427,40.7156],[-122.4204,40.717],[-122.4152,40.7253],[-122.4139,40.7358],[-122.4098,40.741],[-122.4085,40.7499],[-122.4095,40.7711],[-122.4147,40.7772],[-122.4242,40.785],[-122.4258,40.7881],[-122.4246,40.7911],[-122.4252,40.7957],[-122.4274,40.7973],[-122.4264,40.7993],[-122.43,40.8048],[-122.4297,40.8066],[-122.4339,40.8093],[-122.4351,40.8115],[-122.4411,40.8125],[-122.4406,40.8141],[-122.4444,40.8151],[-122.445,40.8168],[-122.4523,40.8151],[-122.4545,40.8181],[-122.4593,40.8176],[-122.4627,40.8207],[-122.463,40.8226],[-122.4668,40.8222],[-122.4663,40.8248],[-122.4691,40.8253],[-122.4678,40.8265],[-122.4684,40.8298],[-122.4702,40.8302],[-122.4713,40.8329],[-122.4773,40.835],[-122.4792,40.8404],[-122.4804,40.8409],[-122.4812,40.8458],[-122.4873,40.8492],[-122.4907,40.8533],[-122.4899,40.8569],[-122.4965,40.8551],[-122.5058,40.856],[-122.5112,40.8543],[-122.5139,40.8559],[-122.5229,40.8567],[-122.5613,40.8508],[-122.572,40.8519],[-122.5864,40.8582],[-122.5895,40.8566],[-122.5874,40.8537],[-122.585,40.853],[-122.5876,40.8504],[-122.5875,40.8488],[-122.5933,40.8502],[-122.5947,40.8479],[-122.5984,40.8482],[-122.5977,40.8458],[-122.5995,40.8453],[-122.6013,40.8474],[-122.6022,40.852],[-122.6051,40.8545],[-122.6049,40.8597],[-122.6069,40.8636],[-122.6106,40.8654],[-122.6116,40.8676],[-122.6195,40.8698],[-122.622,40.8728],[-122.6199,40.8784],[-122.6179,40.8784],[-122.6153,40.8811],[-122.625,40.8797],[-122.6262,40.877],[-122.6264,40.8671],[-122.6344,40.8613],[-122.6347,40.8571],[-122.6376,40.8558],[-122.6389,40.8534],[-122.6395,40.8453],[-122.6554,40.8415],[-122.6572,40.8354],[-122.6661,40.8259],[-122.6654,40.8234],[-122.6617,40.8203],[-122.6612,40.8176],[-122.6552,40.8082],[-122.6575,40.8019],[-122.6614,40.8005],[-122.6617,40.7943],[-122.6581,40.7875],[-122.6656,40.7821],[-122.6705,40.7728],[-122.6882,40.7644],[-122.6928,40.7607],[-122.7005,40.7589],[-122.7018,40.758],[-122.7003,40.7554],[-122.7063,40.7496],[-122.7174,40.7472],[-122.7172,40.7447],[-122.7199,40.7394],[-122.7066,40.7253],[-122.7115,40.7149],[-122.7114,40.7107],[-122.7188,40.7078],[-122.7195,40.7021],[-122.722,40.6997],[-122.7224,40.6955],[-122.73,40.6922],[-122.738,40.6928],[-122.7417,40.6953],[-122.7439,40.695],[-122.7523,40.6893],[-122.7514,40.6851],[-122.7426,40.6788],[-122.743,40.6727],[-122.7407,40.6673],[-122.7412,40.6654],[-122.7336,40.6624],[-122.7338,40.657],[-122.727,40.6505],[-122.7292,40.6466],[-122.7333,40.6435],[-122.7362,40.6363],[-122.7324,40.6344],[-122.7162,40.6343],[-122.7097,40.6312],[-122.7096,40.627],[-122.7112,40.6244],[-122.7109,40.6132],[-122.7061,40.6102],[-122.7069,40.6055],[-122.7051,40.6042],[-122.7054,40.6002],[-122.7012,40.5958],[-122.7021,40.5933],[-122.6997,40.5896],[-122.701,40.5877],[-122.6998,40.5854],[-122.6929,40.5805],[-122.6931,40.5753],[-122.6988,40.5693],[-122.7079,40.5697],[-122.7111,40.5716],[-122.7154,40.5711],[-122.7199,40.5746],[-122.7231,40.5752],[-122.7327,40.5711],[-122.7413,40.5641],[-122.7413,40.5602],[-122.7439,40.5538],[-122.7496,40.5554],[-122.757,40.5551],[-122.7593,40.5565],[-122.7675,40.5552],[-122.7679,40.5533],[-122.7792,40.5465],[-122.7852,40.5409],[-122.7857,40.5365],[-122.7827,40.5346],[-122.7822,40.5319],[-122.785,40.5287],[-122.789,40.5276],[-122.7936,40.5234],[-122.7933,40.5145],[-122.8041,40.5105],[-122.8195,40.511],[-122.8288,40.507],[-122.8401,40.5067],[-122.846,40.5052],[-122.8521,40.501],[-122.8481,40.4974],[-122.8464,40.4935],[-122.847,40.4908],[-122.8504,40.488],[-122.851,40.4859],[-122.8573,40.4823],[-122.8765,40.4804],[-122.8772,40.4785],[-122.8836,40.4748],[-122.8853,40.4709],[-122.8901,40.4688],[-122.8893,40.4657],[-122.8926,40.4606],[-122.8955,40.4595],[-122.8944,40.4547],[-122.9011,40.4456],[-122.9052,40.4453],[-122.9177,40.4498],[-122.9202,40.4483],[-122.9279,40.4471],[-122.9313,40.4456],[-122.9309,40.4417],[-122.9378,40.4369],[-122.9381,40.4334],[-122.9369,40.431],[-122.9386,40.4289],[-122.9511,40.424],[-122.9542,40.4215],[-122.9578,40.4214],[-122.961,40.426],[-122.966,40.4228],[-122.9749,40.4196],[-122.9822,40.4183],[-122.9906,40.4194],[-122.9987,40.4181],[-122.9979,40.4065],[-122.9998,40.4036],[-122.9966,40.3964],[-123.0063,40.3897],[-123.0127,40.3881],[-123.0164,40.3856],[-123.0183,40.3825],[-123.0172,40.3808],[-123.0195,40.3736],[-123.0183,40.3724],[-123.0231,40.3676],[-123.0269,40.3668],[-123.0311,40.3636],[-123.0371,40.3644],[-123.0393,40.3627],[-123.041,40.3577],[-123.0442,40.3537],[-123.044,40.347],[-123.0531,40.3467],[-123.0569,40.3492],[-123.0655,40.3451],[-123.0658,40.344],[-123.0637,40.3424],[-123.064,40.3375],[-123.0664,40.3362],[-123.0688,40.3322],[-123.0667,40.3301],[-123.067,40.3282],[-123.0648,40.3237],[-123.0627,40.322],[-123.0646,40.3199],[-123.0617,40.3134],[-123.065,40.3106],[-123.0673,40.3108],[-123.0688,40.3083]]]},"properties":{"GEOID":"0608993210","BASENAME":"Southwest Shasta","NAME":"Southwest Shasta CCD","COUNTY":"089","COUSUB":"93210"}}]}