{"type":"FeatureCollection","features":[{"type":"Feature","geometry":{"type":"Polygon","coordinates":[[[-122.5189,41.21],[-122.5155,41.205],[-122.5095,41.2031],[-122.5052,41.1991],[-122.4974,41.1956],[-122.495,41.1924],[-122.4989,41.1847],[-122.4984,41.1827],[-122.3809,41.1828],[-122.3171,41.1849],[-122.196,41.1844],[-122.1968,41.1862],[-122.195,41.1956],[-122.1917,41.1954],[-122.1902,41.1966],[-122.1909,41.1991],[-122.1865,41.199],[-122.1822,41.2029],[-122.1804,41.2026],[-122.1761,41.2059],[-122.1721,41.2041],[-122.1709,41.2063],[-122.1682,41.2071],[-122.168,41.2087],[-122.1711,41.2102],[-122.166,41.2113],[-122.1658,41.214],[-122.1722,41.2157],[-122.1776,41.2151],[-122.1848,41.2184],[-122.1902,41.2228],[-122.1823,41.2288],[-122.184,41.2299],[-122.1911,41.2292],[-122.1915,41.2308],[-122.1898,41.2327],[-122.1924,41.2331],[-122.1877,41.2372],[-122.1883,41.238],[-122.1798,41.2498],[-122.1723,41.257],[-122.1722,41.2655],[-122.1812,41.2697],[-122.1965,41.2688],[-122.2018,41.2713],[-122.2068,41.2717],[-122.2129,41.2689],[-122.233,41.2652],[-122.241,41.2696],[-122.2585,41.2752],[-122.2756,41.2878],[-122.2787,41.2887],[-122.2821,41.2886],[-122.2837,41.2862],[-122.2828,41.2845],[-122.284,41.2836],[-122.2827,41.2791],[-122.2835,41.2764],[-122.2904,41.2659],[-122.2963,41.266],[-122.2998,41.2681],[-122.3095,41.2651],[-122.3163,41.2672],[-122.3168,41.2698],[-122.3145,41.2721],[-122.3198,41.2746],[-122.3199,41.2766],[-122.3226,41.277],[-122.3233,41.2782],[-122.3218,41.2791],[-122.3228,41.2798],[-122.329,41.2791],[-122.3292,41.2776],[-122.3351,41.2763],[-122.3381,41.2701],[-122.3434,41.2722],[-122.3484,41.2713],[-122.3564,41.2813],[-122.3619,41.2833],[-122.362,41.2868],[-122.3665,41.2876],[-122.3761,41.2864],[-122.4016,41.273],[-122.4051,41.2692],[-122.4084,41.2623],[-122.4128,41.2609],[-122.4156,41.2563],[-122.4224,41.2545],[-122.4256,41.2496],[-122.4282,41.2488],[-122.4273,41.2471],[-122.452,41.2278],[-122.4783,41.2187],[-122.4809,41.2194],[-122.5,41.2164],[-122.5087,41.2176],[-122.5022,41.2214],[-122.5136,41.2197],[-122.5182,41.2163],[-122.5189,41.21]]]},"properties":{"GEOID":"0609390740","BASENAME":"Dunsmuir","NAME":"Dunsmuir CCD","COUNTY":"093","COUSUB":"90740"}},{"type":"Feature","geometry":{"type":"Polygon","coordinates":[[[-122.8709,42.004],[-122.8626,41.9995],[-122.8599,41.9971],[-122.8597,41.9941],[-122.852,41.989],[-122.854,41.979],[-122.8447,41.9699],[-122.8447,41.9677],[-122.8409,41.9638],[-122.8395,41.9583],[-122.8432,41.9489],[-122.8375,41.9477],[-122.8357,41.9459],[-122.8339,41.9465],[-122.833,41.9444],[-122.8236,41.9425],[-122.8214,41.9397],[-122.8216,41.937],[-122.8314,41.9268],[-122.831,41.9247],[-122.8328,41.9242],[-122.8359,41.9204],[-122.8384,41.9149],[-122.8379,41.9128],[-122.8352,41.9108],[-122.835,41.9086],[-122.8283,41.9059],[-122.8279,41.9032],[-122.8243,41.9008],[-122.8244,41.8954],[-122.8206,41.8931],[-122.8221,41.885],[-122.8197,41.8795],[-122.8205,41.8779],[-122.8215,41.8807],[-122.822,41.8767],[-122.8177,41.8701],[-122.8016,41.8649],[-122.7924,41.865],[-122.779,41.8598],[-122.7729,41.8555],[-122.7682,41.8539],[-122.7611,41.8568],[-122.757,41.8562],[-122.7485,41.8585],[-122.7459,41.8607],[-122.7444,41.8654],[-122.7422,41.8663],[-122.7374,41.8667],[-122.7353,41.8626],[-122.7267,41.8638],[-122.7189,41.8612],[-122.7155,41.8622],[-122.7114,41.8655],[-122.7081,41.8651],[-122.7053,41.8625],[-122.7041,41.8561],[-122.6955,41.8546],[-122.6935,41.8483],[-122.6855,41.8478],[-122.6836,41.8437],[-122.6805,41.8418],[-122.6759,41.8427],[-122.6708,41.8411],[-122.6649,41.834],[-122.6616,41.8335],[-122.6614,41.8281],[-122.6588,41.8253],[-122.6576,41.8259],[-122.6578,41.8291],[-122.6558,41.8308],[-122.6514,41.8305],[-122.647,41.8275],[-122.6423,41.828],[-122.6402,41.8327],[-122.6367,41.8351],[-122.6297,41.8313],[-122.6214,41.8336],[-122.6127,41.8322],[-122.6071,41.833],[-122.6053,41.8291],[-122.6017,41.827],[-122.5955,41.8309],[-122.5854,41.8326],[-122.583,41.835],[-122.583,41.838],[-122.5788,41.8429],[-122.5705,41.8471],[-122.5735,41.855],[-122.5666,41.8603],[-122.5635,41.8664],[-122.5589,41.8717],[-122.5557,41.8781],[-122.5544,41.8871],[-122.5454,41.8871],[-122.5376,41.8921],[-122.5241,41.8947],[-122.5143,41.8999],[-122.5011,41.897],[-122.4903,41.9],[-122.4872,41.8966],[-122.4836,41.8952],[-122.4771,41.9007],[-122.4753,41.9042],[-122.471,41.9053],[-122.4666,41.9025],[-122.4643,41.9031],[-122.462,41.9053],[-122.4606,41.9162],[-122.4519,41.9169],[-122.4482,41.9224],[-122.4478,41.9252],[-122.4445,41.9267],[-122.4427,41.9303],[-122.4357,41.9343],[-122.4317,41.9401],[-122.4319,41.9465],[-122.4306,41.951],[-122.433,41.9556],[-122.4326,41.959],[-122.419,41.9665],[-122.4148,41.9711],[-122.4052,41.9715],[-122.3994,41.9768],[-122.3959,41.9782],[-122.3934,41.9778],[-122.3905,41.9798],[-122.3853,41.9801],[-122.3814,41.9834],[-122.3762,41.9853],[-122.3738,41.9911],[-122.3746,41.9926],[-122.3731,41.9942],[-122.3754,41.9983],[-122.3748,42.0016],[-122.3681,42.0093],[-122.5153,42.0081],[-122.7028,42.0042],[-122.8709,42.004]]]},"properties":{"GEOID":"0609391340","BASENAME":"Hornbrook-Hilt","NAME":"Hornbrook-Hilt CCD","COUNTY":"093","COUSUB":"91340"}},{"type":"Feature","geometry":{"type":"Polygon","coordinates":[[[-122.5215,41.2158],[-122.5226,41.2135],[-122.5191,41.2097],[-122.5182,41.2163],[-122.5136,41.2197],[-122.5022,41.2214],[-122.5087,41.2176],[-122.5,41.2164],[-122.4809,41.2194],[-122.4783,41.2187],[-122.452,41.2278],[-122.4273,41.2471],[-122.4282,41.2488],[-122.4256,41.2496],[-122.4224,41.2545],[-122.4156,41.2563],[-122.4128,41.2609],[-122.4084,41.2623],[-122.4051,41.2692],[-122.4015,41.2731],[-122.3853,41.2807],[-122.3811,41.2841],[-122.3731,41.287],[-122.3619,41.2867],[-122.3619,41.2833],[-122.3564,41.2813],[-122.3484,41.2713],[-122.3434,41.2722],[-122.3381,41.2701],[-122.3351,41.2763],[-122.3292,41.2776],[-122.329,41.2791],[-122.3228,41.2798],[-122.3218,41.2791],[-122.3233,41.2782],[-122.3226,41.277],[-122.3199,41.2766],[-122.3198,41.2746],[-122.3145,41.2721],[-122.3168,41.2698],[-122.3163,41.2672],[-122.3098,41.2651],[-122.2998,41.2681],[-122.2963,41.266],[-122.2904,41.2659],[-122.2835,41.2764],[-122.2827,41.2791],[-122.284,41.2836],[-122.2828,41.2845],[-122.2837,41.2862],[-122.2821,41.2886],[-122.2787,41.2887],[-122.2756,41.2878],[-122.2585,41.2752],[-122.241,41.2696],[-122.233,41.2652],[-122.2129,41.2689],[-122.2068,41.2717],[-122.2018,41.2713],[-122.1965,41.2688],[-122.1812,41.2697],[-122.1722,41.2655],[-122.176,41.2691],[-122.1772,41.2741],[-122.1836,41.2739],[-122.1863,41.2776],[-122.1855,41.2797],[-122.1796,41.2806],[-122.1784,41.2828],[-122.1787,41.2849],[-122.1809,41.2872],[-122.1794,41.2908],[-122.1825,41.3028],[-122.1847,41.3043],[-122.1877,41.3041],[-122.1905,41.3063],[-122.1923,41.306],[-122.1949,41.309],[-122.2013,41.3129],[-122.2091,41.3121],[-122.211,41.3087],[-122.2127,41.3081],[-122.2203,41.3091],[-122.2223,41.3115],[-122.2169,41.3167],[-122.2169,41.3237],[-122.2154,41.3254],[-122.2211,41.3279],[-122.2211,41.33],[-122.2287,41.3309],[-122.2263,41.3323],[-122.2281,41.3353],[-122.2241,41.3357],[-122.2312,41.3417],[-122.2285,41.3445],[-122.2336,41.3523],[-122.2322,41.3555],[-122.233,41.3585],[-122.2196,41.3705],[-122.2117,41.3745],[-122.2102,41.3796],[-122.206,41.3865],[-122.1985,41.3949],[-122.1993,41.4017],[-122.1956,41.4081],[-122.197,41.413],[-122.2013,41.4177],[-122.1982,41.4204],[-122.2095,41.4328],[-122.2096,41.4383],[-122.2153,41.4465],[-122.2138,41.4484],[-122.2197,41.4541],[-122.2212,41.4599],[-122.2249,41.4636],[-122.2252,41.4673],[-122.227,41.4696],[-122.2378,41.4747],[-122.2385,41.4777],[-122.2412,41.4797],[-122.2446,41.4849],[-122.2582,41.497],[-122.2637,41.4999],[-122.2634,41.5011],[-122.2662,41.5053],[-122.2698,41.5084],[-122.2808,41.5052],[-122.2878,41.5066],[-122.2908,41.503],[-122.2966,41.4993],[-122.2991,41.4936],[-122.3139,41.4868],[-122.3152,41.4825],[-122.3139,41.4775],[-122.3191,41.4689],[-122.3259,41.467],[-122.3355,41.4601],[-122.3321,41.4561],[-122.3283,41.4452],[-122.3303,41.4413],[-122.3304,41.4381],[-122.335,41.4344],[-122.3324,41.4287],[-122.3361,41.4252],[-122.3417,41.4259],[-122.3445,41.4249],[-122.3472,41.4181],[-122.3472,41.4134],[-122.354,41.4076],[-122.3626,41.3897],[-122.3733,41.383],[-122.3743,41.3768],[-122.3831,41.3714],[-122.385,41.3647],[-122.3896,41.364],[-122.3941,41.3574],[-122.395,41.3532],[-122.3934,41.3523],[-122.4013,41.3514],[-122.4078,41.3376],[-122.4204,41.3351],[-122.4272,41.3354],[-122.4294,41.3295],[-122.4313,41.3281],[-122.4405,41.3272],[-122.4448,41.3253],[-122.4455,41.3236],[-122.4788,41.3201],[-122.5019,41.3091],[-122.4983,41.2957],[-122.4992,41.292],[-122.5023,41.2899],[-122.5102,41.2887],[-122.5133,41.2837],[-122.514,41.2802],[-122.5124,41.2782],[-122.513,41.2732],[-122.5115,41.2698],[-122.5139,41.2668],[-122.5131,41.2631],[-122.5139,41.2552],[-122.5092,41.2491],[-122.5082,41.2453],[-122.5175,41.2398],[-122.5181,41.2359],[-122.5151,41.2326],[-122.5123,41.2265],[-122.5215,41.2158]]]},"properties":{"GEOID":"0609392050","BASENAME":"Mount Shasta","NAME":"Mount Shasta CCD","COUNTY":"093","COUSUB":"92050"}},{"type":"Feature","geometry":{"type":"Polygon","coordinates":[[[-121.9537,41.6468],[-121.9486,41.6493],[-121.9378,41.6508],[-121.931,41.6507],[-121.9308,41.6494],[-121.9293,41.6501],[-121.9197,41.6469],[-121.9093,41.6483],[-121.8831,41.6484],[-121.8722,41.6464],[-121.8575,41.6397],[-121.8503,41.6443],[-121.8409,41.6448],[-121.8373,41.6424],[-121.8364,41.6384],[-121.83,41.6374],[-121.8282,41.6349],[-121.8225,41.6327],[-121.8115,41.6359],[-121.7971,41.6317],[-121.7888,41.634],[-121.79,41.6376],[-121.7871,41.64],[-121.7887,41.6442],[-121.7826,41.64],[-121.7799,41.6406],[-121.7799,41.6352],[-121.7743,41.6318],[-121.7747,41.6301],[-121.7694,41.631],[-121.7566,41.6247],[-121.7556,41.6257],[-121.7555,41.6315],[-121.7512,41.6317],[-121.7325,41.6265],[-121.7296,41.6246],[-121.7259,41.6249],[-121.7227,41.6226],[-121.7211,41.6234],[-121.7231,41.6263],[-121.7208,41.6285],[-121.7214,41.6319],[-121.72,41.6347],[-121.7153,41.6329],[-121.7136,41.6275],[-121.7084,41.6278],[-121.7055,41.6316],[-121.7002,41.6336],[-121.6997,41.6431],[-121.693,41.643],[-121.6892,41.6495],[-121.6836,41.6515],[-121.6787,41.656],[-121.677,41.6557],[-121.6787,41.659],[-121.6769,41.6655],[-121.6781,41.6669],[-121.6758,41.6695],[-121.6694,41.6704],[-121.6643,41.6686],[-121.6596,41.6687],[-121.6537,41.6718],[-121.6497,41.6718],[-121.649,41.6744],[-121.6424,41.6747],[-121.639,41.677],[-121.637,41.6765],[-121.6369,41.6736],[-121.6351,41.673],[-121.6308,41.6741],[-121.6274,41.6785],[-121.6213,41.6766],[-121.6121,41.6777],[-121.6114,41.6746],[-121.6084,41.6735],[-121.6061,41.67],[-121.6022,41.6717],[-121.5971,41.6774],[-121.5948,41.6784],[-121.5911,41.6737],[-121.5887,41.6734],[-121.5824,41.6764],[-121.5756,41.6772],[-121.5689,41.675],[-121.568,41.6726],[-121.5647,41.6708],[-121.556,41.6705],[-121.5528,41.6735],[-121.5449,41.6687],[-121.5405,41.6696],[-121.5374,41.6723],[-121.5305,41.673],[-121.5273,41.6767],[-121.5239,41.6751],[-121.5191,41.676],[-121.5162,41.6735],[-121.5088,41.6722],[-121.5024,41.6727],[-121.4912,41.6701],[-121.4883,41.6667],[-121.4855,41.6652],[-121.4803,41.6648],[-121.4785,41.6624],[-121.4772,41.6636],[-121.4721,41.6627],[-121.472,41.6606],[-121.463,41.6581],[-121.4609,41.6533],[-121.4576,41.6534],[-121.4538,41.6564],[-121.4486,41.6569],[-121.449,41.7764],[-121.4569,41.7763],[-121.4572,41.9499],[-121.4474,41.9505],[-121.4475,41.9975],[-121.6003,41.9994],[-121.5967,41.9964],[-121.5974,41.993],[-121.5946,41.9896],[-121.5934,41.9849],[-121.5939,41.9362],[-121.5986,41.9345],[-121.599,41.9305],[-121.6039,41.9286],[-121.6102,41.9228],[-121.6194,41.9252],[-121.6248,41.9235],[-121.6264,41.9211],[-121.6301,41.9206],[-121.6384,41.9136],[-121.6448,41.9107],[-121.6448,41.9064],[-121.6471,41.9035],[-121.6611,41.9022],[-121.6721,41.895],[-121.6873,41.89],[-121.6928,41.8893],[-121.6949,41.8862],[-121.6972,41.8774],[-121.7021,41.8694],[-121.7138,41.8681],[-121.7295,41.8724],[-121.7318,41.8663],[-121.7461,41.8613],[-121.7503,41.8574],[-121.754,41.8573],[-121.7553,41.8467],[-121.7509,41.8425],[-121.7515,41.8301],[-121.7492,41.8271],[-121.7494,41.8224],[-121.7462,41.8191],[-121.7415,41.8069],[-121.7365,41.8032],[-121.7358,41.8012],[-121.7382,41.7939],[-121.7414,41.7908],[-121.7437,41.7906],[-121.7497,41.7831],[-121.759,41.7666],[-121.7763,41.7734],[-121.7824,41.7738],[-121.7993,41.7719],[-121.7991,41.732],[-121.8052,41.7258],[-121.8168,41.722],[-121.8228,41.7188],[-121.8354,41.7163],[-121.848,41.706],[-121.8573,41.7014],[-121.8595,41.699],[-121.8734,41.6954],[-121.8785,41.6916],[-121.8946,41.6853],[-121.8979,41.6852],[-121.9048,41.6876],[-121.9056,41.6862],[-121.9043,41.6834],[-121.9098,41.6813],[-121.9164,41.6717],[-121.9232,41.6694],[-121.9266,41.6659],[-121.9292,41.6606],[-121.9314,41.6638],[-121.9403,41.6636],[-121.9475,41.6677],[-121.9533,41.6566],[-121.9537,41.6468]]]},"properties":{"GEOID":"0609393450","BASENAME":"Tulelake","NAME":"Tulelake CCD","COUNTY":"093","COUSUB":"93450"}},{"type":"Feature","geometry":{"type":"Polygon","coordinates":[[[-122.2521,41.7582],[-122.2518,41.7571],[-122.249,41.757],[-122.2487,41.7553],[-122.2464,41.7539],[-122.2326,41.7582],[-122.2215,41.7573],[-122.2157,41.7606],[-122.2045,41.7619],[-122.2001,41.7606],[-122.1989,41.7587],[-122.1967,41.7589],[-122.1877,41.7525],[-122.1836,41.7538],[-122.1653,41.7469],[-122.1548,41.7455],[-122.1506,41.7456],[-122.1447,41.7479],[-122.1413,41.7467],[-122.1357,41.7475],[-122.1247,41.751],[-122.1223,41.753],[-122.1159,41.752],[-122.1123,41.7477],[-122.112,41.7429],[-122.1056,41.7335],[-122.1047,41.7316],[-122.1057,41.7289],[-122.1025,41.7251],[-122.1022,41.7234],[-122.105,41.7187],[-122.1046,41.7163],[-122.1011,41.714],[-122.096,41.7145],[-122.089,41.7067],[-122.0794,41.7037],[-122.0742,41.7004],[-122.0663,41.6913],[-122.0658,41.6886],[-122.0598,41.6842],[-122.0534,41.6871],[-122.0512,41.6852],[-122.0484,41.6733],[-122.0442,41.6702],[-122.0419,41.6658],[-122.0361,41.6643],[-122.0295,41.6644],[-122.0237,41.6609],[-122.0228,41.6575],[-122.0195,41.6556],[-122.0219,41.6526],[-122.0218,41.6413],[-122.0193,41.6392],[-122.0098,41.6377],[-122.0024,41.6383],[-121.9973,41.6401],[-121.9949,41.6426],[-121.9613,41.646],[-121.9598,41.6446],[-121.9542,41.6465],[-121.9533,41.6566],[-121.9475,41.6677],[-121.9403,41.6636],[-121.9314,41.6638],[-121.9292,41.6606],[-121.9266,41.6659],[-121.9232,41.6694],[-121.9164,41.6717],[-121.9098,41.6813],[-121.9043,41.6834],[-121.9056,41.6862],[-121.9048,41.6876],[-121.8979,41.6852],[-121.8946,41.6853],[-121.8785,41.6916],[-121.8734,41.6954],[-121.8595,41.699],[-121.8573,41.7014],[-121.848,41.706],[-121.8354,41.7163],[-121.8228,41.7188],[-121.8168,41.722],[-121.8052,41.7258],[-121.7991,41.732],[-121.7993,41.7719],[-121.7824,41.7738],[-121.7763,41.7734],[-121.759,41.7666],[-121.7497,41.7831],[-121.7437,41.7906],[-121.7414,41.7908],[-121.7382,41.7939],[-121.7358,41.8012],[-121.7365,41.8032],[-121.7415,41.8069],[-121.7462,41.8191],[-121.7494,41.8224],[-121.7492,41.8271],[-121.7515,41.8301],[-121.7509,41.8425],[-121.7553,41.8467],[-121.754,41.8573],[-121.7503,41.8574],[-121.7461,41.8613],[-121.7318,41.8663],[-121.7295,41.8724],[-121.7138,41.8681],[-121.7021,41.8694],[-121.6972,41.8774],[-121.6949,41.8862],[-121.6928,41.8893],[-121.6873,41.89],[-121.6721,41.895],[-121.6611,41.9022],[-121.6471,41.9035],[-121.6448,41.9064],[-121.6448,41.9107],[-121.6384,41.9136],[-121.6301,41.9206],[-121.6264,41.9211],[-121.6248,41.9235],[-121.6194,41.9252],[-121.6102,41.9228],[-121.6039,41.9286],[-121.599,41.9305],[-121.5986,41.9345],[-121.5939,41.9362],[-121.5934,41.9854],[-121.5946,41.9896],[-121.5974,41.993],[-121.5967,41.9964],[-121.6003,41.9994],[-122.1889,42.0073],[-122.1901,42.0067],[-122.1919,42.0004],[-122.1904,41.9922],[-122.192,41.9876],[-122.1938,41.9864],[-122.1943,41.9801],[-122.2002,41.9734],[-122.2033,41.9722],[-122.1971,41.9677],[-122.1817,41.9607],[-122.1807,41.9545],[-122.1742,41.9488],[-122.1696,41.939],[-122.1612,41.9322],[-122.1595,41.9277],[-122.1551,41.922],[-122.1447,41.915],[-122.1452,41.9074],[-122.1437,41.9004],[-122.1571,41.8878],[-122.1616,41.8817],[-122.17,41.8783],[-122.1857,41.8779],[-122.1965,41.8739],[-122.2015,41.8707],[-122.2043,41.8654],[-122.2144,41.8573],[-122.2155,41.8528],[-122.2202,41.8476],[-122.2203,41.8454],[-122.2176,41.844],[-122.2153,41.8396],[-122.1996,41.8251],[-122.1902,41.8207],[-122.1896,41.8167],[-122.1911,41.8144],[-122.189,41.8067],[-122.1912,41.8052],[-122.1954,41.8053],[-122.2063,41.7996],[-122.2069,41.795],[-122.2119,41.7914],[-122.2103,41.7839],[-122.2116,41.7823],[-122.223,41.7809],[-122.2236,41.7787],[-122.2274,41.7768],[-122.2306,41.7768],[-122.2354,41.7737],[-122.2341,41.7721],[-122.2355,41.7699],[-122.2453,41.7726],[-122.2445,41.7696],[-122.2478,41.7628],[-122.2467,41.7586],[-122.2521,41.7582]]]},"properties":{"GEOID":"0609390290","BASENAME":"Butte Valley","NAME":"Butte Valley CCD","COUNTY":"093","COUSUB":"90290"}},{"type":"Feature","geometry":{"type":"Polygon","coordinates":[[[-123.1157,41.6466],[-123.1114,41.6431],[-123.1119,41.6397],[-123.1082,41.6379],[-123.1063,41.6344],[-123.1028,41.6327],[-123.0954,41.6352],[-123.093,41.6334],[-123.0883,41.6342],[-123.0827,41.6329],[-123.0784,41.6357],[-123.0727,41.6352],[-123.0677,41.6365],[-123.0625,41.64],[-123.0545,41.6385],[-123.0508,41.6415],[-123.0418,41.645],[-123.0311,41.6448],[-123.0207,41.6381],[-123.0169,41.6409],[-123.0111,41.6397],[-123.0036,41.6399],[-122.9994,41.6414],[-122.996,41.639],[-122.9917,41.6393],[-122.9895,41.6353],[-122.9859,41.634],[-122.9832,41.6382],[-122.9718,41.6373],[-122.9579,41.6339],[-122.9553,41.6322],[-122.9557,41.63],[-122.9617,41.6246],[-122.9652,41.624],[-122.965,41.6188],[-122.9611,41.617],[-122.9624,41.6154],[-122.96,41.6111],[-122.963,41.6089],[-122.9571,41.6014],[-122.9583,41.5965],[-122.9609,41.5926],[-122.9566,41.5893],[-122.9567,41.5855],[-122.9589,41.5826],[-122.9573,41.5786],[-122.9537,41.576],[-122.9526,41.5731],[-122.9428,41.5708],[-122.9362,41.5661],[-122.9234,41.5657],[-122.9233,41.5584],[-122.915,41.5517],[-122.9113,41.5504],[-122.9007,41.5527],[-122.8981,41.5559],[-122.8686,41.5784],[-122.8611,41.5777],[-122.8555,41.5749],[-122.854,41.5704],[-122.836,41.5704],[-122.8305,41.5626],[-122.8272,41.5589],[-122.8259,41.559],[-122.8144,41.5618],[-122.8091,41.5653],[-122.7924,41.5717],[-122.7913,41.5748],[-122.7854,41.5812],[-122.7819,41.5816],[-122.7748,41.5883],[-122.7711,41.59],[-122.767,41.5898],[-122.7642,41.5872],[-122.7569,41.5884],[-122.7522,41.5927],[-122.7493,41.5932],[-122.7485,41.5955],[-122.7497,41.5972],[-122.7478,41.5976],[-122.7461,41.5964],[-122.7466,41.5956],[-122.7457,41.5961],[-122.746,41.5994],[-122.7484,41.5995],[-122.7462,41.6004],[-122.7411,41.5977],[-122.7396,41.5944],[-122.7334,41.5951],[-122.7323,41.5926],[-122.7295,41.5923],[-122.7289,41.5909],[-122.7223,41.5878],[-122.7228,41.5905],[-122.7338,41.5994],[-122.7338,41.6038],[-122.7372,41.6077],[-122.7352,41.6095],[-122.7265,41.612],[-122.7216,41.6152],[-122.7144,41.6252],[-122.7148,41.628],[-122.7176,41.6308],[-122.7206,41.6304],[-122.7258,41.6325],[-122.7356,41.6321],[-122.7389,41.6338],[-122.7485,41.6345],[-122.7657,41.625],[-122.7814,41.6213],[-122.8007,41.6214],[-122.8223,41.6261],[-122.8274,41.624],[-122.8288,41.6284],[-122.8294,41.6444],[-122.8316,41.6481],[-122.8309,41.655],[-122.8358,41.6564],[-122.8367,41.6589],[-122.835,41.6611],[-122.8316,41.6722],[-122.8312,41.6782],[-122.819,41.6883],[-122.8183,41.691],[-122.8194,41.6958],[-122.8174,41.6989],[-122.8146,41.7087],[-122.8032,41.7134],[-122.8029,41.7198],[-122.8016,41.7223],[-122.8021,41.7292],[-122.8043,41.7304],[-122.8051,41.7343],[-122.8068,41.7354],[-122.8066,41.7386],[-122.8097,41.7399],[-122.8096,41.7428],[-122.8145,41.7462],[-122.8148,41.7497],[-122.8184,41.75],[-122.8221,41.748],[-122.8252,41.7484],[-122.823,41.75],[-122.8228,41.7525],[-122.8202,41.7533],[-122.8226,41.7558],[-122.8223,41.7607],[-122.824,41.7615],[-122.8238,41.7629],[-122.8192,41.7647],[-122.8177,41.7625],[-122.8118,41.7621],[-122.8106,41.7655],[-122.8128,41.7662],[-122.8124,41.7692],[-122.8089,41.7702],[-122.81,41.7714],[-122.8082,41.7763],[-122.805,41.7767],[-122.8064,41.7784],[-122.7996,41.7817],[-122.7952,41.7857],[-122.7893,41.7841],[-122.7877,41.7857],[-122.7886,41.788],[-122.7862,41.7917],[-122.784,41.793],[-122.7818,41.7922],[-122.7815,41.7936],[-122.7787,41.7949],[-122.7787,41.7986],[-122.7801,41.8008],[-122.7755,41.8015],[-122.7739,41.8053],[-122.7699,41.8078],[-122.7692,41.8096],[-122.7712,41.8124],[-122.7745,41.8134],[-122.7747,41.8147],[-122.7792,41.8147],[-122.7788,41.8179],[-122.7819,41.8179],[-122.7823,41.8204],[-122.7847,41.821],[-122.7844,41.824],[-122.7829,41.8237],[-122.7836,41.8264],[-122.7877,41.8262],[-122.7889,41.8276],[-122.7962,41.8223],[-122.8021,41.8199],[-122.8086,41.82],[-122.8145,41.822],[-122.8159,41.8211],[-122.8183,41.8242],[-122.8221,41.8249],[-122.8219,41.8265],[-122.8259,41.8273],[-122.8276,41.8293],[-122.8271,41.8318],[-122.8333,41.8317],[-122.8389,41.8346],[-122.84,41.8369],[-122.8439,41.8351],[-122.8432,41.8323],[-122.846,41.8308],[-122.8504,41.8322],[-122.8556,41.8362],[-122.8635,41.8378],[-122.8705,41.8369],[-122.8726,41.8404],[-122.8755,41.8417],[-122.8847,41.8427],[-122.8869,41.8445],[-122.8907,41.8427],[-122.8944,41.8443],[-122.8982,41.8429],[-122.9046,41.8468],[-122.9174,41.8406],[-122.9233,41.8411],[-122.9347,41.8379],[-122.9397,41.8387],[-122.9433,41.8352],[-122.951,41.8315],[-122.9574,41.8308],[-122.9625,41.8282],[-122.9615,41.8237],[-122.9625,41.8228],[-122.9747,41.8239],[-122.9785,41.8276],[-122.9839,41.8291],[-122.9862,41.8243],[-122.9944,41.8255],[-123.0058,41.8233],[-123.0066,41.8204],[-123.0132,41.8223],[-123.015,41.8209],[-123.0147,41.8162],[-123.0116,41.8124],[-123.0155,41.8098],[-123.0167,41.807],[-123.0194,41.805],[-123.0216,41.7961],[-123.0203,41.7908],[-123.0296,41.7879],[-123.0338,41.7786],[-123.0385,41.7783],[-123.0394,41.7769],[-123.0378,41.7753],[-123.0284,41.7737],[-123.0267,41.7682],[-123.0162,41.7628],[-123.0137,41.7597],[-123.0136,41.7569],[-123.0083,41.7532],[-123.0079,41.752],[-123.0101,41.7499],[-123.0032,41.7436],[-123.0027,41.7418],[-123.002,41.7374],[-123.0042,41.7317],[-123.0089,41.7277],[-123.0102,41.724],[-123.0167,41.7228],[-123.0152,41.7159],[-123.0194,41.7118],[-123.0214,41.7075],[-123.0235,41.7067],[-123.0286,41.7083],[-123.0308,41.703],[-123.0377,41.7005],[-123.0406,41.6981],[-123.0491,41.699],[-123.0516,41.6946],[-123.0621,41.6946],[-123.0675,41.6907],[-123.0752,41.6905],[-123.0795,41.6882],[-123.0869,41.6867],[-123.0914,41.683],[-123.1012,41.6792],[-123.1022,41.6727],[-123.1087,41.6689],[-123.1095,41.6651],[-123.1139,41.6637],[-123.1117,41.658],[-123.1143,41.6525],[-123.1116,41.6498],[-123.1157,41.6466]]]},"properties":{"GEOID":"0609391040","BASENAME":"Fort Jones","NAME":"Fort Jones CCD","COUNTY":"093","COUSUB":"91040"}},{"type":"Feature","geometry":{"type":"Polygon","coordinates":[[[-122.2698,41.5084],[-122.2662,41.5053],[-122.2634,41.5011],[-122.2637,41.4999],[-122.2582,41.497],[-122.2446,41.4849],[-122.2412,41.4797],[-122.2385,41.4777],[-122.2378,41.4747],[-122.2276,41.47],[-122.2255,41.4678],[-122.2249,41.4636],[-122.2212,41.4599],[-122.2197,41.4541],[-122.2138,41.4484],[-122.2153,41.4465],[-122.2096,41.4383],[-122.2095,41.4328],[-122.1982,41.4204],[-122.2013,41.4177],[-122.197,41.413],[-122.1956,41.4081],[-122.1993,41.4017],[-122.1985,41.3949],[-122.206,41.3865],[-122.2102,41.3796],[-122.2117,41.3745],[-122.2196,41.3705],[-122.232,41.3601],[-122.233,41.3585],[-122.2323,41.3551],[-122.2338,41.3538],[-122.2327,41.3498],[-122.2285,41.3445],[-122.2312,41.3417],[-122.2241,41.3357],[-122.2281,41.3353],[-122.2263,41.3323],[-122.2287,41.3309],[-122.2211,41.33],[-122.2211,41.3279],[-122.2154,41.3254],[-122.2169,41.3237],[-122.2169,41.3167],[-122.2224,41.3108],[-122.2185,41.3085],[-122.2127,41.3081],[-122.211,41.3087],[-122.2091,41.3121],[-122.2013,41.3129],[-122.1949,41.309],[-122.1923,41.306],[-122.1905,41.3063],[-122.1877,41.3041],[-122.1847,41.3043],[-122.1826,41.3028],[-122.1794,41.2908],[-122.1809,41.2872],[-122.1787,41.2849],[-122.1784,41.2828],[-122.1796,41.2806],[-122.1855,41.2797],[-122.1863,41.2776],[-122.1836,41.2739],[-122.1772,41.2741],[-122.176,41.2691],[-122.1721,41.2657],[-122.1723,41.257],[-122.1798,41.2498],[-122.1883,41.238],[-122.1877,41.2372],[-122.1924,41.2331],[-122.1898,41.2327],[-122.1915,41.2308],[-122.1911,41.2292],[-122.184,41.2299],[-122.1823,41.2287],[-122.1901,41.2227],[-122.1838,41.2177],[-122.1779,41.2152],[-122.1722,41.2157],[-122.1665,41.2146],[-122.166,41.2113],[-122.1711,41.2102],[-122.168,41.2087],[-122.1682,41.2071],[-122.1709,41.2063],[-122.1721,41.2041],[-122.1761,41.2059],[-122.1804,41.2026],[-122.1822,41.2029],[-122.1865,41.199],[-122.1909,41.1991],[-122.1902,41.1966],[-122.1917,41.1954],[-122.195,41.1956],[-122.1968,41.1862],[-122.196,41.1844],[-122.1476,41.1846],[-122.1261,41.183],[-121.4465,41.1835],[-121.4466,41.429],[-121.4487,41.4294],[-121.4497,41.6249],[-121.4486,41.6569],[-121.4538,41.6564],[-121.4576,41.6534],[-121.4609,41.6533],[-121.463,41.6581],[-121.472,41.6606],[-121.4721,41.6627],[-121.4772,41.6636],[-121.4785,41.6624],[-121.4803,41.6648],[-121.4855,41.6652],[-121.4883,41.6667],[-121.4912,41.6701],[-121.5024,41.6727],[-121.5088,41.6722],[-121.5162,41.6735],[-121.5191,41.676],[-121.5239,41.6751],[-121.5273,41.6767],[-121.5305,41.673],[-121.5374,41.6723],[-121.5405,41.6696],[-121.5449,41.6687],[-121.5528,41.6735],[-121.556,41.6705],[-121.5647,41.6708],[-121.568,41.6726],[-121.5689,41.675],[-121.5756,41.6772],[-121.5824,41.6764],[-121.5887,41.6734],[-121.5911,41.6737],[-121.5948,41.6784],[-121.5971,41.6774],[-121.6022,41.6717],[-121.6061,41.67],[-121.6084,41.6735],[-121.6114,41.6746],[-121.6121,41.6777],[-121.6213,41.6766],[-121.6274,41.6785],[-121.6308,41.6741],[-121.6351,41.673],[-121.6369,41.6736],[-121.637,41.6765],[-121.639,41.677],[-121.6424,41.6747],[-121.649,41.6744],[-121.6497,41.6718],[-121.6537,41.6718],[-121.6596,41.6687],[-121.6643,41.6686],[-121.6694,41.6704],[-121.6758,41.6695],[-121.6781,41.6669],[-121.6769,41.6655],[-121.6787,41.659],[-121.677,41.6557],[-121.6787,41.656],[-121.6836,41.6515],[-121.6892,41.6495],[-121.693,41.643],[-121.6997,41.6431],[-121.7002,41.6336],[-121.7055,41.6316],[-121.7084,41.6278],[-121.7136,41.6275],[-121.7153,41.6329],[-121.72,41.6347],[-121.7214,41.6319],[-121.7208,41.6285],[-121.7231,41.6263],[-121.7211,41.6234],[-121.7227,41.6226],[-121.7259,41.6249],[-121.7296,41.6246],[-121.7325,41.6265],[-121.7512,41.6317],[-121.7555,41.6315],[-121.7556,41.6257],[-121.7566,41.6247],[-121.7694,41.631],[-121.7747,41.6301],[-121.7743,41.6318],[-121.7799,41.6352],[-121.7799,41.6406],[-121.7826,41.64],[-121.7887,41.6442],[-121.7871,41.64],[-121.79,41.6376],[-121.7888,41.634],[-121.7971,41.6317],[-121.8115,41.6359],[-121.8225,41.6327],[-121.8282,41.6349],[-121.83,41.6374],[-121.8364,41.6384],[-121.8373,41.6424],[-121.8408,41.6448],[-121.8503,41.6443],[-121.8575,41.6397],[-121.8722,41.6464],[-121.8831,41.6484],[-121.9093,41.6483],[-121.9197,41.6469],[-121.9293,41.6501],[-121.9308,41.6494],[-121.931,41.6507],[-121.938,41.6508],[-121.9524,41.6482],[-121.9535,41.6467],[-121.9597,41.6446],[-121.9613,41.646],[-121.9948,41.6427],[-121.9973,41.6401],[-122.0021,41.6384],[-122.0098,41.6377],[-122.0184,41.6388],[-122.0234,41.642],[-122.0471,41.6453],[-122.0477,41.6439],[-122.0498,41.6432],[-122.0531,41.6373],[-122.0592,41.633],[-122.0719,41.6195],[-122.0771,41.6188],[-122.0802,41.6115],[-122.0839,41.6092],[-122.0835,41.6048],[-122.0895,41.6023],[-122.0903,41.5954],[-122.095,41.592],[-122.0953,41.5895],[-122.0999,41.5847],[-122.1004,41.5824],[-122.1066,41.5795],[-122.1092,41.5795],[-122.12,41.5704],[-122.1306,41.5702],[-122.1358,41.5728],[-122.1432,41.5709],[-122.151,41.5764],[-122.16,41.5768],[-122.1652,41.5739],[-122.1803,41.5828],[-122.1839,41.5828],[-122.1832,41.5815],[-122.1845,41.581],[-122.1785,41.5739],[-122.1793,41.572],[-122.1775,41.5714],[-122.1749,41.5665],[-122.1709,41.564],[-122.1692,41.5583],[-122.1665,41.557],[-122.1723,41.5501],[-122.1741,41.5399],[-122.1779,41.5288],[-122.177,41.5267],[-122.1793,41.5245],[-122.1784,41.523],[-122.1794,41.5213],[-122.1791,41.5169],[-122.1804,41.5153],[-122.1828,41.5153],[-122.1832,41.5195],[-122.191,41.5332],[-122.1942,41.5358],[-122.1973,41.5362],[-122.2005,41.5352],[-122.2173,41.5216],[-122.2235,41.5181],[-122.2275,41.5119],[-122.2331,41.5119],[-122.2384,41.5103],[-122.2523,41.5144],[-122.2634,41.5115],[-122.2698,41.5084]]]},"properties":{"GEOID":"0609391800","BASENAME":"McCloud-Medicine Lake","NAME":"McCloud-Medicine Lake CCD","COUNTY":"093","COUSUB":"91800"}},{"type":"Feature","geometry":{"type":"Polygon","coordinates":[[[-122.6473,41.4481],[-122.6455,41.4454],[-122.646,41.4438],[-122.643,41.4427],[-122.6396,41.4379],[-122.6391,41.435],[-122.6362,41.4328],[-122.6264,41.4326],[-122.6198,41.4358],[-122.6215,41.4378],[-122.6182,41.4376],[-122.6127,41.44],[-122.6075,41.4331],[-122.5975,41.4335],[-122.592,41.4234],[-122.5911,41.415],[-122.5875,41.4124],[-122.5792,41.4102],[-122.5708,41.4116],[-122.5698,41.407],[-122.5702,41.3981],[-122.5656,41.3908],[-122.5663,41.3883],[-122.5694,41.3862],[-122.5664,41.3813],[-122.5761,41.3777],[-122.5739,41.3692],[-122.5657,41.3655],[-122.561,41.366],[-122.5517,41.3617],[-122.5404,41.3532],[-122.5427,41.3501],[-122.5406,41.3484],[-122.541,41.3459],[-122.5358,41.3415],[-122.5292,41.3414],[-122.5199,41.3438],[-122.5039,41.343],[-122.5047,41.337],[-122.5025,41.3329],[-122.4956,41.33],[-122.4908,41.3255],[-122.4833,41.3237],[-122.4788,41.3201],[-122.4455,41.3236],[-122.4448,41.3253],[-122.4405,41.3272],[-122.4313,41.3281],[-122.4294,41.3295],[-122.4272,41.3354],[-122.4204,41.3351],[-122.4079,41.3375],[-122.4013,41.3514],[-122.3934,41.3523],[-122.395,41.3532],[-122.3941,41.3574],[-122.3896,41.364],[-122.385,41.3647],[-122.3831,41.3714],[-122.3743,41.3768],[-122.3733,41.383],[-122.3626,41.3897],[-122.354,41.4076],[-122.3472,41.4134],[-122.3472,41.4181],[-122.3449,41.4245],[-122.3426,41.4259],[-122.3361,41.4252],[-122.3324,41.4287],[-122.335,41.4344],[-122.3304,41.4381],[-122.3303,41.4413],[-122.3283,41.4452],[-122.3321,41.4561],[-122.3355,41.4601],[-122.3259,41.467],[-122.3191,41.4689],[-122.3139,41.4775],[-122.3152,41.4825],[-122.3139,41.4868],[-122.2991,41.4936],[-122.2966,41.4993],[-122.2908,41.503],[-122.2878,41.5066],[-122.2798,41.5054],[-122.2523,41.5144],[-122.2384,41.5103],[-122.2331,41.5119],[-122.2275,41.5119],[-122.2235,41.5181],[-122.2173,41.5216],[-122.2005,41.5352],[-122.1973,41.5362],[-122.1953,41.5388],[-122.1993,41.5367],[-122.2026,41.5371],[-122.2093,41.5349],[-122.2119,41.5293],[-122.2211,41.5265],[-122.2215,41.5227],[-122.2267,41.5232],[-122.2314,41.5269],[-122.2398,41.5306],[-122.2428,41.5302],[-122.2487,41.5337],[-122.2544,41.5337],[-122.2535,41.5382],[-122.2572,41.5476],[-122.2567,41.5509],[-122.2596,41.5525],[-122.2629,41.5571],[-122.2622,41.5633],[-122.2674,41.5684],[-122.2816,41.5754],[-122.3064,41.5917],[-122.3425,41.5978],[-122.3652,41.6089],[-122.369,41.615],[-122.3797,41.6238],[-122.4238,41.6243],[-122.4316,41.6283],[-122.4374,41.6343],[-122.4525,41.6349],[-122.4591,41.6388],[-122.4848,41.6422],[-122.4953,41.6476],[-122.4995,41.6481],[-122.4991,41.6464],[-122.4966,41.6458],[-122.4976,41.6444],[-122.4964,41.6443],[-122.4957,41.6414],[-122.5009,41.6388],[-122.5052,41.6389],[-122.5077,41.6366],[-122.5083,41.634],[-122.5068,41.6288],[-122.5113,41.6221],[-122.5108,41.6198],[-122.5122,41.6181],[-122.5086,41.6109],[-122.5096,41.6075],[-122.5021,41.5915],[-122.5035,41.5903],[-122.5021,41.5817],[-122.5056,41.5684],[-122.5047,41.561],[-122.5072,41.5566],[-122.5065,41.5527],[-122.5093,41.55],[-122.5103,41.5468],[-122.5074,41.5434],[-122.5121,41.5375],[-122.5116,41.5329],[-122.5155,41.5287],[-122.5183,41.5279],[-122.5182,41.5255],[-122.5198,41.5247],[-122.5191,41.52],[-122.5154,41.5156],[-122.5152,41.5114],[-122.5179,41.507],[-122.5287,41.4989],[-122.5386,41.4953],[-122.5429,41.4961],[-122.556,41.4883],[-122.563,41.4866],[-122.5703,41.483],[-122.5725,41.4794],[-122.5815,41.4729],[-122.5888,41.4715],[-122.5966,41.4673],[-122.6105,41.4638],[-122.6199,41.4629],[-122.6271,41.4579],[-122.6385,41.4562],[-122.6365,41.454],[-122.6409,41.4498],[-122.6409,41.4478],[-122.644,41.4499],[-122.6401,41.4534],[-122.6433,41.4538],[-122.6465,41.4507],[-122.6473,41.4481]]]},"properties":{"GEOID":"0609393600","BASENAME":"Weed","NAME":"Weed CCD","COUNTY":"093","COUSUB":"93600"}},{"type":"Feature","geometry":{"type":"Polygon","coordinates":[[[-122.6108,41.7932],[-122.6018,41.7871],[-122.6033,41.7822],[-122.6018,41.7821],[-122.5994,41.7846],[-122.5978,41.7815],[-122.5947,41.781],[-122.5944,41.7752],[-122.5926,41.7713],[-122.5791,41.7647],[-122.5818,41.7611],[-122.5791,41.76],[-122.5769,41.7555],[-122.5788,41.7544],[-122.5792,41.7523],[-122.5781,41.7517],[-122.5778,41.7476],[-122.5717,41.7451],[-122.5692,41.7407],[-122.5613,41.7379],[-122.5596,41.7354],[-122.5626,41.7312],[-122.5566,41.7284],[-122.5585,41.7242],[-122.5544,41.7208],[-122.5519,41.7158],[-122.5494,41.7167],[-122.5494,41.7196],[-122.5478,41.7204],[-122.5418,41.7153],[-122.5425,41.712],[-122.5378,41.7088],[-122.5374,41.7048],[-122.5323,41.7013],[-122.5328,41.6986],[-122.5311,41.6988],[-122.5308,41.6968],[-122.5287,41.6954],[-122.5312,41.6912],[-122.5296,41.6886],[-122.5313,41.6873],[-122.531,41.6859],[-122.5293,41.686],[-122.5281,41.6842],[-122.5238,41.6848],[-122.5224,41.6862],[-122.5168,41.6831],[-122.5144,41.6831],[-122.5127,41.6813],[-122.5105,41.6823],[-122.5111,41.6817],[-122.5077,41.6795],[-122.5061,41.6758],[-122.5078,41.6734],[-122.5064,41.6709],[-122.5075,41.67],[-122.5071,41.6684],[-122.501,41.6675],[-122.501,41.6658],[-122.4999,41.6656],[-122.5005,41.6637],[-122.4973,41.6637],[-122.4966,41.6624],[-122.4986,41.6612],[-122.4989,41.6588],[-122.5023,41.6568],[-122.5011,41.6528],[-122.4996,41.6521],[-122.5005,41.6511],[-122.4992,41.6509],[-122.4995,41.6481],[-122.4953,41.6476],[-122.4848,41.6422],[-122.4591,41.6388],[-122.4525,41.6349],[-122.4374,41.6343],[-122.4316,41.6283],[-122.4238,41.6243],[-122.3797,41.6238],[-122.369,41.615],[-122.3652,41.6089],[-122.3425,41.5978],[-122.3064,41.5917],[-122.2816,41.5754],[-122.2674,41.5684],[-122.2622,41.5633],[-122.2629,41.5571],[-122.2596,41.5525],[-122.2567,41.5509],[-122.2572,41.5476],[-122.2535,41.5382],[-122.2544,41.5337],[-122.2487,41.5337],[-122.2428,41.5302],[-122.2398,41.5306],[-122.2314,41.5269],[-122.2267,41.5231],[-122.2215,41.5227],[-122.2211,41.5265],[-122.2119,41.5293],[-122.2092,41.5349],[-122.2026,41.5371],[-122.1993,41.5367],[-122.1953,41.5388],[-122.1972,41.536],[-122.1942,41.5358],[-122.191,41.5332],[-122.1832,41.5195],[-122.1828,41.5153],[-122.1794,41.5162],[-122.1784,41.523],[-122.1793,41.5245],[-122.177,41.5267],[-122.1779,41.5288],[-122.1741,41.5399],[-122.1723,41.5501],[-122.1665,41.557],[-122.1692,41.5583],[-122.1709,41.564],[-122.1749,41.5665],[-122.1775,41.5714],[-122.1793,41.572],[-122.1785,41.5739],[-122.1845,41.581],[-122.1832,41.5815],[-122.1839,41.5828],[-122.1803,41.5828],[-122.1652,41.5739],[-122.16,41.5768],[-122.151,41.5764],[-122.1432,41.5709],[-122.1358,41.5728],[-122.1306,41.5702],[-122.1203,41.5703],[-122.1092,41.5795],[-122.1066,41.5795],[-122.1004,41.5824],[-122.0999,41.5847],[-122.0953,41.5895],[-122.095,41.592],[-122.0903,41.5954],[-122.0895,41.6023],[-122.0835,41.6048],[-122.0839,41.6092],[-122.0802,41.6115],[-122.0771,41.6188],[-122.0719,41.6195],[-122.0592,41.633],[-122.0531,41.6373],[-122.0498,41.6432],[-122.0477,41.6439],[-122.0471,41.6453],[-122.0218,41.6413],[-122.0219,41.6526],[-122.0195,41.6556],[-122.0228,41.6575],[-122.0237,41.6609],[-122.0295,41.6644],[-122.0361,41.6643],[-122.0419,41.6658],[-122.0442,41.6702],[-122.0484,41.6733],[-122.0512,41.6852],[-122.0534,41.6871],[-122.0598,41.6842],[-122.0658,41.6886],[-122.0663,41.6913],[-122.0742,41.7004],[-122.0794,41.7037],[-122.089,41.7067],[-122.096,41.7145],[-122.1011,41.714],[-122.1046,41.7163],[-122.105,41.7187],[-122.1022,41.7234],[-122.1025,41.7251],[-122.1057,41.7289],[-122.1047,41.7316],[-122.1056,41.7335],[-122.112,41.7429],[-122.1123,41.7477],[-122.1158,41.7519],[-122.1223,41.753],[-122.1247,41.751],[-122.1357,41.7475],[-122.1413,41.7467],[-122.1447,41.7479],[-122.1506,41.7456],[-122.1548,41.7455],[-122.1653,41.7469],[-122.1836,41.7538],[-122.1877,41.7525],[-122.1967,41.7589],[-122.1989,41.7587],[-122.2001,41.7606],[-122.2045,41.7619],[-122.2157,41.7606],[-122.2215,41.7573],[-122.2326,41.7582],[-122.2464,41.7539],[-122.2487,41.7553],[-122.249,41.757],[-122.2518,41.7571],[-122.2518,41.7583],[-122.2467,41.7587],[-122.2478,41.7628],[-122.2445,41.7696],[-122.2453,41.7726],[-122.2355,41.7699],[-122.2341,41.7721],[-122.2354,41.7737],[-122.2306,41.7768],[-122.2274,41.7768],[-122.2236,41.7787],[-122.223,41.7809],[-122.2116,41.7823],[-122.2103,41.7839],[-122.2119,41.7914],[-122.2069,41.795],[-122.2063,41.7996],[-122.1954,41.8053],[-122.1912,41.8052],[-122.189,41.8067],[-122.1911,41.8144],[-122.1896,41.8167],[-122.1902,41.8207],[-122.1996,41.8251],[-122.2153,41.8396],[-122.2176,41.844],[-122.2203,41.8454],[-122.2202,41.8476],[-122.2155,41.8528],[-122.2144,41.8573],[-122.2043,41.8654],[-122.2015,41.8707],[-122.1965,41.8739],[-122.1857,41.8779],[-122.17,41.8783],[-122.1616,41.8817],[-122.1571,41.8878],[-122.1437,41.9004],[-122.1452,41.9074],[-122.1447,41.915],[-122.1551,41.922],[-122.1595,41.9277],[-122.1612,41.9322],[-122.1696,41.939],[-122.1742,41.9488],[-122.1807,41.9545],[-122.1817,41.9607],[-122.1971,41.9677],[-122.2033,41.9722],[-122.2002,41.9734],[-122.1943,41.9801],[-122.1938,41.9864],[-122.192,41.9876],[-122.1904,41.9922],[-122.1919,42.0004],[-122.1901,42.0067],[-122.1863,42.0075],[-122.3681,42.0093],[-122.3748,42.0016],[-122.3754,41.9983],[-122.3731,41.9942],[-122.3746,41.9926],[-122.3738,41.9911],[-122.3762,41.9853],[-122.3814,41.9834],[-122.3853,41.9801],[-122.3905,41.9798],[-122.3934,41.9778],[-122.3959,41.9782],[-122.3994,41.9768],[-122.4052,41.9715],[-122.4148,41.9711],[-122.419,41.9665],[-122.4326,41.959],[-122.433,41.9556],[-122.4306,41.951],[-122.4319,41.9465],[-122.4317,41.9401],[-122.4357,41.9343],[-122.4427,41.9303],[-122.4445,41.9267],[-122.4478,41.9252],[-122.4482,41.9224],[-122.4519,41.9169],[-122.4606,41.9162],[-122.462,41.9053],[-122.4643,41.9031],[-122.4666,41.9025],[-122.471,41.9053],[-122.4753,41.9042],[-122.4771,41.9007],[-122.4836,41.8952],[-122.4872,41.8966],[-122.4903,41.9],[-122.5011,41.897],[-122.5143,41.8999],[-122.5241,41.8947],[-122.5376,41.8921],[-122.5454,41.8871],[-122.5544,41.8871],[-122.5557,41.8781],[-122.5589,41.8717],[-122.5635,41.8664],[-122.5666,41.8603],[-122.5735,41.855],[-122.5705,41.8471],[-122.5788,41.8429],[-122.583,41.838],[-122.583,41.835],[-122.5846,41.8331],[-122.5945,41.8311],[-122.5934,41.8303],[-122.5946,41.8284],[-122.5936,41.8255],[-122.5959,41.822],[-122.592,41.8223],[-122.5867,41.8163],[-122.5871,41.815],[-122.5922,41.8137],[-122.5881,41.8093],[-122.5899,41.8049],[-122.5932,41.8054],[-122.5942,41.8089],[-122.597,41.8108],[-122.5987,41.8105],[-122.5988,41.8082],[-122.6078,41.8066],[-122.6085,41.8049],[-122.6059,41.8031],[-122.6007,41.8039],[-122.5996,41.8025],[-122.6047,41.7992],[-122.6043,41.7971],[-122.606,41.7952],[-122.6108,41.7932]]]},"properties":{"GEOID":"0609392010","BASENAME":"Montague","NAME":"Montague CCD","COUNTY":"093","COUSUB":"92010"}},{"type":"Feature","geometry":{"type":"Polygon","coordinates":[[[-122.84,41.8369],[-122.8389,41.8346],[-122.8333,41.8317],[-122.8271,41.8318],[-122.8276,41.8293],[-122.8259,41.8273],[-122.8219,41.8265],[-122.8221,41.8249],[-122.8183,41.8242],[-122.8159,41.8211],[-122.8145,41.822],[-122.8086,41.82],[-122.8021,41.8199],[-122.7962,41.8223],[-122.7889,41.8276],[-122.7877,41.8262],[-122.7836,41.8264],[-122.7829,41.8237],[-122.7844,41.824],[-122.7847,41.821],[-122.7823,41.8204],[-122.7819,41.8179],[-122.7788,41.8179],[-122.7792,41.8147],[-122.7746,41.8146],[-122.7745,41.8134],[-122.7701,41.8115],[-122.769,41.809],[-122.7739,41.8053],[-122.7755,41.8015],[-122.7801,41.8008],[-122.7787,41.7986],[-122.7787,41.7949],[-122.7815,41.7936],[-122.7818,41.7922],[-122.784,41.793],[-122.7862,41.7917],[-122.7886,41.788],[-122.7877,41.7857],[-122.7893,41.7841],[-122.7952,41.7857],[-122.7996,41.7817],[-122.8064,41.7784],[-122.805,41.7767],[-122.8082,41.7763],[-122.81,41.7714],[-122.8089,41.7702],[-122.8124,41.7692],[-122.8128,41.7662],[-122.8106,41.7655],[-122.8118,41.7621],[-122.8177,41.7625],[-122.8192,41.7647],[-122.8238,41.7629],[-122.824,41.7615],[-122.8223,41.7607],[-122.8226,41.7558],[-122.8202,41.7533],[-122.8228,41.7525],[-122.823,41.75],[-122.8252,41.7484],[-122.8221,41.748],[-122.8184,41.75],[-122.8148,41.7497],[-122.8145,41.7462],[-122.8096,41.7428],[-122.8097,41.7399],[-122.8066,41.7386],[-122.8068,41.7354],[-122.8051,41.7343],[-122.8043,41.7304],[-122.8021,41.7292],[-122.8016,41.7223],[-122.8029,41.7198],[-122.8032,41.7134],[-122.8146,41.7087],[-122.8174,41.6989],[-122.8194,41.6958],[-122.8183,41.691],[-122.819,41.6883],[-122.8312,41.6782],[-122.8316,41.6722],[-122.835,41.6611],[-122.8367,41.6589],[-122.8358,41.6564],[-122.8309,41.655],[-122.8316,41.6481],[-122.8294,41.6444],[-122.8288,41.6284],[-122.8274,41.624],[-122.8223,41.6261],[-122.8007,41.6214],[-122.7814,41.6213],[-122.7657,41.625],[-122.7485,41.6345],[-122.7389,41.6338],[-122.7356,41.6321],[-122.7258,41.6325],[-122.7206,41.6304],[-122.7175,41.6307],[-122.7148,41.628],[-122.7145,41.625],[-122.7206,41.6161],[-122.7264,41.612],[-122.7352,41.6095],[-122.7373,41.6076],[-122.7338,41.6038],[-122.7338,41.5994],[-122.7228,41.5905],[-122.7221,41.5876],[-122.7146,41.5859],[-122.7069,41.581],[-122.6945,41.5761],[-122.6903,41.5726],[-122.688,41.5675],[-122.6807,41.5677],[-122.6747,41.5655],[-122.6629,41.5661],[-122.6596,41.5672],[-122.6521,41.5659],[-122.6533,41.5668],[-122.6528,41.5682],[-122.6543,41.5676],[-122.652,41.5695],[-122.6517,41.5675],[-122.6478,41.5669],[-122.6451,41.5649],[-122.638,41.5675],[-122.6371,41.5636],[-122.6389,41.5639],[-122.6411,41.5615],[-122.6408,41.5574],[-122.6457,41.5501],[-122.6454,41.5466],[-122.643,41.5445],[-122.6424,41.5369],[-122.6373,41.5275],[-122.6417,41.5257],[-122.6386,41.521],[-122.6375,41.5135],[-122.6429,41.512],[-122.6394,41.5084],[-122.639,41.5033],[-122.6398,41.5015],[-122.6456,41.5015],[-122.6468,41.5005],[-122.6462,41.4989],[-122.6425,41.4969],[-122.6422,41.4897],[-122.646,41.4836],[-122.661,41.4714],[-122.6639,41.467],[-122.6644,41.464],[-122.6634,41.4591],[-122.6595,41.4559],[-122.6465,41.4508],[-122.6435,41.4538],[-122.6401,41.4535],[-122.644,41.4499],[-122.6412,41.4478],[-122.6409,41.4498],[-122.6366,41.4537],[-122.6385,41.4562],[-122.6271,41.4579],[-122.6199,41.4629],[-122.6105,41.4638],[-122.5966,41.4673],[-122.5888,41.4715],[-122.5815,41.4729],[-122.5725,41.4794],[-122.5703,41.483],[-122.563,41.4866],[-122.556,41.4883],[-122.5429,41.4961],[-122.5386,41.4953],[-122.5287,41.4989],[-122.5179,41.507],[-122.5152,41.5114],[-122.5154,41.5156],[-122.5191,41.52],[-122.5198,41.5247],[-122.5182,41.5255],[-122.5183,41.5279],[-122.5155,41.5287],[-122.5116,41.5329],[-122.5121,41.5375],[-122.5074,41.5434],[-122.5103,41.5468],[-122.5093,41.55],[-122.5065,41.5527],[-122.5072,41.5566],[-122.5047,41.561],[-122.5056,41.5684],[-122.5021,41.5817],[-122.5035,41.5903],[-122.5021,41.5915],[-122.5096,41.6075],[-122.5086,41.6109],[-122.5122,41.6181],[-122.5108,41.6198],[-122.5113,41.6221],[-122.5068,41.6288],[-122.5083,41.634],[-122.5077,41.6366],[-122.5052,41.6389],[-122.5009,41.6388],[-122.4957,41.6414],[-122.4964,41.6443],[-122.4976,41.6444],[-122.4967,41.6459],[-122.4995,41.6472],[-122.4992,41.6509],[-122.5005,41.6511],[-122.4996,41.6521],[-122.5011,41.6528],[-122.5023,41.6568],[-122.4989,41.6588],[-122.4986,41.6612],[-122.4966,41.6624],[-122.4973,41.6637],[-122.5005,41.6637],[-122.4999,41.6656],[-122.501,41.6658],[-122.501,41.6675],[-122.5071,41.6684],[-122.5075,41.67],[-122.5064,41.6709],[-122.5078,41.6734],[-122.5061,41.6758],[-122.5077,41.6795],[-122.5111,41.6817],[-122.5105,41.6823],[-122.5127,41.6813],[-122.5144,41.6831],[-122.5168,41.6831],[-122.5224,41.6862],[-122.5238,41.6848],[-122.5281,41.6842],[-122.5293,41.686],[-122.531,41.6859],[-122.5313,41.6873],[-122.5296,41.6886],[-122.5312,41.6912],[-122.5287,41.6954],[-122.5308,41.6968],[-122.5311,41.6988],[-122.5328,41.6986],[-122.5323,41.7013],[-122.5374,41.7048],[-122.5378,41.7088],[-122.5425,41.712],[-122.5418,41.7153],[-122.5478,41.7204],[-122.5494,41.7196],[-122.5494,41.7167],[-122.5519,41.7158],[-122.5544,41.7208],[-122.5585,41.7242],[-122.5566,41.7284],[-122.5626,41.7312],[-122.5596,41.7354],[-122.5613,41.7379],[-122.5692,41.7407],[-122.5717,41.7451],[-122.5778,41.7476],[-122.5781,41.7517],[-122.5792,41.7523],[-122.5788,41.7544],[-122.5769,41.7555],[-122.5791,41.76],[-122.5818,41.7611],[-122.5791,41.7647],[-122.5925,41.7712],[-122.5944,41.7752],[-122.5947,41.781],[-122.5978,41.7815],[-122.5994,41.7846],[-122.6018,41.7821],[-122.6033,41.7822],[-122.6018,41.7871],[-122.6107,41.7927],[-122.6102,41.794],[-122.6059,41.7953],[-122.6043,41.7971],[-122.6047,41.7992],[-122.5996,41.8025],[-122.6007,41.8039],[-122.6059,41.8031],[-122.6084,41.8048],[-122.6079,41.8065],[-122.5986,41.8083],[-122.598,41.8108],[-122.5944,41.8091],[-122.5921,41.8047],[-122.5899,41.8049],[-122.5885,41.8079],[-122.5884,41.81],[-122.5922,41.8137],[-122.587,41.8151],[-122.5868,41.8169],[-122.592,41.8223],[-122.5959,41.822],[-122.5937,41.8251],[-122.5946,41.8284],[-122.5934,41.8305],[-122.5955,41.8309],[-122.6017,41.827],[-122.6053,41.8291],[-122.6071,41.833],[-122.6127,41.8322],[-122.6214,41.8336],[-122.6297,41.8313],[-122.6367,41.8351],[-122.6402,41.8327],[-122.6423,41.828],[-122.647,41.8275],[-122.6514,41.8305],[-122.6558,41.8308],[-122.6578,41.8291],[-122.6576,41.8259],[-122.6588,41.8253],[-122.6614,41.8281],[-122.6616,41.8335],[-122.6649,41.834],[-122.6708,41.8411],[-122.6759,41.8427],[-122.6805,41.8418],[-122.6836,41.8437],[-122.6855,41.8478],[-122.6935,41.8483],[-122.6955,41.8546],[-122.7041,41.8561],[-122.7053,41.8625],[-122.7081,41.8651],[-122.7114,41.8655],[-122.7155,41.8622],[-122.7189,41.8612],[-122.7267,41.8638],[-122.7353,41.8626],[-122.7374,41.8667],[-122.7422,41.8663],[-122.7444,41.8654],[-122.7459,41.8607],[-122.7485,41.8585],[-122.757,41.8562],[-122.7611,41.8568],[-122.7676,41.8539],[-122.7924,41.865],[-122.8016,41.8649],[-122.8158,41.8694],[-122.818,41.8682],[-122.8184,41.8625],[-122.8206,41.861],[-122.8272,41.8605],[-122.8299,41.8561],[-122.8363,41.85],[-122.8388,41.842],[-122.8361,41.8392],[-122.8378,41.8365],[-122.84,41.8369]]]},"properties":{"GEOID":"0609393810","BASENAME":"Yreka","NAME":"Yreka CCD","COUNTY":"093","COUSUB":"93810"}},{"type":"Feature","geometry":{"type":"Polygon","coordinates":[[[-123.7192,41.5956],[-123.7157,41.5913],[-123.7065,41.5957],[-123.6989,41.5957],[-123.6991,41.5932],[-123.6976,41.5909],[-123.6879,41.5946],[-123.6823,41.5949],[-123.6834,41.5914],[-123.6813,41.5867],[-123.6879,41.5851],[-123.6891,41.5821],[-123.6856,41.578],[-123.6846,41.5742],[-123.6815,41.5718],[-123.6839,41.5701],[-123.6838,41.5688],[-123.6876,41.567],[-123.6893,41.5608],[-123.6939,41.557],[-123.6926,41.553],[-123.6939,41.5519],[-123.6902,41.5523],[-123.6895,41.5495],[-123.6825,41.5431],[-123.67,41.5441],[-123.6688,41.5421],[-123.6568,41.5386],[-123.6528,41.5394],[-123.648,41.535],[-123.6468,41.5289],[-123.6426,41.5227],[-123.6458,41.519],[-123.6461,41.5124],[-123.6445,41.5096],[-123.6407,41.5074],[-123.6408,41.5021],[-123.6358,41.4919],[-123.636,41.4891],[-123.6345,41.4861],[-123.6354,41.4837],[-123.6378,41.4824],[-123.6306,41.4771],[-123.6324,41.4735],[-123.6299,41.4718],[-123.6266,41.4668],[-123.6214,41.4639],[-123.6116,41.4616],[-123.6159,41.453],[-123.6124,41.449],[-123.6182,41.443],[-123.6221,41.4346],[-123.622,41.4326],[-123.633,41.4283],[-123.6378,41.4281],[-123.6486,41.4208],[-123.642,41.4157],[-123.639,41.41],[-123.6389,41.4074],[-123.6417,41.4044],[-123.6416,41.4002],[-123.656,41.3953],[-123.6555,41.3884],[-123.6604,41.385],[-123.6614,41.3821],[-123.5012,41.3826],[-123.4994,41.3823],[-123.5004,41.3804],[-123.4983,41.3789],[-123.4937,41.3775],[-123.492,41.3794],[-123.4855,41.3773],[-123.4824,41.3779],[-123.4788,41.3769],[-123.4752,41.3788],[-123.4668,41.3801],[-123.4631,41.3781],[-123.4605,41.3789],[-123.4547,41.3737],[-123.449,41.3735],[-123.4448,41.3704],[-123.4399,41.378],[-123.433,41.3753],[-123.434,41.3738],[-123.4329,41.3732],[-123.4232,41.376],[-123.4219,41.3767],[-123.4231,41.378],[-123.4208,41.3786],[-123.4215,41.3798],[-123.4192,41.3867],[-123.4162,41.3901],[-123.4105,41.392],[-123.414,41.3942],[-123.4117,41.3946],[-123.4083,41.403],[-123.4047,41.4045],[-123.4025,41.407],[-123.4,41.4071],[-123.3963,41.4105],[-123.3971,41.4131],[-123.3949,41.4163],[-123.3864,41.417],[-123.3861,41.4185],[-123.3884,41.4204],[-123.385,41.4216],[-123.3815,41.4271],[-123.3767,41.4285],[-123.3782,41.4325],[-123.3735,41.4322],[-123.3703,41.4362],[-123.3702,41.4387],[-123.3665,41.4383],[-123.364,41.4408],[-123.3604,41.4396],[-123.3569,41.4413],[-123.3482,41.442],[-123.344,41.4449],[-123.3404,41.4432],[-123.3383,41.4447],[-123.3339,41.4442],[-123.3312,41.4465],[-123.3292,41.4451],[-123.3221,41.4507],[-123.3183,41.4495],[-123.3105,41.4508],[-123.2995,41.4587],[-123.2895,41.4635],[-123.2886,41.4676],[-123.2838,41.4678],[-123.2774,41.4706],[-123.2743,41.474],[-123.2748,41.4772],[-123.2694,41.4777],[-123.2668,41.4796],[-123.2623,41.4791],[-123.2581,41.4814],[-123.2549,41.4811],[-123.2493,41.4844],[-123.2492,41.4883],[-123.2411,41.4899],[-123.2631,41.4904],[-123.2807,41.5926],[-123.2783,41.6021],[-123.2789,41.6132],[-123.2113,41.6135],[-123.2061,41.6114],[-123.1965,41.614],[-123.1935,41.6143],[-123.1947,41.6133],[-123.1921,41.613],[-123.1847,41.6144],[-123.1845,41.6127],[-123.1804,41.6149],[-123.1767,41.6146],[-123.1757,41.6168],[-123.1705,41.6189],[-123.1688,41.6166],[-123.1656,41.6166],[-123.1592,41.6209],[-123.1573,41.6138],[-123.1443,41.6214],[-123.1366,41.6188],[-123.1383,41.6122],[-123.1365,41.6097],[-123.1368,41.6112],[-123.1336,41.6119],[-123.1307,41.6157],[-123.1275,41.6117],[-123.1298,41.6093],[-123.1247,41.6115],[-123.1242,41.6145],[-123.122,41.6121],[-123.125,41.6077],[-123.1219,41.6088],[-123.1195,41.6113],[-123.1197,41.6142],[-123.1211,41.6154],[-123.1161,41.6206],[-123.1053,41.6278],[-123.1057,41.6306],[-123.1042,41.6332],[-123.1063,41.6344],[-123.1082,41.6379],[-123.1119,41.6397],[-123.1114,41.6431],[-123.1157,41.6466],[-123.1116,41.6498],[-123.1143,41.6525],[-123.1117,41.658],[-123.1139,41.6637],[-123.1095,41.6651],[-123.1087,41.6689],[-123.1022,41.6727],[-123.1012,41.6792],[-123.0914,41.683],[-123.0869,41.6867],[-123.0795,41.6882],[-123.0752,41.6905],[-123.0675,41.6907],[-123.0621,41.6946],[-123.0516,41.6946],[-123.0491,41.699],[-123.0406,41.6981],[-123.0377,41.7005],[-123.0308,41.703],[-123.0286,41.7083],[-123.0235,41.7067],[-123.0214,41.7075],[-123.0194,41.7118],[-123.0152,41.7159],[-123.0167,41.7228],[-123.0102,41.724],[-123.0089,41.7277],[-123.0042,41.7317],[-123.002,41.7374],[-123.0027,41.7418],[-123.0032,41.7436],[-123.0101,41.7499],[-123.0079,41.752],[-123.0083,41.7532],[-123.0136,41.7569],[-123.0137,41.7597],[-123.0162,41.7628],[-123.0267,41.7682],[-123.0284,41.7737],[-123.0378,41.7753],[-123.0394,41.7769],[-123.0385,41.7783],[-123.0338,41.7786],[-123.0296,41.7879],[-123.0203,41.7908],[-123.0216,41.7961],[-123.0194,41.805],[-123.0167,41.807],[-123.0155,41.8098],[-123.0116,41.8124],[-123.0147,41.8162],[-123.015,41.8209],[-123.0132,41.8223],[-123.0066,41.8204],[-123.0058,41.8233],[-122.9944,41.8255],[-122.9862,41.8243],[-122.9839,41.8291],[-122.9785,41.8276],[-122.9747,41.8239],[-122.9625,41.8228],[-122.9615,41.8237],[-122.9625,41.8282],[-122.9574,41.8308],[-122.951,41.8315],[-122.9433,41.8352],[-122.9397,41.8387],[-122.9347,41.8379],[-122.9233,41.8411],[-122.9174,41.8406],[-122.91,41.8436],[-122.9057,41.8468],[-122.9013,41.8455],[-122.8982,41.8429],[-122.8944,41.8443],[-122.8907,41.8427],[-122.8863,41.8445],[-122.8847,41.8427],[-122.8726,41.8404],[-122.8705,41.8369],[-122.8635,41.8378],[-122.8556,41.8362],[-122.8497,41.8318],[-122.8444,41.8312],[-122.8432,41.8323],[-122.8439,41.8351],[-122.8407,41.837],[-122.8378,41.8365],[-122.8364,41.8382],[-122.8361,41.8392],[-122.8388,41.842],[-122.8363,41.85],[-122.8299,41.8561],[-122.8272,41.8605],[-122.8206,41.861],[-122.8184,41.8625],[-122.818,41.8682],[-122.8164,41.8692],[-122.822,41.8767],[-122.8215,41.8807],[-122.8205,41.8779],[-122.8197,41.8795],[-122.8221,41.885],[-122.8204,41.8923],[-122.8244,41.8954],[-122.8243,41.9008],[-122.8279,41.9032],[-122.8293,41.9069],[-122.8352,41.9088],[-122.8352,41.9108],[-122.8379,41.9128],[-122.8384,41.9149],[-122.8359,41.9204],[-122.8328,41.9242],[-122.831,41.9247],[-122.8314,41.9268],[-122.8216,41.937],[-122.8214,41.9397],[-122.8236,41.9425],[-122.833,41.9444],[-122.8339,41.9465],[-122.8357,41.9459],[-122.8375,41.9477],[-122.8432,41.9489],[-122.8395,41.9583],[-122.8409,41.9638],[-122.8447,41.9677],[-122.8447,41.9699],[-122.854,41.979],[-122.852,41.989],[-122.8597,41.9941],[-122.8599,41.9971],[-122.8626,41.9995],[-122.8709,42.004],[-123.044,42.0031],[-123.1457,42.0088],[-123.1839,42.0058],[-123.347,41.9993],[-123.5179,42.0008],[-123.5204,41.9978],[-123.5199,41.9952],[-123.5343,41.9909],[-123.5409,41.9853],[-123.5378,41.9824],[-123.538,41.9793],[-123.5363,41.9773],[-123.5358,41.9741],[-123.5372,41.9705],[-123.5333,41.9635],[-123.5333,41.9552],[-123.5447,41.9423],[-123.5446,41.9396],[-123.5477,41.9384],[-123.5488,41.9333],[-123.5544,41.9301],[-123.5533,41.9273],[-123.5549,41.9217],[-123.5536,41.9147],[-123.5574,41.9108],[-123.5595,41.906],[-123.5654,41.9031],[-123.5734,41.9042],[-123.578,41.903],[-123.5936,41.9063],[-123.5954,41.9023],[-123.5994,41.899],[-123.5974,41.8942],[-123.6048,41.8881],[-123.6043,41.8842],[-123.6063,41.8808],[-123.6171,41.8818],[-123.6213,41.8843],[-123.6245,41.8884],[-123.6363,41.8876],[-123.6394,41.8903],[-123.6422,41.8897],[-123.6452,41.8835],[-123.6523,41.8789],[-123.6465,41.8766],[-123.6514,41.8729],[-123.6502,41.8708],[-123.6523,41.8655],[-123.6515,41.8617],[-123.6495,41.8603],[-123.6569,41.8571],[-123.6615,41.8565],[-123.6625,41.8524],[-123.6713,41.845],[-123.6708,41.8354],[-123.6829,41.8371],[-123.694,41.8345],[-123.6978,41.8317],[-123.7037,41.8295],[-123.7021,41.8265],[-123.703,41.8197],[-123.6997,41.817],[-123.6967,41.8172],[-123.6944,41.8156],[-123.693,41.8115],[-123.6912,41.8102],[-123.6922,41.8087],[-123.6904,41.8065],[-123.69,41.8032],[-123.6849,41.7999],[-123.6807,41.8008],[-123.6793,41.7989],[-123.6757,41.7984],[-123.6721,41.796],[-123.6763,41.7895],[-123.6739,41.7863],[-123.6746,41.7856],[-123.6841,41.7845],[-123.6883,41.7812],[-123.6834,41.7696],[-123.6819,41.761],[-123.6832,41.7588],[-123.6817,41.7569],[-123.6819,41.7517],[-123.6787,41.7463],[-123.6797,41.7429],[-123.6783,41.7385],[-123.6741,41.7363],[-123.6737,41.7343],[-123.6661,41.7322],[-123.6666,41.7297],[-123.6611,41.7241],[-123.6599,41.7202],[-123.6602,41.7141],[-123.6643,41.7093],[-123.6692,41.7065],[-123.6701,41.7017],[-123.6701,41.6993],[-123.668,41.6969],[-123.6628,41.6935],[-123.6697,41.6899],[-123.6751,41.6821],[-123.68,41.6802],[-123.6854,41.676],[-123.687,41.6709],[-123.6896,41.6694],[-123.6886,41.6602],[-123.6853,41.66],[-123.6883,41.6575],[-123.6884,41.6527],[-123.6851,41.644],[-123.6799,41.637],[-123.6804,41.634],[-123.6966,41.6339],[-123.6984,41.6314],[-123.6966,41.6282],[-123.6987,41.6259],[-123.7006,41.6258],[-123.7015,41.6238],[-123.7043,41.6229],[-123.7072,41.6176],[-123.711,41.615],[-123.7114,41.6089],[-123.7161,41.6065],[-123.7192,41.5956]]]},"properties":{"GEOID":"0609391240","BASENAME":"Happy Camp","NAME":"Happy Camp CCD","COUNTY":"093","COUSUB":"91240"}},{"type":"Feature","geometry":{"type":"Polygon","coordinates":[[[-123.4936,41.3775],[-123.4881,41.3771],[-123.4846,41.3729],[-123.481,41.372],[-123.4741,41.3662],[-123.4783,41.361],[-123.4792,41.3562],[-123.4825,41.3536],[-123.4784,41.3403],[-123.4793,41.338],[-123.4786,41.3296],[-123.4775,41.3278],[-123.474,41.3264],[-123.4725,41.3215],[-123.4654,41.3197],[-123.4634,41.3177],[-123.4619,41.3126],[-123.4596,41.3102],[-123.4603,41.3033],[-123.4569,41.3003],[-123.4555,41.2928],[-123.4589,41.2887],[-123.4632,41.2863],[-123.4619,41.2826],[-123.4468,41.276],[-123.4438,41.2732],[-123.4451,41.2682],[-123.4421,41.26],[-123.4421,41.2514],[-123.4428,41.2495],[-123.4522,41.2415],[-123.4554,41.2369],[-123.4549,41.2357],[-123.4509,41.2312],[-123.4379,41.2269],[-123.4344,41.2229],[-123.4366,41.2179],[-123.4347,41.2125],[-123.4299,41.2088],[-123.4277,41.2033],[-123.4241,41.2017],[-123.4217,41.1982],[-123.4171,41.197],[-123.4148,41.1938],[-123.415,41.1912],[-123.4107,41.1818],[-123.407,41.1799],[-123.404,41.1745],[-123.3979,41.1741],[-123.3935,41.1707],[-123.393,41.1678],[-123.3941,41.1655],[-123.3927,41.1612],[-123.3841,41.1577],[-123.3812,41.1513],[-123.373,41.1519],[-123.3705,41.1563],[-123.3635,41.1597],[-123.3622,41.1616],[-123.3532,41.1631],[-123.3415,41.1558],[-123.3336,41.1547],[-123.3296,41.1517],[-123.325,41.1415],[-123.3154,41.1403],[-123.3105,41.1432],[-123.3035,41.1438],[-123.2951,41.1407],[-123.2943,41.1379],[-123.2848,41.1285],[-123.2839,41.1235],[-123.2734,41.1229],[-123.2736,41.119],[-123.2718,41.1156],[-123.2631,41.1086],[-123.2614,41.1058],[-123.2618,41.1012],[-123.2584,41.0936],[-123.2494,41.0872],[-123.2452,41.078],[-123.2416,41.0775],[-123.2395,41.0758],[-123.2311,41.0751],[-123.2252,41.0761],[-123.2221,41.0737],[-123.2173,41.073],[-123.2089,41.0747],[-123.2032,41.0718],[-123.1931,41.0774],[-123.1883,41.0776],[-123.1789,41.0756],[-123.1652,41.0781],[-123.1556,41.0747],[-123.1487,41.0784],[-123.1413,41.0792],[-123.1329,41.0786],[-123.1285,41.0765],[-123.1261,41.0773],[-123.1091,41.0754],[-123.1096,41.0726],[-123.1067,41.0696],[-123.1059,41.0658],[-123.0983,41.063],[-123.0963,41.0594],[-123.09,41.0595],[-123.0843,41.0574],[-123.0801,41.0576],[-123.076,41.0548],[-123.0643,41.052],[-123.06,41.0474],[-123.0552,41.0467],[-123.054,41.0429],[-123.0497,41.0394],[-123.0487,41.0358],[-123.046,41.0335],[-123.0476,41.0247],[-123.0434,41.0193],[-123.044,41.0142],[-123.0371,41.0042],[-123.0296,41.0053],[-123.0245,41.0041],[-123.0121,41.0068],[-123.0072,41.0085],[-123.0037,41.0125],[-122.9972,41.0133],[-122.9897,41.0124],[-122.9801,41.0143],[-122.9689,41.0116],[-122.9646,41.012],[-122.9596,41.0102],[-122.9548,41.0066],[-122.952,41.0064],[-122.9455,40.9952],[-122.9387,40.9922],[-122.9247,40.9957],[-122.9175,40.994],[-122.9139,40.999],[-122.9153,41.0025],[-122.9145,41.0069],[-122.9129,41.0086],[-122.9059,41.0091],[-122.903,41.0116],[-122.9015,41.0146],[-122.9023,41.0175],[-122.9007,41.02],[-122.9024,41.0238],[-122.8974,41.0292],[-122.9063,41.0365],[-122.9092,41.0412],[-122.9094,41.0455],[-122.9111,41.0467],[-122.9134,41.0523],[-122.9166,41.0547],[-122.9164,41.0583],[-122.922,41.0659],[-122.9233,41.072],[-122.9421,41.0701],[-122.9474,41.073],[-122.9532,41.0743],[-122.9549,41.0763],[-122.9661,41.0809],[-122.971,41.0902],[-122.9692,41.0963],[-122.9688,41.0996],[-122.97,41.1013],[-122.9691,41.1034],[-122.9741,41.1058],[-122.9742,41.1096],[-122.9734,41.1121],[-122.969,41.115],[-122.9676,41.1179],[-122.9599,41.124],[-122.9632,41.135],[-122.9653,41.1383],[-122.9616,41.1401],[-122.9581,41.1457],[-122.9529,41.147],[-122.9517,41.1503],[-122.9547,41.1552],[-122.9547,41.1587],[-122.9573,41.1612],[-122.9547,41.1674],[-122.9609,41.1739],[-122.9626,41.1779],[-122.9613,41.1815],[-122.9564,41.1824],[-122.9513,41.1856],[-122.9384,41.1781],[-122.9356,41.1773],[-122.9292,41.1787],[-122.9248,41.1867],[-122.9154,41.1872],[-122.9121,41.1906],[-122.9088,41.1915],[-122.9069,41.1959],[-122.9011,41.1981],[-122.8945,41.2027],[-122.8887,41.2033],[-122.8859,41.2051],[-122.8808,41.2035],[-122.8707,41.2051],[-122.8636,41.2036],[-122.8625,41.202],[-122.8599,41.2015],[-122.8554,41.2021],[-122.8525,41.2007],[-122.8439,41.2002],[-122.8367,41.2067],[-122.8252,41.21],[-122.8168,41.2076],[-122.8113,41.2025],[-122.8021,41.203],[-122.7987,41.2054],[-122.7976,41.2098],[-122.7956,41.2114],[-122.7883,41.2126],[-122.7867,41.217],[-122.7812,41.2182],[-122.7781,41.2244],[-122.777,41.2308],[-122.765,41.2352],[-122.7637,41.2381],[-122.7583,41.2408],[-122.7536,41.2419],[-122.7465,41.2409],[-122.74,41.2443],[-122.7326,41.2438],[-122.7253,41.2475],[-122.7246,41.2496],[-122.7261,41.2529],[-122.7245,41.2563],[-122.7246,41.2611],[-122.7204,41.2669],[-122.717,41.2687],[-122.716,41.2714],[-122.712,41.2748],[-122.7003,41.2761],[-122.6874,41.2813],[-122.6822,41.278],[-122.6791,41.279],[-122.6775,41.28],[-122.6773,41.285],[-122.6635,41.2916],[-122.6583,41.2919],[-122.6529,41.2897],[-122.6533,41.2934],[-122.6515,41.2996],[-122.6456,41.3047],[-122.6456,41.3141],[-122.6482,41.3202],[-122.6477,41.3223],[-122.6421,41.3266],[-122.6323,41.3314],[-122.6275,41.332],[-122.6239,41.3295],[-122.6179,41.3275],[-122.6052,41.3292],[-122.5989,41.3245],[-122.5988,41.3258],[-122.5949,41.3251],[-122.5891,41.3268],[-122.5871,41.3333],[-122.581,41.3377],[-122.5811,41.3414],[-122.5842,41.344],[-122.587,41.3497],[-122.5858,41.3576],[-122.58,41.3628],[-122.5729,41.3657],[-122.5723,41.368],[-122.5739,41.3692],[-122.5761,41.3777],[-122.5664,41.3813],[-122.5694,41.3862],[-122.5663,41.3883],[-122.5656,41.3908],[-122.5702,41.3981],[-122.5705,41.4112],[-122.583,41.4105],[-122.5911,41.415],[-122.592,41.4234],[-122.5975,41.4335],[-122.6075,41.4331],[-122.6127,41.44],[-122.6182,41.4376],[-122.6215,41.4378],[-122.6198,41.4358],[-122.6264,41.4326],[-122.635,41.4323],[-122.6391,41.435],[-122.6396,41.4379],[-122.6431,41.4427],[-122.646,41.4438],[-122.6455,41.4454],[-122.6473,41.4481],[-122.6465,41.4508],[-122.6595,41.4559],[-122.6642,41.4607],[-122.6639,41.467],[-122.6622,41.47],[-122.646,41.4836],[-122.6422,41.4897],[-122.6425,41.4969],[-122.6462,41.4989],[-122.6468,41.5005],[-122.6456,41.5015],[-122.6398,41.5015],[-122.639,41.5033],[-122.6394,41.5084],[-122.6429,41.512],[-122.6375,41.5135],[-122.6386,41.521],[-122.6417,41.5257],[-122.6373,41.5275],[-122.6424,41.5369],[-122.643,41.5445],[-122.6454,41.5466],[-122.6457,41.5501],[-122.6408,41.5574],[-122.6411,41.5615],[-122.6389,41.5639],[-122.6371,41.5636],[-122.6381,41.5676],[-122.6451,41.5649],[-122.6478,41.5669],[-122.6517,41.5675],[-122.652,41.5695],[-122.6543,41.5676],[-122.6528,41.5682],[-122.6533,41.5668],[-122.6521,41.5659],[-122.6596,41.5672],[-122.6629,41.5661],[-122.6747,41.5655],[-122.6807,41.5677],[-122.688,41.5675],[-122.6903,41.5726],[-122.6945,41.5761],[-122.7069,41.581],[-122.7146,41.5859],[-122.7237,41.5881],[-122.7268,41.5908],[-122.7289,41.5909],[-122.7295,41.5923],[-122.7323,41.5926],[-122.7334,41.5951],[-122.7396,41.5944],[-122.7411,41.5977],[-122.7462,41.6004],[-122.7484,41.5995],[-122.746,41.5994],[-122.7457,41.5961],[-122.7466,41.5956],[-122.7461,41.5964],[-122.7478,41.5976],[-122.7497,41.5972],[-122.7485,41.5955],[-122.7493,41.5932],[-122.7522,41.5927],[-122.7569,41.5884],[-122.7644,41.5872],[-122.7693,41.5903],[-122.7744,41.5886],[-122.7819,41.5816],[-122.7858,41.5809],[-122.7913,41.5748],[-122.7924,41.5717],[-122.8091,41.5653],[-122.8144,41.5618],[-122.8272,41.5589],[-122.836,41.5704],[-122.854,41.5704],[-122.8555,41.5749],[-122.8611,41.5777],[-122.8686,41.5784],[-122.8981,41.5559],[-122.9007,41.5527],[-122.9117,41.5504],[-122.915,41.5517],[-122.9233,41.5584],[-122.9234,41.5657],[-122.9362,41.5661],[-122.9428,41.5708],[-122.9526,41.5731],[-122.9537,41.576],[-122.9573,41.5786],[-122.9589,41.5826],[-122.9567,41.5855],[-122.9566,41.5893],[-122.9609,41.5926],[-122.9583,41.5965],[-122.9571,41.6014],[-122.963,41.6089],[-122.96,41.6111],[-122.9624,41.6154],[-122.9611,41.617],[-122.965,41.6188],[-122.9652,41.624],[-122.9617,41.6246],[-122.9557,41.63],[-122.9553,41.6322],[-122.9649,41.6359],[-122.976,41.6379],[-122.9832,41.6382],[-122.9859,41.634],[-122.9895,41.6353],[-122.9917,41.6393],[-122.996,41.639],[-122.9994,41.6414],[-123.0036,41.6399],[-123.0111,41.6397],[-123.0169,41.6409],[-123.0207,41.6381],[-123.0311,41.6448],[-123.0418,41.645],[-123.0508,41.6415],[-123.0545,41.6385],[-123.0625,41.64],[-123.0677,41.6365],[-123.0727,41.6352],[-123.0784,41.6357],[-123.0827,41.6329],[-123.0883,41.6342],[-123.093,41.6334],[-123.0954,41.6352],[-123.1018,41.6327],[-123.1042,41.6332],[-123.1057,41.6306],[-123.1053,41.6276],[-123.1185,41.6182],[-123.1211,41.6154],[-123.1194,41.6134],[-123.1197,41.6109],[-123.125,41.6077],[-123.122,41.6121],[-123.124,41.6144],[-123.1247,41.6115],[-123.1298,41.6092],[-123.1275,41.6117],[-123.1308,41.6157],[-123.131,41.6139],[-123.1333,41.6133],[-123.1336,41.6119],[-123.1368,41.6112],[-123.1365,41.6097],[-123.1383,41.6122],[-123.1366,41.6188],[-123.1443,41.6214],[-123.1573,41.6138],[-123.1592,41.6209],[-123.1656,41.6166],[-123.1688,41.6166],[-123.1705,41.6189],[-123.1757,41.6168],[-123.1767,41.6146],[-123.1804,41.6149],[-123.1845,41.6127],[-123.1847,41.6144],[-123.1921,41.613],[-123.1947,41.6133],[-123.1935,41.6143],[-123.1965,41.614],[-123.2061,41.6114],[-123.2113,41.6135],[-123.2789,41.6132],[-123.2783,41.6021],[-123.2807,41.5926],[-123.2631,41.4904],[-123.2412,41.4897],[-123.2492,41.4883],[-123.2493,41.4844],[-123.2549,41.4811],[-123.2581,41.4814],[-123.2623,41.4791],[-123.2668,41.4796],[-123.2694,41.4777],[-123.2748,41.4772],[-123.2743,41.474],[-123.2774,41.4706],[-123.2838,41.4678],[-123.2886,41.4676],[-123.2895,41.4635],[-123.2995,41.4587],[-123.3105,41.4508],[-123.3183,41.4495],[-123.3221,41.4507],[-123.3292,41.4451],[-123.3312,41.4465],[-123.3339,41.4442],[-123.3383,41.4447],[-123.3404,41.4432],[-123.344,41.4449],[-123.3482,41.442],[-123.3569,41.4413],[-123.3604,41.4396],[-123.364,41.4408],[-123.3665,41.4383],[-123.3702,41.4387],[-123.3703,41.4362],[-123.3735,41.4322],[-123.3782,41.4325],[-123.3767,41.4285],[-123.3815,41.4271],[-123.385,41.4216],[-123.3884,41.4204],[-123.3861,41.4185],[-123.3864,41.417],[-123.3949,41.4163],[-123.3971,41.4131],[-123.3963,41.4105],[-123.4,41.4071],[-123.4025,41.407],[-123.4047,41.4045],[-123.4083,41.403],[-123.4117,41.3946],[-123.414,41.3942],[-123.4105,41.392],[-123.4162,41.3901],[-123.4192,41.3867],[-123.4215,41.3798],[-123.4208,41.3786],[-123.4231,41.378],[-123.4219,41.3767],[-123.4232,41.376],[-123.4329,41.3732],[-123.434,41.3738],[-123.433,41.3753],[-123.4399,41.378],[-123.4448,41.3704],[-123.449,41.3735],[-123.4547,41.3737],[-123.4605,41.3789],[-123.4631,41.3781],[-123.4668,41.3801],[-123.4752,41.3788],[-123.4782,41.3769],[-123.4824,41.3779],[-123.4855,41.3773],[-123.4919,41.3794],[-123.4936,41.3775]]]},"properties":{"GEOID":"0609390920","BASENAME":"Etna","NAME":"Etna CCD","COUNTY":"093","COUSUB":"90920"}}]}