{"type":"FeatureCollection","features":[{"type":"Feature","geometry":{"type":"Polygon","coordinates":[[[-122.1266,38.4355],[-122.1251,38.4241],[-122.1199,38.4184],[-122.1177,38.414],[-122.1146,38.4139],[-122.1151,38.4123],[-122.1097,38.4074],[-122.1095,38.4045],[-122.0891,38.3846],[-122.0777,38.3638],[-122.0761,38.3638],[-122.0735,38.3614],[-122.0733,38.3569],[-122.0696,38.3509],[-122.0709,38.3484],[-122.0698,38.3428],[-122.0657,38.3343],[-122.0633,38.3335],[-122.0615,38.3296],[-122.0617,38.3257],[-122.0652,38.3235],[-122.068,38.3186],[-122.0619,38.3133],[-122.0538,38.3155],[-122.0419,38.315],[-122.0372,38.3131],[-122.0392,38.3101],[-122.0333,38.3097],[-122.0316,38.3156],[-122.0239,38.3251],[-122.0217,38.3241],[-122.0101,38.3242],[-122.0109,38.3158],[-122.0068,38.3158],[-122.0041,38.313],[-121.9942,38.3116],[-121.9888,38.3144],[-121.9823,38.313],[-121.9767,38.3157],[-121.9651,38.3157],[-121.9537,38.3089],[-121.9514,38.3088],[-121.9514,38.3057],[-121.9471,38.3043],[-121.9477,38.3015],[-121.9338,38.3013],[-121.9338,38.3085],[-121.9155,38.3082],[-121.9155,38.3155],[-121.8971,38.3154],[-121.8966,38.4142],[-121.8931,38.4158],[-121.8992,38.417],[-121.9156,38.417],[-121.9156,38.4675],[-121.9237,38.4678],[-121.9239,38.5006],[-121.926,38.5],[-121.9281,38.5033],[-121.9323,38.5019],[-121.9465,38.5273],[-121.9636,38.5228],[-121.968,38.52],[-121.9707,38.5158],[-121.9747,38.5137],[-121.9781,38.5083],[-121.9854,38.5057],[-121.9866,38.503],[-121.9959,38.5004],[-122.0031,38.4939],[-122.0052,38.4938],[-122.0134,38.4887],[-122.0189,38.4893],[-122.0356,38.4961],[-122.0384,38.4991],[-122.0416,38.5057],[-122.0574,38.5174],[-122.0714,38.5138],[-122.0869,38.5145],[-122.0908,38.516],[-122.095,38.5131],[-122.1041,38.5134],[-122.1038,38.5102],[-122.1063,38.5083],[-122.1056,38.5012],[-122.1072,38.4945],[-122.1047,38.4909],[-122.1083,38.4863],[-122.109,38.482],[-122.1191,38.4607],[-122.1266,38.4355]]]},"properties":{"GEOID":"0609593520","BASENAME":"Vacaville","NAME":"Vacaville CCD","COUNTY":"095","COUSUB":"93520"}},{"type":"Feature","geometry":{"type":"Polygon","coordinates":[[[-122.407,38.1556],[-122.3911,38.1326],[-122.3878,38.1249],[-122.3475,38.0733],[-122.2653,38.0599],[-122.2453,38.064],[-122.2008,38.0579],[-122.1839,38.054],[-122.1761,38.0478],[-122.1676,38.0367],[-122.1646,38.0347],[-122.1486,38.0317],[-122.1394,38.0322],[-122.124,38.0357],[-122.121,38.038],[-122.0987,38.0475],[-122.0774,38.054],[-122.0673,38.0601],[-122.0613,38.0621],[-122.0504,38.0602],[-122.0538,38.1023],[-122.0558,38.1065],[-122.0646,38.1202],[-122.0788,38.1235],[-122.0823,38.1269],[-122.0824,38.1363],[-122.0866,38.1352],[-122.0955,38.1379],[-122.0953,38.1392],[-122.0849,38.1492],[-122.0846,38.1509],[-122.0858,38.1519],[-122.0895,38.1527],[-122.0998,38.1332],[-122.1011,38.1257],[-122.107,38.1249],[-122.1105,38.1362],[-122.1099,38.1449],[-122.1111,38.1467],[-122.1144,38.1471],[-122.1233,38.1415],[-122.1243,38.1374],[-122.1216,38.1297],[-122.1278,38.125],[-122.1324,38.1262],[-122.138,38.1242],[-122.1415,38.1215],[-122.1402,38.1177],[-122.1474,38.1212],[-122.1482,38.1243],[-122.149,38.1205],[-122.1508,38.1213],[-122.1547,38.1201],[-122.1578,38.122],[-122.1623,38.121],[-122.1636,38.1186],[-122.1647,38.1208],[-122.1658,38.1207],[-122.1665,38.131],[-122.1693,38.1341],[-122.1701,38.1406],[-122.1738,38.1495],[-122.1765,38.1516],[-122.1792,38.1515],[-122.1858,38.1592],[-122.1933,38.1602],[-122.1962,38.1627],[-122.1988,38.1593],[-122.1954,38.155],[-122.407,38.1556]]]},"properties":{"GEOID":"0609593530","BASENAME":"Vallejo","NAME":"Vallejo CCD","COUNTY":"095","COUSUB":"93530"}},{"type":"Feature","geometry":{"type":"Polygon","coordinates":[[[-121.9475,38.5271],[-121.9461,38.5268],[-121.9323,38.5019],[-121.9281,38.5033],[-121.926,38.5],[-121.9239,38.5006],[-121.9237,38.4678],[-121.9156,38.4675],[-121.9156,38.417],[-121.8992,38.417],[-121.8931,38.4158],[-121.8966,38.4142],[-121.8971,38.3154],[-121.8234,38.315],[-121.8235,38.3078],[-121.8215,38.3075],[-121.7597,38.3068],[-121.7582,38.3042],[-121.757,38.3051],[-121.7564,38.3022],[-121.7538,38.2995],[-121.7501,38.299],[-121.7483,38.297],[-121.7389,38.2928],[-121.727,38.2907],[-121.7219,38.2868],[-121.7172,38.2873],[-121.716,38.2917],[-121.7124,38.2922],[-121.7122,38.3145],[-121.694,38.3145],[-121.6936,38.4876],[-121.6958,38.4876],[-121.6947,38.5271],[-121.7007,38.5274],[-121.7044,38.5304],[-121.7047,38.5322],[-121.7061,38.532],[-121.7074,38.5349],[-121.7098,38.5354],[-121.712,38.538],[-121.7222,38.5349],[-121.7387,38.5376],[-121.7466,38.5318],[-121.7572,38.5295],[-121.7651,38.5259],[-121.7677,38.5266],[-121.7685,38.5308],[-121.7717,38.5323],[-121.7797,38.5299],[-121.783,38.527],[-121.7836,38.5233],[-121.7858,38.5231],[-121.7948,38.5269],[-121.8133,38.526],[-121.8251,38.5293],[-121.8326,38.5298],[-121.8441,38.5352],[-121.8573,38.5381],[-121.8667,38.5374],[-121.8836,38.539],[-121.8884,38.5378],[-121.8938,38.5334],[-121.909,38.5296],[-121.9253,38.5297],[-121.9411,38.5333],[-121.9475,38.5271]]]},"properties":{"GEOID":"0609590700","BASENAME":"Dixon","NAME":"Dixon CCD","COUNTY":"095","COUSUB":"90700"}},{"type":"Feature","geometry":{"type":"Polygon","coordinates":[[[-122.2167,38.2627],[-122.2131,38.2592],[-122.2043,38.2588],[-122.2033,38.2598],[-122.1973,38.2589],[-122.1933,38.2564],[-122.1948,38.2552],[-122.1946,38.2518],[-122.1996,38.2512],[-122.2015,38.2489],[-122.2113,38.2528],[-122.2119,38.2508],[-122.2122,38.2488],[-122.209,38.2446],[-122.2051,38.2441],[-122.2041,38.2411],[-122.2015,38.2401],[-122.193,38.2231],[-122.1932,38.2213],[-122.1959,38.2196],[-122.1963,38.2181],[-122.1939,38.2137],[-122.1995,38.2107],[-122.2045,38.2054],[-122.2057,38.1963],[-122.2116,38.192],[-122.2093,38.1901],[-122.2152,38.1888],[-122.213,38.1843],[-122.215,38.1795],[-122.209,38.1729],[-122.2033,38.1726],[-122.2034,38.1688],[-122.1981,38.1686],[-122.1953,38.1673],[-122.194,38.1651],[-122.1962,38.1627],[-122.1934,38.1603],[-122.1858,38.1592],[-122.1792,38.1515],[-122.1765,38.1516],[-122.1738,38.1495],[-122.1701,38.1406],[-122.1693,38.1341],[-122.1665,38.131],[-122.1658,38.1207],[-122.1647,38.1208],[-122.1636,38.1186],[-122.1623,38.121],[-122.1578,38.122],[-122.1547,38.1201],[-122.1508,38.1213],[-122.149,38.1205],[-122.1482,38.1243],[-122.1474,38.1212],[-122.1402,38.1177],[-122.1415,38.1215],[-122.138,38.1242],[-122.1324,38.1262],[-122.1278,38.125],[-122.1216,38.1297],[-122.1243,38.1374],[-122.1233,38.1415],[-122.1141,38.1471],[-122.1111,38.1467],[-122.1099,38.1449],[-122.1105,38.1362],[-122.107,38.1249],[-122.1011,38.1257],[-122.0998,38.1332],[-122.0895,38.1527],[-122.0857,38.1518],[-122.0846,38.1496],[-122.0953,38.1392],[-122.0955,38.1378],[-122.0866,38.1352],[-122.0824,38.1363],[-122.0823,38.1269],[-122.0788,38.1235],[-122.0646,38.1202],[-122.0542,38.1035],[-122.0504,38.0602],[-122.0284,38.0592],[-122.0152,38.0635],[-121.9832,38.0673],[-121.9774,38.0668],[-121.9622,38.0614],[-121.9509,38.055],[-121.9509,38.0539],[-121.9354,38.0488],[-121.9221,38.0459],[-121.9101,38.045],[-121.8896,38.0467],[-121.8761,38.0501],[-121.8695,38.0545],[-121.8636,38.0624],[-121.8616,38.0699],[-121.8755,38.0722],[-121.8808,38.0744],[-121.8854,38.0797],[-121.8825,38.0851],[-121.8835,38.0889],[-121.8886,38.0946],[-121.8957,38.0969],[-121.8952,38.0996],[-121.8895,38.1049],[-121.8909,38.1133],[-121.8886,38.121],[-121.8901,38.1251],[-121.8957,38.1264],[-121.8985,38.1251],[-121.9033,38.1196],[-121.9062,38.1189],[-121.9129,38.1206],[-121.9151,38.1246],[-121.9153,38.1315],[-121.914,38.1345],[-121.9087,38.1399],[-121.9089,38.1439],[-121.9112,38.1472],[-121.9166,38.15],[-121.9283,38.1598],[-121.9343,38.1672],[-121.929,38.1725],[-121.9208,38.1763],[-121.9186,38.1786],[-121.929,38.185],[-121.9303,38.1898],[-121.9275,38.195],[-121.9207,38.1994],[-121.9229,38.2062],[-121.921,38.2088],[-121.9213,38.2128],[-121.9188,38.2142],[-121.9172,38.2177],[-121.9194,38.2189],[-121.9176,38.2204],[-121.9197,38.2219],[-121.9194,38.2251],[-121.9213,38.2281],[-121.9036,38.2284],[-121.9119,38.2416],[-121.9154,38.2429],[-121.9145,38.2611],[-121.9155,38.2614],[-121.9154,38.2646],[-121.8922,38.2822],[-121.8974,38.2857],[-121.915,38.2734],[-121.9155,38.3082],[-121.9337,38.3086],[-121.9338,38.3013],[-121.9476,38.3015],[-121.9471,38.3043],[-121.9514,38.3057],[-121.9514,38.3088],[-121.9537,38.3089],[-121.9625,38.315],[-121.9767,38.3157],[-121.9823,38.313],[-121.9888,38.3144],[-121.9942,38.3116],[-122.0041,38.313],[-122.0068,38.3158],[-122.0109,38.3158],[-122.0101,38.3242],[-122.0217,38.3241],[-122.0239,38.3251],[-122.0316,38.3156],[-122.0333,38.3097],[-122.0392,38.3101],[-122.0371,38.313],[-122.0411,38.3149],[-122.0538,38.3155],[-122.0619,38.3133],[-122.0648,38.3159],[-122.2061,38.3158],[-122.2045,38.3116],[-122.2008,38.3096],[-122.2026,38.3042],[-122.1988,38.3012],[-122.2034,38.2934],[-122.2013,38.2928],[-122.2013,38.2899],[-122.1981,38.2849],[-122.1901,38.2775],[-122.1911,38.2759],[-122.1882,38.2717],[-122.1943,38.2709],[-122.1974,38.273],[-122.2098,38.2717],[-122.2121,38.2731],[-122.2161,38.2662],[-122.2167,38.2627]]]},"properties":{"GEOID":"0609590950","BASENAME":"Fairfield-Suisun City","NAME":"Fairfield-Suisun City CCD","COUNTY":"095","COUSUB":"90950"}},{"type":"Feature","geometry":{"type":"Polygon","coordinates":[[[-121.9344,38.1679],[-121.9283,38.1598],[-121.9166,38.15],[-121.9112,38.1472],[-121.9089,38.1439],[-121.9087,38.1399],[-121.914,38.1345],[-121.9153,38.1315],[-121.9151,38.1246],[-121.9129,38.1206],[-121.91,38.119],[-121.9034,38.1195],[-121.8985,38.1251],[-121.8957,38.1264],[-121.8914,38.126],[-121.8891,38.1236],[-121.8886,38.1201],[-121.8909,38.1124],[-121.8895,38.1049],[-121.8959,38.0976],[-121.8863,38.093],[-121.8824,38.0863],[-121.8854,38.0804],[-121.8851,38.0788],[-121.8783,38.0732],[-121.8616,38.0699],[-121.8424,38.0767],[-121.8376,38.0744],[-121.8279,38.0662],[-121.8108,38.0608],[-121.8016,38.0595],[-121.7964,38.0608],[-121.7432,38.0872],[-121.7293,38.0823],[-121.7139,38.0845],[-121.7109,38.0865],[-121.7084,38.0915],[-121.7065,38.1119],[-121.6984,38.1213],[-121.6921,38.1331],[-121.6877,38.1468],[-121.6856,38.1596],[-121.678,38.1649],[-121.6629,38.1819],[-121.6466,38.186],[-121.6421,38.19],[-121.6323,38.1943],[-121.6214,38.1936],[-121.6154,38.1957],[-121.6127,38.1989],[-121.6104,38.2084],[-121.6021,38.2216],[-121.6032,38.2373],[-121.6018,38.2447],[-121.6021,38.252],[-121.6002,38.2578],[-121.604,38.2701],[-121.6007,38.2784],[-121.6014,38.2813],[-121.6054,38.2857],[-121.6039,38.2895],[-121.6052,38.2961],[-121.5999,38.3015],[-121.5997,38.3046],[-121.5976,38.3072],[-121.5987,38.3099],[-121.5933,38.3131],[-121.7122,38.3145],[-121.7124,38.2922],[-121.716,38.2917],[-121.7172,38.2873],[-121.7201,38.2866],[-121.7224,38.287],[-121.7273,38.2908],[-121.7389,38.2928],[-121.7483,38.297],[-121.7501,38.299],[-121.754,38.2996],[-121.7567,38.3027],[-121.757,38.3051],[-121.7582,38.3042],[-121.7597,38.3068],[-121.8215,38.3075],[-121.8235,38.3078],[-121.8234,38.315],[-121.9155,38.3155],[-121.915,38.2734],[-121.8974,38.2857],[-121.8922,38.2822],[-121.9154,38.2646],[-121.9155,38.2614],[-121.9145,38.2611],[-121.9154,38.2429],[-121.9119,38.2416],[-121.9036,38.2284],[-121.9213,38.2281],[-121.9194,38.2251],[-121.9197,38.2219],[-121.9176,38.2204],[-121.9194,38.2189],[-121.9172,38.2177],[-121.9188,38.2142],[-121.9213,38.2128],[-121.921,38.2088],[-121.9229,38.2062],[-121.9207,38.1994],[-121.9275,38.195],[-121.9303,38.1898],[-121.929,38.185],[-121.9186,38.1786],[-121.9344,38.1679]]]},"properties":{"GEOID":"0609592610","BASENAME":"Rio Vista","NAME":"Rio Vista CCD","COUNTY":"095","COUSUB":"92610"}}]}