{"type":"FeatureCollection","features":[{"type":"Feature","geometry":{"type":"Polygon","coordinates":[[[-123.0802,38.6696],[-123.0754,38.6624],[-123.0746,38.6587],[-123.068,38.6534],[-123.0685,38.6513],[-123.0659,38.649],[-123.0561,38.6458],[-123.053,38.646],[-123.0517,38.6481],[-123.0499,38.6473],[-123.0522,38.6391],[-123.0481,38.6376],[-123.0442,38.6321],[-123.0431,38.6323],[-123.0449,38.6309],[-123.0448,38.629],[-123.0436,38.6308],[-123.0395,38.6286],[-123.0386,38.6261],[-123.0365,38.6258],[-123.0366,38.6244],[-123.0385,38.6234],[-123.0322,38.6226],[-123.0279,38.6184],[-123.0249,38.6175],[-123.0235,38.6162],[-123.0244,38.6139],[-123.0189,38.6108],[-123.0187,38.6085],[-123.0174,38.6094],[-123.0117,38.6084],[-122.9979,38.5974],[-123.0043,38.5926],[-123.0006,38.5902],[-123.0047,38.5911],[-123.0094,38.5893],[-123.0126,38.5896],[-123.0195,38.5951],[-123.0388,38.5913],[-123.0443,38.5862],[-123.0611,38.5897],[-123.0657,38.585],[-123.0663,38.5822],[-123.0652,38.5795],[-123.0628,38.5779],[-123.0589,38.578],[-123.0511,38.5733],[-123.0497,38.5707],[-123.0478,38.5707],[-123.0466,38.5686],[-123.0442,38.5692],[-123.0399,38.5661],[-123.0395,38.5675],[-123.0382,38.5661],[-123.0377,38.567],[-123.0362,38.5652],[-123.0318,38.5653],[-123.0303,38.5671],[-123.0268,38.5665],[-123.0264,38.5646],[-123.0176,38.5656],[-123.0123,38.5622],[-123.0114,38.5644],[-123.0091,38.5629],[-123.0049,38.5651],[-123.0029,38.5636],[-122.9997,38.5661],[-122.9889,38.5622],[-122.9866,38.563],[-122.9782,38.5621],[-122.9782,38.5602],[-122.9697,38.5561],[-122.9688,38.5527],[-122.9661,38.5503],[-122.9638,38.5512],[-122.963,38.5493],[-122.9586,38.5487],[-122.9551,38.5498],[-122.9437,38.5457],[-122.9281,38.5429],[-122.9199,38.5386],[-122.9134,38.5399],[-122.9027,38.5374],[-122.888,38.5394],[-122.88,38.5342],[-122.8741,38.5341],[-122.8703,38.536],[-122.8682,38.5357],[-122.8683,38.5295],[-122.8661,38.5245],[-122.8669,38.5186],[-122.8763,38.5215],[-122.8899,38.52],[-122.8902,38.5179],[-122.883,38.515],[-122.8844,38.5117],[-122.883,38.5079],[-122.8862,38.4978],[-122.8896,38.4944],[-122.893,38.4938],[-122.8896,38.4934],[-122.8879,38.4918],[-122.8838,38.492],[-122.8813,38.4942],[-122.8786,38.4939],[-122.8778,38.4969],[-122.8682,38.4967],[-122.8655,38.5013],[-122.861,38.5032],[-122.8576,38.502],[-122.857,38.4979],[-122.853,38.4942],[-122.8494,38.4962],[-122.8444,38.4925],[-122.845,38.4888],[-122.8417,38.4857],[-122.8424,38.4846],[-122.8358,38.4818],[-122.8256,38.4832],[-122.8257,38.495],[-122.827,38.4963],[-122.8258,38.4988],[-122.826,38.5108],[-122.8213,38.5109],[-122.8213,38.5214],[-122.8169,38.5218],[-122.8168,38.5248],[-122.7649,38.5257],[-122.7652,38.5318],[-122.7668,38.5351],[-122.7721,38.5402],[-122.7745,38.5403],[-122.7747,38.5449],[-122.7722,38.5468],[-122.7674,38.5451],[-122.7625,38.5477],[-122.7622,38.5496],[-122.7585,38.5519],[-122.758,38.5534],[-122.74,38.5583],[-122.7408,38.557],[-122.7361,38.5549],[-122.731,38.5577],[-122.7221,38.5495],[-122.7137,38.5499],[-122.7093,38.5487],[-122.6971,38.5547],[-122.6912,38.5602],[-122.6921,38.5629],[-122.6898,38.5641],[-122.6843,38.5637],[-122.6841,38.5673],[-122.6818,38.5696],[-122.6801,38.5705],[-122.6777,38.5696],[-122.6738,38.572],[-122.6756,38.5746],[-122.674,38.5766],[-122.6755,38.5767],[-122.6749,38.5787],[-122.6802,38.5846],[-122.683,38.5948],[-122.6857,38.5968],[-122.688,38.6034],[-122.6915,38.6073],[-122.6967,38.6084],[-122.7011,38.6113],[-122.7051,38.6113],[-122.7099,38.614],[-122.7151,38.6149],[-122.7231,38.6129],[-122.7342,38.6133],[-122.7382,38.6113],[-122.7445,38.6174],[-122.7476,38.6185],[-122.751,38.6181],[-122.7503,38.6145],[-122.7534,38.6121],[-122.7561,38.6118],[-122.7568,38.6136],[-122.7584,38.6139],[-122.7678,38.6095],[-122.7723,38.6104],[-122.7727,38.6122],[-122.774,38.6112],[-122.7844,38.6133],[-122.7854,38.6215],[-122.7887,38.6257],[-122.789,38.6321],[-122.7947,38.6379],[-122.7971,38.6464],[-122.8214,38.6534],[-122.8282,38.6585],[-122.8376,38.6593],[-122.8496,38.6627],[-122.8537,38.6668],[-122.8604,38.6662],[-122.8633,38.665],[-122.8633,38.6638],[-122.8723,38.6623],[-122.8718,38.6594],[-122.8826,38.6614],[-122.891,38.657],[-122.9072,38.6576],[-122.9115,38.6518],[-122.9104,38.6488],[-122.9173,38.6507],[-122.9221,38.6548],[-122.9265,38.6531],[-122.9304,38.6586],[-122.9372,38.6602],[-122.9405,38.6627],[-122.9425,38.6665],[-122.9422,38.6779],[-122.9445,38.6805],[-122.95,38.6822],[-122.9535,38.687],[-122.9564,38.6886],[-122.9546,38.6907],[-122.9559,38.6957],[-122.9667,38.7062],[-122.9753,38.708],[-122.9761,38.712],[-122.9804,38.7134],[-122.9868,38.7194],[-122.9986,38.7202],[-123.0002,38.7162],[-122.995,38.7145],[-122.9947,38.7126],[-122.9997,38.7117],[-123.0038,38.7083],[-123.0053,38.71],[-123.0034,38.7124],[-123.0054,38.7132],[-123.0072,38.7069],[-123.0133,38.7049],[-123.0133,38.6939],[-123.0068,38.6886],[-123.0068,38.6871],[-123.0091,38.6856],[-123.0109,38.6868],[-123.0144,38.6865],[-123.0157,38.6816],[-123.0181,38.6793],[-123.0213,38.6795],[-123.0243,38.6769],[-123.026,38.6727],[-123.0224,38.6735],[-123.0216,38.6727],[-123.0268,38.6691],[-123.0264,38.6663],[-123.0323,38.6698],[-123.0373,38.668],[-123.0479,38.673],[-123.052,38.6731],[-123.0597,38.678],[-123.0642,38.6757],[-123.0669,38.678],[-123.0735,38.6752],[-123.0759,38.6753],[-123.0802,38.6696]]]},"properties":{"GEOID":"0609791270","BASENAME":"Healdsburg","NAME":"Healdsburg CCD","COUNTY":"097","COUSUB":"91270"}},{"type":"Feature","geometry":{"type":"Polygon","coordinates":[[[-122.846,38.4833],[-122.8453,38.4806],[-122.8427,38.4786],[-122.8411,38.4684],[-122.8375,38.4631],[-122.8338,38.4611],[-122.8354,38.4558],[-122.8344,38.4514],[-122.836,38.4474],[-122.8387,38.4449],[-122.8389,38.4349],[-122.8349,38.4338],[-122.8339,38.4307],[-122.8299,38.4303],[-122.8294,38.4251],[-122.8239,38.4204],[-122.8247,38.4166],[-122.8203,38.416],[-122.8151,38.4124],[-122.8183,38.4091],[-122.8153,38.3993],[-122.8083,38.3962],[-122.8004,38.3958],[-122.7971,38.3906],[-122.7969,38.3869],[-122.7981,38.3852],[-122.7959,38.3831],[-122.7887,38.3811],[-122.7756,38.3732],[-122.7751,38.3708],[-122.7771,38.3682],[-122.7765,38.3663],[-122.7732,38.3657],[-122.77,38.3667],[-122.7662,38.3654],[-122.7612,38.3618],[-122.7561,38.3601],[-122.7526,38.3555],[-122.7461,38.3524],[-122.7413,38.3521],[-122.7413,38.3633],[-122.7128,38.3632],[-122.7124,38.3683],[-122.7144,38.3718],[-122.7134,38.3732],[-122.7135,38.3793],[-122.6859,38.3795],[-122.6856,38.382],[-122.6788,38.3774],[-122.6675,38.3724],[-122.667,38.3552],[-122.6584,38.3566],[-122.6463,38.3483],[-122.6436,38.3473],[-122.6388,38.3484],[-122.6363,38.3591],[-122.6318,38.3641],[-122.6262,38.3663],[-122.6237,38.369],[-122.6239,38.3736],[-122.6267,38.3793],[-122.6292,38.3811],[-122.6305,38.387],[-122.6245,38.398],[-122.6212,38.3992],[-122.6104,38.397],[-122.5992,38.3851],[-122.5957,38.3847],[-122.5917,38.3878],[-122.574,38.3886],[-122.5702,38.3869],[-122.562,38.3866],[-122.5521,38.3808],[-122.5526,38.3849],[-122.5507,38.3867],[-122.5525,38.39],[-122.551,38.3939],[-122.5536,38.4021],[-122.5512,38.4052],[-122.5542,38.4073],[-122.5538,38.4123],[-122.5554,38.4147],[-122.5644,38.4195],[-122.5648,38.4208],[-122.5594,38.4243],[-122.5595,38.4291],[-122.5447,38.4387],[-122.542,38.4424],[-122.5369,38.4415],[-122.5301,38.4427],[-122.5237,38.44],[-122.5218,38.438],[-122.5145,38.4375],[-122.5103,38.4353],[-122.5002,38.4372],[-122.4966,38.4406],[-122.496,38.443],[-122.497,38.444],[-122.4966,38.4465],[-122.5002,38.4493],[-122.5002,38.4528],[-122.506,38.4557],[-122.4967,38.4548],[-122.4969,38.4557],[-122.5096,38.4575],[-122.5085,38.4603],[-122.5097,38.4622],[-122.5079,38.4645],[-122.5061,38.4641],[-122.5068,38.4655],[-122.516,38.4709],[-122.5201,38.4714],[-122.5297,38.4697],[-122.5313,38.4785],[-122.5364,38.4827],[-122.538,38.4867],[-122.5404,38.4887],[-122.541,38.4921],[-122.5449,38.4963],[-122.5426,38.4991],[-122.5378,38.4982],[-122.5353,38.5017],[-122.5407,38.5031],[-122.5427,38.5072],[-122.5455,38.5068],[-122.5472,38.5103],[-122.55,38.5112],[-122.5417,38.5133],[-122.5453,38.5167],[-122.5432,38.518],[-122.5439,38.52],[-122.5468,38.5212],[-122.5471,38.5226],[-122.5505,38.522],[-122.5512,38.5242],[-122.5542,38.5262],[-122.5577,38.5257],[-122.5624,38.5271],[-122.5638,38.5254],[-122.5666,38.5256],[-122.5662,38.5281],[-122.5703,38.53],[-122.5696,38.5331],[-122.5725,38.536],[-122.574,38.5404],[-122.5772,38.5423],[-122.5821,38.5494],[-122.5859,38.5494],[-122.5873,38.5526],[-122.601,38.5559],[-122.6032,38.5588],[-122.6081,38.5599],[-122.6111,38.5584],[-122.6143,38.5587],[-122.6208,38.5603],[-122.6204,38.5657],[-122.6227,38.5677],[-122.6267,38.5702],[-122.6318,38.5694],[-122.6326,38.5718],[-122.6309,38.5751],[-122.6319,38.5765],[-122.6302,38.5785],[-122.6334,38.5801],[-122.6351,38.583],[-122.651,38.581],[-122.6631,38.5851],[-122.6719,38.5837],[-122.6733,38.5821],[-122.6772,38.5822],[-122.6748,38.5785],[-122.6755,38.5767],[-122.674,38.5767],[-122.6756,38.5746],[-122.674,38.5717],[-122.6777,38.5696],[-122.6801,38.5705],[-122.6818,38.5696],[-122.6841,38.5673],[-122.6843,38.5637],[-122.6898,38.5641],[-122.6921,38.5629],[-122.6912,38.5602],[-122.6971,38.5547],[-122.709,38.5488],[-122.7137,38.5499],[-122.7221,38.5495],[-122.731,38.5577],[-122.7361,38.5549],[-122.7408,38.557],[-122.74,38.5583],[-122.758,38.5534],[-122.7585,38.5519],[-122.7622,38.5496],[-122.7625,38.5477],[-122.7674,38.5451],[-122.7722,38.5468],[-122.7747,38.5449],[-122.7745,38.5403],[-122.7721,38.5402],[-122.7668,38.5351],[-122.7652,38.5318],[-122.7648,38.5257],[-122.8168,38.5248],[-122.8169,38.5218],[-122.8213,38.5214],[-122.8213,38.5109],[-122.826,38.5108],[-122.8258,38.4988],[-122.827,38.4963],[-122.8257,38.495],[-122.8256,38.4832],[-122.8353,38.4818],[-122.8418,38.4845],[-122.846,38.4833]]]},"properties":{"GEOID":"0609792940","BASENAME":"Santa Rosa","NAME":"Santa Rosa CCD","COUNTY":"097","COUSUB":"92940"}},{"type":"Feature","geometry":{"type":"Polygon","coordinates":[[[-122.6305,38.3871],[-122.6292,38.3811],[-122.6267,38.3793],[-122.6239,38.3736],[-122.6232,38.3682],[-122.6202,38.367],[-122.6156,38.3678],[-122.6021,38.363],[-122.5973,38.3527],[-122.593,38.3507],[-122.5892,38.3501],[-122.5866,38.3514],[-122.5811,38.3499],[-122.5802,38.347],[-122.5736,38.3403],[-122.5732,38.3345],[-122.5718,38.3348],[-122.5665,38.3283],[-122.5694,38.3271],[-122.5735,38.3276],[-122.5747,38.3227],[-122.5734,38.3168],[-122.5676,38.3129],[-122.5536,38.2938],[-122.5553,38.2885],[-122.5598,38.2877],[-122.5632,38.2852],[-122.5462,38.2727],[-122.5455,38.2708],[-122.535,38.265],[-122.5332,38.2626],[-122.5249,38.2612],[-122.5128,38.2552],[-122.5069,38.247],[-122.5002,38.2477],[-122.5052,38.243],[-122.5057,38.2393],[-122.508,38.2368],[-122.5266,38.2362],[-122.5312,38.2314],[-122.5283,38.2229],[-122.5212,38.2173],[-122.5198,38.214],[-122.5208,38.2126],[-122.5171,38.2045],[-122.508,38.1971],[-122.5039,38.1946],[-122.5006,38.1945],[-122.4937,38.1896],[-122.4865,38.1884],[-122.4808,38.1858],[-122.4703,38.1871],[-122.4654,38.185],[-122.4637,38.1857],[-122.461,38.1809],[-122.4561,38.1803],[-122.4497,38.1764],[-122.4532,38.1755],[-122.4574,38.17],[-122.4515,38.17],[-122.4448,38.1655],[-122.4482,38.1607],[-122.4469,38.1517],[-122.4457,38.1522],[-122.4409,38.1492],[-122.4388,38.1499],[-122.4301,38.1433],[-122.4321,38.1412],[-122.4403,38.1386],[-122.441,38.1367],[-122.4356,38.1286],[-122.4364,38.126],[-122.4344,38.122],[-122.4292,38.1247],[-122.4438,38.116],[-122.4488,38.1173],[-122.4512,38.1165],[-122.4514,38.119],[-122.4534,38.1202],[-122.4558,38.1192],[-122.4594,38.1006],[-122.3475,38.0733],[-122.3878,38.1249],[-122.3911,38.1326],[-122.4075,38.1578],[-122.404,38.1604],[-122.3968,38.1615],[-122.3848,38.161],[-122.3726,38.1577],[-122.3676,38.1588],[-122.3656,38.166],[-122.3695,38.1745],[-122.3687,38.1827],[-122.3661,38.1838],[-122.3596,38.1818],[-122.3579,38.1826],[-122.3571,38.1906],[-122.3605,38.1951],[-122.3603,38.1971],[-122.3551,38.1969],[-122.3506,38.1927],[-122.3496,38.194],[-122.3509,38.1969],[-122.3507,38.2018],[-122.3575,38.2089],[-122.3615,38.21],[-122.361,38.2114],[-122.3631,38.2132],[-122.3627,38.2148],[-122.3642,38.2153],[-122.3636,38.2195],[-122.3654,38.2229],[-122.3645,38.2236],[-122.3654,38.2262],[-122.3636,38.2276],[-122.3637,38.2312],[-122.3656,38.2357],[-122.3634,38.239],[-122.3653,38.246],[-122.3692,38.2474],[-122.3707,38.2443],[-122.3739,38.2439],[-122.373,38.2472],[-122.3768,38.2485],[-122.3809,38.2529],[-122.3843,38.2545],[-122.3898,38.2608],[-122.3876,38.2738],[-122.3934,38.2737],[-122.3964,38.2712],[-122.4004,38.2745],[-122.4047,38.2817],[-122.4023,38.2843],[-122.4017,38.2883],[-122.4002,38.2897],[-122.4017,38.2907],[-122.4017,38.2953],[-122.4038,38.2998],[-122.4003,38.3032],[-122.3946,38.3047],[-122.3963,38.3091],[-122.4016,38.3138],[-122.4054,38.322],[-122.4084,38.3199],[-122.4095,38.3211],[-122.4096,38.3257],[-122.4139,38.3308],[-122.412,38.3343],[-122.4176,38.3376],[-122.4175,38.3398],[-122.4199,38.3383],[-122.421,38.3391],[-122.4252,38.3456],[-122.4276,38.3457],[-122.4268,38.349],[-122.4293,38.3495],[-122.4293,38.351],[-122.4367,38.3551],[-122.4375,38.357],[-122.4423,38.359],[-122.447,38.3591],[-122.4531,38.3628],[-122.4545,38.3658],[-122.4573,38.3677],[-122.4569,38.3707],[-122.452,38.3752],[-122.4492,38.3749],[-122.4481,38.3795],[-122.4541,38.3822],[-122.4544,38.385],[-122.457,38.3867],[-122.4658,38.3902],[-122.4703,38.3967],[-122.468,38.4001],[-122.471,38.4025],[-122.4706,38.4049],[-122.4747,38.4059],[-122.4761,38.4079],[-122.4755,38.4093],[-122.4979,38.4246],[-122.4934,38.4293],[-122.4939,38.4307],[-122.4917,38.4346],[-122.4859,38.4382],[-122.4858,38.4414],[-122.4832,38.444],[-122.4823,38.4477],[-122.48,38.4492],[-122.4798,38.4513],[-122.4881,38.4544],[-122.4922,38.4546],[-122.4936,38.4568],[-122.4969,38.4557],[-122.4967,38.4548],[-122.5052,38.4561],[-122.506,38.4557],[-122.5002,38.4528],[-122.5002,38.4493],[-122.4966,38.4465],[-122.4966,38.4406],[-122.5003,38.4372],[-122.5105,38.4353],[-122.5144,38.4375],[-122.5218,38.438],[-122.5237,38.44],[-122.5301,38.4427],[-122.5369,38.4415],[-122.5416,38.4425],[-122.5466,38.4373],[-122.5595,38.4291],[-122.5594,38.4243],[-122.5648,38.4208],[-122.5644,38.4195],[-122.5554,38.4147],[-122.5538,38.4123],[-122.5542,38.4073],[-122.5512,38.4052],[-122.5536,38.4021],[-122.551,38.3939],[-122.5525,38.39],[-122.5507,38.3867],[-122.5526,38.3849],[-122.5521,38.3808],[-122.562,38.3866],[-122.5702,38.3869],[-122.574,38.3886],[-122.5917,38.3878],[-122.5957,38.3847],[-122.5992,38.3851],[-122.6102,38.3969],[-122.6212,38.3992],[-122.6245,38.398],[-122.6305,38.3871]]]},"properties":{"GEOID":"0609793070","BASENAME":"Sonoma","NAME":"Sonoma CCD","COUNTY":"097","COUSUB":"93070"}},{"type":"Feature","geometry":{"type":"Polygon","coordinates":[[[-122.8418,38.2762],[-122.7399,38.207],[-122.723,38.2071],[-122.715,38.2034],[-122.7143,38.2012],[-122.7044,38.1985],[-122.7014,38.1961],[-122.6879,38.1947],[-122.6806,38.1896],[-122.6672,38.1897],[-122.6639,38.1864],[-122.6586,38.1868],[-122.6537,38.1848],[-122.6492,38.1811],[-122.6379,38.1802],[-122.6358,38.1786],[-122.6282,38.1789],[-122.6257,38.1823],[-122.6226,38.1826],[-122.6151,38.1824],[-122.6125,38.1806],[-122.6041,38.1806],[-122.6009,38.1853],[-122.5928,38.1888],[-122.5909,38.1859],[-122.5866,38.1878],[-122.5833,38.187],[-122.5821,38.188],[-122.582,38.1862],[-122.5782,38.1836],[-122.5707,38.1835],[-122.5732,38.1863],[-122.5706,38.1871],[-122.5689,38.1845],[-122.5653,38.1827],[-122.5685,38.177],[-122.5645,38.1751],[-122.5632,38.1693],[-122.5592,38.1686],[-122.5543,38.1701],[-122.552,38.169],[-122.558,38.1635],[-122.5579,38.1602],[-122.5496,38.1573],[-122.5445,38.1587],[-122.5348,38.1492],[-122.5201,38.1407],[-122.5131,38.1322],[-122.5079,38.1181],[-122.5,38.1115],[-122.4594,38.1006],[-122.4558,38.1192],[-122.4534,38.1202],[-122.4514,38.119],[-122.4512,38.1165],[-122.4488,38.1173],[-122.4438,38.116],[-122.4292,38.1247],[-122.4344,38.122],[-122.4364,38.126],[-122.4356,38.1286],[-122.441,38.1367],[-122.4403,38.1386],[-122.4321,38.1412],[-122.4301,38.1433],[-122.4388,38.1499],[-122.4409,38.1492],[-122.4457,38.1522],[-122.4469,38.1517],[-122.4482,38.1607],[-122.4448,38.1655],[-122.4515,38.17],[-122.4574,38.17],[-122.4536,38.1752],[-122.4498,38.1765],[-122.4561,38.1803],[-122.461,38.1809],[-122.4637,38.1857],[-122.4654,38.185],[-122.4703,38.1871],[-122.4808,38.1858],[-122.4865,38.1884],[-122.4937,38.1896],[-122.5006,38.1945],[-122.5039,38.1946],[-122.508,38.1971],[-122.5171,38.2045],[-122.5208,38.2126],[-122.5198,38.214],[-122.5212,38.2173],[-122.5283,38.2229],[-122.5312,38.2314],[-122.5266,38.2362],[-122.508,38.2368],[-122.5057,38.2393],[-122.5052,38.243],[-122.5002,38.2477],[-122.5069,38.247],[-122.5128,38.2552],[-122.5249,38.2612],[-122.5332,38.2626],[-122.535,38.265],[-122.5455,38.2708],[-122.5462,38.2727],[-122.5632,38.2852],[-122.5598,38.2877],[-122.5553,38.2885],[-122.5536,38.2938],[-122.5676,38.3129],[-122.5734,38.3168],[-122.5743,38.326],[-122.5735,38.3276],[-122.5672,38.3275],[-122.5672,38.3303],[-122.5718,38.3348],[-122.5732,38.3345],[-122.5733,38.3398],[-122.5802,38.347],[-122.5811,38.3499],[-122.5866,38.3514],[-122.5892,38.3501],[-122.5968,38.3524],[-122.5995,38.3559],[-122.6004,38.3607],[-122.605,38.3645],[-122.616,38.3679],[-122.6216,38.3672],[-122.6238,38.369],[-122.6262,38.3663],[-122.6318,38.3641],[-122.6363,38.3591],[-122.6386,38.3485],[-122.6437,38.3473],[-122.6584,38.3566],[-122.667,38.3552],[-122.6675,38.3724],[-122.6788,38.3774],[-122.6856,38.382],[-122.6859,38.3795],[-122.7135,38.3793],[-122.7134,38.3732],[-122.7144,38.3718],[-122.7124,38.3683],[-122.7128,38.3632],[-122.7413,38.3633],[-122.7413,38.3424],[-122.7383,38.3382],[-122.7386,38.3308],[-122.7353,38.3242],[-122.7355,38.3141],[-122.7467,38.3142],[-122.7562,38.3212],[-122.789,38.3215],[-122.8005,38.3233],[-122.8043,38.3212],[-122.81,38.3154],[-122.8143,38.3087],[-122.8183,38.3065],[-122.8417,38.3063],[-122.8327,38.3022],[-122.833,38.2935],[-122.8418,38.2762]]]},"properties":{"GEOID":"0609792460","BASENAME":"Petaluma","NAME":"Petaluma CCD","COUNTY":"097","COUSUB":"92460"}},{"type":"Feature","geometry":{"type":"Polygon","coordinates":[[[-122.9368,38.311],[-122.9351,38.3096],[-122.9324,38.3117],[-122.9259,38.3128],[-122.9215,38.3086],[-122.918,38.3103],[-122.9165,38.3128],[-122.921,38.3168],[-122.9158,38.3204],[-122.9077,38.3206],[-122.9066,38.3199],[-122.9073,38.3186],[-122.9109,38.3171],[-122.9095,38.3144],[-122.8999,38.3168],[-122.8984,38.3145],[-122.8418,38.2762],[-122.833,38.2935],[-122.8327,38.3022],[-122.8417,38.3063],[-122.8183,38.3065],[-122.8143,38.3087],[-122.81,38.3154],[-122.8043,38.3212],[-122.7989,38.3236],[-122.789,38.3215],[-122.756,38.3212],[-122.746,38.3141],[-122.7355,38.3141],[-122.735,38.3207],[-122.7355,38.3247],[-122.7386,38.3312],[-122.7383,38.3381],[-122.7413,38.3422],[-122.7413,38.3521],[-122.7466,38.3525],[-122.7513,38.3547],[-122.7561,38.3601],[-122.7612,38.3618],[-122.7665,38.3655],[-122.77,38.3667],[-122.7732,38.3657],[-122.7765,38.3663],[-122.7771,38.3682],[-122.7751,38.3708],[-122.7756,38.3732],[-122.7887,38.3811],[-122.7959,38.3831],[-122.7981,38.3852],[-122.7969,38.3869],[-122.7971,38.3906],[-122.8004,38.3958],[-122.8083,38.3962],[-122.8153,38.3993],[-122.8183,38.4091],[-122.8151,38.4124],[-122.8203,38.416],[-122.8247,38.4166],[-122.8239,38.4204],[-122.8294,38.4251],[-122.8299,38.4303],[-122.8339,38.4307],[-122.8349,38.4338],[-122.8389,38.4349],[-122.8387,38.4449],[-122.836,38.4474],[-122.8346,38.4522],[-122.8614,38.4505],[-122.8614,38.4465],[-122.8868,38.4425],[-122.8892,38.4446],[-122.9091,38.4443],[-122.9102,38.4452],[-122.9166,38.4439],[-122.92,38.4444],[-122.922,38.4467],[-122.9273,38.4471],[-122.9301,38.441],[-122.9278,38.4394],[-122.9295,38.4332],[-122.9314,38.4316],[-122.931,38.419],[-122.9344,38.4188],[-122.934,38.4157],[-122.9362,38.4156],[-122.9345,38.4136],[-122.9355,38.4089],[-122.9338,38.4073],[-122.928,38.4065],[-122.9249,38.4033],[-122.921,38.4019],[-122.9203,38.3997],[-122.9166,38.4006],[-122.9124,38.3928],[-122.9034,38.3882],[-122.9033,38.3821],[-122.8998,38.3781],[-122.912,38.373],[-122.9105,38.3693],[-122.9115,38.3666],[-122.9162,38.3599],[-122.9214,38.3552],[-122.9165,38.3504],[-122.9165,38.3412],[-122.9244,38.3328],[-122.9279,38.3238],[-122.9354,38.3201],[-122.9361,38.3156],[-122.9338,38.3133],[-122.9368,38.311]]]},"properties":{"GEOID":"0609792980","BASENAME":"Sebastopol","NAME":"Sebastopol CCD","COUNTY":"097","COUSUB":"92980"}},{"type":"Feature","geometry":{"type":"Polygon","coordinates":[[[-123.6325,38.7581],[-123.6152,38.7499],[-123.6071,38.7486],[-123.592,38.7402],[-123.5869,38.7281],[-123.578,38.7176],[-123.5661,38.709],[-123.5495,38.7001],[-123.5319,38.6934],[-123.5106,38.6809],[-123.5039,38.6729],[-123.4987,38.6689],[-123.4951,38.6607],[-123.4885,38.6515],[-123.4774,38.6422],[-123.4705,38.6386],[-123.4656,38.6288],[-123.4604,38.6227],[-123.4562,38.6148],[-123.4484,38.6063],[-123.4305,38.5917],[-123.4254,38.5828],[-123.405,38.5628],[-123.3942,38.5539],[-123.3846,38.537],[-123.3609,38.5102],[-123.3485,38.5042],[-123.3309,38.5024],[-123.3307,38.4999],[-123.3238,38.4986],[-123.3173,38.4886],[-123.3067,38.4787],[-123.2897,38.4676],[-123.2813,38.4645],[-123.2692,38.4576],[-123.2511,38.4521],[-123.2364,38.4504],[-123.228,38.4442],[-123.2202,38.442],[-123.2114,38.4308],[-123.2041,38.4239],[-123.1962,38.4101],[-123.1885,38.4029],[-123.18,38.3975],[-123.1717,38.3941],[-123.1648,38.3883],[-123.1598,38.3749],[-123.1557,38.3684],[-123.1505,38.3617],[-123.1427,38.3553],[-123.14,38.3506],[-123.1343,38.3458],[-123.1383,38.3372],[-123.141,38.3275],[-123.1413,38.3113],[-123.1345,38.2963],[-123.0027,38.2957],[-123.0011,38.2974],[-122.9936,38.3001],[-122.9948,38.3062],[-122.9911,38.3056],[-122.9877,38.3081],[-122.9847,38.3079],[-122.9816,38.3111],[-122.9743,38.3115],[-122.97,38.3101],[-122.9661,38.317],[-122.9616,38.3167],[-122.9479,38.3114],[-122.9458,38.3112],[-122.944,38.3127],[-122.9393,38.311],[-122.9351,38.314],[-122.9361,38.3158],[-122.9354,38.3201],[-122.9279,38.3238],[-122.9244,38.3328],[-122.9165,38.3412],[-122.9165,38.3504],[-122.9214,38.3552],[-122.9162,38.3599],[-122.9115,38.3666],[-122.9105,38.3693],[-122.912,38.373],[-122.8998,38.3781],[-122.9033,38.3821],[-122.9034,38.3882],[-122.9124,38.3928],[-122.9166,38.4006],[-122.9203,38.3997],[-122.921,38.4019],[-122.9249,38.4033],[-122.928,38.4065],[-122.9338,38.4073],[-122.9355,38.4089],[-122.9345,38.4136],[-122.9362,38.4156],[-122.934,38.4157],[-122.9344,38.4188],[-122.931,38.419],[-122.9314,38.4316],[-122.9295,38.4332],[-122.9278,38.4394],[-122.9301,38.441],[-122.9273,38.4471],[-122.922,38.4467],[-122.92,38.4444],[-122.9166,38.4439],[-122.9102,38.4452],[-122.9091,38.4443],[-122.8892,38.4446],[-122.8868,38.4425],[-122.8614,38.4465],[-122.8614,38.4505],[-122.8346,38.4522],[-122.8354,38.456],[-122.8338,38.4614],[-122.8375,38.4631],[-122.8414,38.469],[-122.8427,38.4786],[-122.8453,38.4806],[-122.846,38.483],[-122.8426,38.4842],[-122.8417,38.4857],[-122.8448,38.4882],[-122.8443,38.4924],[-122.8471,38.4952],[-122.8497,38.4962],[-122.853,38.4942],[-122.857,38.4979],[-122.8576,38.502],[-122.861,38.5032],[-122.8655,38.5013],[-122.8669,38.4976],[-122.8686,38.4965],[-122.8778,38.4969],[-122.8785,38.494],[-122.8813,38.4942],[-122.8853,38.4916],[-122.893,38.4936],[-122.8896,38.4944],[-122.8862,38.4978],[-122.883,38.5079],[-122.8844,38.5117],[-122.8832,38.5152],[-122.8902,38.5179],[-122.8899,38.52],[-122.8763,38.5215],[-122.8669,38.5186],[-122.8661,38.5245],[-122.8683,38.5295],[-122.8682,38.5357],[-122.8703,38.536],[-122.8741,38.5341],[-122.88,38.5342],[-122.888,38.5394],[-122.9027,38.5374],[-122.9134,38.5399],[-122.9199,38.5386],[-122.9281,38.5429],[-122.9437,38.5457],[-122.9551,38.5498],[-122.9586,38.5487],[-122.963,38.5493],[-122.9638,38.5512],[-122.9661,38.5503],[-122.9688,38.5527],[-122.9697,38.5561],[-122.9782,38.5602],[-122.9782,38.5621],[-122.9866,38.563],[-122.9889,38.5622],[-122.9997,38.5661],[-123.0029,38.5636],[-123.0049,38.5651],[-123.0091,38.5629],[-123.0114,38.5644],[-123.0123,38.5622],[-123.0176,38.5656],[-123.0264,38.5646],[-123.0268,38.5665],[-123.0303,38.5671],[-123.0318,38.5653],[-123.0362,38.5652],[-123.0377,38.567],[-123.0382,38.5661],[-123.0395,38.5675],[-123.0399,38.5661],[-123.0442,38.5692],[-123.0466,38.5686],[-123.0478,38.5707],[-123.0497,38.5707],[-123.0511,38.5733],[-123.0589,38.578],[-123.0629,38.5779],[-123.0654,38.5798],[-123.0657,38.5851],[-123.061,38.5897],[-123.0443,38.5862],[-123.0388,38.5913],[-123.0195,38.5951],[-123.0126,38.5896],[-123.0094,38.5893],[-123.0047,38.5911],[-123.0005,38.5903],[-123.0043,38.5925],[-122.9981,38.5972],[-122.9993,38.5991],[-123.0117,38.6084],[-123.0174,38.6094],[-123.0187,38.6085],[-123.0189,38.6108],[-123.0244,38.6139],[-123.0236,38.6164],[-123.0279,38.6184],[-123.0322,38.6226],[-123.0385,38.6234],[-123.0366,38.6244],[-123.0365,38.6258],[-123.0386,38.6261],[-123.039,38.6281],[-123.0431,38.6307],[-123.0448,38.629],[-123.0449,38.6309],[-123.0431,38.6323],[-123.0442,38.6321],[-123.0481,38.6376],[-123.0522,38.6391],[-123.0499,38.6473],[-123.0517,38.6481],[-123.053,38.646],[-123.0561,38.6458],[-123.0659,38.649],[-123.0685,38.6513],[-123.068,38.6534],[-123.0746,38.6587],[-123.0754,38.6624],[-123.0802,38.6695],[-123.0759,38.6753],[-123.0735,38.6752],[-123.0669,38.678],[-123.0642,38.6757],[-123.0597,38.678],[-123.0538,38.6738],[-123.0479,38.673],[-123.0403,38.6702],[-123.0377,38.6681],[-123.0323,38.6698],[-123.0262,38.6664],[-123.0268,38.6691],[-123.0216,38.6727],[-123.0224,38.6735],[-123.026,38.6727],[-123.0243,38.6769],[-123.0213,38.6795],[-123.0181,38.6793],[-123.0157,38.6816],[-123.0144,38.6865],[-123.0109,38.6868],[-123.0092,38.6856],[-123.0069,38.6868],[-123.0068,38.6886],[-123.0133,38.6939],[-123.0135,38.7045],[-123.0072,38.7069],[-123.0054,38.7132],[-123.0116,38.7137],[-123.019,38.7162],[-123.0285,38.7119],[-123.0379,38.7152],[-123.0452,38.7141],[-123.0472,38.7162],[-123.0596,38.7196],[-123.0649,38.7191],[-123.0731,38.7275],[-123.0892,38.7333],[-123.0918,38.7354],[-123.0994,38.7374],[-123.1029,38.7402],[-123.1088,38.7414],[-123.1156,38.7459],[-123.1322,38.7516],[-123.1361,38.755],[-123.1418,38.7574],[-123.155,38.7586],[-123.162,38.762],[-123.1657,38.762],[-123.1729,38.7654],[-123.174,38.7679],[-123.1772,38.7694],[-123.1799,38.7692],[-123.1818,38.7708],[-123.1879,38.7708],[-123.1976,38.7684],[-123.2094,38.7708],[-123.2152,38.7741],[-123.2201,38.7719],[-123.2254,38.7715],[-123.2318,38.7738],[-123.2403,38.7725],[-123.2409,38.7744],[-123.2442,38.7762],[-123.2475,38.7763],[-123.2474,38.7774],[-123.2507,38.7773],[-123.2548,38.7794],[-123.2557,38.7816],[-123.2586,38.7824],[-123.2598,38.7849],[-123.2617,38.785],[-123.2621,38.7866],[-123.2652,38.7884],[-123.2633,38.7892],[-123.2694,38.7937],[-123.2711,38.7976],[-123.2726,38.7977],[-123.2673,38.803],[-123.2687,38.8084],[-123.3684,38.8066],[-123.3682,38.7771],[-123.4311,38.7766],[-123.497,38.7786],[-123.4992,38.7783],[-123.4999,38.7738],[-123.507,38.7735],[-123.5099,38.7674],[-123.5163,38.7678],[-123.5189,38.7594],[-123.5202,38.7586],[-123.5332,38.7684],[-123.6325,38.7581]]]},"properties":{"GEOID":"0609792682","BASENAME":"Russian River-Sonoma Coast","NAME":"Russian River-Sonoma Coast CCD","COUNTY":"097","COUSUB":"92682"}},{"type":"Feature","geometry":{"type":"Polygon","coordinates":[[[-123.2727,38.7984],[-123.2711,38.7976],[-123.2694,38.7937],[-123.2633,38.7892],[-123.2652,38.7884],[-123.2621,38.7866],[-123.2617,38.785],[-123.2598,38.7849],[-123.2586,38.7824],[-123.2557,38.7816],[-123.2548,38.7794],[-123.2511,38.7774],[-123.2442,38.7762],[-123.2409,38.7744],[-123.2403,38.7725],[-123.2318,38.7738],[-123.2254,38.7715],[-123.2201,38.7719],[-123.2152,38.7741],[-123.2096,38.7709],[-123.1994,38.7685],[-123.1939,38.7686],[-123.1856,38.7711],[-123.1817,38.7708],[-123.1799,38.7691],[-123.1771,38.7694],[-123.1739,38.7678],[-123.1729,38.7654],[-123.166,38.7621],[-123.162,38.762],[-123.155,38.7586],[-123.1418,38.7574],[-123.1361,38.755],[-123.1322,38.7516],[-123.1156,38.7459],[-123.1088,38.7414],[-123.1029,38.7402],[-123.0994,38.7374],[-123.0918,38.7354],[-123.0892,38.7333],[-123.0731,38.7275],[-123.0649,38.7191],[-123.0596,38.7196],[-123.0472,38.7162],[-123.0452,38.7141],[-123.0379,38.7152],[-123.0285,38.7119],[-123.0185,38.7161],[-123.0116,38.7137],[-123.004,38.7131],[-123.0034,38.7118],[-123.0052,38.7094],[-123.0035,38.7083],[-122.9997,38.7117],[-122.9944,38.7129],[-122.9952,38.7146],[-123.0002,38.716],[-122.9986,38.7202],[-122.9864,38.7193],[-122.9804,38.7134],[-122.976,38.7119],[-122.9753,38.708],[-122.9667,38.7062],[-122.9559,38.6957],[-122.9546,38.6907],[-122.9564,38.6886],[-122.9535,38.687],[-122.95,38.6822],[-122.9445,38.6805],[-122.9422,38.6779],[-122.9425,38.6665],[-122.9405,38.6627],[-122.9372,38.6602],[-122.9304,38.6586],[-122.9264,38.653],[-122.9221,38.6548],[-122.9173,38.6507],[-122.9104,38.6488],[-122.9115,38.6518],[-122.9072,38.6576],[-122.891,38.657],[-122.8826,38.6614],[-122.8718,38.6594],[-122.8723,38.6623],[-122.8633,38.6638],[-122.8633,38.665],[-122.8604,38.6662],[-122.8537,38.6668],[-122.8496,38.6627],[-122.8376,38.6593],[-122.8282,38.6585],[-122.8214,38.6534],[-122.7971,38.6464],[-122.7947,38.6379],[-122.789,38.6321],[-122.7887,38.6257],[-122.7854,38.6215],[-122.7844,38.6133],[-122.774,38.6112],[-122.7727,38.6122],[-122.7723,38.6104],[-122.7678,38.6095],[-122.7584,38.6139],[-122.7568,38.6136],[-122.7561,38.6118],[-122.7534,38.6121],[-122.7503,38.6145],[-122.751,38.6181],[-122.7476,38.6185],[-122.7445,38.6174],[-122.7382,38.6113],[-122.7342,38.6133],[-122.7231,38.6129],[-122.7151,38.6149],[-122.7102,38.6141],[-122.7077,38.6122],[-122.7011,38.6113],[-122.6895,38.6057],[-122.6857,38.5968],[-122.683,38.5947],[-122.6802,38.5846],[-122.6772,38.5822],[-122.6733,38.5821],[-122.6719,38.5837],[-122.6631,38.5851],[-122.651,38.581],[-122.6351,38.583],[-122.635,38.5864],[-122.6399,38.59],[-122.6466,38.5991],[-122.6391,38.6092],[-122.6397,38.6117],[-122.6335,38.6162],[-122.6338,38.6199],[-122.6284,38.6227],[-122.6293,38.6272],[-122.6325,38.628],[-122.6319,38.632],[-122.6341,38.6376],[-122.6332,38.6401],[-122.6273,38.6446],[-122.6269,38.6476],[-122.6242,38.6498],[-122.6231,38.6535],[-122.6244,38.658],[-122.6232,38.6625],[-122.6234,38.6646],[-122.6276,38.6686],[-122.6335,38.6692],[-122.6268,38.6708],[-122.6255,38.6744],[-122.6316,38.6802],[-122.6339,38.6853],[-122.6395,38.6891],[-122.637,38.6937],[-122.6399,38.695],[-122.6406,38.6973],[-122.6443,38.6996],[-122.6439,38.7026],[-122.6475,38.7069],[-122.6622,38.7059],[-122.6694,38.7084],[-122.6723,38.7063],[-122.6742,38.7064],[-122.6768,38.708],[-122.6824,38.7079],[-122.6839,38.7095],[-122.6918,38.7109],[-122.6936,38.713],[-122.6955,38.7131],[-122.6974,38.7189],[-122.6963,38.7201],[-122.7007,38.7263],[-122.7007,38.7286],[-122.7104,38.7321],[-122.712,38.7376],[-122.7111,38.7402],[-122.7123,38.7422],[-122.7088,38.7464],[-122.7093,38.749],[-122.7201,38.7535],[-122.7215,38.7566],[-122.7242,38.7566],[-122.7227,38.763],[-122.7283,38.7662],[-122.7295,38.7707],[-122.7327,38.7709],[-122.7346,38.7726],[-122.7364,38.7768],[-122.7353,38.7779],[-122.738,38.781],[-122.7424,38.7824],[-122.7482,38.7878],[-122.7462,38.7992],[-122.7482,38.8038],[-122.7588,38.8078],[-122.7614,38.8112],[-122.7676,38.8139],[-122.7666,38.8158],[-122.7802,38.8268],[-122.7861,38.8273],[-122.7894,38.8303],[-122.7914,38.8304],[-122.7954,38.8358],[-122.796,38.839],[-122.7983,38.8393],[-122.7998,38.837],[-122.8062,38.8362],[-122.8121,38.8384],[-122.8111,38.8413],[-122.8121,38.8429],[-122.8183,38.8446],[-122.8167,38.8476],[-122.8177,38.8498],[-122.8197,38.849],[-122.8249,38.8502],[-123.0069,38.8512],[-123.0277,38.8529],[-123.081,38.8524],[-123.0812,38.8384],[-123.1366,38.8394],[-123.1363,38.8091],[-123.2687,38.8084],[-123.2677,38.8019],[-123.2727,38.7984]]]},"properties":{"GEOID":"0609790510","BASENAME":"Cloverdale-Geyserville","NAME":"Cloverdale-Geyserville CCD","COUNTY":"097","COUSUB":"90510"}}]}