{"type":"FeatureCollection","features":[{"type":"Feature","geometry":{"type":"Polygon","coordinates":[[[-121.0744,37.7],[-121.054,37.6829],[-121.0681,37.6817],[-121.0673,37.6382],[-121.0536,37.6384],[-121.0531,37.6064],[-121.046,37.6119],[-121.0379,37.6128],[-121.0305,37.6087],[-121.0303,37.595],[-120.9936,37.5949],[-120.9937,37.5513],[-120.9204,37.5512],[-120.9135,37.5477],[-120.9093,37.5472],[-120.903,37.5484],[-120.8974,37.5512],[-120.9019,37.5512],[-120.9018,37.5947],[-120.8972,37.5947],[-120.8973,37.6093],[-120.8848,37.6093],[-120.8978,37.6198],[-120.9005,37.628],[-120.8931,37.6312],[-120.8936,37.653],[-120.8753,37.653],[-120.8754,37.66],[-120.8805,37.6602],[-120.8908,37.6639],[-120.8936,37.6634],[-120.8997,37.6669],[-120.9029,37.6671],[-120.9063,37.6656],[-120.9056,37.6631],[-120.9074,37.6616],[-120.914,37.6611],[-120.9175,37.6573],[-120.9212,37.6571],[-120.9215,37.6818],[-120.8939,37.6818],[-120.8949,37.7474],[-120.898,37.7542],[-120.9127,37.7467],[-120.9213,37.7373],[-120.942,37.7423],[-120.954,37.7384],[-120.9732,37.748],[-120.9772,37.7528],[-120.9814,37.7545],[-120.9818,37.7567],[-120.9873,37.7566],[-120.992,37.759],[-120.9928,37.7608],[-120.9946,37.7607],[-120.9957,37.76],[-120.9949,37.711],[-121.0501,37.7113],[-121.0501,37.7003],[-121.0744,37.7]]]},"properties":{"GEOID":"0609991980","BASENAME":"Modesto","NAME":"Modesto CCD","COUNTY":"099","COUSUB":"91980"}},{"type":"Feature","geometry":{"type":"Polygon","coordinates":[[[-120.9019,37.5583],[-120.9019,37.5512],[-120.8985,37.551],[-120.5991,37.5511],[-120.3873,37.6335],[-120.4419,37.6742],[-120.4441,37.6732],[-120.4453,37.6705],[-120.4425,37.6675],[-120.4425,37.6659],[-120.4512,37.663],[-120.4636,37.6665],[-120.4755,37.6671],[-120.4793,37.6662],[-120.482,37.6628],[-120.4872,37.6598],[-120.4879,37.6551],[-120.4935,37.6525],[-120.4968,37.644],[-120.5016,37.6381],[-120.5177,37.6312],[-120.5256,37.6262],[-120.5286,37.628],[-120.5362,37.6293],[-120.5486,37.6272],[-120.5622,37.6327],[-120.5675,37.6295],[-120.5749,37.63],[-120.5797,37.6319],[-120.589,37.6319],[-120.6048,37.6387],[-120.6104,37.6386],[-120.6199,37.6354],[-120.6346,37.6345],[-120.639,37.6379],[-120.6448,37.6399],[-120.6581,37.6409],[-120.6622,37.6424],[-120.6653,37.6405],[-120.6684,37.6407],[-120.6717,37.642],[-120.6731,37.6447],[-120.6755,37.6455],[-120.6916,37.6438],[-120.6998,37.6442],[-120.7063,37.6389],[-120.7099,37.6376],[-120.7147,37.6372],[-120.7194,37.6394],[-120.7374,37.6353],[-120.7454,37.635],[-120.7526,37.6365],[-120.7608,37.6357],[-120.7676,37.6319],[-120.7715,37.6316],[-120.7731,37.629],[-120.7824,37.6247],[-120.7874,37.6197],[-120.7986,37.6147],[-120.8178,37.6157],[-120.8239,37.6193],[-120.8301,37.62],[-120.8381,37.6232],[-120.8463,37.6177],[-120.8518,37.6188],[-120.8536,37.6181],[-120.8538,37.6165],[-120.8573,37.6163],[-120.8592,37.619],[-120.8582,37.623],[-120.864,37.6323],[-120.8664,37.6306],[-120.8674,37.628],[-120.8706,37.6274],[-120.8744,37.6295],[-120.8759,37.626],[-120.8782,37.625],[-120.8833,37.6272],[-120.8847,37.6254],[-120.8841,37.6231],[-120.8864,37.6215],[-120.8915,37.6208],[-120.8932,37.6218],[-120.8939,37.6245],[-120.8992,37.623],[-120.8973,37.6193],[-120.8848,37.6093],[-120.8973,37.6093],[-120.8972,37.5947],[-120.9018,37.5947],[-120.9019,37.5583]]]},"properties":{"GEOID":"0609991350","BASENAME":"Hughson","NAME":"Hughson CCD","COUNTY":"099","COUSUB":"91350"}},{"type":"Feature","geometry":{"type":"Polygon","coordinates":[[[-121.0148,37.4271],[-121.0104,37.4256],[-121.0049,37.4294],[-121.0008,37.4289],[-121.0002,37.4262],[-121.0026,37.4246],[-121.0033,37.4225],[-120.9984,37.4183],[-121.0014,37.4167],[-121.0033,37.4125],[-121.0009,37.4107],[-120.9956,37.4113],[-120.9929,37.4098],[-120.9932,37.4084],[-120.9965,37.4065],[-120.9971,37.4044],[-120.9959,37.4022],[-120.9934,37.4014],[-120.9916,37.4029],[-120.9867,37.4032],[-120.9838,37.3996],[-120.9406,37.4167],[-120.934,37.4207],[-120.8864,37.4402],[-120.8309,37.4602],[-120.8083,37.47],[-120.5991,37.5511],[-120.8974,37.5512],[-120.903,37.5484],[-120.9093,37.5472],[-120.9135,37.5477],[-120.9204,37.5512],[-120.9937,37.5513],[-120.9945,37.4805],[-121.0034,37.4494],[-121.0039,37.4411],[-121.0134,37.4315],[-121.0148,37.4271]]]},"properties":{"GEOID":"0609993460","BASENAME":"Turlock","NAME":"Turlock CCD","COUNTY":"099","COUSUB":"93460"}},{"type":"Feature","geometry":{"type":"Polygon","coordinates":[[[-121.4591,37.2827],[-121.454,37.2772],[-121.4548,37.2631],[-121.4573,37.2609],[-121.455,37.2555],[-121.4557,37.2494],[-121.4481,37.2395],[-121.4487,37.2373],[-121.4417,37.2311],[-121.4361,37.2294],[-121.4339,37.2263],[-121.4308,37.2275],[-121.4218,37.2213],[-121.4211,37.2148],[-121.4169,37.2113],[-121.4157,37.1996],[-121.4105,37.192],[-121.4115,37.1854],[-121.4088,37.1825],[-121.4111,37.1779],[-121.4104,37.1745],[-121.4134,37.1723],[-121.4077,37.169],[-121.4065,37.1588],[-121.4046,37.156],[-121.4011,37.1549],[-121.3995,37.1504],[-121.3975,37.1506],[-121.393,37.1482],[-121.3911,37.1507],[-121.3836,37.1515],[-121.3816,37.1571],[-121.384,37.1602],[-121.3832,37.163],[-121.3843,37.1662],[-121.3829,37.1679],[-121.3797,37.168],[-121.3763,37.1725],[-121.3734,37.1737],[-121.3722,37.177],[-121.3645,37.1803],[-121.3632,37.1835],[-121.3609,37.1843],[-121.3546,37.1839],[-121.3487,37.1811],[-121.3437,37.1769],[-121.3424,37.1742],[-121.3383,37.1735],[-121.3343,37.1708],[-121.3321,37.171],[-121.3284,37.1659],[-121.314,37.1679],[-121.3129,37.1701],[-121.306,37.1666],[-121.3026,37.1682],[-121.2986,37.166],[-121.2956,37.1689],[-121.2915,37.1703],[-121.291,37.1754],[-121.2877,37.1774],[-121.2861,37.1811],[-121.2843,37.1809],[-121.2834,37.1832],[-121.2811,37.1836],[-121.2778,37.1796],[-121.2754,37.1787],[-121.2731,37.1733],[-121.2695,37.1712],[-121.2621,37.1593],[-121.2371,37.1572],[-121.2355,37.1529],[-121.236,37.1491],[-121.2323,37.1399],[-121.2268,37.1348],[-120.9638,37.3461],[-120.9684,37.346],[-120.9706,37.3489],[-120.9765,37.3496],[-120.9771,37.3549],[-120.979,37.3575],[-120.9781,37.3617],[-120.9818,37.3656],[-120.981,37.3669],[-120.9742,37.3686],[-120.9743,37.3698],[-120.9784,37.3702],[-120.9789,37.372],[-120.9771,37.3741],[-120.9734,37.3742],[-120.9731,37.3761],[-120.9779,37.3777],[-120.9828,37.3748],[-120.9844,37.3751],[-120.9856,37.3784],[-120.982,37.3851],[-120.9831,37.3866],[-120.9885,37.3866],[-120.9936,37.3842],[-120.9943,37.3853],[-120.9942,37.3887],[-120.99,37.3897],[-120.9913,37.3921],[-120.99,37.3957],[-120.9838,37.3996],[-120.9867,37.4032],[-120.9916,37.4029],[-120.9934,37.4014],[-120.9959,37.4022],[-120.9971,37.4044],[-120.9965,37.4065],[-120.9932,37.4084],[-120.9929,37.4098],[-120.9956,37.4113],[-121.0009,37.4107],[-121.0033,37.4125],[-121.0014,37.4167],[-120.9984,37.4183],[-121.0033,37.4225],[-121.0026,37.4246],[-121.0002,37.4262],[-121.0003,37.4283],[-121.0041,37.4296],[-121.0097,37.4258],[-121.0119,37.4257],[-121.0148,37.4269],[-121.0134,37.4315],[-121.0166,37.4256],[-121.0216,37.4205],[-121.0373,37.4352],[-121.1413,37.4354],[-121.1415,37.4226],[-121.1632,37.4195],[-121.1715,37.4212],[-121.1876,37.4218],[-121.2031,37.4271],[-121.21,37.4254],[-121.2105,37.4242],[-121.2141,37.4244],[-121.2156,37.4263],[-121.2197,37.4262],[-121.2214,37.4254],[-121.2213,37.4237],[-121.2251,37.4255],[-121.228,37.4247],[-121.2358,37.4278],[-121.2379,37.4272],[-121.2432,37.4195],[-121.2502,37.4032],[-121.2583,37.3938],[-121.2632,37.3904],[-121.2703,37.3821],[-121.2792,37.3819],[-121.2835,37.3788],[-121.2884,37.3818],[-121.2944,37.3933],[-121.297,37.3967],[-121.2996,37.3976],[-121.3151,37.396],[-121.3171,37.3966],[-121.3185,37.3991],[-121.3259,37.4017],[-121.3264,37.3957],[-121.3295,37.3934],[-121.3398,37.3926],[-121.3515,37.3871],[-121.3537,37.3847],[-121.358,37.3844],[-121.3603,37.3855],[-121.3627,37.3891],[-121.3711,37.3914],[-121.3744,37.3939],[-121.3757,37.3968],[-121.3778,37.3969],[-121.3839,37.401],[-121.3861,37.4007],[-121.3905,37.4032],[-121.3971,37.4026],[-121.401,37.4036],[-121.4052,37.4049],[-121.4091,37.409],[-121.4278,37.4104],[-121.4315,37.4048],[-121.436,37.4044],[-121.438,37.4019],[-121.4444,37.3995],[-121.446,37.3967],[-121.4491,37.3947],[-121.4498,37.3923],[-121.4427,37.3928],[-121.4361,37.3961],[-121.4315,37.3942],[-121.4241,37.3936],[-121.4195,37.3907],[-121.4125,37.3894],[-121.4106,37.3861],[-121.4091,37.3807],[-121.4158,37.3759],[-121.4193,37.3644],[-121.4225,37.3631],[-121.4237,37.3588],[-121.4194,37.352],[-121.4207,37.3447],[-121.4091,37.3306],[-121.4111,37.3275],[-121.4102,37.3251],[-121.4119,37.3244],[-121.4094,37.3215],[-121.4075,37.3131],[-121.4058,37.311],[-121.4184,37.3033],[-121.4227,37.2991],[-121.4235,37.2953],[-121.4258,37.2963],[-121.4314,37.295],[-121.4368,37.292],[-121.4411,37.2939],[-121.4436,37.2966],[-121.4496,37.2939],[-121.4487,37.2903],[-121.453,37.2867],[-121.454,37.2841],[-121.4581,37.2841],[-121.4591,37.2827]]]},"properties":{"GEOID":"0609992120","BASENAME":"Newman","NAME":"Newman CCD","COUNTY":"099","COUSUB":"92120"}},{"type":"Feature","geometry":{"type":"Polygon","coordinates":[[[-120.9265,38.0172],[-120.9263,37.8867],[-120.9233,37.7936],[-120.9234,37.758],[-120.9226,37.7503],[-120.9206,37.7493],[-120.9222,37.7484],[-120.9206,37.7385],[-120.9222,37.7371],[-120.9195,37.7386],[-120.9127,37.7467],[-120.898,37.7542],[-120.895,37.7486],[-120.894,37.711],[-120.7571,37.711],[-120.7487,37.7088],[-120.7473,37.7088],[-120.7474,37.711],[-120.6917,37.7109],[-120.6919,37.7172],[-120.6828,37.7181],[-120.6832,37.7326],[-120.6746,37.7319],[-120.6661,37.7341],[-120.6549,37.7324],[-120.6329,37.7323],[-120.6285,37.7255],[-120.6252,37.7239],[-120.6116,37.7322],[-120.5963,37.7324],[-120.5962,37.7359],[-120.5917,37.7359],[-120.5924,37.7443],[-120.5726,37.7526],[-120.5601,37.7606],[-120.5586,37.763],[-120.5597,37.7639],[-120.6552,37.8333],[-120.7287,37.8977],[-120.7445,37.9124],[-120.7527,37.9233],[-120.7613,37.9311],[-120.8338,37.9947],[-120.876,38.0289],[-120.9264,38.0774],[-120.9265,38.0172]]]},"properties":{"GEOID":"0609992210","BASENAME":"Oakdale","NAME":"Oakdale CCD","COUNTY":"099","COUSUB":"92210"}},{"type":"Feature","geometry":{"type":"Polygon","coordinates":[[[-121.2412,37.6643],[-121.2403,37.6567],[-121.2389,37.6542],[-121.223,37.6489],[-121.2237,37.6469],[-121.2279,37.6436],[-121.2287,37.6401],[-121.2261,37.6375],[-121.2182,37.6383],[-121.2146,37.6338],[-121.2136,37.6276],[-121.2109,37.6275],[-121.2094,37.6295],[-121.2108,37.6325],[-121.2054,37.637],[-121.1938,37.6375],[-121.1919,37.6346],[-121.1924,37.6326],[-121.1897,37.6309],[-121.1918,37.6295],[-121.1912,37.6273],[-121.1852,37.6262],[-121.1836,37.6215],[-121.1842,37.6174],[-121.1833,37.6144],[-121.1807,37.6129],[-121.1744,37.6134],[-121.172,37.6115],[-121.1737,37.605],[-121.1677,37.6087],[-121.1674,37.6097],[-121.1693,37.6107],[-121.1671,37.6138],[-121.1573,37.6154],[-121.1552,37.6132],[-121.156,37.6093],[-121.149,37.6065],[-121.1437,37.6072],[-121.1406,37.6014],[-121.1309,37.6028],[-121.1305,37.6016],[-121.1332,37.5984],[-121.1283,37.5965],[-121.127,37.5941],[-121.1297,37.5887],[-121.1299,37.5852],[-121.1253,37.5861],[-121.1174,37.5839],[-121.1168,37.5783],[-121.1144,37.5757],[-121.1139,37.5785],[-121.1092,37.5821],[-121.0947,37.584],[-121.0924,37.5892],[-121.0888,37.5919],[-121.0833,37.5914],[-121.0817,37.5869],[-121.0793,37.5856],[-121.0722,37.5851],[-121.0667,37.5868],[-121.0583,37.5951],[-121.0531,37.6064],[-121.0536,37.6384],[-121.0673,37.6382],[-121.0681,37.6817],[-121.054,37.6829],[-121.0744,37.7],[-121.0501,37.7003],[-121.0501,37.7113],[-120.9949,37.711],[-120.9957,37.7602],[-120.9989,37.7571],[-120.9978,37.7553],[-120.9993,37.7536],[-121.0063,37.7515],[-121.008,37.7491],[-121.0127,37.7497],[-121.0108,37.7516],[-121.014,37.7545],[-121.0112,37.7558],[-121.0147,37.7565],[-121.0177,37.7553],[-121.0213,37.7501],[-121.0206,37.7481],[-121.0241,37.7467],[-121.0257,37.7424],[-121.0288,37.7407],[-121.033,37.7429],[-121.0365,37.743],[-121.0379,37.7392],[-121.0426,37.7418],[-121.0438,37.7415],[-121.0428,37.7391],[-121.044,37.7387],[-121.0468,37.7429],[-121.051,37.7418],[-121.0519,37.7432],[-121.0507,37.7457],[-121.0536,37.7459],[-121.0517,37.7481],[-121.0567,37.7505],[-121.0583,37.7488],[-121.0605,37.7494],[-121.0614,37.7463],[-121.0647,37.7467],[-121.0634,37.7437],[-121.0669,37.7447],[-121.067,37.7396],[-121.0715,37.7379],[-121.0751,37.7389],[-121.0775,37.7375],[-121.0794,37.7384],[-121.0798,37.7402],[-121.0821,37.7399],[-121.0831,37.7418],[-121.0877,37.7414],[-121.0905,37.7359],[-121.0951,37.7345],[-121.0944,37.7337],[-121.0954,37.7332],[-121.0968,37.7346],[-121.0958,37.7362],[-121.0992,37.7381],[-121.101,37.7377],[-121.0998,37.7402],[-121.1029,37.7413],[-121.1068,37.7401],[-121.11,37.7421],[-121.1113,37.74],[-121.1076,37.7323],[-121.1129,37.7277],[-121.1168,37.7265],[-121.1168,37.7241],[-121.1214,37.7245],[-121.1214,37.7219],[-121.1236,37.7228],[-121.1227,37.7241],[-121.1259,37.7226],[-121.1287,37.7243],[-121.1318,37.7221],[-121.1338,37.7238],[-121.1353,37.723],[-121.1365,37.7247],[-121.138,37.7223],[-121.1428,37.7221],[-121.1419,37.7208],[-121.1454,37.72],[-121.1461,37.7175],[-121.1503,37.7194],[-121.1545,37.7191],[-121.1551,37.7203],[-121.1571,37.7178],[-121.1561,37.7168],[-121.1591,37.7166],[-121.1578,37.7134],[-121.1584,37.7118],[-121.1608,37.7111],[-121.1593,37.7085],[-121.1621,37.7081],[-121.1586,37.7054],[-121.1624,37.7038],[-121.1657,37.7043],[-121.1668,37.7022],[-121.1637,37.7004],[-121.1689,37.6991],[-121.1763,37.704],[-121.1772,37.7063],[-121.1799,37.7041],[-121.1792,37.702],[-121.1769,37.7025],[-121.1759,37.6994],[-121.1826,37.6985],[-121.1824,37.6966],[-121.1802,37.6953],[-121.1806,37.6936],[-121.1828,37.6936],[-121.1839,37.6923],[-121.1822,37.6916],[-121.1795,37.693],[-121.1788,37.6918],[-121.1831,37.69],[-121.1812,37.6879],[-121.1857,37.6889],[-121.1874,37.6875],[-121.1876,37.69],[-121.1895,37.6897],[-121.189,37.6916],[-121.1919,37.6905],[-121.1941,37.6949],[-121.1964,37.6946],[-121.1963,37.6926],[-121.1988,37.6902],[-121.2014,37.6928],[-121.1992,37.6943],[-121.1995,37.6962],[-121.2028,37.6958],[-121.2042,37.6934],[-121.2064,37.6948],[-121.2052,37.6915],[-121.2087,37.6863],[-121.212,37.6859],[-121.2164,37.6879],[-121.221,37.683],[-121.2235,37.6836],[-121.2226,37.6804],[-121.2183,37.6792],[-121.2193,37.6778],[-121.2227,37.6775],[-121.222,37.6751],[-121.2199,37.6766],[-121.2188,37.6759],[-121.2185,37.6736],[-121.2206,37.6708],[-121.2292,37.6689],[-121.2291,37.6643],[-121.2307,37.6628],[-121.2412,37.6643]]]},"properties":{"GEOID":"0609992720","BASENAME":"Salida","NAME":"Salida CCD","COUNTY":"099","COUSUB":"92720"}},{"type":"Feature","geometry":{"type":"Polygon","coordinates":[[[-121.4868,37.4757],[-121.4843,37.466],[-121.475,37.4621],[-121.4727,37.4564],[-121.4696,37.4557],[-121.4689,37.4539],[-121.4672,37.4533],[-121.4647,37.4545],[-121.4629,37.4515],[-121.4635,37.4457],[-121.4619,37.4388],[-121.465,37.437],[-121.4703,37.4301],[-121.4689,37.425],[-121.4726,37.4233],[-121.4663,37.415],[-121.4636,37.4159],[-121.4564,37.4067],[-121.4557,37.401],[-121.4583,37.3981],[-121.4567,37.3955],[-121.4516,37.3946],[-121.4498,37.3923],[-121.4491,37.3947],[-121.446,37.3967],[-121.4444,37.3995],[-121.438,37.4019],[-121.436,37.4044],[-121.4315,37.4048],[-121.4283,37.4103],[-121.4249,37.4103],[-121.4091,37.409],[-121.4052,37.4049],[-121.401,37.4036],[-121.3971,37.4026],[-121.3905,37.4032],[-121.3861,37.4007],[-121.3839,37.401],[-121.3778,37.3969],[-121.3757,37.3968],[-121.3744,37.3939],[-121.3711,37.3914],[-121.3627,37.3891],[-121.3603,37.3855],[-121.358,37.3844],[-121.3537,37.3847],[-121.3515,37.3871],[-121.3398,37.3926],[-121.3295,37.3934],[-121.3264,37.3957],[-121.3259,37.4017],[-121.3185,37.3991],[-121.3171,37.3966],[-121.3151,37.396],[-121.2996,37.3976],[-121.297,37.3967],[-121.2944,37.3933],[-121.2884,37.3818],[-121.2835,37.3788],[-121.2792,37.3819],[-121.2703,37.3821],[-121.2632,37.3904],[-121.2583,37.3938],[-121.2502,37.4032],[-121.2432,37.4195],[-121.2379,37.4272],[-121.2357,37.4278],[-121.228,37.4247],[-121.2251,37.4255],[-121.2213,37.4237],[-121.2214,37.4254],[-121.2197,37.4262],[-121.2156,37.4263],[-121.2141,37.4244],[-121.2105,37.4242],[-121.21,37.4254],[-121.2031,37.4271],[-121.1876,37.4218],[-121.1715,37.4212],[-121.1632,37.4195],[-121.1415,37.4226],[-121.1413,37.4354],[-121.0373,37.4352],[-121.0216,37.4205],[-121.0166,37.4256],[-121.0134,37.4315],[-121.0163,37.4333],[-121.0224,37.4335],[-121.0233,37.4362],[-121.0214,37.4406],[-121.0289,37.4439],[-121.0286,37.4456],[-121.0262,37.4465],[-121.0278,37.449],[-121.0325,37.4506],[-121.0367,37.4492],[-121.0387,37.4512],[-121.0385,37.4542],[-121.0427,37.4559],[-121.0427,37.4594],[-121.0332,37.462],[-121.0337,37.4642],[-121.0394,37.4653],[-121.0415,37.4684],[-121.0497,37.4708],[-121.0501,37.4723],[-121.0484,37.4746],[-121.0517,37.4779],[-121.0558,37.4781],[-121.0569,37.481],[-121.064,37.483],[-121.0652,37.4819],[-121.0646,37.4801],[-121.07,37.4805],[-121.0675,37.4854],[-121.0717,37.4893],[-121.0804,37.4933],[-121.0841,37.5003],[-121.0843,37.5049],[-121.088,37.507],[-121.0896,37.5119],[-121.0948,37.5129],[-121.0977,37.516],[-121.0976,37.5181],[-121.0999,37.5186],[-121.1002,37.5203],[-121.0977,37.5245],[-121.1017,37.5249],[-121.1037,37.5268],[-121.1077,37.5254],[-121.1102,37.5263],[-121.1104,37.5285],[-121.1077,37.532],[-121.1131,37.5333],[-121.1107,37.5378],[-121.1145,37.5378],[-121.1159,37.5406],[-121.1148,37.5426],[-121.1227,37.5467],[-121.123,37.5544],[-121.1274,37.5541],[-121.1281,37.5581],[-121.1326,37.5594],[-121.1351,37.5588],[-121.1383,37.5611],[-121.1435,37.5593],[-121.1484,37.5607],[-121.1497,37.5584],[-121.1481,37.5555],[-121.1489,37.5546],[-121.1533,37.5578],[-121.1528,37.5674],[-121.1555,37.5694],[-121.1592,37.5757],[-121.1569,37.5827],[-121.1618,37.5832],[-121.1641,37.5808],[-121.1661,37.5809],[-121.1677,37.5826],[-121.1667,37.5849],[-121.1678,37.5864],[-121.1719,37.5874],[-121.1724,37.5932],[-121.1768,37.5936],[-121.1766,37.5969],[-121.1697,37.5979],[-121.1722,37.6],[-121.1782,37.5976],[-121.1794,37.5992],[-121.1762,37.6024],[-121.1782,37.6062],[-121.1743,37.6057],[-121.1722,37.608],[-121.1718,37.611],[-121.1744,37.6134],[-121.1807,37.6129],[-121.1833,37.6144],[-121.1842,37.6174],[-121.1836,37.6215],[-121.1852,37.6262],[-121.1912,37.6273],[-121.1918,37.6295],[-121.1897,37.6309],[-121.1924,37.6326],[-121.1919,37.6346],[-121.1934,37.6372],[-121.2054,37.637],[-121.2108,37.6325],[-121.2099,37.6287],[-121.2131,37.6273],[-121.2144,37.6286],[-121.2146,37.6338],[-121.2182,37.6383],[-121.2261,37.6375],[-121.2287,37.6401],[-121.2279,37.6436],[-121.2237,37.6469],[-121.223,37.6489],[-121.2389,37.6542],[-121.2403,37.6567],[-121.2409,37.6643],[-121.4726,37.4822],[-121.4745,37.4793],[-121.4777,37.4803],[-121.4834,37.4754],[-121.4868,37.4757]]]},"properties":{"GEOID":"0609992420","BASENAME":"Patterson","NAME":"Patterson CCD","COUNTY":"099","COUSUB":"92420"}},{"type":"Feature","geometry":{"type":"Polygon","coordinates":[[[-120.9215,37.6818],[-120.9212,37.6571],[-120.9175,37.6573],[-120.914,37.6611],[-120.9074,37.6616],[-120.9056,37.6631],[-120.9063,37.6656],[-120.9029,37.6671],[-120.8997,37.6669],[-120.8936,37.6634],[-120.8908,37.6639],[-120.8805,37.6602],[-120.8754,37.66],[-120.8753,37.653],[-120.8936,37.653],[-120.8931,37.6312],[-120.9005,37.628],[-120.8992,37.623],[-120.8939,37.6245],[-120.8932,37.6218],[-120.8915,37.6208],[-120.8864,37.6215],[-120.8841,37.6231],[-120.8847,37.6254],[-120.8833,37.6272],[-120.8782,37.625],[-120.8759,37.626],[-120.8744,37.6295],[-120.8706,37.6274],[-120.8674,37.628],[-120.8661,37.6309],[-120.8637,37.6324],[-120.8582,37.623],[-120.8592,37.619],[-120.8573,37.6163],[-120.8538,37.6165],[-120.8536,37.6181],[-120.8518,37.6188],[-120.8463,37.6177],[-120.8381,37.6232],[-120.8301,37.62],[-120.8239,37.6193],[-120.8178,37.6157],[-120.7986,37.6147],[-120.7874,37.6197],[-120.7824,37.6247],[-120.7731,37.629],[-120.7715,37.6316],[-120.7676,37.6319],[-120.7608,37.6357],[-120.7526,37.6365],[-120.7454,37.635],[-120.7374,37.6353],[-120.7194,37.6394],[-120.7147,37.6372],[-120.7099,37.6376],[-120.7063,37.6389],[-120.7,37.6441],[-120.6916,37.6438],[-120.682,37.6455],[-120.6737,37.6452],[-120.6717,37.642],[-120.6672,37.6404],[-120.6622,37.6424],[-120.6581,37.6409],[-120.6447,37.6399],[-120.639,37.6379],[-120.6346,37.6345],[-120.6199,37.6354],[-120.6104,37.6386],[-120.6048,37.6387],[-120.589,37.6319],[-120.5797,37.6319],[-120.5749,37.63],[-120.5675,37.6295],[-120.5622,37.6327],[-120.5486,37.6272],[-120.5362,37.6293],[-120.5286,37.628],[-120.5256,37.6262],[-120.5177,37.6312],[-120.5016,37.6381],[-120.4968,37.644],[-120.4935,37.6525],[-120.4879,37.6551],[-120.4872,37.6598],[-120.482,37.6628],[-120.4793,37.6662],[-120.4755,37.6671],[-120.4636,37.6665],[-120.4512,37.663],[-120.4425,37.6659],[-120.4425,37.6675],[-120.4453,37.6705],[-120.4436,37.6738],[-120.4414,37.6741],[-120.5586,37.763],[-120.5668,37.7557],[-120.5924,37.7443],[-120.5917,37.7359],[-120.5962,37.7359],[-120.5963,37.7324],[-120.6116,37.7322],[-120.6252,37.7239],[-120.6285,37.7255],[-120.6329,37.7323],[-120.6549,37.7324],[-120.6661,37.7341],[-120.6746,37.7319],[-120.6832,37.7326],[-120.6828,37.7181],[-120.6919,37.7172],[-120.6917,37.7109],[-120.7474,37.711],[-120.7473,37.7088],[-120.7487,37.7088],[-120.7571,37.711],[-120.894,37.711],[-120.8939,37.6818],[-120.9215,37.6818]]]},"properties":{"GEOID":"0609993580","BASENAME":"Waterford","NAME":"Waterford CCD","COUNTY":"099","COUSUB":"93580"}},{"type":"Feature","geometry":{"type":"Polygon","coordinates":[[[-121.1794,37.6001],[-121.1783,37.5976],[-121.1729,37.6001],[-121.1697,37.5983],[-121.1707,37.5973],[-121.1758,37.5973],[-121.1772,37.5949],[-121.1764,37.5934],[-121.1724,37.5932],[-121.1719,37.5874],[-121.1678,37.5864],[-121.1667,37.5849],[-121.1677,37.5826],[-121.1661,37.5809],[-121.1641,37.5808],[-121.1618,37.5832],[-121.1569,37.5827],[-121.1592,37.5757],[-121.1555,37.5694],[-121.1528,37.5674],[-121.1533,37.5578],[-121.1489,37.5546],[-121.1481,37.5555],[-121.1497,37.5584],[-121.1484,37.5607],[-121.1435,37.5593],[-121.1383,37.5611],[-121.1351,37.5588],[-121.1326,37.5594],[-121.1281,37.5581],[-121.1274,37.5541],[-121.123,37.5544],[-121.1227,37.5467],[-121.1148,37.5426],[-121.1159,37.5406],[-121.1145,37.5378],[-121.1107,37.5378],[-121.1131,37.5333],[-121.1077,37.532],[-121.1104,37.5285],[-121.1102,37.5263],[-121.1077,37.5254],[-121.1037,37.5268],[-121.1017,37.5249],[-121.0977,37.5245],[-121.1002,37.5203],[-121.0999,37.5186],[-121.0976,37.5181],[-121.0977,37.516],[-121.0948,37.5129],[-121.0896,37.5119],[-121.088,37.507],[-121.0843,37.5049],[-121.0841,37.5003],[-121.0804,37.4933],[-121.0717,37.4893],[-121.0675,37.4854],[-121.07,37.4805],[-121.0646,37.4801],[-121.0652,37.4819],[-121.064,37.483],[-121.0569,37.481],[-121.0558,37.4781],[-121.0517,37.4779],[-121.0484,37.4746],[-121.0501,37.4723],[-121.0497,37.4708],[-121.0415,37.4684],[-121.0394,37.4653],[-121.0335,37.4639],[-121.0332,37.462],[-121.0427,37.4594],[-121.0427,37.4559],[-121.0385,37.4542],[-121.0387,37.4512],[-121.0367,37.4492],[-121.0325,37.4506],[-121.0278,37.449],[-121.0262,37.4465],[-121.0286,37.4456],[-121.0289,37.4439],[-121.0214,37.4406],[-121.0233,37.4362],[-121.0224,37.4335],[-121.0163,37.4333],[-121.0134,37.4315],[-121.005,37.4394],[-121.0036,37.442],[-121.0034,37.4494],[-120.9945,37.4807],[-120.9936,37.5949],[-121.0303,37.595],[-121.0305,37.6087],[-121.0379,37.6128],[-121.0441,37.6126],[-121.0528,37.6072],[-121.0583,37.5951],[-121.0662,37.587],[-121.0722,37.5851],[-121.0793,37.5856],[-121.0817,37.5869],[-121.0833,37.5914],[-121.0888,37.5919],[-121.0924,37.5892],[-121.0947,37.584],[-121.1092,37.5821],[-121.1139,37.5785],[-121.1142,37.5757],[-121.1168,37.5783],[-121.1174,37.5839],[-121.1253,37.5861],[-121.1299,37.5852],[-121.1297,37.5887],[-121.127,37.5941],[-121.1283,37.5965],[-121.1332,37.5984],[-121.1304,37.6025],[-121.1339,37.6031],[-121.1406,37.6014],[-121.1437,37.6072],[-121.149,37.6065],[-121.156,37.6093],[-121.1552,37.6132],[-121.1567,37.6153],[-121.1671,37.6138],[-121.1693,37.6107],[-121.1674,37.6097],[-121.1677,37.6087],[-121.1728,37.6049],[-121.1782,37.6062],[-121.1762,37.6024],[-121.1794,37.6001]]]},"properties":{"GEOID":"0609993650","BASENAME":"Westport","NAME":"Westport CCD","COUNTY":"099","COUSUB":"93650"}}]}