{"type":"FeatureCollection","features":[{"type":"Feature","geometry":{"type":"Polygon","coordinates":[[[-121.7984,39.3036],[-121.7984,39.2941],[-121.7951,39.2936],[-121.7949,39.2913],[-121.7913,39.2912],[-121.7841,39.2868],[-121.7716,39.2824],[-121.7715,39.2753],[-121.7532,39.2755],[-121.7436,39.2664],[-121.7433,39.2618],[-121.7394,39.2594],[-121.7332,39.2524],[-121.7285,39.2504],[-121.718,39.2379],[-121.717,39.2312],[-121.7175,39.228],[-121.719,39.2276],[-121.7167,39.2217],[-121.7182,39.2169],[-121.715,39.2131],[-121.7148,39.1882],[-121.7164,39.1878],[-121.7164,39.1855],[-121.6625,39.1853],[-121.6619,39.1895],[-121.6307,39.1899],[-121.6278,39.1821],[-121.6182,39.1822],[-121.6182,39.1838],[-121.6143,39.1875],[-121.613,39.1903],[-121.6148,39.1929],[-121.6237,39.1957],[-121.624,39.1987],[-121.6291,39.2047],[-121.6249,39.2069],[-121.6211,39.2062],[-121.6194,39.2102],[-121.6209,39.2126],[-121.6203,39.2135],[-121.6158,39.2125],[-121.6136,39.2139],[-121.6181,39.2206],[-121.6144,39.2289],[-121.6179,39.2298],[-121.6248,39.2277],[-121.6277,39.2286],[-121.6289,39.2305],[-121.6277,39.2355],[-121.635,39.2405],[-121.6364,39.2461],[-121.6351,39.2521],[-121.6356,39.262],[-121.6272,39.2594],[-121.6235,39.261],[-121.6214,39.2637],[-121.6284,39.2665],[-121.6325,39.2708],[-121.6302,39.2737],[-121.6251,39.2717],[-121.6219,39.2736],[-121.6222,39.2756],[-121.6272,39.2797],[-121.6285,39.2857],[-121.6316,39.2913],[-121.6256,39.2925],[-121.6236,39.2951],[-121.6323,39.3022],[-121.6301,39.3057],[-121.7984,39.3036]]]},"properties":{"GEOID":"0610191650","BASENAME":"Live Oak","NAME":"Live Oak CCD","COUNTY":"101","COUSUB":"91650"}},{"type":"Feature","geometry":{"type":"Polygon","coordinates":[[[-121.9483,39.2418],[-121.94,39.2287],[-121.9414,39.2217],[-121.9361,39.221],[-121.9379,39.2182],[-121.9324,39.2116],[-121.9333,39.2093],[-121.9283,39.1987],[-121.9216,39.1999],[-121.9091,39.1899],[-121.9067,39.1759],[-121.9036,39.1748],[-121.898,39.1674],[-121.8875,39.1584],[-121.8829,39.1569],[-121.8804,39.1583],[-121.8815,39.1603],[-121.8797,39.1627],[-121.8721,39.1614],[-121.8611,39.1617],[-121.8608,39.1629],[-121.8548,39.1597],[-121.8421,39.156],[-121.8377,39.1527],[-121.8381,39.1474],[-121.8306,39.1412],[-121.8237,39.1398],[-121.8187,39.1412],[-121.7689,39.1132],[-121.7354,39.1513],[-121.7286,39.167],[-121.7166,39.1668],[-121.7164,39.1878],[-121.7148,39.1882],[-121.715,39.2131],[-121.7182,39.2169],[-121.7167,39.2217],[-121.719,39.2276],[-121.7175,39.228],[-121.717,39.2312],[-121.7179,39.2378],[-121.728,39.2499],[-121.7332,39.2524],[-121.7394,39.2594],[-121.7433,39.2618],[-121.7436,39.2664],[-121.7532,39.2755],[-121.7715,39.2753],[-121.7716,39.2824],[-121.7841,39.2868],[-121.7913,39.2912],[-121.7949,39.2913],[-121.7951,39.2936],[-121.7984,39.2941],[-121.7984,39.3036],[-121.9083,39.3039],[-121.9079,39.3019],[-121.9134,39.2994],[-121.9169,39.2957],[-121.9164,39.2924],[-121.9187,39.2923],[-121.9189,39.2894],[-121.9221,39.2883],[-121.9208,39.2816],[-121.9279,39.2752],[-121.929,39.2711],[-121.9358,39.2688],[-121.9413,39.2624],[-121.9423,39.2561],[-121.9468,39.2498],[-121.9483,39.2418]]]},"properties":{"GEOID":"0610193290","BASENAME":"Sutter","NAME":"Sutter CCD","COUNTY":"101","COUSUB":"93290"}},{"type":"Feature","geometry":{"type":"Polygon","coordinates":[[[-121.9457,39.1812],[-121.9389,39.1734],[-121.9342,39.161],[-121.9201,39.153],[-121.9173,39.149],[-121.9184,39.1433],[-121.9205,39.1413],[-121.9378,39.144],[-121.9395,39.1413],[-121.938,39.133],[-121.9339,39.13],[-121.925,39.1282],[-121.9214,39.1222],[-121.9137,39.1238],[-121.9111,39.1231],[-121.91,39.1193],[-121.913,39.1153],[-121.9127,39.1135],[-121.9095,39.113],[-121.9055,39.1148],[-121.9035,39.1081],[-121.9058,39.1031],[-121.9,39.1002],[-121.8985,39.0967],[-121.8944,39.0961],[-121.8938,39.0948],[-121.8935,39.0918],[-121.8952,39.0868],[-121.8902,39.0829],[-121.8897,39.0812],[-121.8944,39.08],[-121.8941,39.078],[-121.8891,39.0724],[-121.8761,39.0701],[-121.8708,39.0671],[-121.8615,39.0679],[-121.8494,39.0714],[-121.8385,39.0641],[-121.8409,39.0517],[-121.8396,39.0469],[-121.8356,39.042],[-121.8296,39.038],[-121.8307,39.0327],[-121.8244,39.0318],[-121.8229,39.0294],[-121.821,39.0203],[-121.826,39.0141],[-121.8265,39.0112],[-121.8192,39.0061],[-121.8131,39.0059],[-121.8062,39.0037],[-121.7954,38.9964],[-121.7963,38.9941],[-121.8021,38.9898],[-121.8195,38.9883],[-121.8214,38.9747],[-121.8333,38.9702],[-121.8347,38.9658],[-121.832,38.9605],[-121.8406,38.9548],[-121.8366,38.9491],[-121.8366,38.9438],[-121.8301,38.9384],[-121.8353,38.9325],[-121.8379,38.927],[-121.8373,38.9261],[-121.8289,38.9185],[-121.8048,38.9145],[-121.8046,38.9119],[-121.8058,38.9108],[-121.8153,38.9112],[-121.8122,38.9088],[-121.8016,38.9058],[-121.7926,38.9064],[-121.7911,38.9045],[-121.7936,38.9007],[-121.804,38.9017],[-121.8031,38.8974],[-121.8068,38.8903],[-121.8092,38.8877],[-121.8167,38.8845],[-121.8172,38.8818],[-121.8152,38.8771],[-121.8098,38.8721],[-121.8039,38.87],[-121.8024,38.8646],[-121.796,38.8667],[-121.793,38.863],[-121.7888,38.8642],[-121.7858,38.8632],[-121.7839,38.8564],[-121.7767,38.8613],[-121.77,38.8615],[-121.7653,38.8642],[-121.7584,38.8624],[-121.7602,38.8672],[-121.7593,38.8684],[-121.7486,38.8713],[-121.7448,38.8642],[-121.7296,38.8584],[-121.7282,38.8534],[-121.7245,38.8528],[-121.7231,38.8513],[-121.7287,38.8466],[-121.7287,38.8447],[-121.726,38.8413],[-121.7297,38.8396],[-121.731,38.8358],[-121.7234,38.8256],[-121.7244,38.8184],[-121.7233,38.8038],[-121.7219,38.8022],[-121.7162,38.8027],[-121.709,38.801],[-121.7013,38.803],[-121.6983,38.8013],[-121.6958,38.7967],[-121.6907,38.7956],[-121.6934,38.7898],[-121.691,38.7861],[-121.6912,38.7842],[-121.6876,38.7804],[-121.6864,38.7754],[-121.6894,38.7712],[-121.6921,38.7696],[-121.6926,38.7677],[-121.6872,38.7637],[-121.6809,38.7636],[-121.6767,38.7602],[-121.67,38.7593],[-121.6772,38.7509],[-121.6768,38.7467],[-121.6738,38.7431],[-121.6694,38.7457],[-121.6685,38.7485],[-121.6693,38.7524],[-121.668,38.7545],[-121.6647,38.7557],[-121.6585,38.755],[-121.6599,38.761],[-121.6643,38.7653],[-121.6627,38.7696],[-121.6589,38.7696],[-121.6569,38.7657],[-121.6541,38.7645],[-121.6389,38.7672],[-121.6486,38.7728],[-121.6462,38.7741],[-121.6404,38.7728],[-121.637,38.7698],[-121.6363,38.7674],[-121.6334,38.7685],[-121.6315,38.7761],[-121.628,38.7789],[-121.6308,38.7832],[-121.6253,38.7853],[-121.6207,38.784],[-121.6321,38.7972],[-121.6354,38.8098],[-121.6407,38.8193],[-121.6411,38.823],[-121.6358,38.8344],[-121.6287,38.8554],[-121.6212,38.8654],[-121.6129,38.8799],[-121.6143,38.884],[-121.6128,38.8859],[-121.6183,38.8959],[-121.6259,38.9208],[-121.6289,38.9259],[-121.6722,38.9661],[-121.7043,38.986],[-121.7184,38.9974],[-121.7217,39.0043],[-121.7305,39.036],[-121.7555,39.0964],[-121.7606,39.105],[-121.7709,39.1146],[-121.8163,39.14],[-121.8192,39.1413],[-121.8237,39.1398],[-121.8306,39.1412],[-121.8381,39.1474],[-121.8377,39.1527],[-121.8421,39.156],[-121.8548,39.1597],[-121.8608,39.1629],[-121.8611,39.1617],[-121.8721,39.1614],[-121.8797,39.1627],[-121.8815,39.1603],[-121.8804,39.1583],[-121.8835,39.1568],[-121.8868,39.1579],[-121.898,39.1674],[-121.9036,39.1748],[-121.9067,39.1759],[-121.9089,39.1897],[-121.9217,39.2],[-121.9285,39.1987],[-121.9365,39.1947],[-121.9345,39.1899],[-121.9407,39.1871],[-121.9457,39.1812]]]},"properties":{"GEOID":"0610191970","BASENAME":"Meridian-Robbins","NAME":"Meridian-Robbins CCD","COUNTY":"101","COUSUB":"91970"}},{"type":"Feature","geometry":{"type":"Polygon","coordinates":[[[-121.6413,38.8213],[-121.6354,38.8098],[-121.6327,38.7986],[-121.6282,38.7923],[-121.6207,38.784],[-121.6081,38.7809],[-121.603,38.7781],[-121.5932,38.7643],[-121.5923,38.7602],[-121.5934,38.754],[-121.6029,38.7358],[-121.5218,38.7364],[-121.4844,38.7346],[-121.4844,38.7514],[-121.4698,38.7516],[-121.4694,38.926],[-121.4144,38.9262],[-121.4148,38.9965],[-121.4375,38.9936],[-121.442,38.9949],[-121.4438,38.9933],[-121.449,38.9972],[-121.4595,38.9978],[-121.4744,38.9922],[-121.482,38.9935],[-121.4857,38.9926],[-121.4872,38.9906],[-121.4896,38.9921],[-121.4937,38.9843],[-121.509,38.9828],[-121.5247,38.9715],[-121.5433,38.9724],[-121.5535,38.9538],[-121.5615,38.9534],[-121.5713,38.9389],[-121.5755,38.9244],[-121.5754,38.9183],[-121.5804,38.9084],[-121.5904,38.8982],[-121.5981,38.895],[-121.6141,38.8846],[-121.6131,38.879],[-121.6287,38.8554],[-121.6413,38.8213]]]},"properties":{"GEOID":"0610193180","BASENAME":"South Sutter","NAME":"South Sutter CCD","COUNTY":"101","COUSUB":"93180"}},{"type":"Feature","geometry":{"type":"Polygon","coordinates":[[[-121.7011,39.1852],[-121.7011,39.1714],[-121.6983,39.1704],[-121.6982,39.1271],[-121.6891,39.127],[-121.6895,39.0689],[-121.6262,39.0691],[-121.6251,39.0648],[-121.6113,39.0651],[-121.613,39.062],[-121.6115,39.062],[-121.6114,39.0569],[-121.6102,39.0569],[-121.608,39.0612],[-121.6033,39.0657],[-121.597,39.0768],[-121.5895,39.0844],[-121.5859,39.0902],[-121.5873,39.1017],[-121.5912,39.1026],[-121.5956,39.0994],[-121.6027,39.1002],[-121.6014,39.105],[-121.6046,39.1139],[-121.5977,39.1278],[-121.6024,39.1356],[-121.6076,39.1409],[-121.6078,39.1451],[-121.6055,39.1485],[-121.6074,39.1508],[-121.6099,39.1587],[-121.6156,39.1678],[-121.6122,39.1713],[-121.6113,39.1761],[-121.6165,39.1787],[-121.6181,39.1822],[-121.6278,39.1821],[-121.6307,39.1899],[-121.6619,39.1895],[-121.6625,39.1853],[-121.7011,39.1852]]]},"properties":{"GEOID":"0610193820","BASENAME":"Yuba City","NAME":"Yuba City CCD","COUNTY":"101","COUSUB":"93820"}},{"type":"Feature","geometry":{"type":"Polygon","coordinates":[[[-121.769,39.1134],[-121.7606,39.105],[-121.7555,39.0965],[-121.7303,39.0355],[-121.7217,39.0043],[-121.7179,38.9967],[-121.7015,38.9842],[-121.6725,38.9664],[-121.6288,38.9258],[-121.6259,38.9208],[-121.6183,38.8959],[-121.6128,38.8859],[-121.5981,38.895],[-121.5904,38.8982],[-121.5779,38.9115],[-121.5755,38.9184],[-121.5811,38.9258],[-121.5819,38.9382],[-121.578,38.9468],[-121.5826,38.9557],[-121.5805,38.9606],[-121.5814,38.9653],[-121.5874,38.9734],[-121.5865,38.98],[-121.5894,38.9903],[-121.5875,38.9949],[-121.5806,39.0033],[-121.5793,39.0076],[-121.5833,39.0095],[-121.5945,39.0103],[-121.6,39.0121],[-121.5949,39.0193],[-121.5943,39.0233],[-121.606,39.0334],[-121.6102,39.0569],[-121.6114,39.0569],[-121.6115,39.062],[-121.613,39.062],[-121.6113,39.0651],[-121.6251,39.0648],[-121.6262,39.0691],[-121.6895,39.0689],[-121.6891,39.127],[-121.6982,39.1271],[-121.6983,39.1704],[-121.7011,39.1714],[-121.7011,39.1852],[-121.7164,39.1855],[-121.7166,39.1668],[-121.7286,39.167],[-121.7354,39.1513],[-121.769,39.1134]]]},"properties":{"GEOID":"0610193825","BASENAME":"Yuba City Southwest","NAME":"Yuba City Southwest CCD","COUNTY":"101","COUSUB":"93825"}}]}