{"type":"FeatureCollection","features":[{"type":"Feature","geometry":{"type":"MultiPolygon","coordinates":[[[[-119.3292,34.2278],[-119.2976,34.1603],[-119.2857,34.1408],[-119.2677,34.1213],[-119.2509,34.1062],[-119.218,34.0625],[-119.159,34.0403],[-119.1168,34.0298],[-119.0579,34.0194],[-119.0609,34.0843],[-119.0668,34.0923],[-119.0809,34.101],[-119.0793,34.1068],[-119.0799,34.1097],[-119.0986,34.1332],[-119.0968,34.1352],[-119.0964,34.1704],[-119.1067,34.1849],[-119.1098,34.1969],[-119.1112,34.2095],[-119.1147,34.2097],[-119.1201,34.2175],[-119.12,34.2218],[-119.1125,34.23],[-119.1613,34.264],[-119.1818,34.2504],[-119.1897,34.2423],[-119.2022,34.2347],[-119.2565,34.2354],[-119.3292,34.2278]]],[[[-119.4865,34],[-119.4923,33.9832],[-119.4853,33.9777],[-119.4726,33.9706],[-119.433,33.9559],[-119.417,33.9538],[-119.4113,33.9554],[-119.4029,33.9538],[-119.3934,33.9547],[-119.3894,33.9533],[-119.3805,33.9536],[-119.3628,33.9588],[-119.3519,33.9645],[-119.3328,33.9677],[-119.3184,33.9749],[-119.3116,33.98],[-119.3041,33.9865],[-119.2962,33.9972],[-119.2931,34.0202],[-119.2976,34.0366],[-119.3052,34.0474],[-119.3121,34.0544],[-119.3211,34.0606],[-119.3425,34.069],[-119.3564,34.0708],[-119.3679,34.0704],[-119.397,34.0638],[-119.4094,34.0668],[-119.4237,34.0677],[-119.4513,34.0664],[-119.4681,34.0631],[-119.4865,34]]],[[[-119.6361,33.2807],[-119.6363,33.273],[-119.631,33.2555],[-119.6313,33.245],[-119.6252,33.2325],[-119.6199,33.2268],[-119.6148,33.2173],[-119.6053,33.2069],[-119.5742,33.1865],[-119.5622,33.1825],[-119.5532,33.1813],[-119.5413,33.1765],[-119.512,33.1678],[-119.4914,33.167],[-119.4765,33.1635],[-119.445,33.1653],[-119.4337,33.167],[-119.3945,33.1808],[-119.3759,33.1922],[-119.3685,33.2026],[-119.3624,33.2148],[-119.3607,33.2215],[-119.3601,33.2349],[-119.3621,33.2452],[-119.3672,33.2534],[-119.3759,33.2632],[-119.3759,33.2648],[-119.3797,33.2676],[-119.4054,33.2835],[-119.43,33.301],[-119.4951,33.3272],[-119.5191,33.3337],[-119.5297,33.3352],[-119.5435,33.3342],[-119.5649,33.3276],[-119.5827,33.3278],[-119.5992,33.3233],[-119.6145,33.3148],[-119.6259,33.305],[-119.6338,33.2893],[-119.6361,33.2807]]]]},"properties":{"GEOID":"0611192310","BASENAME":"Oxnard","NAME":"Oxnard CCD","COUNTY":"111","COUSUB":"92310"}},{"type":"Feature","geometry":{"type":"Polygon","coordinates":[[[-119.501,34.3269],[-119.4842,34.3068],[-119.467,34.2937],[-119.449,34.2847],[-119.4286,34.2778],[-119.402,34.2723],[-119.3863,34.2571],[-119.3762,34.25],[-119.3507,34.2401],[-119.3359,34.2375],[-119.3292,34.2278],[-119.2565,34.2354],[-119.2022,34.2347],[-119.1897,34.2423],[-119.1818,34.2504],[-119.1613,34.264],[-119.1558,34.2695],[-119.1332,34.2802],[-119.1291,34.2887],[-119.1346,34.296],[-119.134,34.2987],[-119.1413,34.3068],[-119.1427,34.3103],[-119.1451,34.3119],[-119.1439,34.3136],[-119.1451,34.3147],[-119.1441,34.3165],[-119.1455,34.3151],[-119.1527,34.3301],[-119.1597,34.3396],[-119.1648,34.3431],[-119.1658,34.3516],[-119.1698,34.3572],[-119.1726,34.3642],[-119.1709,34.3679],[-119.17,34.3784],[-119.1727,34.385],[-119.1719,34.3883],[-119.1729,34.3908],[-119.1774,34.3934],[-119.1786,34.3959],[-119.185,34.3986],[-119.1838,34.4026],[-119.1845,34.408],[-119.183,34.412],[-119.1811,34.4127],[-119.1864,34.4146],[-119.195,34.4151],[-119.1999,34.4125],[-119.2025,34.4087],[-119.226,34.4027],[-119.2297,34.4033],[-119.2354,34.4007],[-119.2382,34.4025],[-119.2416,34.4017],[-119.2423,34.4031],[-119.248,34.4014],[-119.251,34.4031],[-119.2531,34.4014],[-119.2549,34.4035],[-119.262,34.4002],[-119.2633,34.3974],[-119.2652,34.3982],[-119.268,34.397],[-119.2701,34.3946],[-119.2686,34.3933],[-119.2721,34.3896],[-119.2744,34.3926],[-119.276,34.3901],[-119.2792,34.39],[-119.2821,34.3882],[-119.2835,34.3897],[-119.285,34.3885],[-119.2815,34.3833],[-119.2811,34.3789],[-119.2953,34.3714],[-119.2953,34.3702],[-119.3013,34.3654],[-119.3085,34.3631],[-119.3095,34.3597],[-119.3082,34.3547],[-119.3064,34.3528],[-119.3089,34.3522],[-119.3128,34.3547],[-119.3148,34.3577],[-119.3171,34.3583],[-119.3204,34.3626],[-119.3287,34.3656],[-119.3313,34.3707],[-119.3329,34.3708],[-119.3321,34.3721],[-119.3331,34.3734],[-119.3355,34.372],[-119.3409,34.3744],[-119.3458,34.3805],[-119.3501,34.3835],[-119.365,34.383],[-119.3693,34.3849],[-119.3637,34.3857],[-119.3654,34.3873],[-119.373,34.3871],[-119.3792,34.3891],[-119.381,34.3863],[-119.3869,34.3838],[-119.3898,34.3838],[-119.3891,34.3859],[-119.4058,34.3815],[-119.411,34.3852],[-119.4152,34.3858],[-119.4136,34.3885],[-119.4161,34.3908],[-119.4202,34.3906],[-119.421,34.3922],[-119.4242,34.3934],[-119.4271,34.3926],[-119.4401,34.3945],[-119.4514,34.3981],[-119.4594,34.392],[-119.4648,34.389],[-119.4687,34.3884],[-119.4684,34.3866],[-119.4727,34.3837],[-119.4731,34.3794],[-119.4777,34.3796],[-119.4782,34.3765],[-119.476,34.3751],[-119.4767,34.3732],[-119.501,34.3269]]]},"properties":{"GEOID":"0611193550","BASENAME":"Ventura","NAME":"Ventura CCD","COUNTY":"111","COUSUB":"93550"}},{"type":"Feature","geometry":{"type":"Polygon","coordinates":[[[-119.4546,34.4216],[-119.4537,34.4195],[-119.4544,34.4183],[-119.4453,34.4083],[-119.4469,34.402],[-119.4491,34.4017],[-119.4514,34.3981],[-119.4401,34.3945],[-119.4271,34.3926],[-119.4242,34.3934],[-119.4209,34.3921],[-119.3775,34.3918],[-119.3702,34.4172],[-119.358,34.423],[-119.3571,34.4281],[-119.3504,34.4323],[-119.3445,34.4388],[-119.3341,34.4412],[-119.2888,34.4668],[-119.2868,34.4637],[-119.2845,34.4637],[-119.2862,34.4676],[-119.2851,34.4687],[-119.2811,34.4703],[-119.2781,34.4698],[-119.2681,34.4758],[-119.2648,34.4823],[-119.2639,34.4883],[-119.2604,34.4886],[-119.252,34.4966],[-119.249,34.4977],[-119.249,34.4957],[-119.2435,34.4969],[-119.2358,34.5007],[-119.2361,34.5034],[-119.2331,34.5066],[-119.2295,34.5076],[-119.2271,34.5109],[-119.2187,34.515],[-119.2161,34.5143],[-119.2082,34.5166],[-119.2005,34.5171],[-119.1971,34.5192],[-119.1854,34.5172],[-119.1786,34.5185],[-119.176,34.5176],[-119.172,34.5138],[-119.1652,34.5124],[-119.1625,34.5096],[-119.1625,34.5085],[-119.1655,34.507],[-119.1678,34.5072],[-119.1711,34.5055],[-119.171,34.5028],[-119.165,34.5034],[-119.1641,34.5024],[-119.1606,34.504],[-119.1594,34.5018],[-119.1559,34.5046],[-119.1552,34.5006],[-119.1516,34.5028],[-119.1505,34.5006],[-119.1483,34.5004],[-119.1469,34.4984],[-119.1436,34.4986],[-119.1413,34.4949],[-119.1401,34.4964],[-119.1236,34.5016],[-119.121,34.4999],[-119.1186,34.5],[-119.1184,34.5011],[-119.1172,34.4994],[-119.1126,34.5016],[-119.1074,34.5009],[-119.1063,34.5041],[-119.1031,34.505],[-119.1025,34.5083],[-119.1004,34.5102],[-119.093,34.5115],[-119.0895,34.5108],[-119.0856,34.5132],[-119.0873,34.5109],[-119.0835,34.5098],[-119.081,34.505],[-119.0808,34.5016],[-119.0781,34.4984],[-119.0741,34.4988],[-119.0668,34.4969],[-119.0614,34.4917],[-119.056,34.4904],[-119.054,34.4881],[-119.0579,34.486],[-119.0559,34.482],[-119.0557,34.477],[-119.0571,34.475],[-119.0543,34.4668],[-119.0562,34.4624],[-119.0585,34.4615],[-119.0573,34.4562],[-119.0557,34.4547],[-119.0557,34.4531],[-119.0574,34.4527],[-119.0559,34.4512],[-119.0567,34.4487],[-119.0586,34.4495],[-119.0628,34.4477],[-119.0649,34.4448],[-119.069,34.4448],[-119.0722,34.442],[-119.0766,34.442],[-119.077,34.4398],[-119.0835,34.4393],[-119.0861,34.4368],[-119.0771,34.4367],[-119.0772,34.4296],[-119.0597,34.4295],[-119.0596,34.4223],[-118.9555,34.4225],[-118.9553,34.4442],[-118.9376,34.4442],[-118.9374,34.4682],[-118.771,34.4677],[-118.7659,34.4823],[-118.7386,34.499],[-118.8804,34.7887],[-118.978,34.7898],[-118.9779,34.8117],[-119.2425,34.8143],[-119.2426,34.8576],[-119.2772,34.8573],[-119.2764,34.8725],[-119.3555,34.8725],[-119.3555,34.8737],[-119.3819,34.874],[-119.3837,34.9008],[-119.4437,34.9012],[-119.4416,34.4519],[-119.4433,34.4495],[-119.4415,34.4479],[-119.4404,34.4418],[-119.4437,34.4367],[-119.4431,34.4343],[-119.4445,34.4336],[-119.4447,34.4295],[-119.4531,34.4289],[-119.453,34.423],[-119.4546,34.4216]]]},"properties":{"GEOID":"0611191770","BASENAME":"Los Padres","NAME":"Los Padres CCD","COUNTY":"111","COUSUB":"91770"}},{"type":"Feature","geometry":{"type":"Polygon","coordinates":[[[-119.0234,34.4222],[-119.0173,34.4202],[-119.0168,34.4139],[-119.0143,34.4125],[-119.01,34.406],[-119.011,34.3936],[-119.0099,34.3858],[-119.0078,34.3858],[-119.0082,34.3636],[-118.9938,34.3667],[-118.9815,34.3716],[-118.9808,34.3475],[-118.979,34.3462],[-118.979,34.3433],[-118.9764,34.3386],[-118.9777,34.3374],[-118.9782,34.3341],[-118.9772,34.332],[-118.9784,34.3297],[-118.972,34.3326],[-118.9682,34.3375],[-118.9639,34.3395],[-118.9587,34.3394],[-118.9553,34.3357],[-118.9536,34.3357],[-118.9503,34.3428],[-118.9468,34.3455],[-118.9401,34.3456],[-118.9282,34.336],[-118.9221,34.3371],[-118.9094,34.3367],[-118.8969,34.3413],[-118.8911,34.341],[-118.8877,34.3456],[-118.8863,34.3545],[-118.8843,34.356],[-118.8782,34.3557],[-118.8724,34.3528],[-118.857,34.3587],[-118.8446,34.3573],[-118.8368,34.3595],[-118.8212,34.3578],[-118.8137,34.3605],[-118.8115,34.3631],[-118.8118,34.365],[-118.8089,34.365],[-118.8086,34.3673],[-118.8052,34.367],[-118.8016,34.3648],[-118.799,34.3653],[-118.7987,34.3619],[-118.7877,34.3663],[-118.7815,34.3655],[-118.7793,34.3673],[-118.7698,34.3705],[-118.7673,34.3695],[-118.7629,34.3727],[-118.7614,34.3712],[-118.7563,34.3735],[-118.7501,34.3705],[-118.7502,34.3689],[-118.7486,34.3696],[-118.7467,34.3672],[-118.745,34.3686],[-118.7426,34.3678],[-118.7396,34.3688],[-118.7352,34.3662],[-118.728,34.3651],[-118.7245,34.3586],[-118.7188,34.3553],[-118.7144,34.356],[-118.7119,34.3541],[-118.7043,34.3549],[-118.7019,34.3589],[-118.6915,34.3615],[-118.6918,34.3634],[-118.6886,34.3618],[-118.6811,34.361],[-118.6784,34.3632],[-118.6754,34.3636],[-118.6723,34.363],[-118.673,34.3619],[-118.6706,34.3607],[-118.7386,34.499],[-118.7659,34.4823],[-118.771,34.4677],[-118.9374,34.4682],[-118.9376,34.4442],[-118.9553,34.4442],[-118.9555,34.4225],[-119.0234,34.4222]]]},"properties":{"GEOID":"0611190988","BASENAME":"Fillmore","NAME":"Fillmore CCD","COUNTY":"111","COUSUB":"90988"}},{"type":"Feature","geometry":{"type":"Polygon","coordinates":[[[-119.4209,34.3921],[-119.4204,34.3907],[-119.4162,34.3908],[-119.4138,34.3888],[-119.4151,34.3857],[-119.411,34.3852],[-119.4057,34.3815],[-119.3891,34.3859],[-119.3898,34.3838],[-119.3869,34.3838],[-119.381,34.3863],[-119.3792,34.3891],[-119.373,34.3871],[-119.3654,34.3873],[-119.3637,34.3857],[-119.3693,34.3849],[-119.365,34.383],[-119.3501,34.3835],[-119.3458,34.3805],[-119.3409,34.3744],[-119.3355,34.372],[-119.3331,34.3734],[-119.3321,34.3721],[-119.3329,34.3708],[-119.3313,34.3707],[-119.3287,34.3656],[-119.3204,34.3626],[-119.3171,34.3583],[-119.3148,34.3577],[-119.3094,34.3523],[-119.3064,34.3528],[-119.3082,34.3547],[-119.3095,34.3597],[-119.3087,34.3629],[-119.3013,34.3654],[-119.2953,34.3702],[-119.2953,34.3714],[-119.2811,34.3789],[-119.2807,34.3814],[-119.285,34.3888],[-119.2832,34.3897],[-119.282,34.3882],[-119.2792,34.39],[-119.2759,34.3901],[-119.2745,34.3926],[-119.2721,34.3896],[-119.2686,34.3933],[-119.2701,34.3946],[-119.2681,34.3969],[-119.2652,34.3982],[-119.2633,34.3974],[-119.262,34.4002],[-119.2565,34.4031],[-119.2546,34.4035],[-119.2531,34.4014],[-119.2508,34.4031],[-119.248,34.4014],[-119.2423,34.4031],[-119.2416,34.4017],[-119.2382,34.4025],[-119.2354,34.4007],[-119.2297,34.4033],[-119.226,34.4027],[-119.2025,34.4087],[-119.1999,34.4125],[-119.1949,34.4151],[-119.1814,34.4142],[-119.1787,34.412],[-119.1744,34.4115],[-119.1589,34.4169],[-119.146,34.4154],[-119.1448,34.4173],[-119.1365,34.4186],[-119.134,34.421],[-119.1283,34.4228],[-119.1249,34.4216],[-119.1216,34.4225],[-119.1129,34.4215],[-119.11,34.42],[-119.1091,34.4213],[-119.1001,34.4226],[-119.0979,34.424],[-119.0891,34.4244],[-119.0913,34.4286],[-119.0913,34.4324],[-119.0868,34.4353],[-119.0849,34.4386],[-119.0773,34.4397],[-119.0767,34.442],[-119.0722,34.442],[-119.069,34.4448],[-119.0645,34.445],[-119.0626,34.4478],[-119.0586,34.4495],[-119.0567,34.4487],[-119.0559,34.4512],[-119.0574,34.4527],[-119.0557,34.4531],[-119.0557,34.4547],[-119.0573,34.4562],[-119.0585,34.4615],[-119.0562,34.4624],[-119.0543,34.4668],[-119.0571,34.475],[-119.0557,34.477],[-119.0559,34.482],[-119.0579,34.486],[-119.054,34.4881],[-119.056,34.4904],[-119.0614,34.4917],[-119.0668,34.4969],[-119.0741,34.4988],[-119.0781,34.4984],[-119.0808,34.5016],[-119.081,34.505],[-119.0835,34.5098],[-119.0873,34.5109],[-119.0856,34.5132],[-119.0895,34.5108],[-119.093,34.5115],[-119.1004,34.5102],[-119.1025,34.5083],[-119.1031,34.505],[-119.1063,34.5041],[-119.1074,34.5009],[-119.1126,34.5016],[-119.1172,34.4994],[-119.1184,34.5011],[-119.1186,34.5],[-119.121,34.4999],[-119.1236,34.5016],[-119.1401,34.4964],[-119.1413,34.4949],[-119.1436,34.4986],[-119.1469,34.4984],[-119.1483,34.5004],[-119.1505,34.5006],[-119.1516,34.5028],[-119.1552,34.5006],[-119.1559,34.5046],[-119.1594,34.5018],[-119.1606,34.504],[-119.1641,34.5024],[-119.165,34.5034],[-119.171,34.5028],[-119.1711,34.5055],[-119.1678,34.5072],[-119.1655,34.507],[-119.1625,34.5085],[-119.1626,34.5097],[-119.1651,34.5124],[-119.172,34.5138],[-119.1747,34.517],[-119.1785,34.5185],[-119.1854,34.5172],[-119.1971,34.5192],[-119.2005,34.5171],[-119.2082,34.5166],[-119.2161,34.5143],[-119.2187,34.515],[-119.2272,34.5108],[-119.2295,34.5076],[-119.2331,34.5066],[-119.2362,34.5034],[-119.2358,34.5007],[-119.2435,34.4969],[-119.249,34.4957],[-119.249,34.4977],[-119.252,34.4966],[-119.2604,34.4886],[-119.2639,34.4883],[-119.2648,34.4823],[-119.2681,34.4758],[-119.2781,34.4698],[-119.2811,34.4703],[-119.2851,34.4687],[-119.2862,34.4676],[-119.2845,34.4637],[-119.2868,34.4637],[-119.2888,34.4668],[-119.3341,34.4412],[-119.3445,34.4388],[-119.3504,34.4323],[-119.3571,34.4281],[-119.358,34.423],[-119.3702,34.4172],[-119.3775,34.3918],[-119.4209,34.3921]]]},"properties":{"GEOID":"0611192245","BASENAME":"Ojai-Mira Monte","NAME":"Ojai-Mira Monte CCD","COUNTY":"111","COUSUB":"92245"}},{"type":"Feature","geometry":{"type":"Polygon","coordinates":[[[-119.185,34.3988],[-119.1786,34.3959],[-119.1774,34.3934],[-119.1727,34.3906],[-119.1717,34.3874],[-119.1727,34.385],[-119.17,34.3784],[-119.1709,34.3679],[-119.1726,34.3642],[-119.1698,34.3572],[-119.1658,34.3516],[-119.1649,34.3433],[-119.1597,34.3396],[-119.1527,34.3301],[-119.1455,34.3151],[-119.1441,34.3165],[-119.1451,34.3147],[-119.1439,34.3136],[-119.1451,34.3119],[-119.1427,34.3103],[-119.1413,34.3068],[-119.134,34.2987],[-119.1346,34.296],[-119.1291,34.2887],[-119.132,34.2812],[-119.1398,34.2773],[-119.1337,34.2729],[-119.1283,34.2787],[-119.1138,34.2899],[-119.1083,34.2911],[-119.1011,34.2907],[-119.0976,34.2962],[-119.0896,34.295],[-119.0825,34.2971],[-119.082,34.3024],[-119.0748,34.3086],[-119.0741,34.3142],[-119.0721,34.3173],[-119.0701,34.3181],[-119.0579,34.3171],[-119.038,34.3261],[-119.0293,34.3278],[-119.0225,34.3322],[-119.0126,34.3341],[-119.0134,34.3307],[-119.0087,34.3321],[-119.0047,34.3305],[-118.9985,34.3312],[-118.9935,34.3271],[-118.9832,34.3258],[-118.9772,34.3318],[-118.9782,34.3342],[-118.9764,34.3387],[-118.979,34.3433],[-118.979,34.3462],[-118.9808,34.3476],[-118.9815,34.3716],[-118.9938,34.3667],[-119.0082,34.3636],[-119.0078,34.3858],[-119.0099,34.3858],[-119.011,34.3936],[-119.01,34.406],[-119.0143,34.4125],[-119.0168,34.4139],[-119.0173,34.4202],[-119.0201,34.4217],[-119.0596,34.4223],[-119.0597,34.4295],[-119.0772,34.4296],[-119.0771,34.4367],[-119.0861,34.4368],[-119.0913,34.4324],[-119.0913,34.4286],[-119.0889,34.4249],[-119.0915,34.4236],[-119.0979,34.424],[-119.1001,34.4226],[-119.1091,34.4213],[-119.11,34.4199],[-119.1129,34.4215],[-119.1216,34.4225],[-119.1249,34.4216],[-119.1283,34.4228],[-119.134,34.421],[-119.1365,34.4186],[-119.1448,34.4173],[-119.146,34.4154],[-119.1589,34.4169],[-119.1744,34.4115],[-119.1836,34.414],[-119.1811,34.4126],[-119.183,34.412],[-119.1845,34.408],[-119.1838,34.4026],[-119.185,34.3988]]]},"properties":{"GEOID":"0611192930","BASENAME":"Santa Paula","NAME":"Santa Paula CCD","COUNTY":"111","COUSUB":"92930"}},{"type":"Feature","geometry":{"type":"Polygon","coordinates":[[[-119.0683,34.0946],[-119.0624,34.0875],[-119.0604,34.0817],[-119.0579,34.0194],[-119.0274,34.0149],[-119.0004,34.0075],[-118.9853,34],[-118.964,33.9968],[-118.9517,33.9929],[-118.941,34.0748],[-118.8565,34.1268],[-118.8551,34.1303],[-118.8515,34.1341],[-118.8496,34.1426],[-118.8581,34.1435],[-118.8611,34.1424],[-118.8615,34.141],[-118.867,34.1424],[-118.8708,34.1411],[-118.8726,34.1435],[-118.8745,34.1399],[-118.8773,34.1419],[-118.878,34.141],[-118.8793,34.1455],[-118.8786,34.1481],[-118.8759,34.1501],[-118.8781,34.1509],[-118.877,34.1548],[-118.8848,34.1595],[-118.884,34.1622],[-118.9199,34.1622],[-118.9339,34.1595],[-118.9383,34.156],[-118.947,34.1543],[-118.9517,34.1548],[-118.9576,34.1593],[-118.9628,34.1566],[-118.9721,34.1575],[-118.9759,34.1563],[-118.9881,34.1563],[-118.9882,34.1545],[-118.99,34.1535],[-119.001,34.1519],[-119.0042,34.1483],[-119.0195,34.1471],[-119.019,34.1454],[-119.0279,34.1353],[-119.0342,34.1323],[-119.0423,34.1261],[-119.0416,34.1235],[-119.045,34.1177],[-119.0619,34.1127],[-119.0626,34.1104],[-119.065,34.1099],[-119.0671,34.1073],[-119.063,34.1038],[-119.0638,34.1017],[-119.0614,34.1005],[-119.0613,34.0985],[-119.0662,34.0968],[-119.0683,34.0946]]]},"properties":{"GEOID":"0611193422","BASENAME":"Triunfo Pass-Point Mugu","NAME":"Triunfo Pass-Point Mugu CCD","COUNTY":"111","COUSUB":"93422"}},{"type":"Feature","geometry":{"type":"Polygon","coordinates":[[[-119.1613,34.264],[-119.1124,34.23],[-119.1007,34.2414],[-119.097,34.2429],[-119.0942,34.2479],[-119.0866,34.2525],[-119.0825,34.2526],[-119.0806,34.2543],[-119.0749,34.2552],[-119.0715,34.2544],[-119.0647,34.256],[-119.0607,34.2594],[-119.0608,34.2637],[-118.9911,34.2634],[-118.98,34.2651],[-118.9804,34.2628],[-118.9737,34.2634],[-118.9652,34.2606],[-118.9489,34.2683],[-118.9335,34.2687],[-118.9306,34.2702],[-118.933,34.2731],[-118.9306,34.2742],[-118.9362,34.2839],[-118.9353,34.2877],[-118.9241,34.293],[-118.9135,34.3005],[-118.9097,34.3066],[-118.9097,34.3152],[-118.9151,34.3152],[-118.9146,34.3239],[-118.9161,34.325],[-118.9148,34.3286],[-118.9192,34.3372],[-118.9287,34.3362],[-118.9411,34.346],[-118.9486,34.3446],[-118.9524,34.3396],[-118.9536,34.3357],[-118.9553,34.3357],[-118.9604,34.3399],[-118.9671,34.3381],[-118.972,34.3326],[-118.9807,34.3287],[-118.9831,34.3258],[-118.9935,34.3271],[-118.9985,34.3312],[-119.0047,34.3305],[-119.0087,34.3321],[-119.0134,34.3307],[-119.0126,34.3341],[-119.0225,34.3322],[-119.0293,34.3278],[-119.038,34.3261],[-119.0557,34.3178],[-119.0597,34.3171],[-119.0665,34.3184],[-119.0718,34.3175],[-119.0744,34.3137],[-119.0748,34.3086],[-119.0813,34.3034],[-119.0819,34.2976],[-119.0838,34.2962],[-119.0896,34.295],[-119.0976,34.2962],[-119.1011,34.2907],[-119.1083,34.2911],[-119.1138,34.2899],[-119.1283,34.2787],[-119.1337,34.2729],[-119.1398,34.2773],[-119.1462,34.2733],[-119.1558,34.2695],[-119.1613,34.264]]]},"properties":{"GEOID":"0611191560","BASENAME":"Las Posas","NAME":"Las Posas CCD","COUNTY":"111","COUSUB":"91560"}},{"type":"Feature","geometry":{"type":"Polygon","coordinates":[[[-119.12,34.2218],[-119.1201,34.2175],[-119.1147,34.2097],[-119.1112,34.2095],[-119.1098,34.1969],[-119.1067,34.1849],[-119.0964,34.1704],[-119.0968,34.1352],[-119.0986,34.1332],[-119.0799,34.1097],[-119.0793,34.1068],[-119.0809,34.101],[-119.068,34.0932],[-119.0682,34.0952],[-119.0669,34.0964],[-119.0619,34.0975],[-119.0613,34.0989],[-119.0614,34.1005],[-119.0638,34.1017],[-119.063,34.1038],[-119.0671,34.1076],[-119.0645,34.1103],[-119.0626,34.1104],[-119.0619,34.1127],[-119.045,34.1177],[-119.0416,34.1235],[-119.0423,34.1261],[-119.0342,34.1323],[-119.0279,34.1353],[-119.019,34.1454],[-119.0195,34.1471],[-119.0042,34.1483],[-119.001,34.1519],[-118.9883,34.1544],[-118.9881,34.1563],[-118.9898,34.1563],[-118.9914,34.1582],[-118.9898,34.1608],[-118.9953,34.1636],[-118.9989,34.1636],[-118.9998,34.1647],[-118.9989,34.1663],[-119.0007,34.1671],[-119.0014,34.17],[-118.9987,34.1703],[-118.9949,34.175],[-118.9914,34.1743],[-118.9922,34.1772],[-118.9893,34.1779],[-118.9903,34.1818],[-118.9863,34.1834],[-118.985,34.1883],[-118.9794,34.1829],[-118.9733,34.1838],[-118.9667,34.1877],[-118.9666,34.1907],[-118.9643,34.191],[-118.9643,34.1989],[-118.9581,34.2001],[-118.9772,34.2012],[-118.983,34.205],[-118.9892,34.2055],[-118.9951,34.2094],[-119.0079,34.2136],[-119.0052,34.2183],[-119.0003,34.2219],[-118.9825,34.2278],[-118.9731,34.2332],[-118.9822,34.2403],[-118.9983,34.2371],[-119.0072,34.2394],[-119.01,34.2425],[-119.0061,34.2474],[-118.98,34.2651],[-118.9911,34.2634],[-119.0608,34.2637],[-119.0607,34.2594],[-119.0647,34.256],[-119.0715,34.2544],[-119.0749,34.2552],[-119.0806,34.2543],[-119.0825,34.2526],[-119.0866,34.2525],[-119.0942,34.2479],[-119.097,34.2429],[-119.1007,34.2414],[-119.1046,34.2378],[-119.12,34.2218]]]},"properties":{"GEOID":"0611190350","BASENAME":"Camarillo","NAME":"Camarillo CCD","COUNTY":"111","COUSUB":"90350"}},{"type":"Feature","geometry":{"type":"Polygon","coordinates":[[[-118.9362,34.2842],[-118.9306,34.2742],[-118.933,34.2731],[-118.9306,34.2702],[-118.9248,34.2718],[-118.9229,34.2698],[-118.9329,34.2577],[-118.9332,34.2551],[-118.9302,34.2522],[-118.9279,34.2522],[-118.9272,34.2542],[-118.9162,34.2557],[-118.9108,34.2548],[-118.8967,34.2567],[-118.8923,34.2554],[-118.8818,34.2565],[-118.8793,34.255],[-118.865,34.2563],[-118.8659,34.2499],[-118.8401,34.2499],[-118.8414,34.2571],[-118.8489,34.2637],[-118.862,34.2798],[-118.8651,34.2871],[-118.8632,34.2874],[-118.8577,34.2842],[-118.8545,34.2862],[-118.8536,34.2895],[-118.8466,34.2929],[-118.8383,34.2906],[-118.8375,34.2886],[-118.8324,34.2866],[-118.8269,34.2883],[-118.8135,34.287],[-118.8123,34.2876],[-118.8123,34.2947],[-118.811,34.2984],[-118.802,34.3027],[-118.7959,34.3091],[-118.7868,34.3105],[-118.782,34.3142],[-118.7745,34.3132],[-118.7668,34.3168],[-118.7677,34.3191],[-118.7667,34.3228],[-118.7623,34.3282],[-118.7621,34.3314],[-118.7706,34.3328],[-118.7708,34.3358],[-118.769,34.3394],[-118.7584,34.3396],[-118.7404,34.3342],[-118.7393,34.3347],[-118.739,34.3379],[-118.7364,34.3388],[-118.7373,34.3412],[-118.7423,34.344],[-118.7555,34.3475],[-118.7638,34.3526],[-118.7673,34.3572],[-118.7668,34.3686],[-118.7697,34.3705],[-118.7793,34.3673],[-118.7815,34.3655],[-118.7872,34.3664],[-118.7987,34.3619],[-118.799,34.3653],[-118.8016,34.3648],[-118.8052,34.367],[-118.8086,34.3673],[-118.8089,34.365],[-118.8118,34.365],[-118.8115,34.3631],[-118.8137,34.3605],[-118.8216,34.3577],[-118.8368,34.3595],[-118.8446,34.3573],[-118.857,34.3587],[-118.8724,34.3528],[-118.8782,34.3557],[-118.8843,34.356],[-118.8863,34.3545],[-118.8877,34.3456],[-118.8911,34.341],[-118.8969,34.3413],[-118.9094,34.3367],[-118.9192,34.3372],[-118.9148,34.3286],[-118.9161,34.325],[-118.9146,34.3239],[-118.9151,34.3152],[-118.9097,34.3152],[-118.9097,34.3066],[-118.9163,34.2976],[-118.9351,34.288],[-118.9362,34.2842]]]},"properties":{"GEOID":"0611192020","BASENAME":"Moorpark","NAME":"Moorpark CCD","COUNTY":"111","COUSUB":"92020"}},{"type":"Feature","geometry":{"type":"Polygon","coordinates":[[[-118.8651,34.2871],[-118.862,34.2798],[-118.8489,34.2637],[-118.8414,34.2571],[-118.8401,34.2499],[-118.8244,34.2508],[-118.8291,34.246],[-118.8323,34.2459],[-118.8323,34.2448],[-118.8304,34.2449],[-118.8331,34.2427],[-118.8352,34.2326],[-118.8302,34.2282],[-118.8235,34.2262],[-118.8135,34.2268],[-118.8115,34.2239],[-118.8062,34.2242],[-118.7958,34.2209],[-118.795,34.2174],[-118.7834,34.2168],[-118.7803,34.2179],[-118.7767,34.217],[-118.7786,34.2131],[-118.7699,34.2122],[-118.757,34.2119],[-118.7529,34.2149],[-118.747,34.217],[-118.7509,34.2201],[-118.7505,34.2215],[-118.7443,34.221],[-118.7406,34.2175],[-118.7424,34.2175],[-118.7433,34.2152],[-118.7384,34.2141],[-118.7448,34.2133],[-118.7331,34.2091],[-118.7292,34.2059],[-118.7321,34.2053],[-118.7144,34.2035],[-118.7094,34.1987],[-118.7099,34.201],[-118.7081,34.2014],[-118.7088,34.203],[-118.7049,34.204],[-118.704,34.2024],[-118.7049,34.1972],[-118.7032,34.1947],[-118.6998,34.1955],[-118.6917,34.1944],[-118.668,34.1992],[-118.6677,34.2403],[-118.6325,34.2404],[-118.6325,34.2634],[-118.6368,34.2918],[-118.6706,34.3607],[-118.673,34.362],[-118.6725,34.3631],[-118.6783,34.3632],[-118.6811,34.361],[-118.6886,34.3618],[-118.6918,34.3634],[-118.6915,34.3615],[-118.7019,34.3589],[-118.7043,34.3549],[-118.7119,34.3541],[-118.7144,34.356],[-118.7188,34.3553],[-118.7245,34.3586],[-118.728,34.3651],[-118.7352,34.3662],[-118.7396,34.3688],[-118.7426,34.3678],[-118.745,34.3686],[-118.7467,34.3672],[-118.7486,34.3696],[-118.7502,34.3689],[-118.7501,34.3705],[-118.7561,34.3735],[-118.7614,34.3712],[-118.7629,34.3727],[-118.7678,34.3692],[-118.7664,34.3664],[-118.7667,34.356],[-118.7611,34.3504],[-118.7555,34.3475],[-118.7423,34.344],[-118.7374,34.3413],[-118.7364,34.3388],[-118.7391,34.3378],[-118.7394,34.3346],[-118.7419,34.3344],[-118.7584,34.3396],[-118.769,34.3394],[-118.7708,34.3358],[-118.7706,34.3328],[-118.7621,34.3314],[-118.7623,34.3282],[-118.7667,34.3228],[-118.7677,34.3191],[-118.7668,34.3168],[-118.7745,34.3132],[-118.782,34.3142],[-118.7868,34.3105],[-118.7959,34.3091],[-118.802,34.3027],[-118.811,34.2984],[-118.8123,34.2947],[-118.8123,34.2876],[-118.8135,34.287],[-118.8269,34.2883],[-118.8324,34.2866],[-118.8375,34.2886],[-118.8383,34.2906],[-118.8473,34.2929],[-118.8538,34.2893],[-118.8545,34.2862],[-118.8571,34.2844],[-118.8591,34.2843],[-118.8632,34.2874],[-118.8651,34.2871]]]},"properties":{"GEOID":"0611193020","BASENAME":"Simi Valley","NAME":"Simi Valley CCD","COUNTY":"111","COUSUB":"93020"}},{"type":"Feature","geometry":{"type":"Polygon","coordinates":[[[-119.01,34.2426],[-119.0072,34.2394],[-118.9983,34.2371],[-118.9822,34.2403],[-118.9731,34.2332],[-118.9825,34.2278],[-119.0003,34.2219],[-119.0052,34.2183],[-119.0079,34.2136],[-118.9951,34.2094],[-118.9892,34.2055],[-118.983,34.205],[-118.9772,34.2012],[-118.9581,34.2001],[-118.9643,34.1989],[-118.9643,34.191],[-118.9666,34.1907],[-118.9667,34.1877],[-118.9733,34.1838],[-118.9794,34.1829],[-118.985,34.1883],[-118.9863,34.1834],[-118.9903,34.1818],[-118.9893,34.1779],[-118.9922,34.1772],[-118.9914,34.1743],[-118.9949,34.175],[-118.9987,34.1703],[-119.0008,34.1707],[-119.0017,34.1691],[-118.9989,34.1663],[-118.9998,34.1647],[-118.9989,34.1636],[-118.9953,34.1636],[-118.9898,34.1608],[-118.9912,34.1573],[-118.9898,34.1563],[-118.9759,34.1563],[-118.9721,34.1575],[-118.963,34.1566],[-118.9576,34.1593],[-118.9517,34.1548],[-118.947,34.1543],[-118.9383,34.156],[-118.9339,34.1595],[-118.9199,34.1622],[-118.884,34.1622],[-118.8848,34.1595],[-118.877,34.1548],[-118.8781,34.1509],[-118.8759,34.1501],[-118.8786,34.1481],[-118.8793,34.1455],[-118.878,34.141],[-118.8773,34.1419],[-118.8745,34.1399],[-118.8726,34.1435],[-118.8708,34.1411],[-118.867,34.1424],[-118.8615,34.141],[-118.8611,34.1424],[-118.8581,34.1435],[-118.8496,34.1427],[-118.8515,34.1341],[-118.8551,34.1303],[-118.8565,34.1268],[-118.7889,34.1682],[-118.6682,34.1682],[-118.668,34.1992],[-118.6917,34.1944],[-118.6998,34.1955],[-118.7032,34.1947],[-118.7049,34.1972],[-118.704,34.2024],[-118.7049,34.204],[-118.7088,34.203],[-118.7081,34.2014],[-118.7099,34.201],[-118.7094,34.1987],[-118.7144,34.2035],[-118.7321,34.2053],[-118.7292,34.2059],[-118.7331,34.2091],[-118.7448,34.2133],[-118.7384,34.2141],[-118.7433,34.2152],[-118.7424,34.2175],[-118.7406,34.2175],[-118.7443,34.221],[-118.7505,34.2215],[-118.7509,34.2201],[-118.747,34.217],[-118.7529,34.2149],[-118.757,34.2119],[-118.7699,34.2122],[-118.7786,34.2131],[-118.7767,34.217],[-118.7803,34.2179],[-118.7834,34.2168],[-118.795,34.2174],[-118.7958,34.2209],[-118.8062,34.2242],[-118.8115,34.2239],[-118.8135,34.2268],[-118.8261,34.2266],[-118.8302,34.2282],[-118.8352,34.2326],[-118.8331,34.2427],[-118.8304,34.2449],[-118.8323,34.2448],[-118.8323,34.2459],[-118.8291,34.246],[-118.8244,34.2508],[-118.8659,34.2499],[-118.865,34.2563],[-118.8793,34.255],[-118.8818,34.2565],[-118.8923,34.2554],[-118.8967,34.2567],[-118.9108,34.2548],[-118.9162,34.2557],[-118.9272,34.2542],[-118.9279,34.2522],[-118.9302,34.2522],[-118.9332,34.2551],[-118.9329,34.2577],[-118.9231,34.2694],[-118.9248,34.2718],[-118.9343,34.2685],[-118.9489,34.2683],[-118.9643,34.2607],[-118.9685,34.2609],[-118.9737,34.2634],[-118.9804,34.2628],[-118.9805,34.2638],[-119.0056,34.2478],[-119.01,34.2426]]]},"properties":{"GEOID":"0611193350","BASENAME":"Thousand Oaks","NAME":"Thousand Oaks CCD","COUNTY":"111","COUSUB":"93350"}}]}