{"type":"FeatureCollection","features":[{"type":"Feature","geometry":{"type":"Polygon","coordinates":[[[-121.5834,39.1362],[-121.575,39.1297],[-121.5686,39.1295],[-121.5531,39.1341],[-121.5524,39.1355],[-121.5458,39.1363],[-121.533,39.1429],[-121.5331,39.1354],[-121.5237,39.1381],[-121.5237,39.1138],[-121.5576,39.1133],[-121.5326,39.0839],[-121.512,39.0693],[-121.5055,39.0708],[-121.4146,39.0718],[-121.4145,39.0755],[-121.3848,39.0751],[-121.3681,39.0813],[-121.3649,39.0759],[-121.3503,39.0819],[-121.3476,39.0809],[-121.3439,39.082],[-121.3486,39.0748],[-121.3539,39.0694],[-121.3521,39.065],[-121.345,39.0553],[-121.345,39.051],[-121.3437,39.0487],[-121.3348,39.0478],[-121.322,39.0533],[-121.3159,39.0499],[-121.3116,39.052],[-121.3053,39.0528],[-121.3023,39.0478],[-121.2933,39.044],[-121.2902,39.0369],[-121.2795,39.0346],[-121.2795,39.2305],[-121.2827,39.2308],[-121.2902,39.2279],[-121.2917,39.2248],[-121.3004,39.2187],[-121.3068,39.2195],[-121.3084,39.2208],[-121.3085,39.2302],[-121.3224,39.2348],[-121.328,39.2305],[-121.3274,39.2251],[-121.3297,39.2204],[-121.3465,39.2198],[-121.3542,39.2226],[-121.3576,39.2212],[-121.3607,39.217],[-121.3745,39.2204],[-121.3874,39.2206],[-121.3936,39.2243],[-121.3977,39.2252],[-121.4051,39.2229],[-121.4109,39.2185],[-121.4154,39.218],[-121.4154,39.2194],[-121.4233,39.2164],[-121.4351,39.2148],[-121.4409,39.2123],[-121.452,39.202],[-121.4613,39.2007],[-121.4699,39.1949],[-121.4784,39.1936],[-121.4856,39.1886],[-121.4928,39.1889],[-121.5011,39.1865],[-121.5103,39.181],[-121.5221,39.182],[-121.5257,39.1753],[-121.5313,39.172],[-121.5364,39.1668],[-121.5461,39.1642],[-121.5527,39.1661],[-121.5559,39.1573],[-121.5614,39.1527],[-121.5765,39.1482],[-121.578,39.1459],[-121.5762,39.1418],[-121.5766,39.1395],[-121.5834,39.1362]]]},"properties":{"GEOID":"0611590855","BASENAME":"East Yuba-Beale AFB","NAME":"East Yuba-Beale AFB CCD","COUNTY":"115","COUSUB":"90855"}},{"type":"Feature","geometry":{"type":"Polygon","coordinates":[[[-121.6102,39.0569],[-121.6073,39.0369],[-121.6056,39.0326],[-121.5943,39.0233],[-121.5949,39.0193],[-121.6,39.0121],[-121.5945,39.0103],[-121.5833,39.0095],[-121.5791,39.0067],[-121.5836,38.999],[-121.5875,38.9949],[-121.5894,38.9903],[-121.5865,38.98],[-121.5874,38.9734],[-121.5814,38.9653],[-121.5805,38.9606],[-121.5826,38.9557],[-121.578,38.9468],[-121.5819,38.9382],[-121.5811,38.9258],[-121.5754,38.9183],[-121.5755,38.9244],[-121.5713,38.9389],[-121.5615,38.9534],[-121.5535,38.9538],[-121.5433,38.9724],[-121.5247,38.9715],[-121.509,38.9828],[-121.4937,38.9843],[-121.4931,38.9868],[-121.4912,38.9879],[-121.4911,38.9906],[-121.4896,38.9921],[-121.4879,38.9906],[-121.5061,39.0205],[-121.5158,39.0301],[-121.5151,39.0625],[-121.512,39.0693],[-121.5326,39.0839],[-121.5576,39.1133],[-121.5635,39.1131],[-121.5604,39.1055],[-121.5615,39.0697],[-121.5896,39.0694],[-121.5908,39.0678],[-121.597,39.0714],[-121.6001,39.0718],[-121.6033,39.0657],[-121.608,39.0612],[-121.6102,39.0569]]]},"properties":{"GEOID":"0611592250","BASENAME":"Olivehurst","NAME":"Olivehurst CCD","COUNTY":"115","COUSUB":"92250"}},{"type":"Feature","geometry":{"type":"Polygon","coordinates":[[[-121.6046,39.1128],[-121.6014,39.105],[-121.6027,39.1002],[-121.5956,39.0994],[-121.5912,39.1026],[-121.5873,39.1017],[-121.5859,39.0908],[-121.5891,39.0849],[-121.5951,39.0792],[-121.6001,39.0718],[-121.597,39.0714],[-121.5908,39.0678],[-121.5896,39.0694],[-121.5615,39.0697],[-121.5604,39.1055],[-121.5635,39.1131],[-121.5237,39.1138],[-121.5237,39.1381],[-121.5331,39.1354],[-121.533,39.1429],[-121.5458,39.1363],[-121.5524,39.1355],[-121.5531,39.1341],[-121.5686,39.1295],[-121.575,39.1297],[-121.5834,39.1362],[-121.5853,39.1348],[-121.5931,39.1341],[-121.5973,39.1287],[-121.6046,39.1128]]]},"properties":{"GEOID":"0611591610","BASENAME":"Linda","NAME":"Linda CCD","COUNTY":"115","COUSUB":"91610"}},{"type":"Feature","geometry":{"type":"Polygon","coordinates":[[[-121.6157,39.1681],[-121.6099,39.1587],[-121.6074,39.1508],[-121.6055,39.1485],[-121.6078,39.1451],[-121.6076,39.1409],[-121.6024,39.1356],[-121.5977,39.1278],[-121.5935,39.1339],[-121.5853,39.1348],[-121.5776,39.1385],[-121.5762,39.1414],[-121.5779,39.1457],[-121.5767,39.148],[-121.5604,39.1533],[-121.5558,39.1574],[-121.5547,39.1614],[-121.566,39.1661],[-121.5814,39.1657],[-121.5894,39.1585],[-121.591,39.1622],[-121.59,39.17],[-121.6103,39.1696],[-121.6157,39.1681]]]},"properties":{"GEOID":"0611591900","BASENAME":"Marysville","NAME":"Marysville CCD","COUNTY":"115","COUSUB":"91900"}},{"type":"Feature","geometry":{"type":"Polygon","coordinates":[[[-121.3726,39.3736],[-121.3708,39.3632],[-121.3656,39.3552],[-121.3655,39.3329],[-121.3637,39.3308],[-121.351,39.3309],[-121.3418,39.3286],[-121.3371,39.3416],[-121.3278,39.3514],[-121.3241,39.3628],[-121.3051,39.3608],[-121.3005,39.3614],[-121.279,39.3565],[-121.2658,39.3396],[-121.2639,39.3354],[-121.2601,39.334],[-121.2564,39.3301],[-121.2525,39.3291],[-121.2418,39.3164],[-121.2357,39.3127],[-121.2324,39.3144],[-121.2299,39.3139],[-121.2261,39.3153],[-121.2227,39.3149],[-121.2152,39.3105],[-121.2159,39.3113],[-121.2144,39.3116],[-121.214,39.3136],[-121.2105,39.3137],[-121.2074,39.3119],[-121.2072,39.3103],[-121.2056,39.3124],[-121.206,39.3174],[-121.2036,39.3201],[-121.2001,39.3216],[-121.1956,39.3296],[-121.1845,39.3308],[-121.1834,39.3321],[-121.1834,39.336],[-121.1813,39.3376],[-121.178,39.3387],[-121.165,39.3386],[-121.1625,39.3326],[-121.1591,39.3319],[-121.1571,39.3328],[-121.1577,39.3401],[-121.1555,39.3437],[-121.1548,39.3486],[-121.1521,39.3497],[-121.1438,39.3497],[-121.1451,39.3558],[-121.1371,39.3633],[-121.1368,39.3681],[-121.1346,39.3687],[-121.1341,39.3713],[-121.1271,39.3726],[-121.1258,39.3772],[-121.1275,39.3802],[-121.1162,39.3785],[-121.112,39.3812],[-121.1045,39.3803],[-121.1016,39.381],[-121.0964,39.3877],[-121.092,39.3859],[-121.0869,39.3864],[-121.084,39.3946],[-121.0795,39.3928],[-121.0701,39.3933],[-121.0631,39.3909],[-121.0594,39.395],[-121.0498,39.3954],[-121.0471,39.3935],[-121.0475,39.3897],[-121.0415,39.3882],[-121.0365,39.3923],[-121.0361,39.3949],[-121.0318,39.3957],[-121.0245,39.3893],[-121.0221,39.3916],[-121.0344,39.5145],[-121.0448,39.5142],[-121.0487,39.517],[-121.0497,39.5211],[-121.0537,39.5222],[-121.0512,39.5245],[-121.0555,39.53],[-121.0582,39.537],[-121.057,39.5404],[-121.0513,39.5421],[-121.0483,39.5483],[-121.039,39.5504],[-121.0337,39.5557],[-121.0321,39.5557],[-121.0318,39.5582],[-121.0282,39.5578],[-121.0244,39.559],[-121.0095,39.6395],[-121.0767,39.5973],[-121.0795,39.5853],[-121.1075,39.5853],[-121.107,39.5672],[-121.1163,39.5671],[-121.1165,39.5635],[-121.1412,39.5623],[-121.1409,39.5555],[-121.1499,39.5553],[-121.1499,39.5264],[-121.159,39.5261],[-121.1593,39.5196],[-121.1854,39.5197],[-121.1852,39.5267],[-121.21,39.5272],[-121.2405,39.5266],[-121.2402,39.5131],[-121.2771,39.5128],[-121.2768,39.5203],[-121.3051,39.5196],[-121.3054,39.4978],[-121.3102,39.4978],[-121.3102,39.4868],[-121.315,39.487],[-121.3148,39.4759],[-121.3241,39.4757],[-121.3241,39.4686],[-121.3334,39.4687],[-121.3334,39.4651],[-121.3383,39.465],[-121.3384,39.4544],[-121.3421,39.4543],[-121.3451,39.4526],[-121.3454,39.4473],[-121.3466,39.4452],[-121.3437,39.4407],[-121.3453,39.4389],[-121.3406,39.4316],[-121.3353,39.4304],[-121.3341,39.4258],[-121.3415,39.4228],[-121.342,39.4203],[-121.3512,39.4159],[-121.354,39.4116],[-121.3587,39.4094],[-121.3631,39.4042],[-121.3635,39.4031],[-121.3605,39.4015],[-121.36,39.399],[-121.3621,39.3955],[-121.3629,39.3885],[-121.3672,39.3782],[-121.3726,39.3736]]]},"properties":{"GEOID":"0611593830","BASENAME":"Yuba Foothills","NAME":"Yuba Foothills CCD","COUNTY":"115","COUSUB":"93830"}},{"type":"Feature","geometry":{"type":"Polygon","coordinates":[[[-121.6364,39.2461],[-121.635,39.2405],[-121.6277,39.2355],[-121.6289,39.2305],[-121.6277,39.2286],[-121.6248,39.2277],[-121.6179,39.2298],[-121.6143,39.2287],[-121.6181,39.2206],[-121.6136,39.2139],[-121.6158,39.2125],[-121.6203,39.2135],[-121.6209,39.2126],[-121.6194,39.2102],[-121.6211,39.2062],[-121.6249,39.2069],[-121.6291,39.2047],[-121.624,39.1987],[-121.6237,39.1957],[-121.6151,39.1933],[-121.613,39.1905],[-121.6185,39.1831],[-121.6165,39.1787],[-121.6112,39.1757],[-121.6122,39.1713],[-121.615,39.1689],[-121.59,39.17],[-121.591,39.1622],[-121.5894,39.1585],[-121.5814,39.1657],[-121.566,39.1661],[-121.5547,39.1614],[-121.5527,39.1661],[-121.5461,39.1642],[-121.5357,39.1672],[-121.5313,39.172],[-121.5257,39.1753],[-121.5221,39.182],[-121.5103,39.181],[-121.5011,39.1865],[-121.4928,39.1889],[-121.4856,39.1886],[-121.4784,39.1936],[-121.4699,39.1949],[-121.4613,39.2007],[-121.452,39.202],[-121.4406,39.2125],[-121.4338,39.2151],[-121.419,39.2175],[-121.4154,39.2194],[-121.4154,39.218],[-121.4109,39.2185],[-121.4051,39.2229],[-121.3977,39.2252],[-121.3936,39.2243],[-121.3874,39.2206],[-121.3745,39.2204],[-121.3607,39.217],[-121.3576,39.2212],[-121.3542,39.2226],[-121.3465,39.2198],[-121.3297,39.2204],[-121.3274,39.2251],[-121.328,39.2305],[-121.3224,39.2348],[-121.3085,39.2302],[-121.3084,39.2208],[-121.3068,39.2195],[-121.3004,39.2187],[-121.2917,39.2248],[-121.2905,39.2277],[-121.2873,39.2295],[-121.277,39.2308],[-121.2688,39.2402],[-121.2693,39.2521],[-121.2682,39.2534],[-121.2605,39.2548],[-121.2592,39.2564],[-121.2624,39.2646],[-121.2664,39.2686],[-121.2661,39.2727],[-121.2634,39.2748],[-121.2501,39.2786],[-121.2426,39.2835],[-121.2199,39.2831],[-121.2166,39.2863],[-121.2162,39.2913],[-121.2149,39.2929],[-121.2106,39.2947],[-121.208,39.2984],[-121.2001,39.3024],[-121.2002,39.3034],[-121.205,39.3079],[-121.2056,39.3124],[-121.2073,39.3103],[-121.2073,39.3118],[-121.2105,39.3137],[-121.214,39.3136],[-121.2144,39.3116],[-121.2159,39.3113],[-121.2151,39.3105],[-121.2227,39.3149],[-121.2261,39.3153],[-121.2357,39.3127],[-121.2418,39.3164],[-121.2525,39.3291],[-121.2564,39.3301],[-121.2601,39.334],[-121.2639,39.3354],[-121.2658,39.3396],[-121.279,39.3565],[-121.3002,39.3613],[-121.3051,39.3608],[-121.3241,39.3628],[-121.3278,39.3514],[-121.3371,39.3416],[-121.3418,39.3286],[-121.351,39.3309],[-121.3637,39.3308],[-121.3655,39.3329],[-121.3656,39.3552],[-121.37,39.3616],[-121.372,39.3677],[-121.3729,39.3646],[-121.3797,39.3625],[-121.3823,39.363],[-121.3879,39.356],[-121.4032,39.3496],[-121.4026,39.3464],[-121.4041,39.3448],[-121.407,39.3444],[-121.4058,39.3415],[-121.4072,39.3399],[-121.4157,39.3401],[-121.4263,39.335],[-121.4306,39.3352],[-121.4348,39.3375],[-121.4378,39.3365],[-121.4428,39.3316],[-121.447,39.3306],[-121.4524,39.3343],[-121.4576,39.3355],[-121.4597,39.3326],[-121.4636,39.3309],[-121.4686,39.3338],[-121.4746,39.3335],[-121.478,39.3288],[-121.4841,39.3261],[-121.4849,39.3215],[-121.4826,39.3204],[-121.4836,39.3183],[-121.4867,39.3174],[-121.4895,39.3195],[-121.4953,39.319],[-121.4978,39.3142],[-121.4994,39.3164],[-121.5044,39.318],[-121.5159,39.3172],[-121.5209,39.3195],[-121.5299,39.3183],[-121.5364,39.3142],[-121.5405,39.3145],[-121.5471,39.3122],[-121.5487,39.3088],[-121.562,39.3063],[-121.5637,39.3049],[-121.5676,39.3079],[-121.5757,39.3108],[-121.5808,39.3099],[-121.5853,39.3116],[-121.5892,39.3085],[-121.5942,39.3078],[-121.6023,39.3114],[-121.6042,39.318],[-121.6091,39.3195],[-121.6119,39.319],[-121.612,39.3166],[-121.6167,39.3124],[-121.6207,39.3033],[-121.6182,39.301],[-121.6232,39.2965],[-121.6245,39.293],[-121.6317,39.2915],[-121.6285,39.2857],[-121.6272,39.2797],[-121.6222,39.2756],[-121.6219,39.2736],[-121.6251,39.2717],[-121.6302,39.2737],[-121.6325,39.2707],[-121.6284,39.2665],[-121.6214,39.2637],[-121.6235,39.261],[-121.6272,39.2594],[-121.6356,39.262],[-121.6351,39.2521],[-121.6364,39.2461]]]},"properties":{"GEOID":"0611591908","BASENAME":"Marysville Northeast","NAME":"Marysville Northeast CCD","COUNTY":"115","COUSUB":"91908"}},{"type":"Feature","geometry":{"type":"Polygon","coordinates":[[[-121.5155,39.0306],[-121.5141,39.0276],[-121.5058,39.02],[-121.4879,38.9906],[-121.482,38.9935],[-121.4744,38.9922],[-121.4563,38.9982],[-121.4486,38.9971],[-121.4438,38.9933],[-121.442,38.9949],[-121.4336,38.9939],[-121.4229,38.9963],[-121.4149,38.9964],[-121.4148,38.9984],[-121.4079,38.999],[-121.3977,39.0059],[-121.3969,39.0095],[-121.3883,39.0145],[-121.3845,39.0145],[-121.3858,39.0163],[-121.3851,39.0177],[-121.3771,39.021],[-121.3724,39.0277],[-121.3656,39.0317],[-121.3612,39.0326],[-121.3588,39.0302],[-121.3539,39.0313],[-121.3488,39.0345],[-121.3357,39.0388],[-121.3291,39.0439],[-121.323,39.043],[-121.3207,39.0444],[-121.3198,39.0485],[-121.3159,39.0499],[-121.3217,39.0533],[-121.3348,39.0478],[-121.3442,39.0492],[-121.345,39.0553],[-121.3521,39.065],[-121.3539,39.0694],[-121.3486,39.0748],[-121.3439,39.082],[-121.3476,39.0809],[-121.3503,39.0819],[-121.3649,39.0759],[-121.3681,39.0813],[-121.3848,39.0751],[-121.4145,39.0755],[-121.4146,39.0718],[-121.5062,39.0708],[-121.5114,39.07],[-121.515,39.0627],[-121.5155,39.0306]]]},"properties":{"GEOID":"0611593720","BASENAME":"Wheatland","NAME":"Wheatland CCD","COUNTY":"115","COUSUB":"93720"}}]}