{"type":"FeatureCollection","features":[{"type":"Feature","properties":{"GEOID":"0600190020","NAME":"Alameda","COUNTY":"001"},"geometry":{"type":"MultiPolygon","coordinates":[[[[-122.28578780829821,37.71494996449967],[-122.2809,37.7072],[-122.28085516016209,37.707199821355225],[-122.28088,37.70723],[-122.28578780829821,37.71494996449967]]],[[[-122.26006,37.78449],[-122.25321646290902,37.78680827137228],[-122.25327399143102,37.786806083976],[-122.25943417452831,37.78472494103774],[-122.26006,37.78449]]],[[[-122.25229342444236,37.786843367891926],[-122.24865511532126,37.78546331960461],[-122.24873088155869,37.78550344714508],[-122.25228539420334,37.78684367322421],[-122.25229342444236,37.786843367891926]]],[[[-122.24045914126525,37.77408817309614],[-122.23803,37.77236],[-122.22761773988428,37.76742213341237],[-122.22776234629426,37.76754651214],[-122.23268134937801,37.770282525689545],[-122.24045914126525,37.77408817309614]]],[[[-122.22413681870852,37.76150772569262],[-122.22396170940175,37.758391623932454],[-122.22412864917872,37.76148000980634],[-122.22413681870852,37.76150772569262]]]]}},{"type":"Feature","properties":{"GEOID":"0600190200","NAME":"Berkeley","COUNTY":"001"},"geometry":{"type":"MultiPolygon","coordinates":[[[[-122.3731,37.8839],[-122.3730948673383,37.8838856166108],[-122.36073823529412,37.88664705882353],[-122.3731,37.8839]]],[[[-122.35631615651313,37.83686620604259],[-122.3559,37.8357],[-122.35587115418676,37.83570611630424],[-122.35588,37.83573],[-122.35631615651313,37.83686620604259]]],[[[-122.35588,37.83573],[-122.34679993624772,37.83762952641166],[-122.3144801186547,37.8444824390245],[-122.29748644144144,37.848118541666665],[-122.35588,37.83573]]],[[[-122.30172088871349,37.898387520126285],[-122.30017,37.89794],[-122.29673434504792,37.898876996805114],[-122.30172088871349,37.898387520126285]]],[[[-122.29602856319632,37.89882433730311],[-122.28957,37.89749],[-122.28899140929535,37.89769491754123],[-122.29602856319632,37.89882433730311]]],[[[-122.28855663184909,37.850013054022845],[-122.28816334232322,37.85006250048161],[-122.2861,37.8505],[-122.28402260830325,37.85058309566787],[-122.28357,37.85064],[-122.28612,37.85053],[-122.28855663184909,37.850013054022845]]],[[[-122.28241,37.89117],[-122.28167540295203,37.888613220664205],[-122.28166,37.88866],[-122.28241,37.89117]]],[[[-122.2779,37.9031],[-122.27730232142856,37.901705416666665],[-122.27728,37.90172],[-122.27785649730494,37.90311727312892],[-122.2779,37.9031]]],[[[-122.27154,37.90494],[-122.2714920681642,37.90491784663052],[-122.27115419354838,37.90567806451613],[-122.27154,37.90494]]],[[[-122.27102738461538,37.90470307692308],[-122.27035,37.90439],[-122.267875,37.904134765625],[-122.2703,37.9044],[-122.27102738461538,37.90470307692308]]],[[[-122.26391815464389,37.90370198566418],[-122.26386594211459,37.903656054341404],[-122.2639,37.9037],[-122.26391815464389,37.90370198566418]]],[[[-122.26079185348632,37.899700208884965],[-122.26078,37.89966],[-122.26054764705883,37.899706470588235],[-122.26079185348632,37.899700208884965]]],[[[-122.25947554455446,37.89973396039604],[-122.25842,37.89898],[-122.25700391887675,37.89979733541342],[-122.25947554455446,37.89973396039604]]],[[[-122.25691947653429,37.89979950060169],[-122.25594,37.89603],[-122.25590848708487,37.89603225092251],[-122.2569,37.8998],[-122.25691947653429,37.89979950060169]]],[[[-122.25421333333334,37.89615333333333],[-122.2537,37.89619],[-122.2536956169429,37.89618497237569],[-122.2537,37.8962],[-122.25421333333334,37.89615333333333]]],[[[-122.25029,37.88983],[-122.25027474754559,37.889819424964934],[-122.24957352941176,37.89035882352941],[-122.25029,37.88983]]],[[[-122.249377654321,37.891879012345676],[-122.2490342435202,37.89077365883062],[-122.249,37.8908],[-122.249377654321,37.891879012345676]]],[[[-122.24926043343653,37.88697362229102],[-122.24926,37.88697],[-122.24691,37.88535],[-122.24689472248062,37.885339423255814],[-122.2469,37.8854],[-122.24926043343653,37.88697362229102]]]]}},{"type":"Feature","properties":{"GEOID":"0600192230","NAME":"Oakland","COUNTY":"001"},"geometry":{"type":"MultiPolygon","coordinates":[[[[-122.3559,37.8357],[-122.3469,37.8114],[-122.34124890625,37.802205],[-122.34688,37.81143],[-122.35587115418676,37.83570611630424],[-122.3559,37.8357]]],[[[-122.34679993624772,37.83762952641166],[-122.3337,37.84037],[-122.3144801186547,37.8444824390245],[-122.34679993624772,37.83762952641166]]],[[[-122.28816334232322,37.85006250048161],[-122.28402260830325,37.85058309566787],[-122.2861,37.8505],[-122.28816334232322,37.85006250048161]]],[[[-122.2809,37.7072],[-122.23166514071295,37.647437429643524],[-122.28085516016209,37.707199821355225],[-122.2809,37.7072]]],[[[-122.27916143369237,37.793188409121505],[-122.27909299436918,37.79315724322879],[-122.2782,37.7931],[-122.2780648897866,37.793035803987],[-122.27824,37.79313],[-122.27916143369237,37.793188409121505]]],[[[-122.25985637155297,37.784566444121914],[-122.25974332089552,37.784597276119406],[-122.25321646290902,37.78680827137228],[-122.25396,37.78678],[-122.25985637155297,37.784566444121914]]],[[[-122.25229342444236,37.786843367891926],[-122.25196475961539,37.78671870192308],[-122.25138035346097,37.78687808541974],[-122.25229342444236,37.786843367891926]]],[[[-122.24939,37.82285],[-122.24348,37.81866],[-122.24929,37.82291],[-122.24768,37.82624],[-122.24939,37.82285]]],[[[-122.24903309278312,37.78566350515443],[-122.24869113207544,37.78547698113206],[-122.24865511532126,37.78546331960461],[-122.24903309278312,37.78566350515443]]],[[[-122.2469,37.8854],[-122.24689472248062,37.885339423255814],[-122.24431,37.88355],[-122.2469,37.8854]]],[[[-122.24612996309963,37.78412594095941],[-122.24606021148035,37.784041933534745],[-122.2458,37.7839],[-122.24575231425091,37.78367110840439],[-122.2456961978288,37.7836035229325],[-122.24576,37.78393],[-122.24612996309963,37.78412594095941]]],[[[-122.22864301886793,37.88092754716981],[-122.22362,37.87857],[-122.2198,37.87349],[-122.21765488721805,37.87225854636591],[-122.2236,37.8786],[-122.22864301886793,37.88092754716981]]],[[[-122.2261240548192,37.76613738643675],[-122.22610867916109,37.7661106574446],[-122.2253,37.7654],[-122.22485074016362,37.76392386053758],[-122.2248471675547,37.76391764992631],[-122.22529,37.76542],[-122.2261240548192,37.76613738643675]]],[[[-122.22358125,37.75264],[-122.22345072553257,37.74929857363385],[-122.22338,37.74804],[-122.22358125,37.75264]]],[[[-122.22142,37.86547],[-122.22131655039864,37.86542445615034],[-122.22139649236304,37.86549682466549],[-122.22142,37.86547]]],[[[-122.22138295454546,37.86551227272727],[-122.2165697080292,37.86897781021898],[-122.21979,37.86733],[-122.22138295454546,37.86551227272727]]],[[[-122.21871324192506,37.63171607339777],[-122.21871276202255,37.63171549087945],[-122.21852019296254,37.63186157775255],[-122.19426037499953,37.65366187500042],[-122.18051011349121,37.666048749031496],[-122.21871324192506,37.63171607339777]]],[[[-122.21763486962908,37.87223719427102],[-122.21702887218045,37.87072458646617],[-122.2176,37.8722],[-122.21763486962908,37.87223719427102]]],[[[-122.21087,37.85423],[-122.20897932885906,37.8520322147651],[-122.21059705394191,37.854728423236516],[-122.21087,37.85423]]],[[[-122.20973,37.71109],[-122.20326,37.69815],[-122.20969889423077,37.71109777644231],[-122.20973,37.71109]]],[[[-122.20426,37.85134],[-122.2031,37.85119],[-122.20289842696629,37.85086696629214],[-122.2031,37.8512],[-122.20426,37.85134]]],[[[-122.19562363636364,37.84394909090909],[-122.19511,37.8436],[-122.19515324324324,37.843067567567566],[-122.1951,37.8436],[-122.19562363636364,37.84394909090909]]],[[[-122.1871233045977,37.83756405172414],[-122.18512,37.83735],[-122.18382491408934,37.834361340206186],[-122.1838,37.8344],[-122.1851,37.8374],[-122.1871233045977,37.83756405172414]]],[[[-122.18702,37.82754],[-122.18699934347478,37.82750525220176],[-122.1868,37.8291],[-122.18702,37.82754]]],[[[-122.18690482142857,37.82734625],[-122.18573,37.82537],[-122.18611612903226,37.82425564516129],[-122.1857,37.8254],[-122.18690482142857,37.82734625]]],[[[-122.18687,37.82208],[-122.18558,37.82073],[-122.18139501050175,37.81939579463244],[-122.18686844155845,37.822084497607655],[-122.18687,37.82208]]],[[[-122.17916,37.80498],[-122.17881,37.80454],[-122.17878526090936,37.8045185840708],[-122.17728449044586,37.806410859872614],[-122.17916,37.80498]]],[[[-122.17876791171477,37.804503565365025],[-122.17814,37.80396],[-122.17698389937107,37.804688634850166],[-122.177,37.8047],[-122.17876791171477,37.804503565365025]]],[[[-122.17561901639344,37.80313540983607],[-122.1753,37.8035],[-122.17532157005934,37.80351522592424],[-122.17561901639344,37.80313540983607]]],[[[-122.1705,37.8047],[-122.17048750283769,37.80466667423382],[-122.16765,37.80578],[-122.16504,37.80518],[-122.16415,37.80293],[-122.16410022222222,37.80290056790123],[-122.165,37.8052],[-122.1676,37.8058],[-122.1705,37.8047]]],[[[-122.16939696474634,37.80175857265692],[-122.16841581544634,37.799142174523574],[-122.16839,37.79913],[-122.16841,37.80094],[-122.16939696474634,37.80175857265692]]],[[[-122.16232,37.80002],[-122.16228976923077,37.80002046153846],[-122.1616,37.8014],[-122.16163827699019,37.80142296619411],[-122.16232,37.80002]]],[[[-122.16142455696203,37.80003367088607],[-122.1597,37.80006],[-122.15842,37.79802],[-122.15949,37.79742],[-122.15947344827586,37.79741448275862],[-122.1584,37.798],[-122.1597,37.8001],[-122.16142455696203,37.80003367088607]]],[[[-122.159388,37.797386],[-122.15667,37.79648],[-122.1523,37.79647009070295],[-122.1523,37.7965],[-122.159388,37.797386]]],[[[-122.15229,37.79308],[-122.1477924369748,37.793049915966385],[-122.15228982400944,37.79309988693344],[-122.15229,37.79308]]],[[[-122.14371,37.78739],[-122.13455,37.77814],[-122.13403041553134,37.77846714577657],[-122.1437,37.7874],[-122.1436145,37.787508],[-122.14371,37.78739]]],[[[-122.14331940721006,37.793000215635665],[-122.14324,37.79035],[-122.14320125391849,37.790333855799375],[-122.1433,37.793],[-122.14331940721006,37.793000215635665]]],[[[-122.14264,37.7901],[-122.14182976501306,37.789762402088776],[-122.1418,37.7898],[-122.14264,37.7901]]],[[[-122.13487730422075,37.734296833147084],[-122.13450061053875,37.73424427123797],[-122.13448250155146,37.734263909428634],[-122.13486,37.73432],[-122.13487730422075,37.734296833147084]]],[[[-122.13375,37.77732],[-122.13202853376569,37.77556303961652],[-122.13318265912865,37.777668367201706],[-122.13375,37.77732]]],[[[-122.13372299793356,37.73415105865522],[-122.1335368340307,37.73410979079498],[-122.13203333333345,37.73390000000002],[-122.13372299793356,37.73415105865522]]],[[[-122.13340121145374,37.777885881057266],[-122.13318764320275,37.777677459029185],[-122.1332,37.7777],[-122.13340121145374,37.777885881057266]]],[[[-122.13220611680327,37.73181045081967],[-122.13049,37.73277],[-122.13055887925941,37.7332574532204],[-122.13207558118081,37.73196402214022],[-122.13220611680327,37.73181045081967]]],[[[-122.1312248817268,37.730429405677114],[-122.13122471172962,37.73042920477137],[-122.130635,37.73034052631579],[-122.12875714285714,37.73014285714286],[-122.1312248817268,37.730429405677114]]],[[[-122.13077253678756,37.73349701554404],[-122.13058691614614,37.733455868111214],[-122.13061836074561,37.73367839912281],[-122.13077253678756,37.73349701554404]]],[[[-122.12546738087624,37.72976085705149],[-122.1245,37.7286],[-122.12448045428862,37.728613931517685],[-122.12546,37.72976],[-122.12546738087624,37.72976085705149]]],[[[-122.12375833333333,37.76063875],[-122.11613,37.75026],[-122.11607352686309,37.749902902946275],[-122.1161,37.7503],[-122.12375833333333,37.76063875]]],[[[-122.12168841137533,37.730604004658005],[-122.11954748909231,37.732129981178886],[-122.12121,37.73181],[-122.12168841137533,37.730604004658005]]]]}},{"type":"Feature","properties":{"GEOID":"0600191660","NAME":"Livermore-Pleasanton","COUNTY":"001"},"geometry":{"type":"MultiPolygon","coordinates":[[[[-122.0223,37.6962],[-122.0189,37.6948],[-122.0121,37.6945],[-122.0035,37.6961],[-121.9996,37.691],[-121.9878,37.6878],[-121.9835,37.6891],[-121.9791377983883,37.6802453818031],[-121.97188,37.68031],[-121.97192,37.67625],[-121.95061,37.67642],[-121.94983,37.66902],[-121.94063,37.66905],[-121.94062,37.66566],[-121.93182150675274,37.6657099914389],[-121.93195,37.6771],[-121.93304,37.67753],[-121.93387,37.67695],[-121.94102,37.67923],[-121.94107,37.6839],[-121.94225,37.68391],[-121.94224,37.68761],[-121.95131,37.68741],[-121.95128,37.6919],[-121.94746,37.69477],[-121.95495,37.69672],[-121.95496,37.69884],[-121.93734,37.69872],[-121.95908,37.69897],[-121.9643,37.69863],[-121.96516,37.69796],[-121.9685,37.69845],[-121.96982,37.69776],[-121.97554,37.69873],[-121.97733,37.69994],[-121.97931,37.699],[-121.98759,37.70051],[-121.9878,37.70932],[-121.96949,37.70971],[-121.96152,37.7084],[-121.96027,37.7089],[-121.96022,37.71079],[-121.95624,37.70837],[-121.9528,37.70759],[-121.95249,37.70936],[-121.95426,37.71079],[-121.95083,37.71286],[-121.95308,37.71339],[-121.95355,37.71421],[-121.95288,37.71602],[-121.95096,37.71557],[-121.95074,37.71703],[-121.95507405361263,37.71969787281876],[-121.96,37.7185],[-121.9713,37.7296],[-122.0013,37.7037],[-122.0155,37.7031],[-122.0212,37.7015],[-122.0203,37.6993],[-122.0223,37.6962]]],[[[-121.9679,37.6639],[-121.9612,37.6614],[-121.9594,37.6577],[-121.9533,37.6532],[-121.9502,37.6534],[-121.94982383353151,37.65301924613555],[-121.94973,37.66561],[-121.9676994415409,37.665705026131896],[-121.9679,37.6639]]],[[[-121.9477071358483,37.65087673506597],[-121.942,37.6451],[-121.9417,37.6431],[-121.9393,37.6425],[-121.9386,37.6402],[-121.9354,37.6383],[-121.9311,37.6306],[-121.9276,37.6287],[-121.9257,37.6238],[-121.9236,37.6219],[-121.9239,37.6194],[-121.9135,37.6129],[-121.9114,37.6091],[-121.9057,37.6053],[-121.9024,37.6005],[-121.8959,37.5976],[-121.8982,37.5956],[-121.8959,37.595],[-121.8962,37.594],[-121.9048,37.5957],[-121.9124,37.5937],[-121.9167,37.5946],[-121.9225,37.5986],[-121.9266,37.5985],[-121.9302,37.5958],[-121.93278323805549,37.5917264322971],[-121.93277,37.59173],[-121.93027,37.58622],[-121.92812,37.58595],[-121.92812736752622,37.585903731935396],[-121.9281,37.5859],[-121.9282371875,37.5852140625],[-121.92837,37.58438],[-121.92561,37.58235],[-121.92563883928571,37.582329129464284],[-121.9256,37.5823],[-121.9270952640897,37.58120347300088],[-121.926952875,37.58101275],[-121.926,37.5798],[-121.9299,37.5785],[-121.9313,37.5763],[-121.93131103896104,37.57630441558442],[-121.93132,37.57629],[-121.93213409090909,37.57663363636364],[-121.9333,37.5771],[-121.9331504443799,37.57565429567238],[-121.93226993657505,37.57383496828753],[-121.9276,37.5715],[-121.92753340027384,37.571380821542675],[-121.92583,37.56943],[-121.92571297474275,37.56812321796071],[-121.9257,37.5681],[-121.92492951219512,37.56812963414634],[-121.92315,37.56822],[-121.92312251572326,37.56819913401064],[-121.9231,37.5682],[-121.92257030612245,37.567779897959184],[-121.92016,37.56595],[-121.92018813494589,37.56581842775302],[-121.9194,37.5604],[-121.92378,37.5604],[-121.92375954545454,37.559307727272724],[-121.92370153443584,37.55774142976764],[-121.91850681581234,37.559827263249346],[-121.918555,37.56002],[-121.91883,37.56097],[-121.91879274193549,37.56097096774194],[-121.9188,37.561],[-121.918396875,37.56098125],[-121.91652,37.56103],[-121.91650877518389,37.560893431403905],[-121.9145,37.5608],[-121.91450413211525,37.560769009135626],[-121.9145,37.56077],[-121.91483,37.55747],[-121.9143,37.55717],[-121.91504001814882,37.55628582247154],[-121.91113666666666,37.555363212121215],[-121.90957,37.55501],[-121.90868890020367,37.55274205702648],[-121.9073,37.5493],[-121.90590855263157,37.549745263157895],[-121.90481,37.55011],[-121.9040527586207,37.549624482758624],[-121.89930208458836,37.54660132655623],[-121.89361,37.5502],[-121.89360548964459,37.55019653285605],[-121.8936,37.5502],[-121.89356896443044,37.550168455650606],[-121.89067,37.54794],[-121.88754285583941,37.54404355839416],[-121.8875,37.544],[-121.8873,37.539],[-121.88476804270462,37.537251743772245],[-121.88312,37.53614],[-121.88081751412429,37.533406666666664],[-121.8781,37.5302],[-121.8811,37.5134],[-121.88091186619718,37.50995088028169],[-121.88078,37.50789],[-121.87949692307693,37.50557307692308],[-121.8766,37.5004],[-121.87462785714285,37.494842142857145],[-121.87328,37.49109],[-121.87448974537037,37.4890804229798],[-121.87012740129218,37.48075231155779],[-121.87011,37.48073],[-121.87011299158617,37.48072480211904],[-121.8701,37.4807],[-121.8653,37.4846],[-121.4719,37.4818],[-121.4712,37.4828],[-121.4693,37.4897],[-121.476,37.4954],[-121.4794,37.4965],[-121.4821,37.5014],[-121.4932,37.5024],[-121.496,37.5049],[-121.4954,37.5081],[-121.4972,37.5125],[-121.5024,37.5185],[-121.4983,37.5224],[-121.5015,37.525],[-121.5044,37.5259],[-121.5099,37.5246],[-121.5167,37.5255],[-121.5223,37.5247],[-121.5288,37.5281],[-121.5304,37.5271],[-121.5327,37.5287],[-121.5406,37.5298],[-121.5458,37.5325],[-121.5505,37.5393],[-121.5567,37.5427],[-121.557,37.8165],[-121.93530995120463,37.72450403171699],[-121.85073,37.74494],[-121.85065,37.73096],[-121.84161,37.73096],[-121.8416,37.72377],[-121.83255,37.72374],[-121.83244,37.70923],[-121.83347,37.70923],[-121.83338,37.70121],[-121.86659,37.70152],[-121.8495,37.70135],[-121.84808041300599,37.69903194022498],[-121.84805,37.69992],[-121.84608,37.70087],[-121.82338,37.7009],[-121.8233,37.70725],[-121.81423,37.7072],[-121.8142,37.71651],[-121.80773,37.71652],[-121.80594,37.7113],[-121.80473,37.71046],[-121.7995,37.71363],[-121.79803,37.71626],[-121.79177,37.71606],[-121.79094,37.7012],[-121.78931,37.70124],[-121.78926,37.70018],[-121.78542,37.69953],[-121.77924,37.70006],[-121.77844,37.69722],[-121.77051,37.70104],[-121.76746,37.70161],[-121.76742,37.70084],[-121.75953,37.70264],[-121.75563,37.70247],[-121.75701,37.70171],[-121.75691,37.69923],[-121.74764,37.69963],[-121.74757,37.70056],[-121.75167,37.7019],[-121.75155,37.70256],[-121.7481,37.70295],[-121.75004,37.70415],[-121.75711,37.70411],[-121.75732,37.70897],[-121.75169,37.70896],[-121.75161,37.72929],[-121.74656,37.7293],[-121.74655,37.73067],[-121.73013,37.73063],[-121.73012,37.7322],[-121.72874,37.73219],[-121.72875,37.73063],[-121.72709,37.73062],[-121.72712,37.72701],[-121.72418,37.72696],[-121.71959,37.72699],[-121.71949,37.73061],[-121.71178,37.73074],[-121.7107,37.72632],[-121.706,37.72678],[-121.70601,37.7282],[-121.70078,37.72338],[-121.71067,37.72331],[-121.71059,37.71695],[-121.70932,37.71697],[-121.70929,37.71561],[-121.70436,37.71811],[-121.70123,37.71831],[-121.70007,37.71725],[-121.69688,37.71777],[-121.69702,37.71517],[-121.69865,37.71492],[-121.69765,37.71238],[-121.69866,37.70967],[-121.69698,37.70707],[-121.69705,37.70348],[-121.70076,37.69975],[-121.69699,37.69942],[-121.69673,37.67792],[-121.69976,37.67542],[-121.70011,37.6725],[-121.70121,37.67233],[-121.7012,37.66503],[-121.702,37.66859],[-121.70575,37.66752],[-121.71346,37.66833],[-121.7169,37.6665],[-121.71692,37.66835],[-121.71883,37.66836],[-121.71883,37.66508],[-121.719,37.67001],[-121.7238,37.67001],[-121.72379,37.66884],[-121.72569,37.66873],[-121.72588,37.67091],[-121.72498,37.67095],[-121.72611,37.6715],[-121.7264,37.66873],[-121.7277,37.66873],[-121.72769,37.66983],[-121.72864,37.66983],[-121.72865,37.66873],[-121.72994,37.66874],[-121.73039,37.67379],[-121.72761,37.67372],[-121.72761,37.67447],[-121.73072,37.67439],[-121.7307,37.67806],[-121.72671,37.67838],[-121.7267,37.67977],[-121.73644,37.67985],[-121.73639,37.67617],[-121.7398,37.67618],[-121.73976,37.67243],[-121.73748,37.67242],[-121.7374,37.66513],[-121.74191,37.66517],[-121.74202,37.67244],[-121.74741,37.67246],[-121.7474,37.67382],[-121.75128,37.67383],[-121.75135,37.67257],[-121.75343,37.67256],[-121.7472,37.66855],[-121.74959,37.66921],[-121.74965,37.66249],[-121.75862,37.66175],[-121.75895,37.65795],[-121.76805,37.65797],[-121.76807,37.65663],[-121.76202,37.65662],[-121.76202,37.6498],[-121.74973,37.64978],[-121.74975,37.64517],[-121.78288,37.64528],[-121.78373,37.64303],[-121.78632,37.64011],[-121.78305,37.64009],[-121.78303,37.64194],[-121.77889,37.63763],[-121.77981,37.63677],[-121.7777,37.63469],[-121.78175,37.63166],[-121.7864,37.63521],[-121.78641,37.62857],[-121.80176,37.62857],[-121.80193470737913,37.63301709692343],[-121.80228,37.62947],[-121.80807,37.62547],[-121.81001,37.62005],[-121.8129,37.62177],[-121.80846,37.62678],[-121.8145,37.63175],[-121.8145,37.63487],[-121.8152,37.63555],[-121.81717,37.63666],[-121.82178,37.64178],[-121.82387,37.64181],[-121.82375,37.65206],[-121.82846,37.65203],[-121.82847,37.65386],[-121.83341,37.6538],[-121.83325,37.63372],[-121.85514,37.64731],[-121.85515,37.62952],[-121.86011,37.62952],[-121.8569,37.62514],[-121.86044,37.62533],[-121.86044,37.62405],[-121.87067,37.62411],[-121.8707,37.62949],[-121.87205,37.62949],[-121.87219,37.63139],[-121.87132,37.63133],[-121.87125,37.63243],[-121.86702,37.63349],[-121.86702,37.63492],[-121.87059,37.63497],[-121.87095,37.6379],[-121.8663,37.6379],[-121.8663,37.63999],[-121.8765,37.64268],[-121.87707,37.64104],[-121.87585,37.64045],[-121.87721,37.64067],[-121.87749,37.63995],[-121.87444,37.63979],[-121.87543,37.6374],[-121.87825,37.63755],[-121.87895,37.63607],[-121.88208,37.63702],[-121.88672,37.63714],[-121.88682,37.63842],[-121.88592,37.63883],[-121.88627,37.64],[-121.88825,37.64361],[-121.89161,37.64673],[-121.89528,37.64178],[-121.89327,37.63972],[-121.89714,37.6418],[-121.89714,37.63744],[-121.90568,37.63243],[-121.90558,37.62965],[-121.90203,37.62725],[-121.90136,37.62546],[-121.88583,37.62875],[-121.88633,37.6296],[-121.88462,37.6296],[-121.88284,37.62725],[-121.88282,37.62665],[-121.88391,37.62651],[-121.88296,37.6233],[-121.88866,37.62193],[-121.88976,37.62266],[-121.88993,37.62573],[-121.89856,37.62268],[-121.89701,37.62198],[-121.90125,37.62038],[-121.905,37.6241],[-121.90948,37.6262],[-121.9107,37.63248],[-121.91279,37.63249],[-121.91481,37.63393],[-121.91472,37.65025],[-121.9204,37.65027],[-121.93103,37.65025],[-121.93415,37.65181],[-121.93548,37.65103],[-121.9477071358483,37.65087673506597]]],[[[-121.93181,37.66469],[-121.92294,37.6647],[-121.92292742319302,37.66163964363239],[-121.91447,37.6614],[-121.91476,37.66322],[-121.91811,37.66627],[-121.91007,37.66777],[-121.91093,37.66995],[-121.91921,37.66839],[-121.9184,37.66695],[-121.9251,37.667],[-121.92512,37.6647],[-121.93181,37.66469]]],[[[-121.86206,37.68201],[-121.85757,37.68203],[-121.85733,37.67603],[-121.8468,37.67577],[-121.83754,37.67886],[-121.83758,37.67317],[-121.8537,37.67142],[-121.85358,37.67078],[-121.83344,37.67299],[-121.83347,37.66804],[-121.83003,37.6675],[-121.83007,37.66576],[-121.83764,37.66527],[-121.83071,37.66303],[-121.82612,37.65968],[-121.82383,37.65953],[-121.82382,37.65715],[-121.82115,37.65548],[-121.81415,37.65542],[-121.80600938060935,37.65232886858044],[-121.80624,37.65312],[-121.80547,37.66428],[-121.80476,37.66497],[-121.80549,37.66555],[-121.80521,37.68017],[-121.81497,37.68013],[-121.81457,37.68952],[-121.83001,37.68968],[-121.83,37.69134],[-121.83642,37.69116],[-121.83674,37.69275],[-121.84817,37.69269],[-121.84825,37.69408],[-121.84824839542604,37.694126853559574],[-121.84828,37.69368],[-121.85424,37.69376],[-121.85424,37.69124],[-121.86182,37.69129],[-121.86206,37.68201]]],[[[-121.85994,37.66351],[-121.85865,37.66375],[-121.85904,37.66285],[-121.85673,37.66279],[-121.85591,37.6648],[-121.85661,37.66481],[-121.85663,37.66569],[-121.8599,37.66558],[-121.85994,37.66351]]],[[[-121.80525,37.65199],[-121.79184,37.64574],[-121.78892,37.64567],[-121.78823,37.64505],[-121.78879,37.6447],[-121.78325,37.6452],[-121.78589,37.64603],[-121.78588,37.64702],[-121.78914,37.65012],[-121.79248,37.65085],[-121.79985,37.65502],[-121.80523,37.65595],[-121.80525,37.65199]]],[[[-121.80466212044719,37.647865139399094],[-121.80464,37.64777],[-121.80183482171157,37.6447470681458],[-121.80466212044719,37.647865139399094]]],[[[-121.80176565206251,37.63475375608506],[-121.80158939906839,37.63523376423927],[-121.80173,37.63512],[-121.80176565206251,37.63475375608506]]],[[[-121.80022989035486,37.64297707820317],[-121.79984346525946,37.64204120492524],[-121.80016,37.6429],[-121.80022989035486,37.64297707820317]]],[[[-121.79932,37.63707],[-121.79894,37.63959],[-121.79900248588058,37.63975953136452],[-121.79932,37.63707]]],[[[-121.79876,37.69722],[-121.79552,37.69722],[-121.7955,37.70033],[-121.79876,37.69902],[-121.79876,37.69722]]]]}},{"type":"Feature","properties":{"GEOID":"0600191070","NAME":"Fremont","COUNTY":"001"},"geometry":{"type":"MultiPolygon","coordinates":[[[[-122.1492,37.5458],[-122.1096,37.4976],[-122.0815,37.4778],[-122.05734034606742,37.46280985168539],[-122.08147,37.47784],[-122.10957,37.49764],[-122.14916548974944,37.54583451025057],[-122.1492,37.5458]]],[[[-122.14873375,37.54626625],[-122.13172,37.56289],[-122.13064273449115,37.56435094911475],[-122.13781499999492,37.557185000005084],[-122.14873375,37.54626625]]],[[[-122.12742983097718,37.567561023123204],[-122.12543759140978,37.568594857909844],[-122.12648904769723,37.56850097788418],[-122.12742983097718,37.567561023123204]]],[[[-122.11108,37.56138],[-122.11002,37.56047],[-122.10980948402948,37.56053965601966],[-122.11071750000002,37.56114500000001],[-122.11108,37.56138]]],[[[-122.09425963414634,37.562046890243906],[-122.09304,37.56264],[-122.09273948387097,37.56297587096774],[-122.09425963414634,37.562046890243906]]],[[[-122.09271515333734,37.563010823812384],[-122.09271091743119,37.56300779816514],[-122.0927,37.56302],[-122.09271515333734,37.563010823812384]]],[[[-122.09079,37.56466],[-122.0902139480854,37.56460360330906],[-122.09070257572883,37.56551367229495],[-122.09079,37.56466]]],[[[-122.08981994911866,37.56456502998364],[-122.08936,37.56452],[-122.08470210526316,37.56758090225564],[-122.08981994911866,37.56456502998364]]],[[[-122.08449123732251,37.56771947261663],[-122.08446,37.56774],[-122.08448994098518,37.56772235336625],[-122.08449123732251,37.56771947261663]]],[[[-122.07081708643739,37.563300844984184],[-122.07008,37.56345],[-122.06967852682926,37.56387916097561],[-122.07081708643739,37.563300844984184]]],[[[-122.06437062787327,37.51306506198236],[-122.06431,37.51296],[-122.06094,37.5141],[-122.06437062787327,37.51306506198236]]],[[[-122.05121611702128,37.45901],[-122.0512,37.459],[-122.0478,37.459],[-122.04391795454545,37.46100795454545],[-122.04782,37.45901],[-122.05121611702128,37.45901]]],[[[-122.03066538782319,37.46530825688073],[-122.0252616059529,37.46560922701022],[-122.02542,37.46563],[-122.03066538782319,37.46530825688073]]],[[[-122.03,37.6289],[-122.028,37.6228],[-122.02668173410405,37.62285992117709],[-122.01852,37.62895],[-122.02208,37.63196],[-122.01910371428572,37.633461027210885],[-122.0192,37.6335],[-122.0229,37.6322],[-122.025,37.6284],[-122.03,37.6289]]],[[[-122.00535912766071,37.62713350865905],[-121.99629,37.62177],[-122.00508,37.62698],[-122.00508108826321,37.62713997469155],[-122.00535912766071,37.62713350865905]]],[[[-121.99783333594903,37.46713687749145],[-121.9967,37.4672],[-121.9927,37.4646],[-121.98266164750957,37.46167544061303],[-121.99267,37.46464],[-121.99667,37.46724],[-121.99783333594903,37.46713687749145]]],[[[-121.98698,37.62207],[-121.98658866666666,37.63420133333333],[-121.98682781168337,37.63417319862548],[-121.98698,37.62207]]],[[[-121.98168363823739,37.6360854156042],[-121.9606,37.63637],[-121.96072,37.62857],[-121.95523,37.62862],[-121.95511,37.63292],[-121.95156,37.63286],[-121.95007,37.63145],[-121.95005,37.62903],[-121.94855,37.6297],[-121.94676,37.62727],[-121.94568,37.62754],[-121.94439,37.62254],[-121.94527,37.62243],[-121.94528,37.62131],[-121.94364692751091,37.62133855021834],[-121.9439,37.6264],[-121.9547,37.6359],[-121.9599,37.6366],[-121.9668,37.6432],[-121.9783,37.6394],[-121.98168363823739,37.6360854156042]]],[[[-121.97901046692607,37.46083941634241],[-121.9751,37.4606],[-121.9593,37.4635],[-121.9496,37.4614],[-121.94887085714285,37.46185571428571],[-121.9496,37.46141],[-121.95931,37.46352],[-121.96416,37.46315],[-121.97507,37.46064],[-121.97901046692607,37.46083941634241]]],[[[-121.95698,37.59147],[-121.9518187368726,37.59726114405552],[-121.95207,37.59716],[-121.95698,37.59147]]],[[[-121.95040116355204,37.59783177738371],[-121.94863,37.59816],[-121.94683771428572,37.59792950649351],[-121.9459,37.5981],[-121.9482,37.6038],[-121.9455,37.6067],[-121.94546280289816,37.60720216087481],[-121.94979,37.60721],[-121.94971,37.59811],[-121.95040116355204,37.59783177738371]]],[[[-121.94709,37.46742],[-121.94708825915716,37.46740960614415],[-121.94498101449275,37.46913371541502],[-121.94645,37.46859],[-121.94709,37.46742]]],[[[-121.94678901639344,37.46562295081967],[-121.94641511705686,37.46339055183947],[-121.9464,37.4634],[-121.94678901639344,37.46562295081967]]],[[[-121.94666826485569,37.5979077147708],[-121.94412,37.59758],[-121.9426741864139,37.598000600315956],[-121.94666826485569,37.5979077147708]]],[[[-121.94488474074075,37.46912588359788],[-121.94422586638831,37.465925636743215],[-121.94414,37.46812],[-121.94488474074075,37.46912588359788]]],[[[-121.94420255190225,37.46581239495381],[-121.9442,37.4658],[-121.9411,37.4649],[-121.94014918803418,37.46369897435898],[-121.94109,37.46495],[-121.94420255190225,37.46581239495381]]],[[[-121.93882580645162,37.46254677419355],[-121.936,37.4629],[-121.93473630136987,37.46056701791359],[-121.93499,37.46246],[-121.93603,37.46293],[-121.93882580645162,37.46254677419355]]],[[[-121.93862052950075,37.59809487140696],[-121.93835473965287,37.59790990654206],[-121.9384,37.5981],[-121.93862052950075,37.59809487140696]]],[[[-121.93813,37.59506],[-121.93693,37.59178],[-121.93559,37.59097],[-121.93287456739259,37.59170181871689],[-121.9369,37.5918],[-121.93805655105973,37.59665751445087],[-121.93813,37.59506]]],[[[-121.93471117987946,37.46052063977747],[-121.9347,37.4605],[-121.9312,37.4606],[-121.93119722772278,37.46051128712871],[-121.9312,37.46064],[-121.93471117987946,37.46052063977747]]],[[[-121.93331,37.57713],[-121.9333,37.57691833333333],[-121.9333,37.5771],[-121.93213409090909,37.57663363636364],[-121.93331,37.57713]]],[[[-121.93260376616306,37.45516402477202],[-121.9326,37.4551],[-121.92843048913043,37.457383303571426],[-121.92844,37.45739],[-121.93260376616306,37.45516402477202]]],[[[-121.932344,37.573988],[-121.93174,37.57274],[-121.93171638968481,37.57273277936963],[-121.932344,37.573988]]],[[[-121.93131103896104,37.57630441558442],[-121.9313,37.5763],[-121.9299,37.5785],[-121.926,37.5798],[-121.926952875,37.58101275],[-121.92604,37.57979],[-121.92994,37.57851],[-121.93131103896104,37.57630441558442]]],[[[-121.9295872072072,37.57208162162162],[-121.92762,37.57148],[-121.92753340027384,37.571380821542675],[-121.9276,37.5715],[-121.9295872072072,37.57208162162162]]],[[[-121.92838635036496,37.45735222627737],[-121.92782010695187,37.45537037433155],[-121.92746,37.4567],[-121.92838635036496,37.45735222627737]]],[[[-121.9282371875,37.5852140625],[-121.9281,37.5859],[-121.92812736752622,37.585903731935396],[-121.9282371875,37.5852140625]]],[[[-121.92713,37.58125],[-121.9270952640897,37.58120347300088],[-121.9256,37.5823],[-121.92563883928571,37.582329129464284],[-121.92713,37.58125]]],[[[-121.92571297474275,37.56812321796071],[-121.92571,37.56809],[-121.92492951219512,37.56812963414634],[-121.9257,37.5681],[-121.92571297474275,37.56812321796071]]],[[[-121.92501170393001,37.454204597972506],[-121.925,37.4542],[-121.91918616438356,37.45721],[-121.92501170393001,37.454204597972506]]],[[[-121.92378,37.5604],[-121.9194,37.5604],[-121.92018813494589,37.56581842775302],[-121.9205,37.56436],[-121.91941,37.56043],[-121.92378,37.5604]]],[[[-121.92375954545454,37.559307727272724],[-121.92373,37.55773],[-121.92370153443584,37.55774142976764],[-121.92375954545454,37.559307727272724]]],[[[-121.92312251572326,37.56819913401064],[-121.92257030612245,37.567779897959184],[-121.9231,37.5682],[-121.92312251572326,37.56819913401064]]],[[[-121.9188,37.561],[-121.91879274193549,37.56097096774194],[-121.918396875,37.56098125],[-121.9188,37.561]]],[[[-121.918555,37.56002],[-121.91850681581234,37.559827263249346],[-121.9185,37.55983],[-121.918555,37.56002]]],[[[-121.91650877518389,37.560893431403905],[-121.91646,37.5603],[-121.91450413211525,37.560769009135626],[-121.9145,37.5608],[-121.91650877518389,37.560893431403905]]],[[[-121.91507,37.55625],[-121.91113666666666,37.555363212121215],[-121.91504001814882,37.55628582247154],[-121.91507,37.55625]]],[[[-121.91133,37.46224],[-121.911055,37.46177125],[-121.9113,37.4622],[-121.91070916426513,37.46240853025937],[-121.91133,37.46224]]],[[[-121.90868890020367,37.55274205702648],[-121.90734,37.54927],[-121.90590855263157,37.549745263157895],[-121.9073,37.5493],[-121.90868890020367,37.55274205702648]]],[[[-121.9040527586207,37.549624482758624],[-121.89932,37.54659],[-121.89930208458836,37.54660132655623],[-121.9040527586207,37.549624482758624]]],[[[-121.89360548964459,37.55019653285605],[-121.89356896443044,37.550168455650606],[-121.8936,37.5502],[-121.89360548964459,37.55019653285605]]],[[[-121.89074698544698,37.468138669438666],[-121.8877,37.4709],[-121.88339655172413,37.471032413793104],[-121.88774,37.47094],[-121.88935,37.4701],[-121.89074698544698,37.468138669438666]]],[[[-121.88754285583941,37.54404355839416],[-121.88754,37.54404],[-121.88733,37.53898],[-121.88476804270462,37.537251743772245],[-121.8873,37.539],[-121.8875,37.544],[-121.88754285583941,37.54404355839416]]],[[[-121.88113,37.51336],[-121.88091186619718,37.50995088028169],[-121.8811,37.5134],[-121.8781,37.5302],[-121.88081751412429,37.533406666666664],[-121.87815,37.53024],[-121.87907,37.52885],[-121.88113,37.51336]]],[[[-121.87949692307693,37.50557307692308],[-121.87661,37.50036],[-121.87462785714285,37.494842142857145],[-121.8766,37.5004],[-121.87949692307693,37.50557307692308]]],[[[-121.876325,37.4752],[-121.8752,37.4752],[-121.8718127722513,37.478852892670155],[-121.87369,37.47784],[-121.8752,37.47522],[-121.876325,37.4752]]],[[[-121.87449,37.48908],[-121.87213,37.48332],[-121.87012740129218,37.48075231155779],[-121.87448974537037,37.4890804229798],[-121.87449,37.48908]]],[[[-121.87017188174042,37.480622480476015],[-121.8701,37.4807],[-121.87011299158617,37.48072480211904],[-121.87017188174042,37.480622480476015]]]]}},{"type":"Feature","properties":{"GEOID":"0600191260","NAME":"Hayward","COUNTY":"001"},"geometry":{"type":"MultiPolygon","coordinates":[[[[-122.20969889423077,37.71109777644231],[-122.20326,37.69815],[-122.20048,37.69259],[-122.20936,37.71118],[-122.20217,37.71298],[-122.20969889423077,37.71109777644231]]],[[[-122.17916,37.80498],[-122.17911298507462,37.804920895522386],[-122.1781,37.804],[-122.177,37.8047],[-122.17698389937107,37.804688634850166],[-122.17695,37.80471],[-122.17531,37.80353],[-122.17532157005934,37.80351522592424],[-122.1753,37.8035],[-122.17561901639344,37.80313540983607],[-122.17596,37.8027],[-122.16841581544634,37.799142174523574],[-122.16939696474634,37.80175857265692],[-122.17052,37.80269],[-122.17053,37.80465],[-122.17048750283769,37.80466667423382],[-122.1705,37.8047],[-122.1676,37.8058],[-122.165,37.8052],[-122.16410022222222,37.80290056790123],[-122.16163,37.80144],[-122.16163827699019,37.80142296619411],[-122.1616,37.8014],[-122.16228976923077,37.80002046153846],[-122.16142455696203,37.80003367088607],[-122.1597,37.8001],[-122.1584,37.798],[-122.15947344827586,37.79741448275862],[-122.159388,37.797386],[-122.1523,37.7965],[-122.1523,37.79647009070295],[-122.15226,37.79647],[-122.15228982400944,37.79309988693344],[-122.1477924369748,37.793049915966385],[-122.14332,37.79302],[-122.14331940721006,37.793000215635665],[-122.1433,37.793],[-122.14320125391849,37.790333855799375],[-122.14264,37.7901],[-122.1418,37.7898],[-122.14182976501306,37.789762402088776],[-122.1418,37.78975],[-122.1436145,37.787508],[-122.1437,37.7874],[-122.13403041553134,37.77846714577657],[-122.13401,37.77848],[-122.13340121145374,37.777885881057266],[-122.1332,37.7777],[-122.13318764320275,37.777677459029185],[-122.13318,37.77767],[-122.13318265912865,37.777668367201706],[-122.13202853376569,37.77556303961652],[-122.13181,37.77534],[-122.12409,37.76109],[-122.12375833333333,37.76063875],[-122.1161,37.7503],[-122.11605006286936,37.74975453288067],[-122.1148,37.74185],[-122.11497124180426,37.73797048740027],[-122.1148,37.7361],[-122.11506277333723,37.73589682473926],[-122.11509,37.73528],[-122.11882,37.73227],[-122.12006284260566,37.732030791799744],[-122.12159119208553,37.73084907828438],[-122.12217,37.72939],[-122.12446,37.72859],[-122.12448106212531,37.728614642686615],[-122.1245,37.7286],[-122.12546738087624,37.72976085705149],[-122.12875714285714,37.73014285714286],[-122.130635,37.73034052631579],[-122.12724,37.72983],[-122.12369,37.7193],[-122.12504,37.71899],[-122.12398,37.71642],[-122.13115,37.71491],[-122.12899,37.71253],[-122.12426,37.70983],[-122.12928,37.70586],[-122.12254,37.70111],[-122.12251,37.69861],[-122.12476,37.69823],[-122.12478,37.69578],[-122.1284,37.69823],[-122.12953,37.69746],[-122.12965,37.69219],[-122.12841,37.69107],[-122.13013,37.69112],[-122.1301,37.68674],[-122.13235,37.68671],[-122.129,37.68439],[-122.13139,37.6852],[-122.14051,37.6842],[-122.14381,37.68172],[-122.14498,37.67972],[-122.15472,37.67516],[-122.15434,37.67474],[-122.15556,37.674],[-122.15506,37.67114],[-122.1575,37.66962],[-122.16359617249815,37.667121568648305],[-122.16155,37.66381],[-122.15243,37.66395],[-122.15086,37.66278],[-122.14592,37.66568],[-122.14375,37.66335],[-122.13927,37.66253],[-122.13437,37.6628],[-122.13447,37.66457],[-122.12768,37.66518],[-122.1279,37.66786],[-122.12314,37.66807],[-122.12343,37.66871],[-122.12075,37.66978],[-122.11814,37.6656],[-122.11263,37.66607],[-122.11262,37.66704],[-122.11205,37.66611],[-122.10922,37.66626],[-122.10979,37.6672],[-122.10906,37.66812],[-122.10813,37.66632],[-122.1066,37.66708],[-122.10343,37.66665],[-122.10895,37.67152],[-122.10727,37.67273],[-122.10049,37.6668],[-122.10034,37.66741],[-122.09879,37.66735],[-122.09898,37.66789],[-122.0979,37.66759],[-122.09764,37.6684],[-122.09596,37.66857],[-122.09498,37.67137],[-122.09535,37.67194],[-122.09825,37.67076],[-122.09984,37.67322],[-122.09501,37.67518],[-122.09773,37.67705],[-122.09757,37.67786],[-122.09688,37.67816],[-122.09383,37.67456],[-122.09308,37.67667],[-122.0945,37.67821],[-122.09354,37.67916],[-122.09225,37.67896],[-122.0921,37.68123],[-122.09015,37.68288],[-122.09169,37.68287],[-122.09122,37.68369],[-122.093,37.68563],[-122.09171,37.68667],[-122.09305,37.68857],[-122.09172,37.68992],[-122.09151,37.68932],[-122.08849,37.68961],[-122.08811,37.68855],[-122.08643,37.68911],[-122.08638,37.68764],[-122.08794,37.68726],[-122.08944,37.68555],[-122.09043,37.68616],[-122.09125,37.6857],[-122.0867,37.68293],[-122.08718,37.68253],[-122.08376,37.6815],[-122.08076,37.68211],[-122.07993,37.68076],[-122.07912,37.6808],[-122.07812,37.67944],[-122.07724,37.67992],[-122.0764,37.67881],[-122.0741,37.68213],[-122.07331,37.68209],[-122.07273,37.68078],[-122.07039,37.68143],[-122.07121,37.68324],[-122.0703,37.68412],[-122.069,37.68357],[-122.06816,37.6848],[-122.06704,37.68381],[-122.06511,37.68555],[-122.06437,37.68541],[-122.06491,37.68479],[-122.06382,37.68375],[-122.0626,37.68388],[-122.062,37.68596],[-122.0569,37.68687],[-122.05674,37.68534],[-122.0586,37.68518],[-122.05796,37.68321],[-122.05932,37.68169],[-122.06206,37.68191],[-122.06509,37.68021],[-122.06433,37.67804],[-122.0655,37.67733],[-122.06447,37.67665],[-122.06464,37.67576],[-122.06693,37.67604],[-122.0663,37.67488],[-122.07302,37.67306],[-122.0649,37.67167],[-122.0659,37.66872],[-122.06023,37.66753],[-122.05931,37.66634],[-122.05538,37.66776],[-122.05429,37.66642],[-122.0529,37.66693],[-122.04923,37.66526],[-122.04736,37.66569],[-122.04632,37.66476],[-122.04086,37.66538],[-122.04101,37.66445],[-122.02801,37.66748],[-122.02723,37.66343],[-122.02783,37.66231],[-122.03116,37.66142],[-122.03117,37.66049],[-122.03238,37.66073],[-122.03265,37.65945],[-122.03661,37.65867],[-122.03018,37.65632],[-122.02754,37.65576],[-122.02525,37.65865],[-122.02397,37.66208],[-122.0178,37.66149],[-122.00993,37.66635],[-122.0054,37.67367],[-122.00685,37.67457],[-122.01044,37.67477],[-122.00323,37.67576],[-122.00328,37.67915],[-121.99656,37.67923],[-121.99659,37.68009],[-121.9791377983883,37.6802453818031],[-121.9835,37.6891],[-121.9878,37.6878],[-121.9996,37.691],[-122.0035,37.6961],[-122.0121,37.6945],[-122.0225,37.696],[-122.0203,37.6993],[-122.0212,37.7015],[-122.0155,37.7031],[-122.0013,37.7037],[-121.9713,37.7296],[-121.9881,37.7331],[-121.9954,37.7384],[-122.0011,37.739],[-122.0118,37.7474],[-122.0108,37.7551],[-121.9974,37.7634],[-122.0138,37.7801],[-122.0305,37.7877],[-122.0455,37.7981],[-122.0615,37.8001],[-122.0615,37.7992],[-122.1407,37.8047],[-122.1488,37.8138],[-122.1574,37.818],[-122.1669,37.8134],[-122.1728,37.8158],[-122.17749152224825,37.81625995316159],[-122.17547,37.81459],[-122.17416,37.81027],[-122.17587,37.80749],[-122.17916,37.80498]]],[[[-122.15350663178647,37.551194228202796],[-122.1492,37.5458],[-122.14916548974944,37.54583451025057],[-122.14917,37.54584],[-122.15350663178647,37.551194228202796]]],[[[-122.14917,37.54584],[-122.14873375,37.54626625],[-122.13781499999492,37.557185000005084],[-122.14917,37.54584]]],[[[-122.13669,37.73187],[-122.13450061053875,37.73424427123797],[-122.13487730422075,37.734296833147084],[-122.13669,37.73187]]],[[[-122.1335368340307,37.73410979079498],[-122.13077253678756,37.73349701554404],[-122.13061836074561,37.73367839912281],[-122.13062,37.73369],[-122.13203333333345,37.73390000000002],[-122.1335368340307,37.73410979079498]]],[[[-122.13235,37.73173],[-122.13220611680327,37.73181045081967],[-122.13207558118081,37.73196402214022],[-122.13235,37.73173]]],[[[-122.13123,37.73043],[-122.13122471172962,37.73042920477137],[-122.1312248817268,37.730429405677114],[-122.13123,37.73043]]],[[[-122.12648904769723,37.56850097788418],[-122.12543759140978,37.568594857909844],[-122.12537114040317,37.56862934139434],[-122.12646,37.56853],[-122.12648904769723,37.56850097788418]]],[[[-122.11071750000002,37.56114500000001],[-122.10980948402948,37.56053965601966],[-122.10979242943705,37.56054529908333],[-122.11071750000002,37.56114500000001]]],[[[-122.0945,37.56193],[-122.09425963414634,37.562046890243906],[-122.09273948387097,37.56297587096774],[-122.09271091743119,37.56300779816514],[-122.09271515333734,37.563010823812384],[-122.0945,37.56193]]],[[[-122.08984311332817,37.56456729780835],[-122.08981994911866,37.56456502998364],[-122.08470210526316,37.56758090225564],[-122.08449123732251,37.56771947261663],[-122.08448994098518,37.56772235336625],[-122.08984311332817,37.56456729780835]]],[[[-122.05175,37.64587],[-122.04964,37.64466],[-122.04374,37.64444],[-122.04448,37.64288],[-122.04353,37.64293],[-122.04077,37.63982],[-122.04145,37.63805],[-122.03827,37.63692],[-122.03629,37.63316],[-122.03251,37.63303],[-122.03159,37.62861],[-122.03253,37.62747],[-122.03076,37.62653],[-122.03163,37.62471],[-122.03362,37.62424],[-122.02383,37.61545],[-122.02963,37.62066],[-122.02667974240838,37.62286140732984],[-122.028,37.6228],[-122.03,37.6289],[-122.025,37.6284],[-122.0229,37.6306],[-122.023,37.6322],[-122.0207,37.6334],[-122.01968097542316,37.6331698976762],[-122.01746,37.63429],[-122.00535912766071,37.62713350865905],[-122.00508108826321,37.62713997469155],[-122.00509,37.62845],[-122.0011,37.6286],[-122.00129,37.63225],[-121.99729,37.6325],[-121.99741,37.63584],[-122.01364,37.63569],[-122.01368,37.63931],[-122.00914,37.64106],[-122.00918,37.64278],[-122.01841,37.64263],[-122.01828,37.63563],[-122.01979,37.6356],[-122.04265,37.649],[-122.0434,37.64717],[-122.04859,37.64646],[-122.05097,37.64746],[-122.05175,37.64587]]],[[[-121.99895,37.66934],[-121.99894,37.66793],[-121.99654,37.66696],[-121.99573,37.66536],[-121.99645,37.66538],[-121.9968,37.66154],[-121.99616,37.65048],[-121.98662,37.6507],[-121.98682781168337,37.63417319862548],[-121.98658866666666,37.63420133333333],[-121.98653,37.63602],[-121.98168363823739,37.6360854156042],[-121.9783,37.6394],[-121.9666,37.6432],[-121.9599,37.6366],[-121.9547,37.6359],[-121.9438,37.6263],[-121.94361161395905,37.621339167588125],[-121.94242,37.62136],[-121.94266,37.61819],[-121.94383,37.61644],[-121.93977,37.61417],[-121.94026,37.61166],[-121.94426,37.60966],[-121.94427,37.6072],[-121.94546280289816,37.60720216087481],[-121.9455,37.6067],[-121.9482,37.6038],[-121.9459,37.5981],[-121.94683771428572,37.59792950649351],[-121.9466926309088,37.597910848320865],[-121.94247046025104,37.598059866108784],[-121.93972,37.59886],[-121.93875848701543,37.59819087692887],[-121.9385,37.5982],[-121.93845608695652,37.597980434782606],[-121.93801,37.59767],[-121.93808177570094,37.59610887850467],[-121.93756088235294,37.593504411764705],[-121.93718961538461,37.592489615384615],[-121.93579226415095,37.591092264150944],[-121.93565921711057,37.5910118401937],[-121.9326,37.5919],[-121.9301,37.5959],[-121.9251,37.599],[-121.9124,37.5937],[-121.9052,37.5957],[-121.8959,37.5944],[-121.8982,37.5956],[-121.8959,37.5976],[-121.9024,37.6005],[-121.9057,37.6053],[-121.9114,37.6091],[-121.9135,37.6129],[-121.9239,37.6194],[-121.9236,37.6219],[-121.9257,37.6238],[-121.9276,37.6287],[-121.9311,37.6306],[-121.9354,37.6383],[-121.9386,37.6402],[-121.9393,37.6425],[-121.9417,37.6431],[-121.942,37.6451],[-121.9477071358483,37.65087673506597],[-121.94984,37.65085],[-121.94982383353151,37.65301924613555],[-121.9502,37.6534],[-121.9533,37.6532],[-121.9594,37.6577],[-121.9612,37.6614],[-121.9679,37.6639],[-121.9676994415409,37.665705026131896],[-121.96864,37.66571],[-121.96874,37.66984],[-121.97651,37.67058],[-121.98209,37.66869],[-121.98594,37.66551],[-121.98815,37.66549],[-121.98777,37.6695],[-121.99895,37.66934]]]]}}]}