{"type":"FeatureCollection","features":[{"type":"Feature","geometry":{"type":"Polygon","coordinates":[[[-120.0733,38.7011],[-120.0723,38.693],[-120.0726,38.4471],[-120.0667,38.4481],[-120.0641,38.4509],[-120.0564,38.4534],[-120.0537,38.4556],[-120.0186,38.4324],[-119.8847,38.3562],[-119.8825,38.3593],[-119.8697,38.3676],[-119.855,38.3725],[-119.8376,38.3824],[-119.8147,38.3875],[-119.8014,38.4015],[-119.7845,38.4049],[-119.7799,38.4077],[-119.7706,38.4067],[-119.7629,38.4118],[-119.7506,38.4174],[-119.7129,38.4185],[-119.7079,38.4173],[-119.7006,38.4126],[-119.6987,38.4098],[-119.6943,38.3851],[-119.6936,38.3789],[-119.7,38.3652],[-119.6695,38.3483],[-119.6392,38.3269],[-119.635,38.329],[-119.6319,38.3347],[-119.6321,38.3442],[-119.6279,38.3481],[-119.6298,38.3509],[-119.6356,38.3539],[-119.6318,38.3548],[-119.6283,38.3586],[-119.617,38.3646],[-119.6066,38.3672],[-119.6135,38.3749],[-119.6148,38.38],[-119.6184,38.3818],[-119.6192,38.3872],[-119.6221,38.3939],[-119.6158,38.3989],[-119.6115,38.399],[-119.6042,38.4024],[-119.6012,38.4054],[-119.5924,38.3989],[-119.5837,38.3969],[-119.5808,38.4005],[-119.5675,38.4051],[-119.562,38.4107],[-119.5614,38.4198],[-119.5658,38.4226],[-119.5661,38.4278],[-119.5678,38.4292],[-119.57,38.4349],[-119.5626,38.4386],[-119.5613,38.4426],[-119.5564,38.4475],[-119.5575,38.4573],[-119.5586,38.4576],[-119.559,38.4604],[-119.5562,38.4697],[-119.5461,38.4741],[-119.5452,38.4776],[-119.5425,38.4806],[-119.5454,38.49],[-119.5429,38.4997],[-119.5468,38.4995],[-119.5503,38.5013],[-119.5575,38.5021],[-119.5592,38.5055],[-119.5581,38.5064],[-119.5581,38.5108],[-119.5562,38.514],[-119.5562,38.5166],[-119.5588,38.5181],[-119.5609,38.5255],[-119.5644,38.5264],[-119.5669,38.5253],[-119.5681,38.5377],[-119.57,38.5389],[-119.571,38.5417],[-119.5741,38.5408],[-119.5794,38.5487],[-119.5843,38.552],[-119.5859,38.5581],[-119.5874,38.5584],[-119.5869,38.5665],[-119.5905,38.5687],[-119.5893,38.5736],[-119.5915,38.5786],[-119.595,38.5801],[-119.596,38.5819],[-119.5947,38.5877],[-119.5955,38.5903],[-119.5998,38.5933],[-119.6089,38.5947],[-119.6125,38.6005],[-119.6191,38.6035],[-119.6185,38.6069],[-119.62,38.6084],[-119.621,38.6135],[-119.6185,38.6193],[-119.6194,38.6243],[-119.6166,38.6259],[-119.6163,38.6297],[-119.6182,38.6321],[-119.6157,38.6348],[-119.6149,38.6382],[-119.6169,38.6446],[-119.616,38.6488],[-119.6139,38.6497],[-119.6145,38.6515],[-119.6131,38.6558],[-119.6129,38.6631],[-119.6147,38.6659],[-119.6133,38.6668],[-119.6074,38.6664],[-119.5986,38.6709],[-119.596,38.676],[-119.5962,38.6779],[-119.5911,38.6831],[-119.5918,38.6901],[-119.5872,38.6942],[-119.5869,38.6985],[-119.5815,38.7026],[-119.5795,38.7067],[-119.5875,38.7147],[-119.9043,38.9333],[-119.9052,38.9281],[-119.8921,38.9184],[-119.8873,38.9179],[-119.8837,38.9092],[-119.8833,38.9045],[-119.8799,38.8994],[-119.8845,38.8942],[-119.881,38.8909],[-119.8795,38.8865],[-119.8828,38.881],[-119.8888,38.8791],[-119.8784,38.8745],[-119.8773,38.8702],[-119.8803,38.8648],[-119.8935,38.8567],[-119.9008,38.8574],[-119.9063,38.8555],[-119.9085,38.8461],[-119.9085,38.8343],[-119.9227,38.83],[-119.9238,38.8249],[-119.9213,38.8217],[-119.9309,38.8152],[-119.9315,38.8121],[-119.9425,38.8026],[-119.944,38.7968],[-119.94,38.7953],[-119.9398,38.7936],[-119.9431,38.7889],[-119.9469,38.7864],[-119.9479,38.7816],[-119.9552,38.7787],[-119.9595,38.7787],[-119.9649,38.776],[-120.0724,38.7028],[-120.0733,38.7011]]]},"properties":{"GEOID":"0600391890","NAME":"Markleeville","COUNTY":"003"}}]}