{"type":"FeatureCollection","features":[{"type":"Feature","properties":{"GEOID":"0600593300","NAME":"Sutter Creek-Plymouth","COUNTY":"005"},"geometry":{"type":"MultiPolygon","coordinates":[[[[-121.0277,38.5001],[-121.0273,38.4808],[-121.0023,38.484],[-120.9931,38.4795],[-120.9729,38.4665],[-120.9639,38.4648],[-120.9641,38.4483],[-120.9546,38.4463],[-120.9352,38.4451],[-120.9192,38.4462],[-120.9137,38.4478],[-120.8992,38.4466],[-120.8998,38.4305],[-120.9021,38.4277],[-120.9001,38.4201],[-120.9014,38.4157],[-120.9084,38.4042],[-120.9023,38.4066],[-120.8825,38.4058],[-120.8797,38.4075],[-120.8737,38.4073],[-120.8687,38.4044],[-120.8454,38.4068],[-120.84,38.4059],[-120.8336,38.4068],[-120.8262,38.4055],[-120.8216,38.4031],[-120.8182,38.3992],[-120.8177946104924,38.3992372771961],[-120.81782,38.39931],[-120.81678963819095,38.39932968844221],[-120.81627989164981,38.399376561687376],[-120.81746,38.40082],[-120.81725,38.40314],[-120.81244,38.4029],[-120.81014,38.40365],[-120.80542,38.39816],[-120.80348,38.399],[-120.80342,38.40025],[-120.80068,38.39999],[-120.79775,38.39814],[-120.79615,38.3981],[-120.79012,38.40188],[-120.78544,38.40106],[-120.7852,38.3956],[-120.78623,38.39468],[-120.78529,38.39288],[-120.78874,38.39281],[-120.78866,38.3941],[-120.78983,38.39483],[-120.79196,38.39481],[-120.79401,38.39374],[-120.79454,38.39512],[-120.79443,38.39368],[-120.79682,38.39345],[-120.79615,38.39247],[-120.7981,38.39198],[-120.79671,38.38814],[-120.79862,38.38813],[-120.79772,38.38459],[-120.79618,38.38226],[-120.79538,38.38249],[-120.79496,38.38163],[-120.79348516129032,38.38196593548387],[-120.7844,38.3856],[-120.7726,38.3888],[-120.7514,38.4013],[-120.7408,38.398],[-120.7179,38.4044],[-120.7082,38.404],[-120.7044,38.4026],[-120.6949,38.4053],[-120.6891,38.4041],[-120.6866,38.402],[-120.6814,38.4031],[-120.6792,38.4015],[-120.6768,38.4034],[-120.6716,38.4047],[-120.6673,38.4128],[-120.6768,38.4136],[-120.6749,38.4142],[-120.6745,38.4179],[-120.6769,38.4223],[-120.6754,38.4239],[-120.6741,38.4236],[-120.6731,38.4258],[-120.6734,38.4299],[-120.6759,38.4315],[-120.6732,38.4336],[-120.6742,38.4352],[-120.673,38.4373],[-120.6574,38.436],[-120.6528,38.4376],[-120.6513,38.4394],[-120.6471,38.4385],[-120.6445,38.4397],[-120.6398,38.438],[-120.6346,38.4406],[-120.632,38.4406],[-120.6308,38.4417],[-120.6314,38.4426],[-120.6286,38.4439],[-120.6192,38.4472],[-120.6179,38.4516],[-120.6183,38.4531],[-120.6203,38.4536],[-120.619,38.4546],[-120.6192,38.458],[-120.6239,38.4614],[-120.6227,38.4631],[-120.6237,38.4654],[-120.6227,38.467],[-120.6275,38.4755],[-120.6261,38.4774],[-120.6158,38.4819],[-120.5878,38.4894],[-120.5815,38.4939],[-120.5723,38.4952],[-120.5552,38.5001],[-120.5502,38.5012],[-120.5449,38.5005],[-120.5315,38.5037],[-120.5246,38.5021],[-120.5186,38.5063],[-120.5162,38.505],[-120.5086,38.5081],[-120.5015,38.5079],[-120.4821,38.5145],[-120.4777,38.5141],[-120.4715,38.5157],[-120.4641,38.5141],[-120.4559,38.5193],[-120.4475,38.5222],[-120.4401,38.5288],[-120.45,38.5285],[-120.4557,38.5249],[-120.4654,38.5227],[-120.4858,38.5213],[-120.4915,38.5173],[-120.4972,38.5167],[-120.5,38.5144],[-120.5106,38.5115],[-120.5372,38.5096],[-120.5538,38.5119],[-120.5797,38.5034],[-120.5892,38.5033],[-120.5923,38.5046],[-120.5947,38.5035],[-120.6026,38.5039],[-120.6062,38.5023],[-120.6121,38.5045],[-120.6144,38.5032],[-120.6218,38.5044],[-120.6284,38.5032],[-120.639,38.5078],[-120.6508,38.51],[-120.6577,38.5134],[-120.6592,38.5156],[-120.6772,38.5178],[-120.6789,38.5225],[-120.6831,38.5264],[-120.687,38.528],[-120.6905,38.5277],[-120.6907,38.5288],[-120.6995,38.532],[-120.7042,38.5362],[-120.7069,38.5352],[-120.7183,38.5418],[-120.7225,38.5472],[-120.7274,38.5468],[-120.7308,38.5481],[-120.7365,38.5456],[-120.739,38.5483],[-120.7473,38.5484],[-120.7487,38.5509],[-120.747,38.553],[-120.7496,38.5533],[-120.7548,38.5512],[-120.76,38.5549],[-120.7689,38.5526],[-120.7791,38.5544],[-120.7842,38.5509],[-120.7885,38.5541],[-120.793,38.5549],[-120.7941,38.5575],[-120.8006,38.556],[-120.8014,38.5587],[-120.8046,38.5598],[-120.805,38.5582],[-120.8105,38.5577],[-120.8126,38.5596],[-120.81,38.5615],[-120.8136,38.5622],[-120.8154,38.5612],[-120.8166,38.5582],[-120.8233,38.5597],[-120.8254,38.5559],[-120.8327,38.556],[-120.8359,38.5515],[-120.8409,38.556],[-120.8472,38.5538],[-120.8493,38.5507],[-120.8561,38.5486],[-120.8555,38.5444],[-120.8566,38.5427],[-120.8624,38.5433],[-120.8635,38.5353],[-120.871,38.5363],[-120.8738,38.5386],[-120.8736,38.5425],[-120.8763,38.5433],[-120.8781,38.5396],[-120.8837,38.5365],[-120.8807,38.5295],[-120.8861,38.5247],[-120.8896,38.5248],[-120.8902,38.5274],[-120.8925,38.5289],[-120.8948,38.5281],[-120.9024,38.5312],[-120.9054,38.5243],[-120.9088,38.5239],[-120.9108,38.5206],[-120.9227,38.5192],[-120.9238,38.5161],[-120.9264,38.515],[-120.9306,38.5183],[-120.9364,38.5194],[-120.9381,38.5269],[-120.9409,38.5286],[-120.9437,38.5274],[-120.9457,38.5237],[-120.9525,38.521],[-120.9576,38.5228],[-120.9643,38.5203],[-120.9699,38.521],[-120.9747,38.5159],[-120.9802,38.5152],[-120.9871,38.5165],[-120.9948,38.5136],[-121,38.5181],[-121.0057,38.5195],[-121.0096,38.5177],[-121.0095,38.5147],[-121.0116,38.5124],[-121.0132,38.5131],[-121.0193,38.5089],[-121.0275,38.5083],[-121.0277,38.5001]],[[-120.89032,38.47923],[-120.89029,38.48099],[-120.89024,38.48292],[-120.88504,38.48292],[-120.88261,38.48494],[-120.88096,38.48382],[-120.88099,38.47936],[-120.8778,38.47935],[-120.87735,38.48299],[-120.87223,38.4822],[-120.86736,38.48009],[-120.86737,38.47196],[-120.86237,38.4714],[-120.86269,38.47911],[-120.8581,38.47911],[-120.85764,38.49724],[-120.85298,38.49722],[-120.85305,38.48632],[-120.8464,38.48631],[-120.84401,38.48262],[-120.84189,38.48263],[-120.84192,38.47897],[-120.83959,38.47896],[-120.83904,38.48244],[-120.82945,38.48251],[-120.82958,38.47852],[-120.8285,38.47776],[-120.82978,38.477],[-120.83139,38.47408],[-120.83534,38.47361],[-120.83431,38.47087],[-120.83635,38.4702],[-120.83742,38.47043],[-120.83837,38.47242],[-120.83936,38.47243],[-120.84069,38.47545],[-120.84198,38.47613],[-120.84215,38.47179],[-120.85009,38.47189],[-120.85035,38.47064],[-120.85118,38.47062],[-120.85268,38.46824],[-120.85353,38.46825],[-120.85357,38.4646],[-120.85648,38.46452],[-120.85406,38.46828],[-120.86848,38.46836],[-120.86863,38.46763],[-120.87361,38.46694],[-120.87431,38.46837],[-120.88128,38.46847],[-120.88105,38.47439],[-120.8827,38.47586],[-120.88564,38.47598],[-120.88557,38.47931],[-120.89032,38.47923]],[[-120.84138,38.48211],[-120.84108,38.48199],[-120.84129,38.4819],[-120.84138,38.48211]],[[-120.83033,38.41995],[-120.82243,38.42396],[-120.82237,38.42271],[-120.81783,38.42267],[-120.8173,38.42098],[-120.81785,38.41691],[-120.82218,38.41382],[-120.82877,38.41738],[-120.83033,38.41995]]],[[[-120.85513,38.48026],[-120.85465,38.47971],[-120.85484,38.48027],[-120.85513,38.48026]]]]}},{"type":"Feature","properties":{"GEOID":"0600591410","NAME":"Ione","COUNTY":"005"},"geometry":{"type":"MultiPolygon","coordinates":[[[[-121.0273,38.4677],[-121.0271,38.3003],[-120.9955,38.2254],[-120.9923,38.2253],[-120.9857,38.2214],[-120.9811,38.2218],[-120.9721,38.218],[-120.9675,38.2205],[-120.9633,38.2199],[-120.9621,38.2217],[-120.9578,38.2229],[-120.9534,38.2263],[-120.9355,38.2209],[-120.9255,38.2276],[-120.9149,38.23],[-120.9093,38.2275],[-120.9025,38.2223],[-120.8929,38.2216],[-120.8888,38.2276],[-120.884,38.2297],[-120.8808,38.2336],[-120.8801,38.2406],[-120.8754,38.2398],[-120.8745,38.242],[-120.8683,38.2451],[-120.8565,38.2478],[-120.8544,38.2499],[-120.8525,38.2557],[-120.8501,38.2573],[-120.8524,38.2582],[-120.8572,38.2656],[-120.8605,38.2662],[-120.8651,38.2693],[-120.8705,38.2775],[-120.87,38.2808],[-120.8716,38.2886],[-120.8653,38.2902],[-120.8633,38.289],[-120.861,38.291],[-120.8545,38.2917],[-120.8476,38.2911],[-120.8377,38.2953],[-120.8309,38.295],[-120.8296,38.306],[-120.833,38.3129],[-120.8325,38.3147],[-120.8367,38.3132],[-120.8386,38.3108],[-120.8404,38.3111],[-120.8429,38.3087],[-120.8499,38.3063],[-120.868,38.3098],[-120.886,38.3038],[-120.8947,38.3036],[-120.8961,38.3026],[-120.8964,38.2994],[-120.8982,38.2986],[-120.8992,38.2962],[-120.9007,38.2962],[-120.9037,38.2914],[-120.9109,38.2875],[-120.9174,38.2899],[-120.9216,38.2888],[-120.9247,38.2894],[-120.9385,38.2936],[-120.945,38.2917],[-120.9492,38.2923],[-120.9598,38.2976],[-120.9646,38.3037],[-120.9778,38.3071],[-120.9473,38.3129],[-120.9362,38.3208],[-120.9222,38.3236],[-120.8999,38.3324],[-120.8967,38.3372],[-120.8832,38.3438],[-120.8734,38.3426],[-120.8615,38.3444],[-120.8355,38.3525],[-120.82288223847841,38.35909136795903],[-120.8236,38.35884],[-120.82421,38.3606],[-120.82517,38.35912],[-120.82747,38.36048],[-120.82897,38.3633],[-120.83048,38.36396],[-120.83307,38.36332],[-120.83446,38.36445],[-120.83582,38.3635],[-120.84029,38.3713],[-120.8364,38.37191],[-120.82323,38.371],[-120.82255,38.37419],[-120.81791,38.37371],[-120.81791,38.37764],[-120.80857,38.37805],[-120.80855,38.38099],[-120.80676,38.38113],[-120.81018,38.38899],[-120.81081,38.38858],[-120.81138,38.39],[-120.81252,38.38978],[-120.81283,38.39106],[-120.81176,38.39121],[-120.81279,38.39345],[-120.80864,38.39485],[-120.81816,38.39471],[-120.81808,38.39595],[-120.81956,38.39778],[-120.81748,38.39633],[-120.81743,38.39508],[-120.81642,38.3953],[-120.8177946104924,38.3992372771961],[-120.8182,38.3992],[-120.8236,38.4045],[-120.8336,38.4068],[-120.84,38.4059],[-120.8507,38.4066],[-120.8538,38.4052],[-120.8608,38.4057],[-120.8687,38.4044],[-120.8737,38.4073],[-120.8797,38.4075],[-120.8825,38.4058],[-120.9023,38.4066],[-120.9084,38.4042],[-120.9014,38.4157],[-120.9001,38.4201],[-120.9021,38.4277],[-120.8998,38.4305],[-120.8992,38.4466],[-120.9137,38.4478],[-120.9192,38.4462],[-120.9352,38.4451],[-120.9546,38.4463],[-120.9641,38.4483],[-120.9639,38.4648],[-120.9729,38.4665],[-120.9931,38.4795],[-121.0033,38.4842],[-121.0273,38.4808],[-121.0273,38.4677]],[[-120.96709,38.35426],[-120.96654,38.35659],[-120.96111,38.35551],[-120.95888,38.36204],[-120.96468,38.36314],[-120.96439,38.36518],[-120.96058,38.36912],[-120.95961,38.36872],[-120.95765,38.37491],[-120.95193,38.37397],[-120.95142,38.37729],[-120.95205,38.38115],[-120.95092,38.38138],[-120.95041,38.38373],[-120.94389,38.38293],[-120.92859,38.3829],[-120.92879,38.36892],[-120.92717,38.36891],[-120.92714,38.36797],[-120.92879,38.36797],[-120.92876,38.355],[-120.92761,38.3552],[-120.92791,38.35355],[-120.92564,38.35237],[-120.9256,38.34908],[-120.92271,38.34672],[-120.92403,38.34672],[-120.92414,38.33942],[-120.92873,38.33952],[-120.9287,38.34046],[-120.93199,38.33972],[-120.93423,38.34041],[-120.9346,38.34137],[-120.93504,38.33807],[-120.94736,38.3382],[-120.94358,38.34182],[-120.94269,38.34543],[-120.94067,38.34641],[-120.9423,38.34655],[-120.94257,38.34569],[-120.94451,38.34477],[-120.94433,38.34766],[-120.94516,38.34615],[-120.94589,38.3477],[-120.95546,38.35021],[-120.95631,38.34793],[-120.96011,38.3486],[-120.95854,38.35389],[-120.9616,38.35464],[-120.96709,38.35426]]],[[[-120.8215690375129,38.35955126534358],[-120.8076,38.3609],[-120.7987,38.3651],[-120.7947,38.3652],[-120.8005,38.3733],[-120.80233323279924,38.37802409990575],[-120.80256,38.3783],[-120.80093,38.37375],[-120.80875,38.37403],[-120.81062,38.37271],[-120.81662,38.36785],[-120.81934,38.36424],[-120.82123,38.35967],[-120.8215690375129,38.35955126534358]]],[[[-120.81678963819095,38.39932968844221],[-120.81625,38.39934],[-120.81627989164981,38.399376561687376],[-120.81678963819095,38.39932968844221]]]]}},{"type":"Feature","properties":{"GEOID":"0600591430","NAME":"Jackson","COUNTY":"005"},"geometry":{"type":"Polygon","coordinates":[[[-120.9778,38.3071],[-120.9646,38.3037],[-120.9598,38.2976],[-120.9492,38.2923],[-120.945,38.2917],[-120.9385,38.2936],[-120.9247,38.2894],[-120.9216,38.2888],[-120.9174,38.2899],[-120.9109,38.2875],[-120.9037,38.2914],[-120.9007,38.2962],[-120.8992,38.2962],[-120.8982,38.2986],[-120.8964,38.2994],[-120.8961,38.3026],[-120.8947,38.3036],[-120.886,38.3038],[-120.868,38.3098],[-120.8499,38.3063],[-120.8429,38.3087],[-120.8404,38.3111],[-120.8386,38.3108],[-120.8367,38.3132],[-120.8325,38.3147],[-120.833,38.3129],[-120.8296,38.306],[-120.8309,38.295],[-120.8378,38.2953],[-120.8476,38.2911],[-120.8609,38.291],[-120.8633,38.289],[-120.8653,38.2902],[-120.8718,38.2883],[-120.87,38.2808],[-120.8705,38.2775],[-120.8651,38.2693],[-120.8605,38.2662],[-120.8572,38.2656],[-120.8524,38.2582],[-120.8501,38.2573],[-120.8468,38.2643],[-120.8432,38.2644],[-120.8348,38.2677],[-120.822,38.2755],[-120.8177,38.2835],[-120.8149,38.2838],[-120.8129,38.2818],[-120.8105,38.2816],[-120.8077,38.2887],[-120.8054,38.2879],[-120.8034,38.2889],[-120.7985,38.2856],[-120.7905,38.2886],[-120.7776,38.2877],[-120.7673,38.2903],[-120.7597,38.29],[-120.7549,38.2883],[-120.7503,38.2978],[-120.7383,38.3078],[-120.7319,38.3077],[-120.7208,38.3125],[-120.7147,38.3134],[-120.7126,38.3152],[-120.6882,38.3189],[-120.6858,38.3203],[-120.6831,38.3251],[-120.6768,38.3282],[-120.6749,38.3307],[-120.6722,38.3291],[-120.6653,38.3317],[-120.6565,38.3309],[-120.6516,38.334],[-120.6466,38.3346],[-120.6385,38.3408],[-120.6323,38.3398],[-120.6309,38.3411],[-120.6329,38.3404],[-120.637,38.3424],[-120.6409,38.3423],[-120.6368,38.344],[-120.6334,38.343],[-120.6364,38.3451],[-120.6407,38.3451],[-120.6364,38.3501],[-120.6369,38.353],[-120.6388,38.3537],[-120.64,38.3563],[-120.6423,38.3553],[-120.6419,38.3561],[-120.6453,38.3579],[-120.6467,38.3562],[-120.6501,38.3567],[-120.6506,38.3592],[-120.6485,38.3626],[-120.6489,38.3637],[-120.6538,38.3663],[-120.6575,38.3713],[-120.6684,38.3763],[-120.6714,38.3845],[-120.6783,38.3946],[-120.6778,38.3977],[-120.6708,38.4053],[-120.6697,38.4082],[-120.6716,38.4047],[-120.6768,38.4034],[-120.6796,38.4013],[-120.6814,38.4031],[-120.6864,38.402],[-120.6891,38.4041],[-120.6949,38.4053],[-120.7044,38.4026],[-120.7082,38.404],[-120.7179,38.4044],[-120.7408,38.398],[-120.7511,38.4013],[-120.7726,38.3888],[-120.7844,38.3856],[-120.7896,38.3827],[-120.79281950304735,38.38164360056259],[-120.79249,38.38126],[-120.79324,38.37986],[-120.79614,38.37881],[-120.79918,38.3761],[-120.79922,38.37849],[-120.80101,38.37889],[-120.80061,38.37782],[-120.80196,38.37757],[-120.80213393258427,38.377781617977526],[-120.8004,38.3731],[-120.7947,38.3652],[-120.7987,38.3651],[-120.8076,38.3609],[-120.8215690375129,38.35955126534358],[-120.82288223847841,38.35909136795903],[-120.8355,38.3525],[-120.8615,38.3444],[-120.8734,38.3426],[-120.8832,38.3438],[-120.8967,38.3372],[-120.8999,38.3324],[-120.9222,38.3236],[-120.9362,38.3208],[-120.9473,38.3129],[-120.9778,38.3071]],[[-120.79867,38.35936],[-120.797,38.36017],[-120.79574,38.3583],[-120.79043,38.35775],[-120.78935,38.35932],[-120.78964,38.36109],[-120.78823,38.36126],[-120.78963,38.36312],[-120.78587,38.36409],[-120.78606,38.36514],[-120.78468,38.36572],[-120.78304,38.36302],[-120.78073,38.36298],[-120.78074,38.36436],[-120.77873,38.36365],[-120.77803,38.36567],[-120.77682,38.3647],[-120.77772,38.36383],[-120.7755,38.36362],[-120.77589,38.36796],[-120.77745,38.36854],[-120.78102,38.37198],[-120.77742,38.37033],[-120.77559,38.37052],[-120.77475,38.368],[-120.77547,38.36796],[-120.77377,38.36771],[-120.77495,38.36735],[-120.77391,38.36565],[-120.77154,38.36513],[-120.77157,38.36296],[-120.76966,38.36294],[-120.76877,38.36612],[-120.76793,38.36659],[-120.76642,38.36605],[-120.76345,38.36649],[-120.76306,38.36512],[-120.76406,38.36172],[-120.76637,38.35944],[-120.76222,38.3594],[-120.76231,38.35454],[-120.75762,38.35891],[-120.7581,38.34793],[-120.75726,38.34668],[-120.75878,38.34618],[-120.75801,38.34524],[-120.75951,38.34419],[-120.75804,38.34285],[-120.75773,38.34134],[-120.75079,38.34038],[-120.75104,38.33392],[-120.75016,38.33387],[-120.75078,38.33135],[-120.75334,38.33215],[-120.75327,38.33468],[-120.75546,38.3344],[-120.75586,38.33346],[-120.75783,38.33381],[-120.75785,38.33042],[-120.7624,38.33042],[-120.76245,38.3373],[-120.77155,38.33544],[-120.77145,38.33017],[-120.78078,38.33012],[-120.78078,38.33754],[-120.78998,38.33746],[-120.78998,38.34501],[-120.77782,38.34483],[-120.7764,38.34851],[-120.78076,38.34859],[-120.7821,38.35126],[-120.78578,38.35145],[-120.79188,38.35378],[-120.79787,38.35465],[-120.79716,38.35745],[-120.79867,38.35936]]]}},{"type":"Feature","properties":{"GEOID":"0600592470","NAME":"Pine Grove-Silver Lake","COUNTY":"005"},"geometry":{"type":"Polygon","coordinates":[[[-120.6783,38.3948],[-120.6714,38.3845],[-120.6684,38.3763],[-120.6575,38.3713],[-120.6538,38.3663],[-120.6487,38.3634],[-120.6506,38.3592],[-120.6502,38.3568],[-120.6467,38.3562],[-120.6453,38.3579],[-120.6419,38.3561],[-120.6423,38.3553],[-120.64,38.3563],[-120.6388,38.3537],[-120.6369,38.353],[-120.6364,38.3501],[-120.6407,38.3451],[-120.6364,38.3451],[-120.6334,38.343],[-120.6368,38.344],[-120.6409,38.3423],[-120.637,38.3424],[-120.6326,38.3404],[-120.6306,38.3423],[-120.6318,38.346],[-120.6292,38.3504],[-120.6283,38.3554],[-120.6244,38.3575],[-120.6197,38.3577],[-120.6174,38.3626],[-120.6185,38.3665],[-120.612,38.3687],[-120.6101,38.3707],[-120.6106,38.372],[-120.6146,38.3728],[-120.6171,38.3782],[-120.6141,38.3825],[-120.6151,38.3891],[-120.6105,38.3916],[-120.6081,38.398],[-120.6014,38.3997],[-120.5901,38.3993],[-120.5814,38.4016],[-120.5743,38.4018],[-120.5706,38.4074],[-120.5723,38.4125],[-120.5716,38.4139],[-120.56,38.4151],[-120.5523,38.4183],[-120.5503,38.4203],[-120.5408,38.4231],[-120.5376,38.4185],[-120.5301,38.4189],[-120.5279,38.4224],[-120.5232,38.4227],[-120.5201,38.4272],[-120.5153,38.4293],[-120.5084,38.4371],[-120.5049,38.4391],[-120.5051,38.4442],[-120.4981,38.4444],[-120.4998,38.4476],[-120.4954,38.4496],[-120.4938,38.447],[-120.486,38.4456],[-120.4748,38.4483],[-120.4702,38.4475],[-120.4677,38.4488],[-120.4614,38.4462],[-120.4565,38.4495],[-120.4522,38.4501],[-120.4485,38.4525],[-120.4478,38.4561],[-120.4428,38.4625],[-120.4316,38.4672],[-120.4239,38.4732],[-120.4147,38.4731],[-120.4124,38.4687],[-120.4074,38.4691],[-120.4003,38.4668],[-120.3881,38.4667],[-120.3864,38.466],[-120.3845,38.462],[-120.3807,38.461],[-120.3649,38.4666],[-120.3536,38.4655],[-120.3381,38.4674],[-120.331,38.4652],[-120.3191,38.471],[-120.3046,38.4721],[-120.2948,38.4772],[-120.2886,38.4771],[-120.2833,38.4754],[-120.2691,38.4778],[-120.2599,38.4867],[-120.2546,38.4877],[-120.2409,38.4854],[-120.2355,38.4899],[-120.226,38.4907],[-120.2174,38.4977],[-120.2094,38.5008],[-120.2057,38.501],[-120.1806,38.4956],[-120.1692,38.4963],[-120.1643,38.4942],[-120.1467,38.4953],[-120.1425,38.498],[-120.1394,38.4983],[-120.1234,38.496],[-120.1115,38.4985],[-120.1083,38.5037],[-120.1034,38.5054],[-120.1003,38.504],[-120.0922,38.5075],[-120.0894,38.5064],[-120.0828,38.5083],[-120.08,38.5074],[-120.0725,38.5099],[-120.0723,38.693],[-120.0733,38.7011],[-120.0724,38.7028],[-120.0794,38.7004],[-120.0825,38.7006],[-120.0824,38.702],[-120.0777,38.7021],[-120.0776,38.7089],[-120.0983,38.709],[-120.0984,38.704],[-120.1044,38.7061],[-120.112,38.705],[-120.1176,38.6986],[-120.1225,38.6954],[-120.1243,38.6903],[-120.1234,38.6869],[-120.1167,38.6798],[-120.1231,38.6667],[-120.1285,38.6651],[-120.1322,38.6603],[-120.1351,38.6545],[-120.1314,38.6498],[-120.1401,38.6384],[-120.1454,38.6397],[-120.1501,38.6374],[-120.1524,38.6379],[-120.1538,38.6355],[-120.1581,38.6332],[-120.1718,38.6324],[-120.1786,38.6338],[-120.1913,38.6312],[-120.1971,38.6292],[-120.1977,38.6258],[-120.2018,38.6247],[-120.2034,38.6252],[-120.2047,38.6277],[-120.2143,38.6291],[-120.2157,38.6268],[-120.2146,38.6236],[-120.2207,38.6214],[-120.2271,38.6106],[-120.2237,38.6043],[-120.2287,38.6008],[-120.2326,38.6],[-120.2332,38.5964],[-120.2318,38.5922],[-120.2338,38.5883],[-120.2392,38.586],[-120.2432,38.5864],[-120.251,38.5844],[-120.2538,38.582],[-120.2619,38.5792],[-120.2664,38.5735],[-120.2666,38.5677],[-120.2745,38.5595],[-120.2783,38.5597],[-120.2839,38.557],[-120.2896,38.5561],[-120.2976,38.5568],[-120.2992,38.5561],[-120.2989,38.5521],[-120.3017,38.5491],[-120.3179,38.545],[-120.325,38.5462],[-120.3284,38.5452],[-120.3313,38.5477],[-120.3387,38.5469],[-120.3545,38.5481],[-120.3639,38.5444],[-120.3773,38.5446],[-120.3808,38.5429],[-120.3837,38.5387],[-120.3887,38.5406],[-120.3962,38.5391],[-120.3988,38.5373],[-120.4036,38.5368],[-120.4136,38.531],[-120.4246,38.5303],[-120.4337,38.5267],[-120.4389,38.5289],[-120.4413,38.5285],[-120.4475,38.5222],[-120.4559,38.5193],[-120.4641,38.5141],[-120.4715,38.5157],[-120.4777,38.5141],[-120.4821,38.5145],[-120.5015,38.5079],[-120.5086,38.5081],[-120.5162,38.505],[-120.5186,38.5063],[-120.5246,38.5021],[-120.5315,38.5037],[-120.5449,38.5005],[-120.5502,38.5012],[-120.5552,38.5001],[-120.5723,38.4952],[-120.5815,38.4939],[-120.5878,38.4894],[-120.6158,38.4819],[-120.6261,38.4774],[-120.6275,38.4755],[-120.6227,38.467],[-120.6237,38.4654],[-120.6227,38.4631],[-120.6239,38.4614],[-120.6192,38.458],[-120.619,38.4546],[-120.6203,38.4536],[-120.6183,38.4531],[-120.6179,38.4516],[-120.6192,38.4473],[-120.6286,38.4439],[-120.6314,38.4426],[-120.6308,38.4417],[-120.632,38.4406],[-120.6346,38.4406],[-120.6398,38.438],[-120.6445,38.4397],[-120.6471,38.4385],[-120.6513,38.4394],[-120.6528,38.4376],[-120.6574,38.436],[-120.673,38.4373],[-120.6742,38.4352],[-120.6732,38.4336],[-120.6759,38.4315],[-120.6734,38.4299],[-120.6731,38.4258],[-120.6741,38.4236],[-120.6754,38.4239],[-120.6769,38.4223],[-120.6745,38.4179],[-120.6749,38.4142],[-120.6768,38.4136],[-120.6673,38.4128],[-120.6705,38.4056],[-120.6778,38.3976],[-120.6783,38.3948]]]}}]}