{"type":"FeatureCollection","features":[{"type":"Feature","properties":{"GEOID":"0601390270","NAME":"Briones","COUNTY":"013"},"geometry":{"type":"MultiPolygon","coordinates":[[[[-122.27936,37.91961],[-122.27861221649485,37.91876587628866],[-122.2777,37.9178],[-122.2763,37.918],[-122.2755,37.9162],[-122.27536430733412,37.91612493597206],[-122.27222,37.91508],[-122.27085,37.91365],[-122.27086409546132,37.91363545706371],[-122.2708,37.9136],[-122.2725,37.9119],[-122.2664,37.9075],[-122.268,37.9065],[-122.2676,37.9042],[-122.2639,37.9037],[-122.2608,37.8997],[-122.2569,37.8998],[-122.2559,37.896],[-122.2537,37.8962],[-122.253,37.8939],[-122.2502,37.8934],[-122.2491,37.8911],[-122.2463,37.893],[-122.2445,37.8923],[-122.2422,37.8933],[-122.2442,37.8966],[-122.2503,37.9006],[-122.2442,37.9049],[-122.2357,37.8993],[-122.2299,37.8982],[-122.2272,37.8998],[-122.2229,37.8983],[-122.2227,37.8993],[-122.2201,37.8993],[-122.2193,37.8977],[-122.2169,37.9002],[-122.2107,37.8993],[-122.2106232525704,37.89935542869915],[-122.21079,37.8995],[-122.20862181818181,37.90080090909091],[-122.20737372739646,37.90170230799144],[-122.21142,37.90145],[-122.21409,37.9039],[-122.21055214838972,37.90578366693844],[-122.2111,37.9064],[-122.21105555219364,37.907111164901664],[-122.21113,37.90725],[-122.21103993954051,37.90736096735188],[-122.211,37.908],[-122.2104553261137,37.90808129460989],[-122.21001,37.90863],[-122.20778556772161,37.9084797660117],[-122.2043,37.909],[-122.2006,37.9143],[-122.2001,37.9175],[-122.1962,37.922],[-122.1847,37.9192],[-122.1712,37.9183],[-122.1652,37.9204],[-122.1627,37.9258],[-122.1521,37.9286],[-122.1492,37.9308],[-122.1482,37.9337],[-122.1421,37.935],[-122.1408,37.9373],[-122.1375,37.938],[-122.1383,37.9392],[-122.1342,37.9461],[-122.1355,37.9464],[-122.1349,37.9478],[-122.1364,37.9496],[-122.135,37.9535],[-122.1353,37.9562],[-122.1382,37.9583],[-122.1352,37.9575],[-122.1333,37.9583],[-122.1322,37.9625],[-122.1262,37.9668],[-122.1261,37.9726],[-122.1275,37.9738],[-122.12517351507451,37.9793146309345],[-122.12574,37.9791],[-122.12716,37.97513],[-122.13036,37.977],[-122.13575,37.97759],[-122.13488,37.97533],[-122.13538,37.97412],[-122.13429,37.97302],[-122.13493,37.96888],[-122.13582,37.96765],[-122.13755,37.96781],[-122.13817,37.96598],[-122.14017,37.96695],[-122.14025,37.96526],[-122.14177,37.96528],[-122.1417,37.96332],[-122.14367,37.96281],[-122.14372,37.9651],[-122.14797,37.96566],[-122.14778,37.96743],[-122.14858,37.96743],[-122.14784,37.96843],[-122.14875,37.9689],[-122.1478,37.97036],[-122.14902,37.97054],[-122.14877,37.97124],[-122.14991,37.97188],[-122.14726,37.97224],[-122.14898,37.97269],[-122.14886,37.97328],[-122.14794,37.97386],[-122.147,37.97283],[-122.14543,37.97454],[-122.14108,37.97454],[-122.14061,37.97176],[-122.1406,37.97262],[-122.13982,37.97262],[-122.13962,37.98763],[-122.14319,37.98792],[-122.14495,37.98939],[-122.1454,37.99051],[-122.14464,37.99133],[-122.14555,37.99277],[-122.14533,37.99375],[-122.14443,37.99387],[-122.14592,37.99674],[-122.14533132420586,37.99699410465934],[-122.1479,38.0005],[-122.1563,38.0052],[-122.1658,38.0067],[-122.179,38.0156],[-122.1887,38.0162],[-122.2051,38.0089],[-122.2138172012229,38.007136970539186],[-122.20966,38.00761],[-122.20962,37.99617],[-122.23105,37.99639],[-122.23191,37.99395],[-122.22823,37.99263],[-122.23075,37.98765],[-122.23389,37.98576],[-122.236,37.98341],[-122.23600953839087,37.98340592742861],[-122.236,37.9834],[-122.2272,37.985],[-122.2265,37.9862],[-122.2218,37.9859],[-122.205,37.9647],[-122.21,37.9687],[-122.2149,37.9704],[-122.2214,37.9705],[-122.2237,37.9728],[-122.2312,37.9751],[-122.2374,37.9721],[-122.2432,37.9711],[-122.2431,37.9679],[-122.2464,37.9642],[-122.24695323256431,37.96418372845399],[-122.24708,37.9638],[-122.24345,37.95766],[-122.24757,37.95482],[-122.25186,37.96017],[-122.2527,37.96],[-122.25478,37.96335],[-122.25528439220042,37.96323625323954],[-122.26060662677149,37.96128612148831],[-122.26317,37.95937],[-122.26599,37.95928],[-122.26743,37.958],[-122.26273,37.95655],[-122.26152,37.95696],[-122.2597,37.95517],[-122.26031,37.9547],[-122.26417,37.95606],[-122.26671,37.95518],[-122.26867,37.95709],[-122.27014,37.95593],[-122.27037003130921,37.9560764875999],[-122.2706,37.9559],[-122.2719,37.9532],[-122.27180790022338,37.9530642740134],[-122.27142,37.95289],[-122.26966,37.95006],[-122.26974221867518,37.950020111731845],[-122.26943364060072,37.94956536509581],[-122.26932,37.94962],[-122.26915335031848,37.94915230573248],[-122.26813242964162,37.94764779105082],[-122.26748,37.94786],[-122.26611839285714,37.94707707589286],[-122.26090556925308,37.94570146966401],[-122.26089,37.9457],[-122.27106,37.93981],[-122.26051164948454,37.92747901030928],[-122.2546,37.9206],[-122.25462831997827,37.92060141599892],[-122.25461,37.92058],[-122.27061,37.92138],[-122.27062557692308,37.922039423076924],[-122.2707,37.9239],[-122.272925,37.92280158227848],[-122.27936,37.91961]]],[[[-122.25367286679982,38.01420187125518],[-122.24808831776389,38.008698052960646],[-122.24422571428572,38.00805428571429],[-122.2391,38.00722],[-122.23874660194174,38.006745631067965],[-122.2377,38.0054],[-122.23773227367987,38.005384090439506],[-122.2365,38.00373],[-122.23489,38.00449],[-122.2333,38.00236],[-122.23114,38.00212],[-122.22981774357899,38.010270625401105],[-122.2421,38.015],[-122.25367286679982,38.01420187125518]]],[[[-122.22925018168516,38.01005208145348],[-122.22757,38.00905],[-122.22540010366723,38.00856958014773],[-122.22925018168516,38.01005208145348]]],[[[-122.2236512784091,38.008182386363636],[-122.22215,38.00785],[-122.21423,38.00709],[-122.21407157223027,38.00710802679218],[-122.2236512784091,38.008182386363636]]]]}},{"type":"Feature","properties":{"GEOID":"0601393310","NAME":"Tassajara","COUNTY":"013"},"geometry":{"type":"MultiPolygon","coordinates":[[[[-121.952,37.8325],[-121.9494856329077,37.83126956503994],[-121.93687576241649,37.82753602817311],[-121.9293,37.8256],[-121.9212,37.8217],[-121.9211260926771,37.81733946794881],[-121.9211,37.81734],[-121.92112494346311,37.8172716643237],[-121.9211,37.8158],[-121.9235,37.81],[-121.9233,37.8052],[-121.9213,37.8009],[-121.92155506335462,37.799344113536826],[-121.91401,37.79845],[-121.90998,37.79905],[-121.90625,37.79811],[-121.9054,37.79936],[-121.90372,37.7998],[-121.89607,37.79988],[-121.89613,37.78864],[-121.8916,37.78862],[-121.8916,37.78137],[-121.90066,37.7814],[-121.87811,37.78127],[-121.87849,37.77811],[-121.87698,37.77574],[-121.87701,37.77336],[-121.87898,37.77187],[-121.88002,37.76932],[-121.87915,37.76873],[-121.87919,37.76753],[-121.881,37.76536],[-121.88115,37.75863],[-121.87962,37.75755],[-121.88285,37.75285],[-121.8826,37.74543],[-121.88336,37.74236],[-121.88513,37.74268],[-121.8885,37.74138],[-121.89717,37.74746],[-121.91344,37.74745],[-121.9148,37.74388],[-121.91192,37.73466],[-121.90996,37.7323],[-121.91013721347095,37.730488484519284],[-121.6973,37.7824],[-121.6939,37.7919],[-121.6888,37.7932],[-121.685,37.7964],[-121.677,37.7982],[-121.6752,37.8033],[-121.6727,37.8061],[-121.6636,37.8122],[-121.6609,37.8165],[-121.6557,37.8196],[-121.6544,37.833],[-121.6471,37.8388],[-121.6467,37.8488],[-121.653,37.8565],[-121.6779,37.8713],[-121.6898,37.8841],[-121.6951,37.8874],[-121.6965,37.8875],[-121.6966,37.8801],[-121.6984,37.8747],[-121.7104,37.8772],[-121.7204,37.8757],[-121.733,37.8706],[-121.7424,37.8708],[-121.7462,37.8695],[-121.7548,37.871],[-121.7672,37.8779],[-121.7761,37.8812],[-121.7773,37.882],[-121.7758,37.886],[-121.7663,37.8944],[-121.7668,37.8971],[-121.7647,37.8988],[-121.7634,37.9073],[-121.765,37.9087],[-121.766,37.9138],[-121.7727,37.9152],[-121.7789,37.9184],[-121.7771,37.9298],[-121.77720474333466,37.930230611486934],[-121.77862,37.92085],[-121.78496,37.9219],[-121.80541,37.92938],[-121.80545,37.93224],[-121.81338,37.93216],[-121.824,37.93537],[-121.82404,37.9389],[-121.8054,37.93941],[-121.82405,37.93935],[-121.82394,37.95123],[-121.82095,37.95288],[-121.82405,37.95459],[-121.82174,37.96309],[-121.82255,37.96574],[-121.83352,37.96573],[-121.83759,37.96767],[-121.8376,37.96862],[-121.85127,37.96872],[-121.85128,37.98319],[-121.85467199291539,37.98317893915354],[-121.8555,37.9813],[-121.8618,37.9761],[-121.8636,37.9684],[-121.863,37.9591],[-121.8655,37.9561],[-121.8693,37.9564],[-121.8695,37.9576],[-121.8744,37.9561],[-121.8825,37.9584],[-121.8842,37.9648],[-121.8942,37.972],[-121.8989,37.9829],[-121.9009,37.9792],[-121.9106,37.9749],[-121.9104,37.9698],[-121.913,37.9676],[-121.9144,37.9627],[-121.9215,37.9603],[-121.9237,37.9607],[-121.926,37.9586],[-121.9248,37.9581],[-121.9246,37.9555],[-121.91822891207154,37.95524515648286],[-121.91462,37.95514],[-121.91461972707019,37.955100789082806],[-121.9146,37.9551],[-121.9144011095062,37.92496809019022],[-121.91171,37.92439],[-121.91176535656402,37.924000197528365],[-121.8976,37.9197],[-121.8921,37.9157],[-121.8822,37.9121],[-121.8763,37.9084],[-121.8742,37.906],[-121.8723,37.8968],[-121.8734,37.8919],[-121.8674,37.8877],[-121.8666,37.8834],[-121.87,37.875],[-121.8743,37.8735],[-121.8744,37.8689],[-121.8829,37.8647],[-121.8846,37.8625],[-121.8938,37.8589],[-121.8965,37.8599],[-121.9009,37.8588],[-121.9025,37.8573],[-121.9109,37.8575],[-121.911,37.8461],[-121.8934,37.8461],[-121.896,37.8382],[-121.9211,37.843],[-121.9229,37.8408],[-121.9269,37.8428],[-121.9323,37.8415],[-121.9338,37.844],[-121.9371,37.8444],[-121.9388,37.8411],[-121.9407,37.8419],[-121.9403,37.8432],[-121.9438,37.8419],[-121.9461,37.8433],[-121.9479,37.8422],[-121.9499,37.8441],[-121.9496,37.8412],[-121.9475,37.8404],[-121.9516,37.8352],[-121.952,37.8325]]],[[[-121.78724,37.93968],[-121.78722,37.93249],[-121.778,37.93313],[-121.77781927251732,37.932757009237875],[-121.778,37.9335],[-121.7737,37.9388],[-121.77368420154144,37.93973210905503],[-121.78724,37.93968]]]]}},{"type":"Feature","properties":{"GEOID":"0601393620","NAME":"West Contra Costa","COUNTY":"013"},"geometry":{"type":"MultiPolygon","coordinates":[[[[-122.4416,37.9724],[-122.44142479230676,37.96801980766916],[-122.37833,37.9678],[-122.37833,37.96579],[-122.37626,37.96581],[-122.37597,37.95654],[-122.37816,37.95639],[-122.37814,37.95405],[-122.3702,37.95405],[-122.37222,37.95042],[-122.36888,37.95039],[-122.36886,37.95404],[-122.36946,37.95405],[-122.36889,37.95472],[-122.35988,37.95474],[-122.35809,37.97374],[-122.36232,37.97398],[-122.36272,37.9686],[-122.36523,37.9686],[-122.36522,37.97259],[-122.37217,37.97255],[-122.3732,37.97143],[-122.4398,37.9707],[-122.43988,37.97395],[-122.38976,38.02814],[-122.33102,38.00378],[-122.39137838422916,38.02881932970673],[-122.3928,38.027],[-122.4416,37.9739],[-122.4416,37.9724]],[[-122.36688,37.96056],[-122.36683,37.962],[-122.36477,37.962],[-122.36476,37.9605],[-122.36688,37.96056]]],[[[-122.44101201970443,37.95770049261084],[-122.441,37.9574],[-122.4323,37.9298],[-122.3738,37.8837],[-122.3128,37.8973],[-122.30444955221387,37.89811967585631],[-122.30541,37.89816],[-122.31298,37.89732],[-122.37378,37.88373],[-122.43228,37.92982],[-122.44098,37.95742],[-122.44101201970443,37.95770049261084]]],[[[-122.3911709090909,38.02908484848485],[-122.39078,38.02958],[-122.37666,38.0476],[-122.37598,38.04847],[-122.34745,38.07326],[-122.27688,38.06125],[-122.27574,38.03595],[-122.25367286679982,38.01420187125518],[-122.2421,38.015],[-122.22981774357899,38.010270625401105],[-122.2298,38.01038],[-122.22925018168516,38.01005208145348],[-122.22540010366723,38.00856958014773],[-122.2236512784091,38.008182386363636],[-122.21407157223027,38.00710802679218],[-122.2138172012229,38.007136970539186],[-122.2051,38.0089],[-122.1887,38.0162],[-122.1776,38.0151],[-122.1795,38.0215],[-122.1831,38.0257],[-122.1869,38.026],[-122.1878,38.0294],[-122.191,38.031],[-122.195,38.0363],[-122.1924,38.0411],[-122.1887,38.042],[-122.1838,38.0409],[-122.1825,38.0393],[-122.1835,38.0386],[-122.1808,38.0381],[-122.1794,38.0357],[-122.1747,38.036],[-122.1743,38.0346],[-122.1676,38.0367],[-122.1761,38.0478],[-122.1839,38.054],[-122.2008,38.0579],[-122.2453,38.064],[-122.2653,38.0599],[-122.3475,38.0733],[-122.376,38.0485],[-122.3911709090909,38.02908484848485]]],[[[-122.35861,37.95045],[-122.34741,37.95032],[-122.35857449933579,37.9508097586996],[-122.35861,37.95045]]],[[[-122.34195619604834,37.97605595242663],[-122.33833,37.98156],[-122.34125,37.97796],[-122.34195619604834,37.97605595242663]]],[[[-122.33856,37.99584],[-122.33795,37.99447],[-122.3349,37.99468],[-122.33155,37.99085],[-122.33006,37.99219],[-122.32747,37.99102],[-122.32688,37.99178],[-122.31569341718337,37.985821784478446],[-122.31373,37.98901],[-122.31386,37.9903],[-122.30729,37.99283],[-122.31203,37.9985],[-122.31417,37.99742],[-122.31534,37.99783],[-122.3152,37.99705],[-122.316,37.99698],[-122.31865,38.00171],[-122.31665,38.0026],[-122.31767,38.00323],[-122.31456,38.00421],[-122.31334,38.01138],[-122.3164,38.01209],[-122.32455,38.00675],[-122.33102,38.00378],[-122.32902,38.00051],[-122.33714,37.99887],[-122.33612,37.99648],[-122.33856,37.99584]]],[[[-122.33701,37.96365],[-122.3295,37.96299],[-122.32313,37.96643],[-122.32446,37.96536],[-122.32374,37.96324],[-122.31959143319725,37.96380350556103],[-122.32016,37.96555],[-122.32223,37.96529],[-122.32103,37.96608],[-122.3224,37.96767],[-122.33398,37.96636],[-122.33701,37.967765361842105],[-122.33701,37.96365]]],[[[-122.32605,37.95489],[-122.32208,37.952],[-122.3244,37.95385],[-122.31875,37.95404],[-122.31803,37.95493],[-122.31861,37.95667],[-122.31958,37.95686],[-122.3196,37.95562],[-122.32054,37.95674],[-122.31793,37.9587],[-122.31846858043913,37.96035438386013],[-122.32317,37.95967],[-122.32274,37.95833],[-122.32605,37.95855],[-122.32605,37.95489]]],[[[-122.32286,37.94971],[-122.32095,37.94801],[-122.31685041556452,37.93831098316482],[-122.30358,37.9382],[-122.30357570252296,37.93819592103874],[-122.30319,37.93912],[-122.3076,37.94273],[-122.31161,37.94408],[-122.31217,37.94492],[-122.31131,37.9456],[-122.31136,37.94882],[-122.3096,37.94812],[-122.30952,37.95166],[-122.308,37.95166],[-122.30811,37.95267],[-122.31141,37.95267],[-122.31139,37.95141],[-122.31607,37.95281],[-122.31631,37.95097],[-122.32059,37.95181],[-122.32209,37.95136],[-122.32286,37.94971]]],[[[-122.31898,37.96478],[-122.31675,37.95908],[-122.31557,37.9594],[-122.31599,37.96085],[-122.3147,37.9614],[-122.31231,37.96088],[-122.31231,37.96001],[-122.30827,37.96002],[-122.30826,37.96305],[-122.30598,37.96358],[-122.30285,37.9634],[-122.30273,37.9621],[-122.30116,37.96218],[-122.30004,37.96227],[-122.29986,37.96305],[-122.29677,37.96333],[-122.29658,37.96415],[-122.29604,37.96383],[-122.29657,37.96227],[-122.29381,37.9611],[-122.29239,37.96145],[-122.29146,37.96413],[-122.29458,37.96448],[-122.29286,37.966],[-122.29377,37.9659],[-122.29378,37.9686],[-122.29568,37.9679],[-122.29754,37.96855],[-122.2965,37.96747],[-122.29813,37.96568],[-122.30014,37.96683],[-122.2997,37.96815],[-122.30182,37.96753],[-122.30227,37.96841],[-122.29653,37.97279],[-122.2982,37.97417],[-122.29609,37.97658],[-122.29384,37.97484],[-122.29127,37.97798],[-122.29038,37.97716],[-122.28603,37.97847],[-122.28335,37.97539],[-122.27459877992625,37.978114989286354],[-122.27886,37.98062],[-122.27886,37.98238],[-122.28091,37.9836],[-122.28232,37.98341],[-122.28195,37.98204],[-122.28391,37.98199],[-122.2839,37.98317],[-122.28767,37.98336],[-122.28848,37.9843],[-122.28623,37.98675],[-122.28838,37.988],[-122.28874,37.98727],[-122.29071,37.98724],[-122.29072,37.98938],[-122.29134,37.98958],[-122.29199,37.98964],[-122.29201,37.98886],[-122.29369,37.98903],[-122.29186,37.98796],[-122.29184,37.98632],[-122.29458,37.98735],[-122.29585,37.98622],[-122.29607,37.98696],[-122.29952,37.98577],[-122.30047,37.98588],[-122.30096,37.98956],[-122.30758,37.98946],[-122.30833,37.98852],[-122.30745,37.98779],[-122.31187952899327,37.983790425288234],[-122.31002,37.9828],[-122.30922,37.98281],[-122.30922,37.98375],[-122.30753,37.98375],[-122.30749,37.98143],[-122.30914,37.97966],[-122.30788,37.97711],[-122.31384,37.97633],[-122.3138,37.96811],[-122.3121,37.9681],[-122.3139,37.96745],[-122.31427,37.96556],[-122.31706,37.96563],[-122.31898,37.96478]]],[[[-122.31176,37.91599],[-122.30432,37.90441],[-122.30525,37.90645],[-122.31176,37.91599]]],[[[-122.30884204103671,37.90109679805616],[-122.30863,37.90091],[-122.30705,37.9025],[-122.30884204103671,37.90109679805616]]],[[[-122.29626595054211,37.89886243650676],[-122.29421152506755,37.898532713899726],[-122.29598,37.89893],[-122.29626595054211,37.89886243650676]]],[[[-122.29476,38.01336],[-122.29078,38.00862],[-122.2907179347101,38.008613774014805],[-122.29476,38.01336]]],[[[-122.29104,37.90415],[-122.28863,37.90356],[-122.28817,37.89784],[-122.28884458646617,37.89767135338346],[-122.2884,37.8976],[-122.2836,37.9],[-122.2788,37.9007],[-122.2773,37.9017],[-122.2779,37.9031],[-122.2736,37.9051],[-122.2711,37.9058],[-122.2715,37.9049],[-122.2703,37.9044],[-122.2676,37.9042],[-122.268,37.9065],[-122.2664,37.9075],[-122.2725,37.9119],[-122.2708,37.9136],[-122.27085874066168,37.91364098185699],[-122.27337,37.91105],[-122.27793,37.91474],[-122.27907,37.91689],[-122.2867,37.92425],[-122.28112,37.91874],[-122.28255,37.9189],[-122.28908,37.91425],[-122.28718,37.90991],[-122.28906,37.90908],[-122.28846,37.90562],[-122.29104,37.90415]]],[[[-122.29078,37.96138],[-122.2888,37.96105],[-122.28666,37.95907],[-122.28263,37.95773],[-122.28032,37.95516],[-122.27832,37.95647],[-122.27711,37.95554],[-122.27924,37.95394],[-122.2773,37.95177],[-122.27611,37.95128],[-122.2728,37.95351],[-122.27180790022338,37.9530642740134],[-122.2719,37.9532],[-122.27033485547757,37.9560540870703],[-122.27215,37.95721],[-122.2716,37.95834],[-122.27244,37.9589],[-122.27575,37.96001],[-122.27727,37.95949],[-122.27903,37.96046],[-122.2779,37.96148],[-122.27856,37.96244],[-122.27726,37.96478],[-122.2755,37.96565],[-122.27174,37.96548],[-122.27158,37.96607],[-122.27413,37.96752],[-122.27681,37.96821],[-122.27653,37.96672],[-122.27936,37.96722],[-122.27921,37.96561],[-122.28167,37.96543],[-122.28207,37.96597],[-122.28044,37.96744],[-122.28316,37.96849],[-122.28367,37.96703],[-122.28442,37.96824],[-122.28817,37.9641],[-122.28955,37.9649],[-122.29066,37.96342],[-122.29,37.96313],[-122.29078,37.96138]]],[[[-122.28909983220109,38.00845145652174],[-122.28759,38.0083],[-122.2847,38.00945],[-122.28909983220109,38.00845145652174]]],[[[-122.27927208140305,37.91951075446724],[-122.27773,37.91777],[-122.27693993836978,37.91788367793241],[-122.27927208140305,37.91951075446724]]],[[[-122.27600612682741,37.9172321815075],[-122.27553,37.91618],[-122.27355927692308,37.915525076923075],[-122.27600612682741,37.9172321815075]]],[[[-122.27367807692308,37.922428076923076],[-122.2707,37.9239],[-122.27062557692308,37.922039423076924],[-122.27067,37.92392],[-122.27367807692308,37.922428076923076]]],[[[-122.27168,37.94908],[-122.2714,37.94862],[-122.26943364060072,37.94956536509581],[-122.26974221867518,37.950020111731845],[-122.27168,37.94908]]],[[[-122.27081,37.94764],[-122.27037,37.94692],[-122.26813242964162,37.94764779105082],[-122.26915335031848,37.94915230573248],[-122.26901,37.94875],[-122.27081,37.94764]]],[[[-122.26743,37.958],[-122.26727093590597,37.95795092703482],[-122.26484825391051,37.95931643870498],[-122.26599,37.95928],[-122.26743,37.958]]],[[[-122.2671564534273,37.992548469565044],[-122.26507,37.99187],[-122.25954,37.99176],[-122.2671564534273,37.992548469565044]]],[[[-122.26611839285714,37.94707707589286],[-122.26428,37.94602],[-122.26090556925308,37.94570146966401],[-122.26611839285714,37.94707707589286]]],[[[-122.26068719727785,37.97294750618001],[-122.25697,37.96964],[-122.25342,37.96989],[-122.25006,37.96725],[-122.24634,37.96604],[-122.24698162371689,37.96409778766779],[-122.2462,37.9642],[-122.2431,37.9679],[-122.2432,37.9711],[-122.2374,37.9721],[-122.2312,37.9751],[-122.2237,37.9728],[-122.2214,37.9705],[-122.2149,37.9704],[-122.21,37.9687],[-122.205,37.9647],[-122.2218,37.9859],[-122.2265,37.9862],[-122.2272,37.985],[-122.236,37.9834],[-122.23600953839087,37.98340592742861],[-122.23778,37.98265],[-122.23943,37.98352],[-122.2431,37.98305],[-122.24353,37.982],[-122.24561,37.98158],[-122.24787,37.98199],[-122.2478,37.98353],[-122.25003,37.98317],[-122.25082,37.98146],[-122.2562,37.98123],[-122.25729,37.97849],[-122.25581,37.9779],[-122.25616,37.97718],[-122.25764,37.97762],[-122.25791,37.97694],[-122.25608,37.97695],[-122.2561,37.97514],[-122.26028,37.97288],[-122.26068719727785,37.97294750618001]]],[[[-122.26051164948454,37.92747901030928],[-122.25462831997827,37.92060141599892],[-122.2546,37.9206],[-122.26051164948454,37.92747901030928]]],[[[-122.25765091547993,37.962702572591084],[-122.25462379900607,37.96309842628382],[-122.25478,37.96335],[-122.25765091547993,37.962702572591084]]],[[[-122.24808831776389,38.008698052960646],[-122.24807,38.00868],[-122.24422571428572,38.00805428571429],[-122.24808831776389,38.008698052960646]]],[[[-122.23874660194174,38.006745631067965],[-122.23773227367987,38.005384090439506],[-122.2377,38.0054],[-122.23874660194174,38.006745631067965]]]]}},{"type":"Feature","properties":{"GEOID":"0601390080","NAME":"Antioch-Pittsburg","COUNTY":"013"},"geometry":{"type":"MultiPolygon","coordinates":[[[[-121.9883,38.0466],[-121.9878,38.0361],[-121.9779,38.0332],[-121.9725,38.0291],[-121.9621,38.0254],[-121.9658,38.0231],[-121.9479,38.0191],[-121.9419,38.0191],[-121.94160771517554,38.01553412514156],[-121.94023,38.0158],[-121.93947,38.01738],[-121.93993,38.01809],[-121.93876,38.01847],[-121.93478,38.016],[-121.93276,38.01676],[-121.93278,38.01858],[-121.92763,38.01872],[-121.92774,38.02533],[-121.92681,38.02534],[-121.92693,38.02662],[-121.93286,38.02664],[-121.93277,38.02997],[-121.93121,38.03062],[-121.92852,38.02993],[-121.92882,38.04713],[-121.92651073841412,38.04686173995496],[-121.9354,38.0488],[-121.9509,38.0539],[-121.9509,38.055],[-121.9557,38.0578],[-121.9723,38.0655],[-121.9774,38.0668],[-121.9876,38.0668],[-121.9883,38.0466]]],[[[-121.9513,37.9871],[-121.9391,37.9799],[-121.9391,37.9716],[-121.93923666348904,37.971219294566254],[-121.94044,37.96648],[-121.93532,37.96651],[-121.93538,37.9683],[-121.93302,37.96835],[-121.93292757281992,37.96224007693754],[-121.9301,37.962],[-121.9251,37.9686],[-121.9157,37.9743],[-121.9096,37.9751],[-121.9014,37.9789],[-121.8989,37.9829],[-121.8942,37.972],[-121.8842,37.9648],[-121.8825,37.9584],[-121.8744,37.9561],[-121.8695,37.9576],[-121.8693,37.9564],[-121.8657,37.9561],[-121.863,37.9591],[-121.8636,37.9684],[-121.8618,37.9761],[-121.8555,37.9813],[-121.85467199291539,37.98317893915354],[-121.86048,37.98316],[-121.8697,37.983],[-121.86982,37.99043],[-121.89181,37.99082],[-121.89112,37.98904],[-121.89262,37.9884],[-121.89268,37.99084],[-121.8973,37.99079],[-121.89706,37.98369],[-121.90672,37.98361],[-121.90662,38.00525],[-121.90939,38.00524],[-121.90936,38.00394],[-121.91055,38.0039],[-121.9114,38.00265],[-121.91682,38.00262],[-121.9195,37.99796],[-121.92403,37.99798],[-121.92392,38.00518],[-121.92178,38.00909],[-121.92297,38.00922],[-121.92256,38.01063],[-121.92509,38.01095],[-121.9248,38.01144],[-121.92556,38.01172],[-121.9283,38.00508],[-121.93273,38.00503],[-121.9327,38.01214],[-121.94132572730459,38.012093873116015],[-121.9409,38.0069],[-121.9461,38.0033],[-121.94653,38.001313103448275],[-121.94653,37.99772],[-121.94732165524972,37.99765511022543],[-121.949,37.9899],[-121.9513,37.9871]]],[[[-121.91118452535761,38.04508133940182],[-121.91014,38.04496],[-121.89333,38.04618],[-121.89164666425602,38.046530276622676],[-121.9101,38.045],[-121.91118452535761,38.04508133940182]]],[[[-121.87793079918033,38.04946090163934],[-121.87271,38.05184],[-121.86958,38.05441],[-121.85329,38.04291],[-121.84938,38.0353],[-121.85217,38.03226],[-121.84608,38.02898],[-121.84229,38.02834],[-121.83827,38.02908],[-121.8313,38.03006],[-121.82224214069045,38.02483275169724],[-121.8321,38.0311],[-121.8379,38.0389],[-121.8417,38.052],[-121.8468,38.06],[-121.8545,38.0651],[-121.8624,38.0661],[-121.8645,38.061],[-121.8695,38.0545],[-121.87793079918033,38.04946090163934]]],[[[-121.85156,37.98928],[-121.85152,37.98694],[-121.84224,37.98554],[-121.84232,37.98934],[-121.84477,37.98933],[-121.84626,37.99048],[-121.84989,37.99045],[-121.84975,37.98975],[-121.85156,37.98928]]],[[[-121.82507,38.0111],[-121.82505,38.00597],[-121.8199,38.00471],[-121.81968,38.01084],[-121.82507,38.0111]]],[[[-121.81620454846336,38.02134848542159],[-121.81567,38.02104],[-121.8129953488372,38.020737209302325],[-121.81620454846336,38.02134848542159]]],[[[-121.80999481245011,38.02039752593775],[-121.80931,38.02032],[-121.80194757918552,38.02151044117647],[-121.80999481245011,38.02039752593775]]],[[[-121.8011805882353,38.02156588235294],[-121.80013,38.02093],[-121.80026,38.01746],[-121.78993,38.01555],[-121.77957,38.0148],[-121.77217,38.01648],[-121.76749,38.01873],[-121.76533,38.01869],[-121.76424,38.01974],[-121.75717,38.01983],[-121.75715,38.01228],[-121.7512975351386,38.012326670373696],[-121.75130055859138,38.0124166180935],[-121.75134,38.01243],[-121.75131149832828,38.01274207526631],[-121.7517,38.0243],[-121.7635,38.0235],[-121.7775,38.0189],[-121.7831,38.0185],[-121.7908,38.0186],[-121.8011805882353,38.02156588235294]]],[[[-121.7564,37.99205],[-121.75436876600322,37.99085453415815],[-121.75622,37.99221],[-121.7535,38.00314],[-121.7564,37.99205]]]]}},{"type":"Feature","properties":{"GEOID":"0601390440","NAME":"Central Contra Costa","COUNTY":"013"},"geometry":{"type":"MultiPolygon","coordinates":[[[[-122.2503,37.8898],[-122.2493,37.887],[-122.242,37.8819],[-122.2387,37.8833],[-122.2236,37.8786],[-122.2176,37.8722],[-122.2164,37.8691],[-122.2214,37.8655],[-122.2119,37.8569],[-122.2089,37.8519],[-122.2031,37.8512],[-122.2008,37.8474],[-122.1951,37.8436],[-122.1953,37.8416],[-122.1888,37.8377],[-122.1851,37.8374],[-122.1838,37.8344],[-122.187,37.8275],[-122.1857,37.8254],[-122.1869,37.8221],[-122.1856,37.8207],[-122.1812,37.8193],[-122.1779,37.8163],[-122.1728,37.8158],[-122.1669,37.8134],[-122.1574,37.818],[-122.1488,37.8138],[-122.1407,37.8047],[-122.0615,37.7992],[-122.0615,37.8001],[-122.0455,37.7981],[-122.0305,37.7877],[-122.0138,37.7801],[-122.0050124517161,37.77115170388163],[-121.99647,37.77308],[-121.99703,37.7753],[-121.999,37.77738],[-121.99844,37.77759],[-121.99932,37.77986],[-121.99673,37.78014],[-121.99658,37.78632],[-121.99120866751261,37.78643875972019],[-121.99214,37.78738],[-121.9928,37.787],[-121.99383,37.79062],[-121.99335,37.79365],[-122.00544,37.79329],[-122.0057,37.8083],[-122.00239,37.8083],[-122.00083,37.80971],[-122.0028,37.80885],[-122.00357,37.81074],[-122.0067,37.80978],[-122.00744,37.80835],[-122.02608,37.80906],[-122.02602,37.82002],[-122.026,37.8236],[-122.02394,37.82357],[-122.02595,37.82838],[-122.02238,37.82916],[-122.02139,37.8281],[-122.02035,37.83119],[-122.01569,37.83566],[-122.01712,37.83667],[-122.01701,37.83774],[-122.01934,37.83881],[-122.0171,37.84099],[-122.01633,37.8403],[-122.01491,37.84145],[-122.0141,37.84338],[-122.01526,37.84366],[-122.01603,37.84494],[-122.01568,37.84582],[-122.01326,37.84504],[-122.01282,37.84625],[-122.00919,37.8463],[-122.0047,37.84476],[-121.99703,37.84522],[-121.99693,37.83709],[-121.98672,37.83742],[-121.98684,37.84464],[-121.96586,37.84535],[-121.96666,37.84403],[-121.96527,37.84338],[-121.96707,37.84204],[-121.97552,37.83905],[-121.976,37.83807],[-121.96982,37.83817],[-121.96964,37.83731],[-121.96887,37.83727],[-121.96918,37.83588],[-121.96716,37.83549],[-121.96571,37.83384],[-121.9595,37.8333],[-121.95646,37.83193],[-121.95189639189189,37.83193968918919],[-121.9516,37.8352],[-121.9475,37.8405],[-121.9495,37.8411],[-121.9502,37.844],[-121.9479,37.8432],[-121.9479,37.8422],[-121.9461,37.8433],[-121.9438,37.8419],[-121.9403,37.8432],[-121.9407,37.8419],[-121.9388,37.8411],[-121.9371,37.8444],[-121.9338,37.844],[-121.9323,37.8415],[-121.9269,37.8428],[-121.9229,37.8408],[-121.9211,37.843],[-121.896,37.8382],[-121.8934,37.8461],[-121.911,37.8461],[-121.9109,37.8575],[-121.9025,37.8573],[-121.9009,37.8588],[-121.8965,37.8599],[-121.8938,37.8589],[-121.8846,37.8625],[-121.8829,37.8647],[-121.8744,37.8689],[-121.8743,37.8735],[-121.87,37.875],[-121.8665,37.884],[-121.8674,37.8877],[-121.8734,37.8919],[-121.8723,37.8968],[-121.8742,37.906],[-121.8763,37.9085],[-121.8822,37.9121],[-121.8921,37.9157],[-121.8976,37.9197],[-121.91176535656402,37.924000197528365],[-121.91219,37.92101],[-121.91434,37.91977],[-121.91437,37.92234],[-121.91898,37.92347],[-121.91898,37.92081],[-121.92649,37.92082],[-121.92735,37.92188],[-121.93264,37.92179],[-121.93273,37.92667],[-121.93859,37.9267],[-121.9381,37.93397],[-121.94001,37.93397],[-121.94067,37.93195],[-121.94189,37.93195],[-121.94191,37.934],[-121.94486,37.93398],[-121.95703,37.93407],[-121.95766,37.9376],[-121.96032,37.93764],[-121.96038,37.9269],[-121.96494,37.92688],[-121.96497,37.92508],[-121.96981,37.92581],[-121.96981,37.92682],[-121.98056,37.92697],[-121.98061,37.92386],[-121.98062,37.92235],[-121.98514,37.9189],[-121.98483,37.91753],[-121.98241,37.9156],[-121.98397,37.91378],[-121.98676,37.9138],[-121.99115,37.91237],[-121.99292,37.9136],[-122.00198,37.91324],[-122.00215,37.90775],[-122.00695,37.90786],[-122.00682,37.90561],[-122.00461,37.90303],[-122.0068,37.90335],[-122.00721,37.90196],[-122.00381,37.90134],[-122.00543,37.8994],[-122.00353,37.89968],[-122.00368,37.89896],[-122.00189,37.89988],[-122.00252,37.89476],[-122.0034,37.89442],[-121.99981,37.88434],[-122.01489,37.88053],[-122.01029,37.87187],[-122.02003,37.87352],[-122.02016,37.86631],[-122.02324,37.86641],[-122.02317,37.87195],[-122.02605,37.8734],[-122.02615,37.86649],[-122.02691,37.86716],[-122.02689,37.86632],[-122.0286,37.86584],[-122.02893,37.8679],[-122.03545,37.86784],[-122.03628,37.86571],[-122.03703,37.86571],[-122.03793,37.86625],[-122.03879,37.86872],[-122.03982,37.86869],[-122.04066,37.86982],[-122.04145,37.86932],[-122.04399,37.87174],[-122.04473,37.87415],[-122.04694,37.87592],[-122.04795,37.87547],[-122.05159,37.88166],[-122.05329,37.88168],[-122.05542,37.88038],[-122.05626,37.88166],[-122.06646,37.88014],[-122.06671,37.87399],[-122.05895,37.87159],[-122.05881,37.8649],[-122.05773,37.86419],[-122.05418,37.86429],[-122.05322,37.86334],[-122.05236,37.8425],[-122.06157,37.84298],[-122.06166,37.84587],[-122.07828,37.85578],[-122.07805,37.85724],[-122.07998,37.85676],[-122.07962,37.84944],[-122.08823,37.84927],[-122.08783,37.85095],[-122.09017,37.8421],[-122.09163,37.84199],[-122.09461,37.83807],[-122.09789,37.83843],[-122.09678,37.83686],[-122.09397,37.83527],[-122.09507,37.83502],[-122.09571,37.83246],[-122.09924,37.83248],[-122.09919,37.82409],[-122.10369,37.82411],[-122.1037,37.8198],[-122.11232,37.81983],[-122.11383,37.81832],[-122.11574,37.81247],[-122.11402,37.80979],[-122.11227,37.81017],[-122.11135,37.80838],[-122.11396,37.80834],[-122.11454,37.8102],[-122.12662,37.8127],[-122.12653,37.81424],[-122.125,37.81427],[-122.1249,37.81852],[-122.12717,37.82095],[-122.13202,37.82297],[-122.1317,37.82358],[-122.13292,37.82382],[-122.13292,37.82261],[-122.13493,37.82186],[-122.13853,37.82288],[-122.1431,37.82147],[-122.14558,37.82513],[-122.15577,37.83181],[-122.15601,37.83747],[-122.15853,37.8419],[-122.16402,37.84337],[-122.16778,37.84649],[-122.1749,37.84691],[-122.17478,37.85055],[-122.18859,37.85043],[-122.18916,37.85316],[-122.19499,37.85671],[-122.19138,37.86274],[-122.19255,37.86423],[-122.19369,37.86441],[-122.19394,37.86556],[-122.1952,37.86619],[-122.20317,37.86647],[-122.20341,37.8676],[-122.20115,37.8679],[-122.20253,37.8687],[-122.19894,37.8682],[-122.19824,37.86932],[-122.19587,37.86897],[-122.19224,37.87105],[-122.19279,37.87353],[-122.19129,37.87417],[-122.19117,37.87779],[-122.18723,37.87814],[-122.18718,37.88015],[-122.18976,37.88104],[-122.19296,37.88404],[-122.21143,37.87879],[-122.21671,37.87896],[-122.22064,37.88186],[-122.22525,37.89034],[-122.21664,37.89555],[-122.21455,37.89606],[-122.21255,37.89352],[-122.21054,37.89364],[-122.20688,37.89611],[-122.2106232525704,37.89935542869915],[-122.2107,37.8993],[-122.2169,37.9002],[-122.2193,37.8977],[-122.2201,37.8993],[-122.2227,37.8993],[-122.2229,37.8983],[-122.2272,37.8998],[-122.2299,37.8982],[-122.2388,37.9009],[-122.2433,37.905],[-122.2503,37.9007],[-122.2442,37.8966],[-122.2422,37.8934],[-122.2445,37.8923],[-122.2463,37.893],[-122.2491,37.8911],[-122.2503,37.8898]]],[[[-122.2111,37.9064],[-122.21055214838972,37.90578366693844],[-122.21039,37.90587],[-122.21105555219364,37.907111164901664],[-122.2111,37.9064]]],[[[-122.21103993954051,37.90736096735188],[-122.2104553261137,37.90808129460989],[-122.211,37.908],[-122.21103993954051,37.90736096735188]]],[[[-122.20862181818181,37.90080090909091],[-122.20709,37.90172],[-122.20737372739646,37.90170230799144],[-122.20862181818181,37.90080090909091]]],[[[-122.20778556772161,37.9084797660117],[-122.20542,37.90832],[-122.20369,37.90913],[-122.20019,37.91429],[-122.19986,37.91751],[-122.19754,37.91901],[-122.1957,37.92155],[-122.19261,37.92018],[-122.18554,37.91884],[-122.17696,37.91814],[-122.17528,37.91535],[-122.16679,37.91704],[-122.16091,37.91304],[-122.16015,37.91344],[-122.1609,37.91364],[-122.1609,37.91451],[-122.15187,37.91238],[-122.14746,37.91457],[-122.1417,37.91598],[-122.1417,37.91351],[-122.13655,37.91349],[-122.1366,37.9095],[-122.12126,37.90944],[-122.12133,37.92396],[-122.11811,37.92411],[-122.11795,37.92984],[-122.11339,37.93151],[-122.1133,37.93249],[-122.10707,37.93827],[-122.10115,37.93939],[-122.1021,37.93722],[-122.09898,37.93658],[-122.0958,37.93378],[-122.09741,37.93187],[-122.10307,37.93189],[-122.1031,37.93019],[-122.10382,37.93019],[-122.10387,37.925],[-122.09627,37.92515],[-122.09707,37.92152],[-122.10001,37.91896],[-122.0998845927982,37.91739847806794],[-122.09177,37.9173],[-122.09255,37.92033],[-122.09471,37.91933],[-122.09648,37.92058],[-122.09634,37.92123],[-122.09326,37.92249],[-122.09247,37.92083],[-122.08952,37.92143],[-122.08947,37.92494],[-122.0880638336714,37.92543022312373],[-122.08875,37.92726],[-122.08645,37.92786],[-122.08677,37.93277],[-122.08694,37.93368],[-122.08965,37.9337],[-122.0907,37.9354],[-122.08958,37.93676],[-122.08956,37.94087],[-122.09321,37.94082],[-122.09308,37.94192],[-122.0942,37.9417],[-122.09511,37.9445],[-122.09381,37.9461],[-122.09436,37.94676],[-122.09191,37.94781],[-122.09682,37.94788],[-122.09674,37.94704],[-122.09751,37.94697],[-122.09762,37.94775],[-122.09849,37.94744],[-122.10097,37.95088],[-122.09893,37.95188],[-122.10105,37.95302],[-122.10238383337082,37.95497098015434],[-122.10314,37.95496],[-122.10488,37.95867],[-122.10736,37.95828],[-122.1076,37.95924],[-122.10806,37.95682],[-122.10917,37.95782],[-122.11159,37.95655],[-122.11163,37.95539],[-122.11565,37.95591],[-122.1157,37.95356],[-122.11747,37.95356],[-122.11734,37.96031],[-122.11897,37.96032],[-122.11896,37.95973],[-122.12141,37.96033],[-122.11995,37.96141],[-122.12204,37.96252],[-122.11881,37.9663],[-122.12035,37.96778],[-122.11867,37.96921],[-122.12456,37.9722],[-122.12293,37.97659],[-122.11945,37.97526],[-122.12011,37.97764],[-122.12252,37.98032],[-122.12517351507451,37.9793146309345],[-122.1275,37.9738],[-122.1261,37.9726],[-122.1262,37.9668],[-122.1322,37.9625],[-122.1333,37.9583],[-122.1352,37.9575],[-122.1382,37.9583],[-122.1353,37.9562],[-122.135,37.9535],[-122.1364,37.9496],[-122.1349,37.9478],[-122.1355,37.9464],[-122.1342,37.9461],[-122.1383,37.9392],[-122.1374,37.9382],[-122.1408,37.9373],[-122.1421,37.935],[-122.1482,37.9337],[-122.1492,37.9308],[-122.1521,37.9286],[-122.1627,37.9258],[-122.1652,37.9204],[-122.1712,37.9183],[-122.1847,37.9192],[-122.1962,37.922],[-122.2001,37.9175],[-122.2006,37.9143],[-122.2043,37.909],[-122.20778556772161,37.9084797660117]]],[[[-122.195,38.0363],[-122.1942,38.0345],[-122.1878,38.0295],[-122.1869,38.026],[-122.183,38.0256],[-122.1781,38.0192],[-122.1776,38.0151],[-122.1658,38.0067],[-122.1563,38.0052],[-122.1479,38.0005],[-122.14533132420586,37.99699410465934],[-122.14453,37.99734],[-122.14668,37.99974],[-122.14496,38.00209],[-122.14423,38.00587],[-122.14315,38.00585],[-122.14297,38.00718],[-122.14645,38.00939],[-122.14641,38.01012],[-122.14872,38.01015],[-122.14843,38.0209],[-122.15815,38.02488],[-122.15156,38.02363],[-122.14667,38.02358],[-122.14687,38.03173],[-122.14257881226054,38.031987471264365],[-122.16,38.0334],[-122.1676,38.0367],[-122.1743,38.0346],[-122.1747,38.036],[-122.1796,38.0357],[-122.1808,38.0381],[-122.1835,38.0386],[-122.1825,38.0393],[-122.184,38.041],[-122.1887,38.042],[-122.1924,38.0411],[-122.195,38.0363]]],[[[-122.14424293397464,37.868514069585856],[-122.14379671676059,37.86813956585264],[-122.14183,37.8685],[-122.14424293397464,37.868514069585856]]],[[[-122.14053145454545,38.03211031272727],[-122.13937,38.03218],[-122.13702635648018,38.032871419735734],[-122.14053145454545,38.03211031272727]]],[[[-122.140193355442,37.85159201804937],[-122.1397504960196,37.85034020208206],[-122.14008,37.85172],[-122.140193355442,37.85159201804937]]],[[[-122.13042,38.02017],[-122.12744,38.01628],[-122.11922,38.01399],[-122.11923,38.0128],[-122.12116,38.01218],[-122.12079,38.0104],[-122.12491,38.00834],[-122.12468,38.00711],[-122.1231,38.00741],[-122.1212,38.00664],[-122.12082,38.0072],[-122.12052,38.00637],[-122.11691,38.00487],[-122.11487,38.00485],[-122.11474,38.00569],[-122.113,38.00605],[-122.11316,38.00694],[-122.11071,38.00779],[-122.11087,38.01225],[-122.10633,38.01226],[-122.10072,38.01017],[-122.10067,38.00683],[-122.09884,38.00682],[-122.09882,38.00568],[-122.10187,38.00541],[-122.10183,38.00385],[-122.09958,38.00386],[-122.09957,38.00248],[-122.0972,38.0025],[-122.09712,38.0003],[-122.09371,38.00033],[-122.09446,37.99978],[-122.09472,37.99766],[-122.08693,37.99963],[-122.08796,38.00181],[-122.09147,38.00176],[-122.09046,38.00409],[-122.08938,38.00282],[-122.08705,38.00409],[-122.086,38.00293],[-122.08655,38.0022],[-122.08312,38.00143],[-122.08446,38.00012],[-122.08339,37.99948],[-122.08097,38.00182],[-122.07911,38.00154],[-122.07886,37.99975],[-122.07683,37.99877],[-122.07736,37.99602],[-122.07521,37.99419],[-122.07671,37.99054],[-122.07694,37.98611],[-122.07581,37.98508],[-122.07578,37.98342],[-122.07917,37.98338],[-122.07975,37.97606],[-122.10007,37.97598],[-122.07788,37.97587],[-122.07713,37.97936],[-122.07659,37.97885],[-122.07576,37.97935],[-122.0771,37.97984],[-122.07718,37.98148],[-122.07891,37.9815],[-122.07786,37.98232],[-122.07408,37.98116],[-122.06597,37.98184],[-122.06393170972134,37.9760709105506],[-122.06155,37.9777],[-122.0559,37.9802],[-122.05253,37.98053],[-122.0506,37.98738],[-122.05078,37.98917],[-122.05715,37.99862],[-122.0561,37.99966],[-122.05326,38.00032],[-122.05394,38.0023],[-122.05003,38.00327],[-122.04803,38.00298],[-122.04839,38.00622],[-122.04647,38.00699],[-122.04541,38.00853],[-122.04606,38.01123],[-122.04215,38.0118],[-122.04236,38.01269],[-122.03191,38.01413],[-122.03263,38.01867],[-122.03424,38.01889],[-122.03396,38.02017],[-122.02746,38.02035],[-122.02778,38.02123],[-122.02621,38.02043],[-122.02283,38.02274],[-122.01247,38.01865],[-122.01052,38.01678],[-122.00878,38.01687],[-122.00215,38.01176],[-121.99804,38.01278],[-121.99729,38.01057],[-121.9964,38.01219],[-121.98772,38.01585],[-121.98607994977453,38.014254788161345],[-121.98605,38.01711],[-121.98335,38.01966],[-121.98005,38.02004],[-121.97925,38.02174],[-121.97174,38.02367],[-121.94744,38.01875],[-121.94192,38.0185],[-121.94194,38.01547],[-121.94160771517554,38.01553412514156],[-121.9419,38.0191],[-121.9479,38.0191],[-121.9658,38.0231],[-121.9621,38.0254],[-121.9725,38.0291],[-121.9779,38.0332],[-121.9878,38.0361],[-121.9876,38.0668],[-122.0152,38.0635],[-122.0284,38.0592],[-122.0509,38.0602],[-122.0611,38.0621],[-122.0673,38.0601],[-122.0774,38.054],[-122.0987,38.0475],[-122.121,38.038],[-122.12397496538154,38.03571919320749],[-122.12397,38.03572],[-122.12099,38.03799],[-122.09978,38.04701],[-122.09621,38.04192],[-122.09761,38.04159],[-122.09793,38.03392],[-122.0944,38.03495],[-122.09337,38.03402],[-122.09429,38.0309],[-122.09121,38.03178],[-122.08988,38.02878],[-122.0985,38.02657],[-122.11199,38.0266],[-122.11139,38.02575],[-122.11193,38.02557],[-122.11193,38.02165],[-122.13042,38.02017]],[[-122.11418,38.01244],[-122.11418,38.0136],[-122.11106,38.01365],[-122.11106,38.01292],[-122.11418,38.01244]]],[[[-122.10437,37.97273],[-122.10291,37.97188],[-122.10367,37.97015],[-122.10225130469956,37.96978429187811],[-122.10231,37.96983],[-122.10201,37.97151],[-122.10437,37.97273]]],[[[-122.09984637321455,37.91692258260702],[-122.0997,37.9151],[-122.09843,37.91279],[-122.09984637321455,37.91692258260702]]],[[[-122.0915,37.88588],[-122.08807546541883,37.881786533007926],[-122.08775,37.88188],[-122.07627,37.88063],[-122.07709,37.88287],[-122.07622,37.88329],[-122.07472,37.88147],[-122.0681,37.88145],[-122.06607,37.88348],[-122.06212,37.88485],[-122.06252,37.88633],[-122.06323,37.88615],[-122.06341,37.88862],[-122.06446,37.88906],[-122.06495,37.88851],[-122.06504,37.88949],[-122.0613,37.89074],[-122.06698,37.89313],[-122.06827,37.8923],[-122.07014,37.89466],[-122.07077,37.89367],[-122.07352,37.89382],[-122.07305,37.89506],[-122.08083,37.89683],[-122.0808,37.89833],[-122.07553,37.8976],[-122.07416,37.89821],[-122.07341,37.90019],[-122.07489,37.89998],[-122.07567,37.90059],[-122.07495,37.90126],[-122.0766,37.90092],[-122.08169,37.90319],[-122.08374,37.90315],[-122.08396,37.90417],[-122.08418,37.9031],[-122.08358,37.90277],[-122.08464,37.90151],[-122.08392,37.90019],[-122.08545,37.89999],[-122.08602,37.89908],[-122.08508,37.89798],[-122.08306,37.89775],[-122.0822,37.89643],[-122.08262,37.89453],[-122.08202,37.89292],[-122.08362,37.89141],[-122.08703,37.8903],[-122.08838,37.88654],[-122.08608,37.88584],[-122.08638,37.88514],[-122.0915,37.88588]]],[[[-122.08637116171363,37.91033488228483],[-122.08471,37.90812],[-122.08227,37.90742],[-122.08222,37.90637],[-122.08063,37.90641],[-122.08066,37.90475],[-122.08069,37.90321],[-122.07289,37.90329],[-122.07315,37.90455],[-122.07145,37.90419],[-122.07322,37.90704],[-122.07158,37.90746],[-122.06964,37.90928],[-122.07142,37.90982],[-122.07473,37.90925],[-122.07626,37.91155],[-122.07976,37.9104],[-122.08637116171363,37.91033488228483]]],[[[-122.08601941831118,37.92608369986124],[-122.07351,37.92634],[-122.08586,37.92615],[-122.08601941831118,37.92608369986124]]],[[[-122.08171,37.97331],[-122.07998,37.97497],[-122.07822660544859,37.97527603395661],[-122.08032,37.97557],[-122.08171,37.97458],[-122.08171,37.97331]]],[[[-122.07822660544859,37.97527603395661],[-122.07797,37.97524],[-122.07763147576883,37.97537990669333],[-122.07822660544859,37.97527603395661]]],[[[-122.07768,37.9717],[-122.07654,37.97157],[-122.07724,37.97045],[-122.07599,37.96934],[-122.0749,37.96929],[-122.07442,37.97111],[-122.07367,37.97132],[-122.07358,37.97484],[-122.07526,37.97636],[-122.07763147576883,37.97537990669333],[-122.07511,37.97582],[-122.07401,37.97447],[-122.07529,37.97376],[-122.07471,37.97304],[-122.07584,37.97212],[-122.07558,37.9714],[-122.07653,37.97223],[-122.07768,37.9717]]],[[[-122.06159,37.93173],[-122.06019,37.9317],[-122.06056,37.92646],[-122.06036,37.92448],[-122.05973,37.92448],[-122.0608,37.92184],[-122.05826,37.92194],[-122.05776,37.92465],[-122.05522,37.92465],[-122.05589,37.92078],[-122.05847,37.92079],[-122.05916,37.91705],[-122.05513,37.91715],[-122.05363,37.91833],[-122.05333,37.9176],[-122.05092,37.91784],[-122.04662,37.92093],[-122.04868,37.92314],[-122.04994,37.92326],[-122.0477,37.92796],[-122.04735,37.9329],[-122.04762,37.93342],[-122.05392,37.93005],[-122.05285,37.93669],[-122.05502,37.93669],[-122.05453,37.93946],[-122.05598,37.93943],[-122.05631,37.93845],[-122.05965,37.93854],[-122.05897,37.93666],[-122.05687,37.93667],[-122.05684,37.93472],[-122.05476,37.93477],[-122.05499,37.93253],[-122.06159,37.93173]]],[[[-122.06108,37.96219],[-122.05655278293717,37.965505987936375],[-122.05657,37.96553],[-122.06108,37.96219]]],[[[-122.05596574821246,37.96468727017365],[-122.05260388684486,37.95957562072074],[-122.05282,37.9603],[-122.05596574821246,37.96468727017365]]],[[[-122.05385,37.95184],[-122.05378459222868,37.951685564984366],[-122.05286,37.95562],[-122.05307956709957,37.95568175324675],[-122.05385,37.95184]]],[[[-122.05278984348215,37.93669067973467],[-122.04937010864725,37.93672932080624],[-122.05195,37.93949],[-122.05139,37.94277],[-122.05278984348215,37.93669067973467]]],[[[-122.05270378384836,37.95755559135075],[-122.05228,37.95849],[-122.05242136914767,37.958963848439375],[-122.05270378384836,37.95755559135075]]],[[[-122.05193,37.88851],[-122.05114,37.88805],[-122.04987,37.88733],[-122.05117,37.88682],[-122.049,37.8833],[-122.04656,37.88356],[-122.04596,37.88086],[-122.0374,37.87954],[-122.03165,37.87947],[-122.03151,37.88157],[-122.01931,37.886],[-122.02293,37.88589],[-122.02452,37.88825],[-122.02422,37.88915],[-122.02559,37.88984],[-122.02487,37.89088],[-122.02927,37.89227],[-122.035,37.89537],[-122.03661,37.89329],[-122.03945,37.89163],[-122.04059,37.89182],[-122.03935,37.89094],[-122.03984,37.89043],[-122.03523,37.8882],[-122.03714,37.88652],[-122.03832,37.88709],[-122.03771,37.88788],[-122.04192,37.88981],[-122.04103,37.89038],[-122.04225,37.892],[-122.04283,37.89114],[-122.04499,37.89177],[-122.04627,37.89178],[-122.04643,37.89096],[-122.04929,37.89132],[-122.05193,37.88851]]],[[[-122.05126,37.90831],[-122.04921,37.90652],[-122.04825,37.90673],[-122.04639,37.90558],[-122.0443,37.90656],[-122.0437,37.90547],[-122.04153,37.90462],[-122.03869,37.90527],[-122.03674,37.90314],[-122.03836,37.90271],[-122.03885,37.90096],[-122.03614,37.90024],[-122.03412,37.89856],[-122.03309,37.89903],[-122.03346,37.90426],[-122.02664,37.90248],[-122.02592,37.91104],[-122.02747,37.91052],[-122.02754,37.90874],[-122.03259,37.9112],[-122.03357,37.9103],[-122.03449,37.9108],[-122.03632,37.90899],[-122.0377,37.90994],[-122.0389,37.90811],[-122.03754,37.90726],[-122.03868,37.90562],[-122.05034,37.90868],[-122.05126,37.90831]]],[[[-122.04759,37.89613],[-122.04634,37.89439],[-122.0436,37.89428],[-122.04304,37.89364],[-122.04313,37.89511],[-122.04222,37.89456],[-122.03963,37.89576],[-122.04149,37.89731],[-122.04176,37.89848],[-122.0425,37.8978],[-122.04693,37.89743],[-122.04759,37.89613]]],[[[-122.0118,37.7474],[-122.0011,37.739],[-121.9954,37.7384],[-121.9881,37.7331],[-121.9719,37.7303],[-121.96,37.7185],[-121.9490251983855,37.72130442616709],[-121.95028,37.72142],[-121.94989,37.72233],[-121.95865,37.73621],[-121.95969,37.73581],[-121.9604,37.73673],[-121.96179,37.73659],[-121.96432,37.73865],[-121.96085,37.73997],[-121.96367,37.74414],[-121.96219,37.74473],[-121.96374,37.74519],[-121.96456,37.7465],[-121.96349,37.74673],[-121.96288,37.74583],[-121.96101,37.74616],[-121.96227,37.74957],[-121.96828,37.75143],[-121.96896,37.75331],[-121.97231,37.75299],[-121.97977,37.75621],[-121.985,37.75706],[-121.98486,37.75786],[-121.98608,37.75774],[-121.98647,37.75926],[-121.98807,37.7595],[-121.98919,37.76087],[-121.98724,37.76087],[-121.98536,37.76189],[-121.99084,37.7633],[-121.99197,37.76505],[-121.9904,37.76561],[-121.99204,37.76678],[-121.99248,37.76862],[-121.9943,37.76871],[-121.99264,37.76609],[-121.99915425559948,37.76518634564093],[-121.9974,37.7634],[-122.0108,37.7551],[-122.0118,37.7474]]],[[[-121.98512,37.92833],[-121.98498813233223,37.927943705302674],[-121.98459175945489,37.92849589372491],[-121.98512,37.92833]]],[[[-121.98476548399574,37.92729147664636],[-121.98427,37.92584],[-121.98324943935609,37.92528789342215],[-121.98476548399574,37.92729147664636]]],[[[-121.97157,37.97046],[-121.96836,37.96815],[-121.96765,37.97054],[-121.9686,37.97292],[-121.97157,37.97046]]],[[[-121.9687,37.99735],[-121.93914,37.97987],[-121.93914,37.9716],[-121.93923666348904,37.971219294566254],[-121.9391,37.9716],[-121.9391,37.9799],[-121.9513,37.9871],[-121.9687,37.99735]]],[[[-121.96827,37.96721],[-121.96737,37.96655],[-121.96825,37.96561],[-121.96458,37.96297],[-121.96407,37.96363],[-121.96293,37.96315],[-121.96352,37.96239],[-121.96162,37.9615],[-121.95915,37.96448],[-121.95993,37.96485],[-121.96078,37.96387],[-121.96066,37.96459],[-121.96261,37.96562],[-121.96191,37.96712],[-121.9585,37.96838],[-121.96066,37.96855],[-121.95957,37.96917],[-121.96388,37.97283],[-121.96826,37.97312],[-121.96685,37.97171],[-121.96752,37.9699],[-121.96647,37.96913],[-121.96744,37.9683],[-121.96804,37.96872],[-121.96735,37.96808],[-121.96827,37.96721]]],[[[-121.95658,37.95163],[-121.95092,37.9485],[-121.95647,37.95176],[-121.95652,37.95253],[-121.95658,37.95163]]],[[[-121.9513,37.9871],[-121.949,37.9899],[-121.94732165524972,37.99765511022543],[-121.94775,37.99762],[-121.94905,37.98986],[-121.9513,37.9871]]],[[[-121.95111,37.78691],[-121.95091018164617,37.79500264333018],[-121.95102,37.795],[-121.95111,37.78691]]],[[[-121.951,37.95193],[-121.94749,37.95082],[-121.94738129551715,37.95094714199231],[-121.951,37.95193]]],[[[-121.94702616779432,37.83054136535859],[-121.93287,37.82635],[-121.93287,37.8171],[-121.9211260926771,37.81733946794881],[-121.9212,37.8217],[-121.9293,37.8256],[-121.94702616779432,37.83054136535859]]],[[[-121.94653,38.001313103448275],[-121.9461,38.0033],[-121.9409,38.0069],[-121.94132572730459,38.012093873116015],[-121.94205,38.01209],[-121.94194,38.01117],[-121.94407,38.01107],[-121.94466,38.00983],[-121.94256,38.0094],[-121.94297,38.00761],[-121.9419,38.00677],[-121.9441,38.00543],[-121.94591,38.00594],[-121.94653,38.00541],[-121.94653,38.001313103448275]]],[[[-121.94414199449068,37.95429813312029],[-121.93933,37.95586],[-121.9441,37.95435],[-121.94414199449068,37.95429813312029]]],[[[-121.93933,37.95586],[-121.91822891207154,37.95524515648286],[-121.9246,37.9555],[-121.9248,37.9581],[-121.9261,37.9585],[-121.9237,37.9607],[-121.9215,37.9603],[-121.9144,37.9627],[-121.913,37.9676],[-121.9104,37.9698],[-121.9106,37.9749],[-121.9157,37.9743],[-121.9249,37.9688],[-121.9306,37.9619],[-121.9329259120048,37.962130288317304],[-121.93283,37.95579],[-121.93933,37.95586]]],[[[-121.92375,37.81008],[-121.92363,37.79959],[-121.92155506335462,37.799344113536826],[-121.9213,37.8009],[-121.9233,37.8052],[-121.9235,37.81],[-121.9211,37.8158],[-121.92112494346311,37.8172716643237],[-121.92375,37.81008]]],[[[-121.91461972707019,37.955100789082806],[-121.91441,37.92497],[-121.9144011095062,37.92496809019022],[-121.9146,37.9551],[-121.91461972707019,37.955100789082806]]],[[[-121.91365918918919,37.74022782094595],[-121.91192,37.73466],[-121.91131750644884,37.73393454858125],[-121.91365918918919,37.74022782094595]]]]}},{"type":"Feature","properties":{"GEOID":"0601390780","NAME":"East Contra Costa","COUNTY":"013"},"geometry":{"type":"MultiPolygon","coordinates":[[[[-121.7789,37.9184],[-121.7727,37.9152],[-121.766,37.9138],[-121.765,37.9087],[-121.7634,37.9073],[-121.7647,37.8988],[-121.7668,37.8971],[-121.7663,37.8943],[-121.7757,37.886],[-121.7773,37.882],[-121.7548,37.871],[-121.7464,37.8694],[-121.7424,37.8708],[-121.733,37.8706],[-121.7204,37.8757],[-121.7104,37.8772],[-121.6984,37.8747],[-121.6966,37.8801],[-121.6965,37.8875],[-121.6951,37.8874],[-121.6898,37.8841],[-121.6779,37.8713],[-121.6536,37.8569],[-121.6469,37.85],[-121.6469,37.8394],[-121.6542,37.8334],[-121.6557,37.8196],[-121.6609,37.8165],[-121.6636,37.8122],[-121.6727,37.8061],[-121.6752,37.8033],[-121.677,37.7982],[-121.685,37.7964],[-121.6888,37.7932],[-121.6939,37.7919],[-121.6973,37.7824],[-121.557,37.8165],[-121.5533,37.8188],[-121.5525,37.824],[-121.5512,37.8251],[-121.5521,37.8297],[-121.5495,37.8336],[-121.5442,37.8325],[-121.5382,37.8374],[-121.5382,37.8426],[-121.5341,37.8495],[-121.5372,37.8508],[-121.539,37.8489],[-121.5407,37.8494],[-121.542,37.8518],[-121.5406,37.8576],[-121.5475,37.8552],[-121.5528,37.8612],[-121.5553,37.858],[-121.5603,37.8586],[-121.5623,37.8564],[-121.5612,37.8543],[-121.562,37.8531],[-121.5659,37.8579],[-121.5705,37.8576],[-121.5683,37.86],[-121.569,37.8606],[-121.5743,37.8598],[-121.578,37.8578],[-121.5794,37.8602],[-121.5734,37.8658],[-121.5793,37.8706],[-121.5782,37.8755],[-121.5739,37.8834],[-121.5759,37.8883],[-121.5684,37.8917],[-121.5659,37.8977],[-121.567,37.8999],[-121.5718,37.9025],[-121.5728,37.9043],[-121.5633,37.9106],[-121.566,37.9163],[-121.5651,37.9192],[-121.5583,37.9214],[-121.5564,37.9236],[-121.5589,37.9279],[-121.5573,37.9322],[-121.5615,37.9359],[-121.5609,37.9399],[-121.5636,37.9434],[-121.5576,37.9465],[-121.5607,37.9476],[-121.5674,37.944],[-121.5688,37.9485],[-121.5635,37.9547],[-121.5736,37.9538],[-121.5752,37.955],[-121.5733,37.9573],[-121.5656,37.9578],[-121.5651,37.9598],[-121.5737,37.9664],[-121.5744,37.9725],[-121.5802,37.9764],[-121.5786,37.9776],[-121.5733,37.9777],[-121.5724,37.979],[-121.5795,37.9815],[-121.5825,37.9839],[-121.581,37.9895],[-121.5761,37.9949],[-121.5789,37.9985],[-121.5706,37.999],[-121.569,38.0014],[-121.5696,38.0032],[-121.5782,38.0039],[-121.5798,38.0064],[-121.5779,38.0108],[-121.5671,38.012],[-121.567,38.0135],[-121.5722,38.0159],[-121.5726,38.018],[-121.568,38.0185],[-121.5611,38.0154],[-121.5575,38.0166],[-121.5638,38.0248],[-121.5642,38.0297],[-121.5714,38.0304],[-121.5708,38.038],[-121.573,38.0422],[-121.5776,38.043],[-121.5802,38.0413],[-121.5808,38.0388],[-121.5779,38.0338],[-121.5788,38.0326],[-121.5817,38.0324],[-121.5844,38.036],[-121.5847,38.0435],[-121.5823,38.0514],[-121.5839,38.0599],[-121.5822,38.0684],[-121.5729,38.0737],[-121.5767,38.0782],[-121.5778,38.0895],[-121.58,38.0944],[-121.6049,38.0999],[-121.6274,38.0984],[-121.629,38.0973],[-121.6326,38.0886],[-121.6381,38.0861],[-121.6452,38.0874],[-121.6619,38.0956],[-121.6731,38.0935],[-121.6793,38.0893],[-121.6819,38.082],[-121.6796,38.0681],[-121.6803,38.0635],[-121.6831,38.0596],[-121.6917,38.0535],[-121.6998,38.0452],[-121.7066,38.0413],[-121.7256,38.0338],[-121.7378,38.0266],[-121.7517,38.0243],[-121.75131149832828,38.01274207526631],[-121.75055,38.02108],[-121.7489,38.02026],[-121.74035,38.02005],[-121.7393,38.01714],[-121.73672,38.01574],[-121.73208,38.01454],[-121.73109,38.01514],[-121.7303,38.01322],[-121.72618,38.01298],[-121.72054,38.00878],[-121.7181,38.00806],[-121.71838,38.00899],[-121.71701,38.00972],[-121.71486,38.00728],[-121.71375,38.00786],[-121.71159,38.00658],[-121.69696,38.00638],[-121.69681,38.00734],[-121.69155,38.00534],[-121.69121,38.01057],[-121.68931,38.01338],[-121.68476,38.01351],[-121.67805,38.0108],[-121.67352,38.01211],[-121.67225,38.01149],[-121.67104,38.01213],[-121.65897,38.0119],[-121.65897,38.00939],[-121.6569,38.00938],[-121.65687,38.01157],[-121.65002,38.01145],[-121.64507,38.0081],[-121.63419,38.00553],[-121.63495,38.00056],[-121.62994,38.00109],[-121.62944,37.9996],[-121.62998,37.99796],[-121.62905,37.99596],[-121.62776,37.99725],[-121.62534,37.9962],[-121.62463,37.99037],[-121.6274,37.99041],[-121.62739,37.98861],[-121.62543,37.98763],[-121.62576,37.97854],[-121.62262,37.9785],[-121.62259,37.97622],[-121.64031,37.97603],[-121.65856,37.99065],[-121.66831,37.99065],[-121.66835,37.98694],[-121.67059,37.98695],[-121.67057,37.98878],[-121.67286,37.98879],[-121.67294,37.98575],[-121.67752,37.9857],[-121.67763,37.96884],[-121.73018,37.9688],[-121.70434,37.96879],[-121.70473,37.96157],[-121.7058,37.96157],[-121.70531,37.95874],[-121.70027,37.95879],[-121.69959,37.96375],[-121.69837,37.96375],[-121.69835,37.96747],[-121.69612,37.96796],[-121.69143,37.96793],[-121.69145,37.96429],[-121.69548,37.96427],[-121.69437,37.96274],[-121.69454,37.96155],[-121.68899,37.96167],[-121.68818,37.96277],[-121.68225,37.96293],[-121.6823,37.95448],[-121.68416,37.95446],[-121.68424,37.94039],[-121.68388,37.93707],[-121.6832,37.93708],[-121.68321,37.93266],[-121.67792,37.93276],[-121.67798,37.91825],[-121.71266,37.91828],[-121.71432,37.91885],[-121.71467,37.91569],[-121.71595,37.91337],[-121.71454,37.91165],[-121.71545,37.90504],[-121.7168,37.90249],[-121.71848,37.90183],[-121.71669,37.89892],[-121.71775,37.89638],[-121.71612,37.89461],[-121.7179,37.89411],[-121.7172,37.89184],[-121.71621,37.89252],[-121.7118,37.89163],[-121.71364,37.88967],[-121.71754,37.89045],[-121.71779,37.89155],[-121.71952,37.89256],[-121.72081,37.88883],[-121.72517,37.89091],[-121.72558,37.89222],[-121.72971,37.89224],[-121.73029,37.89375],[-121.72945,37.89416],[-121.72952,37.89557],[-121.73252,37.89688],[-121.7328,37.89799],[-121.73657,37.89868],[-121.73743,37.89814],[-121.73699,37.89685],[-121.73856,37.89689],[-121.73861,37.89793],[-121.73556,37.90011],[-121.73283,37.8998],[-121.73263,37.9007],[-121.73915,37.90375],[-121.7366,37.90547],[-121.73407,37.90513],[-121.7314,37.90348],[-121.73054,37.90422],[-121.73273,37.90641],[-121.73239,37.90823],[-121.73369,37.91046],[-121.73459,37.91001],[-121.73828,37.91073],[-121.74205,37.90849],[-121.74774,37.90813],[-121.751,37.90489],[-121.75101,37.91384],[-121.75191,37.91327],[-121.75237,37.91396],[-121.75101,37.91455],[-121.75112,37.92501],[-121.75224,37.92496],[-121.75254,37.92172],[-121.75407,37.91963],[-121.75627,37.91834],[-121.75991,37.91784],[-121.75997,37.92123],[-121.75832,37.92181],[-121.75808,37.92313],[-121.76003,37.92313],[-121.76004,37.92494],[-121.75694,37.92387],[-121.75337,37.92389],[-121.75336,37.92506],[-121.75555,37.92506],[-121.75549,37.93254],[-121.75102,37.93257],[-121.75095990083138,37.93981946221537],[-121.77368446486595,37.939732108042804],[-121.7737,37.9388],[-121.778,37.9335],[-121.77781927251732,37.932757009237875],[-121.77706,37.93119],[-121.77720474333466,37.930230611486934],[-121.7771,37.9298],[-121.7789,37.9184]]],[[[-121.75130055859138,38.0124166180935],[-121.7512975351386,38.012326670373696],[-121.75104146805545,38.012328712375954],[-121.75130055859138,38.0124166180935]]],[[[-121.75086722160562,38.01226959304476],[-121.7507775029656,38.01184546856465],[-121.75078,38.01224],[-121.75086722160562,38.01226959304476]]],[[[-121.74314160855043,37.982634056112225],[-121.73590858536579,37.97497556097555],[-121.74274,37.98234],[-121.74314160855043,37.982634056112225]]]]}}]}