{"type":"FeatureCollection","features":[{"type":"Feature","geometry":{"type":"Polygon","coordinates":[[[-124.3288,41.9983],[-124.3179,41.9946],[-124.307,41.9929],[-124.3012,41.983],[-124.2886,41.9696],[-124.2848,41.9568],[-124.2878,41.9518],[-124.2917,41.9363],[-124.2038,41.9366],[-124.1985,41.9176],[-124.1962,41.9145],[-124.1922,41.9132],[-124.1764,41.9139],[-124.1605,41.9093],[-124.1581,41.9059],[-124.1588,41.8994],[-124.1466,41.8883],[-124.1456,41.8836],[-124.1373,41.8798],[-124.1283,41.8777],[-124.125,41.8748],[-124.124,41.8708],[-124.1204,41.8669],[-124.1224,41.8532],[-124.1196,41.8468],[-124.1201,41.8449],[-124.1154,41.8422],[-124.1136,41.8394],[-124.1173,41.837],[-124.1138,41.8322],[-124.116,41.8288],[-124.1153,41.8257],[-124.1133,41.8234],[-124.1081,41.8209],[-124.1032,41.821],[-124.1004,41.8154],[-124.0869,41.8143],[-124.0814,41.8124],[-124.0811,41.8107],[-124.0825,41.8034],[-124.088,41.8028],[-124.089,41.7991],[-124.0886,41.7935],[-124.0845,41.7917],[-124.0864,41.789],[-124.0931,41.7844],[-124.0938,41.779],[-124.098,41.7772],[-124.0997,41.7784],[-124.1002,41.7703],[-124.1087,41.7694],[-124.1121,41.766],[-124.1172,41.7664],[-124.1264,41.7647],[-124.1296,41.7654],[-124.13,41.7637],[-124.1403,41.7607],[-124.1442,41.7615],[-124.1437,41.7593],[-124.1452,41.7583],[-124.1386,41.7582],[-124.1388,41.7288],[-124.1434,41.7291],[-124.1412,41.7251],[-124.1395,41.7237],[-124.1309,41.725],[-124.1268,41.7266],[-124.1206,41.7321],[-124.1078,41.7289],[-124.1011,41.7309],[-124.1,41.7344],[-124.0982,41.7345],[-124.0979,41.7326],[-124.0958,41.7318],[-124.0959,41.7295],[-124.092,41.7292],[-124.0896,41.7305],[-124.0885,41.7294],[-124.0889,41.7275],[-124.0842,41.7266],[-124.081,41.728],[-124.0782,41.7241],[-124.0767,41.7254],[-124.0665,41.7276],[-124.051,41.7215],[-124.034,41.724],[-124.0328,41.7224],[-124.0346,41.7196],[-124.0344,41.7124],[-124.0326,41.7126],[-124.0326,41.7141],[-124.0315,41.7141],[-124.0262,41.7073],[-124.0209,41.7106],[-124.0183,41.6997],[-124.0119,41.6932],[-124.0108,41.6898],[-124.0091,41.689],[-124.0098,41.6902],[-124.0088,41.6912],[-124.01,41.6918],[-124.0078,41.6938],[-124.007,41.6927],[-124.008,41.6923],[-124.0034,41.6884],[-124.0053,41.6873],[-124.0033,41.6849],[-124.0042,41.6868],[-124.0002,41.6877],[-124.0024,41.6912],[-124.0008,41.6919],[-124.0001,41.6956],[-123.9987,41.69],[-123.9911,41.6878],[-123.9965,41.6872],[-123.9981,41.6855],[-123.9973,41.6839],[-123.9989,41.6839],[-123.9996,41.6812],[-124.0036,41.6787],[-124.0023,41.6752],[-123.9937,41.6745],[-124.0004,41.6719],[-124.0001,41.6703],[-123.9957,41.6672],[-123.9934,41.6672],[-123.994,41.6659],[-123.9927,41.6646],[-123.987,41.6645],[-123.9905,41.6609],[-123.9874,41.6595],[-123.9881,41.658],[-123.9843,41.6577],[-123.9886,41.6547],[-123.9873,41.6541],[-123.9883,41.6536],[-123.9876,41.6522],[-123.9853,41.6527],[-123.9879,41.6496],[-123.9845,41.6448],[-123.9843,41.6388],[-123.9864,41.637],[-123.9917,41.6366],[-123.9941,41.6336],[-123.9924,41.6304],[-123.9934,41.626],[-123.9898,41.6239],[-123.9898,41.6174],[-123.9869,41.6153],[-123.9851,41.61],[-123.9814,41.6091],[-123.9806,41.6073],[-123.9751,41.6046],[-123.9702,41.6045],[-123.967,41.6026],[-123.9657,41.5987],[-123.9639,41.5976],[-123.9645,41.5958],[-123.9625,41.5949],[-123.9616,41.5927],[-123.9579,41.5915],[-123.9564,41.5829],[-123.962,41.5777],[-123.9551,41.5762],[-123.9503,41.5722],[-123.9504,41.568],[-123.9473,41.566],[-123.9479,41.5642],[-123.9436,41.5604],[-123.9407,41.5552],[-123.9411,41.5509],[-123.9367,41.547],[-123.9302,41.5463],[-123.9215,41.5385],[-123.9149,41.5357],[-123.9133,41.5389],[-123.9149,41.5401],[-123.9142,41.542],[-123.9154,41.5467],[-123.9142,41.5496],[-123.9129,41.55],[-123.9123,41.545],[-123.9104,41.5452],[-123.9092,41.5427],[-123.9093,41.5362],[-123.907,41.5349],[-123.9082,41.5322],[-123.9052,41.5261],[-123.9053,41.5175],[-123.8968,41.5149],[-123.8942,41.512],[-123.8915,41.5111],[-123.8802,41.5101],[-123.8779,41.5117],[-123.875,41.5109],[-123.873,41.507],[-123.8735,41.5048],[-123.8698,41.5025],[-123.87,41.5],[-123.8675,41.4942],[-123.8636,41.4906],[-123.863,41.488],[-123.8601,41.4853],[-123.8601,41.4826],[-123.8541,41.4761],[-123.8539,41.4742],[-123.8519,41.4739],[-123.8529,41.4716],[-123.8468,41.4743],[-123.8448,41.4719],[-123.8432,41.4662],[-123.8501,41.4656],[-123.8583,41.4692],[-123.8591,41.4678],[-123.8616,41.4685],[-123.865,41.467],[-123.8651,41.464],[-123.7706,41.4642],[-123.7702,41.3808],[-123.6614,41.3821],[-123.6604,41.385],[-123.6555,41.3884],[-123.656,41.3953],[-123.6416,41.4002],[-123.6417,41.4044],[-123.6392,41.4067],[-123.639,41.41],[-123.642,41.4157],[-123.6486,41.4208],[-123.6378,41.4281],[-123.633,41.4283],[-123.622,41.4326],[-123.6221,41.4346],[-123.6182,41.443],[-123.6124,41.449],[-123.6159,41.453],[-123.6131,41.4571],[-123.6118,41.4621],[-123.6214,41.4639],[-123.6266,41.4668],[-123.6299,41.4718],[-123.6324,41.4735],[-123.6306,41.4771],[-123.6378,41.4824],[-123.6354,41.4837],[-123.6345,41.4861],[-123.636,41.4891],[-123.6358,41.4919],[-123.6408,41.5021],[-123.6407,41.5074],[-123.6445,41.5096],[-123.6461,41.5124],[-123.6458,41.519],[-123.6426,41.5227],[-123.6468,41.5289],[-123.648,41.535],[-123.6528,41.5394],[-123.6568,41.5386],[-123.6688,41.5421],[-123.67,41.5441],[-123.6825,41.5431],[-123.6895,41.5495],[-123.6902,41.5523],[-123.6939,41.5519],[-123.6926,41.553],[-123.6939,41.557],[-123.6893,41.5608],[-123.6876,41.567],[-123.6838,41.5688],[-123.6839,41.5701],[-123.6815,41.5718],[-123.6846,41.5742],[-123.6856,41.578],[-123.6891,41.5821],[-123.6879,41.5851],[-123.6813,41.5867],[-123.6834,41.5914],[-123.6823,41.5949],[-123.6879,41.5946],[-123.6976,41.5909],[-123.6991,41.5932],[-123.6989,41.5957],[-123.7065,41.5957],[-123.7157,41.5913],[-123.7192,41.5956],[-123.7161,41.6065],[-123.7114,41.6089],[-123.711,41.615],[-123.7072,41.6176],[-123.7043,41.6229],[-123.7015,41.6238],[-123.7006,41.6258],[-123.6987,41.6259],[-123.6966,41.6282],[-123.6984,41.6314],[-123.6966,41.6339],[-123.6804,41.634],[-123.6799,41.637],[-123.6851,41.644],[-123.6884,41.6527],[-123.6883,41.6575],[-123.6853,41.66],[-123.6886,41.6602],[-123.6896,41.6694],[-123.687,41.6709],[-123.6854,41.676],[-123.68,41.6802],[-123.6751,41.6821],[-123.6697,41.6899],[-123.6628,41.6935],[-123.668,41.6969],[-123.6701,41.6993],[-123.6701,41.7017],[-123.6692,41.7065],[-123.6643,41.7093],[-123.6602,41.7141],[-123.6599,41.7202],[-123.6611,41.7241],[-123.6666,41.7297],[-123.6661,41.7322],[-123.6737,41.7343],[-123.6741,41.7363],[-123.6783,41.7385],[-123.6797,41.7429],[-123.6787,41.7463],[-123.6819,41.7517],[-123.6817,41.7569],[-123.6832,41.7588],[-123.6819,41.761],[-123.6834,41.7696],[-123.6883,41.7812],[-123.6841,41.7845],[-123.6746,41.7856],[-123.6739,41.7863],[-123.6763,41.7895],[-123.6721,41.796],[-123.6757,41.7984],[-123.6793,41.7989],[-123.6807,41.8008],[-123.6849,41.7999],[-123.69,41.8032],[-123.6904,41.8065],[-123.6922,41.8087],[-123.6912,41.8102],[-123.693,41.8115],[-123.6944,41.8156],[-123.6967,41.8172],[-123.6997,41.817],[-123.703,41.8197],[-123.7021,41.8265],[-123.7038,41.8291],[-123.695,41.8341],[-123.6829,41.8371],[-123.6708,41.8354],[-123.6713,41.845],[-123.6625,41.8524],[-123.6615,41.8565],[-123.6569,41.8571],[-123.6495,41.8603],[-123.6515,41.8617],[-123.6523,41.8655],[-123.6502,41.8708],[-123.6514,41.8729],[-123.6465,41.8766],[-123.6523,41.8789],[-123.6452,41.8835],[-123.6422,41.8897],[-123.6394,41.8903],[-123.6363,41.8876],[-123.6245,41.8884],[-123.6213,41.8843],[-123.6171,41.8818],[-123.6063,41.8808],[-123.6043,41.8842],[-123.6048,41.8881],[-123.5974,41.8942],[-123.5994,41.899],[-123.5954,41.9023],[-123.5936,41.9063],[-123.578,41.903],[-123.5734,41.9042],[-123.5654,41.9031],[-123.5595,41.906],[-123.5574,41.9108],[-123.5536,41.9147],[-123.5549,41.9217],[-123.5533,41.9273],[-123.5544,41.9301],[-123.5488,41.9333],[-123.5477,41.9384],[-123.5446,41.9396],[-123.5447,41.9423],[-123.5333,41.9552],[-123.5333,41.9635],[-123.5372,41.9705],[-123.5358,41.9741],[-123.5363,41.9773],[-123.538,41.9793],[-123.5378,41.9824],[-123.5409,41.9853],[-123.5343,41.9909],[-123.5199,41.9952],[-123.5204,41.9978],[-123.5179,42.0008],[-123.624,41.9998],[-123.6572,41.9951],[-123.7282,41.9971],[-123.8109,41.9952],[-124.102,41.9967],[-124.2116,41.9985],[-124.3288,41.9983]]]},"properties":{"GEOID":"0601593040","NAME":"Smith River-Gasquet","COUNTY":"015"}},{"type":"Feature","geometry":{"type":"Polygon","coordinates":[[[-124.3161,41.7284],[-124.3003,41.7241],[-124.2781,41.7097],[-124.2624,41.7019],[-124.2495,41.697],[-124.2369,41.6946],[-124.2226,41.6853],[-124.2117,41.6812],[-124.2085,41.6738],[-124.2118,41.6619],[-124.2118,41.6527],[-124.2105,41.6495],[-124.2114,41.6417],[-124.2098,41.6352],[-124.2013,41.6194],[-124.1901,41.6082],[-124.1905,41.5987],[-124.1892,41.5918],[-124.1871,41.589],[-124.1883,41.574],[-124.185,41.5658],[-124.18,41.5583],[-124.1723,41.551],[-124.1605,41.5434],[-124.1601,41.5294],[-124.1579,41.519],[-124.1518,41.5082],[-124.1513,41.4998],[-124.1441,41.4869],[-124.1366,41.4645],[-124.0012,41.4652],[-124.0012,41.4643],[-123.9953,41.4643],[-123.9953,41.4653],[-123.8857,41.4658],[-123.8857,41.4639],[-123.8761,41.4638],[-123.8651,41.464],[-123.865,41.467],[-123.8616,41.4685],[-123.8591,41.4678],[-123.8582,41.4692],[-123.8501,41.4656],[-123.8434,41.4657],[-123.8448,41.4719],[-123.8467,41.4742],[-123.8483,41.4745],[-123.8529,41.4716],[-123.8519,41.4739],[-123.8539,41.4742],[-123.8541,41.4761],[-123.8601,41.4826],[-123.8601,41.4853],[-123.863,41.488],[-123.8636,41.4906],[-123.8675,41.4942],[-123.87,41.5],[-123.8698,41.5025],[-123.8735,41.5048],[-123.873,41.507],[-123.875,41.5109],[-123.8779,41.5117],[-123.8802,41.5101],[-123.8915,41.5111],[-123.8942,41.512],[-123.8968,41.5149],[-123.9053,41.5175],[-123.9052,41.5261],[-123.9082,41.5322],[-123.907,41.5349],[-123.9093,41.5362],[-123.9092,41.5427],[-123.9104,41.5452],[-123.9123,41.545],[-123.9128,41.55],[-123.9142,41.5496],[-123.9154,41.5467],[-123.9142,41.542],[-123.9149,41.5401],[-123.9133,41.5389],[-123.9149,41.5357],[-123.9215,41.5385],[-123.9302,41.5463],[-123.9372,41.5474],[-123.9411,41.5509],[-123.9407,41.5552],[-123.9436,41.5604],[-123.9479,41.5642],[-123.9468,41.5654],[-123.9504,41.568],[-123.9512,41.5733],[-123.9551,41.5762],[-123.962,41.5777],[-123.9564,41.5829],[-123.9579,41.5915],[-123.9616,41.5927],[-123.9625,41.5949],[-123.9645,41.5958],[-123.9639,41.5976],[-123.9686,41.6039],[-123.9751,41.6046],[-123.9806,41.6073],[-123.9814,41.6091],[-123.9851,41.61],[-123.9869,41.6153],[-123.9898,41.6174],[-123.9898,41.6239],[-123.9934,41.626],[-123.9924,41.6304],[-123.9941,41.6336],[-123.9927,41.6359],[-123.9864,41.637],[-123.9843,41.6388],[-123.9845,41.6448],[-123.9879,41.6496],[-123.9853,41.6527],[-123.9876,41.6522],[-123.9883,41.6536],[-123.9873,41.6541],[-123.9886,41.6547],[-123.9843,41.6577],[-123.9881,41.658],[-123.9874,41.6595],[-123.9905,41.6609],[-123.987,41.6645],[-123.9927,41.6646],[-123.994,41.6659],[-123.9934,41.6672],[-123.9957,41.6672],[-124.0001,41.6703],[-124.0004,41.6719],[-123.9937,41.6745],[-124.0023,41.6752],[-124.0036,41.6787],[-123.9996,41.6812],[-123.9989,41.6839],[-123.9973,41.6839],[-123.9981,41.6855],[-123.9965,41.6872],[-123.991,41.6878],[-123.9987,41.69],[-124.0001,41.6956],[-124.0008,41.6919],[-124.0024,41.6912],[-124.0002,41.6877],[-124.0042,41.6868],[-124.0033,41.6849],[-124.0053,41.6873],[-124.0034,41.6884],[-124.008,41.6923],[-124.007,41.6927],[-124.0078,41.6938],[-124.01,41.6918],[-124.0088,41.6912],[-124.0098,41.6902],[-124.0091,41.689],[-124.0108,41.6898],[-124.0119,41.6932],[-124.0183,41.6997],[-124.0209,41.7106],[-124.0262,41.7073],[-124.0315,41.7141],[-124.0326,41.7141],[-124.0326,41.7126],[-124.0344,41.7124],[-124.0346,41.7196],[-124.0328,41.7224],[-124.0338,41.7239],[-124.051,41.7215],[-124.0665,41.7276],[-124.0767,41.7254],[-124.0782,41.7241],[-124.081,41.728],[-124.0842,41.7266],[-124.0889,41.7275],[-124.0885,41.7294],[-124.0896,41.7305],[-124.092,41.7292],[-124.0959,41.7295],[-124.0958,41.7318],[-124.0979,41.7326],[-124.0984,41.7345],[-124.1,41.7344],[-124.1011,41.7309],[-124.1078,41.7289],[-124.1208,41.7321],[-124.1269,41.7265],[-124.1395,41.7237],[-124.1431,41.7288],[-124.1544,41.7287],[-124.1645,41.74],[-124.178,41.7462],[-124.1839,41.7394],[-124.191,41.7362],[-124.19100540176144,41.73620070457758],[-124.19102,41.73616],[-124.19195469586374,41.736324525547445],[-124.1933,41.7365],[-124.1934,41.7272],[-124.3161,41.7284]]]},"properties":{"GEOID":"0601591490","NAME":"Klamath","COUNTY":"015"}},{"type":"Feature","geometry":{"type":"Polygon","coordinates":[[[-124.4407,41.8387],[-124.4389,41.8245],[-124.435,41.8166],[-124.4292,41.8097],[-124.4175,41.8],[-124.4142,41.793],[-124.4057,41.7831],[-124.3921,41.7724],[-124.3762,41.7656],[-124.3762,41.7646],[-124.3692,41.7634],[-124.361,41.756],[-124.3306,41.7338],[-124.3161,41.7284],[-124.1934,41.7272],[-124.1933,41.7365],[-124.19195469586374,41.736324525547445],[-124.19494,41.73685],[-124.19841,41.74209],[-124.20411,41.74277],[-124.20587,41.74572],[-124.20785,41.74733],[-124.21771,41.75101],[-124.21457,41.75103],[-124.21471,41.75823],[-124.20764,41.75822],[-124.20509,41.7564],[-124.20494,41.75821],[-124.19863,41.7581],[-124.19976,41.76062],[-124.20129,41.76061],[-124.20199,41.76245],[-124.20413,41.76302],[-124.20435,41.76732],[-124.2092,41.76729],[-124.2092,41.76796],[-124.2103,41.76802],[-124.21023,41.77275],[-124.20054,41.77273],[-124.19887,41.76733],[-124.19729,41.7673],[-124.19694,41.76548],[-124.19511,41.76551],[-124.19248,41.76741],[-124.19139,41.76633],[-124.19069,41.76693],[-124.18935,41.76632],[-124.19043,41.76524],[-124.19055,41.75375],[-124.18532,41.75267],[-124.18356,41.75314],[-124.17692,41.74897],[-124.17863,41.74757],[-124.18363,41.75122],[-124.18575,41.74945],[-124.19038,41.75084],[-124.19021,41.74333],[-124.19081,41.74203],[-124.18965,41.73998],[-124.19100540176144,41.73620070457758],[-124.191,41.7362],[-124.1839,41.7394],[-124.178,41.7462],[-124.1645,41.74],[-124.1544,41.7287],[-124.1388,41.7288],[-124.1386,41.7582],[-124.1452,41.7583],[-124.1437,41.7593],[-124.1442,41.7615],[-124.1403,41.7607],[-124.13,41.7637],[-124.1296,41.7654],[-124.1264,41.7647],[-124.1172,41.7664],[-124.1121,41.766],[-124.1087,41.7694],[-124.1002,41.7703],[-124.0997,41.7784],[-124.098,41.7772],[-124.0938,41.779],[-124.0931,41.7844],[-124.0864,41.789],[-124.0845,41.7917],[-124.0886,41.7935],[-124.089,41.7991],[-124.088,41.8028],[-124.0825,41.8034],[-124.0811,41.8107],[-124.0814,41.8124],[-124.0869,41.8143],[-124.1002,41.8153],[-124.1032,41.821],[-124.1081,41.8209],[-124.1138,41.8237],[-124.116,41.8281],[-124.1138,41.8322],[-124.1173,41.837],[-124.1136,41.8394],[-124.1154,41.8422],[-124.1201,41.8449],[-124.1196,41.8468],[-124.1224,41.8532],[-124.1204,41.8669],[-124.124,41.8708],[-124.1249,41.8747],[-124.1283,41.8777],[-124.1373,41.8798],[-124.1456,41.8836],[-124.1466,41.8883],[-124.1588,41.8994],[-124.1581,41.9059],[-124.1605,41.9093],[-124.1764,41.9139],[-124.1922,41.9132],[-124.1962,41.9145],[-124.1985,41.9176],[-124.2038,41.9366],[-124.2917,41.9363],[-124.2919,41.9285],[-124.2899,41.9201],[-124.2857,41.9129],[-124.2761,41.9031],[-124.2807,41.8748],[-124.2796,41.8748],[-124.285,41.8595],[-124.298,41.8607],[-124.3119,41.8588],[-124.333,41.877],[-124.3476,41.8832],[-124.3652,41.8866],[-124.3888,41.8868],[-124.4012,41.8856],[-124.4113,41.8821],[-124.4261,41.8688],[-124.435,41.8565],[-124.4407,41.8387]],[[-124.16012,41.8479],[-124.15437,41.85809],[-124.14195,41.85806],[-124.14265,41.85137],[-124.15131,41.85146],[-124.15141,41.84802],[-124.16012,41.8479]]]},"properties":{"GEOID":"0601590620","NAME":"Crescent City","COUNTY":"015"}}]}