{"type":"FeatureCollection","features":[{"type":"Feature","geometry":{"type":"Polygon","coordinates":[[[-121.1186,38.7171],[-121.0854,38.6478],[-121.0705,38.6076],[-121.0275,38.5083],[-121.0193,38.5089],[-121.0132,38.5131],[-121.0114,38.5125],[-121.0095,38.5147],[-121.0097,38.5175],[-121.0074,38.5192],[-121.0013,38.5188],[-120.9948,38.5136],[-120.9871,38.5165],[-120.9802,38.5152],[-120.9747,38.5159],[-120.9699,38.521],[-120.9643,38.5203],[-120.9576,38.5228],[-120.9537,38.5209],[-120.9467,38.5232],[-120.9437,38.5274],[-120.9413,38.5286],[-120.9382,38.5271],[-120.9364,38.5194],[-120.9306,38.5183],[-120.927,38.515],[-120.9238,38.5161],[-120.9224,38.5193],[-120.9108,38.5206],[-120.9088,38.5239],[-120.9054,38.5243],[-120.9024,38.5312],[-120.8948,38.5281],[-120.8922,38.5288],[-120.8902,38.5274],[-120.8896,38.5248],[-120.8863,38.5247],[-120.8834,38.5261],[-120.8807,38.5295],[-120.8837,38.5365],[-120.8781,38.5396],[-120.8763,38.5433],[-120.8736,38.5425],[-120.8738,38.5386],[-120.871,38.5363],[-120.8635,38.5353],[-120.8624,38.5433],[-120.8566,38.5427],[-120.8555,38.5444],[-120.8561,38.5486],[-120.8493,38.5507],[-120.8472,38.5538],[-120.8409,38.556],[-120.8359,38.5515],[-120.8327,38.556],[-120.8254,38.5559],[-120.8233,38.5597],[-120.8166,38.5582],[-120.8152,38.5615],[-120.813,38.5622],[-120.81,38.5615],[-120.8126,38.5596],[-120.8105,38.5577],[-120.805,38.5582],[-120.8046,38.5598],[-120.8014,38.5587],[-120.8006,38.556],[-120.7941,38.5575],[-120.793,38.5549],[-120.7885,38.5541],[-120.7842,38.5509],[-120.7791,38.5544],[-120.7689,38.5526],[-120.76,38.5549],[-120.7548,38.5512],[-120.7496,38.5533],[-120.747,38.553],[-120.7487,38.5509],[-120.7473,38.5484],[-120.739,38.5483],[-120.7365,38.5456],[-120.7308,38.5481],[-120.7274,38.5468],[-120.7225,38.5472],[-120.7183,38.5418],[-120.7069,38.5352],[-120.7042,38.5362],[-120.6995,38.532],[-120.6907,38.5288],[-120.6905,38.5277],[-120.687,38.528],[-120.6831,38.5264],[-120.6789,38.5225],[-120.6772,38.5178],[-120.6592,38.5156],[-120.6577,38.5134],[-120.6508,38.51],[-120.639,38.5078],[-120.6284,38.5032],[-120.6218,38.5044],[-120.6144,38.5032],[-120.6121,38.5045],[-120.6062,38.5023],[-120.6026,38.5039],[-120.5947,38.5035],[-120.5923,38.5046],[-120.5892,38.5033],[-120.5797,38.5034],[-120.5538,38.5119],[-120.5372,38.5096],[-120.5055,38.5123],[-120.5,38.5144],[-120.4978,38.5165],[-120.491,38.5175],[-120.4858,38.5213],[-120.4735,38.5217],[-120.4592,38.5239],[-120.45,38.5285],[-120.4389,38.5289],[-120.4332,38.5268],[-120.4246,38.5303],[-120.4131,38.5311],[-120.4042,38.5366],[-120.3988,38.5373],[-120.3962,38.5391],[-120.3887,38.5406],[-120.3837,38.5387],[-120.3808,38.5429],[-120.3767,38.5447],[-120.3639,38.5444],[-120.3545,38.5481],[-120.3387,38.5469],[-120.3313,38.5477],[-120.3284,38.5452],[-120.325,38.5462],[-120.3179,38.545],[-120.3017,38.5491],[-120.2989,38.5521],[-120.2992,38.5561],[-120.2976,38.5568],[-120.2896,38.5561],[-120.2839,38.557],[-120.2783,38.5597],[-120.2745,38.5595],[-120.2666,38.5677],[-120.2664,38.5735],[-120.2619,38.5792],[-120.2538,38.582],[-120.251,38.5844],[-120.2432,38.5864],[-120.2392,38.586],[-120.2338,38.5883],[-120.2318,38.5922],[-120.2332,38.5964],[-120.2326,38.6],[-120.2287,38.6008],[-120.2237,38.6043],[-120.2271,38.6106],[-120.2207,38.6214],[-120.2146,38.6236],[-120.2157,38.6268],[-120.2143,38.6291],[-120.2047,38.6277],[-120.2034,38.6252],[-120.2018,38.6247],[-120.1977,38.6258],[-120.1971,38.6292],[-120.1913,38.6312],[-120.1786,38.6338],[-120.1718,38.6324],[-120.1581,38.6332],[-120.1538,38.6355],[-120.1524,38.6379],[-120.1501,38.6374],[-120.1454,38.6397],[-120.1401,38.6384],[-120.1314,38.6498],[-120.1351,38.6545],[-120.1322,38.6603],[-120.1285,38.6651],[-120.1231,38.6667],[-120.1167,38.6798],[-120.1234,38.6869],[-120.1243,38.6903],[-120.1225,38.6954],[-120.1176,38.6986],[-120.112,38.705],[-120.1044,38.7061],[-120.0984,38.704],[-120.0983,38.709],[-120.0776,38.7089],[-120.0777,38.7021],[-120.0824,38.702],[-120.0825,38.7006],[-120.0755,38.7015],[-120.0327,38.7298],[-120.0333,38.732],[-120.0368,38.7354],[-120.0506,38.7406],[-120.0509,38.7499],[-120.0478,38.7696],[-120.0486,38.7809],[-120.0452,38.8029],[-120.0287,38.8104],[-120.0287,38.8118],[-120.0297,38.8131],[-120.0328,38.8137],[-120.0349,38.8187],[-120.0399,38.823],[-120.0543,38.8259],[-120.0728,38.821],[-120.0815,38.8168],[-120.0981,38.8064],[-120.0992,38.8032],[-120.1057,38.805],[-120.1098,38.8043],[-120.1119,38.802],[-120.1164,38.8032],[-120.1211,38.8014],[-120.1247,38.8036],[-120.1218,38.8047],[-120.1235,38.8066],[-120.1202,38.8098],[-120.1206,38.8114],[-120.1355,38.8086],[-120.14,38.8057],[-120.1449,38.7974],[-120.1576,38.787],[-120.1667,38.789],[-120.1763,38.7883],[-120.1932,38.7911],[-120.2136,38.7853],[-120.2185,38.7822],[-120.2363,38.7842],[-120.2427,38.7807],[-120.2508,38.7809],[-120.2648,38.7767],[-120.28,38.777],[-120.2894,38.7723],[-120.2941,38.7744],[-120.2992,38.7744],[-120.3135,38.7697],[-120.3187,38.7662],[-120.3249,38.764],[-120.3324,38.7635],[-120.341,38.7653],[-120.3479,38.7636],[-120.3559,38.7668],[-120.3606,38.7636],[-120.3727,38.768],[-120.3798,38.767],[-120.3885,38.7725],[-120.3948,38.7741],[-120.3988,38.7737],[-120.4059,38.7763],[-120.4178,38.7748],[-120.4215,38.7755],[-120.44,38.7687],[-120.4456,38.7686],[-120.4506,38.7716],[-120.4576,38.7717],[-120.4612,38.7759],[-120.4643,38.7764],[-120.4759,38.7719],[-120.4772,38.7679],[-120.4805,38.7654],[-120.4962,38.7667],[-120.5011,38.7623],[-120.5095,38.7597],[-120.5136,38.7607],[-120.5185,38.7593],[-120.5408,38.763],[-120.5463,38.7627],[-120.5545,38.7674],[-120.5599,38.7618],[-120.5795,38.7611],[-120.6053,38.7509],[-120.6205,38.7479],[-120.6261,38.745],[-120.6349,38.7434],[-120.644,38.7446],[-120.6596,38.7435],[-120.668,38.7349],[-120.676,38.7346],[-120.676,38.7304],[-120.6746,38.7281],[-120.6723,38.7275],[-120.6731,38.7259],[-120.6711,38.7266],[-120.6728,38.724],[-120.6679,38.7216],[-120.6698,38.7189],[-120.6729,38.7175],[-120.6784,38.7181],[-120.6962,38.7142],[-120.701,38.7153],[-120.7054,38.7144],[-120.7071,38.7156],[-120.712,38.7144],[-120.7144,38.7149],[-120.7173,38.7184],[-120.7224,38.7198],[-120.7246,38.7184],[-120.7274,38.7193],[-120.7384,38.7172],[-120.7467,38.7121],[-120.752,38.7128],[-120.7549,38.711],[-120.7582,38.7111],[-120.7656,38.706],[-120.7723,38.7068],[-120.7743,38.7061],[-120.7755,38.704],[-120.7867,38.7044],[-120.7968,38.7028],[-120.8048,38.7046],[-120.8082,38.7076],[-120.8171,38.7086],[-120.8209,38.7115],[-120.829,38.714],[-120.8307,38.7158],[-120.83537368421052,38.71655112781955],[-120.83577,38.71657],[-120.83612086021505,38.71667120967742],[-120.8363,38.7167],[-120.8389,38.7116],[-120.8422,38.7092],[-120.879,38.6968],[-120.892,38.6951],[-120.9032,38.6908],[-120.9277,38.6677],[-120.9376,38.6625],[-120.9383,38.664],[-120.9352,38.664],[-120.9317,38.6661],[-120.928,38.6738],[-120.9295,38.6806],[-120.9285,38.6887],[-120.9332,38.6967],[-120.9388,38.7191],[-120.9374,38.7217],[-120.9342,38.7233],[-120.9371,38.7248],[-120.9399,38.7238],[-120.9443,38.7262],[-120.9466,38.7248],[-120.949,38.7286],[-120.9526,38.7288],[-120.9529,38.7351],[-120.9518,38.7368],[-120.9572,38.7375],[-120.9605,38.7408],[-120.965,38.747],[-120.964,38.752],[-120.9683,38.7546],[-120.9699,38.7572],[-120.976,38.7572],[-120.9824,38.762],[-120.9881,38.7625],[-120.9893,38.764],[-120.9921,38.763],[-120.9905,38.7599],[-120.9912,38.7596],[-120.9939,38.7609],[-120.9965,38.7593],[-121.0022,38.7607],[-121.0039,38.7636],[-121.011,38.7627],[-121.0136,38.7671],[-121.015,38.7743],[-121.0164,38.7751],[-121.0222,38.7753],[-121.0272,38.7724],[-121.0408,38.7732],[-121.052,38.7711],[-121.0595,38.7632],[-121.0616,38.7563],[-121.0662,38.7545],[-121.0711,38.7589],[-121.0724,38.7566],[-121.0724,38.7532],[-121.0791,38.7475],[-121.0856,38.7466],[-121.0894,38.7447],[-121.0915,38.7419],[-121.0924,38.7369],[-121.1026,38.7343],[-121.1124,38.7345],[-121.1132,38.7216],[-121.1186,38.7171]]]},"properties":{"GEOID":"0601793150","NAME":"South El Dorado","COUNTY":"017"}},{"type":"Feature","geometry":{"type":"Polygon","coordinates":[[[-121.1416,38.7119],[-121.1338,38.7054],[-121.124,38.7105],[-121.1215,38.7141],[-121.1193,38.715],[-121.119,38.7179],[-121.1166,38.7178],[-121.1132,38.7216],[-121.1124,38.7345],[-121.1026,38.7343],[-121.0924,38.7369],[-121.0915,38.7419],[-121.0894,38.7447],[-121.0856,38.7466],[-121.0791,38.7475],[-121.0724,38.7532],[-121.0724,38.7566],[-121.0711,38.7589],[-121.0662,38.7545],[-121.0616,38.7563],[-121.0595,38.7632],[-121.052,38.7711],[-121.0408,38.7732],[-121.0272,38.7724],[-121.0222,38.7753],[-121.0175,38.7754],[-121.015,38.7743],[-121.0136,38.7671],[-121.011,38.7627],[-121.0039,38.7636],[-121.0022,38.7607],[-120.9965,38.7593],[-120.9939,38.7609],[-120.9912,38.7596],[-120.9905,38.7599],[-120.9921,38.763],[-120.9893,38.764],[-120.9881,38.7625],[-120.9824,38.762],[-120.976,38.7572],[-120.9699,38.7572],[-120.9683,38.7546],[-120.964,38.752],[-120.965,38.747],[-120.9605,38.7408],[-120.9572,38.7375],[-120.9518,38.7368],[-120.9529,38.7351],[-120.9526,38.7288],[-120.949,38.7286],[-120.9466,38.7248],[-120.9443,38.7262],[-120.9399,38.7238],[-120.9371,38.7248],[-120.9342,38.7233],[-120.9374,38.7217],[-120.9388,38.7191],[-120.9332,38.6967],[-120.9285,38.6887],[-120.9295,38.6806],[-120.928,38.6738],[-120.9317,38.6661],[-120.9352,38.664],[-120.9383,38.664],[-120.9376,38.6625],[-120.9277,38.6677],[-120.9029,38.6909],[-120.892,38.6951],[-120.8793,38.6967],[-120.8424,38.7091],[-120.8394,38.711],[-120.8374,38.7143],[-120.8363,38.7167],[-120.842,38.7229],[-120.8441,38.7219],[-120.8481,38.7233],[-120.8516,38.7269],[-120.8575,38.7288],[-120.8663,38.7376],[-120.8713,38.7402],[-120.8699,38.7416],[-120.8727,38.7491],[-120.8713,38.753],[-120.8765,38.7546],[-120.8844,38.7613],[-120.8736,38.7645],[-120.8714,38.763],[-120.8607,38.762],[-120.8561,38.764],[-120.8588,38.7665],[-120.8628,38.7672],[-120.8704,38.7764],[-120.8705,38.7799],[-120.8742,38.7813],[-120.876,38.78],[-120.8763,38.785],[-120.8753,38.7868],[-120.8767,38.7882],[-120.8767,38.7913],[-120.8606,38.7884],[-120.8577,38.7865],[-120.8569,38.7833],[-120.8484,38.7813],[-120.8455,38.7765],[-120.8493,38.7699],[-120.8362,38.772],[-120.8232,38.766],[-120.8186,38.7676],[-120.8163,38.7707],[-120.8106,38.7719],[-120.8094,38.7709],[-120.8087,38.7659],[-120.8063,38.7647],[-120.804,38.7653],[-120.8014,38.769],[-120.7928,38.7683],[-120.7926,38.7641],[-120.7913,38.7629],[-120.7875,38.7658],[-120.7817,38.7639],[-120.7816,38.7712],[-120.7766,38.7765],[-120.7838,38.7814],[-120.7801,38.783],[-120.7725,38.7834],[-120.7654,38.7771],[-120.7593,38.7808],[-120.7577,38.7775],[-120.753,38.7747],[-120.7423,38.7772],[-120.7402,38.7759],[-120.7387,38.7724],[-120.7366,38.7718],[-120.7304,38.7773],[-120.7244,38.7758],[-120.7203,38.7786],[-120.7159,38.7774],[-120.7121,38.7736],[-120.7082,38.7718],[-120.7034,38.7714],[-120.6997,38.773],[-120.7011,38.7705],[-120.6978,38.7691],[-120.7079,38.768],[-120.7099,38.7628],[-120.7095,38.7601],[-120.7152,38.7592],[-120.717,38.755],[-120.7202,38.7573],[-120.723,38.7535],[-120.7239,38.748],[-120.7298,38.7445],[-120.7423,38.7414],[-120.753,38.7436],[-120.7591,38.7466],[-120.7609,38.7452],[-120.7554,38.7358],[-120.7498,38.737],[-120.7495,38.7327],[-120.7401,38.7316],[-120.738,38.7252],[-120.736,38.7232],[-120.7294,38.721],[-120.7212,38.7205],[-120.7162,38.7179],[-120.714,38.7147],[-120.7071,38.7156],[-120.7054,38.7144],[-120.701,38.7153],[-120.6962,38.7142],[-120.692,38.7159],[-120.6884,38.7156],[-120.6775,38.7182],[-120.6729,38.7175],[-120.6698,38.7189],[-120.6679,38.7217],[-120.6728,38.724],[-120.6711,38.7266],[-120.6731,38.7259],[-120.6723,38.7275],[-120.6746,38.7281],[-120.676,38.7304],[-120.676,38.7346],[-120.668,38.7349],[-120.6593,38.7436],[-120.644,38.7446],[-120.6349,38.7434],[-120.6261,38.745],[-120.6205,38.7479],[-120.6053,38.7509],[-120.5795,38.7611],[-120.5599,38.7618],[-120.5545,38.7674],[-120.5463,38.7627],[-120.5408,38.763],[-120.5185,38.7593],[-120.5136,38.7607],[-120.5095,38.7597],[-120.5011,38.7623],[-120.4962,38.7667],[-120.4805,38.7654],[-120.4772,38.7679],[-120.4759,38.7719],[-120.4643,38.7764],[-120.4612,38.7759],[-120.4576,38.7717],[-120.4506,38.7716],[-120.4456,38.7686],[-120.44,38.7687],[-120.4215,38.7755],[-120.4178,38.7748],[-120.4059,38.7763],[-120.3988,38.7737],[-120.3948,38.7741],[-120.3885,38.7725],[-120.3798,38.767],[-120.3727,38.768],[-120.3606,38.7636],[-120.3559,38.7668],[-120.3479,38.7636],[-120.341,38.7653],[-120.3324,38.7635],[-120.3247,38.7641],[-120.3187,38.7662],[-120.3135,38.7697],[-120.2992,38.7744],[-120.2941,38.7744],[-120.2894,38.7723],[-120.28,38.777],[-120.2648,38.7767],[-120.2508,38.7809],[-120.2427,38.7807],[-120.2363,38.7842],[-120.2185,38.7822],[-120.2136,38.7853],[-120.1932,38.7911],[-120.1763,38.7883],[-120.1667,38.789],[-120.1576,38.787],[-120.1449,38.7974],[-120.14,38.8057],[-120.1355,38.8086],[-120.1206,38.8114],[-120.1202,38.8098],[-120.1235,38.8066],[-120.1218,38.8047],[-120.1247,38.8036],[-120.1211,38.8014],[-120.1164,38.8032],[-120.1119,38.802],[-120.1098,38.8043],[-120.1057,38.805],[-120.0992,38.8032],[-120.0981,38.8064],[-120.0902,38.8122],[-120.0849,38.8142],[-120.0864,38.8184],[-120.091,38.8218],[-120.0905,38.8233],[-120.0939,38.8214],[-120.0949,38.8221],[-120.0961,38.824],[-120.0961,38.8298],[-120.0988,38.8319],[-120.1051,38.8335],[-120.1093,38.8371],[-120.1078,38.8394],[-120.1078,38.8464],[-120.1113,38.8532],[-120.118,38.8582],[-120.1216,38.8656],[-120.123,38.8668],[-120.1342,38.8675],[-120.139,38.8696],[-120.1525,38.8848],[-120.1536,38.8902],[-120.1508,38.9003],[-120.1556,38.905],[-120.1641,38.9214],[-120.1627,38.9247],[-120.1459,38.9352],[-120.1465,38.9394],[-120.1499,38.9449],[-120.1502,38.9538],[-120.1421,38.9592],[-120.1404,38.9646],[-120.1413,38.9666],[-120.1484,38.9705],[-120.156,38.9801],[-120.1705,38.9775],[-120.1825,38.9813],[-120.1945,38.9958],[-120.2042,39.0099],[-120.2063,39.0144],[-120.2061,39.0172],[-120.201,39.0197],[-120.2006,39.0228],[-120.1844,39.031],[-120.2402,39.0309],[-120.2404,39.0237],[-120.2593,39.0247],[-120.2594,39.0235],[-120.3281,39.0224],[-120.4352,39.0284],[-120.4392,39.0242],[-120.4423,39.023],[-120.4452,39.0176],[-120.4457,39.0089],[-120.4495,39.0061],[-120.4502,39.0003],[-120.4537,38.9955],[-120.4511,38.9896],[-120.4515,38.9879],[-120.4601,38.9845],[-120.4621,38.9777],[-120.4663,38.9721],[-120.4692,38.9705],[-120.4708,38.9656],[-120.4748,38.9644],[-120.4797,38.9598],[-120.4828,38.9603],[-120.486,38.959],[-120.4875,38.9525],[-120.4927,38.9491],[-120.4918,38.9452],[-120.4927,38.9434],[-120.5026,38.9411],[-120.5048,38.9352],[-120.5108,38.9342],[-120.5121,38.9313],[-120.5233,38.9303],[-120.5273,38.9316],[-120.5323,38.9291],[-120.5351,38.9259],[-120.5449,38.927],[-120.5461,38.9207],[-120.5521,38.9206],[-120.5548,38.9185],[-120.5563,38.9152],[-120.5591,38.9158],[-120.5643,38.9136],[-120.5674,38.9149],[-120.5712,38.914],[-120.574,38.9158],[-120.5789,38.9166],[-120.5805,38.9202],[-120.5844,38.9213],[-120.5868,38.9236],[-120.5851,38.9277],[-120.5873,38.9314],[-120.5935,38.9321],[-120.5944,38.9361],[-120.5994,38.9367],[-120.6057,38.9344],[-120.6113,38.9426],[-120.622,38.943],[-120.6295,38.9464],[-120.6357,38.9434],[-120.6425,38.9444],[-120.6447,38.9467],[-120.651,38.9489],[-120.6544,38.9484],[-120.6557,38.9535],[-120.6604,38.9541],[-120.6648,38.9572],[-120.6727,38.9586],[-120.674,38.9624],[-120.6777,38.9636],[-120.6797,38.9665],[-120.6837,38.9675],[-120.6826,38.9701],[-120.6834,38.9746],[-120.6809,38.9779],[-120.6852,38.9836],[-120.6846,38.9892],[-120.6889,38.9897],[-120.6929,38.9853],[-120.7044,38.9812],[-120.7113,38.9858],[-120.7163,38.9867],[-120.7222,38.9932],[-120.7232,38.9993],[-120.7296,39.004],[-120.736,39.0006],[-120.7383,39.002],[-120.7416,39.0014],[-120.7441,39.0049],[-120.7479,39.003],[-120.7485,39.0052],[-120.7459,39.0098],[-120.7477,39.0104],[-120.7499,39.0095],[-120.7528,39.0053],[-120.7578,39.0077],[-120.7604,39.0055],[-120.7638,39.0062],[-120.7638,39.0041],[-120.7601,39.0033],[-120.7627,39.0018],[-120.7669,39.0043],[-120.7662,39.007],[-120.7636,39.0082],[-120.764,39.0097],[-120.766,39.0097],[-120.7683,39.0092],[-120.7709,39.0066],[-120.7738,39.007],[-120.774,39.0056],[-120.7803,39.0042],[-120.7864,38.9998],[-120.7915,38.9994],[-120.7971,38.9962],[-120.7994,38.9969],[-120.8019,39.0011],[-120.8077,39.0011],[-120.8133,38.9995],[-120.8162,38.9944],[-120.8247,38.9927],[-120.8295,38.9879],[-120.8294,38.9804],[-120.833,38.9776],[-120.8327,38.9738],[-120.8342,38.9719],[-120.8388,38.9718],[-120.8408,38.9756],[-120.8479,38.977],[-120.8499,38.9765],[-120.8536,38.9724],[-120.8555,38.9668],[-120.8521,38.9595],[-120.8577,38.9566],[-120.8599,38.9517],[-120.8639,38.9543],[-120.868,38.954],[-120.8774,38.957],[-120.8816,38.9567],[-120.8879,38.9597],[-120.8914,38.9592],[-120.902,38.9531],[-120.9139,38.9552],[-120.9232,38.9609],[-120.9325,38.9621],[-120.9362,38.9639],[-120.94,38.9625],[-120.9406,38.961],[-120.9381,38.9551],[-120.9386,38.9356],[-120.943,38.9355],[-120.9492,38.9386],[-120.9578,38.9391],[-120.9651,38.9328],[-120.9707,38.9331],[-120.9773,38.9292],[-120.992,38.9272],[-120.9912,38.9236],[-120.997,38.9211],[-121.0002,38.9179],[-121.0051,38.9202],[-121.0071,38.9179],[-121.012,38.9167],[-121.0198,38.9181],[-121.0235,38.9172],[-121.0254,38.915],[-121.0338,38.9128],[-121.0375,38.9157],[-121.0404,38.9157],[-121.044,38.907],[-121.048,38.9051],[-121.0498,38.9018],[-121.0535,38.8988],[-121.053,38.8968],[-121.0482,38.8953],[-121.0443,38.8903],[-121.062,38.8821],[-121.0569,38.8773],[-121.0533,38.8683],[-121.0545,38.865],[-121.0586,38.8635],[-121.0618,38.8599],[-121.0576,38.8513],[-121.058,38.8478],[-121.0624,38.8451],[-121.0736,38.8426],[-121.0823,38.8349],[-121.085,38.835],[-121.0873,38.8333],[-121.0887,38.8271],[-121.0827,38.8224],[-121.085,38.816],[-121.0934,38.8138],[-121.1018,38.8152],[-121.0978,38.8073],[-121.0981,38.8033],[-121.1023,38.7959],[-121.1017,38.788],[-121.1117,38.7738],[-121.1186,38.7689],[-121.1193,38.7658],[-121.1177,38.7564],[-121.1213,38.7522],[-121.1214,38.7488],[-121.1283,38.7336],[-121.1333,38.7315],[-121.1332,38.7165],[-121.1345,38.712],[-121.1416,38.7119]]]},"properties":{"GEOID":"0601792190","NAME":"North El Dorado","COUNTY":"017"}},{"type":"Feature","geometry":{"type":"Polygon","coordinates":[[[-120.8844,38.7613],[-120.8765,38.7546],[-120.8713,38.753],[-120.8727,38.7491],[-120.8699,38.7416],[-120.8713,38.7402],[-120.8663,38.7376],[-120.8575,38.7288],[-120.8516,38.7269],[-120.8481,38.7233],[-120.8441,38.7219],[-120.842,38.7229],[-120.8364,38.7168],[-120.83626873608534,38.71677697124304],[-120.83523,38.71956],[-120.83363,38.72114],[-120.8343,38.72301],[-120.83686,38.7218],[-120.83711,38.72347],[-120.83519,38.72448],[-120.83573,38.72559],[-120.83721,38.72489],[-120.8376,38.72579],[-120.83869,38.72506],[-120.84242,38.72591],[-120.84264,38.72675],[-120.84534,38.72648],[-120.84845,38.72812],[-120.84935,38.72959],[-120.84882,38.73045],[-120.85096,38.73263],[-120.84135,38.73267],[-120.8414,38.73114],[-120.84252,38.73114],[-120.84256,38.73039],[-120.8412,38.72923],[-120.84338,38.72841],[-120.83965,38.72765],[-120.83872,38.72847],[-120.8394,38.72918],[-120.83906,38.73046],[-120.838,38.72967],[-120.83534,38.73175],[-120.83565,38.7327],[-120.83399,38.73313],[-120.83587,38.73672],[-120.83681,38.73682],[-120.83468,38.73856],[-120.83542,38.74023],[-120.8343,38.74049],[-120.83479,38.74269],[-120.83309,38.74212],[-120.83313,38.74325],[-120.8307,38.74312],[-120.83299,38.73874],[-120.83141,38.7367],[-120.83044,38.7362],[-120.82886,38.7413],[-120.82762,38.74088],[-120.82785,38.73922],[-120.82687,38.738],[-120.82727,38.73587],[-120.82646,38.73591],[-120.82596,38.73824],[-120.8236,38.73839],[-120.82259,38.73781],[-120.82393,38.73546],[-120.82378,38.73406],[-120.82299,38.73404],[-120.82228,38.73277],[-120.8207,38.73289],[-120.82051,38.73513],[-120.82258,38.73555],[-120.82218,38.73684],[-120.82035,38.73635],[-120.81883,38.73794],[-120.81925,38.74013],[-120.81693,38.74182],[-120.81074,38.73732],[-120.81073,38.73848],[-120.81172,38.73878],[-120.81041,38.73917],[-120.81037,38.74031],[-120.8078,38.7397],[-120.80305,38.74138],[-120.7997,38.74151],[-120.80063,38.74411],[-120.80249,38.74373],[-120.804,38.74527],[-120.80419,38.74662],[-120.80135,38.74648],[-120.79936,38.74798],[-120.79897,38.74739],[-120.79691,38.74772],[-120.79756,38.74868],[-120.78714,38.74846],[-120.78721,38.74478],[-120.78467,38.74482],[-120.78473,38.74311],[-120.78416,38.74323],[-120.7849,38.74281],[-120.78433,38.74145],[-120.78547,38.73995],[-120.78445,38.7396],[-120.78344,38.74079],[-120.78197,38.74012],[-120.78388,38.73753],[-120.78226,38.73802],[-120.78132,38.73987],[-120.77959,38.7389],[-120.77985,38.73817],[-120.77421,38.73834],[-120.77331,38.73695],[-120.7721,38.73693],[-120.77161,38.73567],[-120.76658,38.73679],[-120.76749,38.7344],[-120.76455,38.73352],[-120.75978,38.73304],[-120.75659,38.73366],[-120.75577,38.73319],[-120.75538,38.7311],[-120.75801,38.72918],[-120.75149,38.72904],[-120.7505,38.72679],[-120.75284,38.72682],[-120.75285,38.72619],[-120.757,38.72436],[-120.76426,38.72433],[-120.76779,38.722],[-120.76495,38.72125],[-120.76497,38.71961],[-120.7692,38.71954],[-120.76916,38.7169],[-120.76727,38.7142],[-120.76951,38.71383],[-120.77038,38.71211],[-120.77265,38.71595],[-120.77364,38.71592],[-120.77363,38.71694],[-120.77443,38.71637],[-120.77627,38.71701],[-120.77684,38.71879],[-120.77823,38.71963],[-120.78127,38.71875],[-120.78484,38.72055],[-120.78601,38.71967],[-120.78828,38.72068],[-120.78951,38.71972],[-120.78946,38.71865],[-120.79128,38.71904],[-120.7917,38.72085],[-120.7966,38.72088],[-120.79657,38.72197],[-120.79849,38.7222],[-120.79925,38.72198],[-120.79868,38.7212],[-120.79909,38.71916],[-120.80056,38.71921],[-120.80174,38.72039],[-120.80305,38.71958],[-120.80408,38.72151],[-120.80565,38.72176],[-120.80598,38.72328],[-120.81052,38.723],[-120.81094,38.72508],[-120.81332,38.72426],[-120.81581,38.72608],[-120.81503,38.72676],[-120.81376,38.72603],[-120.81455,38.72789],[-120.81281,38.72774],[-120.8111,38.72628],[-120.81118,38.72863],[-120.81635,38.72872],[-120.81831,38.72997],[-120.82146,38.72886],[-120.82132,38.72145],[-120.82247,38.72073],[-120.82474,38.72117],[-120.8257,38.72092],[-120.82552,38.72021],[-120.82756,38.7199],[-120.83004,38.72038],[-120.83228,38.71943],[-120.83255,38.71753],[-120.83435,38.71838],[-120.83472,38.71652],[-120.83483529411765,38.71652549019608],[-120.8307,38.7158],[-120.829,38.714],[-120.8209,38.7115],[-120.8171,38.7086],[-120.8082,38.7076],[-120.8048,38.7046],[-120.796,38.7029],[-120.7867,38.7044],[-120.7755,38.704],[-120.7743,38.7061],[-120.7723,38.7068],[-120.7656,38.706],[-120.7584,38.711],[-120.7549,38.711],[-120.752,38.7128],[-120.7466,38.7121],[-120.7377,38.7174],[-120.7274,38.7193],[-120.7246,38.7184],[-120.7226,38.7198],[-120.7173,38.7184],[-120.7218,38.7207],[-120.7294,38.721],[-120.7362,38.7233],[-120.7405,38.7318],[-120.7495,38.7327],[-120.7498,38.737],[-120.7554,38.7358],[-120.7606,38.7461],[-120.7591,38.7466],[-120.753,38.7436],[-120.7423,38.7414],[-120.7298,38.7445],[-120.7239,38.748],[-120.723,38.7535],[-120.7202,38.7573],[-120.717,38.755],[-120.7152,38.7592],[-120.7095,38.7601],[-120.7099,38.7628],[-120.7079,38.768],[-120.6978,38.7692],[-120.701,38.7704],[-120.6997,38.773],[-120.7034,38.7714],[-120.7082,38.7718],[-120.7121,38.7736],[-120.7159,38.7774],[-120.7197,38.7786],[-120.7244,38.7758],[-120.7304,38.7773],[-120.7366,38.7718],[-120.7387,38.7724],[-120.7402,38.7759],[-120.7423,38.7772],[-120.7452,38.7772],[-120.7507,38.7745],[-120.7542,38.7752],[-120.758,38.7779],[-120.7593,38.7808],[-120.766,38.7772],[-120.7725,38.7834],[-120.7837,38.7819],[-120.7807,38.7784],[-120.7767,38.777],[-120.7816,38.7712],[-120.7817,38.7639],[-120.7875,38.7658],[-120.7913,38.7629],[-120.7926,38.7641],[-120.7928,38.7683],[-120.8014,38.769],[-120.804,38.7653],[-120.8063,38.7647],[-120.8087,38.7659],[-120.8094,38.7709],[-120.8106,38.7719],[-120.8163,38.7707],[-120.8186,38.7676],[-120.8232,38.766],[-120.8362,38.772],[-120.8493,38.7699],[-120.8455,38.7765],[-120.8484,38.7813],[-120.8569,38.7833],[-120.8577,38.7865],[-120.8606,38.7884],[-120.8767,38.7913],[-120.8767,38.7882],[-120.8753,38.7868],[-120.8763,38.785],[-120.876,38.78],[-120.8742,38.7813],[-120.8705,38.7799],[-120.8704,38.7764],[-120.8628,38.7672],[-120.8588,38.7665],[-120.8561,38.764],[-120.8607,38.762],[-120.8714,38.763],[-120.8736,38.7645],[-120.8844,38.7613]]]},"properties":{"GEOID":"0601792490","NAME":"Placerville","COUNTY":"017"}},{"type":"Feature","geometry":{"type":"Polygon","coordinates":[[[-120.2064,39.0161],[-120.2042,39.0099],[-120.1963,38.9982],[-120.1825,38.9813],[-120.1705,38.9775],[-120.156,38.9801],[-120.1484,38.9705],[-120.1413,38.9666],[-120.1404,38.9646],[-120.1421,38.9592],[-120.1502,38.9538],[-120.1499,38.9449],[-120.1465,38.9394],[-120.1459,38.9352],[-120.1627,38.9247],[-120.1641,38.9214],[-120.1556,38.905],[-120.1508,38.9003],[-120.1536,38.8902],[-120.1525,38.8848],[-120.1496,38.8808],[-120.1366,38.8681],[-120.123,38.8668],[-120.1216,38.8656],[-120.118,38.8582],[-120.1113,38.8532],[-120.1078,38.8464],[-120.1078,38.8394],[-120.1093,38.8371],[-120.1051,38.8335],[-120.0988,38.8319],[-120.0961,38.8298],[-120.0961,38.824],[-120.0949,38.8221],[-120.0939,38.8214],[-120.0905,38.8233],[-120.091,38.8218],[-120.0864,38.8184],[-120.0849,38.8142],[-120.0731,38.8208],[-120.053,38.826],[-120.0397,38.8229],[-120.0348,38.8185],[-120.0328,38.8137],[-120.0289,38.8122],[-120.0287,38.8104],[-120.0452,38.8029],[-120.0486,38.7809],[-120.0478,38.7696],[-120.0512,38.7438],[-120.0495,38.7395],[-120.0368,38.7354],[-120.0333,38.732],[-120.0327,38.7298],[-119.9649,38.776],[-119.9595,38.7787],[-119.9552,38.7787],[-119.9479,38.7816],[-119.9469,38.7864],[-119.9431,38.7889],[-119.9398,38.7936],[-119.94,38.7953],[-119.944,38.7968],[-119.9425,38.8026],[-119.9315,38.8121],[-119.9309,38.8152],[-119.9213,38.8217],[-119.9238,38.8249],[-119.9227,38.83],[-119.9085,38.8343],[-119.9085,38.8461],[-119.9063,38.8555],[-119.9008,38.8574],[-119.8952,38.8566],[-119.8919,38.8573],[-119.8811,38.8641],[-119.8777,38.8683],[-119.8772,38.8715],[-119.8786,38.8749],[-119.884,38.8762],[-119.8888,38.8791],[-119.8828,38.881],[-119.8795,38.887],[-119.881,38.8909],[-119.8845,38.8942],[-119.8799,38.8994],[-119.8833,38.9045],[-119.8837,38.9092],[-119.8873,38.9179],[-119.8891,38.9189],[-119.8916,38.9181],[-119.8966,38.921],[-119.9054,38.9283],[-119.9043,38.9333],[-119.93588102341931,38.954952759593596],[-119.93707,38.95514],[-119.94262,38.95003],[-119.93956,38.94962],[-119.94059,38.94681],[-119.931,38.94677],[-119.93103,38.93951],[-119.93009,38.9395],[-119.93012,38.9344],[-119.93462,38.93432],[-119.93459,38.9365],[-119.93674,38.93555],[-119.93605,38.93433],[-119.93864,38.93797],[-119.94282,38.93611],[-119.94109,38.93377],[-119.94316,38.93276],[-119.94161,38.93071],[-119.9526,38.93068],[-119.95255,38.91624],[-119.96661,38.91627],[-119.96916,38.91803],[-119.96962,38.92059],[-119.97125,38.92119],[-119.97127,38.92346],[-119.97473,38.9234],[-119.97474,38.92147],[-119.98271,38.91617],[-119.98447,38.91777],[-119.98334,38.91871],[-119.9857,38.91911],[-119.9874,38.92178],[-119.98886,38.92198],[-119.99303,38.91923],[-119.99396,38.91595],[-119.99455,38.91595],[-119.99382,38.91571],[-119.99461,38.91536],[-119.99454,38.91094],[-119.99852,38.91094],[-119.99862,38.91236],[-120.00128,38.91203],[-120.00144,38.91124],[-119.99823,38.9063],[-119.99448,38.9039],[-119.99277,38.90603],[-119.99191,38.91148],[-119.98991,38.91112],[-119.98939,38.91214],[-119.98698,38.91311],[-119.98505,38.91169],[-119.98505,38.9105],[-119.98665,38.90868],[-119.98827,38.90867],[-119.99264,38.89416],[-119.99424,38.89413],[-119.99755,38.88154],[-120.00037,38.88199],[-119.99897,38.88935],[-119.99974,38.88947],[-119.99949,38.89415],[-120.00383,38.89415],[-120.00383,38.90135],[-120.01307,38.90134],[-120.01304,38.90862],[-120.02213,38.90859],[-120.02265,38.93385],[-120.01795,38.93392],[-120.01799,38.93662],[-120.00931,38.93758],[-120.00641,38.94064],[-120.00083,38.94308],[-119.99132,38.94308],[-119.97675,38.94491],[-119.96411,38.94831],[-119.95881,38.95089],[-119.95444,38.95457],[-119.95025,38.96084],[-119.94962,38.96426],[-119.93960689388896,38.957507311942486],[-120.001,38.9996],[-120.0025,39.0675],[-120.1437,39.0673],[-120.1436,39.0602],[-120.153,39.0603],[-120.153,39.0458],[-120.165,39.0458],[-120.165,39.0385],[-120.1836,39.0384],[-120.1841,39.031],[-120.2006,39.0228],[-120.201,39.0197],[-120.2052,39.018],[-120.2064,39.0161]]]},"properties":{"GEOID":"0601793160","NAME":"South Lake Tahoe","COUNTY":"017"}}]}