{"type":"FeatureCollection","features":[{"type":"Feature","geometry":{"type":"Polygon","coordinates":[[[-120.0937,36.5636],[-120.0798,36.5532],[-120.0695,36.5388],[-120.0664,36.5366],[-120.0617,36.5283],[-120.0615,36.5217],[-120.0513,36.5117],[-120.05,36.5081],[-120.042,36.5044],[-120.0365,36.4987],[-120.0303,36.4965],[-120.0273,36.4974],[-120.0265,36.4955],[-120.0235,36.4943],[-120.0167,36.4874],[-120.0068,36.4871],[-120.0049,36.4853],[-119.9991,36.4884],[-119.7911,36.4893],[-119.7911,36.5038],[-119.7732,36.5038],[-119.7728,36.6198],[-119.8447,36.6196],[-119.8446,36.6341],[-119.8627,36.634],[-119.8624,36.663],[-119.8805,36.6629],[-119.8805,36.6774],[-119.89849013678207,36.67729986936856],[-119.89851,36.67002],[-119.90078,36.67001],[-119.90078,36.66274],[-119.90753,36.66268],[-119.9075399996562,36.67724949907427],[-119.9344,36.6771],[-119.9344,36.6916],[-119.9702,36.6915],[-119.9713,36.6623],[-120.0937,36.5636]]]},"properties":{"GEOID":"0601990390","NAME":"Caruthers-Raisin City","COUNTY":"019"}},{"type":"Feature","geometry":{"type":"Polygon","coordinates":[[[-119.377,36.5749],[-119.3051,36.5737],[-119.30484982429829,36.61718053695683],[-119.31816,36.61736],[-119.31809,36.61013],[-119.33166,36.61026],[-119.33172,36.60301],[-119.33515,36.60305],[-119.33851,36.61036],[-119.33165,36.61041],[-119.33162,36.61391],[-119.3294,36.61392],[-119.32946,36.61751],[-119.33161,36.61752],[-119.33156,36.62113],[-119.32703,36.6211],[-119.32699,36.62827],[-119.32263,36.62817],[-119.32261,36.62923],[-119.32454,36.63139],[-119.32256,36.63134],[-119.32117,36.63245],[-119.32082,36.63187],[-119.31364,36.63176],[-119.31367,36.63532],[-119.30697,36.63527],[-119.30597,36.63344],[-119.30475655771716,36.6333902687589],[-119.3046,36.6606],[-119.3767,36.6615],[-119.377,36.5749]]]},"properties":{"GEOID":"0601992270","NAME":"Orange Cove","COUNTY":"019"}},{"type":"Feature","geometry":{"type":"MultiPolygon","coordinates":[[[[-119.5286,36.6655],[-119.5268,36.6606],[-119.5227,36.6611],[-119.5175,36.6587],[-119.5152,36.6547],[-119.5121,36.6533],[-119.5088,36.6543],[-119.497,36.653],[-119.49,36.6504],[-119.4849,36.6535],[-119.4779,36.6478],[-119.4697,36.6487],[-119.4666,36.6466],[-119.4706,36.6396],[-119.4689,36.6324],[-119.4667,36.6289],[-119.4733,36.6242],[-119.4741,36.6216],[-119.466,36.6133],[-119.46505513851784,36.61146000658737],[-119.45768,36.61147],[-119.45769,36.61873],[-119.4509,36.61871],[-119.45092,36.61455],[-119.44876,36.61407],[-119.44875,36.61487],[-119.44648,36.61486],[-119.4465,36.6187],[-119.44875,36.61871],[-119.44875,36.62233],[-119.44429,36.62231],[-119.4443,36.61869],[-119.441,36.61868],[-119.44096,36.61503],[-119.44363,36.60954],[-119.43978,36.60955],[-119.43979,36.61139],[-119.43085,36.61135],[-119.43088,36.60594],[-119.42624,36.60594],[-119.42625,36.60407],[-119.42193,36.60408],[-119.42195,36.5987],[-119.42641,36.5987],[-119.42639,36.60046],[-119.43092,36.60048],[-119.43093,36.59686],[-119.42642,36.59683],[-119.42643,36.595],[-119.42196,36.59502],[-119.42199,36.59329],[-119.42309,36.59327],[-119.42305,36.58962],[-119.41658,36.58949],[-119.41947,36.58837],[-119.41979,36.58579],[-119.42232,36.58587],[-119.42152,36.58236],[-119.42927,36.58244],[-119.42635,36.58076],[-119.43077,36.58078],[-119.4308,36.58274],[-119.44036,36.587],[-119.44041,36.58373],[-119.44257,36.58581],[-119.44432,36.5858],[-119.44436,36.57538],[-119.44882,36.5753],[-119.4488,36.57885],[-119.45328,36.57885],[-119.45749522041636,36.57529773678527],[-119.377,36.5747],[-119.3767,36.6615],[-119.3317,36.661],[-119.3405,36.6638],[-119.3538,36.6763],[-119.365,36.68],[-119.3694,36.6827],[-119.3733,36.6865],[-119.3798,36.6998],[-119.3842,36.7029],[-119.3867,36.7082],[-119.4006,36.709],[-119.4062,36.7112],[-119.4159,36.712],[-119.4164,36.7135],[-119.4241,36.7149],[-119.4306,36.7192],[-119.4351,36.7187],[-119.4386,36.7207],[-119.4391,36.7253],[-119.4443,36.7311],[-119.4458,36.7352],[-119.444,36.7379],[-119.4343,36.7414],[-119.4331,36.7429],[-119.4375,36.7439],[-119.435,36.751],[-119.4365,36.757],[-119.4411,36.7637],[-119.4432,36.7622],[-119.4425,36.7588],[-119.4451,36.7556],[-119.4534,36.7515],[-119.4611,36.7453],[-119.4629,36.7406],[-119.4667,36.7381],[-119.4718,36.7308],[-119.4774,36.7316],[-119.4807,36.7302],[-119.4828,36.7282],[-119.4836,36.7232],[-119.4866,36.7227],[-119.4891,36.7186],[-119.4934,36.716],[-119.4961,36.7159],[-119.4986,36.7137],[-119.4982,36.7111],[-119.4997,36.7085],[-119.5096,36.7042],[-119.5104,36.7002],[-119.5166,36.6948],[-119.52,36.6848],[-119.5239,36.6803],[-119.5247,36.6766],[-119.5281,36.6734],[-119.5286,36.6655]],[[-119.45303,36.66948],[-119.45294,36.67678],[-119.45105,36.67676],[-119.45041,36.6737],[-119.44853,36.6737],[-119.44859,36.66227],[-119.45216,36.66229],[-119.45206,36.6681],[-119.45303,36.66948]]],[[[-119.4707,36.5931],[-119.46900456140351,36.59182842105263],[-119.46993,36.59305],[-119.47004,36.59487],[-119.46919,36.59886],[-119.46747630625502,36.60164918430217],[-119.46847462465878,36.60161822869275],[-119.4698,36.5992],[-119.4707,36.5931]]]]},"properties":{"GEOID":"0601992600","NAME":"Reedley","COUNTY":"019"}},{"type":"Feature","geometry":{"type":"Polygon","coordinates":[[[-120.6829,36.2873],[-120.6808,36.2852],[-120.6738,36.2824],[-120.6726,36.2805],[-120.6762,36.2768],[-120.6742,36.2727],[-120.6754,36.2705],[-120.6782,36.2675],[-120.6804,36.2671],[-120.6793,36.2646],[-120.6754,36.2623],[-120.673,36.2577],[-120.6746,36.2555],[-120.6799,36.2542],[-120.6815,36.252],[-120.6797,36.2467],[-120.6709,36.2419],[-120.6669,36.236],[-120.6564,36.2335],[-120.6517,36.2307],[-120.6493,36.224],[-120.641,36.2198],[-120.6388,36.215],[-120.6294,36.2074],[-120.6294,36.2058],[-120.6269,36.2032],[-120.6328,36.1987],[-120.6392,36.1965],[-120.6389,36.1941],[-120.6411,36.192],[-120.6404,36.1906],[-120.6428,36.188],[-120.6424,36.1859],[-120.6449,36.1837],[-120.6447,36.1792],[-120.6489,36.1794],[-120.6487,36.1775],[-120.652,36.1741],[-120.6524,36.1729],[-120.6491,36.1696],[-120.6499,36.168],[-120.6546,36.1677],[-120.6631,36.1712],[-120.6642,36.1657],[-120.672,36.1643],[-120.6713,36.162],[-120.668,36.1606],[-120.6657,36.1519],[-120.6665,36.1496],[-120.6647,36.1473],[-120.6643,36.1414],[-120.6676,36.1381],[-120.6627,36.1367],[-120.6565,36.1326],[-120.6525,36.1252],[-120.6542,36.1227],[-120.6532,36.1188],[-120.6512,36.1171],[-120.6494,36.1178],[-120.6454,36.1162],[-120.6462,36.1108],[-120.6488,36.108],[-120.6461,36.1047],[-120.6419,36.1013],[-120.6354,36.101],[-120.6336,36.1033],[-120.6277,36.0992],[-120.6267,36.0971],[-120.6231,36.0979],[-120.6142,36.0951],[-120.6116,36.0956],[-120.6124,36.0991],[-120.6087,36.0993],[-120.608,36.1027],[-120.5994,36.1009],[-120.5898,36.0896],[-120.5932,36.0885],[-120.5928,36.0856],[-120.5949,36.0832],[-120.5961,36.0782],[-120.5923,36.0737],[-120.592,36.0713],[-120.5883,36.069],[-120.5879,36.0666],[-120.5846,36.0662],[-120.5666,36.0529],[-120.5589,36.0499],[-120.5518,36.0495],[-120.5507,36.0476],[-120.5454,36.0461],[-120.5431,36.0433],[-120.543,36.0398],[-120.5404,36.0367],[-120.5355,36.0351],[-120.5308,36.0354],[-120.5294,36.0343],[-120.527,36.0357],[-120.5298,36.029],[-120.5298,36.0243],[-120.5262,36.0228],[-120.5223,36.0231],[-120.52,36.0209],[-120.519,36.0223],[-120.5197,36.0267],[-120.5176,36.0275],[-120.5132,36.0257],[-120.5133,36.0237],[-120.5109,36.0221],[-120.5084,36.0242],[-120.5072,36.0233],[-120.5083,36.0216],[-120.5049,36.0214],[-120.5049,36.0204],[-120.5027,36.0204],[-120.5023,36.0222],[-120.5004,36.0222],[-120.5001,36.0208],[-120.4975,36.0202],[-120.4932,36.0166],[-120.4883,36.0149],[-120.4862,36.0112],[-120.483,36.0121],[-120.4793,36.0107],[-120.4784,36.0088],[-120.4804,36.0059],[-120.4778,36.0033],[-120.4774,36.0008],[-120.4731,35.9992],[-120.4734,35.9979],[-120.4706,35.9971],[-120.4686,35.9943],[-120.4637,35.9928],[-120.4598,35.9935],[-120.4537,35.9895],[-120.4497,35.9884],[-120.4491,35.9851],[-120.4382,35.9778],[-120.4365,35.9716],[-120.4344,35.9694],[-120.4312,35.9693],[-120.4228,35.9737],[-120.4085,35.976],[-120.4063,35.974],[-120.3966,35.9704],[-120.394,35.9679],[-120.3889,35.9693],[-120.3604,35.9644],[-120.36,35.9631],[-120.3625,35.9594],[-120.3593,35.9583],[-120.3575,35.9555],[-120.3565,35.9481],[-120.3496,35.9441],[-120.3458,35.9449],[-120.3402,35.939],[-120.336,35.9372],[-120.3371,35.9317],[-120.3351,35.9284],[-120.3367,35.9236],[-120.3321,35.9188],[-120.3323,35.9155],[-120.3299,35.9135],[-120.326,35.9131],[-120.3229,35.9078],[-120.3151,35.9072],[-120.1659,36.0229],[-120.2001,36.0508],[-120.2002,36.1375],[-120.2105,36.1375],[-120.2118,36.3419],[-120.1938,36.3566],[-120.1938,36.4293],[-120.338,36.4286],[-120.3387,36.4392],[-120.3432,36.4429],[-120.3932,36.4431],[-120.3945,36.434],[-120.3933,36.4306],[-120.3929,36.4138],[-120.4085,36.4088],[-120.409,36.4071],[-120.4116,36.4075],[-120.4135,36.405],[-120.417,36.4044],[-120.4164,36.4028],[-120.4186,36.4026],[-120.419,36.4008],[-120.423,36.4],[-120.4234,36.3968],[-120.4258,36.3975],[-120.4277,36.3954],[-120.4347,36.4018],[-120.4416,36.4035],[-120.4411,36.4053],[-120.4423,36.4061],[-120.4455,36.4045],[-120.4448,36.4065],[-120.4474,36.407],[-120.4458,36.4097],[-120.4481,36.4091],[-120.4494,36.4123],[-120.4517,36.4134],[-120.453,36.412],[-120.4568,36.4126],[-120.4565,36.4157],[-120.4686,36.4196],[-120.4719,36.4179],[-120.4723,36.4156],[-120.4748,36.4157],[-120.4753,36.4135],[-120.4776,36.4129],[-120.4798,36.4152],[-120.4835,36.4108],[-120.4872,36.4101],[-120.4875,36.4082],[-120.491,36.4084],[-120.4932,36.4042],[-120.5022,36.4056],[-120.503,36.403],[-120.5054,36.403],[-120.5075,36.4013],[-120.5077,36.3994],[-120.5114,36.3968],[-120.5164,36.3963],[-120.5185,36.3981],[-120.5192,36.3962],[-120.5221,36.3984],[-120.5272,36.3967],[-120.5306,36.3974],[-120.5322,36.395],[-120.5354,36.3963],[-120.5388,36.3949],[-120.5405,36.3958],[-120.5431,36.395],[-120.5443,36.3971],[-120.546,36.3958],[-120.5511,36.3954],[-120.5507,36.3942],[-120.5529,36.3918],[-120.5552,36.3931],[-120.5598,36.391],[-120.5646,36.3925],[-120.5667,36.3916],[-120.5697,36.3942],[-120.5756,36.395],[-120.5914,36.3939],[-120.5971,36.3913],[-120.5966,36.3285],[-120.6002,36.3283],[-120.6049,36.3241],[-120.6125,36.3244],[-120.6127,36.3209],[-120.6179,36.3188],[-120.6199,36.3199],[-120.6305,36.3169],[-120.6351,36.3186],[-120.6443,36.319],[-120.6461,36.317],[-120.6576,36.3165],[-120.6631,36.3144],[-120.6664,36.3114],[-120.6686,36.3072],[-120.6759,36.3028],[-120.6782,36.2981],[-120.6827,36.2944],[-120.6805,36.29],[-120.6829,36.2873]],[[-120.37576,36.14005],[-120.37236,36.14012],[-120.3724,36.15103],[-120.37052,36.15108],[-120.37063,36.15452],[-120.3634,36.1545],[-120.36352,36.16063],[-120.36796,36.16545],[-120.36682,36.16545],[-120.35986,36.15883],[-120.35692,36.16664],[-120.36116,36.1666],[-120.36126,36.1728],[-120.36375,36.17269],[-120.36374,36.18004],[-120.35468,36.18017],[-120.35378,36.17998],[-120.35464,36.17686],[-120.35449,36.15833],[-120.34554,36.15837],[-120.34557,36.15353],[-120.33951,36.15354],[-120.33967,36.14766],[-120.33859,36.14571],[-120.33666,36.14543],[-120.33665,36.14393],[-120.32997,36.14388],[-120.32929,36.14331],[-120.33243,36.14165],[-120.33987,36.1436],[-120.34028,36.14188],[-120.34557,36.13751],[-120.34558,36.13665],[-120.32586,36.13668],[-120.32585,36.12954],[-120.366,36.12928],[-120.36909,36.12589],[-120.36995,36.12643],[-120.3725,36.12223],[-120.37437,36.12214],[-120.37022,36.12925],[-120.37226,36.12924],[-120.37235,36.13646],[-120.37572,36.13647],[-120.37576,36.14005]],[[-120.30157,36.16728],[-120.29941,36.16901],[-120.29782,36.16774],[-120.29738,36.169],[-120.29478,36.16834],[-120.29545,36.16576],[-120.29205,36.16319],[-120.29143,36.16373],[-120.29045,36.16293],[-120.29107,36.1624],[-120.28667,36.1589],[-120.28998,36.15617],[-120.29145,36.15728],[-120.29136,36.15162],[-120.29518,36.15161],[-120.29532,36.15942],[-120.29686,36.16048],[-120.2984,36.15517],[-120.3008,36.15568],[-120.29882,36.16483],[-120.30157,36.16728]],[[-120.28162,36.13692],[-120.27178,36.13698],[-120.27176,36.11536],[-120.28137,36.11544],[-120.28162,36.13692]],[[-120.25415,36.13708],[-120.23607,36.13727],[-120.23629,36.12298],[-120.2541,36.12275],[-120.25415,36.13708]]]},"properties":{"GEOID":"0601990530","NAME":"Coalinga","COUNTY":"019"}},{"type":"Feature","geometry":{"type":"MultiPolygon","coordinates":[[[[-119.944,36.8341],[-119.9436,36.8151],[-119.9346,36.815],[-119.9344,36.6771],[-119.9075399996562,36.67724949907427],[-119.90754,36.67725],[-119.91656,36.6772],[-119.91649,36.69174],[-119.93435,36.69164],[-119.9344,36.7059],[-119.88437,36.70641],[-119.88436,36.70375],[-119.88052,36.70377],[-119.88053,36.68466],[-119.88954,36.68461],[-119.88966,36.67738],[-119.89849,36.67735],[-119.89849013678207,36.67729986936856],[-119.8805,36.6774],[-119.8805,36.6629],[-119.8624,36.663],[-119.8627,36.634],[-119.8446,36.6341],[-119.8447,36.6196],[-119.7728,36.6198],[-119.7728,36.6634],[-119.6639,36.6635],[-119.6638,36.6781],[-119.6104,36.6776],[-119.6099,36.8373],[-119.621,36.8374],[-119.6207,36.8664],[-119.5921,36.8668],[-119.5954,36.8692],[-119.5969,36.8737],[-119.5963,36.8774],[-119.6023,36.8785],[-119.6048,36.8805],[-119.6079,36.8802],[-119.6121,36.8838],[-119.6138,36.8874],[-119.611,36.8893],[-119.6108,36.8912],[-119.6148,36.8955],[-119.6182,36.897],[-119.6254,36.8963],[-119.6292,36.8984],[-119.6328,36.8951],[-119.6359,36.8945],[-119.6417,36.8969],[-119.6427,36.8986],[-119.6483,36.898],[-119.656,36.9054],[-119.6585,36.9054],[-119.6638,36.9079],[-119.6654,36.9111],[-119.67,36.9151],[-119.6741,36.9157],[-119.6765,36.9267],[-119.6737,36.9302],[-119.6731,36.9333],[-119.67843827405669,36.94290889330204],[-119.68263,36.93968],[-119.68887,36.93979],[-119.69183,36.93902],[-119.69184,36.93807],[-119.6947,36.93792],[-119.69202,36.93897],[-119.69219,36.93999],[-119.69674,36.94002],[-119.70074,36.94338],[-119.70066,36.94887],[-119.69530605800439,36.9488288158308],[-119.6904,36.9547],[-119.6909,36.9567],[-119.6889,36.961],[-119.6923,36.9653],[-119.6926,36.9693],[-119.6963,36.9709],[-119.7004,36.9755],[-119.7018,36.9852],[-119.7034,36.9875],[-119.7029,36.9917],[-119.7056,36.9943],[-119.7031,36.9981],[-119.7048,37.0002],[-119.7145,36.9904],[-119.7313,36.9797],[-119.7405,36.9702],[-119.7433,36.9546],[-119.7367,36.9536],[-119.7338,36.9464],[-119.7373,36.944],[-119.7416,36.9439],[-119.7457,36.939],[-119.7521,36.9359],[-119.7528,36.9337],[-119.7504,36.9305],[-119.7503,36.9283],[-119.7549,36.9225],[-119.7587,36.9202],[-119.7727,36.9186],[-119.7757,36.9091],[-119.7893,36.8967],[-119.7891,36.8901],[-119.78527856019811,36.88506688416336],[-119.78525,36.88562],[-119.78908,36.89011],[-119.78625,36.8901],[-119.78381,36.88816],[-119.77841,36.88814],[-119.7755,36.89279],[-119.77104,36.89391],[-119.76857,36.89567],[-119.76634,36.89568],[-119.76695,36.89702],[-119.76299,36.90257],[-119.75767,36.90293],[-119.75222,36.90552],[-119.74781,36.90948],[-119.74284,36.91117],[-119.74284,36.91033],[-119.72856,36.91051],[-119.73227,36.90503],[-119.72995,36.90036],[-119.72979,36.8668],[-119.70658,36.86661],[-119.70659,36.87025],[-119.70206,36.87059],[-119.70206,36.87386],[-119.69294,36.87389],[-119.69302,36.86603],[-119.69574,36.86255],[-119.69858,36.86171],[-119.70213,36.8593],[-119.70214,36.85201],[-119.67505,36.85195],[-119.67501,36.85557],[-119.67187,36.85555],[-119.67306,36.85711],[-119.6733,36.85965],[-119.67501,36.8602],[-119.67499,36.86392],[-119.67808,36.86357],[-119.67805,36.85923],[-119.68112,36.85923],[-119.68112,36.86324],[-119.68393,36.86392],[-119.684,36.85699],[-119.68854,36.85655],[-119.68855,36.85474],[-119.69077,36.85475],[-119.69075,36.85927],[-119.68854,36.85927],[-119.68851,36.86654],[-119.62806,36.86636],[-119.62453,36.86521],[-119.65928,36.84531],[-119.65606,36.84364],[-119.65643,36.83932],[-119.65537,36.83829],[-119.65601,36.8374],[-119.65498,36.8374],[-119.65498,36.83559],[-119.65744,36.83559],[-119.65744,36.83115],[-119.65667,36.83112],[-119.65668,36.82968],[-119.65493,36.82967],[-119.65492,36.82796],[-119.65602,36.82799],[-119.65719,36.82661],[-119.65718,36.82478],[-119.65492,36.82478],[-119.65492,36.82292],[-119.64592,36.82296],[-119.64594,36.81928],[-119.64145,36.8193],[-119.64144,36.82106],[-119.63837,36.82104],[-119.64014,36.82293],[-119.63692,36.82055],[-119.63692,36.8229],[-119.63001,36.82286],[-119.62994,36.81964],[-119.62794,36.81929],[-119.62794,36.80828],[-119.62596,36.80827],[-119.62589,36.80291],[-119.62385,36.80292],[-119.62384,36.80112],[-119.61929,36.80112],[-119.6193,36.79384],[-119.61478,36.79385],[-119.61475,36.79022],[-119.61927,36.79016],[-119.61926,36.78926],[-119.62147,36.7892],[-119.62166,36.79022],[-119.62789,36.7902],[-119.6279,36.78418],[-119.63029,36.78407],[-119.63043,36.78249],[-119.63881,36.78624],[-119.64028,36.78625],[-119.64186,36.78769],[-119.64595,36.78728],[-119.64596,36.79022],[-119.65053,36.79021],[-119.65044,36.78711],[-119.65311,36.78721],[-119.65502,36.78756403992396],[-119.65502,36.78617],[-119.65051,36.78615],[-119.65051,36.78389],[-119.65502,36.7839],[-119.655,36.77567],[-119.65617,36.77569],[-119.65634,36.77213],[-119.65502,36.77213],[-119.655,36.77036],[-119.65692,36.77044],[-119.65955,36.76854],[-119.65956,36.76484],[-119.66403,36.76486],[-119.66405,36.77401],[-119.66858,36.77396],[-119.66861,36.76486],[-119.66638,36.76504],[-119.66633,36.76116],[-119.67083,36.76115],[-119.67077,36.75745],[-119.67981,36.7574],[-119.67984,36.76114],[-119.67308,36.76115],[-119.67309,36.76495],[-119.68213,36.76494],[-119.68221,36.77212],[-119.68779,36.77214],[-119.68781,36.76493],[-119.69107,36.76493],[-119.69111,36.76104],[-119.69557,36.76107],[-119.69565,36.75927],[-119.69678,36.75931],[-119.69678,36.75824],[-119.69742,36.75824],[-119.69742,36.75746],[-119.69569,36.75746],[-119.69563,36.75207],[-119.69693,36.75208],[-119.69693,36.75314],[-119.69813,36.75318],[-119.69808,36.7539],[-119.70036,36.7539],[-119.70014,36.75043],[-119.69222,36.75039],[-119.69224,36.75131],[-119.69108,36.75133],[-119.69108,36.75039],[-119.68887,36.75038],[-119.68887,36.75304],[-119.68809,36.75309],[-119.68653,36.75305],[-119.68651,36.75037],[-119.68267,36.75035],[-119.68268,36.75126],[-119.68201,36.75126],[-119.68197,36.75035],[-119.67811,36.75033],[-119.67812,36.75251],[-119.67645,36.75179],[-119.67645,36.75385],[-119.67303,36.75385],[-119.67302,36.75032],[-119.66394,36.75029],[-119.66396,36.74868],[-119.66852,36.74865],[-119.66855,36.74415],[-119.67032,36.74401],[-119.66851,36.7431],[-119.66861,36.73689],[-119.66406,36.7369],[-119.66405,36.73326],[-119.66859,36.73322],[-119.6686,36.73072],[-119.66706,36.7308],[-119.66705,36.72959],[-119.66102,36.72954],[-119.65976,36.72794],[-119.65834,36.72797],[-119.65657,36.72546],[-119.65951,36.72508],[-119.65951,36.72454],[-119.66414,36.72457],[-119.66407,36.71855],[-119.66857,36.71855],[-119.66857,36.71671],[-119.67304,36.71671],[-119.67307,36.72204],[-119.68216,36.72204],[-119.6821,36.71627],[-119.67758,36.71673],[-119.67756,36.71118],[-119.66973,36.71122],[-119.66971,36.70953],[-119.67302,36.70951],[-119.67302,36.70746],[-119.6933,36.70745],[-119.69372,36.71122],[-119.69439,36.71121],[-119.69438,36.71029],[-119.69996,36.71029],[-119.69995,36.70748],[-119.70297,36.7075],[-119.703,36.70965],[-119.7068,36.70968],[-119.70689,36.70753],[-119.7307,36.70722],[-119.72957,36.70364],[-119.73102,36.70356],[-119.73104,36.69991],[-119.73321,36.69982],[-119.7332,36.70343],[-119.73644,36.70331],[-119.73641,36.70697],[-119.74973,36.70682],[-119.75464,36.70596],[-119.75455,36.7003],[-119.75013,36.69996],[-119.74952,36.70235],[-119.74562,36.70242],[-119.74564,36.69965],[-119.74343,36.69968],[-119.74341,36.69877],[-119.73658,36.69875],[-119.73657,36.69605],[-119.74563,36.69604],[-119.74562,36.69241],[-119.75022,36.69238],[-119.75007,36.67792],[-119.74569,36.67792],[-119.74569,36.67614],[-119.73938,36.67611],[-119.73505,36.6725],[-119.73902,36.67249],[-119.73902,36.67068],[-119.75473,36.67068],[-119.75471,36.67612],[-119.75596,36.6761],[-119.75598,36.67781],[-119.77719,36.6779],[-119.77721,36.68684],[-119.78174,36.68685],[-119.78173,36.69162],[-119.78265,36.69162],[-119.78265,36.69225],[-119.79342,36.69229],[-119.7934,36.69104],[-119.79526,36.69104],[-119.79525,36.68954],[-119.79978,36.68935],[-119.79979,36.69216],[-119.81147,36.69215],[-119.81111,36.69399],[-119.80884,36.69403],[-119.80884,36.69953],[-119.8032,36.69955],[-119.80314,36.70318],[-119.80213,36.70315],[-119.80212,36.70686],[-119.82563,36.70671],[-119.82596,36.69579],[-119.82686,36.69579],[-119.82684,36.69219],[-119.83568,36.69215],[-119.83578,36.69936],[-119.83253,36.69939],[-119.83261,36.70668],[-119.82689,36.7067],[-119.82665,36.72131],[-119.82898,36.72129],[-119.82898,36.72304],[-119.83568,36.72302],[-119.83579,36.71394],[-119.84448,36.71389],[-119.84442,36.72839],[-119.84669,36.72838],[-119.84668,36.72955],[-119.84892,36.72952],[-119.84893,36.72837],[-119.86244,36.72827],[-119.8624,36.73187],[-119.85792,36.73191],[-119.85791,36.73555],[-119.85338,36.7356],[-119.85341,36.73222],[-119.85118,36.73224],[-119.85118,36.73561],[-119.84438,36.73568],[-119.84434,36.7392],[-119.84662,36.73917],[-119.84659,36.74029],[-119.85165,36.74017],[-119.85165,36.74092],[-119.8533,36.74086],[-119.85558,36.74056],[-119.85561,36.73915],[-119.85786,36.73913],[-119.85781,36.74275],[-119.85549,36.74277],[-119.85547,36.7463],[-119.84326,36.74625],[-119.8432,36.75015],[-119.84108,36.75016],[-119.84108,36.74626],[-119.83554,36.74626],[-119.83554,36.75106],[-119.83337,36.75166],[-119.83338,36.75384],[-119.83269,36.75383],[-119.83334,36.7554],[-119.83554,36.75565],[-119.83553,36.75745],[-119.84428,36.75745],[-119.84424,36.75017],[-119.8465,36.75014],[-119.84651,36.75197],[-119.84762,36.75197],[-119.84766,36.75556],[-119.84655,36.75557],[-119.84662,36.76104],[-119.84546,36.76105],[-119.84544,36.76288],[-119.84655,36.76288],[-119.84658,36.76467],[-119.84426,36.76469],[-119.84428,36.77007],[-119.84662,36.77005],[-119.8466,36.76829],[-119.85777,36.76825],[-119.85784,36.77035],[-119.85331,36.77004],[-119.85331,36.77259],[-119.85221,36.77261],[-119.85221,36.7737],[-119.84662,36.77375],[-119.84664,36.77556],[-119.8486,36.77555],[-119.84888,36.77731],[-119.85334,36.77732],[-119.85332,36.77552],[-119.85675,36.77544],[-119.85674,36.77461],[-119.85598,36.77461],[-119.85597,36.77188],[-119.86008,36.77187],[-119.86007,36.77373],[-119.86141,36.77375],[-119.86055,36.76988],[-119.86226,36.76988],[-119.86224,36.76452],[-119.86676,36.76448],[-119.86678,36.76821],[-119.87127,36.76815],[-119.87125,36.76364],[-119.87353,36.76362],[-119.8735,36.76092],[-119.88025,36.7609],[-119.88026,36.76633],[-119.88476,36.76631],[-119.88469,36.76454],[-119.8825,36.76456],[-119.88248,36.76091],[-119.88474,36.76085],[-119.88474,36.75728],[-119.88924,36.75726],[-119.88926,36.75798],[-119.89102,36.75726],[-119.89102,36.75876],[-119.89236,36.75876],[-119.89232,36.75716],[-119.89375,36.75716],[-119.89372,36.76446],[-119.89038,36.76448],[-119.89033,36.76086],[-119.88924,36.76085],[-119.88921,36.76536],[-119.88922,36.76629],[-119.89375,36.76627],[-119.89375,36.76808],[-119.88943,36.76817],[-119.89377,36.76815],[-119.89379,36.7699],[-119.88925,36.76994],[-119.88925,36.76811],[-119.88027,36.76815],[-119.88029,36.77361],[-119.88477,36.77355],[-119.8848,36.77177],[-119.88926,36.77175],[-119.88928,36.77539],[-119.88468,36.77539],[-119.88483,36.77904],[-119.8803,36.77907],[-119.8803,36.77724],[-119.87526,36.77724],[-119.87525,36.77834],[-119.87345,36.77753],[-119.8713,36.77822],[-119.87127,36.77743],[-119.86883,36.77744],[-119.86883,36.7791],[-119.86756,36.7791],[-119.86903,36.78008],[-119.86907,36.78237],[-119.87131,36.78277],[-119.87131,36.78363],[-119.8695,36.78369],[-119.86952,36.78452],[-119.86682,36.78454],[-119.86683,36.78638],[-119.86233,36.78638],[-119.8623,36.78818],[-119.87132,36.78815],[-119.87128,36.78635],[-119.88038,36.78632],[-119.88036,36.7836],[-119.8826,36.78358],[-119.88258,36.78266],[-119.88371,36.78265],[-119.88369,36.78004],[-119.88651,36.78003],[-119.88651,36.78121],[-119.88707,36.7812],[-119.88705,36.77903],[-119.88931,36.77903],[-119.88928,36.78174],[-119.89382,36.78172],[-119.89383,36.78261],[-119.90731,36.78257],[-119.90736,36.79165],[-119.90287,36.79167],[-119.90286,36.78985],[-119.89165,36.7899],[-119.89165,36.79535],[-119.89389,36.79533],[-119.89387,36.79353],[-119.89838,36.79352],[-119.89838,36.79532],[-119.90064,36.79531],[-119.90164,36.79349],[-119.91637,36.79343],[-119.91629,36.7789],[-119.92192,36.77886],[-119.92191,36.78248],[-119.92531,36.7825],[-119.9255,36.80074],[-119.90744,36.80068],[-119.90741,36.80352],[-119.91194,36.80317],[-119.912,36.80794],[-119.921,36.80788],[-119.92101,36.81149],[-119.9256,36.81231],[-119.92567,36.81777],[-119.92329,36.81787],[-119.9233,36.82051],[-119.9211,36.82055],[-119.9211,36.82236],[-119.91782,36.8224],[-119.9178,36.82049],[-119.91655,36.82052],[-119.91655,36.82585],[-119.90932,36.82535],[-119.90485,36.82253],[-119.9259,36.8398],[-119.93237,36.84321],[-119.93259,36.84446],[-119.92809,36.84848],[-119.92656158536586,36.84826069105691],[-119.9281,36.8485],[-119.9326,36.8445],[-119.9345,36.838],[-119.944,36.8341]],[[-119.61478,36.79385],[-119.61479,36.79625],[-119.61207,36.79625],[-119.61209,36.79386],[-119.61478,36.79385]]],[[[-119.8889803524229,36.85253929515419],[-119.88763,36.85373],[-119.88679,36.85805],[-119.8848151420839,36.859152246278754],[-119.8862,36.8592],[-119.8888,36.8577],[-119.8879,36.8547],[-119.8889803524229,36.85253929515419]]],[[[-119.87938,36.85551],[-119.87503,36.85376],[-119.87441,36.85202],[-119.86590958962574,36.85113516196104],[-119.8662,36.8522],[-119.8706,36.8522],[-119.87938,36.85599136363636],[-119.87938,36.85551]]],[[[-119.87481,36.84451],[-119.87469,36.84315],[-119.8722,36.84286],[-119.8655,36.83803],[-119.86565,36.84345],[-119.87073,36.84283],[-119.87481,36.84451]]],[[[-119.87465,36.84266],[-119.87455,36.83856],[-119.87128,36.83862],[-119.87019,36.83945],[-119.87465,36.84266]]],[[[-119.86585991051771,36.85112726084795],[-119.86568,36.84562],[-119.86208,36.84671],[-119.86186,36.84768],[-119.86118,36.84726],[-119.85844,36.84971],[-119.85906,36.85281],[-119.85875342949662,36.85354937591993],[-119.8609,36.8545],[-119.86585991051771,36.85112726084795]]],[[[-119.86324,36.84414],[-119.85884,36.84416],[-119.85879,36.84241],[-119.85655,36.84239],[-119.85653,36.84124],[-119.84752,36.84156],[-119.84769,36.8471],[-119.85054,36.8487],[-119.85263,36.84398],[-119.85457,36.84346],[-119.85514,36.84664],[-119.8542,36.84701],[-119.85307,36.84587],[-119.85249,36.8469],[-119.85481,36.84718],[-119.85406,36.84968],[-119.85621,36.84796],[-119.85616,36.84702],[-119.85721,36.84743],[-119.86324,36.84414]]],[[[-119.84774,36.85153],[-119.84772,36.85036],[-119.84634,36.84978],[-119.8446,36.85041],[-119.83683,36.85018],[-119.83209,36.8491],[-119.83131922297298,36.85121760846373],[-119.8348,36.8525],[-119.8373,36.8541],[-119.8384,36.8582],[-119.8409,36.8613],[-119.84438003352423,36.860567361363316],[-119.84439,36.85681],[-119.84221,36.85685],[-119.84441,36.85088],[-119.84774,36.85153]]],[[[-119.84753,36.83993],[-119.84518,36.8395],[-119.84506,36.83746],[-119.83992,36.8382],[-119.83993,36.83904],[-119.83535,36.83906],[-119.83537,36.84083],[-119.84752,36.84078],[-119.84753,36.83993]]],[[[-119.84441,36.81094],[-119.84169,36.81096],[-119.84167,36.80962],[-119.83984,36.80923],[-119.83935,36.81004],[-119.83581,36.81055],[-119.83226,36.80914],[-119.83078,36.8098],[-119.83084,36.82],[-119.83309,36.82],[-119.83306,36.82177],[-119.83554,36.82177],[-119.83553,36.82724],[-119.83999,36.82725],[-119.83997,36.82637],[-119.84172,36.82636],[-119.84217,36.82005],[-119.84098,36.82004],[-119.841,36.8191],[-119.83645,36.81911],[-119.83645,36.81734],[-119.83539,36.81734],[-119.83537,36.81499],[-119.84439,36.81548],[-119.84441,36.81094]]],[[[-119.83998,36.83719],[-119.83994,36.82904],[-119.83539,36.82909],[-119.83537,36.82456],[-119.83083,36.82413],[-119.82858,36.82681],[-119.82638,36.82682],[-119.82638,36.82374],[-119.82455,36.82374],[-119.82404,36.81553],[-119.82638,36.81552],[-119.82575,36.81487],[-119.8264,36.81487],[-119.82638,36.81189],[-119.82301,36.81193],[-119.82299,36.80957],[-119.8219,36.80958],[-119.8219,36.80886],[-119.8174,36.80881],[-119.81741,36.81193],[-119.81516,36.81196],[-119.81519,36.80975],[-119.81434,36.80975],[-119.81435,36.8089],[-119.80958,36.80964],[-119.80954,36.81199],[-119.80841,36.81199],[-119.80919,36.81561],[-119.81509,36.81559],[-119.81512,36.81918],[-119.80916,36.81983],[-119.80884,36.82149],[-119.80954,36.82148],[-119.80959,36.82283],[-119.81286,36.82282],[-119.81293,36.821],[-119.81507,36.82098],[-119.8151,36.8223],[-119.81736,36.82231],[-119.81736,36.82464],[-119.81184,36.82469],[-119.81124,36.82323],[-119.80886,36.8247],[-119.80948,36.82647],[-119.81056,36.82646],[-119.8107,36.83006],[-119.81733,36.83002],[-119.81733,36.83359],[-119.82194,36.83364],[-119.82184,36.83],[-119.82994,36.82999],[-119.82996,36.83098],[-119.83081,36.83096],[-119.83081,36.8351],[-119.83308,36.8346],[-119.8331,36.83545],[-119.83537,36.83541],[-119.83535,36.8372],[-119.83998,36.83719]]],[[[-119.82022,36.84747],[-119.82009,36.84468],[-119.81442,36.84767],[-119.81347,36.84953],[-119.82022,36.84747]]],[[[-119.8175,36.79303],[-119.81589,36.79201],[-119.81304,36.79205],[-119.81298,36.79025],[-119.81377,36.79023],[-119.80695,36.78488],[-119.80472,36.78489],[-119.80409,36.78673],[-119.80237,36.78675],[-119.80236,36.79034],[-119.79954,36.79037],[-119.79953,36.7958],[-119.79819,36.79581],[-119.79817,36.79491],[-119.79502,36.79495],[-119.79503,36.79403],[-119.79227,36.79371],[-119.79241,36.79456],[-119.79171,36.79458],[-119.79208,36.79587],[-119.79275,36.79586],[-119.79274,36.79768],[-119.79387,36.79766],[-119.79314,36.79947],[-119.79387,36.80084],[-119.79161,36.80057],[-119.79114,36.80131],[-119.79159,36.80746],[-119.79269,36.80744],[-119.79338,36.8085],[-119.79719,36.80847],[-119.79718,36.81033],[-119.79943,36.81052],[-119.79942,36.8114],[-119.79831,36.81142],[-119.79831,36.81208],[-119.79792,36.81114],[-119.79719,36.81115],[-119.79716,36.81207],[-119.79492,36.8121],[-119.79488,36.81568],[-119.79941,36.81567],[-119.80004,36.81501],[-119.79942,36.81382],[-119.80053,36.81393],[-119.801,36.81565],[-119.80044,36.8172],[-119.79938,36.817],[-119.79936,36.82107],[-119.80151,36.82108],[-119.8013,36.82287],[-119.79933,36.82288],[-119.79932,36.82386],[-119.7977,36.82377],[-119.79673,36.82473],[-119.79538,36.82475],[-119.79538,36.8229],[-119.7926,36.82289],[-119.79257,36.82531],[-119.79092,36.82503],[-119.7909,36.82616],[-119.79369,36.82651],[-119.79367,36.83012],[-119.79698,36.83009],[-119.79696,36.82881],[-119.79932,36.82829],[-119.80389,36.82831],[-119.80391,36.82647],[-119.80779,36.82645],[-119.80763,36.82471],[-119.80604,36.82471],[-119.8061,36.82192],[-119.80777,36.82192],[-119.80776,36.81681],[-119.80615,36.81655],[-119.80617,36.81562],[-119.80783,36.81562],[-119.80776,36.81382],[-119.8017,36.81385],[-119.8016,36.8112],[-119.80507,36.81105],[-119.80507,36.8084],[-119.80842,36.80839],[-119.80851,36.80574],[-119.81071,36.80573],[-119.81071,36.80837],[-119.81147,36.80836],[-119.81149,36.80721],[-119.81369,36.80757],[-119.81408,36.80655],[-119.81746,36.80615],[-119.81748,36.79529],[-119.81638,36.79527],[-119.81634,36.79427],[-119.81525,36.79395],[-119.81749,36.79384],[-119.8175,36.79303]]],[[[-119.80832,36.8342],[-119.8083,36.83008],[-119.80598,36.83008],[-119.80603,36.83189],[-119.8011,36.83193],[-119.8016,36.83371],[-119.80377,36.83368],[-119.80379,36.83496],[-119.8083,36.83492],[-119.80832,36.8342]]],[[[-119.77195,36.71978],[-119.77194,36.71676],[-119.76777,36.71656],[-119.76784,36.71414],[-119.76367,36.71415],[-119.76367,36.71342],[-119.76243,36.71341],[-119.76366,36.71271],[-119.76365,36.70688],[-119.75998,36.70365],[-119.75924,36.70365],[-119.75919,36.70596],[-119.75464,36.70596],[-119.75469,36.71212],[-119.75852,36.71212],[-119.7585,36.71416],[-119.75467,36.71413],[-119.75466,36.71775],[-119.75356,36.71773],[-119.75357,36.7214],[-119.75689,36.72139],[-119.75689,36.71994],[-119.7591,36.71993],[-119.75917,36.72057],[-119.75917,36.71777],[-119.76695,36.71842],[-119.76695,36.71976],[-119.77195,36.71978]]],[[[-119.77087,36.77024],[-119.77085,36.76829],[-119.7687,36.76637],[-119.76342,36.76646],[-119.76235,36.76576],[-119.76258,36.76503],[-119.75569,36.76511],[-119.75453,36.76622],[-119.75313,36.766],[-119.7528,36.76511],[-119.74782,36.76509],[-119.74789,36.76706],[-119.7454,36.76709],[-119.74536,36.77227],[-119.73173,36.77224],[-119.73169,36.77867],[-119.73627,36.77907],[-119.73681,36.78041],[-119.73626,36.78175],[-119.73851,36.78181],[-119.73854,36.77951],[-119.7408,36.77953],[-119.74079,36.77589],[-119.74536,36.77589],[-119.74533,36.77774],[-119.75022,36.77868],[-119.75017,36.7796],[-119.75256,36.77961],[-119.75216,36.77596],[-119.75442,36.77597],[-119.75445,36.77352],[-119.75239,36.77232],[-119.75445,36.77174],[-119.75215,36.7715],[-119.75215,36.77049],[-119.74991,36.7705],[-119.74994,36.76868],[-119.75448,36.76868],[-119.75445,36.7713],[-119.75571,36.77232],[-119.76369,36.7723],[-119.76369,36.77599],[-119.76789,36.77593],[-119.76787,36.77228],[-119.77076,36.77227],[-119.77087,36.77024]]],[[[-119.76575,36.88101],[-119.76573,36.87749],[-119.75671,36.87752],[-119.75665,36.88116],[-119.76575,36.88101]]],[[[-119.73876,36.84187],[-119.73868,36.84125],[-119.73196,36.8412],[-119.73198,36.84476],[-119.73874,36.84465],[-119.73876,36.84187]]],[[[-119.73443,36.86669],[-119.73434,36.8631],[-119.72975390884183,36.86315994890403],[-119.72979,36.8668],[-119.73443,36.86669]]],[[[-119.73198,36.7216],[-119.73195,36.71799],[-119.72299,36.71836],[-119.72293,36.72205],[-119.7217,36.72211],[-119.7217,36.72498],[-119.72745,36.72491],[-119.72745,36.72184],[-119.73198,36.7216]]],[[[-119.73187,36.74736],[-119.73013,36.74775],[-119.72815,36.7459],[-119.72735,36.7459],[-119.72733,36.74696],[-119.71602,36.74692],[-119.71551,36.75052],[-119.70916,36.75052],[-119.70921,36.75744],[-119.71608,36.75747],[-119.71606,36.75632],[-119.71824,36.75634],[-119.7137,36.75586],[-119.71362,36.75452],[-119.71704,36.75404],[-119.71826,36.75222],[-119.71824,36.75042],[-119.72277,36.75044],[-119.72274,36.75293],[-119.72531,36.75395],[-119.72528,36.7555],[-119.72298,36.75588],[-119.72295,36.75748],[-119.7273,36.75748],[-119.7273,36.7568],[-119.72956,36.75682],[-119.72957,36.75589],[-119.73185,36.7568],[-119.73187,36.75408],[-119.73187,36.74736]]],[[[-119.73134,36.85215],[-119.73132,36.84941],[-119.72968,36.84942],[-119.72942145299146,36.829629401709404],[-119.72974771286513,36.86253504039776],[-119.72971,36.85223],[-119.73134,36.85215]]],[[[-119.72645,36.73953],[-119.71831,36.73951],[-119.71828,36.74123],[-119.72058,36.74124],[-119.72056,36.74246],[-119.71946,36.74245],[-119.71945,36.74314],[-119.72641,36.74318],[-119.72645,36.73953]]],[[[-119.71812,36.78671],[-119.70244,36.78671],[-119.70243,36.78339],[-119.7003,36.7851],[-119.70025,36.78302],[-119.7003,36.79308],[-119.69994,36.79059],[-119.69113,36.79036],[-119.69107,36.80123],[-119.69557,36.80124],[-119.69556,36.79695],[-119.6999,36.79495],[-119.69989,36.79333],[-119.70028,36.80125],[-119.70916,36.80124],[-119.70916,36.78672],[-119.71812,36.78671]]],[[[-119.71671,36.74107],[-119.71605,36.74027],[-119.71491,36.74094],[-119.71436,36.73952],[-119.70924,36.74044],[-119.70922,36.74314],[-119.70725,36.74315],[-119.70726,36.74398],[-119.70659,36.74399],[-119.70657,36.74315],[-119.70563,36.74316],[-119.70534,36.7459],[-119.70695,36.74588],[-119.70696,36.74691],[-119.70112,36.74708],[-119.70045,36.7477],[-119.70081,36.74953],[-119.70156,36.75042],[-119.70916,36.75042],[-119.70916,36.74924],[-119.71371,36.75018],[-119.71377,36.7468],[-119.71602,36.7468],[-119.71656,36.74199],[-119.71602,36.74108],[-119.71671,36.74107]]],[[[-119.71268,36.7377],[-119.70755,36.73656],[-119.70753,36.73588],[-119.71147,36.73589],[-119.71153,36.7286],[-119.70935,36.72862],[-119.7093,36.71672],[-119.70836,36.71636],[-119.70467,36.71635],[-119.70472,36.72185],[-119.70532,36.72224],[-119.68209,36.72227],[-119.68207,36.72772],[-119.67306,36.72772],[-119.67302,36.73694],[-119.67581,36.73694],[-119.67577,36.73563],[-119.68207,36.73565],[-119.68207,36.73688],[-119.6922,36.73626],[-119.69217,36.73294],[-119.69845,36.73255],[-119.70072,36.73112],[-119.70071,36.73342],[-119.69845,36.73266],[-119.69848,36.73385],[-119.70001,36.73384],[-119.70002,36.73686],[-119.70147,36.73688],[-119.70096,36.73836],[-119.70433,36.73829],[-119.70292,36.73956],[-119.70853,36.7403],[-119.70851,36.7395],[-119.7104,36.7395],[-119.71039,36.73842],[-119.71268,36.73874],[-119.71268,36.7377]],[[-119.70935,36.72862],[-119.70933,36.73044],[-119.70599,36.73043],[-119.70601,36.72861],[-119.70935,36.72862]],[[-119.69999,36.73098],[-119.69851,36.73114],[-119.6985,36.73058],[-119.69999,36.73098]]]]},"properties":{"GEOID":"0601991080","NAME":"Fresno","COUNTY":"019"}},{"type":"Feature","geometry":{"type":"Polygon","coordinates":[[[-120.2119,36.3211],[-120.2105,36.1375],[-120.2002,36.1375],[-120.2001,36.0508],[-120.1659,36.0229],[-119.9589,36.1814],[-119.9601,36.375],[-119.9592,36.401],[-119.9773,36.4009],[-119.9772,36.4155],[-120.0133,36.4152],[-120.0132,36.4299],[-120.1938,36.4293],[-120.1938,36.3566],[-120.2118,36.3419],[-120.2119,36.3211]],[[-120.11252,36.20323],[-120.10797,36.20323],[-120.10804,36.21043],[-120.10355,36.21048],[-120.1036,36.21453],[-120.10182,36.21456],[-120.10181,36.21283],[-120.09459,36.21284],[-120.09458,36.21064],[-120.08566,36.21046],[-120.08555,36.19584],[-120.11238,36.19585],[-120.11252,36.20323]],[[-120.08273,36.2106],[-120.06807,36.21596],[-120.06822,36.211],[-120.07456,36.21068],[-120.0677,36.21062],[-120.06768,36.2089],[-120.07655,36.20884],[-120.07656,36.2104],[-120.08273,36.2106]]]},"properties":{"GEOID":"0601991360","NAME":"Huron","COUNTY":"019"}},{"type":"Feature","geometry":{"type":"Polygon","coordinates":[[[-120.3697,36.7805],[-120.3695,36.7793],[-120.3662,36.7798],[-120.3612,36.7784],[-120.3588,36.7717],[-120.3509,36.7645],[-120.3519,36.7605],[-120.3494,36.759],[-120.3499,36.7572],[-120.3466,36.7514],[-120.3478,36.7436],[-120.3502,36.7423],[-120.3429,36.7377],[-120.3427,36.7328],[-120.3282,36.7343],[-120.2051,36.7346],[-120.2054,36.7239],[-120.2067,36.7192],[-120.2275,36.6837],[-120.1732,36.6462],[-120.1016,36.574],[-120.0939,36.5634],[-119.9713,36.6623],[-119.9702,36.6915],[-119.9344,36.6916],[-119.9346,36.815],[-119.9436,36.8151],[-119.9435,36.834],[-119.9585,36.8355],[-119.9666,36.8325],[-119.9705,36.8329],[-119.977,36.835],[-119.9797,36.8397],[-119.9847,36.8408],[-119.9903,36.8378],[-119.9915,36.8345],[-119.9907,36.8306],[-119.9924,36.8289],[-119.9998,36.8273],[-120.0137,36.8281],[-120.0202,36.825],[-120.0226,36.8178],[-120.0278,36.8145],[-120.0355,36.8159],[-120.0423,36.8155],[-120.0509,36.8219],[-120.056,36.8229],[-120.0661,36.8193],[-120.0714,36.8187],[-120.0737,36.8202],[-120.0761,36.8245],[-120.0821,36.8248],[-120.0916,36.8212],[-120.0986,36.8149],[-120.108,36.8127],[-120.1146,36.814],[-120.1238,36.8117],[-120.1291,36.8118],[-120.1314,36.81],[-120.1366,36.8093],[-120.1569,36.7982],[-120.1629,36.7987],[-120.1685,36.8034],[-120.1727,36.8029],[-120.1745,36.7961],[-120.182,36.7881],[-120.1815,36.7833],[-120.1897,36.7761],[-120.1926,36.7765],[-120.1949,36.7796],[-120.1997,36.7807],[-120.2018,36.7829],[-120.2011,36.7864],[-120.2031,36.7904],[-120.2071,36.7909],[-120.2093,36.7887],[-120.218,36.7886],[-120.221,36.7872],[-120.222,36.7831],[-120.2307,36.7826],[-120.2333,36.7811],[-120.2335,36.7787],[-120.2292,36.7697],[-120.2329,36.7684],[-120.2457,36.7713],[-120.2488,36.7751],[-120.2524,36.774],[-120.256,36.7696],[-120.2622,36.7726],[-120.2694,36.7714],[-120.2733,36.7742],[-120.2758,36.7729],[-120.2775,36.7688],[-120.2814,36.7666],[-120.2822,36.7673],[-120.2812,36.7721],[-120.2855,36.7735],[-120.2891,36.7716],[-120.2897,36.7696],[-120.2881,36.7641],[-120.2906,36.763],[-120.294,36.7663],[-120.2921,36.771],[-120.2932,36.7722],[-120.2977,36.7723],[-120.3027,36.7697],[-120.3061,36.7703],[-120.3057,36.7734],[-120.2998,36.7746],[-120.3004,36.7776],[-120.3126,36.782],[-120.3138,36.7819],[-120.3159,36.7783],[-120.3217,36.7777],[-120.3243,36.7799],[-120.3246,36.7816],[-120.3223,36.7846],[-120.3242,36.7863],[-120.3346,36.7829],[-120.3356,36.7842],[-120.3344,36.7915],[-120.3369,36.7924],[-120.3441,36.7914],[-120.3477,36.7982],[-120.3507,36.7975],[-120.351,36.7954],[-120.3482,36.7899],[-120.3445,36.7874],[-120.3451,36.785],[-120.3494,36.7851],[-120.3545,36.7872],[-120.3601,36.7868],[-120.3691,36.7848],[-120.3697,36.7805]],[[-120.08751,36.72017],[-120.08742,36.72564],[-120.08296,36.72567],[-120.08296,36.72744],[-120.08391,36.72745],[-120.08395,36.73114],[-120.08284,36.73115],[-120.08285,36.73474],[-120.07826,36.73475],[-120.07821,36.73832],[-120.0737,36.73833],[-120.07374,36.73479],[-120.06682,36.73487],[-120.0669,36.73853],[-120.06009,36.73859],[-120.06012,36.73664],[-120.05365,36.73672],[-120.05364,36.73494],[-120.0514,36.73493],[-120.05142,36.73673],[-120.0476,36.73673],[-120.04761,36.73494],[-120.04231,36.7351],[-120.04241,36.72087],[-120.03669,36.72244],[-120.03671,36.72042],[-120.04241,36.7204],[-120.04243,36.71835],[-120.0508,36.71959],[-120.05152,36.71892],[-120.05154,36.71311],[-120.06436,36.71306],[-120.06441,36.70574],[-120.06958,36.70627],[-120.06954,36.7057],[-120.07408,36.70567],[-120.07402,36.71295],[-120.06947,36.71299],[-120.0694,36.71981],[-120.08751,36.72017]]]},"properties":{"GEOID":"0601991460","NAME":"Kerman","COUNTY":"019"}},{"type":"Feature","geometry":{"type":"MultiPolygon","coordinates":[[[[-120.8715,36.728],[-120.86,36.7078],[-120.8578,36.7023],[-120.8579,36.6977],[-120.8554,36.6925],[-120.8557,36.6896],[-120.6037,36.4882],[-120.5972,36.4882],[-120.5971,36.3913],[-120.5851,36.3951],[-120.5823,36.394],[-120.5757,36.395],[-120.5699,36.3943],[-120.5667,36.3916],[-120.5646,36.3925],[-120.5598,36.391],[-120.5552,36.3931],[-120.5529,36.3918],[-120.5507,36.3942],[-120.5511,36.3954],[-120.546,36.3958],[-120.5443,36.3971],[-120.5431,36.395],[-120.5405,36.3958],[-120.5388,36.3949],[-120.5354,36.3963],[-120.5322,36.395],[-120.5306,36.3974],[-120.5272,36.3967],[-120.5221,36.3984],[-120.5192,36.3962],[-120.5185,36.3981],[-120.5164,36.3963],[-120.5114,36.3968],[-120.5077,36.3994],[-120.5075,36.4013],[-120.5054,36.403],[-120.503,36.403],[-120.5022,36.4056],[-120.4932,36.4042],[-120.491,36.4084],[-120.4875,36.4082],[-120.4872,36.4101],[-120.4835,36.4108],[-120.4798,36.4152],[-120.4776,36.4129],[-120.4753,36.4135],[-120.4748,36.4157],[-120.4723,36.4156],[-120.4719,36.4179],[-120.4686,36.4196],[-120.4565,36.4157],[-120.4568,36.4126],[-120.453,36.412],[-120.4517,36.4134],[-120.4494,36.4123],[-120.4481,36.4091],[-120.4458,36.4097],[-120.4474,36.407],[-120.4448,36.4065],[-120.4455,36.4045],[-120.4423,36.4061],[-120.4411,36.4053],[-120.4416,36.4035],[-120.4347,36.4018],[-120.4277,36.3954],[-120.4258,36.3975],[-120.4234,36.3968],[-120.423,36.4],[-120.419,36.4008],[-120.4186,36.4026],[-120.4164,36.4028],[-120.417,36.4044],[-120.4135,36.405],[-120.4116,36.4075],[-120.409,36.4071],[-120.4085,36.4088],[-120.3929,36.4138],[-120.3933,36.4306],[-120.3945,36.434],[-120.3931,36.444],[-120.3933,36.4714],[-120.3927,36.4806],[-120.3891,36.4868],[-120.3872,36.7201],[-120.38051574158992,36.722880855598085],[-120.38742,36.72301],[-120.38698,36.74597],[-120.38857,36.74599],[-120.38858,36.74928],[-120.39131,36.74926],[-120.3913,36.75666],[-120.3959,36.75695],[-120.39574,36.76389],[-120.38752,36.764],[-120.38675,36.76336],[-120.39225,36.76989],[-120.3843,36.77261],[-120.3781,36.76401],[-120.37488,36.76273],[-120.37529,36.76507],[-120.37623,36.76595],[-120.37302,36.76681],[-120.37073,36.76078],[-120.36881,36.76003],[-120.36871,36.75725],[-120.3681,36.75725],[-120.36841,36.76457],[-120.37421,36.77402],[-120.37297,36.77623],[-120.36989,36.77731],[-120.36928,36.77851],[-120.36483402930403,36.778901245421245],[-120.3699,36.7796],[-120.3691,36.7848],[-120.3716,36.7858],[-120.3729,36.7889],[-120.3697,36.7956],[-120.3744,36.8011],[-120.3728,36.8037],[-120.3681,36.807],[-120.3692,36.8101],[-120.3718,36.8106],[-120.3747,36.8085],[-120.3771,36.8088],[-120.3791,36.8172],[-120.3876,36.8239],[-120.3902,36.8245],[-120.3938,36.8233],[-120.3958,36.8245],[-120.3977,36.8223],[-120.4007,36.8224],[-120.404,36.8256],[-120.4049,36.8314],[-120.4091,36.8358],[-120.4099,36.8398],[-120.4122,36.8397],[-120.4141,36.8361],[-120.4171,36.8356],[-120.4222,36.8401],[-120.4305,36.8312],[-120.4395933077567,36.825104486009245],[-120.43945301483988,36.82492899765686],[-120.4243,36.8073],[-120.4374,36.8071],[-120.4204,36.7927],[-120.5306,36.7924],[-120.531,36.778],[-120.7292,36.7779],[-120.7525,36.7856],[-120.7694,36.7879],[-120.7743,36.786],[-120.7802,36.7864],[-120.7868,36.7845],[-120.7934,36.7867],[-120.8012,36.7863],[-120.8081,36.7845],[-120.8147,36.779],[-120.8337,36.7777],[-120.8385,36.7746],[-120.8471,36.7608],[-120.8597,36.7539],[-120.8584,36.7499],[-120.8623,36.7474],[-120.8693,36.7454],[-120.8692,36.743],[-120.871,36.7401],[-120.8703,36.7329],[-120.8715,36.728]],[[-120.37657,36.77497],[-120.37326,36.77614],[-120.37542,36.77266],[-120.37657,36.77497]],[[-120.3746,36.77986],[-120.37247,36.78023],[-120.37215,36.77841],[-120.3746,36.77986]]],[[[-120.38449,36.73482],[-120.37939,36.73469],[-120.37939,36.73371],[-120.37809,36.73369],[-120.37831989792622,36.72379439361085],[-120.361,36.731],[-120.3427,36.7328],[-120.3424,36.7362],[-120.344,36.7386],[-120.3502,36.7423],[-120.3478,36.7436],[-120.3466,36.7514],[-120.3499,36.7572],[-120.3494,36.759],[-120.3519,36.7605],[-120.3509,36.7645],[-120.3588,36.7717],[-120.3612,36.7784],[-120.36427802967252,36.7788245558169],[-120.3641,36.76749],[-120.35765,36.76274],[-120.35773,36.75737],[-120.36416,36.75727],[-120.36408,36.74572],[-120.36599,36.74591],[-120.36876,36.74818],[-120.36883,36.74549],[-120.37394,36.74933],[-120.37543,36.74928],[-120.37539,36.7458],[-120.38436,36.74575],[-120.38449,36.73482]]]]},"properties":{"GEOID":"0601991950","NAME":"Mendota","COUNTY":"019"}},{"type":"Feature","geometry":{"type":"Polygon","coordinates":[[[-119.7056,36.9944],[-119.7029,36.9917],[-119.7034,36.9875],[-119.7018,36.9852],[-119.7004,36.9755],[-119.6963,36.9709],[-119.6926,36.9693],[-119.6923,36.9653],[-119.6889,36.961],[-119.6909,36.9567],[-119.6904,36.9547],[-119.69530605800439,36.9488288158308],[-119.69156,36.9488],[-119.69168048238897,36.94422166921899],[-119.68328403636363,36.94543854545454],[-119.6816,36.94572],[-119.68142518691589,36.945707943925235],[-119.6801,36.9459],[-119.67875661501787,36.94348190703218],[-119.67832,36.943],[-119.67843827405669,36.94290889330204],[-119.6731,36.9333],[-119.6737,36.9302],[-119.6765,36.9267],[-119.6737,36.9154],[-119.67,36.9151],[-119.6654,36.9111],[-119.6642,36.9082],[-119.6585,36.9054],[-119.6561,36.9055],[-119.6483,36.898],[-119.6427,36.8986],[-119.6417,36.8969],[-119.6359,36.8945],[-119.6328,36.8951],[-119.6292,36.8984],[-119.6254,36.8963],[-119.6182,36.897],[-119.6148,36.8956],[-119.6108,36.8912],[-119.611,36.8893],[-119.6138,36.8874],[-119.6121,36.8838],[-119.6079,36.8802],[-119.6048,36.8805],[-119.6023,36.8785],[-119.5963,36.8774],[-119.5969,36.8737],[-119.5954,36.8692],[-119.5915,36.866],[-119.5673,36.8512],[-119.5624,36.8506],[-119.5595,36.8516],[-119.5549,36.8488],[-119.5501,36.8482],[-119.5398,36.8375],[-119.5383,36.8305],[-119.531,36.8234],[-119.529,36.8162],[-119.5147,36.8071],[-119.5078,36.8063],[-119.4993,36.8018],[-119.4975,36.7977],[-119.4928,36.7943],[-119.4912,36.7886],[-119.4944,36.7815],[-119.4973,36.7793],[-119.4954,36.7776],[-119.4961,36.7757],[-119.4943,36.7728],[-119.4965,36.7703],[-119.4901,36.7628],[-119.478,36.7676],[-119.4674,36.77],[-119.4416,36.7647],[-119.4365,36.757],[-119.435,36.751],[-119.4375,36.7439],[-119.4331,36.7429],[-119.4343,36.7414],[-119.444,36.7379],[-119.4458,36.7352],[-119.4443,36.7311],[-119.4391,36.7253],[-119.4386,36.7207],[-119.4351,36.7187],[-119.4306,36.7192],[-119.4241,36.7149],[-119.4164,36.7135],[-119.4159,36.712],[-119.4062,36.7112],[-119.4006,36.709],[-119.3867,36.7082],[-119.3842,36.7029],[-119.3798,36.6998],[-119.3733,36.6865],[-119.3694,36.6827],[-119.365,36.68],[-119.3538,36.6763],[-119.3405,36.6638],[-119.3317,36.661],[-119.2509,36.6612],[-119.1065,36.6577],[-118.9848,36.6571],[-118.9824,36.7416],[-118.7509,36.7394],[-118.555,36.7391],[-118.5555,36.7447],[-118.3606,36.7448],[-118.3621,36.7477],[-118.3665,36.7478],[-118.3692,36.75],[-118.3717,36.7612],[-118.3747,36.7641],[-118.372,36.767],[-118.3764,36.7721],[-118.376,36.7785],[-118.3802,36.7822],[-118.3768,36.7855],[-118.375,36.7933],[-118.3728,36.7945],[-118.374,36.8002],[-118.3782,36.8042],[-118.3793,36.8087],[-118.3839,36.8102],[-118.3847,36.8153],[-118.3911,36.821],[-118.3923,36.8235],[-118.3909,36.8256],[-118.3937,36.8297],[-118.3924,36.8326],[-118.3898,36.8345],[-118.3759,36.8345],[-118.3715,36.8361],[-118.3622,36.844],[-118.3631,36.8516],[-118.3622,36.8614],[-118.3656,36.8623],[-118.3662,36.8689],[-118.3699,36.8701],[-118.3702,36.8717],[-118.3671,36.8814],[-118.3624,36.8836],[-118.3608,36.8877],[-118.365,36.8906],[-118.3692,36.8984],[-118.3698,36.9004],[-118.3674,36.907],[-118.371,36.9086],[-118.3815,36.9259],[-118.383,36.9346],[-118.3884,36.9455],[-118.3966,36.9573],[-118.4047,36.9575],[-118.403,36.962],[-118.4048,36.968],[-118.4037,36.9696],[-118.4044,36.972],[-118.4095,36.9752],[-118.4091,36.9805],[-118.4111,36.9829],[-118.4195,36.9874],[-118.4189,36.9948],[-118.4133,36.9968],[-118.4122,36.9983],[-118.4166,37.0014],[-118.4176,37.0043],[-118.4211,37.0076],[-118.4243,37.008],[-118.428,37.0112],[-118.4231,37.0169],[-118.4228,37.0258],[-118.4282,37.0308],[-118.4295,37.0339],[-118.4324,37.0343],[-118.4392,37.039],[-118.4394,37.0428],[-118.4417,37.045],[-118.435,37.0497],[-118.4382,37.0559],[-118.4361,37.0573],[-118.4371,37.0598],[-118.449,37.0691],[-118.4531,37.0673],[-118.4673,37.0667],[-118.4711,37.0727],[-118.4752,37.0743],[-118.4791,37.0742],[-118.4866,37.0774],[-118.4927,37.0875],[-118.4952,37.0881],[-118.498,37.092],[-118.5016,37.0925],[-118.5031,37.0952],[-118.5119,37.0928],[-118.5151,37.0942],[-118.5185,37.0978],[-118.5221,37.0984],[-118.5261,37.1038],[-118.5298,37.1051],[-118.5323,37.1095],[-118.5309,37.1112],[-118.5343,37.1108],[-118.538,37.1136],[-118.5444,37.1137],[-118.5451,37.1154],[-118.551,37.1139],[-118.5594,37.1145],[-118.5641,37.1132],[-118.5684,37.1153],[-118.5677,37.118],[-118.569,37.1226],[-118.5763,37.1237],[-118.5831,37.1224],[-118.5861,37.1249],[-118.5864,37.1283],[-118.588,37.1292],[-118.5899,37.1333],[-118.5891,37.1351],[-118.5927,37.1381],[-118.5996,37.1365],[-118.6059,37.1387],[-118.6074,37.1404],[-118.6124,37.1414],[-118.6134,37.143],[-118.6265,37.1397],[-118.6295,37.1374],[-118.6346,37.1389],[-118.6413,37.1372],[-118.6465,37.1408],[-118.6511,37.1402],[-118.6546,37.1418],[-118.6567,37.1472],[-118.6609,37.1484],[-118.6618,37.1509],[-118.6672,37.1546],[-118.6665,37.1614],[-118.6726,37.1673],[-118.6669,37.1728],[-118.6666,37.1758],[-118.6642,37.1781],[-118.6671,37.1824],[-118.666,37.1861],[-118.6665,37.1895],[-118.6694,37.1904],[-118.6713,37.194],[-118.6737,37.1948],[-118.6746,37.1973],[-118.6813,37.2044],[-118.6756,37.2141],[-118.6791,37.2145],[-118.6791,37.22],[-118.6808,37.2229],[-118.6842,37.2242],[-118.6864,37.2276],[-118.6822,37.234],[-118.6846,37.2376],[-118.6837,37.2444],[-118.678,37.2489],[-118.6748,37.249],[-118.6653,37.2619],[-118.6711,37.2667],[-118.6718,37.2692],[-118.6755,37.2712],[-118.6765,37.2755],[-118.6821,37.2805],[-118.6826,37.2839],[-118.6851,37.287],[-118.6852,37.2905],[-118.6896,37.2934],[-118.6949,37.3018],[-118.695,37.306],[-118.6986,37.3056],[-118.7081,37.3166],[-118.7096,37.3219],[-118.716,37.3282],[-118.7288,37.323],[-118.733,37.3179],[-118.7411,37.3153],[-118.7438,37.3195],[-118.7472,37.3222],[-118.7501,37.3225],[-118.7579,37.3288],[-118.76,37.3288],[-118.7648,37.3315],[-118.7667,37.3311],[-118.7744,37.3348],[-118.7801,37.3349],[-118.7815,37.3387],[-118.7867,37.3434],[-118.7845,37.3517],[-118.7815,37.3564],[-118.7782,37.3583],[-118.7702,37.3589],[-118.7681,37.3612],[-118.7701,37.3662],[-118.768,37.3681],[-118.771,37.3704],[-118.7733,37.3749],[-118.7786,37.376],[-118.7795,37.3816],[-118.7826,37.3827],[-118.7859,37.3891],[-118.79,37.394],[-118.782,37.4077],[-118.7836,37.4133],[-118.7798,37.4217],[-118.7746,37.4246],[-118.7693,37.4222],[-118.7675,37.4236],[-118.7651,37.4297],[-118.7602,37.4336],[-118.7589,37.4445],[-118.7619,37.4488],[-118.7637,37.4542],[-118.7633,37.4565],[-118.7674,37.4563],[-118.7689,37.4581],[-118.7733,37.4595],[-118.7777,37.4665],[-118.7779,37.4694],[-118.7851,37.4739],[-118.786,37.4787],[-118.7883,37.4795],[-118.7919,37.4846],[-118.7971,37.4887],[-118.8043,37.4889],[-118.8103,37.486],[-118.8155,37.4878],[-118.8241,37.4846],[-118.8249,37.4827],[-118.8328,37.4802],[-118.836,37.4825],[-118.8419,37.4809],[-118.8498,37.4759],[-118.856,37.4784],[-118.8572,37.4795],[-118.8554,37.4814],[-118.8596,37.4901],[-118.8585,37.4943],[-118.8608,37.5015],[-118.8675,37.5071],[-118.8757,37.5079],[-118.8817,37.5103],[-118.8813,37.5147],[-118.8829,37.5156],[-118.8837,37.5201],[-118.8875,37.521],[-118.8911,37.5253],[-118.9019,37.526],[-118.9027,37.5288],[-118.9012,37.5312],[-118.9068,37.5378],[-118.9098,37.5393],[-118.9101,37.5414],[-118.9171,37.5503],[-118.9297,37.5489],[-118.9344,37.5533],[-118.939,37.5544],[-118.9427,37.5621],[-118.9464,37.5633],[-118.947,37.565],[-118.9527,37.5658],[-118.9564,37.5627],[-118.9598,37.5631],[-118.9641,37.5581],[-118.9725,37.5594],[-118.977,37.5568],[-118.98,37.5632],[-118.9849,37.5673],[-118.9906,37.5671],[-119.0023,37.5711],[-119.0064,37.5761],[-119.0154,37.5822],[-119.0205,37.5834],[-119.0221,37.5858],[-119.2867,37.3749],[-119.3062,37.3568],[-119.3122,37.3527],[-119.3151,37.3487],[-119.3154,37.3461],[-119.3115,37.3429],[-119.3122,37.3397],[-119.3168,37.3378],[-119.3244,37.3371],[-119.3258,37.3354],[-119.3245,37.3325],[-119.3164,37.3281],[-119.3158,37.3248],[-119.3186,37.3212],[-119.3243,37.3208],[-119.3272,37.319],[-119.3354,37.3112],[-119.334,37.3039],[-119.3305,37.3017],[-119.3269,37.2919],[-119.3312,37.2821],[-119.3323,37.2744],[-119.3264,37.2699],[-119.3246,37.2655],[-119.3245,37.2586],[-119.3222,37.2534],[-119.3221,37.2474],[-119.3232,37.245],[-119.3288,37.2425],[-119.3316,37.2396],[-119.3337,37.224],[-119.3378,37.2192],[-119.336,37.2169],[-119.3307,37.2152],[-119.3294,37.21],[-119.3301,37.2074],[-119.3308,37.2055],[-119.3372,37.2005],[-119.3401,37.1927],[-119.3431,37.1891],[-119.3478,37.1868],[-119.3541,37.1857],[-119.3606,37.1805],[-119.3604,37.1701],[-119.3619,37.1678],[-119.3651,37.1657],[-119.3752,37.1641],[-119.375,37.1579],[-119.385,37.1533],[-119.3861,37.1499],[-119.3888,37.1492],[-119.3998,37.1498],[-119.4068,37.16],[-119.4158,37.1634],[-119.4258,37.1643],[-119.4321,37.1626],[-119.4331,37.1615],[-119.4331,37.152],[-119.4349,37.147],[-119.4427,37.1441],[-119.4546,37.144],[-119.4611,37.1453],[-119.4626,37.1442],[-119.4691,37.1259],[-119.4663,37.1196],[-119.4702,37.1109],[-119.4748,37.11],[-119.4833,37.1103],[-119.4913,37.1197],[-119.4932,37.1246],[-119.4913,37.1318],[-119.4891,37.1346],[-119.4892,37.1373],[-119.4931,37.1417],[-119.5027,37.1467],[-119.506,37.1503],[-119.5093,37.1505],[-119.5175,37.1468],[-119.5199,37.1386],[-119.5223,37.1354],[-119.5233,37.1298],[-119.525,37.1282],[-119.5276,37.1287],[-119.5331,37.133],[-119.54,37.1348],[-119.5432,37.1395],[-119.55,37.1446],[-119.5538,37.1452],[-119.5598,37.1435],[-119.5634,37.1395],[-119.5634,37.1283],[-119.5688,37.1171],[-119.5672,37.1159],[-119.5562,37.1155],[-119.5488,37.1168],[-119.5398,37.109],[-119.5376,37.1051],[-119.5416,37.096],[-119.5532,37.0926],[-119.559,37.0881],[-119.5633,37.0744],[-119.5605,37.0707],[-119.562,37.0687],[-119.5614,37.0655],[-119.563,37.0641],[-119.5684,37.0636],[-119.5807,37.0661],[-119.5848,37.0656],[-119.5894,37.0666],[-119.597,37.0713],[-119.6049,37.071],[-119.6097,37.0647],[-119.6106,37.0578],[-119.6136,37.052],[-119.6104,37.0457],[-119.6211,37.0266],[-119.626,37.0252],[-119.6322,37.021],[-119.6354,37.0215],[-119.636,37.0253],[-119.629,37.0346],[-119.6393,37.0433],[-119.6516,37.043],[-119.6594,37.0389],[-119.6571,37.0189],[-119.6586,37.0133],[-119.6709,37.0093],[-119.6774,37.0091],[-119.6908,37.012],[-119.6939,37.011],[-119.6981,37.0087],[-119.7007,37.0033],[-119.705,37.0007],[-119.7031,36.9981],[-119.7056,36.9944]]]},"properties":{"GEOID":"0601993010","NAME":"Sierra","COUNTY":"019"}},{"type":"Feature","geometry":{"type":"Polygon","coordinates":[[[-119.6106,36.6053],[-119.5749,36.6051],[-119.575,36.5687],[-119.4873,36.5684],[-119.4877,36.5614],[-119.4899,36.5612],[-119.4899,36.5567],[-119.4663,36.5752],[-119.4578,36.5753],[-119.4578,36.5779],[-119.46315815531092,36.57780431865516],[-119.46643,36.57538],[-119.46644268899522,36.57610961722488],[-119.4715,36.5733],[-119.4696,36.575],[-119.4695,36.5819],[-119.46948006088708,36.58190550044495],[-119.46948,36.58191],[-119.4687286,36.5821128],[-119.4666,36.5827],[-119.4666,36.5865],[-119.4606,36.5866],[-119.4608,36.5882],[-119.4659,36.5895],[-119.46757161572053,36.59075371179039],[-119.46868,36.5914],[-119.46900456140351,36.59182842105263],[-119.4707,36.5931],[-119.4698,36.5992],[-119.46847462465878,36.60161822869275],[-119.46874,36.60161],[-119.46839,36.60254],[-119.4694,36.60255],[-119.46939,36.60443],[-119.46674831105076,36.604767993872294],[-119.46515460477941,36.60767580882353],[-119.46506,36.61146],[-119.46505513851784,36.61146000658737],[-119.466,36.6133],[-119.4741,36.6216],[-119.4733,36.6242],[-119.4667,36.6289],[-119.4689,36.6324],[-119.4706,36.6396],[-119.4668,36.6448],[-119.4667,36.6468],[-119.4697,36.6487],[-119.4779,36.6478],[-119.4849,36.6535],[-119.49,36.6504],[-119.497,36.653],[-119.5088,36.6543],[-119.5121,36.6533],[-119.5152,36.6547],[-119.5175,36.6587],[-119.5227,36.6611],[-119.5268,36.6606],[-119.5285,36.6646],[-119.5281,36.6702],[-119.5355,36.6707],[-119.5381,36.6726],[-119.5388,36.676],[-119.5416,36.6777],[-119.6104,36.6776],[-119.6106,36.6065],[-119.6106,36.6053]],[[-119.57488,36.59594],[-119.57488,36.59648],[-119.57487,36.59957],[-119.57018,36.59964],[-119.57013,36.6013],[-119.56578,36.60132],[-119.56584,36.60511],[-119.5568,36.605],[-119.55672,36.61961],[-119.54767,36.61947],[-119.54765,36.62242],[-119.54395,36.61946],[-119.54294,36.61946],[-119.54327,36.6146],[-119.53873,36.61442],[-119.53811,36.61912],[-119.53679,36.61913],[-119.53645,36.61822],[-119.53424,36.6185],[-119.53417,36.61202],[-119.53306,36.61173],[-119.52987,36.61141],[-119.52981,36.61925],[-119.52084,36.61937],[-119.5209,36.61545],[-119.51627,36.61544],[-119.51633,36.61192],[-119.52092,36.61195],[-119.52103,36.60461],[-119.54332,36.60489],[-119.5433,36.60315],[-119.54785,36.60318],[-119.54789,36.59776],[-119.55985,36.59779],[-119.56299,36.59948],[-119.56577,36.5996],[-119.56576,36.59782],[-119.56751,36.59779],[-119.56756,36.59591],[-119.57488,36.59594]],[[-119.54451,36.6485],[-119.53388,36.64833],[-119.53392,36.64476],[-119.53841,36.6448],[-119.53845,36.6412],[-119.53968,36.64122],[-119.54277,36.64293],[-119.54451,36.6485]],[[-119.52218,36.59974],[-119.52107,36.59972],[-119.52109,36.5974],[-119.52216,36.5974],[-119.52218,36.59974]],[[-119.52107,36.60025],[-119.52104,36.60175],[-119.51855,36.60175],[-119.51851,36.6002],[-119.52107,36.60025]]]},"properties":{"GEOID":"0601992390","NAME":"Parlier-Del Rey","COUNTY":"019"}},{"type":"Feature","geometry":{"type":"Polygon","coordinates":[[[-120.0313,36.4299],[-120.0132,36.4299],[-120.0133,36.4152],[-119.9772,36.4155],[-119.9773,36.4009],[-119.7982,36.402],[-119.7984,36.4383],[-119.7997,36.4383],[-119.7982,36.4456],[-119.7997,36.446],[-119.7985,36.448],[-119.7975,36.4893],[-119.9994,36.4883],[-120.0106,36.481],[-120.0177,36.4674],[-120.0275,36.4591],[-120.0313,36.459],[-120.0313,36.4299]]]},"properties":{"GEOID":"0601992630","NAME":"Riverdale","COUNTY":"019"}},{"type":"Feature","geometry":{"type":"Polygon","coordinates":[[[-119.621,36.8374],[-119.6099,36.8373],[-119.6104,36.6776],[-119.542,36.6777],[-119.5388,36.676],[-119.5381,36.6726],[-119.5355,36.6707],[-119.5281,36.6702],[-119.5281,36.6734],[-119.5247,36.6766],[-119.5239,36.6803],[-119.52,36.6848],[-119.5167,36.6947],[-119.5111,36.699],[-119.5095,36.7042],[-119.4997,36.7085],[-119.4982,36.7111],[-119.4986,36.7137],[-119.4961,36.7159],[-119.4934,36.716],[-119.4891,36.7186],[-119.4866,36.7227],[-119.4836,36.7232],[-119.4828,36.7282],[-119.4807,36.7302],[-119.4774,36.7316],[-119.4718,36.7308],[-119.4667,36.7381],[-119.4629,36.7406],[-119.4612,36.7453],[-119.4534,36.7515],[-119.4465,36.7544],[-119.4426,36.7586],[-119.4432,36.7622],[-119.441,36.7637],[-119.4423,36.7651],[-119.4674,36.77],[-119.478,36.7676],[-119.4901,36.7628],[-119.4965,36.7703],[-119.4943,36.7728],[-119.4961,36.7757],[-119.4954,36.7776],[-119.4973,36.7793],[-119.4944,36.7815],[-119.4912,36.7886],[-119.4928,36.7943],[-119.4975,36.7977],[-119.4993,36.8018],[-119.5078,36.8063],[-119.5147,36.8071],[-119.529,36.8162],[-119.531,36.8234],[-119.5383,36.8305],[-119.5398,36.8375],[-119.5501,36.8482],[-119.5549,36.8488],[-119.5595,36.8516],[-119.5624,36.8506],[-119.5673,36.8512],[-119.5921,36.8668],[-119.6206,36.8664],[-119.621,36.8388],[-119.621,36.8374]],[[-119.58336,36.70676],[-119.58316,36.71573],[-119.57866,36.71574],[-119.57867,36.72031],[-119.57412,36.72037],[-119.57417,36.72115],[-119.55833,36.72126],[-119.55835,36.72476],[-119.56167,36.72474],[-119.56168,36.72657],[-119.55836,36.72659],[-119.55837,36.72842],[-119.56083,36.72841],[-119.56077,36.73593],[-119.55187,36.73589],[-119.55188,36.71851],[-119.54751,36.71851],[-119.54739,36.71405],[-119.54299,36.71412],[-119.54297,36.70676],[-119.53972,36.70654],[-119.54273,36.69246],[-119.53676,36.69248],[-119.5369,36.68893],[-119.53377,36.68964],[-119.53376,36.68847],[-119.52928,36.68842],[-119.5293,36.68126],[-119.53106,36.6813],[-119.53118,36.67751],[-119.53553,36.67747],[-119.53556,36.67923],[-119.53868,36.67921],[-119.53761,36.68127],[-119.5448,36.68123],[-119.54514,36.67774],[-119.55651,36.67774],[-119.55637,36.69225],[-119.55872,36.69224],[-119.55875,36.69046],[-119.56092,36.69045],[-119.56101,36.68857],[-119.56545,36.68859],[-119.56545,36.68495],[-119.57434,36.68495],[-119.57432,36.68857],[-119.57201,36.68857],[-119.57194,36.69228],[-119.57884,36.69224],[-119.57883,36.6995],[-119.58326,36.69945],[-119.58336,36.70676]]]},"properties":{"GEOID":"0601992800","NAME":"Sanger","COUNTY":"019"}},{"type":"Feature","geometry":{"type":"Polygon","coordinates":[[[-120.3934,36.4591],[-120.3932,36.4431],[-120.3432,36.4429],[-120.3387,36.4392],[-120.338,36.4286],[-120.0313,36.4299],[-120.0313,36.459],[-120.0275,36.4591],[-120.0175,36.4675],[-120.0107,36.4809],[-120.0049,36.4853],[-120.0068,36.4871],[-120.0103,36.4864],[-120.0174,36.4876],[-120.0273,36.4974],[-120.0303,36.4965],[-120.0365,36.4987],[-120.042,36.5044],[-120.0495,36.5077],[-120.0513,36.5117],[-120.0615,36.5217],[-120.0617,36.5283],[-120.0659,36.5359],[-120.0695,36.5388],[-120.0796,36.553],[-120.0939,36.5634],[-120.1016,36.574],[-120.1732,36.6462],[-120.2275,36.6837],[-120.2067,36.7192],[-120.2054,36.7239],[-120.2051,36.7346],[-120.3294,36.7343],[-120.361,36.731],[-120.37831989792622,36.72379439361085],[-120.37832,36.72379],[-120.38047,36.72288],[-120.38051574158992,36.722880855598085],[-120.3872,36.7201],[-120.3891,36.4868],[-120.3928,36.4803],[-120.3934,36.4591]],[[-120.21902,36.6025],[-120.21689,36.6025],[-120.21303,36.5915],[-120.21119,36.58874],[-120.21552,36.59128],[-120.21902,36.6025]],[[-120.19984,36.6006],[-120.19978,36.603],[-120.19745,36.60311],[-120.19744,36.61415],[-120.17891,36.6146],[-120.17865,36.60317],[-120.18272,36.60316],[-120.17337,36.5963],[-120.18327,36.59604],[-120.18331,36.59962],[-120.18803,36.5996],[-120.18805,36.6013],[-120.19047,36.6013],[-120.19052,36.60324],[-120.1972,36.60311],[-120.19724,36.59942],[-120.19981,36.59932],[-120.19984,36.6006]]]},"properties":{"GEOID":"0601992820","NAME":"San Joaquin-Tranquillity","COUNTY":"019"}},{"type":"Feature","geometry":{"type":"Polygon","coordinates":[[[-119.7912,36.4955],[-119.7909,36.4893],[-119.5751,36.4888],[-119.57527784446323,36.51322397295013],[-119.57535,36.51796],[-119.57531232891219,36.51795983727392],[-119.57539630281313,36.52949225300389],[-119.57894,36.53251],[-119.58411,36.5325],[-119.58403,36.53688],[-119.58848635037995,36.54060561963442],[-119.59754,36.53975],[-119.59755,36.53796],[-119.60199,36.53805],[-119.60202,36.54702],[-119.60639,36.54702],[-119.60618,36.55532],[-119.60964,36.55828],[-119.61084,36.55798],[-119.6108,36.55624],[-119.61342,36.5562],[-119.61436,36.55456],[-119.61864,36.55326],[-119.61976,36.55326],[-119.61979,36.55803],[-119.62423,36.55801],[-119.62427,36.5544],[-119.62876,36.55437],[-119.62875,36.56348],[-119.63536,36.56346],[-119.63539,36.56879],[-119.63095,36.56882],[-119.63094,36.57194],[-119.63317,36.57192],[-119.63317,36.57251],[-119.6308,36.57249],[-119.63102,36.57636],[-119.63766,36.57631],[-119.63744,36.58355],[-119.64629,36.59182],[-119.64638,36.59269],[-119.64102,36.59269],[-119.63603,36.58813],[-119.63017,36.58808],[-119.6292,36.58721],[-119.62639,36.58719],[-119.62639,36.58898],[-119.62524,36.58897],[-119.62406,36.59078],[-119.62632,36.59079],[-119.62642,36.59749],[-119.62574,36.5981],[-119.6197,36.59812],[-119.61969,36.59308],[-119.61512,36.5931],[-119.61517,36.59168],[-119.61741,36.59167],[-119.61742,36.59075],[-119.6106,36.58981],[-119.61061,36.59156],[-119.60615,36.59068],[-119.60616,36.59248],[-119.6018,36.59247],[-119.60181,36.59079],[-119.59505,36.59083],[-119.59926,36.58607],[-119.6003,36.58378],[-119.59914,36.58321],[-119.59288,36.58337],[-119.5929,36.57972],[-119.59568,36.57972],[-119.59569,36.57618],[-119.60179,36.57617],[-119.60176,36.57149],[-119.59733,36.57156],[-119.59735,36.57242],[-119.59297,36.57233],[-119.59296,36.56518],[-119.60176,36.56518],[-119.60179,36.56161],[-119.59516,36.56161],[-119.5951,36.55434],[-119.59896,36.55431],[-119.59093687638956,36.54697286837112],[-119.57522844525141,36.54680096787404],[-119.5749,36.6051],[-119.64954423131357,36.605308503439424],[-119.64921,36.60138],[-119.65653,36.60181],[-119.65771,36.60279],[-119.6577394370086,36.605331395075446],[-119.6823,36.6054],[-119.6824,36.5909],[-119.7004,36.5909],[-119.7005,36.5764],[-119.7729,36.5763],[-119.7732,36.5038],[-119.7911,36.5038],[-119.7912,36.4955]]]},"properties":{"GEOID":"0601992990","NAME":"Selma","COUNTY":"019"}},{"type":"Feature","geometry":{"type":"Polygon","coordinates":[[[-119.7729,36.5763],[-119.7005,36.5764],[-119.7004,36.5909],[-119.6824,36.5909],[-119.6823,36.6054],[-119.66440004803493,36.6053750349345],[-119.66441,36.60849],[-119.67698,36.62],[-119.68681,36.61998],[-119.68687,36.61365],[-119.69126,36.61366],[-119.69123,36.61631],[-119.69574,36.61631],[-119.6958,36.61996],[-119.69122,36.61996],[-119.6912,36.62719],[-119.69345,36.62719],[-119.69343,36.63081],[-119.69121,36.63085],[-119.6912,36.632],[-119.6886,36.63203],[-119.68826,36.63095],[-119.68675,36.63095],[-119.68677,36.63239],[-119.68847,36.63242],[-119.68845,36.63401],[-119.69282,36.63444],[-119.68838,36.63565],[-119.69115,36.63614],[-119.69111,36.63821],[-119.68217,36.63823],[-119.68215,36.63999],[-119.67775,36.63992],[-119.67778,36.63644],[-119.67548,36.6364],[-119.67549,36.63701],[-119.67323,36.63703],[-119.67316,36.64176],[-119.66421,36.64174],[-119.66423,36.63449],[-119.65976,36.63446],[-119.65982,36.63084],[-119.6643,36.63085],[-119.66426,36.63351],[-119.66669,36.6336],[-119.66666,36.63086],[-119.66887,36.63084],[-119.66887,36.62534],[-119.67141,36.62532],[-119.66549,36.61991],[-119.67014,36.61992],[-119.66783,36.61796],[-119.66439,36.61793],[-119.66442,36.61471],[-119.66217,36.61264],[-119.65994,36.61328],[-119.66044,36.61227],[-119.6577,36.61197],[-119.65773,36.60899],[-119.64986,36.60902],[-119.64954812940118,36.60535432096151],[-119.6106,36.6053],[-119.6104,36.6776],[-119.6638,36.6781],[-119.6639,36.6635],[-119.7728,36.6634],[-119.7729,36.5777],[-119.7729,36.5763]]]},"properties":{"GEOID":"0601991060","NAME":"Fowler","COUNTY":"019"}},{"type":"Feature","geometry":{"type":"MultiPolygon","coordinates":[[[[-120.9187,36.7404],[-120.856,36.6898],[-120.8554,36.6925],[-120.8579,36.6977],[-120.8578,36.7023],[-120.86,36.7078],[-120.8715,36.728],[-120.8703,36.7329],[-120.871,36.7401],[-120.8692,36.7455],[-120.8623,36.7474],[-120.8584,36.7499],[-120.86,36.7528],[-120.8593,36.7543],[-120.8471,36.7608],[-120.8385,36.7746],[-120.8345,36.7775],[-120.8147,36.779],[-120.8081,36.7845],[-120.8012,36.7863],[-120.7934,36.7867],[-120.7868,36.7845],[-120.7802,36.7864],[-120.7743,36.786],[-120.7702,36.7879],[-120.7525,36.7856],[-120.7292,36.7779],[-120.531,36.778],[-120.5306,36.7924],[-120.4204,36.7927],[-120.4374,36.8071],[-120.4243,36.8073],[-120.43945301483988,36.82492899765686],[-120.43919,36.8246],[-120.43923,36.82164],[-120.44947,36.82159],[-120.45433,36.82481],[-120.44772,36.82705],[-120.45103,36.83234],[-120.45774,36.83226],[-120.45766,36.83517],[-120.46197,36.83521],[-120.46232,36.83717],[-120.45961,36.83961],[-120.45753,36.84013],[-120.45622,36.84225],[-120.45082,36.8445],[-120.45283,36.84864],[-120.45451,36.85105],[-120.45952,36.85511],[-120.46371,36.85245],[-120.46697,36.8514],[-120.46982,36.85301],[-120.4638,36.85779],[-120.46901,36.86288],[-120.46778,36.86404],[-120.47343,36.86927],[-120.47173,36.87054],[-120.48933,36.8817],[-120.47643,36.87628],[-120.47398,36.87802],[-120.47553,36.88008],[-120.46829,36.88038],[-120.46736,36.87848],[-120.46289,36.87689],[-120.46118,36.87502],[-120.4592,36.8761],[-120.45924084880636,36.875658090185674],[-120.4582,36.878],[-120.4546,36.8791],[-120.4537,36.8808],[-120.4565,36.8838],[-120.4653,36.8873],[-120.4668,36.8922],[-120.461,36.9023],[-120.4638,36.9054],[-120.4556,36.9054],[-120.4503,36.9112],[-120.4504,36.9128],[-120.4622,36.9172],[-120.462,36.9194],[-120.4578,36.9215],[-120.4571,36.9236],[-120.4628,36.9282],[-120.468,36.9375],[-120.4735,36.9384],[-120.4756,36.94],[-120.479,36.9488],[-120.478,36.9547],[-120.4842,36.9627],[-120.4889,36.9657],[-120.4887,36.9678],[-120.4842,36.9702],[-120.4841,36.9724],[-120.4882,36.9734],[-120.4909,36.9758],[-120.4948,36.9758],[-120.4954,36.9789],[-120.4995,36.982],[-120.5015,36.9924],[-120.5006,36.9959],[-120.5042,36.9982],[-120.503,37.0006],[-120.5082,37.0003],[-120.509,37.0076],[-120.5138,37.011],[-120.5202,37.0113],[-120.5233,37.0141],[-120.5304,37.0129],[-120.5312,37.014],[-120.5296,37.0179],[-120.5307,37.0202],[-120.5369,37.0193],[-120.5378,37.0239],[-120.5453,37.0269],[-120.5445,37.0292],[-120.5378,37.0342],[-120.5372,37.0406],[-120.5417,37.0445],[-120.5986,36.9986],[-120.5936,36.9979],[-120.5912,36.9928],[-120.588,36.9927],[-120.5852,36.9906],[-120.5864,36.9887],[-120.586,36.9853],[-120.5881,36.9853],[-120.5881,36.9816],[-120.5905,36.9816],[-120.5906,36.9526],[-120.656,36.9528],[-120.9163,36.7423],[-120.9187,36.7404]]],[[[-120.44778,36.8377],[-120.44493,36.83178],[-120.4395933077567,36.825104486009245],[-120.4305,36.8312],[-120.4222,36.8401],[-120.4266,36.8401],[-120.43004324876344,36.84528982422315],[-120.43479,36.83705],[-120.43631,36.83802],[-120.43679,36.83727],[-120.44566,36.83976],[-120.44698,36.83739],[-120.44778,36.8377]]]]},"properties":{"GEOID":"0601991000","NAME":"Firebaugh","COUNTY":"019"}},{"type":"Feature","geometry":{"type":"MultiPolygon","coordinates":[[[[-119.57542,36.53361],[-119.56981,36.5282],[-119.5696,36.52948],[-119.56603,36.52947],[-119.56629,36.52519],[-119.56395,36.52314],[-119.55687,36.52337],[-119.55686,36.52518],[-119.55928,36.52517],[-119.55923,36.5288],[-119.5626,36.52881],[-119.5626,36.53246],[-119.55538,36.53238],[-119.55534,36.53423],[-119.55225,36.53423],[-119.55222,36.53597],[-119.54796,36.53596],[-119.54796,36.53758],[-119.54319,36.53772],[-119.54327,36.5351],[-119.53879,36.53519],[-119.53879,36.53326],[-119.54037,36.53326],[-119.54033,36.53231],[-119.53884,36.53227],[-119.5391,36.51799],[-119.5385971402214,36.51701780442804],[-119.5372,36.5182],[-119.4899,36.5567],[-119.4899,36.5612],[-119.4877,36.5614],[-119.4873,36.5684],[-119.575,36.5687],[-119.57518987966031,36.54680054584308],[-119.57514,36.5468],[-119.57522432734253,36.542827579829],[-119.5753,36.5341],[-119.57541309010739,36.533935505298345],[-119.57542,36.53361]]],[[[-119.57539630281313,36.52949225300389],[-119.57531232891219,36.51795983727392],[-119.57072,36.51794],[-119.57073,36.52152],[-119.56831,36.52153],[-119.56832,36.52342],[-119.5729,36.52706],[-119.57518,36.52701],[-119.57483,36.52901],[-119.57539630281313,36.52949225300389]]],[[[-119.57527784446323,36.51322397295013],[-119.5751,36.4888],[-119.5732,36.4888],[-119.5569,36.5021],[-119.5568,36.5034],[-119.5536,36.5034],[-119.55359734067797,36.50343988983051],[-119.56145,36.50339],[-119.56156,36.51069],[-119.57524,36.51074],[-119.57527784446323,36.51322397295013]]]]},"properties":{"GEOID":"0601991480","NAME":"Kingsburg","COUNTY":"019"}},{"type":"Feature","geometry":{"type":"Polygon","coordinates":[[[-119.7997,36.4383],[-119.7984,36.4383],[-119.7982,36.402],[-119.7531,36.4019],[-119.7514,36.4043],[-119.7524,36.409],[-119.7469,36.4165],[-119.7384,36.4179],[-119.7349,36.4159],[-119.7301,36.4208],[-119.7214,36.4179],[-119.7134,36.419],[-119.7112,36.4202],[-119.7092,36.4247],[-119.7048,36.4272],[-119.6996,36.4249],[-119.6936,36.4245],[-119.6856,36.4262],[-119.6811,36.4297],[-119.6715,36.4311],[-119.6703,36.4295],[-119.6728,36.4266],[-119.6681,36.4232],[-119.6664,36.4189],[-119.5732,36.4888],[-119.7975,36.4893],[-119.7985,36.448],[-119.7997,36.446],[-119.7982,36.4456],[-119.7997,36.4383]]]},"properties":{"GEOID":"0601991570","NAME":"Laton","COUNTY":"019"}}]}