{"type":"FeatureCollection","features":[{"type":"Feature","geometry":{"type":"Polygon","coordinates":[[[-122.9384,39.7481],[-122.9125,39.7482],[-122.9129,39.7087],[-122.8927,39.7089],[-122.8909,39.6449],[-122.889,39.643],[-122.8879,39.6376],[-122.8828,39.6334],[-122.8747,39.6215],[-122.8714,39.6197],[-122.8718,39.6172],[-122.87,39.6161],[-122.8709,39.6148],[-122.8691,39.6118],[-122.8702,39.6107],[-122.8664,39.6082],[-122.8664,39.6042],[-122.8646,39.6039],[-122.8588,39.5948],[-122.8542,39.5944],[-122.859,39.5971],[-122.8558,39.5962],[-122.8545,39.5967],[-122.8557,39.5971],[-122.8547,39.5984],[-122.8518,39.5985],[-122.8543,39.5997],[-122.8487,39.5989],[-122.8521,39.6022],[-122.8496,39.6039],[-122.8425,39.6039],[-122.8376,39.6025],[-122.8339,39.6083],[-122.8352,39.6131],[-122.8305,39.6079],[-122.8266,39.6089],[-122.8254,39.6126],[-122.8232,39.6141],[-122.8133,39.616],[-122.8066,39.6159],[-122.8021,39.6178],[-122.7884,39.6161],[-122.7878,39.6175],[-122.7863,39.6174],[-122.7834,39.6155],[-122.7797,39.6153],[-122.7699,39.6246],[-122.7683,39.6238],[-122.7658,39.6261],[-122.762,39.6252],[-122.7613,39.6274],[-122.7585,39.6265],[-122.757,39.6301],[-122.7618,39.633],[-122.7691,39.6346],[-122.7714,39.6378],[-122.7842,39.6359],[-122.7869,39.6375],[-122.7887,39.6428],[-122.7799,39.6435],[-122.7726,39.6424],[-122.7705,39.64],[-122.7623,39.6371],[-122.7571,39.6372],[-122.7499,39.6404],[-122.7487,39.6422],[-122.7427,39.645],[-122.741,39.6496],[-122.7293,39.6541],[-122.7232,39.6585],[-122.7203,39.6627],[-122.7126,39.668],[-122.7106,39.6797],[-122.7092,39.6807],[-122.6851,39.6679],[-122.6669,39.667],[-122.6566,39.6612],[-122.647,39.6611],[-122.6381,39.663],[-122.6281,39.6599],[-122.6222,39.6573],[-122.6161,39.6493],[-122.6109,39.6473],[-122.6034,39.6394],[-122.5989,39.6439],[-122.5971,39.6485],[-122.594,39.6499],[-122.5934,39.6554],[-122.5921,39.6564],[-122.5856,39.654],[-122.5715,39.6578],[-122.56,39.6571],[-122.5496,39.6594],[-122.5366,39.6597],[-122.5257,39.6634],[-122.5263,39.6584],[-122.5227,39.6388],[-122.5271,39.6272],[-122.5265,39.6153],[-122.5303,39.6115],[-122.5238,39.6119],[-122.5141,39.6155],[-122.5105,39.6145],[-122.508,39.6113],[-122.5082,39.6005],[-122.5061,39.5983],[-122.4963,39.5985],[-122.4892,39.5964],[-122.476,39.599],[-122.4688,39.5991],[-122.4591,39.5917],[-122.4466,39.5869],[-122.4334,39.5884],[-122.4145,39.5871],[-122.3958,39.5833],[-122.3855,39.5787],[-122.3818,39.5737],[-122.369,39.5659],[-122.3638,39.5582],[-122.3587,39.556],[-122.356,39.5505],[-122.3474,39.5436],[-122.3408,39.5323],[-122.3156,39.5314],[-122.3045,39.5241],[-122.2492,39.5242],[-122.2498,39.6247],[-122.1042,39.6235],[-122.1037,39.6525],[-122.0649,39.6524],[-122.0649,39.6586],[-122.0636,39.6597],[-121.9898,39.659],[-121.9898,39.6603],[-121.9965,39.6639],[-121.9973,39.6685],[-121.9955,39.6706],[-121.9921,39.6715],[-121.9851,39.6702],[-121.9721,39.6765],[-121.9602,39.6779],[-121.9577,39.6816],[-121.9569,39.6875],[-121.9449,39.6909],[-121.9424,39.6943],[-121.9416,39.6981],[-121.947,39.7065],[-121.9474,39.7111],[-121.951,39.715],[-121.9508,39.7193],[-121.9465,39.7263],[-121.9469,39.7307],[-121.9483,39.7322],[-121.9499,39.733],[-121.9524,39.7318],[-121.9556,39.7208],[-121.9572,39.7191],[-121.9625,39.7177],[-121.967,39.7208],[-121.9679,39.7233],[-121.965,39.7284],[-121.9612,39.7308],[-121.9602,39.7342],[-121.9638,39.7414],[-121.9694,39.7394],[-121.9692,39.7344],[-121.9707,39.7321],[-121.9822,39.7339],[-121.9892,39.7436],[-121.9981,39.7524],[-122.0087,39.7592],[-122.0166,39.7614],[-122.0246,39.7679],[-122.0326,39.7794],[-122.0256,39.7881],[-122.0238,39.7977],[-122.0279,39.8004],[-122.0366,39.798],[-122.036,39.7953],[-122.0401,39.7927],[-122.0465,39.7976],[-122.1795,39.7974],[-122.2511,39.7993],[-122.8442,39.8005],[-122.9377,39.7982],[-122.9382,39.749],[-122.9384,39.7481]],[[-122.21066,39.74966],[-122.21066,39.75469],[-122.20509,39.75468],[-122.20504,39.75831],[-122.20143,39.75828],[-122.2014,39.76178],[-122.19678,39.76087],[-122.19686,39.75449],[-122.1923,39.75443],[-122.19206,39.75996],[-122.19003,39.75986],[-122.18861,39.75811],[-122.18971,39.75812],[-122.18976,39.75525],[-122.19058,39.75443],[-122.18749,39.75299],[-122.18566,39.7538],[-122.18342,39.75264],[-122.18302,39.75564],[-122.18188,39.75567],[-122.18177,39.75428],[-122.18031,39.75545],[-122.17717,39.75402],[-122.17723,39.75458],[-122.17097,39.75436],[-122.17092,39.75084],[-122.16625,39.75079],[-122.16635,39.74717],[-122.16213,39.74711],[-122.16213,39.74373],[-122.15948,39.74368],[-122.15944,39.73471],[-122.16098,39.73318],[-122.17238,39.73774],[-122.17807,39.73773],[-122.17809,39.73639],[-122.18494,39.73638],[-122.18491,39.73822],[-122.18856,39.73755],[-122.18839,39.74011],[-122.1905,39.74013],[-122.1905,39.73958],[-122.19147,39.74014],[-122.1923,39.73598],[-122.19456,39.73607],[-122.19514,39.73319],[-122.19646,39.73296],[-122.19684,39.73883],[-122.20012,39.73876],[-122.20017,39.73674],[-122.20535,39.73674],[-122.20509,39.73877],[-122.20293,39.7401],[-122.2053,39.74059],[-122.2052,39.74744],[-122.21047,39.74742],[-122.2099,39.74965],[-122.21066,39.74966]]]},"properties":{"GEOID":"0602192280","NAME":"Orland","COUNTY":"021"}},{"type":"Feature","geometry":{"type":"Polygon","coordinates":[[[-122.8909,39.6449],[-122.8904,39.6229],[-122.8845,39.6108],[-122.8854,39.5801],[-122.8284,39.5797],[-122.8141,39.5814],[-122.7725,39.5795],[-122.7539,39.5812],[-122.7356,39.5807],[-122.7365,39.5085],[-122.7324,39.4946],[-122.7316,39.4792],[-122.7326,39.4508],[-122.7417,39.4352],[-122.7393,39.4077],[-122.7391,39.3833],[-122.7,39.383],[-122.6744,39.3847],[-122.5945,39.3855],[-122.4313,39.3838],[-122.136,39.3855],[-122.1362,39.4145],[-122.1256,39.4146],[-122.0089,39.4136],[-122.0065,39.4049],[-122.0044,39.4039],[-122.0037,39.3978],[-122.0075,39.3921],[-122.0078,39.3859],[-122.0102,39.3839],[-121.89,39.3839],[-121.8893,39.386],[-121.8904,39.3902],[-121.8835,39.4068],[-121.8843,39.4102],[-121.881,39.4164],[-121.881,39.4198],[-121.8794,39.4227],[-121.8777,39.4228],[-121.8792,39.4239],[-121.8777,39.4249],[-121.878,39.4277],[-121.8752,39.4279],[-121.8758,39.432],[-121.8746,39.4345],[-121.8763,39.4356],[-121.8769,39.4383],[-121.875,39.4405],[-121.874,39.4473],[-121.8708,39.4487],[-121.8731,39.4509],[-121.8725,39.4534],[-121.8748,39.4605],[-121.8721,39.4617],[-121.8694,39.4662],[-121.8712,39.4672],[-121.8722,39.4769],[-121.8735,39.4786],[-121.8732,39.4821],[-121.8713,39.483],[-121.8709,39.4851],[-121.8725,39.49],[-121.8717,39.4908],[-121.8771,39.5018],[-121.8751,39.5033],[-121.8773,39.5095],[-121.8711,39.5184],[-121.8641,39.5232],[-121.8641,39.5247],[-121.8615,39.525],[-121.8594,39.5272],[-121.86,39.5292],[-121.8565,39.5326],[-121.8569,39.5369],[-121.9452,39.5361],[-121.974,39.5289],[-121.9734,39.5311],[-121.9768,39.5329],[-121.9841,39.5328],[-121.9857,39.531],[-121.994,39.5339],[-121.9992,39.5448],[-122.0031,39.5593],[-122.0017,39.561],[-121.9923,39.5623],[-121.9906,39.5643],[-121.9925,39.5671],[-122.0014,39.569],[-122.0032,39.5748],[-121.9952,39.5817],[-121.9969,39.5876],[-121.9958,39.5924],[-121.9966,39.6004],[-121.994,39.6063],[-121.9923,39.6082],[-121.9822,39.6114],[-121.9796,39.6148],[-121.98,39.6188],[-121.9835,39.6233],[-121.9883,39.6242],[-121.9924,39.6296],[-121.991,39.6318],[-121.9908,39.6365],[-121.9851,39.6459],[-121.976,39.6486],[-121.9688,39.6481],[-121.9669,39.6504],[-121.9682,39.6559],[-121.9777,39.6642],[-121.9814,39.6637],[-121.9848,39.6605],[-121.9898,39.6603],[-121.9898,39.659],[-122.0636,39.6597],[-122.0649,39.6586],[-122.0649,39.6524],[-122.1037,39.6525],[-122.1042,39.6235],[-122.2498,39.6247],[-122.2492,39.5242],[-122.3045,39.5241],[-122.3156,39.5314],[-122.3399,39.5319],[-122.3419,39.5335],[-122.3438,39.5389],[-122.3474,39.5436],[-122.3562,39.5506],[-122.3586,39.5559],[-122.3635,39.5579],[-122.369,39.5659],[-122.3818,39.5737],[-122.3845,39.5779],[-122.388,39.5802],[-122.3992,39.5844],[-122.4136,39.587],[-122.4334,39.5884],[-122.4466,39.5869],[-122.4591,39.5917],[-122.4688,39.5991],[-122.476,39.599],[-122.4892,39.5964],[-122.4963,39.5985],[-122.5067,39.5984],[-122.5083,39.6006],[-122.508,39.6113],[-122.5104,39.6144],[-122.5141,39.6155],[-122.5238,39.6119],[-122.5303,39.6115],[-122.5265,39.6153],[-122.5271,39.6272],[-122.5227,39.6388],[-122.5263,39.6584],[-122.5257,39.6634],[-122.5366,39.6597],[-122.5496,39.6594],[-122.56,39.6571],[-122.5715,39.6578],[-122.5856,39.654],[-122.5921,39.6564],[-122.5934,39.6554],[-122.594,39.6499],[-122.5971,39.6485],[-122.5989,39.6439],[-122.6034,39.6394],[-122.6109,39.6473],[-122.6161,39.6493],[-122.6222,39.6573],[-122.6281,39.6599],[-122.6381,39.663],[-122.647,39.6611],[-122.6566,39.6612],[-122.6669,39.667],[-122.6851,39.6679],[-122.7092,39.6807],[-122.7106,39.6797],[-122.7126,39.668],[-122.7203,39.6627],[-122.7232,39.6585],[-122.7293,39.6541],[-122.741,39.6496],[-122.7427,39.645],[-122.7487,39.6422],[-122.7499,39.6404],[-122.7571,39.6372],[-122.7623,39.6371],[-122.7705,39.64],[-122.7726,39.6424],[-122.7799,39.6435],[-122.7887,39.6428],[-122.7869,39.6375],[-122.7842,39.6359],[-122.7714,39.6378],[-122.7691,39.6346],[-122.7618,39.633],[-122.757,39.6301],[-122.7585,39.6265],[-122.7613,39.6274],[-122.762,39.6252],[-122.7658,39.6261],[-122.7683,39.6238],[-122.7699,39.6246],[-122.7797,39.6153],[-122.7834,39.6155],[-122.7863,39.6174],[-122.7878,39.6175],[-122.7884,39.6161],[-122.8021,39.6178],[-122.8066,39.6159],[-122.8133,39.616],[-122.8232,39.6141],[-122.8254,39.6126],[-122.8266,39.6089],[-122.8305,39.6079],[-122.8352,39.6131],[-122.8339,39.6083],[-122.8376,39.6025],[-122.8425,39.6039],[-122.8498,39.6039],[-122.8521,39.6022],[-122.8487,39.5989],[-122.8528,39.6],[-122.8544,39.5995],[-122.8518,39.5985],[-122.8547,39.5984],[-122.8557,39.5971],[-122.8547,39.5965],[-122.859,39.5972],[-122.8546,39.5943],[-122.8597,39.5954],[-122.8646,39.6039],[-122.8664,39.6042],[-122.8664,39.6082],[-122.8702,39.6109],[-122.8691,39.6118],[-122.8709,39.6148],[-122.87,39.6161],[-122.8718,39.6172],[-122.8714,39.6197],[-122.8747,39.6215],[-122.8828,39.6334],[-122.8879,39.6376],[-122.889,39.643],[-122.8909,39.6449]],[[-122.21985,39.52426],[-122.21879,39.52669],[-122.21878,39.53146],[-122.19901,39.53141],[-122.19897,39.52897],[-122.1952,39.52898],[-122.1936,39.52783],[-122.19318,39.52421],[-122.18703,39.52418],[-122.18703,39.52188],[-122.18478,39.52188],[-122.18471,39.52039],[-122.18991,39.5165],[-122.19205,39.51208],[-122.19383,39.51126],[-122.19297,39.51126],[-122.19293,39.50958],[-122.18389,39.5096],[-122.18373,39.49489],[-122.19318,39.49498],[-122.19315,39.49133],[-122.19583,39.49132],[-122.19565,39.49373],[-122.19404,39.49497],[-122.19749,39.49669],[-122.20088,39.50249],[-122.21067,39.51412],[-122.20877,39.51409],[-122.20877,39.51537],[-122.21168,39.51533],[-122.21428,39.52043],[-122.21614,39.52117],[-122.21612,39.52294],[-122.21726,39.52362],[-122.21984,39.52307],[-122.21985,39.52426]]]},"properties":{"GEOID":"0602193750","NAME":"Willows","COUNTY":"021"}}]}