{"type":"FeatureCollection","features":[{"type":"Feature","geometry":{"type":"Polygon","coordinates":[[[-124.482,40.4403],[-124.4786,40.4221],[-124.4724,40.4128],[-124.4447,40.3764],[-124.4295,40.3649],[-124.4281,40.3618],[-124.4279,40.3388],[-124.4185,40.3188],[-124.4183,40.3143],[-124.4219,40.3021],[-124.4279,40.2888],[-124.4291,40.2669],[-124.4267,40.2499],[-124.4213,40.2371],[-124.4032,40.218],[-124.3928,40.2098],[-124.3793,40.2029],[-124.3687,40.1932],[-124.3337,40.1672],[-124.3099,40.1536],[-124.2878,40.1377],[-124.2721,40.1337],[-124.2577,40.1215],[-124.2312,40.0934],[-124.218,40.0864],[-124.2043,40.0814],[-124.1717,40.1343],[-124.1713,40.1371],[-124.1657,40.1401],[-124.1644,40.1424],[-124.1582,40.1437],[-124.1536,40.1472],[-124.1507,40.1476],[-124.1499,40.1493],[-124.147,40.1488],[-124.1448,40.1544],[-124.1423,40.1556],[-124.1445,40.1577],[-124.141,40.1615],[-124.1247,40.1678],[-124.1216,40.1701],[-124.117,40.177],[-124.1158,40.1808],[-124.1185,40.1843],[-124.1265,40.1887],[-124.1326,40.189],[-124.1382,40.1924],[-124.132,40.1996],[-124.1258,40.2017],[-124.1253,40.2036],[-124.1212,40.205],[-124.1193,40.2081],[-124.1163,40.2092],[-124.1165,40.2103],[-124.1189,40.2109],[-124.1145,40.2153],[-124.1094,40.2271],[-124.1104,40.2302],[-124.1126,40.2316],[-124.1163,40.2317],[-124.1167,40.2339],[-124.1209,40.2379],[-124.1228,40.2449],[-124.1244,40.2458],[-124.1227,40.246],[-124.1227,40.2479],[-124.1208,40.2473],[-124.1223,40.2497],[-124.1249,40.2504],[-124.1244,40.2539],[-124.1231,40.2519],[-124.1234,40.2531],[-124.1222,40.2545],[-124.1214,40.2538],[-124.1202,40.2571],[-124.1193,40.2535],[-124.1179,40.2526],[-124.1179,40.2562],[-124.1153,40.259],[-124.1156,40.2612],[-124.1127,40.263],[-124.1097,40.2636],[-124.1021,40.2613],[-124.0979,40.2613],[-124.0858,40.268],[-124.0819,40.269],[-124.0794,40.2674],[-124.0771,40.2676],[-124.079,40.2725],[-124.0771,40.2775],[-124.0748,40.2781],[-124.0707,40.276],[-124.0698,40.2792],[-124.0675,40.2795],[-124.064,40.2842],[-124.0551,40.2853],[-124.0544,40.286],[-124.0568,40.2883],[-124.0563,40.2917],[-124.0576,40.2948],[-124.0553,40.3026],[-124.0594,40.3018],[-124.0625,40.3044],[-124.0614,40.3142],[-124.0594,40.3166],[-124.0619,40.3193],[-124.0594,40.3215],[-124.0506,40.3247],[-124.0532,40.3257],[-124.0471,40.3267],[-124.0466,40.3258],[-124.0458,40.3273],[-124.0456,40.325],[-124.0437,40.3283],[-124.043,40.3254],[-124.0405,40.329],[-124.0343,40.3301],[-124.0365,40.3326],[-124.0313,40.3311],[-124.0269,40.3336],[-124.0346,40.3406],[-124.0494,40.3503],[-124.0502,40.3533],[-124.0558,40.361],[-124.0566,40.3647],[-124.0589,40.3658],[-124.0626,40.3728],[-124.0649,40.3726],[-124.0654,40.3747],[-124.069,40.3765],[-124.0719,40.3757],[-124.0699,40.3782],[-124.0716,40.3823],[-124.0736,40.3834],[-124.0734,40.3809],[-124.0758,40.3842],[-124.0733,40.3845],[-124.0707,40.3828],[-124.0674,40.3774],[-124.0637,40.3753],[-124.0616,40.376],[-124.0584,40.3819],[-124.0551,40.3829],[-124.0533,40.3851],[-124.0612,40.3812],[-124.0598,40.3836],[-124.0606,40.385],[-124.0583,40.3869],[-124.0613,40.3885],[-124.0586,40.3895],[-124.0594,40.3908],[-124.0577,40.391],[-124.0539,40.395],[-124.054,40.399],[-124.0517,40.3993],[-124.0499,40.4012],[-124.0552,40.4044],[-124.0665,40.4059],[-124.0676,40.4085],[-124.0703,40.4094],[-124.0761,40.4172],[-124.0802,40.4166],[-124.0845,40.4189],[-124.0887,40.4174],[-124.0907,40.4194],[-124.0965,40.4216],[-124.1069,40.4227],[-124.117,40.4194],[-124.117,40.4177],[-124.1233,40.4193],[-124.1307,40.4256],[-124.1334,40.431],[-124.1322,40.4325],[-124.1361,40.4306],[-124.1334,40.4374],[-124.1365,40.4433],[-124.1406,40.4462],[-124.14,40.4477],[-124.1415,40.4513],[-124.1463,40.4481],[-124.1642,40.448],[-124.1834,40.4514],[-124.1927,40.4555],[-124.1984,40.4564],[-124.2103,40.4636],[-124.2123,40.4675],[-124.2154,40.4698],[-124.2198,40.4787],[-124.2286,40.4809],[-124.2302,40.4823],[-124.2299,40.4843],[-124.2409,40.4939],[-124.2476,40.4967],[-124.2563,40.4951],[-124.2663,40.4999],[-124.2749,40.5022],[-124.2787,40.505],[-124.2747,40.5096],[-124.2675,40.5117],[-124.2619,40.5116],[-124.2557,40.5148],[-124.2545,40.5166],[-124.2463,40.5178],[-124.2416,40.5168],[-124.2352,40.5131],[-124.227,40.5112],[-124.2188,40.503],[-124.2048,40.5017],[-124.1992,40.5113],[-124.1977,40.5192],[-124.1887,40.5263],[-124.178,40.5291],[-124.1721,40.528],[-124.1684,40.5293],[-124.1608,40.5276],[-124.158,40.5315],[-124.1568,40.5405],[-124.1625,40.5466],[-124.1595,40.5592],[-124.1543,40.5641],[-124.1539,40.5733],[-124.1573,40.5809],[-124.1624,40.5853],[-124.1628,40.592],[-124.16755952808839,40.59797104432907],[-124.16862,40.59837],[-124.16864816950735,40.59901789866916],[-124.1872,40.6053],[-124.1926,40.6117],[-124.1968,40.6137],[-124.2065,40.6145],[-124.2149,40.6172],[-124.2344,40.6173],[-124.2393,40.62],[-124.2434,40.6269],[-124.2464,40.628],[-124.2501,40.6285],[-124.2625,40.6213],[-124.2707,40.6193],[-124.2759,40.6196],[-124.2914,40.6278],[-124.2945,40.6326],[-124.3066,40.6375],[-124.3125,40.6428],[-124.367,40.6723],[-124.4034,40.6132],[-124.412,40.597],[-124.4272,40.5621],[-124.4477,40.5297],[-124.4519,40.5156],[-124.4526,40.4931],[-124.456,40.484],[-124.4658,40.47],[-124.4759,40.4598],[-124.4792,40.4526],[-124.482,40.4403]],[[-124.26944,40.58802],[-124.2622,40.58803],[-124.26235,40.5917],[-124.25524,40.59175],[-124.25481,40.56252],[-124.26038,40.56248],[-124.26055,40.56969],[-124.26909,40.56981],[-124.26944,40.58802]]]},"properties":{"GEOID":"0602390980","NAME":"Ferndale","COUNTY":"023"}},{"type":"Feature","geometry":{"type":"Polygon","coordinates":[[[-124.367,40.6723],[-124.3125,40.6428],[-124.3066,40.6375],[-124.2945,40.6326],[-124.2914,40.6278],[-124.2759,40.6196],[-124.2707,40.6193],[-124.2625,40.6213],[-124.2501,40.6285],[-124.2464,40.628],[-124.2434,40.6269],[-124.2393,40.62],[-124.2344,40.6173],[-124.2149,40.6172],[-124.2065,40.6145],[-124.1968,40.6137],[-124.1926,40.6117],[-124.1872,40.6053],[-124.1689,40.5994],[-124.16865301141353,40.59912926251098],[-124.16874,40.60113],[-124.16872,40.6027],[-124.16587,40.60285],[-124.16627,40.60904],[-124.16464,40.60906],[-124.16464,40.61006],[-124.16637,40.61003],[-124.16639,40.61062],[-124.1577,40.61093],[-124.15733,40.61013],[-124.15439,40.61017],[-124.15402,40.60655],[-124.14932,40.60657],[-124.14962,40.60402],[-124.14875,40.60293],[-124.14098,40.60357],[-124.1402,40.60476],[-124.14241,40.60448],[-124.14191,40.60659],[-124.13732,40.60662],[-124.13738,40.61034],[-124.13608,40.61034],[-124.13607,40.60799],[-124.13484,40.60754],[-124.13482,40.60659],[-124.13383,40.60658],[-124.13383,40.60474],[-124.13543,40.60471],[-124.13553,40.59937],[-124.13079,40.59935],[-124.13075,40.60296],[-124.126,40.60291],[-124.12604,40.60187],[-124.12482,40.60103],[-124.1223,40.6005],[-124.12236,40.5994],[-124.12629,40.59937],[-124.13145,40.59609],[-124.13006,40.59411],[-124.13303,40.5921],[-124.1344,40.58968],[-124.13327,40.58886],[-124.13057,40.5906],[-124.1258,40.59004],[-124.12459,40.58961],[-124.12323,40.58755],[-124.12129,40.587],[-124.12124,40.55575],[-124.12193,40.55574],[-124.12442,40.55996],[-124.12669,40.56142],[-124.12671,40.56297],[-124.1401,40.5626],[-124.1403,40.56387],[-124.1416,40.56488],[-124.14267,40.56301],[-124.14673,40.56299],[-124.14777,40.57557],[-124.14984,40.57452],[-124.15263,40.5774],[-124.15327,40.57752],[-124.15327,40.57648],[-124.15456,40.57648],[-124.1573,40.58295],[-124.16002,40.58684],[-124.15669,40.586],[-124.1568,40.58793],[-124.15842,40.58914],[-124.1619,40.58955],[-124.16209,40.59195],[-124.16552,40.59615],[-124.16551,40.5972],[-124.16761565404106,40.59799215923731],[-124.1637,40.5937],[-124.1621,40.5884],[-124.1624,40.5853],[-124.1573,40.5809],[-124.1539,40.5733],[-124.1543,40.5641],[-124.1595,40.5592],[-124.1615,40.5489],[-124.1556,40.5457],[-124.1473,40.5374],[-124.1511,40.5295],[-124.1306,40.5242],[-124.1098,40.5214],[-124.1004,40.5156],[-124.0776,40.5079],[-124.0541,40.507],[-124.0507,40.5046],[-124.0494,40.4995],[-124.022,40.4905],[-124.0152,40.4861],[-124.0103,40.4803],[-123.9931,40.4702],[-123.9748,40.4652],[-123.9678,40.4618],[-123.9586,40.4601],[-123.9488,40.4599],[-123.9393,40.4534],[-123.9327,40.4547],[-123.9285,40.4515],[-123.9109,40.4434],[-123.9084,40.4405],[-123.8944,40.4317],[-123.8896,40.4313],[-123.8867,40.4296],[-123.8881,40.4161],[-123.8921,40.4119],[-123.8932,40.4082],[-123.8907,40.4102],[-123.8861,40.4093],[-123.8822,40.411],[-123.8783,40.4071],[-123.8743,40.4085],[-123.8733,40.4059],[-123.8694,40.4068],[-123.8674,40.4057],[-123.8632,40.4064],[-123.8591,40.4054],[-123.8527,40.4081],[-123.8439,40.4031],[-123.836,40.4038],[-123.8354,40.4007],[-123.8307,40.4004],[-123.8324,40.3986],[-123.8317,40.3978],[-123.8202,40.3954],[-123.8169,40.3927],[-123.8135,40.395],[-123.8133,40.3922],[-123.8068,40.3898],[-123.7946,40.3967],[-123.7922,40.4013],[-123.7877,40.4029],[-123.784,40.4062],[-123.7804,40.4068],[-123.7795,40.4049],[-123.7738,40.4044],[-123.7708,40.4027],[-123.7672,40.4035],[-123.767,40.4021],[-123.7652,40.4017],[-123.7652,40.3999],[-123.7607,40.398],[-123.7616,40.3963],[-123.759,40.394],[-123.7591,40.392],[-123.7557,40.3898],[-123.7554,40.3841],[-123.7511,40.3832],[-123.7516,40.3813],[-123.7478,40.3788],[-123.7428,40.3712],[-123.7392,40.3682],[-123.7367,40.3683],[-123.7356,40.3658],[-123.7317,40.3674],[-123.7289,40.3671],[-123.7343,40.3691],[-123.7256,40.3771],[-123.7209,40.3775],[-123.7204,40.3758],[-123.7165,40.3763],[-123.7151,40.3798],[-123.7123,40.3815],[-123.7119,40.384],[-123.7079,40.3842],[-123.7091,40.3874],[-123.7073,40.3875],[-123.7069,40.3895],[-123.7044,40.3906],[-123.7044,40.3929],[-123.7021,40.3934],[-123.7034,40.3924],[-123.696,40.3918],[-123.6882,40.3888],[-123.6589,40.3902],[-123.6491,40.3805],[-123.6262,40.3688],[-123.6245,40.3699],[-123.6139,40.3612],[-123.6058,40.3462],[-123.6056,40.3416],[-123.6016,40.3416],[-123.6015,40.3382],[-123.5971,40.338],[-123.5972,40.3274],[-123.589,40.3273],[-123.5891,40.324],[-123.5938,40.3235],[-123.5947,40.3122],[-123.5903,40.3117],[-123.5912,40.3038],[-123.5817,40.3034],[-123.5855,40.2813],[-123.5853,40.2753],[-123.5743,40.2749],[-123.5752,40.268],[-123.5554,40.2681],[-123.5563,40.2391],[-123.5439,40.2388],[-123.5443,40.4987],[-123.5486,40.5015],[-123.5584,40.5004],[-123.5787,40.503],[-123.5858,40.5008],[-123.5979,40.5082],[-123.6007,40.5124],[-123.6105,40.5202],[-123.617,40.5229],[-123.6213,40.5228],[-123.6274,40.5267],[-123.6294,40.53],[-123.6329,40.5317],[-123.6327,40.5351],[-123.6341,40.5362],[-123.6261,40.5419],[-123.6202,40.5434],[-123.6219,40.548],[-123.6265,40.5528],[-123.6265,40.5548],[-123.6314,40.5613],[-123.6327,40.5652],[-123.6424,40.5658],[-123.6416,40.5685],[-123.6471,40.5736],[-123.648,40.5781],[-123.6539,40.5779],[-123.661,40.5802],[-123.6625,40.5818],[-123.6651,40.5854],[-123.6655,40.5953],[-123.6705,40.6025],[-123.6775,40.6036],[-123.6807,40.6064],[-123.6932,40.6068],[-123.7052,40.6028],[-123.7088,40.6],[-123.7104,40.5944],[-123.7164,40.5944],[-123.72,40.5959],[-123.7204,40.5931],[-123.7233,40.595],[-123.729,40.5964],[-123.731,40.5957],[-123.7319,40.5967],[-123.7334,40.5964],[-123.7338,40.5946],[-123.7373,40.5944],[-123.738,40.5915],[-123.741,40.5934],[-123.7407,40.5954],[-123.7455,40.5957],[-123.7478,40.598],[-123.758,40.6023],[-123.7587,40.6038],[-123.7564,40.6091],[-123.7592,40.6115],[-123.7588,40.6144],[-123.7598,40.6155],[-123.7752,40.6214],[-123.7902,40.6229],[-123.7951,40.6203],[-123.8062,40.6224],[-123.8104,40.6203],[-123.8127,40.6179],[-123.8132,40.6153],[-123.8152,40.6163],[-123.8188,40.6158],[-123.8206,40.6194],[-123.8221,40.618],[-123.8284,40.6182],[-123.8353,40.6217],[-123.8384,40.6213],[-123.8386,40.625],[-123.8401,40.6271],[-123.8444,40.6259],[-123.8551,40.6291],[-123.8564,40.6271],[-123.8679,40.6361],[-123.8709,40.6355],[-123.8735,40.6329],[-123.8749,40.636],[-123.8773,40.6328],[-123.8796,40.6356],[-123.8851,40.6359],[-123.8861,40.6386],[-123.8889,40.641],[-123.892,40.6413],[-123.8942,40.6384],[-123.898,40.6384],[-123.904,40.6403],[-123.9063,40.6436],[-123.9093,40.6429],[-123.9111,40.6442],[-123.9127,40.6422],[-123.9169,40.6426],[-123.9204,40.644],[-123.9234,40.6481],[-123.9242,40.6508],[-123.9232,40.6546],[-123.9292,40.6621],[-123.9279,40.666],[-123.9258,40.6659],[-123.9234,40.6685],[-123.9299,40.6705],[-123.9308,40.6728],[-123.9338,40.6747],[-123.9374,40.6745],[-123.9387,40.6766],[-123.9369,40.6863],[-123.9385,40.6904],[-123.942,40.6927],[-123.9423,40.6953],[-123.9365,40.6965],[-123.9367,40.6976],[-123.9436,40.6967],[-123.9476,40.6899],[-123.9463,40.6854],[-123.9473,40.6822],[-123.9543,40.6789],[-123.955,40.6752],[-123.9644,40.6651],[-123.9654,40.6625],[-123.9705,40.6633],[-123.9773,40.6619],[-123.9807,40.6595],[-123.9817,40.6561],[-123.9851,40.6539],[-123.9862,40.651],[-123.9895,40.6493],[-123.9886,40.647],[-123.9902,40.645],[-123.9893,40.6429],[-123.9916,40.6397],[-123.9941,40.6392],[-123.9947,40.6356],[-123.9924,40.6313],[-123.9936,40.6287],[-123.9918,40.6282],[-123.9931,40.6264],[-123.9933,40.6221],[-123.9909,40.6185],[-123.9983,40.6196],[-124.0041,40.6175],[-124.011,40.6209],[-124.0191,40.6175],[-124.0333,40.6199],[-124.0412,40.6162],[-124.0418,40.6122],[-124.0378,40.6095],[-124.0388,40.6088],[-124.0439,40.6105],[-124.0447,40.6131],[-124.0505,40.6115],[-124.0526,40.6151],[-124.05,40.62],[-124.0506,40.6212],[-124.0569,40.6214],[-124.0624,40.6244],[-124.0651,40.6227],[-124.0682,40.6239],[-124.0721,40.6233],[-124.077,40.6259],[-124.0801,40.6259],[-124.0947,40.6381],[-124.0999,40.6396],[-124.1043,40.6384],[-124.1153,40.6394],[-124.1215,40.6435],[-124.1318,40.6437],[-124.1415,40.638],[-124.1466,40.6388],[-124.1513,40.6378],[-124.1549,40.6424],[-124.157,40.6478],[-124.1562,40.6561],[-124.1574,40.6574],[-124.1636,40.6602],[-124.1684,40.658],[-124.1815,40.6609],[-124.1869,40.6609],[-124.1888,40.6589],[-124.1982,40.6606],[-124.1987,40.6627],[-124.2024,40.6659],[-124.2015,40.6668],[-124.2049,40.669],[-124.2033,40.6703],[-124.2047,40.673],[-124.2032,40.6728],[-124.2025,40.675],[-124.2103,40.6758],[-124.2126,40.6802],[-124.2148,40.6815],[-124.2172,40.6811],[-124.2219,40.6846],[-124.2189,40.6851],[-124.2206,40.6862],[-124.225,40.685],[-124.23,40.6898],[-124.2299,40.6984],[-124.2339,40.712],[-124.2336,40.7164],[-124.2277,40.7349],[-124.2249,40.7498],[-124.223,40.753],[-124.2297,40.757],[-124.2814,40.7991],[-124.2866,40.7959],[-124.2927,40.7881],[-124.297,40.781],[-124.2993,40.7685],[-124.3274,40.7277],[-124.3429,40.7088],[-124.3608,40.681],[-124.367,40.6723]]]},"properties":{"GEOID":"0602391050","NAME":"Fortuna","COUNTY":"023"}},{"type":"Feature","geometry":{"type":"MultiPolygon","coordinates":[[[[-124.2814,40.7991],[-124.2297,40.757],[-124.223,40.753],[-124.20834741019699,40.77094194669757],[-124.20835,40.77103],[-124.20495242990654,40.77286841121495],[-124.204,40.7734],[-124.19361657894737,40.78498150809717],[-124.19358348623854,40.7850345412844],[-124.1909512912197,40.79054021586545],[-124.19072,40.79179],[-124.18656,40.80155],[-124.182706304,40.8077859808],[-124.1816,40.8101],[-124.18009887775551,40.812005270541086],[-124.17886,40.81401],[-124.17725428571428,40.81561571428571],[-124.1764,40.8167],[-124.1753075,40.8175625],[-124.17465,40.81822],[-124.17312093023256,40.81928873929009],[-124.1707,40.8212],[-124.17052318674256,40.82110442526625],[-124.1699,40.82154],[-124.16168,40.8307],[-124.11325,40.8313],[-124.11276506582317,40.830979133488995],[-124.0975,40.838],[-124.0787,40.8292],[-124.0795,40.8184],[-124.0877,40.8079],[-124.0881,40.7956],[-124.0852,40.7888],[-124.0853,40.7855],[-124.0832,40.7851],[-124.083,40.7872],[-124.0813,40.7879],[-124.0743,40.7857],[-124.071,40.788],[-124.0682,40.7857],[-124.0659,40.787],[-124.0614,40.7871],[-124.0577,40.7852],[-124.0557,40.7882],[-124.056,40.7954],[-124.0464,40.7977],[-124.042,40.8004],[-124.0386,40.8003],[-124.0181,40.7898],[-124.0087,40.7815],[-124.0071,40.7779],[-124.0026,40.7767],[-123.9968,40.7625],[-123.9915,40.7576],[-123.9874,40.7559],[-123.9825,40.7503],[-123.9796,40.7507],[-123.9744,40.7483],[-123.9693,40.7482],[-123.9658,40.7466],[-123.9587,40.74],[-123.9545,40.7387],[-123.9522,40.74],[-123.9455,40.7369],[-123.948,40.7301],[-123.945,40.7269],[-123.9423,40.7201],[-123.9442,40.7202],[-123.9375,40.716],[-123.9369,40.7137],[-123.9381,40.712],[-123.9364,40.7116],[-123.9406,40.711],[-123.9391,40.7094],[-123.9362,40.709],[-123.9378,40.7081],[-123.9359,40.705],[-123.9408,40.7014],[-123.9409,40.6982],[-123.9363,40.6969],[-123.9423,40.6953],[-123.942,40.6927],[-123.9385,40.6904],[-123.9369,40.6863],[-123.9387,40.6766],[-123.9374,40.6745],[-123.9338,40.6747],[-123.9308,40.6728],[-123.9299,40.6705],[-123.9234,40.6685],[-123.9258,40.6659],[-123.9279,40.666],[-123.9292,40.6621],[-123.9232,40.6547],[-123.9242,40.6495],[-123.9204,40.644],[-123.9136,40.6421],[-123.9112,40.6442],[-123.9093,40.6429],[-123.9063,40.6436],[-123.904,40.6403],[-123.8982,40.6384],[-123.8942,40.6384],[-123.8919,40.6414],[-123.8889,40.641],[-123.8861,40.6386],[-123.8851,40.6359],[-123.8796,40.6356],[-123.8773,40.6328],[-123.8749,40.636],[-123.8735,40.6329],[-123.8709,40.6355],[-123.8679,40.6361],[-123.8564,40.6271],[-123.8551,40.6291],[-123.8444,40.6259],[-123.8401,40.6271],[-123.8386,40.625],[-123.8384,40.6213],[-123.8353,40.6217],[-123.8284,40.6182],[-123.8221,40.618],[-123.8206,40.6194],[-123.8188,40.6158],[-123.8152,40.6163],[-123.8132,40.6153],[-123.8127,40.6179],[-123.8104,40.6203],[-123.8062,40.6224],[-123.7951,40.6203],[-123.7902,40.6229],[-123.7752,40.6214],[-123.7598,40.6155],[-123.7588,40.6144],[-123.7592,40.6115],[-123.7564,40.6091],[-123.7587,40.6038],[-123.758,40.6023],[-123.7478,40.598],[-123.7455,40.5957],[-123.7407,40.5954],[-123.741,40.5934],[-123.738,40.5915],[-123.7373,40.5944],[-123.7338,40.5946],[-123.7334,40.5964],[-123.7319,40.5967],[-123.731,40.5957],[-123.729,40.5964],[-123.7233,40.595],[-123.7204,40.5931],[-123.72,40.5959],[-123.7164,40.5944],[-123.7104,40.5944],[-123.7088,40.6],[-123.7052,40.6028],[-123.6932,40.6068],[-123.6807,40.6064],[-123.6775,40.6036],[-123.6705,40.6025],[-123.6655,40.5953],[-123.6651,40.5854],[-123.6625,40.5818],[-123.661,40.5802],[-123.6539,40.5779],[-123.648,40.5781],[-123.6471,40.5736],[-123.6416,40.5685],[-123.6424,40.5658],[-123.6327,40.5652],[-123.6314,40.5613],[-123.6265,40.5548],[-123.6265,40.5528],[-123.6219,40.548],[-123.6202,40.5434],[-123.6261,40.5419],[-123.6341,40.5362],[-123.6327,40.5351],[-123.6329,40.5317],[-123.6294,40.53],[-123.6274,40.5267],[-123.6213,40.5228],[-123.617,40.5229],[-123.6105,40.5202],[-123.6007,40.5124],[-123.5979,40.5082],[-123.5858,40.5008],[-123.5787,40.503],[-123.5584,40.5004],[-123.5486,40.5015],[-123.5443,40.4987],[-123.5444,40.7194],[-123.546,40.7202],[-123.5576,40.7223],[-123.5724,40.72],[-123.5922,40.7111],[-123.5948,40.7111],[-123.6154,40.7188],[-123.6339,40.721],[-123.675,40.7302],[-123.6974,40.745],[-123.7133,40.7498],[-123.7439,40.7487],[-123.769,40.7522],[-123.786,40.7577],[-123.8031,40.7561],[-123.8062,40.757],[-123.8118,40.7617],[-123.8437,40.769],[-123.8516,40.7688],[-123.8616,40.7715],[-123.8708,40.7682],[-123.8904,40.7679],[-123.891,40.7697],[-123.8949,40.7714],[-123.9039,40.7683],[-123.905,40.7722],[-123.9005,40.7732],[-123.9001,40.7745],[-123.9109,40.781],[-123.9072,40.7835],[-123.9029,40.7818],[-123.8989,40.7819],[-123.8992,40.7844],[-123.8968,40.7853],[-123.8962,40.7891],[-123.8973,40.7941],[-123.8956,40.7953],[-123.898,40.7976],[-123.9024,40.7976],[-123.9071,40.8049],[-123.9153,40.8072],[-123.9176,40.8113],[-123.9238,40.814],[-123.9252,40.8163],[-123.9274,40.8158],[-123.9288,40.8126],[-123.934,40.8134],[-123.9378,40.8121],[-123.9404,40.8093],[-123.9442,40.8088],[-123.9526,40.8118],[-123.958,40.8172],[-123.9639,40.8181],[-123.9635,40.8199],[-123.9579,40.8188],[-123.9561,40.8196],[-123.9555,40.8229],[-123.9441,40.8277],[-123.9395,40.8334],[-123.94,40.8349],[-123.9449,40.8361],[-123.9457,40.834],[-123.9518,40.8331],[-123.9565,40.8353],[-123.9593,40.8342],[-123.964,40.8346],[-123.9664,40.8319],[-123.9733,40.8291],[-123.9781,40.8363],[-123.9788,40.842],[-123.9809,40.8458],[-123.987,40.8453],[-123.9903,40.8488],[-123.9902,40.8536],[-123.9867,40.8576],[-123.988,40.8609],[-123.991,40.8635],[-123.9916,40.8726],[-123.9898,40.8747],[-123.99278034002616,40.87549165281945],[-123.99281,40.87539],[-123.99548,40.87539],[-123.9968942593942,40.87628891849693],[-124.0012,40.8756],[-124.0012,40.8741],[-124.0067,40.8769],[-124.0072,40.8791],[-124.0094,40.8798],[-124.0097,40.8811],[-124.0135,40.882],[-124.0189,40.8865],[-124.0183,40.8887],[-124.0257,40.8995],[-124.0371,40.9043],[-124.0446,40.9046],[-124.0494,40.9089],[-124.0579,40.9071],[-124.0667,40.9137],[-124.072,40.91126486486486],[-124.072,40.91062],[-124.07433,40.90897],[-124.0724,40.90895],[-124.06807,40.91065],[-124.06431,40.91013],[-124.06836,40.91009],[-124.0699,40.9087],[-124.06772,40.90796],[-124.06631,40.90475],[-124.06559,40.90474],[-124.06713,40.90124],[-124.06712,40.89748],[-124.07233,40.89707],[-124.07219,40.88999],[-124.07129,40.88883],[-124.06536,40.88296],[-124.0575,40.88284],[-124.05761,40.87934],[-124.0432,40.87927],[-124.04336,40.86835],[-124.05142,40.86833],[-124.05141,40.86671],[-124.05044,40.86656],[-124.05184,40.86461],[-124.04791,40.86405],[-124.04786,40.86218],[-124.04621,40.86221],[-124.0462,40.86003],[-124.04333,40.86005],[-124.04329,40.85358],[-124.053,40.85366],[-124.05288,40.85475],[-124.05608,40.85496],[-124.05496,40.85709],[-124.05594,40.85697],[-124.0564,40.85775],[-124.05703,40.85775],[-124.05708,40.8567],[-124.06238,40.85731],[-124.06262,40.85486],[-124.06569,40.85515],[-124.06574,40.85325],[-124.06295,40.85245],[-124.06336,40.84969],[-124.06284,40.84969],[-124.06258,40.84701],[-124.06081,40.8463],[-124.06422,40.84495],[-124.0625,40.84304],[-124.06401,40.84266],[-124.06585,40.84073],[-124.06895,40.84234],[-124.07298,40.8423],[-124.07298,40.84017],[-124.07009,40.83846],[-124.07089,40.8378],[-124.0705,40.83741],[-124.072,40.83708],[-124.0715,40.8367],[-124.07286,40.83515],[-124.07301,40.8328],[-124.07445,40.83118],[-124.08203,40.83148],[-124.08161,40.83457],[-124.08008,40.83501],[-124.08179,40.83501],[-124.08168,40.84534],[-124.10332,40.84119],[-124.10854,40.83852],[-124.12124,40.83829],[-124.12173,40.85439],[-124.1186,40.85284],[-124.11584,40.85265],[-124.1102,40.85662],[-124.10935,40.85827],[-124.10695,40.85871],[-124.10427,40.86037],[-124.09995,40.86115],[-124.09919,40.86022],[-124.09638,40.85985],[-124.09636,40.86397],[-124.09866,40.86479],[-124.09624,40.87202],[-124.09907,40.87222],[-124.10015,40.87019],[-124.09965,40.86926],[-124.1008,40.86847],[-124.10115,40.87029],[-124.10591,40.87029],[-124.10591,40.8721],[-124.11078,40.8721],[-124.11075,40.87703],[-124.10712,40.877],[-124.10713,40.87576],[-124.10113,40.87574],[-124.10042,40.88106],[-124.09838,40.8805],[-124.09937,40.87775],[-124.09454,40.87657],[-124.09417,40.87926],[-124.09632,40.87991],[-124.09489,40.88372],[-124.09627,40.88405],[-124.09494,40.88896],[-124.09814,40.88975],[-124.09772,40.89081],[-124.09445,40.89001],[-124.09334,40.89266],[-124.09435,40.89322],[-124.09348,40.89557],[-124.09419,40.89613],[-124.0932,40.89625],[-124.09145,40.90058],[-124.09148,40.90375],[-124.08959,40.90409],[-124.08913,40.90496],[-124.08111,40.905],[-124.08108225075618,40.90832065951011],[-124.0825,40.9082],[-124.0853,40.9105],[-124.0833,40.9161],[-124.0854,40.9171],[-124.0903,40.9176],[-124.1013,40.9149],[-124.1102,40.9172],[-124.1127,40.9248],[-124.1262,40.9235],[-124.1284,40.9243],[-124.1289,40.9337],[-124.1303,40.9353],[-124.1266,40.9502],[-124.1278,40.956],[-124.1959,40.9567],[-124.215,40.9064],[-124.2326,40.8693],[-124.2463,40.847],[-124.2802,40.7999],[-124.2814,40.7991]],[[-124.00615,40.78861],[-124.00612,40.79002],[-124.006,40.79526],[-123.99231,40.79551],[-123.99233,40.79182],[-123.98757,40.79189],[-123.98766,40.78073],[-124.00193,40.78079],[-124.00191,40.78596],[-124.00615,40.78861]]],[[[-124.07018,40.86479],[-124.05773,40.86463],[-124.05785,40.86843],[-124.05659,40.86846],[-124.057,40.86794],[-124.05604,40.86703],[-124.05655,40.86627],[-124.0556,40.8648],[-124.05287,40.86509],[-124.05196,40.86568],[-124.05255,40.86683],[-124.05212,40.86833],[-124.05283,40.86833],[-124.05285,40.87227],[-124.06247,40.87221],[-124.06254,40.8665],[-124.06734,40.86645],[-124.06842,40.86722],[-124.06904,40.86613],[-124.06982,40.8664],[-124.06939,40.86589],[-124.07018,40.86479]]]]},"properties":{"GEOID":"0602390100","NAME":"Arcata","COUNTY":"023"}},{"type":"Feature","geometry":{"type":"Polygon","coordinates":[[[-124.2525,41.1341],[-124.2492,41.1202],[-124.2506,41.1103],[-124.2496,41.099],[-124.2474,41.0922],[-124.2396,41.0829],[-124.2372,41.0738],[-124.2312,41.0655],[-124.2299,41.0546],[-124.2271,41.0466],[-124.2223,41.039],[-124.2151,41.0314],[-124.2123,41.0238],[-124.205,41.0136],[-124.1964,41.0075],[-124.1827,41.0013],[-124.1898,40.974],[-124.1959,40.9567],[-124.1278,40.956],[-124.1266,40.9502],[-124.1303,40.9353],[-124.1289,40.9337],[-124.1284,40.9243],[-124.1262,40.9235],[-124.1127,40.9248],[-124.1102,40.9172],[-124.1013,40.9149],[-124.0903,40.9176],[-124.0854,40.9171],[-124.0833,40.9161],[-124.0853,40.9105],[-124.0825,40.9082],[-124.08108225075618,40.90832065951011],[-124.08108,40.90859],[-124.07819847826087,40.90856608695652],[-124.0778,40.9086],[-124.07316493001555,40.910729626749614],[-124.072,40.91155],[-124.072,40.91126486486486],[-124.0667,40.9137],[-124.0579,40.9071],[-124.0494,40.9089],[-124.0449,40.9047],[-124.0371,40.9043],[-124.0254,40.8993],[-124.0183,40.8887],[-124.0189,40.8865],[-124.0135,40.882],[-124.0097,40.8811],[-124.0094,40.8798],[-124.0072,40.8791],[-124.0067,40.8769],[-124.0012,40.8741],[-124.0012,40.8756],[-123.9968942593942,40.87628891849693],[-124.00031,40.87846],[-124.00521,40.8787],[-124.00529,40.88784],[-124.0013,40.88768],[-124.00023,40.88652],[-124.00023,40.8829],[-123.99794,40.8829],[-123.99747,40.88033],[-123.99504,40.88221],[-123.9973,40.8845],[-123.99534,40.88605],[-123.99517,40.88708],[-123.99361,40.88619],[-123.98792,40.88548],[-123.98402,40.88304],[-123.98021,40.88257],[-123.97857,40.88098],[-123.97844,40.87935],[-123.98094,40.88039],[-123.98092,40.87969],[-123.98276,40.88022],[-123.98474,40.87926],[-123.98575,40.87965],[-123.98579,40.8775],[-123.99059,40.87749],[-123.99061,40.87918],[-123.99171,40.87916],[-123.99278034002616,40.87549165281945],[-123.9898,40.8747],[-123.9916,40.8726],[-123.991,40.8635],[-123.988,40.8609],[-123.9867,40.8576],[-123.9902,40.8536],[-123.9903,40.8488],[-123.987,40.8453],[-123.9809,40.8458],[-123.9788,40.842],[-123.9781,40.8363],[-123.9733,40.8291],[-123.9664,40.8319],[-123.964,40.8346],[-123.9593,40.8342],[-123.9565,40.8353],[-123.9518,40.8331],[-123.9457,40.834],[-123.9449,40.8361],[-123.94,40.8349],[-123.9395,40.8334],[-123.9441,40.8277],[-123.9555,40.8229],[-123.9561,40.8196],[-123.9579,40.8188],[-123.9635,40.8199],[-123.9637,40.8179],[-123.958,40.8172],[-123.9526,40.8118],[-123.9442,40.8088],[-123.9404,40.8093],[-123.9378,40.8121],[-123.934,40.8134],[-123.9288,40.8126],[-123.9274,40.8158],[-123.9252,40.8163],[-123.9238,40.814],[-123.9176,40.8113],[-123.9153,40.8072],[-123.9071,40.8049],[-123.9024,40.7976],[-123.8984,40.7978],[-123.8956,40.7954],[-123.8973,40.7941],[-123.8962,40.7891],[-123.8968,40.7853],[-123.8992,40.7844],[-123.8989,40.7819],[-123.9029,40.7818],[-123.9072,40.7835],[-123.9109,40.781],[-123.9001,40.7745],[-123.9005,40.7732],[-123.905,40.7722],[-123.9039,40.7683],[-123.8949,40.7714],[-123.891,40.7697],[-123.8904,40.7679],[-123.8708,40.7682],[-123.8616,40.7715],[-123.8516,40.7688],[-123.8437,40.769],[-123.8118,40.7617],[-123.8062,40.757],[-123.8031,40.7561],[-123.786,40.7577],[-123.769,40.7522],[-123.7439,40.7487],[-123.7213,40.7501],[-123.7243,40.756],[-123.7235,40.7595],[-123.722,40.7604],[-123.7244,40.7659],[-123.7338,40.7758],[-123.7353,40.7794],[-123.739,40.781],[-123.7383,40.7818],[-123.7402,40.7832],[-123.74,40.7863],[-123.7423,40.7902],[-123.7406,40.7911],[-123.7444,40.7921],[-123.7424,40.7939],[-123.7438,40.7982],[-123.7453,40.8004],[-123.7474,40.7997],[-123.7492,40.8013],[-123.7474,40.8053],[-123.7512,40.8073],[-123.7504,40.8093],[-123.7558,40.8139],[-123.7568,40.8172],[-123.76,40.8171],[-123.7607,40.8187],[-123.7652,40.8191],[-123.7647,40.8217],[-123.7661,40.8236],[-123.7675,40.8235],[-123.767,40.827],[-123.7684,40.8288],[-123.7668,40.8298],[-123.769,40.8302],[-123.7701,40.8323],[-123.7687,40.8335],[-123.7698,40.8342],[-123.7726,40.8332],[-123.7701,40.838],[-123.7733,40.8393],[-123.7754,40.8429],[-123.7778,40.8444],[-123.7774,40.8474],[-123.7806,40.8478],[-123.779,40.8529],[-123.7826,40.8528],[-123.7888,40.8595],[-123.7875,40.8614],[-123.7841,40.8628],[-123.7919,40.8674],[-123.7939,40.8674],[-123.7946,40.8693],[-123.7967,40.8694],[-123.7972,40.8711],[-123.7944,40.8726],[-123.7973,40.8727],[-123.7994,40.8762],[-123.7965,40.8777],[-123.8057,40.8826],[-123.8035,40.8858],[-123.8057,40.8867],[-123.8076,40.8901],[-123.8095,40.8908],[-123.8098,40.8932],[-123.8117,40.8941],[-123.8095,40.9026],[-123.8067,40.9022],[-123.8052,40.9037],[-123.8097,40.9095],[-123.8087,40.9122],[-123.8043,40.9149],[-123.7997,40.9156],[-123.7945,40.9202],[-123.7952,40.9221],[-123.7971,40.9229],[-123.8045,40.9238],[-123.8094,40.9224],[-123.8109,40.9238],[-123.8101,40.9253],[-123.7948,40.9264],[-123.7915,40.9255],[-123.7876,40.9203],[-123.7889,40.9135],[-123.7857,40.9098],[-123.785,40.9126],[-123.7787,40.9181],[-123.7724,40.9318],[-123.7684,40.9313],[-123.7647,40.9326],[-123.7633,40.9345],[-123.7564,40.9349],[-123.7542,40.9383],[-123.7524,40.9448],[-123.7562,40.9477],[-123.7571,40.9518],[-123.755,40.958],[-123.7559,40.9625],[-123.7543,40.9654],[-123.7599,40.9744],[-123.7604,40.9868],[-123.7643,40.99],[-123.7669,40.9883],[-123.7769,40.9889],[-123.7789,40.9915],[-123.7782,40.9929],[-123.785,40.9989],[-123.7837,41.0022],[-123.785,41.0057],[-123.7818,41.0078],[-123.784,41.0104],[-123.7836,41.013],[-123.7853,41.0138],[-123.7851,41.0212],[-123.7866,41.0228],[-123.7857,41.0248],[-123.7879,41.028],[-123.7888,41.0276],[-123.7881,41.0288],[-123.79022026022305,41.03342602230483],[-123.7888,41.0329],[-123.7913,41.0353],[-123.7935,41.0457],[-123.7967,41.0495],[-123.7973,41.0571],[-123.8041,41.0643],[-123.8052,41.0711],[-123.8089,41.0718],[-123.8111,41.0765],[-123.8286,41.0768],[-123.8288,41.0752],[-123.8311,41.075],[-123.8369,41.0769],[-123.8405,41.0848],[-123.8386,41.0935],[-123.8413,41.1033],[-123.8561,41.113],[-123.8516,41.1205],[-123.8526,41.1259],[-123.8554,41.1303],[-123.8583,41.1322],[-123.8594,41.1354],[-123.8579,41.1385],[-123.8584,41.1399],[-123.8758,41.1483],[-123.8878,41.1463],[-123.8931,41.148],[-123.8896,41.1549],[-123.8901,41.1566],[-123.8951,41.1605],[-123.9164,41.1671],[-123.9198,41.1716],[-123.9205,41.1755],[-123.9264,41.1853],[-123.9408,41.1948],[-123.9451,41.2025],[-123.9561,41.2097],[-123.9564,41.2183],[-123.9598,41.2232],[-123.9682,41.2282],[-123.9751,41.2296],[-123.9796,41.234],[-123.9825,41.2395],[-123.9825,41.2478],[-123.987,41.2532],[-123.9854,41.2566],[-123.9888,41.258],[-123.9874,41.2618],[-123.9881,41.2667],[-123.9866,41.2695],[-123.9844,41.2702],[-123.9849,41.2724],[-123.9838,41.2739],[-123.9759,41.2758],[-123.9666,41.2861],[-123.9639,41.2919],[-123.965,41.2978],[-123.9604,41.3023],[-123.9613,41.3078],[-123.954,41.3122],[-123.9486,41.3172],[-123.9484,41.3289],[-123.954,41.3286],[-123.9596,41.335],[-123.9641,41.335],[-123.9651,41.3432],[-123.9677,41.3457],[-123.9657,41.3487],[-123.9674,41.3509],[-123.967,41.3529],[-123.9793,41.3575],[-123.9797,41.364],[-123.9829,41.371],[-123.9891,41.3758],[-123.9902,41.3779],[-123.9893,41.3784],[-123.9934,41.3797],[-123.9971,41.3845],[-123.9979,41.3838],[-123.9975,41.4038],[-124.0012,41.4039],[-124.0012,41.4055],[-124.0046,41.4053],[-124.0048,41.4121],[-124.0145,41.412],[-124.0143,41.4231],[-124.019,41.4234],[-124.019,41.4269],[-124.0239,41.4271],[-124.0239,41.4456],[-124.0329,41.446],[-124.0325,41.4573],[-124.0455,41.4574],[-124.0473,41.4589],[-124.0467,41.4614],[-124.0419,41.4648],[-124.1366,41.4645],[-124.1369,41.4468],[-124.1332,41.4323],[-124.14,41.3818],[-124.1484,41.386],[-124.1614,41.389],[-124.1766,41.3904],[-124.1886,41.3893],[-124.212,41.3824],[-124.2244,41.3748],[-124.2352,41.3638],[-124.2404,41.3528],[-124.2426,41.3364],[-124.2388,41.3227],[-124.2303,41.3112],[-124.22,41.303],[-124.2024,41.2947],[-124.1866,41.2913],[-124.1717,41.2916],[-124.1634,41.2932],[-124.1607,41.2893],[-124.1733,41.261],[-124.1752,41.2532],[-124.1751,41.2426],[-124.1764,41.2371],[-124.1878,41.2096],[-124.1955,41.1846],[-124.2067,41.1824],[-124.2194,41.1777],[-124.2315,41.1709],[-124.2376,41.166],[-124.2425,41.1608],[-124.2472,41.1528],[-124.2525,41.1341]],[[-124.15332,41.05379],[-124.15216,41.05705],[-124.15104,41.05732],[-124.14931,41.05987],[-124.14909,41.06294],[-124.13997,41.06324],[-124.14149,41.06531],[-124.13584,41.06773],[-124.136,41.06329],[-124.13694,41.06255],[-124.13596,41.06224],[-124.13641,41.0619],[-124.13476,41.06007],[-124.13796,41.06197],[-124.138,41.06083],[-124.13701,41.06048],[-124.13801,41.06049],[-124.13804,41.05895],[-124.13687,41.05889],[-124.13749,41.0577],[-124.13323,41.05763],[-124.13328,41.05367],[-124.13776,41.05624],[-124.13785,41.05241],[-124.14452,41.05252],[-124.14966,41.05094],[-124.15126,41.05126],[-124.15332,41.05379]],[[-124.12237,41.05755],[-124.12161,41.05791],[-124.12187,41.05742],[-124.12237,41.05755]],[[-124.11493,41.04768],[-124.11352,41.04777],[-124.11411,41.0473],[-124.11493,41.04768]],[[-123.97702,40.87549],[-123.97618,40.87546],[-123.97664,40.87535],[-123.97702,40.87549]]]},"properties":{"GEOID":"0602392170","NAME":"North Coastal","COUNTY":"023"}},{"type":"Feature","geometry":{"type":"Polygon","coordinates":[[[-124.2339,40.712],[-124.2299,40.6984],[-124.23,40.6898],[-124.225,40.685],[-124.2206,40.6862],[-124.2189,40.6851],[-124.2219,40.6846],[-124.2172,40.6811],[-124.2148,40.6815],[-124.2126,40.6802],[-124.2103,40.6758],[-124.2025,40.675],[-124.2032,40.6728],[-124.2047,40.673],[-124.2033,40.6703],[-124.2049,40.669],[-124.2015,40.6668],[-124.2024,40.6659],[-124.1987,40.6627],[-124.1982,40.6606],[-124.1888,40.6589],[-124.1869,40.6609],[-124.1815,40.6609],[-124.1684,40.658],[-124.1639,40.6601],[-124.1613,40.6599],[-124.1563,40.6563],[-124.157,40.6478],[-124.1549,40.6424],[-124.1513,40.6378],[-124.1466,40.6388],[-124.1415,40.638],[-124.1318,40.6437],[-124.1215,40.6435],[-124.1153,40.6394],[-124.1043,40.6384],[-124.0999,40.6396],[-124.0947,40.6381],[-124.0801,40.6259],[-124.077,40.6259],[-124.0721,40.6233],[-124.0682,40.6239],[-124.0651,40.6227],[-124.0624,40.6244],[-124.0569,40.6214],[-124.0506,40.6212],[-124.05,40.62],[-124.0526,40.6151],[-124.0505,40.6115],[-124.0447,40.6131],[-124.0439,40.6105],[-124.0388,40.6088],[-124.0378,40.6095],[-124.0418,40.6122],[-124.0412,40.6162],[-124.0333,40.6199],[-124.0191,40.6175],[-124.011,40.6209],[-124.0041,40.6175],[-123.9983,40.6196],[-123.9909,40.6185],[-123.9933,40.6221],[-123.9931,40.6264],[-123.9918,40.6282],[-123.9936,40.6287],[-123.9924,40.6313],[-123.9947,40.6356],[-123.9941,40.6392],[-123.9916,40.6397],[-123.9893,40.6429],[-123.9902,40.645],[-123.9886,40.647],[-123.9895,40.6493],[-123.9862,40.651],[-123.9851,40.6539],[-123.9817,40.6561],[-123.9807,40.6595],[-123.9773,40.6619],[-123.9705,40.6633],[-123.9654,40.6625],[-123.9644,40.6651],[-123.955,40.6752],[-123.9543,40.6789],[-123.9473,40.6822],[-123.9463,40.6854],[-123.9476,40.6899],[-123.9464,40.6908],[-123.9464,40.6927],[-123.9443,40.6942],[-123.943,40.6972],[-123.9377,40.6972],[-123.9409,40.6982],[-123.9408,40.7014],[-123.9359,40.705],[-123.9378,40.7081],[-123.9362,40.709],[-123.9391,40.7094],[-123.9406,40.711],[-123.9365,40.7114],[-123.9381,40.712],[-123.9369,40.7137],[-123.9375,40.716],[-123.9442,40.7202],[-123.9423,40.7201],[-123.945,40.7269],[-123.948,40.7301],[-123.9455,40.7369],[-123.9522,40.74],[-123.9545,40.7387],[-123.9587,40.74],[-123.9658,40.7466],[-123.9693,40.7482],[-123.9744,40.7483],[-123.9796,40.7507],[-123.9825,40.7503],[-123.9874,40.7559],[-123.9915,40.7576],[-123.9968,40.7625],[-124.0024,40.7765],[-124.0071,40.7779],[-124.0108,40.7835],[-124.0175,40.7894],[-124.0262,40.7948],[-124.0311,40.7956],[-124.0407,40.8007],[-124.0464,40.7977],[-124.0561,40.7953],[-124.0557,40.7882],[-124.0577,40.7852],[-124.0614,40.7871],[-124.0659,40.787],[-124.0682,40.7857],[-124.071,40.788],[-124.0743,40.7857],[-124.0813,40.7879],[-124.083,40.7872],[-124.0832,40.7851],[-124.0853,40.7855],[-124.0852,40.7888],[-124.0881,40.7956],[-124.0877,40.8079],[-124.0795,40.8184],[-124.0787,40.8292],[-124.0975,40.838],[-124.11276506582317,40.830979133488995],[-124.10391,40.82512],[-124.1047,40.82381],[-124.08829,40.82415],[-124.10322,40.8158],[-124.10683,40.8151],[-124.10537,40.81404],[-124.09252,40.82059],[-124.09182,40.81867],[-124.0905,40.81958],[-124.08954,40.81879],[-124.0911,40.81786],[-124.08966,40.81622],[-124.09103,40.81651],[-124.09123,40.81342],[-124.09245,40.81213],[-124.09246,40.81339],[-124.09724,40.81339],[-124.09729,40.80976],[-124.10215,40.80976],[-124.10211,40.80117],[-124.10474,40.80158],[-124.10675,40.80358],[-124.10805,40.8017],[-124.10947,40.80172],[-124.11074,40.80036],[-124.11538,40.80228],[-124.13951,40.8023],[-124.13969,40.77324],[-124.154,40.77313],[-124.15401,40.76595],[-124.15668,40.76592],[-124.15678,40.75887],[-124.15426,40.75883],[-124.15426,40.75693],[-124.15198,40.75691],[-124.152,40.75518],[-124.14962,40.75516],[-124.14967,40.75156],[-124.17331,40.75172],[-124.17324,40.75892],[-124.17206,40.75891],[-124.17201,40.76123],[-124.16948,40.7612],[-124.16944,40.76599],[-124.16712,40.766],[-124.16713,40.76419],[-124.16482,40.76419],[-124.16481,40.76507],[-124.16366,40.76509],[-124.16301,40.76419],[-124.16167,40.76419],[-124.16155,40.76944],[-124.16259,40.76951],[-124.1625,40.77115],[-124.16134,40.77114],[-124.16137,40.7719],[-124.16726,40.77178],[-124.16703,40.77325],[-124.18587,40.77332],[-124.18632,40.77213],[-124.18487,40.77215],[-124.18658,40.76917],[-124.18529,40.76915],[-124.18555,40.76844],[-124.18791,40.76844],[-124.18861,40.76644],[-124.18534,40.76565],[-124.18525,40.76421],[-124.18112,40.76421],[-124.1812,40.7609],[-124.18269,40.76091],[-124.18269,40.75975],[-124.18407,40.75975],[-124.18406,40.75911],[-124.19075,40.75926],[-124.19122,40.75812],[-124.19049,40.75626],[-124.19305,40.75142],[-124.19649,40.74831],[-124.19933,40.74757],[-124.20072,40.74491],[-124.20226,40.74669],[-124.19479,40.75578],[-124.19618,40.75671],[-124.19629,40.75895],[-124.20799,40.75879],[-124.20834733948088,40.77093954234973],[-124.2249,40.7498],[-124.2277,40.7349],[-124.2336,40.7164],[-124.2339,40.712]]]},"properties":{"GEOID":"0602390930","NAME":"Eureka","COUNTY":"023"}},{"type":"Feature","geometry":{"type":"Polygon","coordinates":[[[-124.2788,40.505],[-124.2749,40.5022],[-124.2663,40.4999],[-124.2563,40.4951],[-124.2476,40.4967],[-124.2409,40.4939],[-124.2299,40.4843],[-124.2302,40.4823],[-124.2286,40.4809],[-124.2198,40.4787],[-124.2154,40.4698],[-124.2123,40.4675],[-124.2103,40.4636],[-124.1984,40.4564],[-124.1927,40.4555],[-124.1834,40.4514],[-124.1642,40.448],[-124.1463,40.4481],[-124.1415,40.4513],[-124.14,40.4477],[-124.1406,40.4462],[-124.1365,40.4433],[-124.1334,40.4374],[-124.1361,40.4306],[-124.1322,40.4325],[-124.1334,40.431],[-124.1307,40.4256],[-124.1233,40.4193],[-124.117,40.4177],[-124.117,40.4194],[-124.1069,40.4227],[-124.0965,40.4216],[-124.0907,40.4194],[-124.0887,40.4174],[-124.0845,40.4189],[-124.0802,40.4166],[-124.0761,40.4172],[-124.0703,40.4094],[-124.0676,40.4085],[-124.0665,40.4059],[-124.0552,40.4044],[-124.0499,40.4012],[-124.0517,40.3993],[-124.054,40.399],[-124.0539,40.395],[-124.0577,40.391],[-124.0594,40.3908],[-124.0586,40.3895],[-124.0613,40.3885],[-124.0583,40.3869],[-124.0606,40.385],[-124.0598,40.3836],[-124.0612,40.3812],[-124.0533,40.3851],[-124.0551,40.3829],[-124.0584,40.3819],[-124.0616,40.376],[-124.0637,40.3753],[-124.0674,40.3774],[-124.0707,40.3828],[-124.0733,40.3845],[-124.0758,40.3842],[-124.0734,40.3809],[-124.0736,40.3834],[-124.0716,40.3823],[-124.0699,40.3782],[-124.0719,40.3757],[-124.069,40.3765],[-124.0654,40.3747],[-124.0649,40.3726],[-124.0626,40.3728],[-124.0589,40.3658],[-124.0566,40.3647],[-124.0558,40.361],[-124.0502,40.3533],[-124.0494,40.3503],[-124.0346,40.3406],[-124.0269,40.3336],[-124.0313,40.3311],[-124.0365,40.3326],[-124.0343,40.3301],[-124.0405,40.329],[-124.043,40.3254],[-124.0437,40.3283],[-124.0456,40.325],[-124.0458,40.3273],[-124.0466,40.3258],[-124.0471,40.3267],[-124.0532,40.3257],[-124.0506,40.3247],[-124.0594,40.3215],[-124.0619,40.3193],[-124.0594,40.3166],[-124.0614,40.3142],[-124.0625,40.3044],[-124.0594,40.3018],[-124.0553,40.3026],[-124.0576,40.2948],[-124.0563,40.2917],[-124.0568,40.2883],[-124.0544,40.286],[-124.0551,40.2853],[-124.064,40.2842],[-124.0675,40.2795],[-124.0698,40.2792],[-124.0707,40.276],[-124.0748,40.2781],[-124.0771,40.2775],[-124.079,40.2725],[-124.0771,40.2676],[-124.0794,40.2674],[-124.0819,40.269],[-124.0858,40.268],[-124.0979,40.2613],[-124.1021,40.2613],[-124.1097,40.2636],[-124.1127,40.263],[-124.1156,40.2612],[-124.1153,40.259],[-124.1179,40.2562],[-124.1179,40.2526],[-124.1193,40.2535],[-124.1202,40.2571],[-124.1214,40.2538],[-124.1222,40.2545],[-124.1234,40.2531],[-124.1231,40.2519],[-124.1244,40.2539],[-124.1249,40.2504],[-124.1223,40.2497],[-124.1208,40.2473],[-124.1227,40.2479],[-124.1227,40.246],[-124.1244,40.2458],[-124.1228,40.2449],[-124.1209,40.2379],[-124.1167,40.2339],[-124.1163,40.2317],[-124.1126,40.2316],[-124.1104,40.2302],[-124.1094,40.2271],[-124.1145,40.2153],[-124.1189,40.2109],[-124.1165,40.2103],[-124.1163,40.2092],[-124.1193,40.2081],[-124.1212,40.205],[-124.1253,40.2036],[-124.1258,40.2017],[-124.132,40.1996],[-124.1382,40.1924],[-124.1326,40.189],[-124.1265,40.1887],[-124.1185,40.1843],[-124.1158,40.1808],[-124.117,40.177],[-124.1216,40.1701],[-124.1247,40.1678],[-124.141,40.1615],[-124.1445,40.1577],[-124.1423,40.1556],[-124.1448,40.1544],[-124.147,40.1488],[-124.1499,40.1493],[-124.1507,40.1476],[-124.1536,40.1472],[-124.1582,40.1437],[-124.1644,40.1424],[-124.1657,40.1401],[-124.1713,40.1371],[-124.1717,40.1343],[-124.2043,40.0814],[-124.1566,40.0659],[-124.1463,40.0558],[-124.144,40.0518],[-124.1454,40.029],[-124.1441,40.0182],[-124.1411,40.011],[-124.1349,40.0025],[-124.0224,40.0013],[-123.5445,40.0019],[-123.5439,40.2388],[-123.5563,40.2391],[-123.5554,40.2681],[-123.5752,40.268],[-123.5743,40.2749],[-123.5853,40.2753],[-123.5855,40.2813],[-123.5817,40.3034],[-123.5912,40.3038],[-123.5903,40.3117],[-123.5947,40.3122],[-123.5938,40.3235],[-123.5891,40.324],[-123.589,40.3273],[-123.5972,40.3274],[-123.5971,40.338],[-123.6015,40.3382],[-123.6016,40.3416],[-123.6056,40.3416],[-123.6058,40.3462],[-123.6121,40.3586],[-123.6245,40.3699],[-123.6262,40.3688],[-123.6321,40.3726],[-123.643,40.3767],[-123.6499,40.3811],[-123.6589,40.3902],[-123.6882,40.3888],[-123.696,40.3918],[-123.7034,40.3924],[-123.7021,40.3934],[-123.7047,40.3927],[-123.7044,40.3906],[-123.7069,40.3895],[-123.7073,40.3875],[-123.7091,40.3874],[-123.7079,40.3842],[-123.7119,40.384],[-123.7123,40.3815],[-123.7151,40.3798],[-123.7165,40.3763],[-123.7204,40.3758],[-123.7209,40.3775],[-123.7256,40.3771],[-123.7343,40.3691],[-123.7289,40.3671],[-123.7317,40.3674],[-123.7356,40.3658],[-123.7367,40.3683],[-123.7392,40.3682],[-123.7428,40.3712],[-123.7478,40.3788],[-123.7516,40.3813],[-123.7511,40.3832],[-123.7554,40.3841],[-123.7557,40.3898],[-123.7591,40.392],[-123.759,40.394],[-123.7616,40.3963],[-123.7607,40.398],[-123.7652,40.3999],[-123.7652,40.4017],[-123.767,40.4021],[-123.7672,40.4035],[-123.7708,40.4027],[-123.7738,40.4044],[-123.7795,40.4049],[-123.7804,40.4068],[-123.784,40.4062],[-123.7877,40.4029],[-123.7922,40.4013],[-123.7946,40.3967],[-123.8068,40.3898],[-123.8133,40.3922],[-123.8135,40.395],[-123.8169,40.3927],[-123.8202,40.3954],[-123.8317,40.3978],[-123.8324,40.3986],[-123.8307,40.4004],[-123.8354,40.4007],[-123.836,40.4038],[-123.8439,40.4031],[-123.8527,40.4081],[-123.8591,40.4054],[-123.8632,40.4064],[-123.8674,40.4057],[-123.8694,40.4068],[-123.8733,40.4059],[-123.8743,40.4085],[-123.8783,40.4071],[-123.8822,40.411],[-123.8861,40.4093],[-123.8907,40.4102],[-123.8929,40.4081],[-123.8924,40.4115],[-123.8881,40.4161],[-123.8867,40.4296],[-123.8896,40.4313],[-123.8944,40.4317],[-123.9084,40.4405],[-123.9109,40.4434],[-123.9285,40.4515],[-123.9331,40.4549],[-123.9393,40.4534],[-123.9488,40.4599],[-123.9586,40.4601],[-123.9678,40.4618],[-123.9748,40.4652],[-123.9931,40.4702],[-124.0103,40.4803],[-124.0152,40.4861],[-124.022,40.4905],[-124.0494,40.4995],[-124.0507,40.5046],[-124.0541,40.507],[-124.0776,40.5079],[-124.1004,40.5156],[-124.1098,40.5214],[-124.1306,40.5242],[-124.1511,40.5295],[-124.1473,40.5374],[-124.1556,40.5457],[-124.1615,40.5489],[-124.1624,40.5454],[-124.1568,40.5405],[-124.1586,40.5297],[-124.1608,40.5276],[-124.1684,40.5293],[-124.1721,40.528],[-124.178,40.5291],[-124.1887,40.5263],[-124.1977,40.5192],[-124.1992,40.5113],[-124.2048,40.5017],[-124.2188,40.503],[-124.227,40.5112],[-124.2352,40.5131],[-124.2416,40.5168],[-124.2463,40.5178],[-124.2545,40.5166],[-124.2557,40.5148],[-124.2619,40.5116],[-124.2675,40.5117],[-124.2747,40.5096],[-124.2788,40.505]],[[-124.14038,40.5191],[-124.13524,40.5181],[-124.13042,40.51579],[-124.10685,40.51573],[-124.10675,40.512],[-124.11106,40.51201],[-124.1067,40.51081],[-124.10758,40.50994],[-124.09801,40.5083],[-124.08958,40.50267],[-124.0893,40.49986],[-124.0935,40.49437],[-124.09987,40.49185],[-124.10624,40.48809],[-124.10585,40.48917],[-124.10675,40.48932],[-124.10671,40.49034],[-124.11116,40.4903],[-124.1121,40.49107],[-124.11486,40.49124],[-124.11563,40.49021],[-124.11846,40.4902],[-124.12335,40.49154],[-124.12336,40.49305],[-124.12574,40.49348],[-124.12586,40.49896],[-124.12416,40.49854],[-124.12311,40.49547],[-124.12203,40.49516],[-124.12089,40.49788],[-124.11123,40.4975],[-124.11122,40.50112],[-124.12097,40.50108],[-124.121,40.5047],[-124.13192,40.5046],[-124.13196,40.5061],[-124.1399,40.50691],[-124.14002,40.50853],[-124.13478,40.50806],[-124.11938,40.50909],[-124.12085,40.51063],[-124.13048,40.50963],[-124.13054,40.51191],[-124.12952,40.51245],[-124.12911,40.51435],[-124.14038,40.5191]]]},"properties":{"GEOID":"0602391100","NAME":"Garberville","COUNTY":"023"}},{"type":"Feature","geometry":{"type":"Polygon","coordinates":[[[-124.0475,41.4596],[-124.0455,41.4574],[-124.0325,41.4573],[-124.0329,41.446],[-124.0239,41.4456],[-124.0239,41.4271],[-124.019,41.4269],[-124.019,41.4234],[-124.0143,41.4231],[-124.0145,41.412],[-124.0048,41.4121],[-124.0046,41.4053],[-124.0012,41.4055],[-124.0012,41.4039],[-123.9975,41.4038],[-123.9979,41.3838],[-123.9971,41.3845],[-123.9934,41.3797],[-123.9893,41.3784],[-123.9902,41.3779],[-123.9891,41.3758],[-123.9829,41.371],[-123.9797,41.364],[-123.9793,41.3575],[-123.967,41.3529],[-123.9674,41.3509],[-123.9657,41.3487],[-123.9677,41.3457],[-123.9651,41.3432],[-123.9641,41.335],[-123.9596,41.335],[-123.954,41.3286],[-123.9484,41.3289],[-123.9486,41.3172],[-123.954,41.3122],[-123.9613,41.3078],[-123.9604,41.3023],[-123.965,41.2978],[-123.9639,41.2919],[-123.9666,41.2861],[-123.9759,41.2758],[-123.9838,41.2739],[-123.9849,41.2724],[-123.9844,41.2702],[-123.9866,41.2695],[-123.9881,41.2667],[-123.9874,41.2618],[-123.9888,41.258],[-123.9854,41.2566],[-123.987,41.2532],[-123.9825,41.2478],[-123.9825,41.2395],[-123.9796,41.234],[-123.9751,41.2296],[-123.9682,41.2282],[-123.9598,41.2232],[-123.9564,41.2183],[-123.9561,41.2097],[-123.9451,41.2025],[-123.9408,41.1948],[-123.9264,41.1853],[-123.9205,41.1755],[-123.9198,41.1716],[-123.9164,41.1671],[-123.8951,41.1605],[-123.8901,41.1566],[-123.8896,41.1549],[-123.8931,41.148],[-123.8878,41.1463],[-123.8758,41.1483],[-123.8584,41.1399],[-123.8579,41.1385],[-123.8594,41.1354],[-123.8583,41.1322],[-123.8554,41.1303],[-123.8526,41.1259],[-123.8516,41.1205],[-123.8561,41.113],[-123.8413,41.1033],[-123.8386,41.0935],[-123.8405,41.0848],[-123.8369,41.0769],[-123.8311,41.075],[-123.8288,41.0752],[-123.8286,41.0768],[-123.8111,41.0765],[-123.8089,41.0718],[-123.8052,41.0711],[-123.8041,41.0643],[-123.7973,41.0571],[-123.7967,41.0495],[-123.7935,41.0457],[-123.7913,41.0353],[-123.7888,41.0329],[-123.79022026022305,41.03342602230483],[-123.7881,41.0288],[-123.7888,41.0276],[-123.7879,41.028],[-123.7857,41.0248],[-123.7866,41.0228],[-123.7851,41.0212],[-123.7853,41.0138],[-123.7836,41.013],[-123.784,41.0104],[-123.7818,41.0078],[-123.785,41.0057],[-123.7837,41.0022],[-123.785,40.9989],[-123.7782,40.9929],[-123.7789,40.9915],[-123.7769,40.9889],[-123.7669,40.9883],[-123.7643,40.99],[-123.7604,40.9868],[-123.7599,40.9744],[-123.7543,40.9654],[-123.7559,40.9625],[-123.755,40.958],[-123.7571,40.9518],[-123.7562,40.9477],[-123.7524,40.9448],[-123.7542,40.9383],[-123.7564,40.9349],[-123.7633,40.9345],[-123.7647,40.9326],[-123.7684,40.9313],[-123.7724,40.9318],[-123.7787,40.9181],[-123.785,40.9126],[-123.7857,40.9098],[-123.7889,40.9135],[-123.7876,40.9203],[-123.7915,40.9255],[-123.7948,40.9264],[-123.8101,40.9253],[-123.8109,40.9238],[-123.8094,40.9224],[-123.8045,40.9238],[-123.7971,40.9229],[-123.7952,40.9221],[-123.7945,40.9202],[-123.7997,40.9156],[-123.8043,40.9149],[-123.8087,40.9122],[-123.8097,40.9095],[-123.8052,40.9037],[-123.8067,40.9022],[-123.8095,40.9026],[-123.8117,40.8941],[-123.8098,40.8932],[-123.8095,40.8908],[-123.8076,40.8901],[-123.8057,40.8867],[-123.8035,40.8858],[-123.8057,40.8826],[-123.7965,40.8777],[-123.7994,40.8762],[-123.7973,40.8727],[-123.7944,40.8726],[-123.7972,40.8711],[-123.7967,40.8694],[-123.7946,40.8693],[-123.7939,40.8674],[-123.7919,40.8674],[-123.7841,40.8628],[-123.7875,40.8614],[-123.7888,40.8595],[-123.7826,40.8528],[-123.779,40.8529],[-123.7806,40.8478],[-123.7774,40.8474],[-123.7778,40.8444],[-123.7754,40.8429],[-123.7733,40.8393],[-123.7701,40.838],[-123.7726,40.8332],[-123.7698,40.8342],[-123.7687,40.8335],[-123.7701,40.8323],[-123.769,40.8302],[-123.7668,40.8298],[-123.7684,40.8288],[-123.767,40.827],[-123.7675,40.8235],[-123.7661,40.8236],[-123.7647,40.8217],[-123.7652,40.8191],[-123.7607,40.8187],[-123.76,40.8171],[-123.7568,40.8172],[-123.7558,40.8139],[-123.7504,40.8093],[-123.7512,40.8073],[-123.7474,40.8053],[-123.7492,40.8013],[-123.7474,40.7997],[-123.7453,40.8004],[-123.7438,40.7982],[-123.7424,40.7939],[-123.7444,40.7921],[-123.7406,40.7911],[-123.7423,40.7902],[-123.74,40.7863],[-123.7402,40.7832],[-123.7383,40.7818],[-123.739,40.781],[-123.7353,40.7794],[-123.7338,40.7758],[-123.7244,40.7659],[-123.722,40.7604],[-123.7235,40.7595],[-123.7243,40.756],[-123.7213,40.7501],[-123.7108,40.7493],[-123.6974,40.745],[-123.675,40.7302],[-123.6339,40.721],[-123.6154,40.7188],[-123.5948,40.7111],[-123.5922,40.7111],[-123.5724,40.72],[-123.5576,40.7223],[-123.5444,40.7194],[-123.5443,40.733],[-123.543,40.7336],[-123.5446,40.7356],[-123.5437,40.739],[-123.546,40.74],[-123.5459,40.7425],[-123.5484,40.7469],[-123.5518,40.7481],[-123.5502,40.7511],[-123.5527,40.7522],[-123.5507,40.7538],[-123.5509,40.7561],[-123.5542,40.7598],[-123.5502,40.7628],[-123.5502,40.7655],[-123.5545,40.7667],[-123.5539,40.7696],[-123.5496,40.7731],[-123.5499,40.7758],[-123.5583,40.7811],[-123.5593,40.7841],[-123.5576,40.7873],[-123.56,40.7903],[-123.5648,40.7877],[-123.5663,40.7888],[-123.5647,40.7914],[-123.5658,40.7962],[-123.5578,40.7937],[-123.5541,40.7963],[-123.5562,40.8005],[-123.5562,40.8088],[-123.5584,40.8101],[-123.5625,40.8097],[-123.5629,40.8127],[-123.5687,40.8197],[-123.5656,40.823],[-123.5652,40.8254],[-123.5596,40.8303],[-123.5618,40.8332],[-123.5662,40.835],[-123.5658,40.8377],[-123.5631,40.8404],[-123.5647,40.8424],[-123.5732,40.8435],[-123.5746,40.8471],[-123.5741,40.8502],[-123.5766,40.8534],[-123.5743,40.8555],[-123.5758,40.858],[-123.5875,40.8585],[-123.5872,40.8601],[-123.5844,40.8611],[-123.5832,40.8641],[-123.5805,40.8658],[-123.5806,40.868],[-123.585,40.8697],[-123.5911,40.8673],[-123.598,40.8776],[-123.6102,40.879],[-123.6017,40.88],[-123.5972,40.8841],[-123.5995,40.8878],[-123.6085,40.8949],[-123.6047,40.9004],[-123.6061,40.9048],[-123.6111,40.908],[-123.6158,40.9141],[-123.6133,40.9179],[-123.6134,40.9216],[-123.6168,40.9243],[-123.6212,40.9255],[-123.6237,40.9298],[-123.6224,40.9317],[-123.6114,40.9293],[-123.6043,40.9295],[-123.5993,40.9312],[-123.5942,40.9297],[-123.5916,40.9274],[-123.5879,40.9278],[-123.5816,40.9332],[-123.5717,40.9371],[-123.5677,40.9366],[-123.57,40.9466],[-123.5684,40.9483],[-123.5602,40.9503],[-123.5556,40.9487],[-123.5548,40.9457],[-123.5412,40.9397],[-123.5399,40.9379],[-123.5423,40.9331],[-123.541,40.9323],[-123.5339,40.9308],[-123.5297,40.9349],[-123.5276,40.9321],[-123.5232,40.9309],[-123.5178,40.9257],[-123.5149,40.9248],[-123.5118,40.9204],[-123.4967,40.9162],[-123.49,40.9168],[-123.4815,40.915],[-123.478,40.9281],[-123.4749,40.9317],[-123.4701,40.9346],[-123.4677,40.9382],[-123.4644,40.9377],[-123.4587,40.942],[-123.455,40.9426],[-123.4537,40.9414],[-123.4495,40.9431],[-123.4457,40.9471],[-123.4449,40.9562],[-123.4467,40.9581],[-123.453,40.9601],[-123.4533,40.9642],[-123.447,40.9668],[-123.4366,40.9737],[-123.4349,40.9826],[-123.4309,40.9837],[-123.4273,40.9883],[-123.428,40.9909],[-123.4265,40.9961],[-123.4281,40.9999],[-123.4256,41.0015],[-123.4258,41.0035],[-123.4201,41.0097],[-123.4099,41.0107],[-123.406,41.0129],[-123.4103,41.0207],[-123.4072,41.0306],[-123.4111,41.0307],[-123.4193,41.0345],[-123.4201,41.0383],[-123.4238,41.0432],[-123.4229,41.0504],[-123.4247,41.0528],[-123.4233,41.0582],[-123.4307,41.0633],[-123.4352,41.0606],[-123.4367,41.0617],[-123.4456,41.0617],[-123.4525,41.0685],[-123.4579,41.0682],[-123.4606,41.0727],[-123.4596,41.0737],[-123.464,41.0763],[-123.4583,41.0838],[-123.4645,41.0925],[-123.4642,41.0944],[-123.4601,41.0936],[-123.4565,41.0905],[-123.4495,41.0891],[-123.4436,41.0896],[-123.4398,41.0925],[-123.4412,41.0948],[-123.4358,41.1024],[-123.4371,41.1041],[-123.4343,41.1117],[-123.4293,41.118],[-123.4287,41.1249],[-123.4304,41.1355],[-123.4294,41.1448],[-123.4315,41.1477],[-123.4288,41.1521],[-123.4326,41.1587],[-123.4326,41.1623],[-123.4217,41.1665],[-123.4169,41.1655],[-123.4153,41.1682],[-123.4104,41.1707],[-123.4102,41.1755],[-123.4083,41.1799],[-123.4107,41.1818],[-123.415,41.1912],[-123.4148,41.1938],[-123.4171,41.197],[-123.4217,41.1982],[-123.4241,41.2017],[-123.4277,41.2033],[-123.4299,41.2088],[-123.4353,41.2133],[-123.4366,41.2184],[-123.4344,41.2229],[-123.4379,41.2269],[-123.4509,41.2312],[-123.4553,41.2365],[-123.4522,41.2415],[-123.4428,41.2495],[-123.4421,41.2514],[-123.4421,41.26],[-123.4451,41.2682],[-123.4438,41.2732],[-123.4468,41.276],[-123.4619,41.2826],[-123.4632,41.2863],[-123.4589,41.2887],[-123.4555,41.2928],[-123.4569,41.3003],[-123.4603,41.3033],[-123.4596,41.3102],[-123.4619,41.3126],[-123.4634,41.3177],[-123.4654,41.3197],[-123.4725,41.3215],[-123.474,41.3264],[-123.4775,41.3278],[-123.4786,41.3296],[-123.4793,41.338],[-123.4784,41.3403],[-123.4825,41.3536],[-123.4792,41.3562],[-123.4783,41.361],[-123.4741,41.3662],[-123.481,41.372],[-123.4846,41.3729],[-123.4881,41.3771],[-123.4983,41.3789],[-123.5004,41.3804],[-123.4994,41.3823],[-123.5012,41.3826],[-123.7702,41.3808],[-123.7706,41.4642],[-123.8857,41.4639],[-123.8857,41.4658],[-123.9953,41.4653],[-123.9953,41.4643],[-124.0012,41.4643],[-124.0012,41.4652],[-124.0419,41.4648],[-124.0475,41.4596]]]},"properties":{"GEOID":"0602393745","NAME":"Willow Creek-Hoopa Valley","COUNTY":"023"}}]}