{"type":"FeatureCollection","features":[{"type":"Feature","geometry":{"type":"Polygon","coordinates":[[[-115.6755,32.9825],[-115.6752,32.9678],[-115.6595,32.9489],[-115.6515,32.9282],[-115.6516,32.9192],[-115.6496,32.9115],[-115.6446,32.9079],[-115.6414,32.9006],[-115.6308,32.8897],[-115.6213,32.8883],[-115.6211,32.8769],[-115.6132,32.8794],[-115.6113,32.8816],[-115.6116,32.8845],[-115.606,32.8977],[-115.6092,32.9012],[-115.6068,32.9024],[-115.6065,32.9136],[-115.5947,32.9126],[-115.4838,32.9126],[-115.4838,32.9157],[-115.4715,32.9166],[-115.2925,32.9168],[-115.2913,32.9367],[-115.2937,32.958],[-115.3028,32.9795],[-115.3145,32.987],[-115.3165,32.9896],[-115.3294,33.0312],[-115.3449,33.0748],[-115.5041,33.0748],[-115.5111,33.0651],[-115.513,33.0445],[-115.5273,33.0446],[-115.5269,33.0301],[-115.5614,33.03],[-115.5614,33.0155],[-115.5786,33.0155],[-115.5786,33.001],[-115.6043,33.0011],[-115.6043,32.9992],[-115.6754,32.9992],[-115.6755,32.9825]],[[-115.56983,32.95851],[-115.56783,32.96198],[-115.56681,32.96038],[-115.56298,32.96121],[-115.56138,32.96348],[-115.55709,32.96345],[-115.55711,32.97075],[-115.55228,32.97073],[-115.55228,32.97195],[-115.55499,32.97274],[-115.55581,32.9745],[-115.55407,32.97593],[-115.55508,32.98021],[-115.55389,32.98056],[-115.55385,32.98164],[-115.55452,32.98163],[-115.55397,32.98392],[-115.55242,32.98355],[-115.54885,32.98652],[-115.54885,32.98842],[-115.5506,32.98653],[-115.55341,32.98653],[-115.55203,32.98781],[-115.55218,32.98901],[-115.55125,32.99018],[-115.54745,32.99018],[-115.54374,32.99338],[-115.54364,32.99074],[-115.54174,32.99079],[-115.54167,32.99175],[-115.53935,32.99377],[-115.53935,32.99656],[-115.53734,32.99736],[-115.53506,32.99738],[-115.53507,32.99375],[-115.52642,32.99376],[-115.5265,33.00373],[-115.52116,33.00376],[-115.52206,33.00103],[-115.50056,33.00105],[-115.50063,32.97071],[-115.50276,32.97078],[-115.50691,32.96388],[-115.50572,32.96354],[-115.50782,32.95966],[-115.50929,32.95967],[-115.50936,32.96342],[-115.5344,32.96344],[-115.53512,32.96144],[-115.53551,32.95189],[-115.53825,32.95185],[-115.53682,32.95622],[-115.56567,32.95627],[-115.56569,32.95995],[-115.56983,32.95851]],[[-115.51782,33.01605],[-115.51781,33.01978],[-115.51684,33.02212],[-115.5139,33.02145],[-115.51624,33.01667],[-115.51724,33.01551],[-115.51782,33.01605]]]},"properties":{"GEOID":"0602590260","NAME":"Brawley","COUNTY":"025"}},{"type":"Feature","geometry":{"type":"Polygon","coordinates":[[[-115.9318,33.4265],[-115.9129,33.4162],[-115.9021,33.4031],[-115.8882,33.3944],[-115.8737,33.3804],[-115.8546,33.356],[-115.7796,33.3],[-115.7559,33.268],[-115.7395,33.2565],[-115.7361,33.2495],[-115.7208,33.2017],[-115.6878,33.25],[-115.6608,33.3399],[-115.6649,33.3423],[-115.6473,33.3586],[-115.6469,33.3608],[-115.6409,33.3588],[-115.6402,33.3637],[-115.6463,33.3695],[-115.6397,33.387],[-115.6342,33.3827],[-115.6266,33.3793],[-115.6054,33.3735],[-115.5946,33.3678],[-115.5822,33.3635],[-115.5658,33.3503],[-115.5624,33.3451],[-115.548,33.3336],[-115.5272,33.3174],[-115.5101,33.3064],[-115.5072,33.3],[-115.4946,33.2922],[-115.4899,33.285],[-115.4813,33.2818],[-115.4556,33.2588],[-115.4479,33.2547],[-115.4296,33.2357],[-115.4246,33.2331],[-115.4215,33.2295],[-115.4198,33.2247],[-115.4122,33.2202],[-115.4107,33.2096],[-115.4057,33.2069],[-115.4015,33.2014],[-115.3946,33.1979],[-115.382,33.1866],[-115.3819,33.1841],[-115.3779,33.1789],[-115.3455,33.1457],[-115.3067,33.1013],[-115.3123,33.0954],[-115.3377,33.075],[-115.3449,33.0748],[-115.3294,33.0312],[-115.3165,32.9896],[-115.3145,32.987],[-115.3028,32.9795],[-115.2936,32.9573],[-115.2913,32.9367],[-115.2928,32.9055],[-115.292,32.8593],[-115.2879,32.835],[-115.2797,32.8069],[-115.2782,32.787],[-115.2755,32.7759],[-115.2713,32.7664],[-115.271,32.7533],[-115.2753,32.7374],[-115.28,32.7314],[-115.2867,32.7269],[-115.2888,32.723],[-115.2868,32.7119],[-115.2843,32.7065],[-115.2828,32.6955],[-115.3085,32.6847],[-115.3356,32.6764],[-114.7265,32.7183],[-114.7135,32.7336],[-114.7154,32.7399],[-114.7141,32.7451],[-114.7077,32.7481],[-114.7043,32.7518],[-114.6989,32.753],[-114.6956,32.7558],[-114.6911,32.7569],[-114.6868,32.7599],[-114.6843,32.7638],[-114.6754,32.7665],[-114.6715,32.7698],[-114.6643,32.7718],[-114.6538,32.7703],[-114.6443,32.7732],[-114.6213,32.7898],[-114.6081,32.8038],[-114.6038,32.8067],[-114.5763,32.8159],[-114.5633,32.8229],[-114.5553,32.8236],[-114.5477,32.8317],[-114.5419,32.8339],[-114.5359,32.8322],[-114.5214,32.8208],[-114.5151,32.8182],[-114.5117,32.8189],[-114.5063,32.8245],[-114.5046,32.8283],[-114.5002,32.8304],[-114.4991,32.8326],[-114.4954,32.8332],[-114.4913,32.8385],[-114.4907,32.8436],[-114.4956,32.8515],[-114.4925,32.8614],[-114.4744,32.8754],[-114.4726,32.8813],[-114.4694,32.882],[-114.469,32.8838],[-114.4653,32.8831],[-114.463,32.9042],[-114.4636,32.9117],[-114.4766,32.9236],[-114.4809,32.9353],[-114.4785,32.9406],[-114.4708,32.9494],[-114.4681,32.9553],[-114.4673,32.9641],[-114.4686,32.9716],[-114.4705,32.9739],[-114.4754,32.9752],[-114.4886,32.9699],[-114.4929,32.9718],[-114.4957,32.9801],[-114.5012,33.0076],[-114.508,33.0197],[-114.5149,33.0265],[-114.5201,33.03],[-114.5311,33.0324],[-114.5648,33.0351],[-114.5717,33.0366],[-114.5783,33.0354],[-114.5848,33.0282],[-114.5898,33.0262],[-114.601,33.0254],[-114.6188,33.0272],[-114.6283,33.0311],[-114.6396,33.0453],[-114.646,33.0489],[-114.649,33.0468],[-114.6578,33.0338],[-114.6623,33.0327],[-114.6708,33.038],[-114.6737,33.0419],[-114.6751,33.0475],[-114.6743,33.0572],[-114.687,33.071],[-114.6891,33.0761],[-114.689,33.084],[-114.6946,33.0862],[-114.7047,33.0871],[-114.7078,33.0911],[-114.7079,33.0974],[-114.7062,33.1053],[-114.6969,33.1311],[-114.6874,33.142],[-114.6828,33.1548],[-114.6799,33.1591],[-114.6793,33.1624],[-114.6809,33.1691],[-114.6758,33.1815],[-114.6754,33.1855],[-114.6787,33.2034],[-114.6737,33.2192],[-114.6736,33.2231],[-114.6781,33.2303],[-114.6827,33.2349],[-114.6895,33.2464],[-114.6745,33.2556],[-114.6721,33.2585],[-114.677,33.2702],[-114.6805,33.2736],[-114.6944,33.2798],[-114.7112,33.2833],[-114.7217,33.287],[-114.7312,33.3024],[-114.7299,33.3057],[-114.7236,33.3121],[-114.7079,33.3233],[-114.7009,33.337],[-114.698,33.3524],[-114.6991,33.3611],[-114.7073,33.3766],[-114.7073,33.3825],[-114.7229,33.3988],[-114.7255,33.4041],[-114.7238,33.4065],[-114.7201,33.4079],[-114.7109,33.4073],[-114.7018,33.4084],[-114.6977,33.4109],[-114.6957,33.4151],[-114.6879,33.4179],[-114.6737,33.4192],[-114.6583,33.413],[-114.6495,33.4136],[-114.6352,33.4227],[-114.6296,33.4281],[-114.6271,33.4336],[-114.8309,33.4337],[-114.8308,33.4301],[-115.0632,33.4281],[-115.1258,33.429],[-115.4675,33.4284],[-115.4675,33.427],[-115.498,33.4269],[-115.9318,33.4265]]]},"properties":{"GEOID":"0602590790","NAME":"East Imperial","COUNTY":"025"}},{"type":"Feature","geometry":{"type":"Polygon","coordinates":[[[-115.7186,32.8502],[-115.6975,32.8502],[-115.6941,32.8474],[-115.6379,32.8474],[-115.6376,32.8256],[-115.59496671184478,32.825629402267694],[-115.59498,32.84016],[-115.59495,32.84738],[-115.58838,32.84738],[-115.58837,32.84558],[-115.58718,32.84558],[-115.58717,32.84738],[-115.58547,32.84738],[-115.58618,32.8467],[-115.5862,32.84018],[-115.57841,32.84018],[-115.57863,32.84378],[-115.58285,32.84378],[-115.58285,32.84557],[-115.57962,32.84557],[-115.58003,32.8474],[-115.57865,32.84744],[-115.57865,32.85475],[-115.57631,32.85475],[-115.57637,32.85658],[-115.57204,32.85657],[-115.57211,32.86191],[-115.57347,32.8619],[-115.57351,32.86562],[-115.57409,32.86559],[-115.57484,32.8619],[-115.57821,32.86188],[-115.57819,32.86555],[-115.58629,32.86562],[-115.5863,32.87639],[-115.57866,32.87645],[-115.57865,32.86916],[-115.5646,32.86922],[-115.56456,32.8619],[-115.56131,32.86182],[-115.56144,32.85826],[-115.55964,32.85827],[-115.55966,32.85469],[-115.56136,32.85467],[-115.56136,32.84748],[-115.55272,32.84738],[-115.55268,32.84003],[-115.56427,32.84009],[-115.56423,32.83286],[-115.55082,32.83284],[-115.55083,32.82921],[-115.55281,32.82922],[-115.55281,32.82565847586207],[-115.4926,32.8257],[-115.4839,32.8225],[-115.4838,32.8401],[-115.4483,32.8399],[-115.4483,32.8473],[-115.4338,32.8473],[-115.4324,32.8512],[-115.4336,32.854],[-115.4381,32.8555],[-115.4408,32.8588],[-115.4395,32.861],[-115.4433,32.8669],[-115.4413,32.8679],[-115.4435,32.8706],[-115.4432,32.872],[-115.4481,32.8726],[-115.4479,32.8743],[-115.4533,32.8775],[-115.4537,32.8816],[-115.4494,32.8843],[-115.4504,32.8862],[-115.4496,32.8878],[-115.4542,32.89],[-115.4525,32.8936],[-115.4579,32.9084],[-115.4573,32.9165],[-115.4838,32.9157],[-115.4837,32.9126],[-115.5947,32.9126],[-115.6065,32.9136],[-115.6068,32.9024],[-115.6092,32.9012],[-115.606,32.8977],[-115.6116,32.8845],[-115.6113,32.8816],[-115.6132,32.8794],[-115.6211,32.8769],[-115.6213,32.8883],[-115.6266,32.8894],[-115.6311,32.8897],[-115.6315,32.8867],[-115.6463,32.8852],[-115.6665,32.8855],[-115.6924,32.8615],[-115.7119,32.8611],[-115.7186,32.8572],[-115.7186,32.8502]]]},"properties":{"GEOID":"0602591380","NAME":"Imperial","COUNTY":"025"}},{"type":"Feature","geometry":{"type":"Polygon","coordinates":[[[-115.8538,33.1229],[-115.8434,33.1125],[-115.8387,33.1095],[-115.8275,33.1069],[-115.7995,33.1032],[-115.7695,33.0899],[-115.7608,33.084],[-115.7507,33.0808],[-115.7438,33.0767],[-115.7283,33.061],[-115.7236,33.0532],[-115.7182,33.0481],[-115.7126,33.0387],[-115.7006,33.0325],[-115.6954,33.0257],[-115.6899,33.0225],[-115.6803,33.0092],[-115.6757,33.0083],[-115.6754,32.9992],[-115.6043,32.9992],[-115.6043,33.0011],[-115.5786,33.001],[-115.5786,33.0155],[-115.5614,33.0155],[-115.5614,33.03],[-115.5269,33.0301],[-115.5273,33.0446],[-115.513,33.0445],[-115.5111,33.0651],[-115.5041,33.0748],[-115.3387,33.0748],[-115.3123,33.0954],[-115.3067,33.1013],[-115.3455,33.1457],[-115.3779,33.1789],[-115.3819,33.1841],[-115.382,33.1866],[-115.3946,33.1979],[-115.4015,33.2014],[-115.4057,33.2069],[-115.4107,33.2096],[-115.4125,33.2206],[-115.4198,33.2247],[-115.4215,33.2295],[-115.4246,33.2331],[-115.4296,33.2357],[-115.4479,33.2547],[-115.4556,33.2588],[-115.4813,33.2818],[-115.4899,33.285],[-115.4946,33.2922],[-115.5072,33.3],[-115.5101,33.3064],[-115.5298,33.3192],[-115.5624,33.3451],[-115.5658,33.3503],[-115.5799,33.3622],[-115.5946,33.3678],[-115.6054,33.3735],[-115.6266,33.3793],[-115.6342,33.3827],[-115.6397,33.387],[-115.6463,33.3695],[-115.6402,33.3637],[-115.6409,33.3588],[-115.6469,33.3608],[-115.6473,33.3586],[-115.6649,33.3423],[-115.6608,33.3399],[-115.6878,33.25],[-115.7516,33.1574],[-115.7772,33.1453],[-115.7817,33.1417],[-115.7899,33.1408],[-115.7898,33.1396],[-115.7928,33.1391],[-115.7979,33.1351],[-115.8017,33.1352],[-115.8201,33.1283],[-115.824,33.1282],[-115.8261,33.1247],[-115.8344,33.1243],[-115.8439,33.12],[-115.8481,33.1213],[-115.8503,33.124],[-115.8538,33.1229]],[[-115.63015,33.03591],[-115.6301,33.04281],[-115.62592,33.04281],[-115.62592,33.04097],[-115.6216,33.04098],[-115.62159,33.04276],[-115.61942,33.04276],[-115.61941,33.04469],[-115.61278,33.0447],[-115.61279,33.04081],[-115.61728,33.04086],[-115.61729,33.03746],[-115.6129,33.03732],[-115.61294,33.0364],[-115.61514,33.03706],[-115.61615,33.0355],[-115.6173,33.03551],[-115.61731,33.03371],[-115.62161,33.03317],[-115.62156,33.03007],[-115.62485,33.03007],[-115.62488,33.03375],[-115.62588,33.03374],[-115.62588,33.03552],[-115.63015,33.03591]],[[-115.63012,33.04468],[-115.63008,33.04821],[-115.6269,33.04822],[-115.62689,33.04448],[-115.6301,33.04385],[-115.63012,33.04468]],[[-115.55378,33.15483],[-115.54494,33.15482],[-115.54496,33.1475],[-115.5536,33.14753],[-115.55378,33.15483]],[[-115.52771,33.11841],[-115.52771,33.13301],[-115.50191,33.13298],[-115.50192,33.11846],[-115.50616,33.11853],[-115.50616,33.11494],[-115.5094,33.11496],[-115.50936,33.11846],[-115.51262,33.11847],[-115.5126,33.11309],[-115.51478,33.11308],[-115.51468,33.1185],[-115.52771,33.11841]],[[-115.50825,33.17293],[-115.50825,33.17659],[-115.47592,33.17655],[-115.47592,33.16199],[-115.50824,33.16205],[-115.50825,33.17293]]]},"properties":{"GEOID":"0602590330","NAME":"Calipatria-Westmorland","COUNTY":"025"}},{"type":"Feature","geometry":{"type":"Polygon","coordinates":[[[-115.7738,32.7771],[-115.7732,32.7741],[-115.7692,32.7683],[-115.7525,32.7566],[-115.7525,32.7455],[-115.7389,32.742],[-115.7328,32.736],[-115.7258,32.7323],[-115.7063,32.7294],[-115.6968,32.7232],[-115.6911,32.7157],[-115.6069,32.7163],[-115.6031,32.7178],[-115.6029,32.7227],[-115.6017,32.7234],[-115.5602,32.7234],[-115.5602,32.7307],[-115.5345,32.7307],[-115.5343,32.7234],[-115.5172,32.7234],[-115.5173,32.7307],[-115.4308,32.7302],[-115.4304,32.8038],[-115.4392,32.8038],[-115.4392,32.8181],[-115.4356,32.8177],[-115.437,32.8222],[-115.4385,32.8234],[-115.4335,32.8262],[-115.4366,32.8276],[-115.4357,32.8302],[-115.4376,32.8332],[-115.4365,32.8372],[-115.4345,32.8391],[-115.4351,32.844],[-115.4338,32.8473],[-115.4483,32.8473],[-115.4483,32.8399],[-115.4838,32.8401],[-115.4839,32.8225],[-115.4926,32.8257],[-115.55281,32.825658533057855],[-115.55281,32.82544],[-115.5357,32.82546],[-115.5357,32.81836],[-115.55709,32.8183],[-115.55707,32.82542],[-115.56541,32.8256],[-115.56645,32.82559],[-115.56641,32.82175],[-115.56282,32.82173],[-115.56153,32.81834],[-115.55555,32.80376],[-115.55162,32.80385],[-115.55162,32.80634],[-115.55031,32.80634],[-115.55032,32.80385],[-115.54914,32.80384],[-115.54892,32.80565],[-115.54847,32.80384],[-115.54847,32.80749],[-115.53983,32.80749],[-115.53983,32.80382],[-115.53569,32.80381],[-115.53567,32.7963],[-115.51845,32.79629],[-115.5184,32.79282],[-115.5225,32.79282],[-115.5254,32.78976],[-115.5268,32.78603],[-115.5261,32.75979],[-115.53494,32.75971],[-115.53521,32.75421],[-115.54042,32.76695],[-115.54415,32.76694],[-115.54454,32.7633],[-115.54353,32.76329],[-115.54332,32.75604],[-115.54752,32.75606],[-115.5477,32.75968],[-115.55197,32.76032],[-115.55212,32.76699],[-115.55643,32.76697],[-115.55644,32.76817],[-115.55859,32.76789],[-115.55864,32.76995],[-115.56103,32.76995],[-115.56096,32.76746],[-115.55999,32.76747],[-115.56094,32.76698],[-115.56061,32.75608],[-115.56468,32.75606],[-115.56461,32.74519],[-115.56891,32.74519],[-115.56936,32.77066],[-115.57818,32.77066],[-115.57799,32.76333],[-115.58627,32.76334],[-115.58625,32.77407],[-115.59501,32.77402],[-115.59502,32.77612],[-115.59499,32.79286],[-115.58624,32.79283],[-115.58623,32.79657],[-115.5787,32.79656],[-115.57864,32.80365],[-115.57864,32.8111],[-115.59497,32.81117],[-115.59496,32.81829],[-115.59496671193371,32.82562949950969],[-115.6378,32.8256],[-115.6379,32.8474],[-115.6941,32.8474],[-115.6975,32.8502],[-115.7186,32.8502],[-115.7186,32.8573],[-115.741,32.8425],[-115.7495,32.8389],[-115.7547,32.8335],[-115.7541,32.8157],[-115.7509,32.8102],[-115.7556,32.8022],[-115.765,32.8002],[-115.7695,32.7958],[-115.7722,32.789],[-115.7738,32.7771]]]},"properties":{"GEOID":"0602590860","NAME":"El Centro","COUNTY":"025"}},{"type":"Feature","geometry":{"type":"Polygon","coordinates":[[[-114.7264,32.7186],[-114.7195,32.7187],[-114.7145,32.7304],[-114.7091,32.7355],[-114.7057,32.7416],[-114.7016,32.7456],[-114.6882,32.7375],[-114.6659,32.734],[-114.635,32.7314],[-114.6174,32.7283],[-114.6157,32.7285],[-114.6151,32.7345],[-114.5818,32.7349],[-114.5817,32.7423],[-114.5645,32.7423],[-114.5644,32.7496],[-114.5392,32.7498],[-114.5391,32.7569],[-114.5269,32.7571],[-114.5284,32.7673],[-114.5324,32.7769],[-114.5308,32.7935],[-114.522,32.8017],[-114.5154,32.8114],[-114.5103,32.8165],[-114.4941,32.8233],[-114.469,32.8452],[-114.4653,32.8831],[-114.469,32.8838],[-114.4694,32.882],[-114.4726,32.8813],[-114.4744,32.8754],[-114.4925,32.8614],[-114.4956,32.8515],[-114.4907,32.8436],[-114.4913,32.8385],[-114.4954,32.8332],[-114.4991,32.8326],[-114.5002,32.8304],[-114.5046,32.8283],[-114.5063,32.8245],[-114.5117,32.8189],[-114.5151,32.8182],[-114.5214,32.8208],[-114.5359,32.8322],[-114.5419,32.8339],[-114.5477,32.8317],[-114.5553,32.8236],[-114.5633,32.8229],[-114.5763,32.8159],[-114.6038,32.8067],[-114.6081,32.8038],[-114.6213,32.7898],[-114.6443,32.7732],[-114.6538,32.7703],[-114.6643,32.7718],[-114.6715,32.7698],[-114.6754,32.7665],[-114.6843,32.7638],[-114.6868,32.7599],[-114.6911,32.7569],[-114.6956,32.7558],[-114.6989,32.753],[-114.7043,32.7518],[-114.7077,32.7481],[-114.7141,32.7451],[-114.7154,32.7399],[-114.7135,32.7336],[-114.7264,32.7186]]]},"properties":{"GEOID":"0602593760","NAME":"Winterhaven-Bard","COUNTY":"025"}},{"type":"Feature","geometry":{"type":"Polygon","coordinates":[[[-115.6908,32.7158],[-115.6843,32.7095],[-115.6843,32.7021],[-115.6861,32.6962],[-115.6841,32.6912],[-115.6856,32.6837],[-115.684,32.6816],[-115.6727,32.6774],[-115.6642,32.6635],[-115.6622,32.6526],[-115.3356,32.6764],[-115.3085,32.6847],[-115.2826,32.6964],[-115.2887,32.7233],[-115.3612,32.7228],[-115.3694,32.7236],[-115.3701,32.7285],[-115.3738,32.7307],[-115.5173,32.7307],[-115.5172,32.7234],[-115.5343,32.7234],[-115.5345,32.7307],[-115.5602,32.7307],[-115.5602,32.7234],[-115.6017,32.7234],[-115.6029,32.7227],[-115.6031,32.7178],[-115.6069,32.7163],[-115.6908,32.7158]],[[-115.53357,32.66311],[-115.52967,32.66434],[-115.52743,32.67034],[-115.52828,32.67055],[-115.5278,32.67185],[-115.52467,32.67184],[-115.52452,32.6751],[-115.52215,32.68143],[-115.52041,32.68363],[-115.51611,32.6857],[-115.5079,32.68552],[-115.51688,32.70895],[-115.4825,32.7086],[-115.48251,32.70128],[-115.47571,32.70065],[-115.47172,32.69933],[-115.4671,32.69635],[-115.46516,32.69472],[-115.46523,32.69389],[-115.45667,32.69401],[-115.45668,32.69303],[-115.4599,32.69073],[-115.45549,32.68673],[-115.45679,32.68673],[-115.4568,32.68311],[-115.47396,32.68315],[-115.4741,32.66653],[-115.53349,32.66215],[-115.53357,32.66311]]]},"properties":{"GEOID":"0602590320","NAME":"Calexico","COUNTY":"025"}},{"type":"Feature","geometry":{"type":"Polygon","coordinates":[[[-116.1062,32.6184],[-115.6622,32.6526],[-115.6642,32.6635],[-115.6727,32.6774],[-115.684,32.6816],[-115.6856,32.6837],[-115.6841,32.6912],[-115.6861,32.6962],[-115.6843,32.7021],[-115.6851,32.7108],[-115.6913,32.7159],[-115.6968,32.7232],[-115.7063,32.7294],[-115.7258,32.7323],[-115.7328,32.736],[-115.7389,32.742],[-115.7525,32.7455],[-115.7525,32.7566],[-115.7692,32.7683],[-115.7738,32.7766],[-115.7722,32.789],[-115.7695,32.7958],[-115.765,32.8002],[-115.7556,32.8022],[-115.7509,32.8102],[-115.7541,32.8157],[-115.7551,32.8322],[-115.7507,32.8379],[-115.741,32.8425],[-115.7127,32.8609],[-115.6921,32.8616],[-115.667,32.8853],[-115.6463,32.8852],[-115.6315,32.8867],[-115.6308,32.8897],[-115.6414,32.9006],[-115.6446,32.9079],[-115.65,32.9123],[-115.6516,32.9192],[-115.6515,32.9282],[-115.6595,32.9489],[-115.6752,32.9678],[-115.6757,33.0083],[-115.6803,33.0092],[-115.6899,33.0225],[-115.6954,33.0257],[-115.7006,33.0325],[-115.7126,33.0387],[-115.7182,33.0481],[-115.7236,33.0532],[-115.7283,33.061],[-115.745,33.0775],[-115.751,33.081],[-115.76,33.0836],[-115.7695,33.0899],[-115.7995,33.1032],[-115.8275,33.1069],[-115.8387,33.1095],[-115.8434,33.1125],[-115.8538,33.1229],[-115.8503,33.124],[-115.8481,33.1213],[-115.8439,33.12],[-115.8344,33.1243],[-115.8261,33.1247],[-115.824,33.1282],[-115.8201,33.1283],[-115.8017,33.1352],[-115.7979,33.1351],[-115.7928,33.1391],[-115.7898,33.1396],[-115.7899,33.1408],[-115.7817,33.1417],[-115.7772,33.1453],[-115.7516,33.1574],[-115.7208,33.2017],[-115.7361,33.2495],[-115.7403,33.2574],[-115.7559,33.268],[-115.7796,33.3],[-115.8546,33.356],[-115.8737,33.3804],[-115.8882,33.3944],[-115.9021,33.4031],[-115.9129,33.4162],[-115.9318,33.4265],[-116.0849,33.4259],[-116.0852,33.3392],[-116.0812,33.1908],[-116.0812,33.0749],[-116.1033,33.0748],[-116.103,32.7264],[-116.1056,32.7263],[-116.1062,32.6195],[-116.1062,32.6184]]]},"properties":{"GEOID":"0602593630","NAME":"West Imperial","COUNTY":"025"}},{"type":"Feature","geometry":{"type":"Polygon","coordinates":[[[-115.4578,32.909],[-115.4525,32.8936],[-115.4542,32.8898],[-115.4496,32.8878],[-115.4504,32.8862],[-115.4494,32.8843],[-115.4537,32.8816],[-115.4533,32.8775],[-115.4479,32.8743],[-115.4481,32.8726],[-115.4432,32.872],[-115.4435,32.8706],[-115.4413,32.8679],[-115.4433,32.8669],[-115.4395,32.861],[-115.4408,32.8588],[-115.4381,32.8555],[-115.4336,32.854],[-115.4324,32.8512],[-115.4326,32.8487],[-115.4348,32.8463],[-115.4354,32.8402],[-115.4345,32.8391],[-115.4365,32.8372],[-115.4376,32.8332],[-115.4357,32.8302],[-115.4366,32.8276],[-115.4335,32.8262],[-115.4385,32.8234],[-115.437,32.8222],[-115.4356,32.8177],[-115.4392,32.8181],[-115.4392,32.8038],[-115.4304,32.8038],[-115.4308,32.7302],[-115.3736,32.7306],[-115.3701,32.7285],[-115.3694,32.7236],[-115.3612,32.7228],[-115.2944,32.7228],[-115.2887,32.7233],[-115.2867,32.7269],[-115.28,32.7314],[-115.2753,32.7374],[-115.2723,32.7457],[-115.271,32.7533],[-115.2713,32.7664],[-115.2755,32.7759],[-115.2782,32.787],[-115.2797,32.8069],[-115.2879,32.835],[-115.292,32.8593],[-115.2925,32.9168],[-115.4573,32.9165],[-115.4578,32.909]],[[-115.39462,32.81278],[-115.38892,32.81282],[-115.38901,32.81833],[-115.38332,32.81833],[-115.38258,32.81939],[-115.38208,32.81833],[-115.38019,32.81835],[-115.3802,32.82015],[-115.37894,32.82015],[-115.37897,32.81835],[-115.37772,32.81836],[-115.3777,32.82015],[-115.37282,32.82017],[-115.37279,32.81838],[-115.37056,32.81837],[-115.37059,32.82017],[-115.36941,32.82018],[-115.36938,32.81836],[-115.36632,32.81834],[-115.3652,32.81834],[-115.3652,32.8202],[-115.36357,32.8202],[-115.36357,32.81835],[-115.36286,32.81836],[-115.36284,32.81477],[-115.37043,32.81475],[-115.37042,32.81112],[-115.36731,32.81066],[-115.36911,32.81065],[-115.36911,32.80929],[-115.37128,32.80928],[-115.37163,32.80993],[-115.37159,32.80383],[-115.37272,32.80383],[-115.372,32.8033],[-115.37359,32.80227],[-115.37407,32.80334],[-115.37514,32.80335],[-115.37509,32.8055],[-115.38125,32.80557],[-115.38127,32.80737],[-115.38374,32.80735],[-115.38376,32.80901],[-115.38528,32.80899],[-115.38527,32.80718],[-115.38891,32.80722],[-115.38885,32.81051],[-115.39356,32.80983],[-115.39357,32.81157],[-115.39462,32.81278]]]},"properties":{"GEOID":"0602591310","NAME":"Holtville","COUNTY":"025"}}]}