{"type":"FeatureCollection","features":[{"type":"Feature","properties":{"GEOID":"0602990300","NAME":"Buttonwillow","COUNTY":"029"},"geometry":{"type":"Polygon","coordinates":[[[-119.647,35.4993],[-119.6408,35.4873],[-119.6384,35.4787],[-119.638,35.4667],[-119.6327,35.4575],[-119.6115,35.4286],[-119.604,35.4222],[-119.5986,35.4154],[-119.5875,35.4083],[-119.5652,35.4011],[-119.5561,35.3928],[-119.5477,35.3918],[-119.5423,35.3893],[-119.5313,35.376],[-119.5229,35.3684],[-119.5136,35.3661],[-119.5045,35.3604],[-119.4898,35.3616],[-119.4762,35.355],[-119.4688,35.3468],[-119.458,35.3459],[-119.4513,35.3397],[-119.434,35.3359],[-119.4212,35.3301],[-119.4171,35.3245],[-119.4097,35.3255],[-119.4014,35.3222],[-119.394,35.3211],[-119.3867,35.3147],[-119.3783,35.3116],[-119.372,35.306],[-119.3682,35.3057],[-119.3554,35.3005],[-119.3498,35.3001],[-119.3409,35.2944],[-119.3385,35.2905],[-119.3328,35.2888],[-119.3263,35.2836],[-119.3199,35.2751],[-119.312,35.27],[-119.3098,35.2663],[-119.3007,35.2676],[-119.2527,35.2674],[-119.25251877205748,35.30249781153356],[-119.25453,35.30091],[-119.25652,35.30049],[-119.26206,35.30099],[-119.26526,35.30354],[-119.25461,35.30355],[-119.25250940848434,35.3043112235309],[-119.2518,35.4417],[-119.34150998020503,35.441982360549204],[-119.34151,35.44198],[-119.34946260869565,35.44200739130435],[-119.4742,35.4424],[-119.4747,35.5004],[-119.492,35.5013],[-119.5283,35.5008],[-119.5466,35.4993],[-119.647,35.4993]]]}},{"type":"Feature","properties":{"GEOID":"0602991160","NAME":"Greenfield-Panama","COUNTY":"029"},"geometry":{"type":"MultiPolygon","coordinates":[[[[-119.2527,35.2382],[-119.235,35.2381],[-119.2328,35.2364],[-119.2328,35.1944],[-119.1991,35.1944],[-119.199,35.1802],[-119.1099,35.1805],[-119.11,35.1638],[-119.1111,35.1596],[-119.1098,35.1554],[-119.1099,35.0945],[-118.9832,35.0955],[-118.9797,35.0946],[-119.0036,35.1701],[-119.0031,35.2377],[-118.9854,35.2378],[-118.9854,35.281331002444986],[-118.98765,35.28132],[-118.98545,35.27573],[-119.00179,35.27571],[-119.00183,35.27889],[-119.00307,35.27897],[-119.00435,35.27897],[-119.00326,35.27856],[-119.00326,35.27773],[-119.02125,35.27771],[-119.02097,35.26863],[-119.01672,35.26864],[-119.01672,35.26682],[-119.01194,35.26683],[-119.01206,35.2632],[-119.02165,35.26319],[-119.0214,35.26045],[-119.02572,35.26142],[-119.02561,35.26324],[-119.02849,35.26328],[-119.02848,35.26685],[-119.02784,35.26685],[-119.02792,35.26802],[-119.02679,35.26801],[-119.02679,35.27048],[-119.03453,35.27051],[-119.03453,35.27142],[-119.03673,35.27143],[-119.03679,35.27414],[-119.03878,35.27415],[-119.03884,35.26785],[-119.0378,35.26785],[-119.03797,35.2669],[-119.03627,35.26599],[-119.03011,35.26521],[-119.03012,35.26351],[-119.03897,35.26341],[-119.03899,35.25615],[-119.04342,35.25615],[-119.04339,35.26693],[-119.05666,35.26699],[-119.05669,35.25981],[-119.06554,35.25984],[-119.06555,35.25255],[-119.06775,35.25255],[-119.06776,35.2562],[-119.07274,35.25622],[-119.0716,35.25876],[-119.0704,35.25876],[-119.07039,35.25986],[-119.07439,35.25987],[-119.07441,35.25258],[-119.08326,35.25267],[-119.08323,35.26353],[-119.0777,35.26352],[-119.07697,35.26708],[-119.08986,35.26712],[-119.08987,35.26353],[-119.09208,35.26353],[-119.09218,35.26713],[-119.10118,35.26715],[-119.10116,35.28167],[-119.10984,35.28168],[-119.10978,35.26718],[-119.10989,35.26855],[-119.11068,35.26855],[-119.11068,35.26718],[-119.14604,35.26719],[-119.14587,35.29622],[-119.19897,35.29612],[-119.19883,35.31908],[-119.21854,35.30748],[-119.24582,35.30504],[-119.24775,35.30319],[-119.25244,35.30256],[-119.25250097528063,35.30251186162056],[-119.2527,35.2682],[-119.2527,35.2382]]],[[[-119.2524904983975,35.30431807626879],[-119.25243,35.30434],[-119.25242,35.30708],[-119.2469,35.30705],[-119.24689,35.31068],[-119.24357,35.31068],[-119.24355,35.31431],[-119.23466,35.3143],[-119.23463,35.31794],[-119.23127,35.31798],[-119.23126,35.31979],[-119.21952,35.3199],[-119.21949,35.32537],[-119.21647,35.32541],[-119.21644,35.32765],[-119.21202,35.32764],[-119.21196,35.33267],[-119.19424,35.33263],[-119.19417,35.33993],[-119.1853,35.33985],[-119.18533,35.34355],[-119.1809,35.34352],[-119.18091,35.34711],[-119.19867,35.34716],[-119.19875,35.35438],[-119.18319,35.35441],[-119.18319392127346,35.35511975049519],[-119.2522,35.3544],[-119.2524904983975,35.30431807626879]]],[[[-119.19761,35.31983],[-119.19006,35.31286],[-119.18567,35.31118],[-119.16343,35.31087],[-119.16344,35.32037],[-119.17311,35.33615],[-119.17652,35.33617],[-119.17656,35.33252],[-119.18096,35.33252],[-119.18107,35.32389],[-119.18712,35.32164],[-119.19761,35.31983]]],[[[-119.18098,35.35441],[-119.17789,35.3548],[-119.17659808211778,35.3551885467315],[-119.18098,35.3551428422425],[-119.18098,35.35441]]],[[[-119.1282,35.28909],[-119.1234,35.28908],[-119.12339,35.29262],[-119.12817,35.29262],[-119.1282,35.28909]]],[[[-118.99422,35.28864],[-118.99421,35.28501],[-118.992,35.28501],[-118.992,35.28147],[-118.98542,35.28148],[-118.9854,35.284336],[-118.9854,35.29229994505494],[-118.99083,35.29229],[-118.98993,35.2887],[-118.99422,35.28864]]]]}},{"type":"Feature","properties":{"GEOID":"0602992650","NAME":"Rosedale","COUNTY":"029"},"geometry":{"type":"MultiPolygon","coordinates":[[[[-119.2522,35.3544],[-119.18319392127346,35.35511975049519],[-119.1832,35.35622],[-119.1821,35.35667],[-119.18098,35.35668],[-119.18098,35.3551428422425],[-119.17659808211778,35.3551885467315],[-119.17656,35.3552],[-119.17655,35.35805],[-119.17409,35.35825],[-119.17236,35.3617],[-119.16324,35.36172],[-119.16323,35.35985],[-119.15437,35.35984],[-119.15423,35.35816],[-119.15217,35.35816],[-119.15173,35.35459],[-119.14689,35.35445],[-119.14689,35.35659],[-119.14682,35.35589],[-119.14555,35.3559],[-119.14554,35.36895],[-119.15375,35.36878],[-119.1544,35.36534],[-119.15883,35.36535],[-119.15885,35.36808],[-119.16328,35.36811],[-119.16327,35.36536],[-119.16771,35.36536],[-119.16771,35.36896],[-119.17224,35.36902],[-119.17217,35.37623],[-119.16762,35.37624],[-119.16754,35.36998],[-119.16347,35.37003],[-119.16347,35.36899],[-119.16218,35.36899],[-119.16218,35.3708],[-119.16013,35.37081],[-119.16013,35.36914],[-119.15441,35.36911],[-119.15441,35.37988],[-119.15277,35.37987],[-119.15277,35.38206],[-119.15109,35.38207],[-119.15109,35.38262],[-119.1511,35.38351],[-119.15441,35.3835],[-119.1544,35.38711],[-119.14572,35.38758],[-119.1457,35.38639],[-119.14774,35.38577],[-119.14792,35.38178],[-119.14579,35.38144],[-119.14553,35.37259],[-119.13906,35.37258],[-119.13906,35.37321],[-119.13871,35.37266],[-119.13236,35.3727],[-119.13239,35.37619],[-119.12352,35.37617],[-119.12355,35.37105],[-119.12128,35.37112],[-119.1208,35.36898],[-119.11904,35.36905],[-119.11908,35.37071],[-119.11846,35.37071],[-119.11841,35.36898],[-119.1128,35.36896],[-119.11279,35.37069],[-119.10996,35.37068],[-119.10996,35.37206],[-119.10552,35.37205],[-119.10551,35.3742],[-119.1033,35.37423],[-119.10331,35.37611],[-119.10986,35.37613],[-119.10983,35.37747],[-119.10634,35.37746],[-119.10633,35.37975],[-119.10105,35.37974],[-119.10168,35.38344],[-119.11892,35.38349],[-119.11892,35.38707],[-119.11432,35.38707],[-119.11437,35.38932],[-119.11101,35.38955],[-119.11106,35.39074],[-119.11441,35.39073],[-119.11443,35.39804],[-119.12784,35.39794],[-119.12786,35.39219],[-119.13091,35.39222],[-119.13081,35.39088],[-119.12826,35.39038],[-119.13045,35.39061],[-119.13026,35.38887],[-119.1314,35.38798],[-119.13319,35.38949],[-119.13377,35.38852],[-119.13669,35.39091],[-119.13667,35.39797],[-119.14551,35.39816],[-119.14551,35.39941],[-119.14333,35.39951],[-119.14332,35.40522],[-119.15066,35.40607],[-119.15645,35.41077],[-119.15877,35.40883],[-119.15411,35.40501],[-119.1564,35.40367],[-119.15456,35.40167],[-119.16326,35.40161],[-119.16323,35.41248],[-119.19872,35.41251],[-119.1987,35.41977],[-119.21217,35.41979],[-119.21204,35.42714],[-119.21643,35.42717],[-119.21637012632557,35.44160953448216],[-119.24348,35.44165],[-119.24347953142048,35.441687120017676],[-119.2518,35.4417],[-119.2522,35.3616],[-119.2522,35.3544]]],[[[-119.1984668466749,35.441582811174975],[-119.19422,35.4381],[-119.1942001912105,35.44157644255722],[-119.1984668466749,35.441582811174975]]],[[[-119.15423926083551,35.441516794926244],[-119.15387,35.43492],[-119.14635,35.42888],[-119.14546,35.42699],[-119.14569973651892,35.44150404841633],[-119.15423926083551,35.441516794926244]]],[[[-119.14373,35.42699],[-119.12771,35.42697],[-119.12768,35.42847],[-119.12886,35.42964],[-119.13673,35.42987],[-119.13677,35.43061],[-119.14096,35.43061],[-119.14095,35.42922],[-119.14373,35.4292],[-119.14373,35.42699]]],[[[-119.14322353837176,35.44150035232237],[-119.12258797309116,35.44133663448813],[-119.12259775940713,35.44146956528011],[-119.14322353837176,35.44150035232237]]],[[[-119.12348,35.4271],[-119.12154104734144,35.42711589305458],[-119.12180150021806,35.43065371129525],[-119.12344,35.43064],[-119.12348,35.4271]]],[[[-119.10997393807169,35.41979985358467],[-119.10997,35.41801],[-119.10554,35.41799],[-119.10558931549375,35.41977522087356],[-119.10997393807169,35.41979985358467]]],[[[-119.09222998891599,35.41970016847706],[-119.09222,35.41084],[-119.0922,35.41083984350548],[-119.0922,35.4197],[-119.09222998891599,35.41970016847706]]],[[[-119.09222,35.40518],[-119.0922,35.405179920724805],[-119.0922,35.40880993243243],[-119.09222,35.40881],[-119.09222,35.40518]]],[[[-119.09221,35.39422],[-119.0922,35.39239],[-119.0922,35.39421997014925],[-119.09221,35.39422]]]]}},{"type":"Feature","properties":{"GEOID":"0602993635","NAME":"West Kern","COUNTY":"029"},"geometry":{"type":"Polygon","coordinates":[[[-119.9156,35.4472],[-119.9132,35.4438],[-119.9137,35.4393],[-119.88,35.4391],[-119.8804,35.3511],[-119.8092,35.3509],[-119.8094,35.2637],[-119.6666,35.2626],[-119.6673,35.175],[-119.5715,35.1802],[-119.5538,35.1801],[-119.5618,35.0878],[-119.4904,35.0916],[-119.4905,35.0767],[-119.4726,35.0767],[-119.4736,34.9379],[-119.4725,34.9014],[-119.3837,34.9008],[-119.3819,34.874],[-119.3555,34.8737],[-119.3555,34.8725],[-119.2764,34.8725],[-119.2772,34.8573],[-119.2426,34.8576],[-119.2425,34.8143],[-118.9779,34.8117],[-118.978,34.7898],[-118.8804,34.7887],[-118.8946,34.818],[-118.8817,34.8178],[-118.8641,34.835],[-118.8633,34.8394],[-118.8814,34.864],[-118.8987,34.8796],[-118.9026,34.8853],[-118.9151,34.8912],[-118.9222,34.8987],[-118.9239,34.9062],[-118.9235,34.9131],[-118.9255,34.9217],[-118.9282,34.9248],[-118.9308,34.9324],[-118.9313,34.9417],[-118.9797,35.0946],[-118.9832,35.0955],[-119.1099,35.0945],[-119.1098,35.1554],[-119.1111,35.1596],[-119.11,35.1638],[-119.1099,35.1805],[-119.199,35.1802],[-119.1991,35.1944],[-119.2328,35.1944],[-119.2328,35.2364],[-119.235,35.2381],[-119.2527,35.2382],[-119.2527,35.2674],[-119.3007,35.2676],[-119.3098,35.2663],[-119.312,35.27],[-119.3199,35.2751],[-119.3263,35.2836],[-119.3328,35.2888],[-119.3385,35.2905],[-119.3409,35.2944],[-119.3498,35.3001],[-119.3554,35.3005],[-119.3682,35.3057],[-119.372,35.306],[-119.3783,35.3116],[-119.3867,35.3147],[-119.394,35.3211],[-119.4014,35.3222],[-119.4097,35.3255],[-119.4171,35.3245],[-119.4212,35.3301],[-119.434,35.3359],[-119.4513,35.3397],[-119.458,35.3459],[-119.4688,35.3468],[-119.4762,35.355],[-119.4898,35.3616],[-119.5045,35.3604],[-119.5136,35.3661],[-119.5229,35.3684],[-119.5313,35.376],[-119.5423,35.3893],[-119.5477,35.3918],[-119.5561,35.3928],[-119.5652,35.4011],[-119.5875,35.4083],[-119.5986,35.4154],[-119.604,35.4222],[-119.6115,35.4286],[-119.6327,35.4575],[-119.638,35.4667],[-119.6384,35.4787],[-119.6408,35.4873],[-119.6477,35.4993],[-119.8077,35.499],[-119.8095,35.4977],[-119.8067,35.4946],[-119.8229,35.4845],[-119.858,35.484],[-119.8803,35.4709],[-119.8844,35.4697],[-119.8852,35.467],[-119.8925,35.463],[-119.8944,35.4584],[-119.9016,35.4556],[-119.9046,35.4563],[-119.9048,35.4539],[-119.9068,35.4523],[-119.9109,35.4527],[-119.9123,35.4489],[-119.9151,35.4494],[-119.9156,35.4472]],[[-119.49192,35.13682],[-119.49178,35.14746],[-119.48298,35.14751],[-119.48271,35.15336],[-119.48504,35.15465],[-119.48496,35.15854],[-119.47403,35.15847],[-119.47395,35.15128],[-119.47292,35.15128],[-119.47289,35.14845],[-119.47202,35.14743],[-119.47204,35.14822],[-119.46961,35.14823],[-119.46962,35.14982],[-119.46659,35.14982],[-119.46659,35.15123],[-119.43839,35.15144],[-119.43849,35.15458],[-119.43504,35.15466],[-119.43503,35.15531],[-119.42973,35.15529],[-119.42978,35.15145],[-119.41187,35.15153],[-119.41182,35.13709],[-119.37601,35.13735],[-119.37601,35.12567],[-119.37776,35.12121],[-119.37872,35.11268],[-119.37623,35.10836],[-119.37616,35.09343],[-119.42027,35.09362],[-119.42072,35.10799],[-119.42957,35.10752],[-119.42953,35.11511],[-119.43907,35.11498],[-119.43897,35.12228],[-119.44758,35.12245],[-119.44728,35.13414],[-119.44823,35.13687],[-119.4786,35.13669],[-119.47826,35.1334],[-119.47543,35.13341],[-119.47595,35.13137],[-119.47316,35.1313],[-119.47309,35.1296],[-119.46444,35.12975],[-119.46414,35.12642],[-119.47784,35.12636],[-119.47782,35.12504],[-119.48269,35.12492],[-119.48269,35.12347],[-119.49085,35.12357],[-119.49085,35.12645],[-119.48753,35.12643],[-119.48854,35.13658],[-119.49192,35.13682]],[[-119.42055,35.04034],[-119.41914,35.04509],[-119.4148,35.04883],[-119.41164,35.0503],[-119.40692,35.05472],[-119.40874,35.05489],[-119.41231,35.05171],[-119.41226,35.05079],[-119.41387,35.05104],[-119.40966,35.05469],[-119.41388,35.05181],[-119.41398,35.05466],[-119.41091,35.05468],[-119.4105,35.06534],[-119.4006,35.06553],[-119.39871,35.06374],[-119.39299,35.06396],[-119.39278,35.05461],[-119.4047,35.05482],[-119.4066,35.05286],[-119.40659,35.05118],[-119.40221,35.0511],[-119.4023,35.04007],[-119.39784,35.04003],[-119.39786,35.03635],[-119.40675,35.03645],[-119.40673,35.04013],[-119.42055,35.04034]]]}},{"type":"Feature","properties":{"GEOID":"0602990180","NAME":"Bakersfield","COUNTY":"029"},"geometry":{"type":"MultiPolygon","coordinates":[[[[-119.12259775940713,35.44146956528011],[-119.12258797309116,35.44133663448813],[-119.08772,35.44106],[-119.07453,35.43104],[-119.07453,35.42696],[-119.10111,35.42704],[-119.10109,35.43067],[-119.11007,35.43073],[-119.11006,35.4316],[-119.11251,35.4317],[-119.11517,35.43168],[-119.11516,35.43069],[-119.11895,35.43067],[-119.11895,35.42704],[-119.10999,35.4271],[-119.10997393807169,35.41979985358467],[-119.10558931549375,35.41977522087356],[-119.10559,35.4198],[-119.09223,35.41971],[-119.09222998891599,35.41970016847706],[-119.0922,35.4197],[-119.0922,35.41083984350548],[-119.08583,35.41079],[-119.08583,35.40944],[-119.08334,35.40944],[-119.08334,35.40878],[-119.0922,35.40880993243243],[-119.0922,35.405179920724805],[-119.07456,35.40511],[-119.07462,35.41051],[-119.07897,35.41053],[-119.07897,35.41219],[-119.07222,35.41239],[-119.0722,35.41082],[-119.06781,35.41055],[-119.06737,35.40868],[-119.05864,35.40863],[-119.05873,35.41154],[-119.05694,35.41154],[-119.05669,35.4051],[-119.05003,35.40503],[-119.05737,35.39776],[-119.05962,35.39641],[-119.06068,35.39427],[-119.06232,35.39427],[-119.06795,35.39054],[-119.0699,35.39054],[-119.06989,35.39508],[-119.07324,35.39509],[-119.07323,35.39782],[-119.06545,35.39779],[-119.06541,35.40159],[-119.07438,35.4016],[-119.07433,35.39782],[-119.08327,35.39787],[-119.08327,35.39294],[-119.08551,35.39294],[-119.08551,35.3942],[-119.0922,35.39421997014925],[-119.0922,35.39239],[-119.09219,35.39056],[-119.08996,35.39056],[-119.08993,35.38876],[-119.09191,35.38878],[-119.09082,35.38341],[-119.08776,35.38355],[-119.08879,35.38498],[-119.08779,35.38498],[-119.08772,35.38364],[-119.08713,35.38538],[-119.08661,35.38537],[-119.08662,35.38339],[-119.07534,35.38335],[-119.08621,35.37906],[-119.0895,35.3797],[-119.08702,35.37723],[-119.08698,35.3688],[-119.07588,35.36876],[-119.07448,35.36924],[-119.07445,35.37238],[-119.07007,35.37236],[-119.07009,35.37609],[-119.07441,35.37639],[-119.06996,35.37637],[-119.06945,35.37783],[-119.06992,35.38214],[-119.06635,35.38213],[-119.06635,35.38332],[-119.06545,35.38332],[-119.06547,35.37963],[-119.06134,35.37961],[-119.06132,35.38316],[-119.05586,35.38314],[-119.05656,35.37876],[-119.05217,35.37867],[-119.05208,35.38343],[-119.05017,35.38342],[-119.05017,35.38587],[-119.04609,35.38586],[-119.04606,35.3847],[-119.04529,35.38469],[-119.04474,35.38695],[-119.04522,35.40083],[-119.04597,35.40323],[-119.04852,35.40604],[-119.04809,35.40669],[-119.04326,35.40322],[-119.0408,35.40305],[-119.03296,35.39717],[-119.02679,35.39975],[-119.02559,35.40172],[-119.01759,35.4057],[-119.01351,35.40957],[-119.01082,35.40841],[-119.00495,35.41152],[-118.99183,35.41361],[-118.98874,35.41234],[-118.98014,35.41517],[-118.97824,35.41683],[-118.97832,35.42495],[-118.97243,35.42788],[-118.96642,35.42776],[-118.95882,35.4258],[-118.9588,35.42393],[-118.97133,35.42571],[-118.9751,35.42199],[-118.97494,35.41068],[-118.96705,35.41419],[-118.95999,35.41583],[-118.94234,35.42493],[-118.93596,35.42664],[-118.93311,35.42919],[-118.93196,35.43301],[-118.93184,35.43773],[-118.93579,35.44434],[-118.93502,35.44651],[-118.93267,35.44786],[-118.93008,35.44772],[-118.92523,35.44568],[-118.92532,35.44407],[-118.9221,35.44412],[-118.92209,35.4416],[-118.90307,35.44179],[-118.90237,35.43731],[-118.90109,35.43546],[-118.89075,35.43122],[-118.88121,35.43153],[-118.8771,35.43264],[-118.87466,35.43557],[-118.87206,35.43546],[-118.86601,35.43329],[-118.86048,35.43266],[-118.85348,35.43318],[-118.8493,35.4283],[-118.84348,35.42682],[-118.83038,35.42661],[-118.83029,35.44212],[-118.81705,35.44219],[-118.81701,35.43585],[-118.81273,35.43372],[-118.80756,35.43763],[-118.80356,35.43913],[-118.79605,35.44028],[-118.7935,35.4421],[-118.79059,35.44207],[-118.7905,35.43481],[-118.77284,35.43464],[-118.77266,35.42743],[-118.808,35.42771],[-118.80789,35.39869],[-118.82562,35.39838],[-118.82561,35.38385],[-118.84346,35.38381],[-118.84326,35.39834],[-118.84914,35.39824],[-118.84918,35.40465],[-118.8507,35.4053],[-118.86097,35.40541],[-118.86096,35.40178],[-118.86538,35.40173],[-118.86539,35.4058],[-118.86102,35.40718],[-118.861,35.40903],[-118.86761,35.40901],[-118.8676,35.4054],[-118.86981,35.40537],[-118.86989,35.39811],[-118.86094,35.39815],[-118.86091,35.38364],[-118.87869,35.38359],[-118.87866,35.36902],[-118.89194,35.36902],[-118.89196,35.36539],[-118.89417,35.36538],[-118.89415,35.36902],[-118.89637,35.36901],[-118.89638,35.3836],[-118.90523,35.38353],[-118.90518,35.3793],[-118.90711,35.37803],[-118.90746,35.38352],[-118.90968,35.38352],[-118.90968,35.3817],[-118.91194,35.38169],[-118.91195,35.38031],[-118.91865,35.37982],[-118.91866,35.37621],[-118.9247,35.37615],[-118.92477,35.38339],[-118.93195,35.38332],[-118.93211,35.3797],[-118.93922,35.37962],[-118.93813,35.38246],[-118.939,35.38353],[-118.9371,35.3865],[-118.93197,35.38697],[-118.93206,35.39638],[-118.94537,35.39629],[-118.94533,35.39284],[-118.94814,35.39284],[-118.95093,35.3909],[-118.9586,35.39028],[-118.95841,35.38739],[-118.95925,35.38672],[-118.96305,35.38675],[-118.96302,35.38849],[-118.96483,35.38847],[-118.96522,35.38668],[-118.96744,35.38662],[-118.96744,35.38094],[-118.97409,35.38254],[-118.97371,35.3836],[-118.97187,35.38315],[-118.97164,35.38551],[-118.97275,35.38605],[-118.97254,35.38663],[-118.97036,35.38663],[-118.96967,35.39027],[-118.96746,35.39028],[-118.96747,35.39119],[-118.96525,35.39122],[-118.96526,35.39212],[-118.96968,35.39207],[-118.96968,35.3938],[-118.9756,35.39219],[-118.97522,35.39117],[-118.97632,35.39123],[-118.97633,35.39701],[-118.98124,35.39704],[-118.98121,35.39608],[-118.98367,35.3961],[-118.98368,35.39751],[-118.98516,35.39751],[-118.98532,35.40479],[-118.98975,35.40478],[-118.98983,35.40873],[-118.99859,35.40454],[-118.99897,35.39408],[-118.99626,35.39198],[-118.99401,35.39281],[-118.99595,35.39166],[-118.99651,35.39012],[-118.99048,35.39074],[-118.98997,35.39013],[-118.98515,35.39013],[-118.98499,35.38798],[-118.9834,35.3876],[-118.98447,35.38634],[-118.98512,35.38302],[-118.97621,35.38305],[-118.97631,35.37903],[-118.97541,35.37882],[-118.97631,35.37575],[-118.97512,35.37496],[-118.97626,35.37525],[-118.97634,35.37243],[-118.97515,35.37263],[-118.97517,35.37092],[-118.97635,35.37092],[-118.97637,35.36855],[-118.97826,35.36853],[-118.97957,35.3649],[-118.97859,35.36491],[-118.97859,35.36309],[-118.98038,35.36308],[-118.98094,35.36125],[-118.97461,35.36079],[-118.97638,35.36064],[-118.97637,35.35764],[-118.97195,35.35769],[-118.97195,35.35405],[-118.96752,35.35462],[-118.96752,35.35771],[-118.95865,35.35776],[-118.95865,35.35921],[-118.9559,35.35918],[-118.95589,35.35777],[-118.95422,35.35778],[-118.95423,35.35573],[-118.9498,35.35577],[-118.94978,35.35961],[-118.94644,35.35964],[-118.94643,35.36145],[-118.94089,35.36148],[-118.9409,35.35786],[-118.94531,35.3578],[-118.94533,35.35421],[-118.94963,35.35462],[-118.94943,35.35296],[-118.94104,35.35262],[-118.94092,35.3388],[-118.93647,35.33882],[-118.93647,35.33978],[-118.92757,35.33977],[-118.92758,35.33907],[-118.92424,35.33908],[-118.92431,35.33978],[-118.92327,35.33979],[-118.92329,35.33256],[-118.93648,35.33248],[-118.93654,35.32608],[-118.94094,35.32607],[-118.94094,35.32516],[-118.94986,35.32513],[-118.94986,35.2961166323667],[-118.9143,35.2961],[-118.9143,35.3253],[-118.8431,35.3256],[-118.8439,35.3744],[-118.8366,35.3783],[-118.828,35.3808],[-118.8182,35.3876],[-118.8167,35.3903],[-118.818,35.3936],[-118.8125,35.3978],[-118.8099,35.3966],[-118.8083,35.3943],[-118.8059,35.3941],[-118.8003,35.3981],[-118.7993,35.4001],[-118.792,35.4028],[-118.7867,35.4024],[-118.7777,35.3991],[-118.7733,35.402],[-118.7724,35.4004],[-118.7712,35.4027],[-118.7728,35.4049],[-118.7701,35.4061],[-118.7704,35.4072],[-118.7669,35.4075],[-118.7614,35.4119],[-118.7603,35.4119],[-118.7613,35.4079],[-118.7538,35.414],[-118.7513,35.4115],[-118.7467,35.4121],[-118.7482,35.417],[-118.7442,35.4183],[-118.7419,35.4222],[-118.7406,35.4229],[-118.7406,35.4213],[-118.7392,35.4211],[-118.7352,35.4221],[-118.7323,35.4257],[-118.7312,35.4244],[-118.7299,35.4249],[-118.7277,35.4304],[-118.7307,35.4343],[-118.7291,35.4349],[-118.7304,35.4394],[-118.7284,35.4382],[-118.7242,35.4407],[-118.7137,35.4421],[-118.7795,35.4428],[-118.7809,35.4567],[-118.7987,35.4569],[-118.7991,35.4712],[-118.7811,35.4713],[-118.7819,35.4829],[-118.7843,35.4796],[-118.7862,35.4793],[-118.7884,35.4814],[-118.7905,35.4812],[-118.7931,35.484],[-118.7983,35.4827],[-118.8047,35.4888],[-118.8112,35.4887],[-118.8148,35.487],[-118.8193,35.4899],[-118.8225,35.4901],[-118.8279,35.4875],[-118.8312,35.4894],[-118.8381,35.4861],[-118.8472,35.4861],[-118.8527,35.4938],[-118.8554,35.4956],[-118.8667,35.497],[-118.872,35.4969],[-118.8749,35.4907],[-118.8791,35.4902],[-118.8801,35.4868],[-118.8849,35.4853],[-118.8909,35.49],[-118.8935,35.4878],[-118.8924,35.4931],[-118.8911,35.4943],[-118.8937,35.4967],[-118.899,35.4985],[-118.9015,35.5015],[-118.9014,35.5067],[-118.9036,35.51],[-118.9009,35.5121],[-118.9006,35.515],[-118.9069,35.5143],[-118.9186,35.5188],[-118.9234,35.5166],[-118.9267,35.5169],[-118.9331,35.525],[-118.9396,35.527],[-118.9476,35.5247],[-118.9531,35.5299],[-118.9582,35.529],[-118.9655,35.53],[-118.9725,35.5285],[-118.9771,35.5323],[-118.9791,35.5362],[-118.9812,35.537],[-119.0009,35.5386],[-119.0061,35.5358],[-119.0106,35.5356],[-119.0167,35.5401],[-119.0395,35.5409],[-119.0475,35.5505],[-119.0544,35.5524],[-119.069,35.5501],[-119.0717,35.5516],[-119.0776,35.5492],[-119.0846,35.5521],[-119.0875,35.5513],[-119.0771,35.5065],[-119.0746,35.4736],[-119.0748,35.4414],[-119.09928808333899,35.441451230299876],[-119.09929,35.44142],[-119.10073,35.44142],[-119.10073,35.44145424686192],[-119.10948990291175,35.44147257301864],[-119.10949,35.44145],[-119.12259775940713,35.44146956528011]]],[[[-119.12180150021806,35.43065371129525],[-119.12154104734144,35.42711589305458],[-119.12104,35.42712],[-119.12105,35.43066],[-119.12180150021806,35.43065371129525]]],[[[-119.10995,35.43435],[-119.10108,35.4343],[-119.1011,35.43793],[-119.10993,35.43798],[-119.10995,35.43435]]],[[[-119.08968,35.34598],[-119.08886,35.34361],[-119.08395,35.34292],[-119.08394,35.34178],[-119.07448,35.3439],[-119.0738,35.35415],[-119.07903,35.35418],[-119.08421,35.34544],[-119.08968,35.34598]]],[[[-119.05673,35.34689],[-119.05594,35.3478],[-119.05563,35.34688],[-119.05348,35.34686],[-119.05339,35.34778],[-119.0532,35.34685],[-119.05198,35.34684],[-119.05178,35.34776],[-119.05138,35.34696],[-119.04798,35.34681],[-119.04935,35.34319],[-119.04792,35.3401],[-119.04621,35.34009],[-119.04621,35.34085],[-119.04023,35.3408],[-119.04018,35.34139],[-119.03913,35.34139],[-119.03913,35.34309],[-119.03672,35.34309],[-119.03646,35.34181],[-119.03511,35.34181],[-119.03632,35.34309],[-119.03451,35.34339],[-119.03399,35.34077],[-119.03568,35.3409],[-119.03568,35.34015],[-119.02952,35.34054],[-119.02785,35.33996],[-119.0256,35.34036],[-119.02564,35.34126],[-119.02341,35.34126],[-119.02344,35.3396],[-119.02119,35.33959],[-119.02119,35.34588],[-119.02227,35.3467],[-119.02119,35.3467],[-119.0212,35.35033],[-119.0234,35.35033],[-119.0234,35.35129],[-119.02745,35.35155],[-119.02796,35.35226],[-119.03016,35.35206],[-119.03014,35.35373],[-119.03671,35.35278],[-119.03662,35.35],[-119.03818,35.35026],[-119.03874,35.34853],[-119.04168,35.34865],[-119.04165,35.35079],[-119.04011,35.35126],[-119.04339,35.35206],[-119.04339,35.35077],[-119.04395,35.35078],[-119.04506,35.35417],[-119.05228,35.3542],[-119.05227,35.35355],[-119.05477,35.35306],[-119.0567,35.35051],[-119.05673,35.34689]]],[[[-119.02092,35.33844],[-119.02091,35.33581],[-119.02032,35.33581],[-119.02076,35.3323],[-119.01196,35.33293],[-119.01198,35.33212],[-119.01422,35.33211],[-119.01262,35.32968],[-119.00987,35.33231],[-119.00303,35.33231],[-119.00302,35.33946],[-119.02091,35.33944],[-119.02092,35.33844]]],[[[-119.00982,35.31435],[-119.00734,35.31404],[-119.00734,35.31223],[-119.00324,35.31223],[-119.00526,35.31182],[-119.00527,35.31042],[-119.00305,35.31042],[-119.00306,35.29955],[-118.99645,35.29955],[-118.99644,35.29881],[-118.99428,35.29879],[-118.99423,35.29955],[-118.99104,35.29955],[-118.99152,35.3041],[-118.99012,35.31043],[-118.99193,35.31042],[-118.99428,35.31182],[-118.99424,35.31042],[-118.99865,35.31042],[-118.99864,35.31405],[-119.00285,35.31405],[-119.00285,35.31541],[-119.00084,35.31539],[-119.00086,35.31671],[-119.00285,35.31672],[-119.00285,35.31895],[-119.00502,35.32015],[-119.00636,35.31586],[-119.00747,35.31586],[-119.0068,35.31752],[-119.00747,35.31752],[-119.00747,35.31977],[-119.00849,35.31977],[-119.00849,35.31752],[-119.00968,35.31752],[-119.00982,35.31435]]],[[[-119.00918,35.3317],[-119.00434,35.32566],[-119.00303,35.32502],[-119.00303,35.3318],[-119.00918,35.3317]]],[[[-119.00746,35.34309],[-119.00301,35.34309],[-119.00302,35.33946],[-118.98548,35.33947],[-118.98427,35.34001],[-118.98431,35.33947],[-118.98103,35.3395],[-118.98094,35.34672],[-118.97648,35.34677],[-118.97646,35.34859],[-118.982,35.3485],[-118.98203,35.3476],[-118.98115,35.34761],[-118.9814,35.34672],[-118.98509,35.34672],[-118.98501,35.35198],[-118.98926,35.35223],[-118.99494,35.34679],[-118.98696,35.34672],[-118.987,35.34444],[-118.98541,35.34422],[-118.987,35.34422],[-118.98702,35.34308],[-118.99204,35.34309],[-118.99539,35.34614],[-118.99925,35.34769],[-119.00301,35.34756],[-119.00301,35.34671],[-119.00741,35.34671],[-119.00746,35.34309]]],[[[-118.98543,35.31259],[-118.98539,35.29955],[-118.97651,35.29958],[-118.97653,35.31056],[-118.98096,35.31053],[-118.98099,35.31408],[-118.98543,35.31406],[-118.98543,35.31288],[-118.9841,35.31288],[-118.98543,35.31259]]]]}},{"type":"Feature","properties":{"GEOID":"0602991520","NAME":"Lake Isabella","COUNTY":"029"},"geometry":{"type":"Polygon","coordinates":[[[-119.0901,35.5868],[-119.0879,35.5775],[-119.0875,35.5513],[-119.0833,35.552],[-119.0776,35.5492],[-119.0717,35.5516],[-119.069,35.5501],[-119.0544,35.5524],[-119.0475,35.5505],[-119.0395,35.5409],[-119.0167,35.5401],[-119.0106,35.5356],[-119.0061,35.5358],[-119.0009,35.5386],[-118.9812,35.537],[-118.9791,35.5362],[-118.9771,35.5323],[-118.9725,35.5285],[-118.9655,35.53],[-118.9582,35.529],[-118.9531,35.5299],[-118.9476,35.5247],[-118.9396,35.527],[-118.9331,35.525],[-118.9267,35.5169],[-118.9234,35.5166],[-118.9186,35.5188],[-118.9069,35.5143],[-118.9006,35.515],[-118.9009,35.5121],[-118.9036,35.51],[-118.9014,35.5067],[-118.9015,35.5015],[-118.899,35.4985],[-118.8937,35.4967],[-118.8911,35.4943],[-118.8924,35.4931],[-118.8935,35.4878],[-118.8909,35.49],[-118.8849,35.4853],[-118.8801,35.4868],[-118.8791,35.4902],[-118.8749,35.4907],[-118.872,35.4969],[-118.8667,35.497],[-118.8554,35.4956],[-118.8527,35.4938],[-118.8472,35.4861],[-118.8381,35.4861],[-118.8312,35.4894],[-118.8279,35.4875],[-118.8225,35.4901],[-118.8193,35.4899],[-118.8148,35.487],[-118.8112,35.4887],[-118.8047,35.4888],[-118.7983,35.4827],[-118.7931,35.484],[-118.7905,35.4812],[-118.7884,35.4814],[-118.7862,35.4793],[-118.7843,35.4796],[-118.7819,35.4829],[-118.7811,35.4713],[-118.7991,35.4712],[-118.7987,35.4569],[-118.7809,35.4567],[-118.7795,35.4428],[-118.7275,35.4418],[-118.7139,35.4427],[-118.7242,35.4407],[-118.7284,35.4382],[-118.7304,35.4394],[-118.7291,35.4349],[-118.7307,35.4343],[-118.7277,35.4304],[-118.7299,35.4249],[-118.7312,35.4244],[-118.7323,35.4257],[-118.7352,35.4221],[-118.7392,35.4211],[-118.7406,35.4213],[-118.7406,35.4229],[-118.7419,35.4222],[-118.7442,35.4183],[-118.7482,35.417],[-118.7467,35.4121],[-118.7513,35.4115],[-118.7538,35.414],[-118.7613,35.4079],[-118.7603,35.4119],[-118.7614,35.4119],[-118.7669,35.4075],[-118.7704,35.4072],[-118.7701,35.4061],[-118.7728,35.4049],[-118.7712,35.4027],[-118.7724,35.4004],[-118.7733,35.402],[-118.7777,35.3991],[-118.7867,35.4024],[-118.792,35.4028],[-118.7993,35.4001],[-118.8003,35.3981],[-118.8059,35.3941],[-118.8083,35.3943],[-118.8099,35.3966],[-118.8125,35.3978],[-118.818,35.3936],[-118.8167,35.3903],[-118.8182,35.3876],[-118.828,35.3808],[-118.8366,35.3783],[-118.8439,35.3744],[-118.8432,35.3382],[-118.804,35.3285],[-118.788,35.3159],[-118.7816,35.3202],[-118.7805,35.3164],[-118.7755,35.3198],[-118.7725,35.32],[-118.7707,35.3213],[-118.7707,35.326],[-118.7675,35.3286],[-118.7595,35.3297],[-118.7146,35.3235],[-118.7057,35.3194],[-118.6998,35.3129],[-118.6915,35.3117],[-118.6725,35.3023],[-118.67,35.3001],[-118.6684,35.296],[-118.6563,35.2977],[-118.6495,35.2966],[-118.6458,35.2939],[-118.6335,35.2895],[-118.6173,35.2935],[-118.6099,35.2972],[-118.6062,35.297],[-118.6008,35.3003],[-118.5913,35.2991],[-118.5912,35.3017],[-118.5837,35.3048],[-118.5874,35.311],[-118.5852,35.3152],[-118.5917,35.3219],[-118.5895,35.332],[-118.5847,35.3374],[-118.5869,35.3306],[-118.5828,35.332],[-118.5851,35.3327],[-118.5791,35.3391],[-118.577,35.3388],[-118.5778,35.3377],[-118.5754,35.3359],[-118.5757,35.3379],[-118.5713,35.343],[-118.5725,35.3503],[-118.5706,35.3489],[-118.5679,35.3536],[-118.5626,35.3554],[-118.5626,35.3565],[-118.5585,35.3571],[-118.5524,35.3609],[-118.5531,35.3622],[-118.5521,35.3628],[-118.554,35.3651],[-118.5575,35.3659],[-118.5588,35.3696],[-118.5579,35.3731],[-118.5596,35.3754],[-118.5549,35.3834],[-118.5455,35.3816],[-118.5393,35.3841],[-118.5345,35.3863],[-118.5343,35.389],[-118.5206,35.3982],[-118.5204,35.4019],[-118.5098,35.402],[-118.5022,35.4059],[-118.4892,35.4054],[-118.4601,35.398],[-118.4482,35.3968],[-118.4434,35.3977],[-118.4377,35.3959],[-118.4211,35.385],[-118.4179,35.3851],[-118.4115,35.3826],[-118.4058,35.3871],[-118.4103,35.3902],[-118.4114,35.3956],[-118.4147,35.3987],[-118.4149,35.4047],[-118.4139,35.4047],[-118.4136,35.4086],[-118.4121,35.4105],[-118.4157,35.4142],[-118.4188,35.416],[-118.4202,35.4155],[-118.4218,35.42],[-118.4207,35.4227],[-118.423,35.4245],[-118.4148,35.4237],[-118.4123,35.4255],[-118.4131,35.4286],[-118.4081,35.4287],[-118.4066,35.431],[-118.4037,35.4294],[-118.3974,35.4343],[-118.3938,35.4342],[-118.3923,35.4392],[-118.3906,35.4403],[-118.3907,35.4464],[-118.3808,35.4441],[-118.3772,35.448],[-118.3764,35.452],[-118.3742,35.4532],[-118.3709,35.4523],[-118.3679,35.454],[-118.3644,35.4544],[-118.3653,35.4533],[-118.3638,35.4534],[-118.3602,35.4561],[-118.3576,35.4553],[-118.3567,35.4568],[-118.3584,35.4575],[-118.3576,35.4586],[-118.346,35.4597],[-118.3425,35.456],[-118.3425,35.4532],[-118.3386,35.4506],[-118.3383,35.4485],[-118.3325,35.4433],[-118.3262,35.444],[-118.324,35.4403],[-118.3245,35.4389],[-118.3208,35.4368],[-118.3164,35.4305],[-118.3066,35.4073],[-118.3087,35.4022],[-118.3071,35.4016],[-118.3089,35.4011],[-118.3073,35.3997],[-118.3084,35.3986],[-118.3082,35.3954],[-118.3068,35.3936],[-118.3032,35.3941],[-118.3039,35.3909],[-118.2987,35.3901],[-118.2986,35.3862],[-118.2939,35.3833],[-118.2924,35.3786],[-118.2931,35.3774],[-118.2906,35.3803],[-118.2876,35.3804],[-118.2877,35.3795],[-118.2863,35.3807],[-118.2863,35.3786],[-118.2849,35.3796],[-118.285,35.3772],[-118.2841,35.3778],[-118.2841,35.3765],[-118.2807,35.3739],[-118.2805,35.3752],[-118.2675,35.3705],[-118.264,35.3664],[-118.2535,35.3635],[-118.2435,35.3571],[-118.2375,35.3599],[-118.232,35.3595],[-118.2292,35.3606],[-118.228,35.3687],[-118.2234,35.3777],[-118.2159,35.3779],[-118.1969,35.3836],[-118.1882,35.3845],[-118.1781,35.3825],[-118.1689,35.3781],[-118.1632,35.3727],[-118.1586,35.3713],[-118.1458,35.3701],[-118.1417,35.3709],[-118.1425,35.3744],[-118.1282,35.374],[-118.1213,35.3759],[-118.1187,35.3747],[-118.1125,35.3654],[-118.1129,35.3621],[-118.1153,35.3596],[-118.1159,35.355],[-118.1132,35.3504],[-118.1118,35.343],[-118.11,35.341],[-118.111,35.3387],[-118.1103,35.336],[-118.1062,35.3251],[-118.1077,35.3246],[-118.1076,35.3225],[-118.1109,35.3235],[-118.1114,35.3189],[-118.1032,35.3103],[-118.0988,35.3091],[-118.0833,35.3176],[-118.0781,35.3177],[-118.0738,35.3159],[-118.0594,35.3141],[-118.0542,35.3155],[-118.0447,35.3155],[-118.0452,35.3238],[-118.0378,35.3463],[-118.0435,35.3587],[-118.0391,35.3627],[-118.0381,35.367],[-118.0284,35.3768],[-118.0267,35.3824],[-118.0274,35.3857],[-118.0231,35.3965],[-118.023,35.4046],[-118.0247,35.4062],[-118.0239,35.4092],[-118.0259,35.4193],[-118.0241,35.4218],[-118.0121,35.427],[-117.9954,35.4544],[-117.9986,35.4624],[-118.0132,35.4788],[-118.0135,35.482],[-118.011,35.4856],[-118.0112,35.4905],[-118.0203,35.5053],[-118.0219,35.5173],[-118.019,35.5231],[-118.0083,35.5334],[-117.998,35.5372],[-117.995,35.5455],[-117.9927,35.548],[-117.9836,35.5507],[-117.9801,35.55],[-117.963,35.5561],[-117.9427,35.5679],[-117.9328,35.5774],[-117.9293,35.5845],[-117.9215,35.5925],[-117.9226,35.5955],[-117.9168,35.5972],[-117.9134,35.6089],[-117.9105,35.6119],[-117.9034,35.6285],[-117.8963,35.6365],[-117.8975,35.6377],[-117.8948,35.6423],[-117.8944,35.6478],[-117.8877,35.6545],[-117.8863,35.6594],[-117.8879,35.6627],[-117.8931,35.6673],[-117.9028,35.6717],[-117.9083,35.6761],[-117.9019,35.7018],[-117.9106,35.7083],[-117.9078,35.7256],[-117.91,35.7291],[-117.9097,35.7357],[-117.9072,35.7366],[-117.9051,35.74],[-117.9087,35.7428],[-117.9082,35.7468],[-117.9151,35.7492],[-117.9067,35.7557],[-117.9079,35.7591],[-117.9137,35.7638],[-117.9149,35.7747],[-117.9139,35.7789],[-117.9115,35.7797],[-117.9071,35.787],[-117.9019,35.7927],[-117.9036,35.7984],[-117.9244,35.7984],[-117.923,35.7867],[-117.9384,35.7866],[-118.0677,35.7915],[-118.361,35.7903],[-118.4672,35.7925],[-118.5708,35.7897],[-119.0534,35.7908],[-119.0528,35.75],[-119.0583,35.7384],[-119.0649,35.7186],[-119.0626,35.7032],[-119.063,35.699],[-119.0693,35.6802],[-119.0757,35.6667],[-119.0808,35.6441],[-119.0849,35.6343],[-119.087,35.6056],[-119.0901,35.5868]]]}},{"type":"Feature","properties":{"GEOID":"0602993570","NAME":"Wasco","COUNTY":"029"},"geometry":{"type":"Polygon","coordinates":[[[-120.1944,35.7894],[-120.194,35.6144],[-120.0862,35.6144],[-120.0868,35.5264],[-120.0688,35.5266],[-120.069,35.5129],[-120.051,35.5131],[-120.0509,35.4982],[-120.033,35.4983],[-120.0329,35.4835],[-120.0143,35.4834],[-120.0151,35.4688],[-119.9974,35.4687],[-119.9931,35.4543],[-119.9932,35.4395],[-119.9137,35.4393],[-119.9132,35.4437],[-119.9156,35.4467],[-119.9151,35.4494],[-119.9124,35.4487],[-119.9109,35.4528],[-119.9067,35.4524],[-119.9048,35.4539],[-119.9046,35.4563],[-119.9016,35.4556],[-119.8944,35.4584],[-119.8925,35.463],[-119.8852,35.467],[-119.8844,35.4697],[-119.8803,35.4709],[-119.858,35.484],[-119.8229,35.4845],[-119.8067,35.4946],[-119.8095,35.4977],[-119.8075,35.4991],[-119.5466,35.4993],[-119.5283,35.5008],[-119.492,35.5013],[-119.4747,35.5004],[-119.4746,35.5286],[-119.3321,35.529],[-119.3320147505298,35.55372234635833],[-119.33616,35.5537],[-119.33606,35.57265],[-119.34947,35.57251],[-119.34944,35.576],[-119.35831,35.57599],[-119.35819,35.59],[-119.35919,35.59002],[-119.35917,35.59065],[-119.36707,35.59063],[-119.36704,35.5934],[-119.38521,35.5934],[-119.38485,35.58697],[-119.39356,35.58689],[-119.39357,35.58777],[-119.39488,35.58765],[-119.39501,35.57957],[-119.42053,35.57969],[-119.42044,35.58188],[-119.42025,35.60147],[-119.40247,35.60149],[-119.40239,35.61596],[-119.38463,35.61598],[-119.38468,35.61037],[-119.38107,35.61034],[-119.38104,35.60151],[-119.38474,35.6015],[-119.38486,35.59443],[-119.36725,35.5944],[-119.36692,35.60877],[-119.34041,35.60879],[-119.34027,35.61603],[-119.33193,35.61576],[-119.3319,35.60873],[-119.32569,35.6088],[-119.32583,35.60253],[-119.32661,35.6025],[-119.3266,35.60153],[-119.32281,35.60155],[-119.32295,35.58681],[-119.33025,35.58684],[-119.33042,35.58455],[-119.33186,35.58387],[-119.33233,35.55873],[-119.33082,35.55859],[-119.33056811262483,35.558002666456936],[-119.2783,35.5581],[-119.2796,35.5623],[-119.2844,35.5673],[-119.2811,35.5701],[-119.2816,35.5771],[-119.2783,35.5797],[-119.2745,35.5911],[-119.2712,35.593],[-119.2699,35.5957],[-119.2664,35.5968],[-119.2627,35.6018],[-119.2769,35.6017],[-119.2768,35.6163],[-119.3313,35.616],[-119.3304,35.7174],[-119.342,35.7542],[-119.3552,35.7903],[-119.7338,35.7889],[-120.1944,35.7894]]]}},{"type":"Feature","properties":{"GEOID":"0602993000","NAME":"Shafter","COUNTY":"029"},"geometry":{"type":"MultiPolygon","coordinates":[[[[-119.4749,35.4455],[-119.4742,35.4424],[-119.35022022230429,35.44208958493316],[-119.35026,35.45633],[-119.34139,35.45629],[-119.3415092639428,35.44206777482209],[-119.24347782464012,35.44182232805368],[-119.24293,35.48522],[-119.26071,35.48527],[-119.26067,35.48879],[-119.26935,35.48876],[-119.26943,35.4853],[-119.28213,35.48534],[-119.28288,35.48598],[-119.2829,35.48897],[-119.28508,35.48897],[-119.28513,35.48534],[-119.29045,35.48536],[-119.29178,35.48609],[-119.29173,35.48895],[-119.28955,35.48899],[-119.28949,35.49072],[-119.28729,35.49073],[-119.28727,35.4926],[-119.30502,35.49265],[-119.30502,35.49468],[-119.305,35.49993],[-119.29364,35.49989],[-119.29361,35.50353],[-119.29164,35.50342],[-119.29146,35.51438],[-119.29595,35.5144],[-119.2958,35.52139],[-119.28722,35.51437],[-119.27814,35.51435],[-119.278,35.52155],[-119.2759,35.52154],[-119.2759,35.51786],[-119.26917,35.51786],[-119.26909,35.52152],[-119.26477,35.52151],[-119.26477,35.51785],[-119.25557,35.51792],[-119.25554,35.51428],[-119.24201,35.51423],[-119.23993,35.51033],[-119.23524,35.50696],[-119.21435,35.50685],[-119.21425,35.51033],[-119.20518,35.5103],[-119.2052,35.51429],[-119.18779,35.51401],[-119.18875,35.51516],[-119.19538,35.51841],[-119.20335,35.525],[-119.2078,35.52979],[-119.20879,35.53301],[-119.20473,35.53298],[-119.20468,35.53677],[-119.19274,35.53677],[-119.19118,35.53291],[-119.18834,35.52983],[-119.1885,35.5275],[-119.18734,35.52414],[-119.18047,35.51427],[-119.15195,35.51425],[-119.1525,35.49961],[-119.14681,35.49959],[-119.13823,35.49231],[-119.15263,35.49235],[-119.15271,35.48986],[-119.11132,35.45855],[-119.10253,35.44683],[-119.09912,35.44419],[-119.09928746469072,35.441461310627666],[-119.0748,35.4414],[-119.0747,35.4738],[-119.0775,35.5098],[-119.0875,35.5513],[-119.0925,35.5484],[-119.1016,35.5479],[-119.1213,35.5523],[-119.1299,35.5577],[-119.1428,35.5578],[-119.1512,35.5626],[-119.1512,35.5587],[-119.33056934457883,35.55800553904201],[-119.32874,35.55374],[-119.3320147505298,35.55372234635833],[-119.3321,35.529],[-119.4746,35.5286],[-119.4749,35.4455]],[[-119.29207,35.46756],[-119.29202,35.47083],[-119.27869,35.4708],[-119.27871,35.46748],[-119.29207,35.46756]]],[[[-119.10948984148436,35.44148685488604],[-119.10073,35.441464922383574],[-119.10073,35.4437],[-119.10513,35.44372],[-119.10512,35.44608],[-119.10767,35.44611],[-119.10947,35.4461],[-119.10948984148436,35.44148685488604]]]]}},{"type":"Feature","properties":{"GEOID":"0602990800","NAME":"East Kern","COUNTY":"029"},"geometry":{"type":"MultiPolygon","coordinates":[[[[-118.5879,34.8338],[-118.5876,34.8183],[-118.2041,34.8202],[-117.9877,34.8226],[-117.769,34.8233],[-117.6322,34.8223],[-117.6333,35.0976],[-117.6309,35.0976],[-117.6311,35.3617],[-117.6325,35.4056],[-117.6313,35.4196],[-117.6337,35.4345],[-117.6337,35.4514],[-117.6302,35.4514],[-117.6297,35.4662],[-117.6301,35.5643],[-117.6346,35.5643],[-117.63444933986834,35.6081420983144],[-117.6352,35.60815],[-117.63615,35.60438],[-117.63792,35.60438],[-117.63886,35.60293],[-117.63995,35.60294],[-117.63997,35.60434],[-117.64347,35.60433],[-117.64357,35.61155],[-117.64824,35.61162],[-117.65182,35.60897],[-117.65582,35.60806],[-117.65467,35.60807],[-117.65473,35.60563],[-117.65704,35.60567],[-117.65697,35.60805],[-117.6613,35.60804],[-117.66145,35.60072],[-117.67046,35.60081],[-117.67008,35.57884],[-117.65206,35.57866],[-117.65239,35.5641],[-117.68812,35.56398],[-117.68786,35.5786],[-117.67893,35.5787],[-117.67942,35.58614],[-117.6881,35.58613],[-117.68822,35.58784],[-117.68371,35.5879],[-117.68388,35.59161],[-117.67933,35.59161],[-117.67938,35.59694],[-117.67491,35.59701],[-117.67487,35.60069],[-117.67989,35.60072],[-117.68835,35.59523],[-117.68845,35.59342],[-117.70589,35.5934],[-117.7058,35.59704],[-117.697,35.59707],[-117.6968,35.60783],[-117.70562,35.60787],[-117.70564,35.61252],[-117.70559,35.61519],[-117.69674,35.61521],[-117.69668,35.62251],[-117.70556,35.62253],[-117.70555,35.62985],[-117.69884,35.62988],[-117.69879,35.63348],[-117.69653,35.63349],[-117.69659,35.65187],[-117.67005,35.6518],[-117.67022,35.68099],[-117.65219969303129,35.68088932789403],[-117.6521,35.7099],[-117.6343,35.7098],[-117.6343,35.7977],[-117.9036,35.7984],[-117.9019,35.7927],[-117.9071,35.787],[-117.9115,35.7797],[-117.9139,35.7789],[-117.9149,35.7747],[-117.9137,35.7638],[-117.9079,35.7591],[-117.9067,35.7557],[-117.9151,35.7492],[-117.9082,35.7468],[-117.9087,35.7428],[-117.9051,35.74],[-117.9072,35.7366],[-117.9097,35.7357],[-117.91,35.7291],[-117.9078,35.7256],[-117.9106,35.7083],[-117.9019,35.7018],[-117.9083,35.6761],[-117.9028,35.6717],[-117.8931,35.6673],[-117.8879,35.6627],[-117.8865,35.6582],[-117.8877,35.6545],[-117.8944,35.6478],[-117.8948,35.6423],[-117.8975,35.6377],[-117.8963,35.6365],[-117.9034,35.6285],[-117.9105,35.6119],[-117.9134,35.6089],[-117.9168,35.5972],[-117.9226,35.5955],[-117.9215,35.5925],[-117.9293,35.5845],[-117.9328,35.5774],[-117.9427,35.5679],[-117.963,35.5561],[-117.9801,35.55],[-117.9836,35.5507],[-117.9927,35.548],[-117.995,35.5455],[-117.998,35.5372],[-118.0083,35.5334],[-118.019,35.5231],[-118.0219,35.5173],[-118.0203,35.5053],[-118.0112,35.4905],[-118.011,35.4856],[-118.0135,35.482],[-118.0132,35.4788],[-117.9986,35.4624],[-117.9954,35.4544],[-118.0121,35.427],[-118.0241,35.4218],[-118.0259,35.4193],[-118.0239,35.4092],[-118.0247,35.4062],[-118.023,35.4046],[-118.0232,35.396],[-118.0274,35.3857],[-118.0267,35.3824],[-118.0284,35.3768],[-118.0381,35.367],[-118.0391,35.3627],[-118.0435,35.3587],[-118.0378,35.3463],[-118.0452,35.3238],[-118.0447,35.3153],[-118.0469,35.3078],[-118.0498,35.3044],[-118.0559,35.2916],[-118.0643,35.2865],[-118.0689,35.2709],[-118.0734,35.2663],[-118.0783,35.2561],[-118.0877,35.2491],[-118.0852,35.238],[-118.0872,35.2184],[-118.0953,35.212],[-118.0971,35.207],[-118.1041,35.2009],[-118.1052,35.1978],[-118.1088,35.1955],[-118.112,35.1956],[-118.1146,35.1927],[-118.1184,35.1913],[-118.126,35.1805],[-118.1301,35.1788],[-118.135,35.1728],[-118.1458,35.1644],[-118.1465,35.1621],[-118.1521,35.1571],[-118.1542,35.1526],[-118.1603,35.1472],[-118.1606,35.1418],[-118.1705,35.1351],[-118.173,35.1301],[-118.1831,35.1187],[-118.1839,35.1124],[-118.1896,35.1073],[-118.1918,35.1002],[-118.1971,35.0915],[-118.2028,35.0851],[-118.2035,35.0826],[-118.2115,35.0765],[-118.2166,35.0702],[-118.2303,35.0594],[-118.2421,35.043],[-118.2467,35.04],[-118.2531,35.0331],[-118.254,35.0205],[-118.2564,35.0173],[-118.2562,35.0123],[-118.2594,35.006],[-118.2695,34.9988],[-118.2909,34.9887],[-118.302,34.9776],[-118.3147,34.97],[-118.3183,34.965],[-118.3233,34.9614],[-118.3282,34.9531],[-118.3421,34.9383],[-118.3515,34.9335],[-118.3578,34.9331],[-118.3634,34.9278],[-118.3735,34.9237],[-118.3797,34.9226],[-118.3949,34.9144],[-118.4096,34.9093],[-118.4206,34.9085],[-118.431,34.9048],[-118.4437,34.9021],[-118.4472,34.9031],[-118.4545,34.9004],[-118.4557,34.8978],[-118.4514,34.896],[-118.4473,34.8905],[-118.4469,34.8848],[-118.4898,34.8562],[-118.4942,34.8552],[-118.5018,34.8571],[-118.5099,34.8563],[-118.5164,34.8578],[-118.5179,34.8568],[-118.5181,34.8545],[-118.5286,34.8539],[-118.5374,34.8497],[-118.544,34.8509],[-118.5535,34.8495],[-118.5566,34.8442],[-118.5612,34.8412],[-118.5726,34.8372],[-118.5781,34.8372],[-118.5879,34.8338]],[[-118.13462,35.11104],[-118.13406,35.11183],[-118.0779,35.18378],[-117.95019,35.18425],[-117.95026,35.16965],[-117.89744,35.1697],[-117.89749,35.18446],[-117.87982,35.18457],[-117.87983,35.19907],[-117.8626,35.19926],[-117.86243,35.21388],[-117.84453,35.21386],[-117.84472,35.24296],[-117.78745,35.24321],[-117.78251,35.24296],[-117.78252,35.24185],[-117.77362,35.24718],[-117.77358,35.25018],[-117.76907,35.25024],[-117.769,35.25388],[-117.76242,35.25391],[-117.76231,35.25766],[-117.75637,35.25755],[-117.75464,35.25858],[-117.75643,35.26593],[-117.74763,35.26587],[-117.74649,35.26348],[-117.73114,35.27267],[-117.72516,35.27262],[-117.72521,35.27193],[-117.7208,35.27199],[-117.72085,35.27261],[-117.69409,35.27285],[-117.694,35.27518],[-117.68981,35.27486],[-117.68785,35.27272],[-117.68466,35.27745],[-117.68467,35.27398],[-117.65828,35.27369],[-117.65825,35.27489],[-117.65468,35.27492],[-117.65164,35.2746],[-117.65157,35.27218],[-117.64909,35.27221],[-117.64933,35.27386],[-117.6313,35.27418],[-117.63127,35.15592],[-117.64963,35.15689],[-117.68525,35.15651],[-117.6843,35.14218],[-117.71968,35.14133],[-117.71987,35.15587],[-117.70288,35.15624],[-117.70219,35.17058],[-117.73807,35.17038],[-117.73774,35.14118],[-117.7557,35.14108],[-117.7557,35.12655],[-117.77274,35.12646],[-117.77283,35.13381],[-117.79048,35.13373],[-117.79078,35.15562],[-117.80844,35.15563],[-117.80834,35.14087],[-117.82589,35.14097],[-117.82584,35.12638],[-117.84394,35.12622],[-117.84415,35.14084],[-117.91454,35.14071],[-117.91421,35.11153],[-117.93193,35.1115],[-117.93181,35.09688],[-117.93524,35.09687],[-117.93526,35.08772],[-117.95319,35.0875],[-117.95308,35.07293],[-117.93527,35.0727],[-117.93533,35.0581],[-117.95297,35.05831],[-117.95256,35.0434],[-117.97085,35.04333],[-117.97041,35.02821],[-117.9526,35.02854],[-117.95242,35.01441],[-117.96461,35.01528],[-117.9721,35.01416],[-117.97834,35.01622],[-117.9888,35.01694],[-117.98878,35.01455],[-118.00663,35.01452],[-118.00654,35.0182],[-118.01557,35.01882],[-118.01557,35.0148],[-118.04253,35.01472],[-118.04267,35.02192],[-118.05173,35.02204],[-118.05173,35.02339],[-118.06296,35.02541],[-118.06279,35.09641],[-118.05701,35.0964],[-118.05677,35.11094],[-118.11003,35.11047],[-118.11056,35.11099],[-118.13462,35.11104]]],[[[-117.63435,35.65157],[-117.63432998069764,35.642875616986075],[-117.63430010270811,35.65157011194008],[-117.63435,35.65157]]],[[[-117.6209775,35.6516],[-117.6165,35.6516],[-117.6165,35.6807],[-117.62013016853932,35.68071016853933],[-117.61652,35.68069],[-117.61652,35.65161],[-117.6209775,35.6516]]]]}},{"type":"Feature","properties":{"GEOID":"0602990655","NAME":"Delano-McFarland","COUNTY":"029"},"geometry":{"type":"MultiPolygon","coordinates":[[[[-119.3552,35.7903],[-119.342,35.7542],[-119.3304,35.7174],[-119.3313,35.616],[-119.2768,35.6163],[-119.2769,35.6017],[-119.2627,35.6018],[-119.2664,35.5968],[-119.2699,35.5957],[-119.2712,35.593],[-119.2745,35.5911],[-119.2783,35.5797],[-119.2816,35.5771],[-119.2811,35.5701],[-119.2844,35.5673],[-119.2796,35.5623],[-119.2783,35.5581],[-119.1512,35.5587],[-119.1512,35.5626],[-119.1428,35.5578],[-119.1299,35.5577],[-119.1213,35.5523],[-119.1016,35.5479],[-119.0925,35.5484],[-119.0875,35.5513],[-119.0879,35.5775],[-119.0901,35.5868],[-119.087,35.6056],[-119.0852,35.6327],[-119.0807,35.6444],[-119.0798,35.6522],[-119.0757,35.6667],[-119.069,35.681],[-119.0628,35.6998],[-119.0649,35.7186],[-119.0585,35.7379],[-119.0527,35.7508],[-119.0534,35.7908],[-119.3552,35.7903]],[[-119.33383,35.76124],[-119.32972,35.76125],[-119.32983,35.75407],[-119.33375,35.75404],[-119.33383,35.76124]],[[-119.33006,35.73954],[-119.32983,35.75394],[-119.31638,35.75398],[-119.31635,35.74674],[-119.32072,35.74678],[-119.32078,35.73951],[-119.33006,35.73954]],[[-119.32991,35.77576],[-119.32097,35.7758],[-119.32119,35.79031],[-119.30367,35.79035],[-119.30358,35.77587],[-119.28076,35.77601],[-119.28056,35.78328],[-119.28626,35.78349],[-119.28598,35.79034],[-119.20551,35.79049],[-119.20539,35.7831],[-119.22312,35.78318],[-119.22317,35.76867],[-119.21415,35.76865],[-119.2141,35.76137],[-119.21864,35.76137],[-119.21865,35.76354],[-119.22318,35.76362],[-119.22315,35.75747],[-119.23639,35.75753],[-119.23627,35.75104],[-119.23407,35.74691],[-119.22322,35.74694],[-119.22308,35.73969],[-119.22312,35.7252],[-119.23731,35.72509],[-119.23568,35.71806],[-119.23738,35.71806],[-119.23588,35.71424],[-119.24082,35.71425],[-119.24095,35.73235],[-119.24945,35.73231],[-119.24949,35.73777],[-119.24727,35.73778],[-119.24728,35.7396],[-119.2418,35.73963],[-119.24226,35.74135],[-119.2449,35.74085],[-119.24491,35.74142],[-119.24734,35.74142],[-119.24733,35.74338],[-119.26678,35.74331],[-119.26682,35.74697],[-119.2584,35.74699],[-119.25847,35.76138],[-119.27628,35.76136],[-119.27629,35.765],[-119.27182,35.765],[-119.27185,35.77454],[-119.27631,35.77455],[-119.27631,35.77564],[-119.28522,35.77566],[-119.2852,35.76497],[-119.28983,35.765],[-119.28988,35.76852],[-119.29421,35.76854],[-119.2941,35.76133],[-119.32972,35.76125],[-119.32991,35.77576]],[[-119.28568,35.67425],[-119.28551,35.68138],[-119.28539,35.68873],[-119.23437,35.68887],[-119.23436,35.69244],[-119.23208,35.6924],[-119.23196,35.68889],[-119.22308,35.68895],[-119.2231,35.6857],[-119.22078,35.68568],[-119.22083,35.6818],[-119.21371,35.68154],[-119.21368,35.67988],[-119.2175,35.67993],[-119.21755,35.67449],[-119.20471,35.6746],[-119.20451,35.64558],[-119.24103,35.6454],[-119.24099,35.66353],[-119.24986,35.66349],[-119.24984,35.6671],[-119.24771,35.66711],[-119.24769,35.67075],[-119.24096,35.67074],[-119.24089,35.68161],[-119.24928,35.68158],[-119.24974,35.68851],[-119.27641,35.68845],[-119.2765,35.67429],[-119.28568,35.67425]]],[[[-119.24054,35.72838],[-119.23912,35.72848],[-119.24019,35.73324],[-119.24054,35.72838]]]]}},{"type":"Feature","properties":{"GEOID":"0602993320","NAME":"Tehachapi","COUNTY":"029"},"geometry":{"type":"MultiPolygon","coordinates":[[[[-118.9558,35.0191],[-118.9313,34.9417],[-118.9308,34.9324],[-118.9282,34.9248],[-118.9253,34.9212],[-118.922,34.8983],[-118.9148,34.8909],[-118.9022,34.8849],[-118.8987,34.8796],[-118.8795,34.8619],[-118.8634,34.8397],[-118.8641,34.835],[-118.8817,34.8178],[-118.8804,34.8178],[-118.8841,34.8136],[-118.8833,34.8094],[-118.8767,34.8032],[-118.8541,34.8033],[-118.854,34.8178],[-118.5876,34.8183],[-118.5877,34.8341],[-118.5781,34.8372],[-118.5726,34.8372],[-118.5612,34.8412],[-118.5566,34.8442],[-118.5536,34.8495],[-118.5444,34.8509],[-118.5374,34.8497],[-118.5286,34.8539],[-118.5181,34.8545],[-118.5179,34.8568],[-118.5164,34.8578],[-118.5099,34.8563],[-118.5018,34.8571],[-118.4942,34.8552],[-118.4898,34.8562],[-118.4469,34.8848],[-118.4473,34.8905],[-118.4514,34.896],[-118.4557,34.8978],[-118.4545,34.9004],[-118.4472,34.9031],[-118.4437,34.9021],[-118.431,34.9048],[-118.4206,34.9085],[-118.4096,34.9093],[-118.3949,34.9144],[-118.3797,34.9226],[-118.3735,34.9237],[-118.3634,34.9278],[-118.3578,34.9331],[-118.3515,34.9335],[-118.3458,34.9358],[-118.3417,34.9386],[-118.3378,34.9439],[-118.3282,34.9531],[-118.3233,34.9614],[-118.3183,34.965],[-118.3147,34.97],[-118.302,34.9776],[-118.2909,34.9887],[-118.2695,34.9988],[-118.2614,35.0039],[-118.2562,35.0123],[-118.2564,35.0173],[-118.2539,35.0206],[-118.2531,35.0331],[-118.2467,35.04],[-118.2421,35.043],[-118.2303,35.0594],[-118.2166,35.0702],[-118.2115,35.0765],[-118.2035,35.0826],[-118.2028,35.0851],[-118.1971,35.0915],[-118.1918,35.1002],[-118.1896,35.1073],[-118.1839,35.1124],[-118.1831,35.1187],[-118.173,35.1301],[-118.1705,35.1351],[-118.1606,35.1418],[-118.1603,35.1472],[-118.1542,35.1526],[-118.1521,35.1571],[-118.1465,35.1621],[-118.1458,35.1644],[-118.135,35.1728],[-118.1301,35.1788],[-118.126,35.1805],[-118.1184,35.1913],[-118.1146,35.1927],[-118.112,35.1956],[-118.1088,35.1955],[-118.1052,35.1978],[-118.1041,35.2009],[-118.0971,35.207],[-118.0953,35.212],[-118.0872,35.2184],[-118.0852,35.238],[-118.0877,35.2491],[-118.0783,35.2561],[-118.0734,35.2663],[-118.0689,35.2709],[-118.0643,35.2864],[-118.0559,35.2916],[-118.0498,35.3044],[-118.047,35.3075],[-118.0447,35.3155],[-118.0542,35.3155],[-118.0594,35.3141],[-118.0738,35.3159],[-118.0781,35.3177],[-118.0833,35.3176],[-118.0986,35.3091],[-118.1032,35.3103],[-118.1114,35.3189],[-118.1109,35.3235],[-118.1076,35.3225],[-118.1077,35.3246],[-118.1062,35.3251],[-118.1103,35.336],[-118.111,35.3387],[-118.11,35.341],[-118.1118,35.343],[-118.1132,35.3504],[-118.1159,35.355],[-118.1153,35.3596],[-118.1129,35.3621],[-118.1125,35.3654],[-118.1174,35.3735],[-118.1209,35.3759],[-118.1282,35.374],[-118.1425,35.3744],[-118.1418,35.3708],[-118.1474,35.3702],[-118.1631,35.3727],[-118.1689,35.3781],[-118.1784,35.3826],[-118.1882,35.3845],[-118.1969,35.3836],[-118.2159,35.3779],[-118.2234,35.3777],[-118.228,35.3687],[-118.2292,35.3606],[-118.232,35.3595],[-118.2375,35.3599],[-118.2433,35.3571],[-118.2535,35.3635],[-118.264,35.3664],[-118.2675,35.3705],[-118.2805,35.3752],[-118.2807,35.3739],[-118.2841,35.3765],[-118.2841,35.3778],[-118.285,35.3772],[-118.2849,35.3796],[-118.2863,35.3786],[-118.2863,35.3807],[-118.2877,35.3795],[-118.2876,35.3804],[-118.2906,35.3803],[-118.2931,35.3774],[-118.2924,35.3786],[-118.2939,35.3833],[-118.2986,35.3862],[-118.2987,35.3901],[-118.3039,35.3909],[-118.3032,35.3941],[-118.3068,35.3936],[-118.3082,35.3954],[-118.3084,35.3986],[-118.3073,35.3997],[-118.3089,35.4011],[-118.3071,35.4016],[-118.3087,35.4022],[-118.3066,35.4073],[-118.3164,35.4305],[-118.3208,35.4368],[-118.3245,35.4389],[-118.324,35.4403],[-118.3262,35.444],[-118.3325,35.4433],[-118.3383,35.4485],[-118.3386,35.4506],[-118.3425,35.4532],[-118.3425,35.456],[-118.346,35.4597],[-118.3576,35.4586],[-118.3584,35.4575],[-118.3567,35.4568],[-118.3576,35.4553],[-118.3602,35.4561],[-118.3638,35.4534],[-118.3653,35.4533],[-118.3644,35.4544],[-118.3679,35.454],[-118.3709,35.4523],[-118.3742,35.4532],[-118.3764,35.452],[-118.3772,35.448],[-118.3808,35.4441],[-118.3907,35.4464],[-118.3906,35.4403],[-118.3923,35.4392],[-118.3938,35.4342],[-118.3974,35.4343],[-118.4037,35.4294],[-118.4066,35.431],[-118.4081,35.4287],[-118.4131,35.4286],[-118.4123,35.4255],[-118.4148,35.4237],[-118.423,35.4245],[-118.4207,35.4227],[-118.4218,35.42],[-118.4202,35.4155],[-118.4188,35.416],[-118.4157,35.4142],[-118.4121,35.4105],[-118.4136,35.4086],[-118.4139,35.4047],[-118.4149,35.4047],[-118.4147,35.3987],[-118.4114,35.3956],[-118.4103,35.3902],[-118.4058,35.3871],[-118.4115,35.3826],[-118.4179,35.3851],[-118.4211,35.385],[-118.4377,35.3959],[-118.4434,35.3977],[-118.4482,35.3968],[-118.4601,35.398],[-118.4892,35.4054],[-118.5022,35.4059],[-118.5098,35.402],[-118.5204,35.4019],[-118.5206,35.3982],[-118.5343,35.389],[-118.5345,35.3863],[-118.5393,35.3841],[-118.5455,35.3816],[-118.5549,35.3834],[-118.5596,35.3754],[-118.5579,35.3731],[-118.5588,35.3696],[-118.5575,35.3659],[-118.554,35.3651],[-118.5521,35.3628],[-118.5531,35.3622],[-118.5524,35.3609],[-118.5585,35.3571],[-118.5626,35.3565],[-118.5626,35.3554],[-118.5679,35.3536],[-118.5706,35.3489],[-118.5725,35.3503],[-118.5713,35.343],[-118.5757,35.3379],[-118.5754,35.3359],[-118.5778,35.3377],[-118.577,35.3388],[-118.5791,35.3391],[-118.5851,35.3327],[-118.5828,35.332],[-118.5869,35.3306],[-118.5847,35.3374],[-118.5895,35.332],[-118.5917,35.3219],[-118.5852,35.3152],[-118.5874,35.311],[-118.5837,35.3048],[-118.5912,35.3017],[-118.5913,35.2991],[-118.6008,35.3003],[-118.6062,35.297],[-118.6099,35.2972],[-118.6173,35.2935],[-118.6335,35.2895],[-118.6458,35.2939],[-118.6495,35.2966],[-118.6563,35.2977],[-118.6684,35.296],[-118.67,35.3001],[-118.6725,35.3023],[-118.6915,35.3117],[-118.6998,35.3129],[-118.7057,35.3194],[-118.7146,35.3235],[-118.7595,35.3297],[-118.767,35.3288],[-118.7707,35.326],[-118.7707,35.3213],[-118.7725,35.32],[-118.7755,35.3198],[-118.7805,35.3164],[-118.7816,35.3202],[-118.788,35.3159],[-118.7686,35.2993],[-118.7527,35.2924],[-118.7526,35.2094],[-118.8063,35.2092],[-118.80609679319672,35.194619911864486],[-118.80607,35.19462],[-118.80588,35.18047],[-118.81511,35.18027],[-118.81512548387097,35.183077741935485],[-118.81519953797597,35.19114963938098],[-118.81998829736212,35.19109117505995],[-118.824,35.191],[-118.8234,35.1511],[-118.8508,35.151],[-118.8504,35.0928],[-118.8465,35.0926],[-118.8466,35.0454],[-118.9176,35.0454],[-118.9361,35.0161],[-118.9558,35.0191]],[[-118.59307,35.11624],[-118.59294,35.11871],[-118.59278,35.12349],[-118.57484,35.12352],[-118.57489,35.122],[-118.5734,35.12198],[-118.57348,35.12353],[-118.55727,35.1236],[-118.55729,35.11647],[-118.55315,35.11647],[-118.55305,35.10921],[-118.55745,35.10913],[-118.55747,35.09828],[-118.57513,35.09836],[-118.57513,35.10902],[-118.58386,35.10896],[-118.58374,35.11657],[-118.59307,35.11624]],[[-118.47701,35.11248],[-118.47609,35.11349],[-118.46796,35.11332],[-118.46795,35.11901],[-118.46568,35.11903],[-118.4657,35.12015],[-118.46964,35.12062],[-118.46961,35.12372],[-118.47278,35.12428],[-118.47287,35.12799],[-118.47011,35.128],[-118.47016,35.13351],[-118.46762,35.1335],[-118.46761,35.13579],[-118.47165,35.14],[-118.47566,35.14136],[-118.4758,35.14283],[-118.47195,35.14528],[-118.47112,35.14777],[-118.46955,35.14772],[-118.47018,35.14406],[-118.47134,35.14355],[-118.47079,35.14237],[-118.46937,35.14308],[-118.46586,35.14063],[-118.45567,35.1396],[-118.45367,35.1467],[-118.45272,35.14669],[-118.45348,35.1492],[-118.44953,35.1492],[-118.44941,35.15799],[-118.42734,35.15843],[-118.42758,35.154],[-118.43126,35.1538],[-118.43138,35.15021],[-118.41394,35.14995],[-118.41394,35.1387],[-118.41903,35.13879],[-118.419,35.12859],[-118.39649,35.12523],[-118.39656,35.12035],[-118.40636,35.12295],[-118.40875,35.12439],[-118.4275,35.12448],[-118.42756,35.11692],[-118.43233,35.1169],[-118.43246,35.10971],[-118.43668,35.10968],[-118.43666,35.11687],[-118.43998,35.11687],[-118.43998,35.11333],[-118.44551,35.11331],[-118.44555,35.10972],[-118.45803,35.10968],[-118.45822,35.11445],[-118.46152,35.11447],[-118.46133,35.10953],[-118.47691,35.10943],[-118.47701,35.11248]]],[[[-118.46644,35.12074],[-118.45992,35.12072],[-118.45994,35.12139],[-118.46108,35.12143],[-118.46119,35.12413],[-118.46512,35.1241],[-118.46637,35.12396],[-118.46644,35.12074]]],[[[-118.46565,35.12444],[-118.45993,35.12446],[-118.46012,35.12796],[-118.46513,35.12794],[-118.46565,35.12444]]]]}},{"type":"Feature","properties":{"GEOID":"0602990130","NAME":"Arvin-Lamont","COUNTY":"029"},"geometry":{"type":"MultiPolygon","coordinates":[[[[-119.0036,35.1701],[-118.9558,35.0191],[-118.9361,35.0161],[-118.9176,35.0454],[-118.8466,35.0454],[-118.8465,35.0926],[-118.8504,35.0928],[-118.8508,35.151],[-118.8234,35.1511],[-118.824,35.191],[-118.81998829736212,35.19109117505995],[-118.82418,35.19104],[-118.82392,35.17296],[-118.84204,35.17282],[-118.84198,35.17964],[-118.85102,35.17985],[-118.85105,35.19442],[-118.84203,35.19448],[-118.84217,35.20903],[-118.8432,35.20903],[-118.84217,35.20954],[-118.84229,35.22005],[-118.83332,35.21999],[-118.83328,35.21654],[-118.82431,35.21639],[-118.82429,35.21486],[-118.82608,35.2149],[-118.82608,35.21423],[-118.82547,35.21307],[-118.82427,35.21308],[-118.82422,35.20911],[-118.8154,35.20915],[-118.81519,35.19459],[-118.80609679319672,35.194619911864486],[-118.8063,35.2092],[-118.7526,35.2094],[-118.7527,35.2924],[-118.7686,35.2993],[-118.8027,35.3279],[-118.8432,35.3382],[-118.8431,35.3256],[-118.9143,35.3253],[-118.9143,35.2961],[-118.94986,35.29599997187061],[-118.94986,35.28149],[-118.96298,35.28144],[-118.96303,35.27363],[-118.96303,35.26691],[-118.94985,35.26693],[-118.94989,35.2524],[-118.96762,35.25238],[-118.96762,35.25783],[-118.97317,35.25781],[-118.97648,35.25486],[-118.97647,35.26325],[-118.96762,35.26325],[-118.9676,35.2669],[-118.96317,35.26691],[-118.96311,35.28144],[-118.9854,35.281331002444986],[-118.9854,35.2378],[-119.0031,35.2377],[-119.0036,35.1701]],[[-118.94997,35.20865],[-118.94985,35.19398],[-118.96761,35.19404],[-118.96759,35.20862],[-118.94997,35.20865]],[[-118.96767,35.23778],[-118.95001,35.23781],[-118.95001,35.23032],[-118.94541,35.23033],[-118.94541,35.22844],[-118.93965,35.22847],[-118.93955,35.22316],[-118.93221,35.22324],[-118.93217,35.20868],[-118.94997,35.20865],[-118.95002,35.22315],[-118.96768,35.22334],[-118.96767,35.23778]],[[-118.96762,35.25238],[-118.96767,35.23778],[-118.97838,35.23777],[-118.97991,35.24726],[-118.97959,35.25233],[-118.96762,35.25238]]],[[[-118.9854,35.284336],[-118.98537,35.28862],[-118.97539,35.28869],[-118.97539,35.29201],[-118.96754,35.29235],[-118.98094,35.2923],[-118.98095990352465,35.29591248972286],[-118.98537994490722,35.295900056413764],[-118.98537,35.2923],[-118.9854,35.29229994505494],[-118.9854,35.284336]]],[[[-118.81519953797597,35.19114963938098],[-118.81512548387097,35.183077741935485],[-118.81517,35.19115],[-118.81519953797597,35.19114963938098]]]]}}]}