{"type":"FeatureCollection","features":[{"type":"Feature","geometry":{"type":"Polygon","coordinates":[[[-119.6082,36.0993],[-119.6078,36.0653],[-119.56302995876288,36.0653],[-119.56306,36.07987],[-119.57192,36.07987],[-119.57201,36.08715],[-119.58103,36.0871],[-119.58119,36.09081],[-119.58986,36.09081],[-119.58994,36.10903],[-119.58439,36.10902],[-119.58441,36.11156],[-119.58104,36.11159],[-119.58101,36.10902],[-119.57425,36.10901],[-119.57429,36.11418],[-119.57665,36.11423],[-119.57669,36.11625],[-119.57551,36.11627],[-119.57555,36.1199],[-119.57203,36.11987],[-119.57466,36.12348],[-119.56663,36.12356],[-119.56528,36.12166],[-119.56713,36.12164],[-119.56651,36.12083],[-119.5716,36.12089],[-119.57084,36.11986],[-119.56781,36.11986],[-119.56779,36.11892],[-119.5622,36.11891],[-119.56147,36.118],[-119.56325,36.11801],[-119.56324,36.11619],[-119.56771,36.11625],[-119.56771,36.11447],[-119.56322,36.11466],[-119.56321,36.11378],[-119.56694,36.11323],[-119.56484,36.11233],[-119.56488,36.11124],[-119.55597,36.10756],[-119.55455,36.10843],[-119.55422,36.10395],[-119.55307,36.10408],[-119.55287,36.10344],[-119.55422,36.10345],[-119.55423,36.1016],[-119.55228,36.10158],[-119.55023,36.09616],[-119.55424,36.09618],[-119.55408,36.0726],[-119.53915,36.07254],[-119.53630508779327,36.06899373790896],[-119.5364,36.1379],[-119.54973951243244,36.13788123837914],[-119.54972,36.13633],[-119.55421,36.1362],[-119.55422,36.13441],[-119.57194,36.13449],[-119.57192,36.13566],[-119.56315,36.13569],[-119.56314,36.1367],[-119.57199,36.13663],[-119.57201815163415,36.13784990414679],[-119.6075,36.1378],[-119.6082,36.0993]],[[-119.58101,36.07983],[-119.58101,36.08352],[-119.57508,36.08351],[-119.57507,36.07977],[-119.58101,36.07983]],[[-119.5643,36.12033],[-119.56353,36.11981],[-119.56399,36.11997],[-119.5643,36.12033]],[[-119.55302,36.10893],[-119.55029,36.111],[-119.54512,36.11428],[-119.54532,36.10893],[-119.55302,36.10893]]]},"properties":{"GEOID":"0603190570","NAME":"Corcoran","COUNTY":"031"}},{"type":"Feature","geometry":{"type":"Polygon","coordinates":[[[-119.96,36.3758],[-119.9589,36.2555],[-119.80573547342073,36.25507116791438],[-119.80775,36.25822],[-119.8079,36.28469],[-119.80873,36.28399],[-119.84353,36.28394],[-119.84367,36.29401],[-119.83493,36.29573],[-119.83484,36.30192],[-119.80772,36.30186],[-119.80813,36.31338],[-119.79652,36.31341],[-119.79649,36.31525],[-119.79426,36.31526],[-119.79428,36.32073],[-119.78078,36.32077],[-119.78077,36.32798],[-119.77186,36.328],[-119.77181,36.32077],[-119.76483,36.3208],[-119.76608,36.31694],[-119.76404,36.31207],[-119.76428,36.30789],[-119.76472,36.30687],[-119.76705,36.30651],[-119.7675,36.29944],[-119.76986,36.29418],[-119.76992,36.29137],[-119.77625,36.29133],[-119.77626,36.28729],[-119.77916,36.28732],[-119.77917,36.28626],[-119.78084,36.28626],[-119.78085,36.27647],[-119.78989,36.27645],[-119.78996,36.26191],[-119.79219,36.26188],[-119.79215,36.25827],[-119.79887,36.25821],[-119.79879862702914,36.25505174603928],[-119.7446,36.2549],[-119.7449,36.4011],[-119.7542,36.402],[-119.8081,36.4021],[-119.9592,36.401],[-119.96,36.3758]],[[-119.78062,36.38387],[-119.77947,36.38597],[-119.77704,36.38593],[-119.77178,36.3888],[-119.7706,36.38897],[-119.77067,36.38743],[-119.76941,36.38673],[-119.76946,36.38548],[-119.77125,36.3855],[-119.77213,36.38381],[-119.7753,36.38436],[-119.77666,36.38312],[-119.77825,36.3835],[-119.7794,36.38288],[-119.78062,36.38387]]]},"properties":{"GEOID":"0603191590","NAME":"Lemoore","COUNTY":"031"}},{"type":"Feature","geometry":{"type":"Polygon","coordinates":[[[-120.3151,35.9072],[-120.2976,35.9079],[-120.2874,35.9055],[-120.281,35.9069],[-120.2769,35.9065],[-120.2679,35.8984],[-120.2627,35.8961],[-120.2564,35.8889],[-120.2525,35.8871],[-120.2433,35.8777],[-120.2435,35.8751],[-120.2452,35.8731],[-120.2402,35.8659],[-120.246,35.8641],[-120.2486,35.8619],[-120.2503,35.8579],[-120.2563,35.8554],[-120.255,35.853],[-120.2575,35.8519],[-120.2593,35.8451],[-120.2551,35.8426],[-120.2503,35.8331],[-120.2498,35.8299],[-120.2445,35.824],[-120.2423,35.8234],[-120.2389,35.8258],[-120.2345,35.8233],[-120.2312,35.8233],[-120.2298,35.821],[-120.2254,35.8212],[-120.2199,35.8189],[-120.2179,35.8116],[-120.2194,35.806],[-120.2166,35.8036],[-120.2179,35.8022],[-120.2148,35.7952],[-120.2158,35.7901],[-120.214,35.7893],[-119.8688,35.789],[-119.8859,35.8115],[-119.89,35.8238],[-119.8889,35.8481],[-119.8925,35.8544],[-119.8918,35.8664],[-119.894,35.8749],[-119.9128,35.9043],[-119.9158,35.9072],[-119.9222,35.9219],[-119.9304,35.936],[-119.9299,35.9402],[-119.9415,35.9636],[-119.9842,36.0062],[-120.0193,36.0288],[-120.053,36.0475],[-120.07536747607246,36.06091058853017],[-120.07535,36.05075],[-120.09316,36.05078],[-120.09285,36.022],[-120.1107,36.02184],[-120.11105,35.96431],[-120.12889,35.96393],[-120.12877,35.99294],[-120.15546,35.99266],[-120.15562,35.99998],[-120.1647,35.99983],[-120.16465,36.02098],[-120.16696434555861,36.02152876234895],[-120.3151,35.9072]]]},"properties":{"GEOID":"0603190170","NAME":"Avenal","COUNTY":"031"}},{"type":"Feature","geometry":{"type":"MultiPolygon","coordinates":[[[[-119.7449,36.3572],[-119.7443,36.138],[-119.57201976794147,36.13791994413008],[-119.57202,36.13793],[-119.54974,36.13792],[-119.5497398690694,36.13790959101723],[-119.5291,36.1379],[-119.5294,36.2699],[-119.4746,36.269],[-119.4754,36.3277],[-119.6008,36.328],[-119.6009,36.3437],[-119.6021,36.3466],[-119.6207676991566,36.357250895837815],[-119.62605,36.35727],[-119.62507,36.35546],[-119.62797,36.35544],[-119.62794,36.3499],[-119.62463,36.3499],[-119.62349,36.34475],[-119.62345,36.3323],[-119.6217,36.33231],[-119.62169,36.33062],[-119.62345,36.33059],[-119.62345,36.3297],[-119.62248,36.32969],[-119.62343,36.32798],[-119.61529,36.32797],[-119.61528,36.32568],[-119.61671,36.32568],[-119.6167,36.32497],[-119.60998,36.32496],[-119.61001,36.32796],[-119.60699,36.32796],[-119.60696,36.33102],[-119.60092,36.33195],[-119.60094,36.32531],[-119.61896,36.32318],[-119.61904,36.32161],[-119.62132,36.32161],[-119.62131,36.32257],[-119.62447,36.32253],[-119.62446,36.3234],[-119.62796,36.32322],[-119.62864,36.32064],[-119.62795,36.32064],[-119.62795,36.31888],[-119.62673,36.31701],[-119.62571,36.317],[-119.62541,36.31523],[-119.6234,36.31524],[-119.62343,36.31345],[-119.61893,36.31346],[-119.61896,36.30568],[-119.62797,36.30565],[-119.62795,36.31339],[-119.63134,36.31337],[-119.63135,36.31247],[-119.63248,36.31249],[-119.63248,36.31336],[-119.63553,36.31334],[-119.63552,36.31155],[-119.6389,36.31078],[-119.63922,36.30681],[-119.6414,36.30679],[-119.64144,36.30226],[-119.6459,36.30219],[-119.64594,36.3093],[-119.64887,36.30929],[-119.64708,36.29846],[-119.64344,36.29855],[-119.64358,36.29129],[-119.64592,36.29129],[-119.6459,36.28942],[-119.64151,36.28942],[-119.64156,36.28408],[-119.63694,36.28417],[-119.63695,36.27864],[-119.6384,36.27862],[-119.63839,36.2768],[-119.63696,36.27683],[-119.63691,36.26582],[-119.64592,36.26547],[-119.64586,36.26087],[-119.65486,36.26076],[-119.65489,36.29104],[-119.65706,36.29104],[-119.65716,36.29469],[-119.65937,36.29469],[-119.65944,36.29829],[-119.66157,36.2983],[-119.66159,36.29507],[-119.66304,36.29431],[-119.66329,36.29225],[-119.66202,36.29092],[-119.66335,36.29076],[-119.66335,36.28377],[-119.66372,36.29105],[-119.66261,36.29104],[-119.66356,36.29174],[-119.6636,36.29286],[-119.66321,36.29447],[-119.66197,36.29511],[-119.66211,36.2983],[-119.66826,36.29832],[-119.66831,36.30015],[-119.67278,36.30017],[-119.67276,36.29834],[-119.68535,36.29833],[-119.68279,36.30445],[-119.68298,36.30566],[-119.6784,36.30565],[-119.67837,36.31346],[-119.68195,36.31349],[-119.68198,36.30922],[-119.6888,36.30996],[-119.68901,36.31419],[-119.68743,36.31676],[-119.68984,36.31822],[-119.6875,36.31857],[-119.68753,36.31989],[-119.68652,36.3199],[-119.68651,36.32443],[-119.68322,36.32445],[-119.68326,36.32538],[-119.68201,36.32541],[-119.68199,36.32802],[-119.68413,36.32805],[-119.68411,36.32991],[-119.69101,36.32993],[-119.69102,36.35017],[-119.69101,36.35354],[-119.68647,36.35348],[-119.68649,36.35715],[-119.68207,36.35718],[-119.68207,36.3572],[-119.7449,36.3572]],[[-119.67877,36.29332],[-119.67739,36.29338],[-119.67733,36.29104],[-119.67844,36.29102],[-119.67877,36.29332]],[[-119.64251,36.29314],[-119.64031,36.29314],[-119.64033,36.29139],[-119.6425,36.29134],[-119.64251,36.29314]]],[[[-119.6731,36.3718],[-119.67295114782608,36.364555860869565],[-119.67306,36.37175],[-119.65936,36.37182],[-119.65767,36.3706],[-119.6576,36.36946],[-119.65506,36.36948],[-119.65505,36.37184],[-119.65305651719902,36.37185552211302],[-119.6731,36.3718]]],[[[-119.64605994339226,36.3718749032039],[-119.64605,36.36571],[-119.64036,36.36572],[-119.6404,36.37011],[-119.63929,36.37012],[-119.63929,36.3718936565097],[-119.64605994339226,36.3718749032039]]]]},"properties":{"GEOID":"0603191220","NAME":"Hanford","COUNTY":"031"}},{"type":"Feature","geometry":{"type":"Polygon","coordinates":[[[-119.7531,36.4019],[-119.7449,36.4011],[-119.7449,36.3572],[-119.68207,36.3572],[-119.68207,36.36442],[-119.67295,36.36448],[-119.67295114782608,36.364555860869565],[-119.6731,36.3718],[-119.65305651719902,36.37185552211302],[-119.64606,36.37191],[-119.64605994339226,36.3718749032039],[-119.63929,36.3718936565097],[-119.63929,36.37192],[-119.63777,36.37193],[-119.63776213906239,36.37189788881146],[-119.637,36.3719],[-119.63681021264368,36.368009359195405],[-119.6367411125138,36.36772709168376],[-119.63476597210114,36.36528167974426],[-119.62052,36.35725],[-119.6207676991566,36.357250895837815],[-119.6021,36.3466],[-119.6009,36.3437],[-119.6008,36.328],[-119.4754,36.3277],[-119.4749,36.401],[-119.5288,36.4015],[-119.5283,36.4875],[-119.5272,36.4889],[-119.5732,36.4888],[-119.6664,36.4189],[-119.6681,36.4232],[-119.6728,36.4266],[-119.6703,36.4295],[-119.6715,36.4311],[-119.6811,36.4297],[-119.6856,36.4262],[-119.6936,36.4245],[-119.6996,36.4249],[-119.7048,36.4272],[-119.7092,36.4247],[-119.7112,36.4202],[-119.7134,36.419],[-119.7214,36.4179],[-119.7301,36.4208],[-119.7349,36.4159],[-119.7384,36.4179],[-119.7469,36.4165],[-119.7524,36.409],[-119.7514,36.4043],[-119.7531,36.4019]]]},"properties":{"GEOID":"0603191230","NAME":"Hanford Northeast","COUNTY":"031"}},{"type":"Feature","geometry":{"type":"Polygon","coordinates":[[[-120.0754,36.07982],[-120.07536747607246,36.06091058853017],[-120.053,36.0475],[-120.0193,36.0288],[-119.9842,36.0062],[-119.9415,35.9636],[-119.9299,35.9402],[-119.9304,35.936],[-119.9222,35.9219],[-119.9158,35.9072],[-119.9128,35.9043],[-119.894,35.8749],[-119.8918,35.8664],[-119.8925,35.8544],[-119.8889,35.8481],[-119.89,35.8238],[-119.8859,35.8115],[-119.8688,35.789],[-119.5381,35.7899],[-119.5363,36.0653],[-119.53633912365392,36.0653],[-119.53678,36.04202],[-119.55404,36.04211],[-119.55389,36.05079],[-119.563,36.05077],[-119.56302995876288,36.0653],[-119.6078,36.0653],[-119.6077,36.1379],[-119.7442,36.1379],[-119.7446,36.2549],[-119.79879862702914,36.25505174603928],[-119.79879,36.25467],[-119.80553,36.25475],[-119.80573547342073,36.25507116791438],[-119.9589,36.2555],[-119.9589,36.1814],[-120.06222796166448,36.10217942350491],[-120.05868,36.09903],[-120.0584,36.09484],[-120.0574,36.0944],[-120.05731,36.09314],[-120.05732,36.07975],[-120.0754,36.07982]]]},"properties":{"GEOID":"0603193250","NAME":"Stratford","COUNTY":"031"}}]}