{"type":"FeatureCollection","features":[{"type":"Feature","geometry":{"type":"Polygon","coordinates":[[[-120.4646,40.2127],[-120.4607,40.2058],[-120.4543,40.2058],[-120.4542,40.1914],[-120.4453,40.1914],[-120.4459,40.1769],[-120.4365,40.1766],[-120.4364,40.1696],[-120.4169,40.1694],[-120.4173,40.1621],[-120.4076,40.1622],[-120.408,40.1474],[-120.3983,40.1474],[-120.3983,40.1406],[-120.3791,40.1406],[-120.3794,40.1295],[-120.3604,40.1295],[-120.3606,40.1225],[-120.3415,40.1226],[-120.3414,40.1152],[-120.2752,40.1148],[-120.2666,40.1159],[-120.2656,40.1077],[-120.2468,40.1079],[-120.2469,40.0858],[-120.2096,40.086],[-120.2093,40.0563],[-120.2113,40.0563],[-120.2109,40.0428],[-120.2014,40.0427],[-120.2013,40.0135],[-120.1825,40.0133],[-120.1825,39.9985],[-120.173,39.9983],[-120.1733,39.9839],[-120.1634,39.9838],[-120.1637,39.9687],[-120.1543,39.9685],[-120.1544,39.9624],[-120.145,39.9623],[-120.145,39.9551],[-120.1357,39.955],[-120.1358,39.9478],[-120.1267,39.9477],[-120.1266,39.9396],[-120.1088,39.9395],[-120.1089,39.9104],[-120.0996,39.9103],[-120.0993,39.8812],[-120.1081,39.8813],[-120.1078,39.7942],[-120.1111,39.7808],[-120.1106,39.7658],[-120.1196,39.7656],[-120.1191,39.7511],[-120.1276,39.751],[-120.1278,39.7362],[-120.1466,39.7364],[-120.1471,39.7077],[-120.126,39.7089],[-120.0157,39.7087],[-120.0158,39.7224],[-120.0011,39.7224],[-119.9976,40.0107],[-119.9957,40.4023],[-120.0037,40.4079],[-120.0148,40.4088],[-120.0231,40.4066],[-120.0317,40.4066],[-120.0493,40.404],[-120.0528,40.4021],[-120.0561,40.3976],[-120.0678,40.388],[-120.0719,40.3878],[-120.0796,40.3835],[-120.0887,40.3838],[-120.0909,40.3815],[-120.097,40.3786],[-120.1125,40.364],[-120.1234,40.3643],[-120.1414,40.3588],[-120.1468,40.3604],[-120.1494,40.359],[-120.1555,40.3605],[-120.1562,40.3629],[-120.1632,40.3657],[-120.1657,40.3694],[-120.1693,40.3704],[-120.1702,40.3724],[-120.173,40.3721],[-120.1829,40.3748],[-120.1876,40.3746],[-120.1982,40.3698],[-120.2386,40.3626],[-120.2393,40.3707],[-120.2461,40.3747],[-120.2483,40.3788],[-120.2475,40.3815],[-120.2382,40.3869],[-120.2379,40.3896],[-120.2447,40.3956],[-120.2669,40.4044],[-120.2765,40.4137],[-120.2799,40.4243],[-120.2786,40.439],[-120.2793,40.4418],[-120.2877,40.4102],[-120.2876,40.4061],[-120.29,40.4004],[-120.2924,40.3981],[-120.3082,40.3905],[-120.3096,40.3875],[-120.31,40.381],[-120.3116,40.3787],[-120.2963,40.3669],[-120.2855,40.3665],[-120.2857,40.3595],[-120.2948,40.3598],[-120.2977,40.3584],[-120.293,40.3577],[-120.2868,40.3539],[-120.2734,40.3525],[-120.2685,40.3498],[-120.264,40.345],[-120.2638,40.3419],[-120.2595,40.3373],[-120.259,40.3335],[-120.2646,40.3274],[-120.2717,40.3246],[-120.2778,40.3204],[-120.2777,40.3192],[-120.2791,40.3187],[-120.2773,40.3179],[-120.2789,40.3153],[-120.2831,40.3144],[-120.2851,40.3123],[-120.2977,40.3112],[-120.3059,40.3122],[-120.3175,40.31],[-120.3178,40.3071],[-120.3228,40.3076],[-120.3286,40.3009],[-120.3434,40.294],[-120.3638,40.2909],[-120.3694,40.2884],[-120.385,40.2862],[-120.395,40.2832],[-120.4111,40.2827],[-120.4185,40.2804],[-120.423,40.2815],[-120.437,40.2808],[-120.4418,40.2794],[-120.442,40.2764],[-120.4449,40.2768],[-120.4459,40.2787],[-120.4536,40.2762],[-120.4544,40.2734],[-120.4568,40.2738],[-120.4578,40.2725],[-120.4568,40.2667],[-120.4577,40.2593],[-120.4556,40.2557],[-120.4497,40.2532],[-120.4494,40.2486],[-120.4473,40.2439],[-120.4394,40.2417],[-120.436,40.239],[-120.444,40.2319],[-120.4482,40.2311],[-120.4507,40.2277],[-120.4573,40.2237],[-120.4644,40.2145],[-120.4646,40.2127]]]},"properties":{"GEOID":"0603591320","NAME":"Honey Lake","COUNTY":"035"}},{"type":"Feature","geometry":{"type":"Polygon","coordinates":[[[-121.3278,40.4454],[-121.0614,40.4465],[-121.0615,40.2564],[-121.0415,40.2565],[-121.0415,40.2348],[-121.0039,40.2349],[-121.0037,40.221],[-120.9462,40.2208],[-120.9472,40.2065],[-120.9281,40.2065],[-120.9286,40.1919],[-120.8906,40.1921],[-120.8907,40.1994],[-120.8718,40.1994],[-120.8718,40.2416],[-120.8531,40.2418],[-120.8532,40.2489],[-120.8436,40.2489],[-120.8435,40.256],[-120.8341,40.2562],[-120.8338,40.2707],[-120.815,40.2707],[-120.8147,40.2778],[-120.796,40.2777],[-120.7968,40.3009],[-120.7957,40.3013],[-120.7995,40.3062],[-120.8015,40.315],[-120.7987,40.3174],[-120.801,40.3211],[-120.8019,40.3295],[-120.8101,40.3417],[-120.8095,40.3542],[-120.8042,40.3654],[-120.8048,40.3737],[-120.807,40.3783],[-120.7982,40.3833],[-120.7878,40.3919],[-120.7761,40.3978],[-120.7715,40.4016],[-120.7678,40.4069],[-120.7641,40.4091],[-120.7392,40.4148],[-120.7252,40.4151],[-120.7032,40.42],[-120.7207,40.4232],[-120.7264,40.4266],[-120.7347,40.4342],[-120.7434,40.4362],[-120.7479,40.4397],[-120.7497,40.4432],[-120.7576,40.4456],[-120.7639,40.4521],[-120.7621,40.4554],[-120.7627,40.4567],[-120.7606,40.4577],[-120.7611,40.46],[-120.756,40.4654],[-120.7571,40.469],[-120.7562,40.4716],[-120.7507,40.4743],[-120.7494,40.4777],[-120.7462,40.4804],[-120.7475,40.4832],[-120.7444,40.4888],[-120.7456,40.4901],[-120.7456,40.4999],[-120.75,40.5021],[-120.7538,40.5022],[-120.7559,40.5048],[-120.7608,40.5059],[-120.7646,40.5086],[-120.7735,40.5102],[-120.7747,40.512],[-120.7777,40.5125],[-120.7823,40.5161],[-120.7844,40.5187],[-120.7839,40.5208],[-120.7789,40.5215],[-120.7762,40.5245],[-120.7769,40.5332],[-120.7985,40.5439],[-120.791,40.5445],[-120.787,40.5472],[-120.7788,40.5477],[-120.7771,40.5503],[-120.7771,40.5545],[-120.7626,40.5559],[-120.7617,40.5564],[-120.7626,40.5579],[-120.7596,40.5604],[-120.7585,40.564],[-120.7564,40.5642],[-120.7564,40.5667],[-120.7528,40.5726],[-120.7426,40.5754],[-120.7318,40.5812],[-120.7256,40.581],[-120.7197,40.5774],[-120.7174,40.5779],[-120.7183,40.5792],[-120.7147,40.5786],[-120.7102,40.5743],[-120.7028,40.5715],[-120.699,40.5713],[-120.7003,40.5738],[-120.6982,40.5756],[-120.6988,40.5798],[-120.6963,40.5842],[-120.6967,40.5885],[-120.6899,40.6124],[-120.6828,40.6232],[-120.6803,40.6296],[-120.678,40.6318],[-120.6714,40.6344],[-120.6676,40.6385],[-120.6673,40.6411],[-120.6645,40.6432],[-120.6603,40.6514],[-120.659,40.6519],[-120.6591,40.6552],[-120.6566,40.6588],[-120.6576,40.6763],[-120.6609,40.6797],[-120.6631,40.6887],[-120.6689,40.6932],[-120.6707,40.6962],[-120.6732,40.7073],[-120.6758,40.711],[-120.6767,40.7158],[-120.6872,40.7221],[-120.6988,40.7316],[-120.7063,40.735],[-120.7121,40.7416],[-120.7224,40.7631],[-120.7271,40.7677],[-120.737,40.7657],[-120.7472,40.7678],[-120.7685,40.766],[-120.7799,40.7693],[-120.7932,40.7652],[-120.7974,40.7623],[-120.8016,40.7636],[-120.8048,40.7684],[-120.8109,40.77],[-120.8128,40.7714],[-120.8136,40.7743],[-120.8155,40.7746],[-120.8212,40.7721],[-120.8291,40.7729],[-120.832,40.7751],[-120.8438,40.7786],[-120.8457,40.7783],[-120.8441,40.7748],[-120.8444,40.7613],[-120.8495,40.758],[-120.8511,40.7501],[-120.8543,40.7493],[-120.859,40.7433],[-120.8607,40.7357],[-120.8585,40.7314],[-120.8585,40.728],[-120.861,40.7187],[-120.8742,40.7168],[-120.8805,40.7129],[-120.8863,40.7111],[-120.9024,40.7087],[-120.9403,40.7087],[-120.9455,40.6998],[-120.9553,40.6937],[-120.96,40.687],[-120.969,40.684],[-120.9821,40.6836],[-120.9922,40.6772],[-121.0071,40.6735],[-121.0117,40.6742],[-121.0177,40.677],[-121.022,40.6748],[-121.0371,40.6749],[-121.0471,40.6781],[-121.0646,40.6786],[-121.0723,40.6806],[-121.0783,40.6807],[-121.0951,40.6706],[-121.103,40.6706],[-121.1168,40.6658],[-121.1232,40.6619],[-121.1675,40.651],[-121.1666,40.6468],[-121.1807,40.6512],[-121.2031,40.6547],[-121.2116,40.6516],[-121.2179,40.6448],[-121.2273,40.641],[-121.2934,40.6471],[-121.3219,40.655],[-121.323,40.4976],[-121.3267,40.4976],[-121.3276,40.4516],[-121.3278,40.4454]]]},"properties":{"GEOID":"0603593710","NAME":"Westwood","COUNTY":"035"}},{"type":"Feature","geometry":{"type":"Polygon","coordinates":[[[-120.8825,41.184],[-120.8784,41.1829],[-120.8703,41.1758],[-120.8548,41.1764],[-120.8481,41.1675],[-120.8481,41.1628],[-120.8324,41.1553],[-120.8233,41.1492],[-120.8139,41.1373],[-120.8125,41.1259],[-120.8108,41.1215],[-120.8081,41.1207],[-120.7996,41.1136],[-120.794,41.1038],[-120.7913,41.1035],[-120.7852,41.0962],[-120.7865,41.0913],[-120.7891,41.089],[-120.7907,41.0889],[-120.7933,41.0913],[-120.796,41.0882],[-120.8017,41.0882],[-120.804,41.0868],[-120.8066,41.0829],[-120.8046,41.0795],[-120.8099,41.0815],[-120.8144,41.0861],[-120.8182,41.0866],[-120.82,41.0839],[-120.8238,41.0835],[-120.8224,41.08],[-120.8186,41.0783],[-120.824,41.0764],[-120.8232,41.0696],[-120.8272,41.0709],[-120.8289,41.0692],[-120.824,41.0539],[-120.8271,41.0577],[-120.8335,41.0606],[-120.8356,41.0597],[-120.8428,41.0659],[-120.8553,41.0618],[-120.8586,41.0572],[-120.8607,41.0586],[-120.8618,41.0564],[-120.8739,41.0559],[-120.8595,41.0381],[-120.8542,41.0332],[-120.8542,41.0254],[-120.8515,41.0194],[-120.8469,41.0175],[-120.8383,41.0177],[-120.8303,41.0125],[-120.8222,41.0129],[-120.8123,41.0053],[-120.8073,40.9956],[-120.7994,40.9874],[-120.7908,40.9807],[-120.782,40.9777],[-120.7785,40.9753],[-120.7749,40.9697],[-120.7784,40.9622],[-120.7777,40.9575],[-120.7727,40.9506],[-120.7538,40.9321],[-120.7482,40.9245],[-120.7488,40.9176],[-120.7471,40.9086],[-120.75,40.9018],[-120.7565,40.8742],[-120.7595,40.8674],[-120.7594,40.8552],[-120.7513,40.843],[-120.7505,40.8358],[-120.741,40.826],[-120.7267,40.8017],[-120.725,40.7963],[-120.7269,40.7823],[-120.7261,40.7678],[-120.7223,40.763],[-120.7121,40.7416],[-120.7055,40.7343],[-120.6988,40.7316],[-120.6872,40.7221],[-120.6767,40.7158],[-120.6758,40.711],[-120.6732,40.7073],[-120.6707,40.6962],[-120.6689,40.6932],[-120.6631,40.6887],[-120.6609,40.6797],[-120.6576,40.6763],[-120.6566,40.6588],[-120.6591,40.6552],[-120.659,40.6519],[-120.6603,40.6514],[-120.6645,40.6432],[-120.6673,40.6411],[-120.6676,40.6385],[-120.6714,40.6344],[-120.678,40.6318],[-120.6803,40.6296],[-120.6828,40.6232],[-120.6902,40.6114],[-120.6967,40.5885],[-120.6963,40.5842],[-120.6988,40.5798],[-120.6982,40.5756],[-120.7004,40.5732],[-120.6964,40.5683],[-120.6846,40.5628],[-120.6698,40.5606],[-120.6538,40.5523],[-120.6225,40.5417],[-120.5778,40.5153],[-120.5693,40.5042],[-120.563,40.4999],[-120.5561,40.4911],[-120.545,40.4833],[-120.5452,40.48],[-120.541,40.4749],[-120.5382,40.4768],[-120.5309,40.4758],[-120.528,40.4734],[-120.5206,40.4736],[-120.5166,40.4707],[-120.5137,40.476],[-120.5056,40.4779],[-120.5011,40.4814],[-120.4982,40.4809],[-120.4917,40.4842],[-120.4901,40.4878],[-120.4849,40.4901],[-120.4845,40.4917],[-120.4792,40.4928],[-120.4755,40.4896],[-120.4732,40.4908],[-120.4731,40.4939],[-120.468,40.5013],[-120.4684,40.5051],[-120.4713,40.5072],[-120.4706,40.5114],[-120.4722,40.5187],[-120.4708,40.5194],[-120.469,40.524],[-120.4676,40.5221],[-120.4654,40.5098],[-120.4665,40.4977],[-120.4652,40.496],[-120.4677,40.4916],[-120.4646,40.4861],[-120.4604,40.486],[-120.4547,40.483],[-120.4526,40.4788],[-120.4481,40.4757],[-120.4472,40.4719],[-120.4482,40.4674],[-120.4409,40.4715],[-120.4308,40.4725],[-120.4266,40.4712],[-120.4237,40.4728],[-120.4183,40.4815],[-120.4103,40.4878],[-120.4075,40.4916],[-120.3958,40.4975],[-120.3857,40.4981],[-120.3802,40.5013],[-120.3719,40.5017],[-120.3632,40.5043],[-120.359,40.5031],[-120.3509,40.5058],[-120.3435,40.5199],[-120.3357,40.5185],[-120.33,40.5161],[-120.3228,40.5111],[-120.3195,40.5055],[-120.3202,40.5036],[-120.3293,40.4967],[-120.3174,40.4913],[-120.3162,40.486],[-120.305,40.4795],[-120.2957,40.4771],[-120.2888,40.4702],[-120.2819,40.4598],[-120.2805,40.4595],[-120.2803,40.4523],[-120.2814,40.4495],[-120.2786,40.439],[-120.2799,40.4243],[-120.2765,40.4137],[-120.2669,40.4044],[-120.2447,40.3956],[-120.2379,40.3896],[-120.2382,40.3869],[-120.2475,40.3815],[-120.2483,40.3788],[-120.2461,40.3747],[-120.2393,40.3707],[-120.2386,40.3626],[-120.1982,40.3698],[-120.1876,40.3746],[-120.1829,40.3748],[-120.173,40.3721],[-120.1702,40.3724],[-120.1693,40.3704],[-120.1657,40.3694],[-120.1632,40.3657],[-120.1562,40.3629],[-120.1555,40.3605],[-120.1494,40.359],[-120.1468,40.3604],[-120.1414,40.3588],[-120.1234,40.3643],[-120.1125,40.364],[-120.097,40.3786],[-120.0909,40.3815],[-120.0887,40.3838],[-120.0796,40.3835],[-120.0719,40.3878],[-120.0678,40.388],[-120.0561,40.3976],[-120.0528,40.4021],[-120.0493,40.404],[-120.0317,40.4066],[-120.0231,40.4066],[-120.0148,40.4088],[-120.0037,40.4079],[-119.9957,40.4023],[-119.996,40.5705],[-119.9988,40.7739],[-119.9999,41.184],[-120.8825,41.184]]]},"properties":{"GEOID":"0603591820","NAME":"Madeline Plains","COUNTY":"035"}},{"type":"Feature","geometry":{"type":"Polygon","coordinates":[[[-121.3323,40.9054],[-121.32,40.9059],[-121.3212,40.8887],[-121.3219,40.655],[-121.2944,40.6473],[-121.2273,40.641],[-121.2179,40.6448],[-121.2116,40.6516],[-121.2026,40.6547],[-121.1807,40.6512],[-121.1666,40.6468],[-121.1675,40.651],[-121.1232,40.6619],[-121.1168,40.6658],[-121.103,40.6706],[-121.0951,40.6706],[-121.0783,40.6807],[-121.0723,40.6806],[-121.0646,40.6786],[-121.0471,40.6781],[-121.0371,40.6749],[-121.022,40.6748],[-121.0177,40.677],[-121.0117,40.6742],[-121.0071,40.6735],[-120.9922,40.6772],[-120.9821,40.6836],[-120.969,40.684],[-120.96,40.687],[-120.9553,40.6937],[-120.9455,40.6998],[-120.9403,40.7087],[-120.9024,40.7087],[-120.8863,40.7111],[-120.8805,40.7129],[-120.8742,40.7168],[-120.861,40.7187],[-120.8585,40.728],[-120.8585,40.7314],[-120.8607,40.7357],[-120.8589,40.7436],[-120.8543,40.7493],[-120.8511,40.7501],[-120.8495,40.758],[-120.8443,40.7614],[-120.8441,40.7748],[-120.8456,40.7783],[-120.842,40.7784],[-120.832,40.7751],[-120.8292,40.7729],[-120.8227,40.772],[-120.8136,40.7743],[-120.8128,40.7714],[-120.8109,40.77],[-120.8048,40.7684],[-120.8016,40.7636],[-120.7974,40.7623],[-120.7929,40.7653],[-120.7798,40.7693],[-120.7687,40.766],[-120.7472,40.7678],[-120.737,40.7657],[-120.7278,40.7679],[-120.7251,40.7661],[-120.7261,40.768],[-120.7269,40.7819],[-120.725,40.7966],[-120.7266,40.8013],[-120.741,40.826],[-120.7505,40.8358],[-120.7513,40.843],[-120.7575,40.851],[-120.7596,40.856],[-120.7595,40.8674],[-120.7565,40.8742],[-120.75,40.9018],[-120.7471,40.9086],[-120.7488,40.9176],[-120.7482,40.9245],[-120.7538,40.9321],[-120.7727,40.9506],[-120.7777,40.9575],[-120.7784,40.9622],[-120.7749,40.9697],[-120.7785,40.9753],[-120.782,40.9777],[-120.7908,40.9807],[-120.7994,40.9874],[-120.8073,40.9956],[-120.8123,41.0053],[-120.8222,41.0129],[-120.8303,41.0125],[-120.8383,41.0177],[-120.8469,41.0175],[-120.8515,41.0194],[-120.8542,41.0254],[-120.8542,41.0332],[-120.8595,41.0381],[-120.8739,41.0559],[-120.8618,41.0564],[-120.8607,41.0586],[-120.8586,41.0572],[-120.8553,41.0618],[-120.8428,41.0659],[-120.8356,41.0597],[-120.8335,41.0606],[-120.8271,41.0577],[-120.824,41.0539],[-120.8289,41.0692],[-120.8272,41.0709],[-120.8232,41.0696],[-120.824,41.0764],[-120.8186,41.0783],[-120.8224,41.08],[-120.8238,41.0835],[-120.82,41.0839],[-120.8182,41.0866],[-120.8144,41.0861],[-120.8099,41.0815],[-120.8046,41.0795],[-120.8066,41.0829],[-120.804,41.0868],[-120.8017,41.0882],[-120.796,41.0882],[-120.7933,41.0913],[-120.7907,41.0889],[-120.7891,41.089],[-120.7865,41.0913],[-120.7852,41.0962],[-120.7913,41.1035],[-120.794,41.1038],[-120.7996,41.1136],[-120.8081,41.1207],[-120.8108,41.1215],[-120.8125,41.1259],[-120.8139,41.1373],[-120.8233,41.1492],[-120.8324,41.1553],[-120.8481,41.1628],[-120.8481,41.1675],[-120.8548,41.1764],[-120.8703,41.1758],[-120.8805,41.1836],[-121.3318,41.1839],[-121.331,40.9346],[-121.3319,40.9134],[-121.3323,40.9054]]]},"properties":{"GEOID":"0603590240","NAME":"Big Valley","COUNTY":"035"}},{"type":"Feature","geometry":{"type":"Polygon","coordinates":[[[-120.8102,40.3468],[-120.81,40.3414],[-120.8018,40.3294],[-120.801,40.3212],[-120.7987,40.3174],[-120.8015,40.315],[-120.8002,40.3082],[-120.7957,40.3013],[-120.7738,40.3014],[-120.7737,40.3087],[-120.7643,40.3087],[-120.7644,40.316],[-120.7266,40.3159],[-120.7264,40.3084],[-120.6522,40.3077],[-120.6517,40.3005],[-120.6423,40.3004],[-120.6425,40.2932],[-120.6227,40.293],[-120.6228,40.2857],[-120.5768,40.2854],[-120.5767,40.2638],[-120.5487,40.2636],[-120.5487,40.2563],[-120.5297,40.2562],[-120.5297,40.2492],[-120.5108,40.2489],[-120.5107,40.2347],[-120.4917,40.2348],[-120.4921,40.2203],[-120.4825,40.2202],[-120.4828,40.2058],[-120.4607,40.2058],[-120.4647,40.2125],[-120.4608,40.2197],[-120.4573,40.2237],[-120.4507,40.2277],[-120.4482,40.2311],[-120.444,40.2319],[-120.436,40.239],[-120.4394,40.2417],[-120.4473,40.2439],[-120.4494,40.2486],[-120.4497,40.2532],[-120.4556,40.2557],[-120.4577,40.2593],[-120.4568,40.2667],[-120.4578,40.2725],[-120.4568,40.2738],[-120.4544,40.2734],[-120.4536,40.2762],[-120.4459,40.2787],[-120.4449,40.2768],[-120.442,40.2764],[-120.4418,40.2794],[-120.437,40.2808],[-120.423,40.2815],[-120.4185,40.2804],[-120.4111,40.2827],[-120.395,40.2832],[-120.385,40.2862],[-120.3694,40.2884],[-120.3638,40.2909],[-120.3414,40.2946],[-120.3275,40.3017],[-120.3228,40.3076],[-120.3178,40.3071],[-120.3175,40.31],[-120.3059,40.3122],[-120.2977,40.3112],[-120.2854,40.3122],[-120.2831,40.3144],[-120.2789,40.3153],[-120.2773,40.3179],[-120.2791,40.3187],[-120.2777,40.3192],[-120.2781,40.3201],[-120.2717,40.3246],[-120.2646,40.3274],[-120.259,40.3335],[-120.2589,40.3361],[-120.2638,40.3419],[-120.264,40.345],[-120.2685,40.3498],[-120.2734,40.3525],[-120.2868,40.3539],[-120.293,40.3577],[-120.2977,40.3584],[-120.2948,40.3598],[-120.2857,40.3595],[-120.2855,40.3665],[-120.2963,40.3669],[-120.3116,40.3787],[-120.31,40.381],[-120.3096,40.3875],[-120.3082,40.3905],[-120.2917,40.3985],[-120.2878,40.4053],[-120.2877,40.4102],[-120.2793,40.4418],[-120.2814,40.4495],[-120.2803,40.4523],[-120.2805,40.4595],[-120.2819,40.4598],[-120.2888,40.4702],[-120.2957,40.4771],[-120.305,40.4795],[-120.3162,40.486],[-120.3174,40.4913],[-120.3293,40.4967],[-120.3202,40.5036],[-120.3195,40.5055],[-120.3228,40.5111],[-120.33,40.5161],[-120.3357,40.5185],[-120.3435,40.5199],[-120.3509,40.5058],[-120.359,40.5031],[-120.3632,40.5043],[-120.3719,40.5017],[-120.3802,40.5013],[-120.3857,40.4981],[-120.3958,40.4975],[-120.4075,40.4916],[-120.4103,40.4878],[-120.4183,40.4815],[-120.4237,40.4728],[-120.4266,40.4712],[-120.4308,40.4725],[-120.4409,40.4715],[-120.4482,40.4674],[-120.4472,40.4719],[-120.4481,40.4757],[-120.4526,40.4788],[-120.4547,40.483],[-120.4604,40.486],[-120.4646,40.4861],[-120.4677,40.4916],[-120.4652,40.496],[-120.4665,40.4977],[-120.4654,40.5098],[-120.4676,40.5221],[-120.469,40.524],[-120.4708,40.5194],[-120.4722,40.5187],[-120.4706,40.5114],[-120.4713,40.5072],[-120.4684,40.5051],[-120.468,40.5013],[-120.4731,40.4939],[-120.4732,40.4908],[-120.4755,40.4896],[-120.4792,40.4928],[-120.4845,40.4917],[-120.4849,40.4901],[-120.4901,40.4878],[-120.4917,40.4842],[-120.4982,40.4809],[-120.5011,40.4814],[-120.5056,40.4779],[-120.5137,40.476],[-120.5166,40.4707],[-120.5206,40.4736],[-120.528,40.4734],[-120.5309,40.4758],[-120.5382,40.4768],[-120.541,40.4749],[-120.5452,40.48],[-120.545,40.4833],[-120.5561,40.4911],[-120.563,40.4999],[-120.5693,40.5042],[-120.5778,40.5153],[-120.6225,40.5417],[-120.6538,40.5523],[-120.6698,40.5606],[-120.6847,40.5628],[-120.6963,40.5682],[-120.699,40.5713],[-120.7028,40.5715],[-120.7102,40.5743],[-120.7146,40.5786],[-120.7183,40.5792],[-120.7174,40.5779],[-120.7197,40.5774],[-120.7256,40.581],[-120.7307,40.5812],[-120.7426,40.5754],[-120.7528,40.5726],[-120.7564,40.5667],[-120.7564,40.5642],[-120.7585,40.564],[-120.7596,40.5604],[-120.7626,40.5579],[-120.7617,40.5564],[-120.7626,40.5559],[-120.7771,40.5545],[-120.7771,40.5503],[-120.7788,40.5477],[-120.787,40.5472],[-120.791,40.5445],[-120.7985,40.5439],[-120.7769,40.5332],[-120.7762,40.5245],[-120.7789,40.5215],[-120.7839,40.5208],[-120.7844,40.5187],[-120.7823,40.5161],[-120.7777,40.5125],[-120.7747,40.512],[-120.7735,40.5102],[-120.7646,40.5086],[-120.7608,40.5059],[-120.7559,40.5048],[-120.7538,40.5022],[-120.75,40.5021],[-120.7456,40.4999],[-120.7456,40.4901],[-120.7444,40.4888],[-120.7475,40.4832],[-120.7462,40.4804],[-120.7494,40.4777],[-120.7507,40.4743],[-120.7562,40.4716],[-120.7571,40.469],[-120.756,40.4654],[-120.7611,40.46],[-120.7606,40.4577],[-120.7627,40.4567],[-120.7621,40.4554],[-120.7639,40.4521],[-120.7576,40.4456],[-120.7497,40.4432],[-120.7479,40.4397],[-120.7434,40.4362],[-120.7347,40.4342],[-120.7264,40.4266],[-120.7207,40.4232],[-120.7032,40.42],[-120.7252,40.4151],[-120.7392,40.4148],[-120.7663,40.408],[-120.7761,40.3978],[-120.7878,40.3919],[-120.7982,40.3833],[-120.807,40.3783],[-120.8048,40.3737],[-120.8042,40.3651],[-120.8087,40.3571],[-120.8102,40.3468]],[[-120.67414,40.40358],[-120.67408,40.40484],[-120.67402,40.40629],[-120.6691,40.40596],[-120.6689,40.40974],[-120.66592,40.40966],[-120.66494,40.41281],[-120.66716,40.41467],[-120.66695,40.41733],[-120.67103,40.41881],[-120.67099,40.42155],[-120.67003,40.42157],[-120.66992,40.42289],[-120.66906,40.42292],[-120.66904,40.4216],[-120.6671,40.42184],[-120.6675,40.42753],[-120.66545,40.42761],[-120.66696,40.4286],[-120.66599,40.42868],[-120.66705,40.43267],[-120.66545,40.43299],[-120.66524,40.43506],[-120.66726,40.43497],[-120.66717,40.43834],[-120.6308,40.43818],[-120.62953,40.43984],[-120.62948,40.44523],[-120.62488,40.4452],[-120.62493,40.45312],[-120.60666,40.45356],[-120.60701,40.43013],[-120.62998,40.43065],[-120.62957,40.42437],[-120.63051,40.42376],[-120.63541,40.42369],[-120.63538,40.42759],[-120.63999,40.42745],[-120.64414,40.42413],[-120.64412,40.42174],[-120.63914,40.42219],[-120.63899,40.42387],[-120.63745,40.4238],[-120.6376,40.42215],[-120.63457,40.42177],[-120.63818,40.42178],[-120.63273,40.41745],[-120.63168,40.41585],[-120.63143,40.41192],[-120.62512,40.41142],[-120.62577,40.4087],[-120.62451,40.41005],[-120.62284,40.4097],[-120.62291,40.40434],[-120.63021,40.40648],[-120.63073,40.40506],[-120.63219,40.40507],[-120.63061,40.40272],[-120.63208,40.40244],[-120.634,40.40516],[-120.63586,40.40535],[-120.63642,40.40627],[-120.63768,40.40562],[-120.63851,40.4075],[-120.64122,40.40766],[-120.64187,40.40929],[-120.64037,40.41087],[-120.64371,40.41107],[-120.64899,40.41347],[-120.6507,40.40977],[-120.64987,40.4094],[-120.65184,40.40694],[-120.65459,40.40851],[-120.65522,40.40779],[-120.64402,40.40179],[-120.65614,40.40211],[-120.65594,40.40393],[-120.65807,40.40418],[-120.65793,40.40534],[-120.66172,40.40591],[-120.66343,40.4048],[-120.66195,40.40474],[-120.66145,40.40161],[-120.66419,40.40125],[-120.66422,40.40208],[-120.66922,40.40222],[-120.66914,40.40337],[-120.67414,40.40358]],[[-120.66115,40.36705],[-120.65625,40.37094],[-120.65408,40.37005],[-120.65245,40.37086],[-120.65176,40.37023],[-120.65156,40.36706],[-120.6507,40.36621],[-120.65203,40.36506],[-120.65466,40.36645],[-120.65443,40.36528],[-120.65705,40.36431],[-120.6571,40.36182],[-120.66075,40.36179],[-120.66115,40.36705]],[[-120.52605,40.41097],[-120.52604,40.41203],[-120.49308,40.41184],[-120.49297,40.39808],[-120.5127,40.39743],[-120.52037,40.39597],[-120.52043,40.39756],[-120.52602,40.39762],[-120.52597,40.40482],[-120.52123,40.40477],[-120.52131,40.40813],[-120.52601,40.40802],[-120.52605,40.41097]]]},"properties":{"GEOID":"0603593280","NAME":"Susanville","COUNTY":"035"}}]}