{"type":"FeatureCollection","features":[{"type":"Feature","properties":{"GEOID":"0604193140","NAME":"Southeast Marin","COUNTY":"041"},"geometry":{"type":"MultiPolygon","coordinates":[[[[-122.57692549868074,37.91040639577837],[-122.5731,37.9056],[-122.5696,37.9039],[-122.5685,37.9013],[-122.5628,37.8998],[-122.5625,37.8982],[-122.5566,37.8927],[-122.5546,37.8883],[-122.5546,37.8833],[-122.5537,37.8842],[-122.5538,37.8777],[-122.5517,37.8763],[-122.5523,37.8745],[-122.5511,37.8731],[-122.5528,37.8715],[-122.5507,37.8704],[-122.5512,37.8691],[-122.549,37.8694],[-122.5512,37.8673],[-122.5487,37.8671],[-122.5438,37.8701],[-122.5399,37.8704],[-122.5372,37.866],[-122.5377,37.8644],[-122.5387,37.8652],[-122.5382,37.8636],[-122.533,37.8588],[-122.5351,37.857],[-122.5326,37.8555],[-122.5331,37.8538],[-122.5275,37.8504],[-122.5259,37.85],[-122.5248,37.851],[-122.524,37.8523],[-122.5249,37.8547],[-122.5218,37.8565],[-122.5163,37.8568],[-122.5114,37.8549],[-122.50746660201706,37.85568667959659],[-122.51017,37.85685],[-122.51015485795455,37.85688065340909],[-122.5102,37.8569],[-122.51008979533556,37.85701236554022],[-122.50976,37.85768],[-122.50546633802817,37.86172647887324],[-122.5051,37.8621],[-122.50508152277811,37.86208914058012],[-122.50507,37.8621],[-122.50693,37.86504],[-122.50709,37.87144],[-122.50527,37.87209],[-122.50599,37.87232],[-122.50556,37.8727],[-122.50154,37.87112],[-122.49842,37.87314],[-122.49534,37.87109],[-122.49555,37.87041],[-122.49481,37.87085],[-122.49395,37.86901],[-122.47506,37.85943],[-122.47482,37.85632],[-122.47597,37.84951],[-122.47505,37.84586],[-122.48055,37.8452],[-122.48087445619028,37.84479037405977],[-122.4772,37.8456],[-122.4766,37.8423],[-122.4716,37.8366],[-122.4728,37.8319],[-122.42087943859181,37.851670121349514],[-122.44548,37.84243],[-122.45728,37.85923],[-122.46338,37.85343],[-122.46368,37.85233],[-122.47255,37.86196],[-122.48888,37.86943],[-122.48805,37.87106],[-122.48088,37.88353],[-122.48228139456262,37.88409055782505],[-122.48798,37.87433],[-122.49278,37.87543],[-122.49986,37.89365],[-122.49635,37.89513],[-122.49953,37.89821],[-122.5047,37.89918],[-122.50401,37.90075],[-122.50694,37.9046],[-122.50502,37.90556],[-122.50465,37.9045],[-122.50431,37.90587],[-122.50291,37.90686],[-122.49968,37.90756],[-122.49843,37.90917],[-122.49725,37.90917],[-122.4963,37.9069],[-122.4969,37.9056],[-122.49435,37.90807],[-122.49375,37.90712],[-122.49215,37.90679],[-122.4922,37.90565],[-122.48946,37.90655],[-122.48821,37.90808],[-122.48677,37.90791],[-122.48226,37.90504],[-122.48227,37.9035],[-122.48016,37.90351],[-122.48018,37.90446],[-122.47869,37.90541],[-122.48221,37.9067],[-122.48222,37.90817],[-122.48363,37.9088],[-122.48364,37.90961],[-122.48226,37.91004],[-122.48227,37.9111],[-122.48419,37.91233],[-122.48495,37.91399],[-122.48585,37.91313],[-122.48839,37.91311],[-122.48794,37.91451],[-122.48597,37.91494],[-122.48918,37.91533],[-122.48919881291157,37.91533086429915],[-122.4892,37.9153],[-122.4957,37.9156],[-122.4959,37.9117],[-122.50486763738641,37.91189928083081],[-122.50299,37.90932],[-122.50301487170545,37.90932035075482],[-122.503,37.9093],[-122.51078625139576,37.909399823735846],[-122.51059,37.90782],[-122.51060284644194,37.90782277153558],[-122.5106,37.9078],[-122.51173333333334,37.90806666666667],[-122.51402,37.90856],[-122.51835,37.91776],[-122.51425,37.90802],[-122.51723,37.90839],[-122.51975,37.90731],[-122.52352,37.90736],[-122.52397,37.90583],[-122.51952,37.90568],[-122.51931,37.90382],[-122.51613,37.90127],[-122.51751,37.88948],[-122.51708,37.88692],[-122.51822,37.88668],[-122.52094,37.88936],[-122.5244,37.88715],[-122.52408,37.88638],[-122.52616,37.8879],[-122.5273,37.89009],[-122.53183,37.89114],[-122.53163,37.89194],[-122.53293,37.89255],[-122.53455,37.89525],[-122.53597,37.89517],[-122.53786,37.89689],[-122.54204,37.89675],[-122.54254,37.89835],[-122.54416,37.89792],[-122.54244,37.89964],[-122.55346,37.90109],[-122.55654,37.90268],[-122.5606,37.90124],[-122.56114,37.90202],[-122.56227,37.90159],[-122.56314,37.9028],[-122.56593,37.90102],[-122.56609,37.9018],[-122.56505,37.90193],[-122.56444,37.90348],[-122.56562,37.90317],[-122.56691,37.90393],[-122.56639,37.90469],[-122.56698,37.90583],[-122.56987,37.90606],[-122.57097,37.9075],[-122.57156,37.90694],[-122.57416,37.9074],[-122.57692549868074,37.91040639577837]]],[[[-122.57378161414297,37.91162987701768],[-122.57378,37.91163],[-122.5724,37.91277],[-122.57287236641221,37.91310740458015],[-122.57378161414297,37.91162987701768]]],[[[-122.57230341463415,37.91403195121951],[-122.57218,37.91415],[-122.57134,37.91359],[-122.57094332191781,37.91426130136986],[-122.5722,37.9142],[-122.57230341463415,37.91403195121951]]],[[[-122.56980374604356,37.921366285607895],[-122.56958139939157,37.92131547443141],[-122.5698,37.9214],[-122.56980374604356,37.921366285607895]]],[[[-122.5687,37.9158],[-122.56865285714285,37.91569],[-122.56869523917996,37.91580125284738],[-122.5687,37.9158]]],[[[-122.56839,37.91891],[-122.56650698972099,37.918102995594715],[-122.5665,37.91814],[-122.56839,37.91891]]],[[[-122.5683077032967,37.91438986813187],[-122.56815,37.91437],[-122.56816030786773,37.914397058152794],[-122.5683077032967,37.91438986813187]]],[[[-122.5636,37.9244],[-122.56202722274881,37.92341701421801],[-122.56199,37.92342],[-122.56358640776699,37.924415291262136],[-122.5636,37.9244]]],[[[-122.56342346311476,37.91893440573771],[-122.56315,37.91841],[-122.56235,37.91847],[-122.56239753363229,37.91853771300448],[-122.56342346311476,37.91893440573771]]],[[[-122.5634,37.92],[-122.56338724077328,37.91998260105448],[-122.56236,37.9201],[-122.56197697368421,37.92104355263158],[-122.5634,37.92]]],[[[-122.5604,37.9306],[-122.56029311827957,37.92921053763441],[-122.56022,37.92946],[-122.55927,37.92767],[-122.5544754473166,37.92759867607578],[-122.5582,37.9303],[-122.5604,37.9306]]],[[[-122.55314812186337,37.926636000472335],[-122.55277,37.92167],[-122.55314016646436,37.92663023062251],[-122.55314812186337,37.926636000472335]]],[[[-122.55277,37.92167],[-122.53977506259852,37.92211401836224],[-122.53977712428417,37.922114623123356],[-122.55277,37.92167]]],[[[-122.52618,37.90457],[-122.52405,37.90716],[-122.52579,37.90703],[-122.52618,37.90457]]],[[[-122.4954,37.8504],[-122.4913,37.847],[-122.49121163682061,37.84697090480679],[-122.49128,37.84701],[-122.49381,37.84981],[-122.49531168368411,37.850456201291934],[-122.4954,37.8504]]],[[[-122.48779825565298,37.845846986617445],[-122.48693128738621,37.84556152145644],[-122.48759,37.84634],[-122.48779825565298,37.845846986617445]]],[[[-122.48613703703704,37.8453],[-122.48317199020637,37.84432370409234],[-122.48411,37.8453],[-122.48613703703704,37.8453]]],[[[-122.48523,37.91945],[-122.48396,37.9186],[-122.48251,37.91991],[-122.4834,37.91992],[-122.48347,37.92092],[-122.48523,37.91945]]],[[[-122.48459,37.92098],[-122.45834866485013,37.919745340599455],[-122.48138174916903,37.92084618654117],[-122.48138,37.92083],[-122.48459,37.92098]]],[[[-122.48377,37.91828],[-122.48348,37.91739],[-122.48242,37.9176],[-122.47938,37.91986],[-122.4815,37.9199],[-122.48377,37.91828]]],[[[-122.48004,37.91588],[-122.47916,37.91184],[-122.47729,37.91036],[-122.47899,37.90841],[-122.47071,37.90755],[-122.47483,37.91909],[-122.48004,37.91588]]],[[[-122.47881,37.90282],[-122.47369,37.89888],[-122.47264,37.89952],[-122.47432,37.90038],[-122.4734,37.90195],[-122.4713,37.90214],[-122.46888,37.90375],[-122.46966,37.90479],[-122.47881,37.90282]]],[[[-122.47064,37.90018],[-122.46999,37.89905],[-122.47051,37.89777],[-122.46899,37.89583],[-122.46665,37.89546],[-122.46304,37.8965],[-122.46262,37.89448],[-122.46347,37.89369],[-122.44998,37.88603],[-122.45338,37.88223],[-122.45313,37.88142],[-122.44681,37.87949],[-122.44597,37.87765],[-122.44361,37.87638],[-122.43866,37.88048],[-122.43824,37.88228],[-122.4443,37.88643],[-122.44463,37.88835],[-122.44884,37.89408],[-122.45611,37.89389],[-122.46049,37.89541],[-122.46132,37.89484],[-122.45998,37.89656],[-122.46342,37.89816],[-122.46803,37.90194],[-122.47064,37.90018]]]]}},{"type":"Feature","properties":{"GEOID":"0604192200","NAME":"Northwest Marin","COUNTY":"041"},"geometry":{"type":"Polygon","coordinates":[[[-123.1345,38.2963],[-123.1238,38.2858],[-123.1196,38.2771],[-123.111,38.2673],[-123.101,38.2614],[-123.0496,38.2143],[-123.0458,38.2049],[-123.0389,38.1975],[-123.0379,38.1925],[-123.0313,38.1815],[-123.0305,38.1725],[-123.0272,38.1642],[-123.0148,38.1491],[-123.0237,38.1249],[-123.0638,38.0365],[-123.0747,38.0272],[-123.0812,38.019],[-123.0851,38.0084],[-123.0857,37.9999],[-123.0839,37.9834],[-123.0794,37.9719],[-123.068,37.9587],[-123.059,37.9528],[-123.0501,37.948],[-123.0225,37.9421],[-122.9764,37.9401],[-122.9532,37.9411],[-122.9319,37.9467],[-122.9192,37.9548],[-122.9092,37.9646],[-122.9023,37.9774],[-122.8893,37.9741],[-122.8791,37.9666],[-122.8761,37.9663],[-122.8727,37.9625],[-122.864,37.9572],[-122.8546,37.9476],[-122.8505,37.9456],[-122.8421,37.9233],[-122.8298,37.9103],[-122.8141,37.9011],[-122.789,37.8938],[-122.7864,37.8869],[-122.7249,37.9345],[-122.7185,37.9334],[-122.7148,37.9346],[-122.7158,37.9362],[-122.7133,37.9383],[-122.7144,37.9424],[-122.7085,37.9466],[-122.7109,37.9479],[-122.7132,37.9524],[-122.7093,37.9515],[-122.7074,37.9528],[-122.6991,37.9646],[-122.6943,37.9681],[-122.697,37.972],[-122.7038,37.9774],[-122.7051,37.9805],[-122.7107,37.984],[-122.7134,37.9836],[-122.7154,37.9902],[-122.7203,37.996],[-122.7193,37.9974],[-122.7161,37.9979],[-122.7156,37.9999],[-122.7098,37.998],[-122.7088,37.9991],[-122.709,38.0045],[-122.7083,38.0017],[-122.7072,38.0042],[-122.7062,38.0039],[-122.6992,37.9955],[-122.6981,37.9958],[-122.6982,38.0003],[-122.692,38.0046],[-122.6872,38.0029],[-122.6775,38.0029],[-122.6714,37.9969],[-122.6694,37.9993],[-122.6657,38.0003],[-122.6614,37.9988],[-122.6577,37.9994],[-122.6566,37.9979],[-122.6539,37.9999],[-122.6506,37.9954],[-122.643,37.9967],[-122.6391,37.9936],[-122.6318,37.9954],[-122.6283,37.9995],[-122.6263,38],[-122.6272,38.0056],[-122.6247,38.0076],[-122.6183,38.0071],[-122.6146,38.0045],[-122.6168,38.0044],[-122.6143,38.0041],[-122.6182,38.0112],[-122.6162,38.0123],[-122.6136,38.0107],[-122.6145,38.0166],[-122.6137,38.0182],[-122.6168,38.0183],[-122.6153,38.0196],[-122.6166,38.0196],[-122.6158,38.0208],[-122.6194,38.0215],[-122.6197,38.0232],[-122.6185,38.0236],[-122.6193,38.025],[-122.6224,38.0262],[-122.6169,38.0297],[-122.6193,38.0337],[-122.6192,38.036],[-122.6231,38.0379],[-122.6246,38.0397],[-122.6244,38.0415],[-122.6218,38.0464],[-122.6225,38.0481],[-122.6206,38.0459],[-122.6188,38.0565],[-122.6161,38.0611],[-122.6132,38.0613],[-122.6062,38.058],[-122.5975,38.0671],[-122.6012,38.0705],[-122.6037,38.0761],[-122.6305,38.0898],[-122.6396,38.0917],[-122.6461,38.0882],[-122.6637,38.0936],[-122.6654,38.0957],[-122.6655,38.1041],[-122.6673,38.1128],[-122.6761,38.116],[-122.6915,38.1143],[-122.6963,38.1165],[-122.6987,38.1209],[-122.7002,38.1342],[-122.6966,38.1424],[-122.6922,38.1458],[-122.6832,38.1492],[-122.6669,38.1486],[-122.6611,38.1455],[-122.6529,38.148],[-122.6493,38.1476],[-122.6416,38.1463],[-122.6382,38.1371],[-122.6305,38.1329],[-122.6255,38.1231],[-122.61908794562095,38.12090158135575],[-122.61908,38.12093],[-122.61849215471447,38.12072076693227],[-122.6168,38.1252],[-122.61471337517433,38.12609426778243],[-122.61377,38.12955],[-122.6124052496799,38.13112471190781],[-122.6089,38.1388],[-122.6088,38.1478],[-122.60879025685124,38.14779889149805],[-122.60879,38.14782],[-122.6087465270936,38.147793916256155],[-122.60174612384232,38.14699746319164],[-122.59909,38.14702],[-122.59230882468694,38.14592375849732],[-122.5921,38.1459],[-122.5805,38.1363],[-122.5778,38.1384],[-122.5777706004715,38.13839176813202],[-122.57776,38.1384],[-122.56889,38.13606],[-122.56884,38.14162],[-122.56431,38.14164],[-122.56405,38.1324],[-122.56471358508304,38.13099056722031],[-122.56451573142286,38.12967154281906],[-122.56423264185038,38.12961127213589],[-122.5636,38.1323],[-122.5644,38.1444],[-122.5692,38.158],[-122.5979,38.1795],[-122.6007,38.1852],[-122.6041,38.1806],[-122.6125,38.1806],[-122.6151,38.1824],[-122.6226,38.1826],[-122.6257,38.1823],[-122.6282,38.1789],[-122.6358,38.1786],[-122.6379,38.1802],[-122.6492,38.1811],[-122.6537,38.1848],[-122.6586,38.1868],[-122.6639,38.1864],[-122.6672,38.1897],[-122.6806,38.1896],[-122.6879,38.1947],[-122.7014,38.1961],[-122.7044,38.1985],[-122.7143,38.2012],[-122.715,38.2034],[-122.723,38.2071],[-122.7399,38.207],[-122.8984,38.3145],[-122.8999,38.3168],[-122.9095,38.3144],[-122.9109,38.3171],[-122.9072,38.3187],[-122.9067,38.3199],[-122.9081,38.3208],[-122.916,38.3203],[-122.9182,38.3178],[-122.921,38.3168],[-122.9165,38.3128],[-122.918,38.3103],[-122.9216,38.3086],[-122.9256,38.3127],[-122.9324,38.3117],[-122.9354,38.3096],[-122.9368,38.3112],[-122.934,38.313],[-122.9343,38.314],[-122.9397,38.3108],[-122.944,38.3127],[-122.9468,38.3112],[-122.956,38.3137],[-122.9616,38.3167],[-122.9661,38.317],[-122.97,38.3101],[-122.9743,38.3115],[-122.9816,38.3111],[-122.9847,38.3079],[-122.9877,38.3081],[-122.9911,38.3056],[-122.9948,38.3062],[-122.9936,38.3001],[-123.0011,38.2974],[-123.0027,38.2957],[-123.1328,38.2961],[-123.1345,38.2963]]]}},{"type":"Feature","properties":{"GEOID":"0604192670","NAME":"Ross Valley","COUNTY":"041"},"geometry":{"type":"MultiPolygon","coordinates":[[[[-122.7201,37.9966],[-122.7154,37.9902],[-122.7134,37.9836],[-122.7107,37.984],[-122.7051,37.9805],[-122.7038,37.9774],[-122.697,37.972],[-122.6946,37.9684],[-122.6839,37.9617],[-122.6826,37.9597],[-122.6835,37.958],[-122.6806,37.9551],[-122.6767,37.9535],[-122.676,37.9513],[-122.6737,37.9518],[-122.669,37.949],[-122.669,37.9471],[-122.6631,37.9453],[-122.6585,37.9406],[-122.6567,37.9369],[-122.6465,37.9338],[-122.6403,37.9246],[-122.63,37.9204],[-122.6288,37.9166],[-122.6246,37.9129],[-122.6256,37.9115],[-122.6192,37.9092],[-122.616,37.9091],[-122.612,37.9107],[-122.6106,37.9142],[-122.6074,37.9153],[-122.6065,37.9189],[-122.6007,37.923],[-122.5956,37.9227],[-122.5954,37.9255],[-122.5929,37.9272],[-122.5877,37.9249],[-122.5844,37.9288],[-122.58,37.9284],[-122.58,37.9305],[-122.5774,37.9322],[-122.57595081967213,37.931754098360656],[-122.5774,37.9338],[-122.5749,37.9323],[-122.5719,37.9326],[-122.5701,37.9298],[-122.5704,37.9334],[-122.5734,37.9341],[-122.5729,37.9357],[-122.57,37.9353],[-122.5688,37.9339],[-122.5665,37.9355],[-122.5633,37.9355],[-122.55492693129771,37.92760539236641],[-122.55322,37.92758],[-122.5530900625,37.9258734875],[-122.55308321100918,37.92586702752293],[-122.55322,37.9277],[-122.55231,37.93339],[-122.55035,37.93443],[-122.54257,37.93548],[-122.54642,37.9421],[-122.54813,37.94294],[-122.54851,37.94434],[-122.54927,37.9442],[-122.54919,37.94533],[-122.55107,37.94793],[-122.54927,37.94856],[-122.54967,37.95077],[-122.54913,37.95017],[-122.54579,37.95161],[-122.54494,37.949],[-122.53958,37.94716],[-122.53854,37.9445],[-122.5372,37.94585],[-122.53482,37.94462],[-122.53407,37.94463],[-122.53407,37.94549],[-122.53324,37.94527],[-122.5333,37.94591],[-122.53608,37.9462],[-122.53387,37.94805],[-122.53446,37.94951],[-122.53369,37.95054],[-122.52026,37.94565],[-122.51898,37.94619],[-122.51782,37.94771],[-122.51866,37.94851],[-122.52397,37.94953],[-122.52297,37.95018],[-122.52485,37.95078],[-122.52484,37.95201],[-122.5271,37.95225],[-122.5277,37.95377],[-122.52639,37.95402],[-122.52593,37.95547],[-122.52746,37.95459],[-122.52854,37.95511],[-122.52789,37.95526],[-122.52843,37.9588],[-122.52899,37.95835],[-122.54077551201786,37.96368962961341],[-122.54269,37.96281],[-122.5449,37.9631],[-122.5481,37.95977],[-122.55102,37.96133],[-122.55373,37.95898],[-122.5533,37.95816],[-122.55608,37.95754],[-122.55796,37.95526],[-122.56061,37.95581],[-122.56359,37.95531],[-122.56772,37.95703],[-122.56876,37.95699],[-122.56871,37.95582],[-122.57017,37.95567],[-122.57385,37.95611],[-122.57227,37.9582],[-122.57555,37.95928],[-122.57899,37.96257],[-122.57777,37.96576],[-122.58264,37.96636],[-122.58263,37.96766],[-122.58065016580123,37.96972633180939],[-122.58067,37.96973],[-122.58079,37.97322],[-122.58579,37.97672],[-122.58138,37.97763],[-122.58986,37.97636],[-122.58728,37.97404],[-122.58717,37.97309],[-122.58863,37.97338],[-122.59063,37.97615],[-122.59802,37.97556],[-122.59893,37.97432],[-122.60107,37.97404],[-122.60129,37.9756],[-122.60853,37.97463],[-122.60822,37.97553],[-122.60919,37.97617],[-122.61416,37.97704],[-122.61539,37.97535],[-122.61555,37.97597],[-122.61717,37.97581],[-122.61527,37.97922],[-122.61412,37.97824],[-122.61061,37.978],[-122.6099,37.97953],[-122.60819,37.97935],[-122.60876,37.98],[-122.60476,37.98051],[-122.60362,37.97975],[-122.6044,37.9815],[-122.60345,37.98159],[-122.60315,37.98068],[-122.60082,37.98136],[-122.60188,37.98265],[-122.60121,37.98316],[-122.60215,37.98355],[-122.60124,37.98488],[-122.60479,37.9886],[-122.60676,37.98947],[-122.59999,37.99121],[-122.6005,37.99299],[-122.60357,37.99295],[-122.60342,37.99442],[-122.59869,37.99408],[-122.59837,37.9953],[-122.60455,38.00038],[-122.60903,38.00102],[-122.60827,38.00261],[-122.60748,38.00225],[-122.60786,38.00352],[-122.6057,38.00618],[-122.60211,38.00484],[-122.59876,38.00977],[-122.59513,38.00835],[-122.59643,38.00531],[-122.59407,38.00245],[-122.59477,38.00229],[-122.59442,37.99818],[-122.59709,37.99593],[-122.59602,37.99535],[-122.59301,37.99939],[-122.58671,37.9994],[-122.57155,37.99907],[-122.57136,37.99812],[-122.57235,37.99781],[-122.57168,37.99721],[-122.57235,37.99692],[-122.57175,37.99539],[-122.57362,37.99537],[-122.57317,37.99488],[-122.57404,37.99438],[-122.57402,37.99319],[-122.57197,37.99237],[-122.57096,37.99497],[-122.56761,37.99395],[-122.56819,37.99258],[-122.56729,37.9916],[-122.56792,37.99139],[-122.5673,37.99052],[-122.56658,37.99071],[-122.56503,37.98817],[-122.56291621621622,37.986867567567565],[-122.5639,37.9875],[-122.5619,37.9893],[-122.5609904,37.98935053333334],[-122.56174,37.99035],[-122.56178,37.98943],[-122.56287,37.98925],[-122.5633,37.98994],[-122.56447,37.98858],[-122.56399,37.99064],[-122.56593,37.99239],[-122.56246,37.99423],[-122.56075,37.99223],[-122.55752,37.99372],[-122.55832,37.98954],[-122.55829142695357,37.98954500849377],[-122.5575,37.9937],[-122.571,38.0096],[-122.5897,38.0238],[-122.5896933405224,38.02380976723381],[-122.58972,38.02383],[-122.58957669491525,38.02398084745763],[-122.5882,38.026],[-122.5966,38.0292],[-122.5988,38.0287],[-122.5989,38.0274],[-122.6077,38.0265],[-122.6113,38.0249],[-122.6132,38.0215],[-122.6169,38.0184],[-122.6137,38.0182],[-122.6145,38.0166],[-122.6136,38.0107],[-122.6162,38.0123],[-122.6182,38.0112],[-122.6143,38.0041],[-122.6168,38.0044],[-122.6146,38.0045],[-122.6183,38.0071],[-122.6247,38.0076],[-122.6272,38.0056],[-122.6262,38],[-122.6272,38.0004],[-122.6294,37.9971],[-122.633,37.9949],[-122.6397,37.9936],[-122.643,37.9967],[-122.6478,37.9967],[-122.6506,37.9954],[-122.6539,37.9999],[-122.6566,37.9979],[-122.6577,37.9994],[-122.6614,37.9988],[-122.6657,38.0003],[-122.6694,37.9993],[-122.6714,37.9969],[-122.6775,38.0029],[-122.6872,38.0029],[-122.692,38.0046],[-122.6982,38.0003],[-122.6984,37.9956],[-122.705,38.0013],[-122.7062,38.0039],[-122.7072,38.0042],[-122.7083,38.0017],[-122.7086,38.0046],[-122.7088,37.9991],[-122.7103,37.9976],[-122.713,37.9996],[-122.7137,37.9985],[-122.7156,37.9999],[-122.7161,37.9979],[-122.7201,37.9966]]],[[[-122.57921835234252,37.96946152833831],[-122.57289,37.96783],[-122.57011523542808,37.967777973164274],[-122.57921835234252,37.96946152833831]]],[[[-122.57595081967213,37.931754098360656],[-122.5757,37.9314],[-122.5735,37.931],[-122.57595081967213,37.931754098360656]]],[[[-122.5674777646796,37.96772852058774],[-122.56649,37.96771],[-122.56059,37.96956],[-122.5674777646796,37.96772852058774]]],[[[-122.56097,37.97918],[-122.55956103250477,37.980872313575524],[-122.56094901017825,37.97925925844149],[-122.56097,37.97918]]],[[[-122.56024289940828,37.98192556213018],[-122.55936768447837,37.985076335877864],[-122.55906184022824,37.986379386590585],[-122.55906355521937,37.98637881492688],[-122.56024289940828,37.98192556213018]]],[[[-122.55848068571429,37.98948996190476],[-122.55832977684024,37.9894983457311],[-122.55832,37.98954],[-122.55848068571429,37.98948996190476]]],[[[-122.55493,37.97306],[-122.55246,37.97207],[-122.55242088894992,37.97251698342946],[-122.55493,37.97306]]],[[[-122.55080496200716,37.97219414623656],[-122.55042,37.97203],[-122.54863,37.97228],[-122.55080496200716,37.97219414623656]]],[[[-122.53977712428417,37.922114623123356],[-122.53977506259852,37.92211401836224],[-122.53961889675976,37.922119354324835],[-122.53962,37.92212],[-122.53977712428417,37.922114623123356]]],[[[-122.5250307417307,37.93100776411627],[-122.52485,37.93115],[-122.52501486634193,37.93122684448141],[-122.5250307417307,37.93100776411627]]],[[[-122.52119,37.93845],[-122.51632,37.94057],[-122.5165828210422,37.93919807415972],[-122.51588,37.9404],[-122.51593,37.94187],[-122.51752,37.94022],[-122.52119,37.93845]]],[[[-122.51732,37.93535],[-122.51717034727864,37.935386279447606],[-122.51719174037909,37.93601951522114],[-122.51732,37.93535]]],[[[-122.51608403726708,37.93564962732919],[-122.51567,37.93575],[-122.51542820448879,37.9359968329177],[-122.51608403726708,37.93564962732919]]],[[[-122.5146968000003,37.952117199999954],[-122.51177,37.95256],[-122.50862,37.95116],[-122.51007,37.95218],[-122.51005874633051,37.95219370747712],[-122.5118,37.9526],[-122.5146968000003,37.952117199999954]]],[[[-122.51346,37.94311],[-122.51279,37.93869],[-122.51286,37.94222],[-122.50979,37.94049],[-122.50989,37.94143],[-122.50239,37.94172],[-122.49764,37.93842],[-122.48968,37.93572],[-122.48148,37.93592],[-122.48268,37.93286],[-122.48138174916903,37.92084618654117],[-122.45834866485013,37.919745340599455],[-122.43020389127953,37.91842112408887],[-122.4323,37.9298],[-122.435,37.9368],[-122.4801,37.9429],[-122.48834303998365,37.9445404059669],[-122.48849,37.94454],[-122.4886096582657,37.94459346433148],[-122.49370081255321,37.94560662936382],[-122.49378,37.94559],[-122.49981894356006,37.94682416787265],[-122.5002,37.9469],[-122.50023188936343,37.946924486475496],[-122.501742942314,37.94780777421277],[-122.50239,37.94292],[-122.50138,37.94248],[-122.509,37.9423],[-122.51346,37.94311]]],[[[-122.51173333333334,37.90806666666667],[-122.5106,37.9078],[-122.51060284644194,37.90782277153558],[-122.51173333333334,37.90806666666667]]],[[[-122.51079,37.90943],[-122.51078625139576,37.909399823735846],[-122.503,37.9093],[-122.50301487170545,37.90932035075482],[-122.51079,37.90943]]],[[[-122.50489,37.91193],[-122.50486763738641,37.91189928083081],[-122.4959,37.9117],[-122.4957,37.9156],[-122.4892,37.9153],[-122.48919881291157,37.91533086429915],[-122.49571,37.91563],[-122.49594,37.91173],[-122.50489,37.91193]]]]}},{"type":"Feature","properties":{"GEOID":"0604192205","NAME":"Novato","COUNTY":"041"},"geometry":{"type":"MultiPolygon","coordinates":[[[[-122.7002,38.1342],[-122.6987,38.1209],[-122.6963,38.1165],[-122.6915,38.1143],[-122.6761,38.116],[-122.6673,38.1128],[-122.6655,38.1041],[-122.6654,38.0957],[-122.6637,38.0936],[-122.6461,38.0882],[-122.6396,38.0917],[-122.6305,38.0898],[-122.6154,38.0829],[-122.6037,38.0761],[-122.6012,38.0705],[-122.5975,38.0671],[-122.6062,38.058],[-122.5968,38.0535],[-122.5904,38.053],[-122.5883,38.0492],[-122.5829,38.0489],[-122.573,38.0454],[-122.55512123759792,38.04673851697128],[-122.57112,38.04632],[-122.57461,38.04796],[-122.5942,38.06633],[-122.58805,38.06907],[-122.5844,38.06886],[-122.58659,38.08547],[-122.58333,38.08807],[-122.57935,38.08935],[-122.58022,38.09008],[-122.57901,38.09067],[-122.58402,38.09286],[-122.58549,38.09286],[-122.58499,38.09225],[-122.58574,38.09155],[-122.58708,38.09246],[-122.58751,38.09133],[-122.59325,38.09375],[-122.58983,38.09856],[-122.59175,38.09966],[-122.59291,38.0979],[-122.59803,38.10003],[-122.59848,38.09926],[-122.59949,38.09979],[-122.59896,38.10052],[-122.6049,38.10318],[-122.60632,38.10128],[-122.60552,38.10104],[-122.60619,38.10013],[-122.60687,38.10051],[-122.6084,38.09844],[-122.6066,38.09753],[-122.61096,38.0909],[-122.61331,38.08964],[-122.61642,38.0905],[-122.61532,38.0973],[-122.6182,38.09906],[-122.61691,38.1005],[-122.61651,38.1035],[-122.61548,38.10371],[-122.61658,38.104],[-122.61691,38.1057],[-122.61631,38.10574],[-122.61579,38.10877],[-122.61822,38.11064],[-122.62062,38.11051],[-122.6217,38.10922],[-122.62226,38.10998],[-122.62366,38.10997],[-122.62365,38.11129],[-122.62042,38.11145],[-122.61981,38.11299],[-122.61625,38.11318],[-122.61335,38.11457],[-122.62045,38.11603],[-122.61908794562095,38.12090158135575],[-122.6255,38.1231],[-122.6305,38.1329],[-122.6382,38.1371],[-122.6416,38.1463],[-122.6493,38.1476],[-122.6529,38.148],[-122.6611,38.1455],[-122.6669,38.1486],[-122.6832,38.1492],[-122.6922,38.1458],[-122.6966,38.1424],[-122.7002,38.1342]]],[[[-122.61849215471447,38.12072076693227],[-122.61849,38.12072],[-122.61675,38.12521],[-122.61472,38.12607],[-122.61471337517433,38.12609426778243],[-122.6168,38.1252],[-122.61849215471447,38.12072076693227]]],[[[-122.6124052496799,38.13112471190781],[-122.61182,38.1318],[-122.6089,38.13878],[-122.60879025685124,38.14779889149805],[-122.6088,38.1478],[-122.6089,38.1388],[-122.6124052496799,38.13112471190781]]],[[[-122.6087465270936,38.147793916256155],[-122.60734,38.14695],[-122.60174612384232,38.14699746319164],[-122.6087465270936,38.147793916256155]]],[[[-122.6009,38.1853],[-122.5979,38.1795],[-122.5692,38.158],[-122.5644,38.1444],[-122.5636,38.1323],[-122.56423264185038,38.12961127213589],[-122.56371,38.1295],[-122.56325,38.13169],[-122.56327,38.12952],[-122.5653,38.12266],[-122.56414,38.11773],[-122.56044,38.11665],[-122.56406,38.11616],[-122.56396,38.11417],[-122.56205,38.11425],[-122.56119,38.1135],[-122.55812,38.11417],[-122.55572,38.1126],[-122.55046,38.11262],[-122.54893,38.11412],[-122.54739,38.11405],[-122.54737,38.11715],[-122.54971,38.11825],[-122.54574,38.11953],[-122.54407,38.12607],[-122.55095,38.13111],[-122.5406,38.13487],[-122.53351,38.13497],[-122.52337,38.13277],[-122.51777,38.13045],[-122.51655,38.1232],[-122.51905,38.12209],[-122.51816,38.12039],[-122.52205,38.11901],[-122.52467,38.1193],[-122.52492,38.11826],[-122.52658,38.11742],[-122.52905,38.11836],[-122.53393,38.11327],[-122.53567,38.11626],[-122.53261,38.1191],[-122.5338,38.1203],[-122.53344,38.12117],[-122.53574,38.11907],[-122.53697,38.11667],[-122.54219,38.12092],[-122.54104,38.12193],[-122.54305,38.12172],[-122.54349,38.12002],[-122.54898,38.11803],[-122.54273,38.11531],[-122.54614,38.11136],[-122.54622,38.10843],[-122.54461,38.10737],[-122.54117,38.10809],[-122.54106,38.10703],[-122.53929,38.10667],[-122.54077,38.10672],[-122.53918,38.10508],[-122.53769,38.10614],[-122.53422,38.10478],[-122.53523,38.10316],[-122.53381,38.10189],[-122.5351,38.10123],[-122.53427,38.10013],[-122.53472,38.09912],[-122.53307,38.09786],[-122.52545,38.10657],[-122.51847,38.10489],[-122.51362,38.10544],[-122.51282,38.1041],[-122.50732,38.10779],[-122.50712,38.10689],[-122.50816,38.1065],[-122.50077,38.10644],[-122.5014,38.1002],[-122.4927,38.10035],[-122.49378,38.09432],[-122.50241,38.08963],[-122.50613,38.08504],[-122.50919,38.08446],[-122.51226,38.0853],[-122.51481,38.09107],[-122.51785,38.0916],[-122.52318,38.08764],[-122.52848,38.08774],[-122.5291,38.08608],[-122.52755,38.08291],[-122.52823,38.08153],[-122.53385,38.08431],[-122.53453,38.08633],[-122.54275,38.07993],[-122.54035,38.07827],[-122.53762,38.07901],[-122.53486,38.07672],[-122.52858,38.07869],[-122.52729,38.07791],[-122.52574,38.07374],[-122.5243,38.07214],[-122.52158,38.07084],[-122.52096,38.07133],[-122.51159,38.06352],[-122.50059,38.06082],[-122.49669,38.07102],[-122.48136,38.06764],[-122.48987737659628,38.04780243567169],[-122.376,38.0485],[-122.3475,38.0733],[-122.452,38.0985],[-122.5019,38.1124],[-122.5079,38.1181],[-122.5131,38.1322],[-122.5201,38.1407],[-122.5348,38.1492],[-122.5445,38.1587],[-122.5496,38.1573],[-122.5579,38.1602],[-122.558,38.1635],[-122.552,38.169],[-122.5543,38.1701],[-122.5592,38.1686],[-122.5632,38.1693],[-122.5645,38.1751],[-122.5685,38.177],[-122.5653,38.1827],[-122.5685,38.1842],[-122.5707,38.1871],[-122.5732,38.1863],[-122.5707,38.1835],[-122.5732,38.1833],[-122.5782,38.1836],[-122.582,38.1862],[-122.5821,38.188],[-122.5833,38.187],[-122.5866,38.1878],[-122.5911,38.186],[-122.5926,38.1888],[-122.6009,38.1853]]],[[[-122.59230882468694,38.14592375849732],[-122.5921,38.14589],[-122.58049,38.13628],[-122.5777706004715,38.13839176813202],[-122.5778,38.1384],[-122.5805,38.1363],[-122.5921,38.1459],[-122.59230882468694,38.14592375849732]]],[[[-122.56526,38.12983],[-122.56451573142286,38.12967154281906],[-122.56471358508304,38.13099056722031],[-122.56526,38.12983]]],[[[-122.55334,38.06607],[-122.54901,38.06576],[-122.54884,38.06377],[-122.55011,38.06363],[-122.54993,38.06251],[-122.54862,38.0625],[-122.5485,38.06121],[-122.54979,38.06047],[-122.5496,38.05982],[-122.54837,38.05991],[-122.54825,38.05876],[-122.54634,38.05887],[-122.54616,38.06004],[-122.54394,38.05935],[-122.54299,38.06111],[-122.5436,38.06214],[-122.54071,38.06338],[-122.53415,38.06137],[-122.53618,38.06336],[-122.53957,38.06487],[-122.54197,38.06423],[-122.54219,38.0656],[-122.54377,38.06578],[-122.54488,38.06652],[-122.54468,38.06714],[-122.54718,38.06813],[-122.55174,38.06867],[-122.55334,38.06607]]],[[[-122.54402569395018,38.04428384341637],[-122.5396,38.0432],[-122.53789836065573,38.04230663934426],[-122.53957,38.04321],[-122.54402569395018,38.04428384341637]]],[[[-122.53339166666666,38.04165208333333],[-122.5308,38.0423],[-122.5272,38.0401],[-122.52458655172414,38.03976737931035],[-122.52718,38.04011],[-122.52755,38.04124],[-122.53077,38.04234],[-122.53339166666666,38.04165208333333]]],[[[-122.52170804245283,38.03940102358491],[-122.5217,38.0394],[-122.5193,38.0406],[-122.51930102325882,38.04060944546598],[-122.52170804245283,38.03940102358491]]],[[[-122.5206,38.05261],[-122.52059886477463,38.052599688369504],[-122.51955144,38.05231216],[-122.5206,38.05261]]],[[[-122.51549090714853,38.05115877907332],[-122.5140125047152,38.044456688042246],[-122.51417,38.04865],[-122.51546,38.05115],[-122.51549090714853,38.05115877907332]]],[[[-122.50801377272727,38.04529793409091],[-122.508,38.0453],[-122.50661171146461,38.04767992320351],[-122.50663,38.04768],[-122.50801377272727,38.04529793409091]]]]}},{"type":"Feature","properties":{"GEOID":"0604192880","NAME":"San Rafael","COUNTY":"041"},"geometry":{"type":"MultiPolygon","coordinates":[[[[-122.6246,38.0398],[-122.6192,38.036],[-122.6193,38.0337],[-122.6168,38.0296],[-122.6224,38.0264],[-122.6193,38.025],[-122.6185,38.0236],[-122.6197,38.0232],[-122.6196,38.0217],[-122.6158,38.0208],[-122.6165,38.0197],[-122.6133,38.0214],[-122.6113,38.025],[-122.6077,38.0265],[-122.5989,38.0274],[-122.5986,38.0289],[-122.5966,38.0292],[-122.5882,38.026],[-122.58957669491525,38.02398084745763],[-122.58877,38.02483],[-122.58664,38.02748],[-122.58505,38.02539],[-122.57647,38.02534],[-122.57382,38.02689],[-122.56919,38.02522],[-122.55906,38.02545],[-122.55503,38.02689],[-122.55122,38.02707],[-122.54502,38.02497],[-122.53903,38.02117],[-122.53814,38.02491],[-122.53084,38.02614],[-122.52435,38.02206],[-122.52312,38.02399],[-122.51925,38.02621],[-122.51687,38.02521],[-122.50651,38.0291],[-122.50641,38.02575],[-122.50193,38.02582],[-122.5018,38.02221],[-122.50398,38.02217],[-122.5039,38.01832],[-122.50544,38.01818],[-122.51514,38.02132],[-122.51651,38.0211],[-122.51942,38.01611],[-122.51959,38.01433],[-122.52446,38.01484],[-122.52815,38.01338],[-122.5282,38.01005],[-122.52406,38.00803],[-122.52414,38.00626],[-122.52915,38.00328],[-122.52684,38.00151],[-122.52972,37.9993],[-122.52767,37.99734],[-122.52943,37.99593],[-122.52826,37.99495],[-122.52746,37.99651],[-122.52242,37.99402],[-122.52067,37.99186],[-122.51816,37.99135],[-122.51652,37.99302],[-122.51443,37.99352],[-122.51356,37.9955],[-122.51185,37.99672],[-122.51001,37.99708],[-122.50803,37.99588],[-122.50438,37.99818],[-122.50213,37.9986],[-122.50134,37.99683],[-122.49552,37.99767],[-122.48787,37.99576],[-122.47511,38.00227],[-122.46525,38.00043],[-122.45922,37.99733],[-122.45647,37.99687],[-122.45277,37.99795],[-122.44945,37.99009],[-122.45259,37.98975],[-122.45216,37.99089],[-122.45435,37.99101],[-122.46091,37.98811],[-122.46547,37.98707],[-122.46779,37.98484],[-122.47278,37.98264],[-122.47532,37.97892],[-122.4765,37.97868],[-122.47525,37.97833],[-122.4754,37.97776],[-122.47679,37.97853],[-122.47722,37.97783],[-122.47902,37.97805],[-122.47927,37.97867],[-122.47768,37.97979],[-122.47995,37.98115],[-122.47964,37.98363],[-122.48201,37.98442],[-122.48178,37.98347],[-122.48276,37.98285],[-122.48627,37.98439],[-122.4877,37.98213],[-122.48338,37.97976],[-122.48318,37.97806],[-122.48103,37.97501],[-122.47736,37.97394],[-122.47586,37.97556],[-122.47511,37.97433],[-122.47397,37.97431],[-122.47404,37.97114],[-122.44158,37.97082],[-122.44109032258065,37.959883870967744],[-122.4416,37.9739],[-122.3928,38.027],[-122.376,38.0485],[-122.48987737659628,38.04780243567169],[-122.48996,38.04761],[-122.50661171146461,38.04767992320351],[-122.508,38.0453],[-122.50801377272727,38.04529793409091],[-122.50803,38.04527],[-122.51401,38.04439],[-122.5140125047152,38.044456688042246],[-122.51549090714853,38.05115877907332],[-122.51955144,38.05231216],[-122.52059886477463,38.052599688369504],[-122.51928,38.04062],[-122.51930102325882,38.04060944546598],[-122.5193,38.0406],[-122.5217,38.0394],[-122.52170804245283,38.03940102358491],[-122.52173,38.03939],[-122.52458655172414,38.03976737931035],[-122.5272,38.0401],[-122.5308,38.0423],[-122.53339166666666,38.04165208333333],[-122.53561,38.04107],[-122.53789836065573,38.04230663934426],[-122.5396,38.0432],[-122.54402569395018,38.04428384341637],[-122.5543,38.04676],[-122.55512123759792,38.04673851697128],[-122.573,38.0454],[-122.5829,38.0489],[-122.5883,38.0492],[-122.5904,38.053],[-122.5968,38.0535],[-122.6132,38.0613],[-122.6161,38.0611],[-122.6188,38.0565],[-122.6206,38.0459],[-122.6225,38.0481],[-122.6218,38.0464],[-122.6246,38.0398]]],[[[-122.5897,38.0238],[-122.571,38.0096],[-122.5575,37.9937],[-122.55829142695357,37.98954500849377],[-122.55484,37.99015],[-122.55254,37.9889],[-122.55349,37.98787],[-122.55245,37.98732],[-122.55383,37.9858],[-122.55266,37.98512],[-122.55148,37.9861],[-122.55075,37.98564],[-122.55075,37.99098],[-122.55737,37.99356],[-122.57097,38.0096],[-122.5896933405224,38.02380976723381],[-122.5897,38.0238]]],[[[-122.5639,37.9875],[-122.56291621621622,37.986867567567565],[-122.56107,37.98573],[-122.55905,37.98643],[-122.55906355521937,37.98637881492688],[-122.55906184022824,37.986379386590585],[-122.55832977684024,37.9894983457311],[-122.55848068571429,37.98948996190476],[-122.5606,37.98883],[-122.5609904,37.98935053333334],[-122.5619,37.9893],[-122.5639,37.9875]]],[[[-122.56094901017825,37.97925925844149],[-122.55956103250477,37.980872313575524],[-122.55734,37.98354],[-122.55724800582665,37.98350367953387],[-122.55643,37.98445],[-122.55736,37.98502],[-122.55951,37.98447],[-122.55936768447837,37.985076335877864],[-122.56024289940828,37.98192556213018],[-122.56094901017825,37.97925925844149]]],[[[-122.55028,37.99171],[-122.54411,37.98899],[-122.54513,37.9881],[-122.5428,37.98842],[-122.53711,37.9869],[-122.53554,37.98761],[-122.53328,37.98672],[-122.53224,37.98876],[-122.53026,37.98988],[-122.534,37.99195],[-122.53967,37.99325],[-122.54088,37.99467],[-122.54102,37.99639],[-122.54464,37.994],[-122.54702,37.99542],[-122.55028,37.99171]]],[[[-122.52033,37.95412],[-122.51719,37.95174],[-122.5167011205582,37.951813963310386],[-122.52033,37.95412]]],[[[-122.51513,37.95375],[-122.51399,37.95242],[-122.51482463724138,37.95209785931034],[-122.5146968000003,37.952117199999954],[-122.5118,37.9526],[-122.51005874633051,37.95219370747712],[-122.50874,37.9538],[-122.50942,37.958],[-122.51313,37.96101],[-122.51513,37.95814],[-122.51513,37.95375]]],[[[-122.5104,37.96813],[-122.5091,37.96809],[-122.50821,37.96687],[-122.50651,37.96721],[-122.50569,37.96787],[-122.50706,37.96982],[-122.50554,37.9712],[-122.50392,37.97188],[-122.50276,37.97031],[-122.50173,37.97021],[-122.49971,37.97279],[-122.49499,37.97539],[-122.49509,37.9774],[-122.49626,37.97691],[-122.49602,37.97802],[-122.49498,37.97786],[-122.49506,37.98184],[-122.49905,37.98055],[-122.49853,37.98219],[-122.50283,37.9823],[-122.50526,37.98047],[-122.50476,37.98014],[-122.50788,37.97887],[-122.50577,37.9782],[-122.50823,37.97607],[-122.50706,37.97413],[-122.5091,37.96931],[-122.5104,37.96813]]],[[[-122.50023188936343,37.946924486475496],[-122.5002,37.9469],[-122.49981894356006,37.94682416787265],[-122.50019,37.9469],[-122.50023188936343,37.946924486475496]]],[[[-122.49370081255321,37.94560662936382],[-122.4886096582657,37.94459346433148],[-122.49178,37.94601],[-122.49370081255321,37.94560662936382]]],[[[-122.48834303998365,37.9445404059669],[-122.4801,37.9429],[-122.435,37.9368],[-122.43500688663973,37.93682364412974],[-122.48006,37.94293],[-122.48487,37.94455],[-122.48834303998365,37.9445404059669]]]]}},{"type":"Feature","properties":{"GEOID":"0604190256","NAME":"Bolinas","COUNTY":"041"},"geometry":{"type":"MultiPolygon","coordinates":[[[[-122.7864,37.8869],[-122.7791,37.8761],[-122.7737,37.8708],[-122.7525,37.8577],[-122.7403,37.8552],[-122.7307,37.8501],[-122.7158,37.8456],[-122.7047,37.8443],[-122.692,37.845],[-122.6757,37.8485],[-122.6674,37.8417],[-122.6432,37.8305],[-122.6325,37.8278],[-122.6261,37.8216],[-122.6123,37.8152],[-122.5277,37.8151],[-122.5289,37.8201],[-122.5255,37.8211],[-122.5229,37.8249],[-122.5113,37.8247],[-122.5059,37.8231],[-122.5045,37.821],[-122.5017,37.8215],[-122.5007,37.8199],[-122.4991,37.8199],[-122.4996,37.8219],[-122.4958,37.8221],[-122.4912,37.8266],[-122.4846,37.8269],[-122.4833,37.8256],[-122.4781,37.8253],[-122.4784,37.8309],[-122.477,37.8311],[-122.478,37.833],[-122.4745,37.8336],[-122.4728,37.8319],[-122.4716,37.8366],[-122.4766,37.8423],[-122.4772,37.8456],[-122.48087445619028,37.84479037405977],[-122.48135,37.84419],[-122.48313,37.84428],[-122.48317199020637,37.84432370409234],[-122.48613703703704,37.8453],[-122.48671,37.8453],[-122.48693128738621,37.84556152145644],[-122.48779825565298,37.845846986617445],[-122.48808,37.84518],[-122.49121163682061,37.84697090480679],[-122.4913,37.847],[-122.4954,37.8504],[-122.49531168368411,37.850456201291934],[-122.50746660201706,37.85568667959659],[-122.5114,37.8549],[-122.5163,37.8568],[-122.5218,37.8565],[-122.5249,37.8547],[-122.524,37.8523],[-122.5259,37.85],[-122.5331,37.8538],[-122.5326,37.8555],[-122.5351,37.857],[-122.533,37.8588],[-122.5382,37.8636],[-122.5387,37.8652],[-122.5377,37.8644],[-122.5372,37.866],[-122.5399,37.8704],[-122.5438,37.8701],[-122.5487,37.8671],[-122.5512,37.8673],[-122.549,37.8694],[-122.5512,37.8691],[-122.5507,37.8704],[-122.5528,37.8715],[-122.5511,37.8731],[-122.5523,37.8745],[-122.5517,37.8763],[-122.5538,37.8777],[-122.5537,37.8842],[-122.5546,37.8833],[-122.5546,37.8883],[-122.5566,37.8927],[-122.5625,37.8982],[-122.5627,37.8997],[-122.5683,37.9012],[-122.5704,37.9047],[-122.5729,37.9054],[-122.577,37.91],[-122.57671259246024,37.91017494371985],[-122.57703,37.91052],[-122.57588,37.91147],[-122.57439971228617,37.911582783825814],[-122.57242267605633,37.912786197183095],[-122.5731,37.91327],[-122.57221143884892,37.91411992805755],[-122.5722,37.9142],[-122.57094332191781,37.91426130136986],[-122.57069,37.91469],[-122.5683077032967,37.91438986813187],[-122.56816030786773,37.914397058152794],[-122.56865285714285,37.91569],[-122.5687,37.9158],[-122.56869549707602,37.91580192982456],[-122.56871,37.91584],[-122.5684352606635,37.91591345971564],[-122.56678715025907,37.91661979274611],[-122.56650698972099,37.918102995594715],[-122.56839,37.91891],[-122.57001,37.91957],[-122.56982,37.92137],[-122.56980374604356,37.921366285607895],[-122.5698,37.9214],[-122.56958139939157,37.92131547443141],[-122.564,37.92004],[-122.56342346311476,37.91893440573771],[-122.56239753363229,37.91853771300448],[-122.56341,37.91998],[-122.56338724077328,37.91998260105448],[-122.5634,37.92],[-122.56197697368421,37.92104355263158],[-122.56195,37.92111],[-122.56387,37.92133],[-122.56474,37.92241],[-122.56386,37.92327],[-122.56202722274881,37.92341701421801],[-122.5636,37.9244],[-122.56358640776699,37.924415291262136],[-122.56361,37.92443],[-122.56283,37.92532],[-122.56001,37.92541],[-122.56073,37.92772],[-122.56029311827957,37.92921053763441],[-122.5604,37.9306],[-122.5582,37.9303],[-122.5633,37.9355],[-122.5665,37.9355],[-122.5688,37.9339],[-122.57,37.9353],[-122.5729,37.9357],[-122.5734,37.9341],[-122.5704,37.9333],[-122.5702,37.9297],[-122.5719,37.9326],[-122.5749,37.9323],[-122.5768,37.9339],[-122.5776,37.9337],[-122.57604926829268,37.931784390243905],[-122.5774,37.9322],[-122.58,37.9305],[-122.58,37.9284],[-122.5844,37.9288],[-122.5877,37.9249],[-122.5929,37.9272],[-122.5954,37.9255],[-122.5956,37.9227],[-122.6007,37.923],[-122.6065,37.9189],[-122.6074,37.9153],[-122.6106,37.9142],[-122.612,37.9107],[-122.616,37.9091],[-122.6192,37.9092],[-122.6256,37.9115],[-122.6246,37.9129],[-122.6288,37.9166],[-122.63,37.9204],[-122.6403,37.9246],[-122.6465,37.9338],[-122.6567,37.9369],[-122.6585,37.9406],[-122.6631,37.9453],[-122.669,37.9471],[-122.669,37.9489],[-122.6734,37.9517],[-122.676,37.9513],[-122.6767,37.9535],[-122.6805,37.955],[-122.6834,37.9579],[-122.6826,37.9597],[-122.684,37.9619],[-122.6943,37.9681],[-122.6991,37.9646],[-122.7074,37.9528],[-122.7093,37.9515],[-122.7132,37.9524],[-122.7109,37.9479],[-122.7085,37.9466],[-122.7144,37.9424],[-122.7133,37.9383],[-122.7158,37.9362],[-122.7148,37.9346],[-122.7185,37.9334],[-122.7249,37.9345],[-122.7864,37.8869]]],[[[-122.5102,37.8569],[-122.51015485795455,37.85688065340909],[-122.51008979533556,37.85701236554022],[-122.5102,37.8569]]],[[[-122.50546633802817,37.86172647887324],[-122.50508152277811,37.86208914058012],[-122.5051,37.8621],[-122.50546633802817,37.86172647887324]]]]}}]}