{"type":"FeatureCollection","features":[{"type":"Feature","geometry":{"type":"Polygon","coordinates":[[[-120.3953,37.6723],[-120.3927,37.6699],[-120.3938,37.6676],[-120.3906,37.6665],[-120.3892,37.6632],[-120.3843,37.658],[-120.3794,37.6568],[-120.3753,37.653],[-120.3764,37.6489],[-120.381,37.6438],[-120.3811,37.6417],[-120.3832,37.6419],[-120.385,37.6351],[-120.3871,37.6348],[-120.3877,37.6334],[-120.3215,37.5244],[-120.3008,37.5184],[-120.2936,37.5206],[-120.283,37.5302],[-120.2789,37.5447],[-120.2828,37.551],[-120.2798,37.5573],[-120.2804,37.5656],[-120.2838,37.5748],[-120.2828,37.5796],[-120.282,37.581],[-120.2743,37.5833],[-120.2647,37.5886],[-120.2646,37.5972],[-120.2633,37.599],[-120.2663,37.6052],[-120.2623,37.6097],[-120.2672,37.6143],[-120.27,37.6191],[-120.2689,37.6258],[-120.2703,37.6303],[-120.2793,37.637],[-120.2886,37.6496],[-120.289,37.6554],[-120.2824,37.659],[-120.2785,37.6561],[-120.2705,37.6557],[-120.2531,37.6615],[-120.2437,37.6592],[-120.2405,37.6626],[-120.2338,37.6661],[-120.2323,37.6723],[-120.2301,37.6735],[-120.2252,37.6723],[-120.2217,37.669],[-120.2195,37.6645],[-120.2087,37.6625],[-120.2026,37.6559],[-120.1961,37.6546],[-120.1901,37.6506],[-120.1841,37.6514],[-120.1812,37.6503],[-120.1712,37.6366],[-120.1629,37.6297],[-120.145,37.6188],[-120.14,37.6112],[-120.1322,37.6117],[-120.1265,37.6142],[-120.1242,37.6075],[-120.1217,37.6058],[-120.1102,37.6062],[-120.1024,37.6028],[-120.0969,37.603],[-120.0938,37.5999],[-120.0874,37.603],[-120.0824,37.6025],[-120.0811,37.5998],[-120.0828,37.597],[-120.0767,37.5948],[-120.071,37.5963],[-120.0635,37.6067],[-120.0607,37.6076],[-120.0593,37.6107],[-120.052,37.6167],[-120.0405,37.6188],[-120.032,37.6189],[-120.0275,37.6214],[-120.0227,37.6211],[-120.0201,37.6191],[-120.0208,37.6164],[-120.0172,37.6124],[-120.0058,37.6078],[-120.0024,37.6082],[-119.9993,37.6069],[-119.9997,37.6002],[-120.0041,37.5969],[-120.004,37.5953],[-119.9989,37.5928],[-119.9896,37.5933],[-119.9829,37.5957],[-119.9812,37.5992],[-119.9758,37.6025],[-119.9678,37.6042],[-119.9578,37.6127],[-119.9573,37.6182],[-119.9551,37.6223],[-119.9466,37.6304],[-119.9442,37.6318],[-119.9372,37.6319],[-119.9317,37.6385],[-119.927,37.6399],[-119.9257,37.6427],[-119.9223,37.6444],[-119.916,37.6514],[-119.9154,37.654],[-119.9182,37.6611],[-119.925,37.6653],[-119.9244,37.6679],[-119.9176,37.6689],[-119.9102,37.672],[-119.9068,37.6696],[-119.9014,37.6695],[-119.8985,37.6715],[-119.8944,37.6709],[-119.893,37.6732],[-119.8891,37.6738],[-119.8893,37.6774],[-119.8879,37.6774],[-119.8878,37.6794],[-119.8866,37.6795],[-119.8875,37.681],[-119.8864,37.6813],[-119.8854,37.6856],[-119.8833,37.6893],[-119.8777,37.6935],[-119.8776,37.6952],[-119.873,37.6955],[-119.8726,37.697],[-119.8677,37.6976],[-119.8646,37.703],[-119.8618,37.7022],[-119.8562,37.7058],[-119.8538,37.7133],[-119.8544,37.7162],[-119.851,37.718],[-119.855,37.7272],[-119.8525,37.7331],[-119.8533,37.7386],[-119.8524,37.7582],[-119.8539,37.7612],[-119.8606,37.7644],[-119.8645,37.7722],[-119.8673,37.7721],[-119.8682,37.7732],[-119.8755,37.7725],[-119.8727,37.7675],[-119.876,37.7638],[-119.8811,37.763],[-119.8849,37.7607],[-119.8943,37.7621],[-119.9001,37.7603],[-119.9012,37.7578],[-119.907,37.7579],[-119.9152,37.7626],[-119.918,37.7622],[-119.9237,37.764],[-119.9293,37.7648],[-119.9304,37.7633],[-119.9338,37.7638],[-119.9354,37.7628],[-119.9417,37.7639],[-119.9448,37.7649],[-119.9476,37.7704],[-119.9506,37.7705],[-119.955,37.7732],[-119.9649,37.7828],[-119.9718,37.784],[-119.9802,37.789],[-119.9984,37.7962],[-120.001,37.7987],[-120.0036,37.7989],[-120.0068,37.8017],[-120.0131,37.8037],[-120.025,37.8113],[-120.0319,37.8111],[-120.0363,37.8079],[-120.0382,37.8103],[-120.0446,37.813],[-120.0467,37.8132],[-120.0489,37.8112],[-120.0546,37.8126],[-120.0583,37.8248],[-120.0616,37.826],[-120.0652,37.8229],[-120.0662,37.8242],[-120.0795,37.8288],[-120.0854,37.8267],[-120.0855,37.8234],[-120.0905,37.8221],[-120.0907,37.816],[-120.092,37.8156],[-120.0889,37.8125],[-120.0903,37.8107],[-120.0936,37.8099],[-120.0937,37.8082],[-120.0987,37.8077],[-120.0987,37.8047],[-120.1013,37.8025],[-120.1007,37.8007],[-120.1062,37.799],[-120.1114,37.7942],[-120.1158,37.7932],[-120.1181,37.7899],[-120.12,37.7896],[-120.1194,37.7859],[-120.1243,37.7855],[-120.1272,37.7816],[-120.1421,37.783],[-120.1469,37.7863],[-120.1538,37.7884],[-120.1618,37.7874],[-120.173,37.795],[-120.173,37.7982],[-120.1742,37.7994],[-120.1784,37.7947],[-120.1826,37.7952],[-120.183,37.7932],[-120.1806,37.7884],[-120.1834,37.783],[-120.1887,37.7802],[-120.1835,37.7749],[-120.1869,37.7723],[-120.1891,37.7679],[-120.1914,37.7675],[-120.1937,37.7698],[-120.1977,37.7696],[-120.1981,37.7653],[-120.2011,37.7632],[-120.2095,37.7632],[-120.2119,37.765],[-120.216,37.7653],[-120.217,37.7628],[-120.2229,37.7624],[-120.2242,37.7636],[-120.2268,37.7603],[-120.2307,37.7638],[-120.2358,37.7638],[-120.2382,37.7653],[-120.2409,37.7585],[-120.2389,37.7559],[-120.2397,37.7535],[-120.2476,37.7497],[-120.2533,37.7507],[-120.2572,37.7478],[-120.2578,37.744],[-120.2617,37.7407],[-120.2604,37.7367],[-120.2579,37.7352],[-120.2601,37.7337],[-120.2761,37.739],[-120.2824,37.7454],[-120.2868,37.7399],[-120.2838,37.7336],[-120.2865,37.7294],[-120.2959,37.7334],[-120.3057,37.7342],[-120.3077,37.7356],[-120.3096,37.7342],[-120.3155,37.7338],[-120.3212,37.726],[-120.3261,37.7261],[-120.3283,37.7283],[-120.3323,37.7296],[-120.3353,37.7278],[-120.3356,37.7265],[-120.3445,37.7263],[-120.3454,37.7248],[-120.3425,37.7228],[-120.3431,37.721],[-120.3398,37.7171],[-120.3406,37.7155],[-120.3381,37.7091],[-120.3333,37.7068],[-120.3318,37.7029],[-120.3327,37.702],[-120.3302,37.6996],[-120.3298,37.6973],[-120.3226,37.6873],[-120.3195,37.6864],[-120.3176,37.6814],[-120.3104,37.6731],[-120.3064,37.6658],[-120.3123,37.6629],[-120.3097,37.6567],[-120.3126,37.6537],[-120.3245,37.6491],[-120.3277,37.6496],[-120.3321,37.6528],[-120.3353,37.659],[-120.3433,37.6631],[-120.3451,37.6678],[-120.3484,37.6717],[-120.3554,37.6755],[-120.3625,37.6728],[-120.3626,37.6755],[-120.365,37.6771],[-120.3667,37.6809],[-120.3694,37.6796],[-120.3745,37.6803],[-120.3765,37.682],[-120.3797,37.681],[-120.3866,37.6848],[-120.3919,37.6836],[-120.3917,37.6798],[-120.3936,37.6795],[-120.3925,37.6754],[-120.3944,37.675],[-120.3953,37.6723]]]},"properties":{"GEOID":"0604390600","NAME":"Coulterville","COUNTY":"043"}},{"type":"Feature","geometry":{"type":"Polygon","coordinates":[[[-119.8526,37.75],[-119.853,37.7386],[-119.7782,37.738],[-119.7771,37.7367],[-119.7784,37.7082],[-119.7626,37.7093],[-119.7601,37.7083],[-119.7601,37.6971],[-119.7647,37.6971],[-119.7647,37.7012],[-119.7701,37.7012],[-119.7701,37.6975],[-119.7671,37.6975],[-119.7671,37.6955],[-119.7653,37.6954],[-119.7653,37.6891],[-119.7632,37.6891],[-119.7624,37.6865],[-119.76,37.6865],[-119.76,37.6779],[-119.7693,37.6767],[-119.77,37.6798],[-119.7793,37.68],[-119.7791,37.6784],[-119.7834,37.6785],[-119.7833,37.6768],[-119.8066,37.6774],[-119.8065,37.6806],[-119.8113,37.6807],[-119.8114,37.6723],[-119.8163,37.6724],[-119.8179,37.6695],[-119.8077,37.6653],[-119.8063,37.6673],[-119.8015,37.6671],[-119.8013,37.6706],[-119.7595,37.6689],[-119.759,37.6584],[-119.7154,37.6586],[-119.7154,37.6551],[-119.7133,37.6552],[-119.7132,37.6443],[-119.7222,37.6443],[-119.7227,37.6297],[-119.6956,37.6299],[-119.6953,37.6224],[-119.7046,37.6224],[-119.7045,37.6153],[-119.6958,37.6153],[-119.6956,37.5793],[-119.7034,37.5792],[-119.703,37.5516],[-119.6893,37.5508],[-119.6893,37.5475],[-119.6851,37.5474],[-119.685,37.5373],[-119.6781,37.5374],[-119.6772,37.5256],[-119.6727,37.5255],[-119.6723,37.5136],[-119.676,37.5131],[-119.6796,37.5145],[-119.6807,37.5171],[-119.6825,37.5168],[-119.6826,37.5144],[-119.68,37.5138],[-119.6814,37.5116],[-119.6808,37.5098],[-119.6846,37.5116],[-119.689,37.5116],[-119.7,37.5051],[-119.7009,37.5033],[-119.6994,37.5003],[-119.7004,37.4987],[-119.6976,37.4982],[-119.6965,37.4963],[-119.6979,37.4954],[-119.6976,37.4894],[-119.6997,37.4853],[-119.6981,37.4816],[-119.7013,37.478],[-119.7007,37.4755],[-119.6993,37.4748],[-119.7003,37.4716],[-119.698,37.4674],[-119.6888,37.464],[-119.6882,37.4621],[-119.6897,37.4581],[-119.687,37.4583],[-119.6825,37.4611],[-119.6808,37.4601],[-119.6807,37.458],[-119.6779,37.4568],[-119.6746,37.4607],[-119.6738,37.4636],[-119.67,37.4601],[-119.6669,37.4603],[-119.6695,37.4581],[-119.6686,37.457],[-119.6701,37.4556],[-119.6671,37.4541],[-119.6692,37.4531],[-119.6705,37.4495],[-119.668,37.4489],[-119.6676,37.4466],[-119.6619,37.4427],[-119.6591,37.4395],[-119.6598,37.4379],[-119.6586,37.4367],[-119.6557,37.4393],[-119.6545,37.4439],[-119.6512,37.4459],[-119.6512,37.4614],[-119.6155,37.4615],[-119.6151,37.4947],[-119.5842,37.4947],[-119.5836,37.5603],[-119.309,37.778],[-119.311,37.7784],[-119.311,37.7797],[-119.3079,37.7812],[-119.3073,37.7828],[-119.3105,37.7856],[-119.3112,37.7935],[-119.3218,37.794],[-119.327,37.7994],[-119.3319,37.7992],[-119.3394,37.8055],[-119.3459,37.8056],[-119.349,37.8108],[-119.355,37.8118],[-119.3554,37.8138],[-119.3528,37.8175],[-119.3514,37.8255],[-119.3726,37.8329],[-119.3739,37.8352],[-119.3738,37.8397],[-119.3755,37.8409],[-119.3771,37.8397],[-119.3798,37.8409],[-119.3837,37.8365],[-119.3926,37.8379],[-119.4006,37.8347],[-119.4027,37.8352],[-119.4047,37.8372],[-119.4051,37.8482],[-119.4073,37.8549],[-119.4155,37.8546],[-119.422,37.8577],[-119.4249,37.8655],[-119.4268,37.8667],[-119.4342,37.8651],[-119.4393,37.8602],[-119.4427,37.8598],[-119.442,37.8675],[-119.4439,37.8692],[-119.4486,37.8685],[-119.4515,37.871],[-119.4542,37.8707],[-119.4628,37.8684],[-119.466,37.8646],[-119.4703,37.863],[-119.4743,37.8556],[-119.4769,37.8596],[-119.4812,37.8608],[-119.4841,37.8644],[-119.4869,37.8649],[-119.4923,37.8631],[-119.4996,37.8676],[-119.5038,37.8686],[-119.5082,37.8767],[-119.5153,37.8844],[-119.5238,37.8867],[-119.5298,37.8911],[-119.5312,37.895],[-119.5336,37.8971],[-119.534,37.9029],[-119.5357,37.9041],[-119.5567,37.9009],[-119.5586,37.9031],[-119.5659,37.9017],[-119.5709,37.8974],[-119.5816,37.8937],[-119.5864,37.8901],[-119.5858,37.8847],[-119.5873,37.8787],[-119.5845,37.8762],[-119.5849,37.8749],[-119.592,37.8661],[-119.5994,37.8599],[-119.6063,37.8571],[-119.6102,37.8532],[-119.6119,37.8542],[-119.6191,37.8532],[-119.623,37.8485],[-119.625,37.8477],[-119.6325,37.8475],[-119.6381,37.8491],[-119.6462,37.8468],[-119.6486,37.845],[-119.6524,37.8389],[-119.6577,37.8341],[-119.6573,37.8318],[-119.6535,37.8288],[-119.6509,37.8208],[-119.6539,37.8104],[-119.6599,37.8094],[-119.6672,37.8012],[-119.6706,37.8002],[-119.6897,37.8002],[-119.6914,37.7995],[-119.6957,37.792],[-119.6996,37.7891],[-119.7098,37.7935],[-119.7168,37.7917],[-119.7227,37.7876],[-119.7271,37.7869],[-119.7339,37.7879],[-119.7388,37.7845],[-119.746,37.7829],[-119.751,37.7733],[-119.7552,37.7721],[-119.7592,37.7727],[-119.7626,37.7703],[-119.769,37.7711],[-119.772,37.7689],[-119.772,37.7667],[-119.7779,37.7658],[-119.7811,37.7634],[-119.7845,37.7639],[-119.7861,37.7658],[-119.7915,37.7646],[-119.7979,37.7614],[-119.8052,37.7601],[-119.805,37.7564],[-119.8078,37.755],[-119.8094,37.755],[-119.8129,37.7583],[-119.8207,37.7598],[-119.8228,37.7619],[-119.8248,37.7619],[-119.8273,37.7644],[-119.8279,37.7682],[-119.8306,37.7695],[-119.8415,37.7696],[-119.8411,37.7642],[-119.847,37.7618],[-119.8487,37.7585],[-119.8524,37.7582],[-119.8526,37.75]]]},"properties":{"GEOID":"0604393804","NAME":"Yosemite Valley","COUNTY":"043"}},{"type":"Feature","geometry":{"type":"Polygon","coordinates":[[[-120.3215,37.5244],[-120.3187,37.5206],[-120.3165,37.5143],[-120.3165,37.5054],[-120.3115,37.4972],[-120.2991,37.4888],[-120.3002,37.4843],[-120.295,37.48],[-120.2837,37.4624],[-120.2796,37.4579],[-120.2781,37.4492],[-120.275,37.4436],[-120.2751,37.4407],[-120.278,37.4365],[-120.2841,37.4325],[-120.2834,37.4244],[-120.2797,37.4203],[-120.2758,37.4188],[-120.2681,37.4038],[-120.2547,37.3854],[-120.247,37.3802],[-120.2428,37.3725],[-120.2314,37.3582],[-120.2283,37.3517],[-120.2256,37.3498],[-120.2165,37.3373],[-120.2035,37.3133],[-120.1877,37.3011],[-120.1827,37.2914],[-120.1866,37.2803],[-120.1838,37.2705],[-120.1785,37.2624],[-120.1715,37.2567],[-120.1438,37.2392],[-120.1056,37.225],[-120.0901,37.2215],[-120.0844,37.2174],[-120.0676,37.2005],[-120.0622,37.198],[-120.0574,37.188],[-120.0521,37.1831],[-119.7618,37.4171],[-119.6512,37.4178],[-119.6512,37.4459],[-119.6545,37.4439],[-119.6557,37.4393],[-119.659,37.4368],[-119.6591,37.4395],[-119.6619,37.4427],[-119.6676,37.4466],[-119.668,37.4489],[-119.6705,37.4495],[-119.6692,37.4531],[-119.6671,37.4541],[-119.6701,37.4556],[-119.6686,37.457],[-119.6695,37.4581],[-119.6669,37.4603],[-119.67,37.4601],[-119.6738,37.4636],[-119.6746,37.4607],[-119.6779,37.4568],[-119.6807,37.458],[-119.6808,37.4601],[-119.6825,37.4611],[-119.687,37.4583],[-119.6897,37.4581],[-119.6882,37.4621],[-119.6888,37.464],[-119.698,37.4674],[-119.7003,37.4716],[-119.6993,37.4748],[-119.7007,37.4755],[-119.7013,37.478],[-119.6981,37.4816],[-119.6997,37.4853],[-119.6976,37.4894],[-119.6979,37.4954],[-119.6965,37.4963],[-119.6976,37.4982],[-119.7004,37.4987],[-119.6994,37.5003],[-119.7009,37.5033],[-119.7,37.5051],[-119.689,37.5116],[-119.6846,37.5116],[-119.6808,37.5098],[-119.6814,37.5116],[-119.68,37.5138],[-119.6826,37.5144],[-119.6825,37.5168],[-119.6807,37.5171],[-119.6796,37.5145],[-119.676,37.5131],[-119.6723,37.5136],[-119.6727,37.5255],[-119.6772,37.5256],[-119.6781,37.5374],[-119.685,37.5373],[-119.6851,37.5474],[-119.6893,37.5475],[-119.6893,37.5508],[-119.703,37.5516],[-119.7034,37.5792],[-119.6956,37.5793],[-119.6958,37.6153],[-119.7045,37.6153],[-119.7046,37.6224],[-119.6953,37.6224],[-119.6956,37.6299],[-119.7227,37.6297],[-119.7222,37.6443],[-119.7132,37.6443],[-119.7133,37.6552],[-119.7154,37.6551],[-119.7154,37.6586],[-119.759,37.6584],[-119.7595,37.6689],[-119.8013,37.6706],[-119.8015,37.6671],[-119.8063,37.6673],[-119.8077,37.6653],[-119.8179,37.6695],[-119.8163,37.6724],[-119.8114,37.6723],[-119.8113,37.6807],[-119.8065,37.6806],[-119.8066,37.6774],[-119.7833,37.6768],[-119.7834,37.6785],[-119.7791,37.6784],[-119.7793,37.68],[-119.77,37.6798],[-119.7693,37.6767],[-119.76,37.6779],[-119.76,37.6865],[-119.7624,37.6865],[-119.7632,37.6891],[-119.7653,37.6891],[-119.7653,37.6954],[-119.7671,37.6955],[-119.7671,37.6975],[-119.7701,37.6975],[-119.7701,37.7012],[-119.7647,37.7012],[-119.7647,37.6971],[-119.7601,37.6971],[-119.7601,37.7083],[-119.7626,37.7093],[-119.7784,37.7082],[-119.7771,37.7367],[-119.7782,37.738],[-119.8533,37.7386],[-119.8528,37.731],[-119.855,37.7272],[-119.851,37.718],[-119.8544,37.7162],[-119.8539,37.7129],[-119.857,37.7049],[-119.859,37.7049],[-119.8619,37.7022],[-119.8646,37.703],[-119.8677,37.6976],[-119.8726,37.697],[-119.873,37.6955],[-119.8776,37.6952],[-119.8777,37.6935],[-119.8833,37.6893],[-119.8854,37.6856],[-119.8864,37.6813],[-119.8875,37.681],[-119.8866,37.6795],[-119.8878,37.6794],[-119.8879,37.6774],[-119.8893,37.6774],[-119.8891,37.6738],[-119.893,37.6732],[-119.8944,37.6709],[-119.8985,37.6715],[-119.9014,37.6695],[-119.9068,37.6696],[-119.9102,37.672],[-119.9176,37.6689],[-119.9244,37.6679],[-119.925,37.6653],[-119.9182,37.6611],[-119.9154,37.654],[-119.916,37.6514],[-119.9223,37.6444],[-119.9257,37.6427],[-119.927,37.6399],[-119.9317,37.6385],[-119.9372,37.6319],[-119.9442,37.6318],[-119.9466,37.6304],[-119.9551,37.6223],[-119.9573,37.6182],[-119.9578,37.6127],[-119.9678,37.6042],[-119.9758,37.6025],[-119.9812,37.5992],[-119.9829,37.5957],[-119.9899,37.5932],[-119.9989,37.5928],[-120.004,37.5953],[-120.0041,37.5969],[-119.9997,37.6002],[-119.9993,37.6069],[-120.0024,37.6082],[-120.0058,37.6078],[-120.0172,37.6124],[-120.0208,37.6164],[-120.0201,37.6191],[-120.0227,37.6211],[-120.0275,37.6214],[-120.032,37.6189],[-120.0405,37.6188],[-120.052,37.6167],[-120.0593,37.6107],[-120.0607,37.6076],[-120.0635,37.6067],[-120.071,37.5963],[-120.0767,37.5948],[-120.0828,37.597],[-120.0811,37.5998],[-120.0824,37.6025],[-120.0874,37.603],[-120.0938,37.5999],[-120.0969,37.603],[-120.1024,37.6028],[-120.1102,37.6062],[-120.1217,37.6058],[-120.1242,37.6075],[-120.1265,37.6142],[-120.1322,37.6117],[-120.14,37.6112],[-120.145,37.6188],[-120.1629,37.6297],[-120.1712,37.6366],[-120.1812,37.6503],[-120.1841,37.6514],[-120.1901,37.6506],[-120.1961,37.6546],[-120.2026,37.6559],[-120.2087,37.6625],[-120.2195,37.6645],[-120.2217,37.669],[-120.2252,37.6723],[-120.2301,37.6735],[-120.2323,37.6723],[-120.2338,37.6661],[-120.2405,37.6626],[-120.2437,37.6592],[-120.2531,37.6615],[-120.2705,37.6557],[-120.2785,37.6561],[-120.2824,37.659],[-120.289,37.6554],[-120.2886,37.6496],[-120.2793,37.637],[-120.2703,37.6303],[-120.2689,37.6258],[-120.27,37.6191],[-120.2672,37.6143],[-120.2623,37.6097],[-120.2663,37.6052],[-120.2633,37.599],[-120.2646,37.5972],[-120.2647,37.5886],[-120.2743,37.5833],[-120.282,37.581],[-120.2828,37.5796],[-120.2838,37.5748],[-120.2804,37.5656],[-120.2798,37.5573],[-120.2828,37.551],[-120.2789,37.5447],[-120.283,37.5302],[-120.2936,37.5206],[-120.3008,37.5184],[-120.3215,37.5244]]]},"properties":{"GEOID":"0604391880","NAME":"Mariposa","COUNTY":"043"}}]}