{"type":"FeatureCollection","features":[{"type":"Feature","geometry":{"type":"Polygon","coordinates":[[[-123.3278,38.9993],[-123.3254,38.9986],[-123.3246,38.997],[-123.3255,38.9955],[-123.3241,38.9942],[-123.3182,38.993],[-123.3152,38.9907],[-123.3155,38.9869],[-123.3132,38.9836],[-123.301,38.9763],[-123.2963,38.9712],[-123.2962,38.9683],[-123.2912,38.9645],[-123.2775,38.9591],[-123.2782,38.9561],[-123.2754,38.9519],[-123.2797,38.9503],[-123.2807,38.9506],[-123.2796,38.9514],[-123.2804,38.9523],[-123.2822,38.9503],[-123.2799,38.9495],[-123.2799,38.9477],[-123.276,38.9469],[-123.2739,38.9438],[-123.2718,38.9443],[-123.2723,38.9401],[-123.2746,38.9393],[-123.2743,38.9368],[-123.2714,38.9364],[-123.2714,38.9334],[-123.2729,38.9333],[-123.2741,38.9314],[-123.2733,38.9308],[-123.2744,38.9286],[-123.2722,38.9276],[-123.275,38.9257],[-123.2821,38.9261],[-123.2878,38.9185],[-123.2905,38.9201],[-123.2902,38.9215],[-123.2915,38.92],[-123.2857,38.9149],[-123.2803,38.9146],[-123.2789,38.9126],[-123.274,38.9106],[-123.2647,38.914],[-123.257,38.9101],[-123.2554,38.9075],[-123.2565,38.9056],[-123.2558,38.9026],[-123.2607,38.896],[-123.2651,38.8938],[-123.2653,38.8855],[-123.2582,38.8853],[-123.252,38.881],[-123.2534,38.8787],[-123.25,38.8761],[-123.2507,38.8677],[-123.2487,38.8665],[-123.2491,38.8641],[-123.2416,38.8636],[-123.2422,38.8611],[-123.2401,38.8605],[-123.2402,38.8579],[-123.2406,38.8551],[-123.2427,38.8528],[-123.2404,38.8502],[-123.2432,38.8489],[-123.2431,38.8473],[-123.2419,38.8467],[-123.2414,38.8423],[-123.2376,38.8387],[-123.2383,38.8359],[-123.2362,38.8326],[-123.2315,38.831],[-123.2279,38.8319],[-123.2233,38.8309],[-123.219,38.8259],[-123.2202,38.8239],[-123.2263,38.8234],[-123.2272,38.8186],[-123.2288,38.8173],[-123.2329,38.8173],[-123.2311,38.8156],[-123.2338,38.8151],[-123.239,38.8086],[-123.1363,38.8091],[-123.1366,38.8394],[-123.0812,38.8384],[-123.081,38.8524],[-123.0277,38.8529],[-123.0069,38.8512],[-122.8216,38.8501],[-122.8214,38.8579],[-122.8401,38.858],[-122.84,38.866],[-122.8585,38.8658],[-122.8578,38.8733],[-122.8765,38.8731],[-122.8757,38.8808],[-122.8946,38.8808],[-122.8939,38.8955],[-122.9114,38.8952],[-122.9114,38.9015],[-122.9489,38.9002],[-122.95,38.9097],[-122.9491,38.9254],[-122.9619,38.9255],[-122.9602,38.9325],[-122.9699,38.9327],[-122.9683,38.9465],[-122.9777,38.9467],[-122.9774,38.9829],[-122.9867,38.983],[-122.9866,38.9973],[-123.0093,38.9972],[-123.0093,38.9932],[-123.0186,38.993],[-123.0186,38.9966],[-123.028,38.9966],[-123.028,39.0065],[-123.0373,39.0065],[-123.0375,39.0137],[-123.0468,39.0138],[-123.047,39.0209],[-123.0562,39.0211],[-123.0561,39.0499],[-123.0652,39.05],[-123.0652,39.0532],[-123.0663,39.0534],[-123.0779,39.0479],[-123.0857,39.0499],[-123.091,39.0489],[-123.0922,39.0498],[-123.0953,39.0492],[-123.0989,39.0462],[-123.1025,39.046],[-123.1062,39.0513],[-123.1037,39.0547],[-123.1035,39.0578],[-123.1169,39.0649],[-123.1207,39.0657],[-123.1277,39.0741],[-123.1343,39.0768],[-123.1367,39.0823],[-123.1461,39.082],[-123.1499,39.0796],[-123.1596,39.0797],[-123.1602,39.0757],[-123.1538,39.0735],[-123.1461,39.0668],[-123.1434,39.0632],[-123.1433,39.0596],[-123.1339,39.0472],[-123.1345,39.0467],[-123.137,39.0486],[-123.137,39.0464],[-123.1388,39.048],[-123.1428,39.0457],[-123.1459,39.0465],[-123.1522,39.0437],[-123.1535,39.0406],[-123.159,39.04],[-123.1626,39.0376],[-123.1663,39.0389],[-123.1791,39.0381],[-123.1823,39.0392],[-123.1843,39.0368],[-123.1873,39.0392],[-123.1863,39.0413],[-123.1901,39.0419],[-123.1951,39.0408],[-123.198,39.0421],[-123.2022,39.0402],[-123.2024,39.0414],[-123.2052,39.0419],[-123.2108,39.0408],[-123.2105,39.0425],[-123.2088,39.0432],[-123.2092,39.0463],[-123.2068,39.0499],[-123.2074,39.0512],[-123.2058,39.0515],[-123.2096,39.0537],[-123.2092,39.0565],[-123.2053,39.0596],[-123.2029,39.0651],[-123.2053,39.0635],[-123.2104,39.066],[-123.2155,39.0654],[-123.2183,39.067],[-123.217,39.068],[-123.2189,39.0693],[-123.2236,39.0647],[-123.2287,39.0626],[-123.2363,39.0668],[-123.2376,39.0623],[-123.2363,39.0614],[-123.2367,39.0601],[-123.2417,39.0592],[-123.2447,39.0573],[-123.244,39.0559],[-123.2455,39.0523],[-123.2445,39.0511],[-123.2455,39.0497],[-123.2491,39.0506],[-123.2515,39.048],[-123.2536,39.0476],[-123.2559,39.0478],[-123.2586,39.0508],[-123.2649,39.0498],[-123.2662,39.048],[-123.2638,39.0413],[-123.264,39.0377],[-123.2659,39.0354],[-123.2699,39.0351],[-123.2712,39.0322],[-123.2795,39.0325],[-123.28,39.0314],[-123.2774,39.03],[-123.2865,39.0262],[-123.2931,39.025],[-123.3038,39.0268],[-123.3101,39.0246],[-123.3144,39.0247],[-123.3183,39.022],[-123.3194,39.0176],[-123.3224,39.0178],[-123.3243,39.0152],[-123.3236,39.0132],[-123.321,39.0116],[-123.3207,39.0061],[-123.3234,39.0019],[-123.3278,38.9993]]]},"properties":{"GEOID":"0604591330","NAME":"Hopland","COUNTY":"045"}},{"type":"Feature","geometry":{"type":"Polygon","coordinates":[[[-123.5341,39.2942],[-123.5322,39.292],[-123.5297,39.2945],[-123.5257,39.2948],[-123.529,39.291],[-123.5242,39.2908],[-123.5242,39.2894],[-123.5227,39.2886],[-123.5241,39.2878],[-123.5235,39.2869],[-123.5217,39.2867],[-123.5184,39.2897],[-123.5152,39.2891],[-123.5159,39.2866],[-123.5184,39.2842],[-123.5164,39.28],[-123.521,39.2761],[-123.5185,39.2734],[-123.5194,39.2705],[-123.518,39.2682],[-123.5129,39.2693],[-123.5105,39.2731],[-123.5075,39.2715],[-123.5038,39.272],[-123.5096,39.2683],[-123.5076,39.2663],[-123.5089,39.2641],[-123.5051,39.2625],[-123.5097,39.261],[-123.5067,39.2585],[-123.5097,39.2566],[-123.51,39.2541],[-123.5058,39.2539],[-123.5022,39.2554],[-123.5027,39.2511],[-123.4975,39.2514],[-123.4997,39.2483],[-123.4973,39.2478],[-123.4972,39.2446],[-123.4946,39.244],[-123.4929,39.2412],[-123.4913,39.2426],[-123.4923,39.2458],[-123.4883,39.2456],[-123.4873,39.2411],[-123.4847,39.2372],[-123.4823,39.239],[-123.4793,39.2383],[-123.4782,39.2369],[-123.4812,39.2364],[-123.4764,39.2332],[-123.4675,39.2368],[-123.4686,39.2336],[-123.4646,39.2295],[-123.4653,39.2288],[-123.4689,39.2286],[-123.4688,39.2298],[-123.4717,39.2301],[-123.4712,39.2311],[-123.4727,39.2321],[-123.4791,39.2314],[-123.4804,39.2301],[-123.4785,39.2309],[-123.4755,39.2295],[-123.4708,39.2241],[-123.4656,39.222],[-123.4535,39.2121],[-123.4538,39.2113],[-123.4517,39.2113],[-123.4498,39.2089],[-123.4504,39.2061],[-123.4476,39.205],[-123.449,39.2035],[-123.4455,39.2009],[-123.4405,39.1996],[-123.4351,39.194],[-123.4318,39.1925],[-123.4294,39.1889],[-123.4313,39.1885],[-123.4296,39.1844],[-123.4221,39.1797],[-123.4222,39.1813],[-123.4204,39.1806],[-123.4185,39.1761],[-123.4142,39.1775],[-123.4099,39.174],[-123.4038,39.1725],[-123.4011,39.1706],[-123.3978,39.172],[-123.3943,39.1705],[-123.3882,39.1707],[-123.3843,39.1685],[-123.3843,39.1672],[-123.3811,39.1661],[-123.3785,39.1686],[-123.3757,39.1674],[-123.3783,39.1673],[-123.3752,39.1656],[-123.3667,39.1648],[-123.3659,39.1662],[-123.3625,39.165],[-123.36,39.1676],[-123.3547,39.1652],[-123.3561,39.165],[-123.3507,39.1639],[-123.3429,39.1644],[-123.3419,39.1628],[-123.3366,39.1616],[-123.3361,39.1604],[-123.3336,39.1603],[-123.3325,39.1617],[-123.3307,39.1593],[-123.3284,39.1611],[-123.3227,39.1582],[-123.3203,39.1595],[-123.3187,39.1577],[-123.316,39.1591],[-123.3143,39.1572],[-123.3078,39.1652],[-123.3085,39.1728],[-123.3024,39.1732],[-123.3008,39.1743],[-123.2999,39.1821],[-123.2946,39.1857],[-123.2876,39.184],[-123.2782,39.185],[-123.2734,39.1842],[-123.2655,39.1863],[-123.2606,39.1853],[-123.2513,39.1801],[-123.2421,39.1769],[-123.2369,39.1811],[-123.2334,39.1808],[-123.231,39.1832],[-123.2303,39.1823],[-123.222,39.1831],[-123.2141,39.1817],[-123.2122,39.1801],[-123.2114,39.1857],[-123.2001,39.1841],[-123.2002,39.1896],[-123.1952,39.1934],[-123.19,39.1938],[-123.1852,39.1978],[-123.1879,39.1983],[-123.1858,39.1999],[-123.1885,39.2015],[-123.1885,39.2026],[-123.1837,39.2051],[-123.1748,39.2057],[-123.1733,39.2268],[-123.1715,39.2322],[-123.1687,39.2354],[-123.1627,39.2366],[-123.1543,39.2349],[-123.1445,39.2394],[-123.1415,39.2423],[-123.1369,39.2428],[-123.1291,39.2459],[-123.126,39.2457],[-123.1154,39.2405],[-123.1074,39.234],[-123.0947,39.2298],[-123.0785,39.2158],[-123.0664,39.2119],[-123.0602,39.2065],[-123.0511,39.2021],[-123.0453,39.1978],[-123.0402,39.1914],[-123.0401,39.1925],[-123.0348,39.1924],[-123.0341,39.1997],[-123.0297,39.1996],[-123.0288,39.2068],[-123.0243,39.2071],[-123.0241,39.2137],[-123.0211,39.2137],[-123.0208,39.2207],[-123.0125,39.221],[-123.0127,39.2362],[-122.9948,39.2359],[-122.9945,39.2568],[-123.0036,39.2574],[-123.0045,39.2782],[-123.0196,39.278],[-123.0197,39.3218],[-123.0287,39.3218],[-123.0287,39.3366],[-123.0377,39.3362],[-123.0379,39.3639],[-123.0486,39.3641],[-123.0475,39.3786],[-123.0571,39.3787],[-123.0563,39.4076],[-123.0751,39.4077],[-123.0749,39.4366],[-123.0701,39.4365],[-123.0731,39.4527],[-123.063,39.4525],[-123.0632,39.5035],[-123.0451,39.5036],[-123.0462,39.5053],[-123.0455,39.5061],[-123.0486,39.5099],[-123.0508,39.5091],[-123.0525,39.51],[-123.0539,39.5126],[-123.0598,39.5101],[-123.0604,39.5142],[-123.0628,39.5139],[-123.0649,39.516],[-123.0669,39.515],[-123.0698,39.5172],[-123.0714,39.5166],[-123.0727,39.521],[-123.0764,39.5227],[-123.0788,39.5218],[-123.0797,39.5242],[-123.0782,39.5251],[-123.0781,39.5273],[-123.0804,39.527],[-123.0825,39.531],[-123.0852,39.5295],[-123.085,39.5275],[-123.0889,39.527],[-123.0895,39.5281],[-123.091,39.5264],[-123.0915,39.5291],[-123.0961,39.5293],[-123.0961,39.5262],[-123.098,39.5238],[-123.101,39.5239],[-123.109,39.5159],[-123.1153,39.5155],[-123.1185,39.517],[-123.1265,39.5151],[-123.1308,39.5161],[-123.137,39.5144],[-123.1399,39.5121],[-123.1436,39.5119],[-123.1468,39.5091],[-123.1558,39.5073],[-123.1633,39.5033],[-123.164,39.5002],[-123.1623,39.4968],[-123.1693,39.4924],[-123.1651,39.4899],[-123.1591,39.4891],[-123.1578,39.4874],[-123.1577,39.4823],[-123.1504,39.4759],[-123.1577,39.4714],[-123.1542,39.463],[-123.1501,39.4563],[-123.1479,39.4546],[-123.1481,39.4503],[-123.1455,39.4457],[-123.1457,39.4423],[-123.1426,39.4329],[-123.1444,39.4302],[-123.1423,39.4244],[-123.1451,39.4221],[-123.1478,39.4221],[-123.1497,39.4179],[-123.1523,39.4181],[-123.1575,39.414],[-123.161,39.4142],[-123.1647,39.4164],[-123.1691,39.4153],[-123.1723,39.4169],[-123.1734,39.4189],[-123.1777,39.4185],[-123.1825,39.4214],[-123.189,39.4203],[-123.1933,39.4246],[-123.1971,39.4257],[-123.1984,39.4254],[-123.1987,39.4234],[-123.2041,39.4247],[-123.2098,39.4242],[-123.2134,39.4215],[-123.2246,39.4199],[-123.2283,39.4182],[-123.2323,39.4215],[-123.2391,39.4204],[-123.2394,39.4215],[-123.2422,39.415],[-123.2367,39.4056],[-123.2368,39.3998],[-123.2342,39.3977],[-123.2341,39.3944],[-123.2317,39.394],[-123.2287,39.388],[-123.2312,39.3869],[-123.2323,39.3836],[-123.2311,39.3817],[-123.2313,39.3784],[-123.2287,39.3765],[-123.2329,39.3764],[-123.235,39.374],[-123.2338,39.3657],[-123.2396,39.3697],[-123.2384,39.3708],[-123.2523,39.3731],[-123.2533,39.3702],[-123.2476,39.3656],[-123.2479,39.3621],[-123.2496,39.3611],[-123.2483,39.3598],[-123.2538,39.3592],[-123.2546,39.3577],[-123.2575,39.3568],[-123.2591,39.3542],[-123.259,39.3519],[-123.262,39.3504],[-123.2612,39.3484],[-123.2639,39.348],[-123.2633,39.3465],[-123.266,39.3454],[-123.2654,39.3442],[-123.2672,39.3447],[-123.2663,39.3442],[-123.2688,39.3421],[-123.2695,39.3373],[-123.2712,39.3355],[-123.2688,39.3308],[-123.2721,39.3302],[-123.2729,39.3251],[-123.2763,39.3243],[-123.2803,39.3268],[-123.2865,39.3246],[-123.2878,39.3267],[-123.2911,39.3277],[-123.2886,39.3262],[-123.2894,39.3241],[-123.2896,39.3258],[-123.2945,39.3268],[-123.2951,39.3306],[-123.2966,39.3302],[-123.2989,39.3359],[-123.3004,39.3332],[-123.3064,39.336],[-123.3041,39.3345],[-123.3044,39.3311],[-123.3015,39.3262],[-123.3013,39.3174],[-123.2977,39.3132],[-123.3005,39.3063],[-123.2952,39.3009],[-123.2873,39.2998],[-123.2875,39.2985],[-123.2913,39.2963],[-123.2999,39.2994],[-123.3081,39.3075],[-123.3078,39.3083],[-123.3106,39.3095],[-123.3105,39.3111],[-123.3139,39.3129],[-123.3137,39.3149],[-123.3208,39.317],[-123.3288,39.315],[-123.3326,39.3156],[-123.3368,39.32],[-123.3391,39.32],[-123.3426,39.3222],[-123.3492,39.3218],[-123.3531,39.3246],[-123.3539,39.3276],[-123.3593,39.3303],[-123.3612,39.3333],[-123.3653,39.3347],[-123.3663,39.339],[-123.3695,39.3402],[-123.3709,39.3429],[-123.3751,39.3444],[-123.3772,39.3467],[-123.375,39.3467],[-123.3827,39.3526],[-123.3856,39.3517],[-123.3872,39.353],[-123.387,39.3502],[-123.3847,39.3497],[-123.3827,39.3466],[-123.3884,39.3385],[-123.3877,39.3376],[-123.389,39.3346],[-123.3873,39.3322],[-123.3903,39.3302],[-123.3923,39.3306],[-123.3934,39.3296],[-123.3926,39.3286],[-123.3952,39.3266],[-123.3995,39.3253],[-123.4015,39.3232],[-123.4008,39.3199],[-123.4025,39.317],[-123.3995,39.3153],[-123.4014,39.3167],[-123.397,39.3188],[-123.3982,39.3204],[-123.3966,39.3203],[-123.3969,39.3213],[-123.3946,39.3202],[-123.3935,39.3224],[-123.3917,39.3215],[-123.3944,39.319],[-123.3934,39.3146],[-123.3899,39.3119],[-123.3905,39.3097],[-123.3939,39.3069],[-123.3944,39.3035],[-123.3968,39.3003],[-123.4016,39.2978],[-123.4023,39.2957],[-123.407,39.2921],[-123.4135,39.2886],[-123.4176,39.2895],[-123.4217,39.2887],[-123.426,39.2929],[-123.4288,39.2934],[-123.4304,39.2957],[-123.4294,39.2972],[-123.4314,39.2997],[-123.4307,39.3011],[-123.433,39.3019],[-123.434,39.3041],[-123.4364,39.3045],[-123.4367,39.3078],[-123.4426,39.3102],[-123.4508,39.3086],[-123.4701,39.3091],[-123.4722,39.3102],[-123.4764,39.3081],[-123.4919,39.3118],[-123.4963,39.3101],[-123.4985,39.3126],[-123.4999,39.3119],[-123.5006,39.3086],[-123.505,39.3088],[-123.5081,39.3065],[-123.5153,39.3052],[-123.5152,39.3005],[-123.5161,39.302],[-123.5193,39.3023],[-123.5196,39.304],[-123.5295,39.3034],[-123.5301,39.3005],[-123.5283,39.2987],[-123.534,39.2954],[-123.5341,39.2942]]]},"properties":{"GEOID":"0604592592","NAME":"Redwood Valley-Potter Valley","COUNTY":"045"}},{"type":"Feature","geometry":{"type":"Polygon","coordinates":[[[-123.8966,39.3759],[-123.896,39.3639],[-123.8943,39.3569],[-123.8949,39.3483],[-123.8931,39.3375],[-123.8864,39.325],[-123.881,39.3193],[-123.8816,39.3102],[-123.8761,39.2904],[-123.8702,39.2807],[-123.8634,39.2548],[-123.8501,39.2314],[-123.8455,39.1983],[-123.8401,39.1902],[-123.8408,39.1873],[-123.8389,39.1833],[-123.8143,39.1469],[-123.8092,39.141],[-123.8075,39.1272],[-123.7928,39.1023],[-123.7076,39.1025],[-123.704,39.1013],[-123.6996,39.1018],[-123.7,39.1043],[-123.6977,39.105],[-123.6973,39.1016],[-123.6948,39.1027],[-123.6897,39.0996],[-123.6869,39.0953],[-123.685,39.0948],[-123.6843,39.0921],[-123.6807,39.0927],[-123.6759,39.0907],[-123.6713,39.0915],[-123.6625,39.0885],[-123.6578,39.0888],[-123.6559,39.0864],[-123.6539,39.0875],[-123.6516,39.0859],[-123.6482,39.0865],[-123.6406,39.0793],[-123.6292,39.0751],[-123.6266,39.0722],[-123.627,39.0666],[-123.6206,39.0643],[-123.6184,39.0593],[-123.6104,39.0578],[-123.598,39.0471],[-123.5921,39.0471],[-123.5872,39.0444],[-123.5806,39.0397],[-123.5786,39.0354],[-123.5679,39.0287],[-123.5581,39.0292],[-123.5556,39.0307],[-123.5447,39.0328],[-123.534,39.0328],[-123.53,39.0301],[-123.5245,39.0318],[-123.5212,39.0302],[-123.5248,39.0295],[-123.5225,39.0262],[-123.5235,39.0218],[-123.5198,39.0204],[-123.5188,39.0219],[-123.517,39.0218],[-123.5165,39.0187],[-123.514,39.0152],[-123.5146,39.0137],[-123.5089,39.0111],[-123.5027,39.002],[-123.4889,38.9944],[-123.4891,38.9918],[-123.4808,38.9802],[-123.4812,38.9779],[-123.4772,38.9739],[-123.4776,38.9766],[-123.4722,38.9824],[-123.4615,38.9842],[-123.4589,38.9865],[-123.4534,38.9858],[-123.4475,38.9879],[-123.4481,38.9925],[-123.4449,38.9937],[-123.445,38.9958],[-123.439,38.993],[-123.436,38.9935],[-123.4377,38.994],[-123.4358,38.9945],[-123.4325,38.9914],[-123.4224,38.9876],[-123.4174,38.9814],[-123.4198,38.9762],[-123.4181,38.9755],[-123.4148,38.9767],[-123.4107,38.9748],[-123.4184,38.9712],[-123.4186,38.9692],[-123.4145,38.9699],[-123.3946,38.9601],[-123.3908,38.9613],[-123.3867,38.9602],[-123.3832,38.9626],[-123.381,38.9627],[-123.3804,38.9607],[-123.3817,38.9575],[-123.3831,38.9606],[-123.3867,38.9557],[-123.3894,38.9546],[-123.3909,38.9493],[-123.385,38.9463],[-123.3834,38.941],[-123.3797,38.9403],[-123.3784,38.9372],[-123.3699,38.9337],[-123.3684,38.9304],[-123.3691,38.9284],[-123.362,38.9247],[-123.3645,38.9235],[-123.3617,38.9206],[-123.3619,38.9185],[-123.3586,38.9193],[-123.3565,38.9178],[-123.3539,38.9144],[-123.354,38.9118],[-123.3508,38.9058],[-123.3459,38.9023],[-123.3412,38.9048],[-123.3333,38.9048],[-123.3271,38.9066],[-123.3191,38.9041],[-123.3193,38.9008],[-123.3171,38.9007],[-123.3139,38.9032],[-123.3083,38.9009],[-123.308,38.8991],[-123.299,38.8971],[-123.2997,38.896],[-123.2921,38.8973],[-123.2905,38.8957],[-123.2917,38.8935],[-123.289,38.8893],[-123.2824,38.8856],[-123.2743,38.8886],[-123.2687,38.8864],[-123.266,38.8871],[-123.2651,38.8938],[-123.2607,38.896],[-123.2558,38.9026],[-123.2565,38.9056],[-123.2554,38.9075],[-123.257,38.9101],[-123.2647,38.914],[-123.274,38.9106],[-123.2789,38.9126],[-123.2803,38.9146],[-123.2857,38.9149],[-123.2915,38.92],[-123.2902,38.9215],[-123.2905,38.9201],[-123.2878,38.9185],[-123.2821,38.9261],[-123.275,38.9257],[-123.2722,38.9276],[-123.2744,38.9286],[-123.2733,38.9308],[-123.2741,38.9314],[-123.2729,38.9333],[-123.2714,38.9334],[-123.2714,38.9364],[-123.2743,38.9368],[-123.2746,38.9393],[-123.2723,38.9401],[-123.2718,38.9443],[-123.2739,38.9438],[-123.276,38.9469],[-123.2799,38.9477],[-123.2799,38.9495],[-123.2822,38.9503],[-123.2804,38.9523],[-123.2796,38.9514],[-123.2807,38.9506],[-123.2797,38.9503],[-123.2754,38.9519],[-123.2782,38.9561],[-123.2775,38.9591],[-123.2912,38.9645],[-123.2962,38.9683],[-123.2963,38.9712],[-123.301,38.9763],[-123.3132,38.9836],[-123.3155,38.9869],[-123.3152,38.9907],[-123.3182,38.993],[-123.3241,38.9942],[-123.3255,38.9955],[-123.3246,38.997],[-123.3254,38.9986],[-123.3278,38.9993],[-123.3234,39.0019],[-123.3206,39.0062],[-123.321,39.0116],[-123.3236,39.0132],[-123.3243,39.0153],[-123.3224,39.0178],[-123.3196,39.0175],[-123.3186,39.0217],[-123.3162,39.0233],[-123.3197,39.0231],[-123.3202,39.0242],[-123.3209,39.0228],[-123.3238,39.0252],[-123.3257,39.0247],[-123.3413,39.0325],[-123.3479,39.0325],[-123.3533,39.0385],[-123.3623,39.0439],[-123.3615,39.0451],[-123.3564,39.0438],[-123.3587,39.0466],[-123.364,39.049],[-123.3739,39.047],[-123.3757,39.0456],[-123.3796,39.0458],[-123.377,39.0472],[-123.3751,39.0467],[-123.374,39.0484],[-123.3716,39.048],[-123.3707,39.0503],[-123.3761,39.0526],[-123.3741,39.053],[-123.376,39.0555],[-123.3819,39.0582],[-123.3802,39.0607],[-123.3814,39.0632],[-123.3851,39.0687],[-123.3883,39.0697],[-123.3897,39.0729],[-123.3928,39.0752],[-123.395,39.0794],[-123.3893,39.0755],[-123.3871,39.0754],[-123.3857,39.0761],[-123.3873,39.0767],[-123.3824,39.0767],[-123.3778,39.0787],[-123.376,39.0809],[-123.3764,39.0834],[-123.3797,39.0855],[-123.3808,39.0883],[-123.3845,39.0869],[-123.3872,39.091],[-123.3891,39.0888],[-123.3923,39.0905],[-123.3963,39.0961],[-123.407,39.1012],[-123.4081,39.1037],[-123.4025,39.1081],[-123.4017,39.1111],[-123.4028,39.1131],[-123.4002,39.1174],[-123.4038,39.1187],[-123.405,39.1237],[-123.4119,39.1275],[-123.4103,39.1303],[-123.4056,39.1329],[-123.4022,39.1326],[-123.4037,39.1342],[-123.4029,39.1354],[-123.3949,39.1373],[-123.3989,39.139],[-123.3991,39.1406],[-123.4027,39.141],[-123.4028,39.1424],[-123.4015,39.1428],[-123.4065,39.1456],[-123.4134,39.146],[-123.4202,39.1513],[-123.4244,39.1513],[-123.4248,39.1494],[-123.4285,39.1508],[-123.4321,39.1481],[-123.4391,39.1494],[-123.4319,39.1512],[-123.431,39.1549],[-123.426,39.159],[-123.4262,39.1599],[-123.429,39.1582],[-123.4241,39.1668],[-123.425,39.1691],[-123.4227,39.1682],[-123.4193,39.171],[-123.4214,39.1754],[-123.4166,39.1738],[-123.4141,39.1774],[-123.4185,39.1761],[-123.4204,39.1806],[-123.4222,39.1813],[-123.4221,39.1797],[-123.4286,39.1835],[-123.4311,39.1877],[-123.4294,39.1888],[-123.4315,39.1923],[-123.4351,39.194],[-123.4405,39.1996],[-123.4455,39.2009],[-123.449,39.2035],[-123.4476,39.205],[-123.4504,39.2061],[-123.4498,39.2089],[-123.4517,39.2113],[-123.4538,39.2113],[-123.4535,39.2121],[-123.4656,39.222],[-123.4708,39.2241],[-123.4755,39.2295],[-123.4785,39.2309],[-123.4804,39.2301],[-123.4791,39.2314],[-123.4727,39.2321],[-123.4712,39.2311],[-123.4717,39.2301],[-123.4688,39.2298],[-123.4689,39.2286],[-123.4653,39.2288],[-123.4646,39.2295],[-123.4686,39.2336],[-123.4675,39.2368],[-123.4764,39.2332],[-123.4812,39.2364],[-123.4782,39.2369],[-123.4793,39.2383],[-123.4823,39.239],[-123.4847,39.2372],[-123.4873,39.2411],[-123.4883,39.2456],[-123.4923,39.2458],[-123.4913,39.2426],[-123.4929,39.2412],[-123.4946,39.244],[-123.4972,39.2446],[-123.4973,39.2478],[-123.4997,39.2483],[-123.4975,39.2514],[-123.5027,39.2511],[-123.5022,39.2554],[-123.5058,39.2539],[-123.51,39.2541],[-123.5097,39.2566],[-123.5067,39.2585],[-123.5097,39.261],[-123.5051,39.2625],[-123.5089,39.2641],[-123.5076,39.2663],[-123.5096,39.2683],[-123.5038,39.272],[-123.5075,39.2715],[-123.5105,39.2731],[-123.5129,39.2693],[-123.5182,39.2684],[-123.5194,39.2705],[-123.5185,39.2734],[-123.521,39.2761],[-123.5164,39.28],[-123.5184,39.2842],[-123.5151,39.2879],[-123.5155,39.2894],[-123.5195,39.2894],[-123.5217,39.2867],[-123.5235,39.2869],[-123.5241,39.2878],[-123.5227,39.2886],[-123.5242,39.2894],[-123.5242,39.2908],[-123.529,39.291],[-123.5257,39.2948],[-123.5297,39.2945],[-123.5324,39.292],[-123.534,39.2932],[-123.534,39.2962],[-123.5357,39.2981],[-123.5447,39.3002],[-123.5462,39.3027],[-123.5516,39.3009],[-123.5528,39.3022],[-123.5553,39.3014],[-123.5581,39.3035],[-123.5585,39.3055],[-123.5551,39.3077],[-123.5573,39.3103],[-123.5586,39.3091],[-123.5619,39.3097],[-123.5627,39.3123],[-123.5601,39.3143],[-123.5591,39.3174],[-123.5555,39.3178],[-123.555,39.3193],[-123.5564,39.3206],[-123.5572,39.3271],[-123.562,39.3296],[-123.5599,39.3333],[-123.5623,39.334],[-123.5639,39.3373],[-123.5664,39.3383],[-123.5665,39.3399],[-123.5691,39.3417],[-123.5672,39.3422],[-123.5679,39.3447],[-123.5664,39.3468],[-123.5721,39.3487],[-123.588,39.3492],[-123.5959,39.3464],[-123.6019,39.3481],[-123.6092,39.3534],[-123.6143,39.3542],[-123.6202,39.3595],[-123.6242,39.3591],[-123.6293,39.3558],[-123.6449,39.3604],[-123.6517,39.3567],[-123.6572,39.3595],[-123.6608,39.359],[-123.665,39.3635],[-123.669,39.3628],[-123.673,39.3653],[-123.6766,39.3655],[-123.6785,39.367],[-123.6796,39.3709],[-123.6828,39.3725],[-123.6826,39.374],[-123.6906,39.3785],[-123.6926,39.3835],[-123.6969,39.3856],[-123.6991,39.3853],[-123.7049,39.3907],[-123.7097,39.3924],[-123.7187,39.4029],[-123.7277,39.4075],[-123.7335,39.4066],[-123.736,39.4035],[-123.7392,39.4029],[-123.7482,39.4112],[-123.7683,39.4147],[-123.769,39.4124],[-123.7679,39.4106],[-123.7726,39.4078],[-123.7762,39.4085],[-123.7834,39.4065],[-123.7822,39.3971],[-123.7846,39.3984],[-123.7925,39.4076],[-123.7984,39.4118],[-123.8084,39.4124],[-123.8081,39.4184],[-123.8122,39.417],[-123.8896,39.4171],[-123.8924,39.407],[-123.8904,39.3901],[-123.8946,39.3831],[-123.8966,39.3759]],[[-123.77122,39.39852],[-123.77119,39.40024],[-123.77051,39.40022],[-123.76448,39.39521],[-123.7648,39.39189],[-123.76661,39.39223],[-123.7667,39.39659],[-123.77119,39.39731],[-123.77122,39.39852]]]},"properties":{"GEOID":"0604591938","NAME":"Mendocino","COUNTY":"045"}},{"type":"Feature","geometry":{"type":"Polygon","coordinates":[[[-123.8896,39.4171],[-123.8122,39.417],[-123.8081,39.4184],[-123.8084,39.4124],[-123.7984,39.4118],[-123.7925,39.4076],[-123.7846,39.3984],[-123.7822,39.3971],[-123.7834,39.4065],[-123.7762,39.4085],[-123.7726,39.4078],[-123.7679,39.4106],[-123.769,39.4124],[-123.7683,39.4147],[-123.7482,39.4112],[-123.7392,39.4029],[-123.736,39.4035],[-123.7335,39.4066],[-123.7279,39.4075],[-123.7187,39.4029],[-123.7097,39.3924],[-123.7049,39.3907],[-123.6991,39.3853],[-123.6969,39.3856],[-123.6926,39.3835],[-123.6906,39.3785],[-123.6826,39.374],[-123.6828,39.3725],[-123.6796,39.3709],[-123.6784,39.3669],[-123.6763,39.3653],[-123.673,39.3653],[-123.669,39.3628],[-123.665,39.3635],[-123.6608,39.359],[-123.6572,39.3595],[-123.6518,39.3567],[-123.6457,39.3605],[-123.6293,39.3558],[-123.6242,39.3591],[-123.62,39.3595],[-123.6143,39.3542],[-123.6092,39.3534],[-123.6019,39.3481],[-123.5957,39.3464],[-123.588,39.3492],[-123.5721,39.3487],[-123.5632,39.3465],[-123.562,39.3473],[-123.5619,39.3517],[-123.5567,39.3528],[-123.5543,39.3513],[-123.5498,39.3511],[-123.5483,39.3495],[-123.5405,39.3488],[-123.5363,39.3468],[-123.5324,39.3486],[-123.5221,39.3463],[-123.5161,39.3487],[-123.5125,39.3482],[-123.5093,39.353],[-123.5104,39.3542],[-123.5091,39.3571],[-123.5097,39.359],[-123.5064,39.3598],[-123.5072,39.361],[-123.5056,39.3622],[-123.5009,39.3633],[-123.502,39.3655],[-123.4988,39.3659],[-123.4988,39.3676],[-123.4966,39.3683],[-123.4976,39.3697],[-123.4962,39.3706],[-123.4975,39.3716],[-123.4956,39.3725],[-123.4957,39.3756],[-123.4935,39.3753],[-123.4892,39.3778],[-123.486,39.3771],[-123.4849,39.3799],[-123.4803,39.3814],[-123.4807,39.3829],[-123.4744,39.3831],[-123.474,39.3856],[-123.4703,39.386],[-123.4677,39.3884],[-123.4678,39.3907],[-123.4661,39.3911],[-123.466,39.3934],[-123.4617,39.3927],[-123.4557,39.3942],[-123.4597,39.3941],[-123.4647,39.3966],[-123.4663,39.4016],[-123.4654,39.4043],[-123.4648,39.4049],[-123.4636,39.403],[-123.4615,39.4045],[-123.4746,39.4142],[-123.4857,39.4169],[-123.4903,39.4167],[-123.5022,39.4206],[-123.5075,39.4197],[-123.5086,39.4179],[-123.5109,39.4197],[-123.5155,39.419],[-123.5175,39.4211],[-123.5199,39.4199],[-123.5227,39.4214],[-123.5268,39.4206],[-123.5307,39.4228],[-123.5321,39.4207],[-123.5374,39.4231],[-123.5434,39.418],[-123.5456,39.421],[-123.5497,39.4202],[-123.5526,39.4215],[-123.5504,39.4263],[-123.5459,39.4271],[-123.5388,39.4318],[-123.5365,39.4315],[-123.5264,39.4354],[-123.5203,39.4416],[-123.5209,39.4461],[-123.5296,39.4497],[-123.5331,39.4541],[-123.5279,39.4557],[-123.5272,39.4578],[-123.5254,39.4581],[-123.5245,39.4613],[-123.5167,39.4645],[-123.5105,39.4635],[-123.5091,39.4649],[-123.507,39.4646],[-123.5024,39.4682],[-123.5018,39.47],[-123.5038,39.4719],[-123.5052,39.476],[-123.5025,39.4847],[-123.5037,39.4901],[-123.5056,39.4911],[-123.5036,39.4918],[-123.5037,39.494],[-123.5048,39.4957],[-123.505,39.4939],[-123.5073,39.4948],[-123.5078,39.493],[-123.5108,39.4942],[-123.5132,39.4924],[-123.511,39.497],[-123.511,39.5001],[-123.5129,39.5006],[-123.5126,39.5025],[-123.5148,39.5041],[-123.5161,39.508],[-123.514,39.5063],[-123.5107,39.5078],[-123.5104,39.5099],[-123.5083,39.5105],[-123.5075,39.5124],[-123.5003,39.5136],[-123.502,39.5166],[-123.4991,39.5187],[-123.4985,39.5213],[-123.5014,39.5211],[-123.4991,39.5227],[-123.4987,39.5246],[-123.5021,39.5242],[-123.508,39.5212],[-123.5201,39.5357],[-123.5274,39.5399],[-123.5366,39.5393],[-123.5403,39.5409],[-123.5441,39.5388],[-123.5534,39.5398],[-123.5568,39.5378],[-123.5608,39.5388],[-123.5712,39.5362],[-123.5777,39.5369],[-123.5788,39.5382],[-123.5809,39.5382],[-123.5826,39.5366],[-123.5866,39.5381],[-123.591,39.535],[-123.596,39.5356],[-123.5968,39.5374],[-123.6012,39.54],[-123.6049,39.5389],[-123.6108,39.5401],[-123.6146,39.5389],[-123.6154,39.5412],[-123.6193,39.5388],[-123.6219,39.5389],[-123.6237,39.5411],[-123.6253,39.5402],[-123.6326,39.5425],[-123.635,39.5456],[-123.6382,39.5459],[-123.6385,39.5478],[-123.6454,39.5452],[-123.6526,39.5465],[-123.655,39.5439],[-123.6574,39.5462],[-123.6647,39.546],[-123.6654,39.5479],[-123.669,39.5473],[-123.6703,39.5496],[-123.6725,39.5495],[-123.6754,39.5519],[-123.6777,39.5513],[-123.6785,39.5529],[-123.6808,39.5532],[-123.6806,39.5562],[-123.6837,39.5573],[-123.6834,39.559],[-123.6874,39.5614],[-123.6908,39.5616],[-123.691,39.5632],[-123.6932,39.5646],[-123.6908,39.5653],[-123.691,39.568],[-123.6949,39.57],[-123.6984,39.5684],[-123.6961,39.5714],[-123.7003,39.5723],[-123.707,39.568],[-123.7098,39.5721],[-123.7186,39.5718],[-123.7235,39.5662],[-123.7214,39.5641],[-123.7214,39.5624],[-123.7277,39.5605],[-123.7231,39.5565],[-123.718,39.5571],[-123.7188,39.5525],[-123.7201,39.5514],[-123.7209,39.5528],[-123.7229,39.5529],[-123.7283,39.5485],[-123.7336,39.5478],[-123.7451,39.5507],[-123.7459,39.548],[-123.7497,39.5472],[-123.7461,39.5406],[-123.7491,39.5393],[-123.7537,39.5414],[-123.7546,39.5438],[-123.7647,39.5503],[-123.7666,39.5532],[-123.8384,39.5549],[-123.8346,39.5492],[-123.8526,39.5148],[-123.8636,39.5113],[-123.8678,39.5083],[-123.8725,39.5024],[-123.8751,39.4942],[-123.8744,39.4826],[-123.8874,39.453],[-123.8893,39.4346],[-123.8871,39.4258],[-123.8885,39.4194],[-123.8896,39.4171]],[[-123.82065,39.43943],[-123.81931,39.4398],[-123.81664,39.4381],[-123.81497,39.44058],[-123.8125,39.44173],[-123.81265,39.44286],[-123.8147,39.44433],[-123.81691,39.44486],[-123.8148,39.44605],[-123.8148,39.44816],[-123.8137,39.44869],[-123.81388,39.45012],[-123.81299,39.45079],[-123.81444,39.45382],[-123.81125,39.45474],[-123.81145,39.45557],[-123.80938,39.45888],[-123.80770779833595,39.4578111700704],[-123.80778,39.45827],[-123.80635,39.46625],[-123.80386,39.47031],[-123.80234,39.47021],[-123.80229,39.46889],[-123.80059,39.46966],[-123.79832,39.46785],[-123.79989,39.46758],[-123.80047,39.46623],[-123.80254,39.46699],[-123.80265,39.46304],[-123.80574,39.46314],[-123.80653,39.45951],[-123.80067,39.4593],[-123.8007,39.45683],[-123.80218,39.45765],[-123.80222,39.45493],[-123.80438,39.45553],[-123.8044,39.45442],[-123.80547,39.45387],[-123.80372,39.45419],[-123.80195,39.45316],[-123.80008,39.4511],[-123.79424,39.44798],[-123.79339,39.44635],[-123.78866,39.4468],[-123.78864,39.44424],[-123.78768,39.44422],[-123.78788,39.44307],[-123.78626,39.44261],[-123.78629,39.44168],[-123.78459,39.44166],[-123.78397,39.44502],[-123.78281,39.44501],[-123.78337,39.44312],[-123.78279,39.44311],[-123.78334,39.44168],[-123.78277,39.44168],[-123.78274,39.43813],[-123.78484,39.43814],[-123.78456,39.43636],[-123.78757,39.43635],[-123.78764,39.43466],[-123.791,39.43386],[-123.79128,39.43209],[-123.7929,39.43232],[-123.79214,39.43449],[-123.79623,39.43454],[-123.79559,39.43435],[-123.79561,39.43306],[-123.79691,39.43135],[-123.79599,39.42898],[-123.80112,39.42613],[-123.80319,39.42384],[-123.80301,39.42649],[-123.80371,39.42751],[-123.80656,39.42808],[-123.80681,39.42663],[-123.80555,39.42603],[-123.80582,39.4244],[-123.80321,39.42167],[-123.80573,39.42073],[-123.80551,39.41966],[-123.80682,39.4193],[-123.80761,39.41994],[-123.8092,39.41858],[-123.81123,39.41844],[-123.8112,39.41924],[-123.81288,39.41987],[-123.81287,39.42319],[-123.80888,39.42322],[-123.80889,39.42619],[-123.81176,39.42509],[-123.81682,39.42505],[-123.81684,39.4235],[-123.81909,39.42415],[-123.81762,39.42458],[-123.81872,39.42554],[-123.81693,39.42565],[-123.81702,39.42617],[-123.8136,39.4256],[-123.81031,39.42625],[-123.80946,39.42733],[-123.80717,39.42677],[-123.807,39.42783],[-123.81051,39.42807],[-123.80927,39.42873],[-123.81065,39.43057],[-123.81585,39.43066],[-123.81782,39.43411],[-123.81809,39.43646],[-123.81925,39.43598],[-123.81988,39.43716],[-123.81884,39.43722],[-123.82065,39.43943]],[[-123.80508,39.41926],[-123.80336,39.41896],[-123.80483,39.41889],[-123.80508,39.41926]],[[-123.79577,39.41832],[-123.79504,39.41813],[-123.79521,39.41747],[-123.79577,39.41832]],[[-123.78049,39.44432],[-123.77929,39.44358],[-123.77926,39.44173],[-123.78039,39.44173],[-123.78049,39.44432]],[[-123.77089,39.42552],[-123.77086,39.42884],[-123.7661,39.42894],[-123.76618,39.42541],[-123.77089,39.42552]],[[-123.75496,39.44056],[-123.75489,39.44198],[-123.75231321765793,39.44210093202327],[-123.7525,39.44083],[-123.75496,39.44056]],[[-123.75318,39.44392],[-123.75204,39.44396],[-123.75227339148034,39.44237192318813],[-123.75318,39.44392]],[[-123.75231321765793,39.44210093202327],[-123.75227339148034,39.44237192318813],[-123.75212,39.44211],[-123.75231321765793,39.44210093202327]]]},"properties":{"GEOID":"0604591030","NAME":"Fort Bragg","COUNTY":"045"}},{"type":"Feature","geometry":{"type":"Polygon","coordinates":[[[-123.8099,38.9612],[-123.8065,38.9405],[-123.7985,38.9275],[-123.7847,38.8937],[-123.7671,38.8779],[-123.7379,38.8574],[-123.7253,38.8441],[-123.7178,38.8279],[-123.7065,38.8177],[-123.6926,38.8103],[-123.6827,38.797],[-123.664,38.7855],[-123.66,38.7843],[-123.6527,38.775],[-123.6413,38.7644],[-123.6325,38.7581],[-123.5332,38.7684],[-123.5202,38.7586],[-123.5189,38.7594],[-123.5163,38.7678],[-123.5099,38.7674],[-123.507,38.7735],[-123.4999,38.7738],[-123.4992,38.7783],[-123.497,38.7786],[-123.4311,38.7766],[-123.3682,38.7771],[-123.3684,38.8066],[-123.239,38.8086],[-123.2338,38.8151],[-123.2311,38.8156],[-123.2329,38.8173],[-123.2288,38.8173],[-123.2272,38.8186],[-123.2263,38.8234],[-123.2202,38.8239],[-123.219,38.8252],[-123.2227,38.8306],[-123.2279,38.8319],[-123.2331,38.8313],[-123.2362,38.8326],[-123.2383,38.8359],[-123.2376,38.8387],[-123.2414,38.8423],[-123.2419,38.8467],[-123.2431,38.8473],[-123.2432,38.8489],[-123.2404,38.8502],[-123.2427,38.8532],[-123.2406,38.8551],[-123.2401,38.8605],[-123.2422,38.8611],[-123.2418,38.8639],[-123.2491,38.8641],[-123.2487,38.8665],[-123.2507,38.8677],[-123.25,38.8761],[-123.2534,38.8787],[-123.252,38.881],[-123.2554,38.8839],[-123.2608,38.8859],[-123.265,38.8852],[-123.266,38.8871],[-123.2687,38.8864],[-123.2743,38.8886],[-123.2824,38.8856],[-123.289,38.8893],[-123.2917,38.8935],[-123.2905,38.8957],[-123.2921,38.8973],[-123.2997,38.896],[-123.299,38.8971],[-123.308,38.8991],[-123.3083,38.9009],[-123.3139,38.9032],[-123.3171,38.9007],[-123.3193,38.9008],[-123.3191,38.9041],[-123.3271,38.9066],[-123.3333,38.9048],[-123.3412,38.9048],[-123.3459,38.9023],[-123.3508,38.9058],[-123.354,38.9118],[-123.3539,38.9144],[-123.3565,38.9178],[-123.3586,38.9193],[-123.3619,38.9185],[-123.3617,38.9206],[-123.3645,38.9235],[-123.362,38.9247],[-123.3691,38.9284],[-123.3684,38.9304],[-123.3699,38.9337],[-123.3784,38.9372],[-123.3797,38.9403],[-123.3834,38.941],[-123.385,38.9463],[-123.3909,38.9493],[-123.3894,38.9546],[-123.3867,38.9557],[-123.3831,38.9606],[-123.3817,38.9575],[-123.3807,38.9625],[-123.3832,38.9626],[-123.3871,38.9601],[-123.3908,38.9613],[-123.3946,38.9601],[-123.4145,38.9699],[-123.4186,38.9692],[-123.4184,38.9712],[-123.4107,38.9748],[-123.4148,38.9767],[-123.4181,38.9755],[-123.4198,38.9762],[-123.4174,38.9814],[-123.4224,38.9876],[-123.4325,38.9914],[-123.4358,38.9945],[-123.4377,38.994],[-123.436,38.9935],[-123.439,38.993],[-123.4451,38.9958],[-123.4449,38.9937],[-123.4481,38.9925],[-123.4475,38.9879],[-123.4534,38.9858],[-123.4589,38.9865],[-123.4615,38.9842],[-123.4722,38.9824],[-123.4776,38.9766],[-123.4772,38.9739],[-123.4812,38.9779],[-123.4808,38.9802],[-123.4891,38.9918],[-123.4889,38.9944],[-123.5027,39.002],[-123.5089,39.0111],[-123.5146,39.0137],[-123.514,39.0152],[-123.5165,39.0187],[-123.517,39.0218],[-123.5188,39.0219],[-123.5198,39.0204],[-123.5235,39.0218],[-123.5225,39.0262],[-123.5248,39.0295],[-123.5212,39.0302],[-123.5245,39.0318],[-123.53,39.0301],[-123.534,39.0328],[-123.5447,39.0328],[-123.5556,39.0307],[-123.5581,39.0292],[-123.5679,39.0287],[-123.5786,39.0354],[-123.5806,39.0397],[-123.5872,39.0444],[-123.5921,39.0471],[-123.598,39.0471],[-123.6104,39.0578],[-123.6184,39.0593],[-123.6206,39.0643],[-123.627,39.0666],[-123.6266,39.0722],[-123.6292,39.0751],[-123.6406,39.0793],[-123.6472,39.0859],[-123.6516,39.0859],[-123.6539,39.0875],[-123.6559,39.0864],[-123.6578,39.0888],[-123.6625,39.0885],[-123.6713,39.0915],[-123.6759,39.0907],[-123.6807,39.0927],[-123.6843,39.0921],[-123.685,39.0948],[-123.6869,39.0953],[-123.6897,39.0996],[-123.6948,39.1027],[-123.6973,39.1016],[-123.6977,39.105],[-123.7,39.1043],[-123.6996,39.1018],[-123.704,39.1013],[-123.7076,39.1025],[-123.7928,39.1023],[-123.7861,39.0921],[-123.7834,39.0818],[-123.7783,39.0697],[-123.7726,39.0632],[-123.7683,39.0503],[-123.762,39.0411],[-123.7612,39.015],[-123.7631,39.0087],[-123.7692,39.0079],[-123.7766,39.005],[-123.7854,38.9999],[-123.7972,38.9899],[-123.8061,38.977],[-123.8099,38.9612]],[[-123.72679,38.91864],[-123.72289,38.91859],[-123.72447,38.91795],[-123.72455,38.9172],[-123.72533,38.91836],[-123.72533,38.91664],[-123.72679,38.91864]],[[-123.72102,38.91866],[-123.6861,38.91848],[-123.68602,38.91123],[-123.6814,38.9115],[-123.68141,38.91466],[-123.67678,38.91466],[-123.67674,38.91325],[-123.67863,38.91328],[-123.67678,38.91251],[-123.67671,38.9038],[-123.6812,38.90382],[-123.68129,38.90746],[-123.69084,38.90735],[-123.69079,38.90379],[-123.69544,38.90371],[-123.69557,38.90751],[-123.70569,38.90751],[-123.70675,38.90885],[-123.71137,38.91024],[-123.71219,38.91162],[-123.70992,38.91345],[-123.71104,38.91556],[-123.71333,38.91654],[-123.7176,38.91688],[-123.72102,38.91866]]]},"properties":{"GEOID":"0604592510","NAME":"Point Arena","COUNTY":"045"}},{"type":"Feature","geometry":{"type":"Polygon","coordinates":[[[-123.5691,39.3419],[-123.5665,39.3399],[-123.5664,39.3383],[-123.5639,39.3373],[-123.5623,39.334],[-123.5599,39.3333],[-123.562,39.3296],[-123.557,39.3267],[-123.5564,39.3206],[-123.555,39.3186],[-123.5591,39.3174],[-123.5629,39.3112],[-123.5612,39.3094],[-123.5578,39.3093],[-123.5573,39.3103],[-123.5561,39.3095],[-123.5551,39.3071],[-123.5585,39.3051],[-123.5553,39.3014],[-123.5528,39.3022],[-123.5507,39.301],[-123.5462,39.3027],[-123.5447,39.3002],[-123.5357,39.2981],[-123.534,39.2954],[-123.5283,39.2987],[-123.5301,39.3005],[-123.5295,39.3034],[-123.5196,39.304],[-123.5193,39.3023],[-123.5161,39.302],[-123.5152,39.3005],[-123.5153,39.3052],[-123.5081,39.3065],[-123.505,39.3088],[-123.5006,39.3086],[-123.4999,39.3119],[-123.4985,39.3126],[-123.4963,39.3101],[-123.4919,39.3118],[-123.4764,39.3081],[-123.4722,39.3102],[-123.4701,39.3091],[-123.4508,39.3086],[-123.4426,39.3102],[-123.4367,39.3078],[-123.4364,39.3045],[-123.434,39.3041],[-123.433,39.3019],[-123.4307,39.3011],[-123.4314,39.2997],[-123.4294,39.2972],[-123.4304,39.2957],[-123.4288,39.2934],[-123.426,39.2929],[-123.4217,39.2887],[-123.4176,39.2895],[-123.4152,39.2882],[-123.407,39.2921],[-123.4023,39.2957],[-123.4016,39.2978],[-123.3968,39.3003],[-123.3944,39.3035],[-123.3939,39.3069],[-123.3905,39.3097],[-123.3899,39.3119],[-123.3934,39.3146],[-123.3944,39.319],[-123.3917,39.3215],[-123.3935,39.3224],[-123.3946,39.3202],[-123.3969,39.3213],[-123.3966,39.3203],[-123.3982,39.3204],[-123.397,39.3188],[-123.4014,39.3167],[-123.3993,39.3156],[-123.4009,39.3153],[-123.4025,39.3168],[-123.4008,39.3199],[-123.4015,39.3231],[-123.3994,39.3254],[-123.3926,39.3285],[-123.3934,39.3296],[-123.3923,39.3306],[-123.3903,39.3302],[-123.3873,39.3322],[-123.389,39.3346],[-123.3877,39.3376],[-123.3884,39.3385],[-123.3827,39.3466],[-123.3847,39.3497],[-123.387,39.3502],[-123.3878,39.3529],[-123.3855,39.3517],[-123.3829,39.3527],[-123.3749,39.3466],[-123.3772,39.3467],[-123.3752,39.3444],[-123.3709,39.3429],[-123.3695,39.3402],[-123.3663,39.339],[-123.3651,39.3345],[-123.3612,39.3333],[-123.3593,39.3303],[-123.3539,39.3276],[-123.3531,39.3246],[-123.3492,39.3218],[-123.3426,39.3222],[-123.3391,39.32],[-123.3368,39.32],[-123.3326,39.3156],[-123.3288,39.315],[-123.3208,39.317],[-123.3137,39.3149],[-123.3139,39.3129],[-123.3105,39.3111],[-123.3106,39.3095],[-123.3078,39.3083],[-123.3081,39.3075],[-123.2999,39.2994],[-123.2914,39.2963],[-123.2875,39.2985],[-123.2873,39.2998],[-123.2949,39.3007],[-123.3003,39.306],[-123.2977,39.3132],[-123.3013,39.3174],[-123.3015,39.3262],[-123.3044,39.3311],[-123.3041,39.3345],[-123.3064,39.336],[-123.3004,39.3332],[-123.2989,39.3359],[-123.2966,39.3302],[-123.2951,39.3306],[-123.2945,39.3268],[-123.2896,39.3258],[-123.2894,39.3241],[-123.2886,39.3262],[-123.2911,39.3277],[-123.2878,39.3267],[-123.2865,39.3246],[-123.2803,39.3268],[-123.2763,39.3243],[-123.2729,39.3251],[-123.2721,39.3302],[-123.2688,39.3308],[-123.2712,39.3355],[-123.2695,39.3373],[-123.2688,39.3421],[-123.2663,39.3442],[-123.2672,39.3447],[-123.2654,39.3442],[-123.266,39.3454],[-123.2633,39.3465],[-123.2639,39.348],[-123.2612,39.3484],[-123.262,39.3504],[-123.259,39.3519],[-123.2591,39.3542],[-123.2575,39.3568],[-123.2546,39.3577],[-123.2538,39.3592],[-123.2483,39.3598],[-123.2496,39.3611],[-123.2479,39.3621],[-123.2476,39.3656],[-123.2533,39.3702],[-123.2523,39.3731],[-123.2384,39.3708],[-123.2396,39.3697],[-123.2338,39.3657],[-123.235,39.374],[-123.2329,39.3764],[-123.2287,39.3765],[-123.2313,39.3784],[-123.2311,39.3817],[-123.2323,39.3836],[-123.2312,39.3869],[-123.2287,39.388],[-123.2317,39.394],[-123.2341,39.3944],[-123.2342,39.3977],[-123.2368,39.3998],[-123.2367,39.4056],[-123.2422,39.415],[-123.2394,39.4215],[-123.2391,39.4204],[-123.2323,39.4215],[-123.2283,39.4182],[-123.2246,39.4199],[-123.2134,39.4215],[-123.2098,39.4242],[-123.2041,39.4247],[-123.1987,39.4234],[-123.1984,39.4254],[-123.1971,39.4257],[-123.1933,39.4246],[-123.1885,39.4201],[-123.1825,39.4214],[-123.1777,39.4185],[-123.1734,39.4189],[-123.1723,39.4169],[-123.1691,39.4153],[-123.1647,39.4164],[-123.1596,39.4138],[-123.1568,39.4143],[-123.1523,39.4181],[-123.1497,39.4179],[-123.1478,39.4221],[-123.1451,39.4221],[-123.1423,39.4244],[-123.1444,39.4302],[-123.1426,39.4329],[-123.1457,39.4423],[-123.1455,39.4457],[-123.1481,39.4503],[-123.1479,39.4546],[-123.1501,39.4563],[-123.1542,39.463],[-123.1577,39.4714],[-123.1504,39.4759],[-123.1577,39.4823],[-123.1578,39.4874],[-123.1591,39.4891],[-123.1651,39.4899],[-123.1709,39.4934],[-123.174,39.4922],[-123.1823,39.4942],[-123.201,39.4941],[-123.2063,39.496],[-123.2111,39.4929],[-123.2148,39.4927],[-123.2169,39.4999],[-123.2085,39.5029],[-123.207,39.5051],[-123.2106,39.5127],[-123.2142,39.5163],[-123.2166,39.513],[-123.2162,39.5072],[-123.2199,39.506],[-123.2227,39.5084],[-123.2221,39.514],[-123.2234,39.5172],[-123.2222,39.5186],[-123.2162,39.5199],[-123.2157,39.5217],[-123.2172,39.5244],[-123.226,39.5255],[-123.226,39.5295],[-123.2278,39.5312],[-123.2338,39.5288],[-123.2364,39.5292],[-123.2383,39.5313],[-123.239,39.5353],[-123.2425,39.537],[-123.2606,39.5312],[-123.2649,39.5341],[-123.2686,39.5349],[-123.2737,39.5412],[-123.2809,39.5448],[-123.2827,39.5503],[-123.286,39.5538],[-123.2856,39.5568],[-123.2872,39.5619],[-123.2913,39.5648],[-123.2908,39.5726],[-123.2869,39.5789],[-123.291,39.5824],[-123.2917,39.5861],[-123.3026,39.5891],[-123.2972,39.5924],[-123.2983,39.5946],[-123.3063,39.5974],[-123.3061,39.6008],[-123.3097,39.6043],[-123.3074,39.6114],[-123.3113,39.6193],[-123.3206,39.6182],[-123.3449,39.6265],[-123.3609,39.6148],[-123.3706,39.6153],[-123.38,39.6139],[-123.3813,39.6131],[-123.3814,39.6108],[-123.3881,39.6101],[-123.3914,39.6114],[-123.3958,39.6108],[-123.4016,39.6184],[-123.4095,39.6209],[-123.4159,39.6174],[-123.4254,39.616],[-123.4256,39.6143],[-123.4281,39.6124],[-123.4345,39.612],[-123.439,39.6136],[-123.4448,39.6183],[-123.4486,39.6189],[-123.457,39.625],[-123.4641,39.6244],[-123.4649,39.6197],[-123.4589,39.6144],[-123.4588,39.6102],[-123.4538,39.6023],[-123.4541,39.5963],[-123.4563,39.5935],[-123.4554,39.592],[-123.4584,39.5902],[-123.4609,39.5911],[-123.4623,39.5901],[-123.4618,39.5872],[-123.4597,39.5854],[-123.4686,39.5799],[-123.4673,39.5781],[-123.469,39.575],[-123.4673,39.5759],[-123.464,39.5708],[-123.4649,39.5679],[-123.4633,39.5669],[-123.467,39.5626],[-123.4628,39.5561],[-123.4606,39.5556],[-123.4607,39.5535],[-123.4586,39.5506],[-123.4599,39.5492],[-123.4607,39.5441],[-123.4515,39.5393],[-123.4539,39.536],[-123.453,39.5293],[-123.4553,39.5276],[-123.4594,39.5278],[-123.4717,39.5327],[-123.4883,39.534],[-123.4878,39.532],[-123.4901,39.529],[-123.4932,39.5285],[-123.4951,39.5263],[-123.4978,39.5255],[-123.5014,39.5212],[-123.4985,39.5213],[-123.4991,39.5187],[-123.502,39.5166],[-123.5003,39.5136],[-123.5075,39.5124],[-123.5083,39.5105],[-123.5104,39.5099],[-123.5107,39.5078],[-123.514,39.5063],[-123.5161,39.508],[-123.5148,39.5041],[-123.5126,39.5025],[-123.5129,39.5006],[-123.511,39.5001],[-123.511,39.497],[-123.5132,39.4924],[-123.5108,39.4942],[-123.5078,39.493],[-123.5073,39.4948],[-123.505,39.4939],[-123.5048,39.4957],[-123.5037,39.494],[-123.5036,39.4918],[-123.5056,39.4911],[-123.5037,39.4901],[-123.5025,39.4847],[-123.5052,39.476],[-123.5038,39.4719],[-123.5018,39.47],[-123.5024,39.4682],[-123.507,39.4646],[-123.5091,39.4649],[-123.5105,39.4635],[-123.5167,39.4645],[-123.5245,39.4613],[-123.5254,39.4581],[-123.5272,39.4578],[-123.5279,39.4557],[-123.5331,39.4541],[-123.5296,39.4497],[-123.5209,39.4461],[-123.5203,39.4416],[-123.5264,39.4354],[-123.5365,39.4315],[-123.5388,39.4318],[-123.5459,39.4271],[-123.5504,39.4263],[-123.5526,39.4215],[-123.5497,39.4202],[-123.5456,39.421],[-123.5434,39.418],[-123.5374,39.4231],[-123.5321,39.4207],[-123.5307,39.4228],[-123.5268,39.4206],[-123.5227,39.4214],[-123.5199,39.4199],[-123.5175,39.4211],[-123.5155,39.419],[-123.5109,39.4197],[-123.5086,39.4179],[-123.5075,39.4197],[-123.5022,39.4206],[-123.4903,39.4167],[-123.4857,39.4169],[-123.4746,39.4142],[-123.4615,39.4045],[-123.4636,39.403],[-123.4648,39.4049],[-123.4654,39.4043],[-123.4663,39.4016],[-123.4647,39.3966],[-123.4597,39.3941],[-123.4557,39.3942],[-123.4617,39.3927],[-123.466,39.3934],[-123.4661,39.3911],[-123.4678,39.3907],[-123.4677,39.3884],[-123.4703,39.386],[-123.474,39.3856],[-123.4744,39.3831],[-123.4807,39.3829],[-123.4803,39.3814],[-123.4849,39.3799],[-123.486,39.3771],[-123.4892,39.3778],[-123.4935,39.3753],[-123.4957,39.3756],[-123.4956,39.3725],[-123.4975,39.3716],[-123.4962,39.3706],[-123.4976,39.3697],[-123.4966,39.3683],[-123.4988,39.3676],[-123.4988,39.3659],[-123.502,39.3655],[-123.5009,39.3633],[-123.5056,39.3622],[-123.5072,39.361],[-123.5064,39.3598],[-123.5097,39.359],[-123.5091,39.3571],[-123.5104,39.3542],[-123.5093,39.353],[-123.5125,39.3482],[-123.5161,39.3487],[-123.5221,39.3463],[-123.5324,39.3486],[-123.5363,39.3468],[-123.5405,39.3488],[-123.5483,39.3495],[-123.5498,39.3511],[-123.5543,39.3513],[-123.5562,39.3528],[-123.5602,39.3526],[-123.5623,39.3509],[-123.5623,39.347],[-123.5664,39.3468],[-123.5679,39.3447],[-123.5672,39.3422],[-123.5691,39.3419]],[[-123.37447,39.45113],[-123.37446,39.45196],[-123.37442,39.45646],[-123.37184,39.45637],[-123.37089,39.44913],[-123.37182,39.44914],[-123.3713,39.44407],[-123.37327,39.44395],[-123.37334,39.44492],[-123.374,39.44494],[-123.37326,39.45113],[-123.37447,39.45113]],[[-123.36433,39.40367],[-123.36416,39.42005],[-123.3549,39.42018],[-123.35369,39.42374],[-123.35107,39.42382],[-123.3509,39.42025],[-123.34084,39.42043],[-123.33942,39.41411],[-123.34005,39.41272],[-123.34145,39.41268],[-123.34161,39.41072],[-123.34567,39.41115],[-123.34567,39.4095],[-123.34275,39.40957],[-123.34271,39.40787],[-123.34289,39.40543],[-123.34409,39.40374],[-123.3455,39.4035],[-123.34551,39.40238],[-123.34318,39.3987],[-123.34247,39.39869],[-123.34162,39.39646],[-123.34081,39.39869],[-123.33843,39.39871],[-123.33831,39.39513],[-123.33406,39.39512],[-123.33435,39.38522],[-123.33596,39.38771],[-123.33579,39.37757],[-123.3375,39.37769],[-123.34014,39.37943],[-123.3396,39.37957],[-123.34032,39.38125],[-123.34157,39.38113],[-123.34502,39.38779],[-123.35156,39.38768],[-123.35195,39.39029],[-123.35043,39.39245],[-123.35087,39.394],[-123.35009,39.39468],[-123.34971,39.39769],[-123.35363,39.39762],[-123.35492,39.3985],[-123.36432,39.39855],[-123.36433,39.40367]],[[-123.30514,39.36967],[-123.30374,39.37146],[-123.30331,39.37252],[-123.30223,39.37263],[-123.29798,39.37193],[-123.29797,39.3697],[-123.30514,39.36967]]]},"properties":{"GEOID":"0604593740","NAME":"Willits","COUNTY":"045"}},{"type":"Feature","geometry":{"type":"Polygon","coordinates":[[[-123.4751,39.9292],[-123.4718,39.924],[-123.4702,39.9171],[-123.4703,39.9102],[-123.4729,39.9058],[-123.4667,39.9019],[-123.4525,39.9005],[-123.4511,39.8917],[-123.4478,39.8868],[-123.4485,39.8826],[-123.4434,39.8796],[-123.4384,39.8737],[-123.4406,39.8669],[-123.4403,39.8642],[-123.4363,39.8619],[-123.4345,39.8566],[-123.4278,39.8547],[-123.4281,39.8518],[-123.425,39.8477],[-123.4184,39.8469],[-123.4166,39.8451],[-123.417,39.8418],[-123.4202,39.8369],[-123.4195,39.8343],[-123.4161,39.8311],[-123.4179,39.8271],[-123.413,39.8226],[-123.4165,39.8177],[-123.4158,39.8139],[-123.4099,39.8121],[-123.4013,39.8003],[-123.3939,39.7963],[-123.393,39.7945],[-123.39,39.7942],[-123.3928,39.7838],[-123.3902,39.7727],[-123.3857,39.7693],[-123.3833,39.7645],[-123.3799,39.7511],[-123.3753,39.7493],[-123.3724,39.745],[-123.3724,39.7382],[-123.3695,39.7345],[-123.3693,39.7308],[-123.3676,39.7293],[-123.3677,39.725],[-123.3618,39.7219],[-123.3549,39.721],[-123.3522,39.7188],[-123.352,39.7147],[-123.3468,39.7112],[-123.3532,39.7116],[-123.3551,39.7045],[-123.3603,39.6961],[-123.3583,39.6928],[-123.3589,39.6872],[-123.3537,39.6815],[-123.3489,39.6787],[-123.3448,39.6738],[-123.3439,39.6705],[-123.3467,39.6668],[-123.3438,39.6583],[-123.344,39.6464],[-123.3421,39.6441],[-123.345,39.636],[-123.3434,39.6332],[-123.3447,39.6262],[-123.3301,39.6222],[-123.3206,39.6182],[-123.3108,39.6189],[-123.3073,39.6105],[-123.3097,39.6053],[-123.3094,39.6034],[-123.3061,39.6008],[-123.3057,39.5965],[-123.2983,39.5946],[-123.2972,39.5924],[-123.3026,39.5891],[-123.2917,39.5861],[-123.291,39.5824],[-123.2869,39.5789],[-123.2908,39.5726],[-123.2913,39.5648],[-123.2872,39.5619],[-123.2856,39.5568],[-123.286,39.5538],[-123.2827,39.5503],[-123.2809,39.5448],[-123.2737,39.5412],[-123.2689,39.5351],[-123.2597,39.5311],[-123.253,39.5345],[-123.2425,39.537],[-123.239,39.5353],[-123.2383,39.5313],[-123.2364,39.5292],[-123.2338,39.5288],[-123.2278,39.5312],[-123.226,39.5295],[-123.226,39.5255],[-123.2172,39.5244],[-123.2157,39.5217],[-123.2162,39.5199],[-123.2222,39.5186],[-123.2234,39.5172],[-123.2221,39.514],[-123.2227,39.5084],[-123.2199,39.506],[-123.2162,39.5072],[-123.2166,39.513],[-123.2142,39.5163],[-123.2106,39.5127],[-123.207,39.5051],[-123.2085,39.5029],[-123.2169,39.4999],[-123.2148,39.4927],[-123.2111,39.4929],[-123.2063,39.496],[-123.201,39.4941],[-123.1927,39.4948],[-123.1839,39.4934],[-123.1823,39.4942],[-123.1746,39.4922],[-123.1719,39.4935],[-123.1693,39.4925],[-123.1627,39.4961],[-123.1627,39.499],[-123.164,39.5002],[-123.1633,39.5033],[-123.1573,39.5067],[-123.1468,39.5091],[-123.1436,39.5119],[-123.1399,39.5121],[-123.137,39.5144],[-123.1308,39.5161],[-123.1265,39.5151],[-123.1185,39.517],[-123.1153,39.5155],[-123.109,39.5159],[-123.101,39.5239],[-123.098,39.5238],[-123.0961,39.5262],[-123.0961,39.5293],[-123.0915,39.5291],[-123.091,39.5264],[-123.0895,39.5281],[-123.0889,39.527],[-123.085,39.5275],[-123.0852,39.5295],[-123.0828,39.531],[-123.0804,39.527],[-123.0781,39.5273],[-123.0782,39.5251],[-123.0797,39.5242],[-123.0788,39.5218],[-123.0764,39.5227],[-123.0727,39.521],[-123.0713,39.5165],[-123.0698,39.5172],[-123.0669,39.515],[-123.0649,39.516],[-123.0628,39.5139],[-123.0604,39.5142],[-123.0598,39.5101],[-123.0566,39.5107],[-123.0546,39.5127],[-123.0509,39.5091],[-123.0486,39.5099],[-123.0462,39.5074],[-123.0451,39.5036],[-123.0444,39.5112],[-123.025,39.5112],[-123.0252,39.5187],[-122.9367,39.5164],[-122.9367,39.5307],[-122.8903,39.529],[-122.8858,39.5651],[-122.8845,39.6108],[-122.8904,39.6229],[-122.8927,39.7089],[-122.9129,39.7087],[-122.9125,39.7482],[-122.9384,39.7481],[-122.9374,39.7546],[-122.9377,39.7982],[-122.9432,39.8013],[-122.944,39.8031],[-122.9442,39.8112],[-122.9462,39.8161],[-122.9475,39.8268],[-122.9467,39.8335],[-122.9514,39.8375],[-122.9564,39.8392],[-122.9574,39.8423],[-122.9601,39.8452],[-122.9576,39.8488],[-122.9575,39.8518],[-122.954,39.8547],[-122.9554,39.8555],[-122.9558,39.8585],[-122.9527,39.8627],[-122.9505,39.8685],[-122.9533,39.8728],[-122.9499,39.8788],[-122.9507,39.883],[-122.9496,39.8897],[-122.9474,39.8924],[-122.9488,39.897],[-122.9485,39.9023],[-122.9506,39.907],[-122.9457,39.9092],[-122.9283,39.9125],[-122.9205,39.9165],[-122.9215,39.9223],[-122.9206,39.9289],[-122.9126,39.9315],[-122.9098,39.9364],[-122.9132,39.9358],[-122.9166,39.9373],[-122.924,39.9442],[-122.9268,39.9451],[-122.9274,39.9563],[-122.9248,39.9603],[-122.9267,39.9669],[-122.9255,39.9689],[-122.9273,39.9716],[-122.9352,39.9772],[-122.934,39.9781],[-123.4473,39.9772],[-123.4369,39.9576],[-123.443,39.9533],[-123.4463,39.9466],[-123.4502,39.9426],[-123.45,39.9398],[-123.4546,39.9374],[-123.4547,39.9338],[-123.4581,39.9329],[-123.4626,39.9348],[-123.4703,39.9325],[-123.4731,39.9337],[-123.4751,39.9292]]]},"properties":{"GEOID":"0604590610","NAME":"Covelo","COUNTY":"045"}},{"type":"Feature","geometry":{"type":"Polygon","coordinates":[[[-124.1349,40.0025],[-124.1228,39.9887],[-124.1152,39.9824],[-124.1086,39.9788],[-124.0964,39.975],[-124.0786,39.9723],[-124.0511,39.9457],[-124.0477,39.941],[-124.0354,39.9311],[-124.0162,39.9074],[-124.0096,39.8937],[-124.0055,39.8893],[-123.9829,39.8768],[-123.9785,39.8636],[-123.9735,39.8536],[-123.9536,39.827],[-123.9386,39.8149],[-123.924,39.8079],[-123.9105,39.7996],[-123.9058,39.7883],[-123.901,39.7805],[-123.9011,39.7727],[-123.904,39.7571],[-123.8973,39.7184],[-123.8932,39.7048],[-123.8904,39.7],[-123.8803,39.6891],[-123.8572,39.6747],[-123.856,39.6571],[-123.8519,39.6428],[-123.8516,39.6276],[-123.8534,39.6035],[-123.8525,39.5924],[-123.8494,39.5783],[-123.8384,39.5549],[-123.7666,39.5532],[-123.7647,39.5503],[-123.7546,39.5438],[-123.7537,39.5414],[-123.7491,39.5393],[-123.7461,39.5406],[-123.7497,39.5472],[-123.7459,39.548],[-123.7451,39.5507],[-123.7336,39.5478],[-123.7283,39.5485],[-123.7229,39.5529],[-123.7209,39.5528],[-123.7201,39.5514],[-123.7188,39.5525],[-123.718,39.5571],[-123.7231,39.5565],[-123.7277,39.5605],[-123.7214,39.5624],[-123.7214,39.5641],[-123.7235,39.5662],[-123.7186,39.5718],[-123.7098,39.5721],[-123.707,39.568],[-123.7003,39.5723],[-123.6961,39.5714],[-123.6984,39.5684],[-123.6949,39.57],[-123.691,39.568],[-123.6908,39.5653],[-123.6932,39.5646],[-123.691,39.5632],[-123.6908,39.5616],[-123.6874,39.5614],[-123.6834,39.559],[-123.6837,39.5573],[-123.6806,39.5562],[-123.6808,39.5532],[-123.6785,39.5529],[-123.6777,39.5513],[-123.6754,39.5519],[-123.6725,39.5495],[-123.6703,39.5496],[-123.669,39.5473],[-123.6654,39.5479],[-123.6647,39.546],[-123.6619,39.5468],[-123.6596,39.5454],[-123.6574,39.5462],[-123.655,39.5439],[-123.6526,39.5465],[-123.6454,39.5452],[-123.6385,39.5478],[-123.6382,39.5459],[-123.635,39.5456],[-123.6326,39.5425],[-123.6253,39.5402],[-123.6237,39.5411],[-123.6219,39.5389],[-123.6193,39.5388],[-123.6154,39.5412],[-123.6146,39.5389],[-123.6108,39.5401],[-123.6049,39.5389],[-123.6012,39.54],[-123.5968,39.5374],[-123.596,39.5356],[-123.591,39.535],[-123.5866,39.5381],[-123.5826,39.5366],[-123.5809,39.5382],[-123.5788,39.5382],[-123.5777,39.5369],[-123.5712,39.5362],[-123.5608,39.5388],[-123.5568,39.5378],[-123.5534,39.5398],[-123.5441,39.5388],[-123.5403,39.5409],[-123.5366,39.5393],[-123.5274,39.5399],[-123.5201,39.5357],[-123.5079,39.5212],[-123.4962,39.5257],[-123.4932,39.5285],[-123.4902,39.5289],[-123.4878,39.532],[-123.4883,39.534],[-123.4853,39.5344],[-123.4833,39.5329],[-123.4717,39.5327],[-123.4656,39.5311],[-123.4617,39.5284],[-123.4553,39.5276],[-123.453,39.5294],[-123.4539,39.536],[-123.4515,39.5393],[-123.4607,39.5441],[-123.4599,39.5492],[-123.4586,39.5506],[-123.4607,39.5535],[-123.4606,39.5556],[-123.4628,39.5561],[-123.467,39.5626],[-123.4633,39.5669],[-123.4649,39.5679],[-123.464,39.5708],[-123.4673,39.5759],[-123.469,39.575],[-123.4673,39.5781],[-123.4686,39.5799],[-123.4597,39.5854],[-123.4618,39.5872],[-123.4623,39.5901],[-123.4609,39.5911],[-123.4584,39.5902],[-123.4554,39.592],[-123.4563,39.5935],[-123.4541,39.5963],[-123.4538,39.6023],[-123.4588,39.6102],[-123.4589,39.6144],[-123.4649,39.6197],[-123.4641,39.6244],[-123.457,39.625],[-123.4486,39.6189],[-123.4448,39.6183],[-123.439,39.6136],[-123.4345,39.612],[-123.4281,39.6124],[-123.4256,39.6143],[-123.4254,39.616],[-123.4159,39.6174],[-123.4095,39.6209],[-123.4016,39.6184],[-123.3958,39.6108],[-123.3914,39.6114],[-123.3881,39.6101],[-123.3814,39.6108],[-123.3813,39.6131],[-123.38,39.6139],[-123.3706,39.6153],[-123.3609,39.6148],[-123.3439,39.6269],[-123.3434,39.6335],[-123.345,39.636],[-123.3421,39.6441],[-123.344,39.6464],[-123.3438,39.6583],[-123.3467,39.6668],[-123.3439,39.6705],[-123.3448,39.6738],[-123.3489,39.6787],[-123.3537,39.6815],[-123.3589,39.6872],[-123.3583,39.6928],[-123.3603,39.6961],[-123.3551,39.7045],[-123.3532,39.7116],[-123.3468,39.7112],[-123.352,39.7147],[-123.3522,39.7188],[-123.3549,39.721],[-123.3618,39.7219],[-123.3677,39.725],[-123.3676,39.7293],[-123.3693,39.7308],[-123.3695,39.7345],[-123.3724,39.7382],[-123.3724,39.745],[-123.3753,39.7493],[-123.3799,39.7511],[-123.3833,39.7645],[-123.3857,39.7693],[-123.3902,39.7727],[-123.3928,39.7838],[-123.39,39.7942],[-123.393,39.7945],[-123.3939,39.7963],[-123.4013,39.8003],[-123.4099,39.8121],[-123.4156,39.8136],[-123.4165,39.8177],[-123.413,39.8226],[-123.4179,39.8271],[-123.4161,39.8311],[-123.4195,39.8343],[-123.4202,39.8369],[-123.417,39.8418],[-123.4166,39.8451],[-123.4184,39.8469],[-123.425,39.8477],[-123.4281,39.8518],[-123.4278,39.8547],[-123.4345,39.8566],[-123.4363,39.8619],[-123.4403,39.8642],[-123.4406,39.8669],[-123.4384,39.8737],[-123.4434,39.8796],[-123.4485,39.8826],[-123.4478,39.8868],[-123.4511,39.8917],[-123.4522,39.9002],[-123.4536,39.9012],[-123.4667,39.9019],[-123.4729,39.9058],[-123.4703,39.9102],[-123.4702,39.9171],[-123.4718,39.924],[-123.4751,39.9285],[-123.4731,39.9337],[-123.4703,39.9325],[-123.4626,39.9348],[-123.4581,39.9329],[-123.4547,39.9338],[-123.4546,39.9374],[-123.45,39.9398],[-123.4502,39.9426],[-123.4463,39.9466],[-123.443,39.9533],[-123.4369,39.9576],[-123.4473,39.9772],[-123.5446,39.977],[-123.5445,40.0019],[-124.0224,40.0013],[-124.1349,40.0025]]]},"properties":{"GEOID":"0604591580","NAME":"Laytonville-Leggett","COUNTY":"045"}},{"type":"Feature","geometry":{"type":"Polygon","coordinates":[[[-123.4391,39.1496],[-123.4322,39.1481],[-123.4285,39.1508],[-123.4248,39.1494],[-123.4244,39.1513],[-123.4202,39.1513],[-123.4134,39.146],[-123.4065,39.1456],[-123.4015,39.1428],[-123.4028,39.1424],[-123.4027,39.141],[-123.3991,39.1406],[-123.3989,39.139],[-123.3949,39.1373],[-123.4029,39.1354],[-123.4037,39.1342],[-123.4022,39.1326],[-123.4056,39.1329],[-123.4103,39.1303],[-123.4119,39.1275],[-123.405,39.1237],[-123.4038,39.1187],[-123.4002,39.1174],[-123.4028,39.1131],[-123.4017,39.1111],[-123.4022,39.1087],[-123.408,39.1038],[-123.4074,39.1017],[-123.3963,39.0961],[-123.3923,39.0906],[-123.3891,39.0888],[-123.3873,39.091],[-123.3846,39.0869],[-123.3808,39.0883],[-123.3797,39.0855],[-123.3764,39.0834],[-123.376,39.0809],[-123.3778,39.0787],[-123.3824,39.0767],[-123.3873,39.0767],[-123.3857,39.0761],[-123.3871,39.0754],[-123.3893,39.0755],[-123.395,39.0794],[-123.3928,39.0752],[-123.3897,39.0729],[-123.3883,39.0697],[-123.3851,39.0687],[-123.3814,39.0632],[-123.3802,39.0607],[-123.3819,39.0582],[-123.376,39.0555],[-123.3741,39.053],[-123.3761,39.0526],[-123.3707,39.0503],[-123.3716,39.048],[-123.374,39.0484],[-123.3751,39.0467],[-123.377,39.0472],[-123.3796,39.0458],[-123.3757,39.0456],[-123.3739,39.047],[-123.3645,39.0489],[-123.3613,39.0479],[-123.3564,39.0438],[-123.3615,39.0451],[-123.3623,39.0439],[-123.3533,39.0385],[-123.3476,39.0324],[-123.3413,39.0325],[-123.3257,39.0247],[-123.3238,39.0252],[-123.3208,39.0227],[-123.3202,39.0242],[-123.3177,39.0228],[-123.3144,39.0247],[-123.3101,39.0246],[-123.3038,39.0268],[-123.2931,39.025],[-123.2865,39.0262],[-123.2774,39.03],[-123.2776,39.031],[-123.2799,39.0313],[-123.2796,39.0324],[-123.2717,39.032],[-123.2698,39.0353],[-123.266,39.0354],[-123.2647,39.0366],[-123.2638,39.041],[-123.2663,39.0481],[-123.2648,39.0499],[-123.2586,39.0508],[-123.2559,39.0478],[-123.2536,39.0476],[-123.2515,39.048],[-123.2491,39.0506],[-123.2455,39.0497],[-123.2445,39.0511],[-123.2455,39.0525],[-123.244,39.0559],[-123.2447,39.0574],[-123.2417,39.0592],[-123.2367,39.0601],[-123.2363,39.0614],[-123.2376,39.0623],[-123.2366,39.0667],[-123.2282,39.0626],[-123.2178,39.0694],[-123.217,39.0679],[-123.2183,39.067],[-123.2155,39.0654],[-123.2104,39.066],[-123.2053,39.0635],[-123.2029,39.0651],[-123.2053,39.0596],[-123.2092,39.0565],[-123.2096,39.0537],[-123.2058,39.0515],[-123.2074,39.0512],[-123.2068,39.0499],[-123.2092,39.0463],[-123.2088,39.0432],[-123.2103,39.0427],[-123.2109,39.0409],[-123.2052,39.0419],[-123.2024,39.0414],[-123.2022,39.0402],[-123.198,39.0421],[-123.1951,39.0408],[-123.1901,39.0419],[-123.1863,39.0413],[-123.1873,39.0392],[-123.1843,39.0368],[-123.1823,39.0392],[-123.1791,39.0381],[-123.1663,39.0389],[-123.1624,39.0376],[-123.159,39.04],[-123.1535,39.0406],[-123.1522,39.0437],[-123.1459,39.0465],[-123.1428,39.0457],[-123.1388,39.048],[-123.137,39.0464],[-123.137,39.0486],[-123.1339,39.0472],[-123.1433,39.0596],[-123.1434,39.0632],[-123.1461,39.0668],[-123.1538,39.0735],[-123.1602,39.0756],[-123.1596,39.0797],[-123.1499,39.0796],[-123.1461,39.082],[-123.1367,39.0823],[-123.1343,39.0768],[-123.1277,39.0741],[-123.1207,39.0657],[-123.1169,39.0649],[-123.1037,39.058],[-123.1037,39.0547],[-123.1062,39.0513],[-123.1025,39.046],[-123.0989,39.0462],[-123.0953,39.0492],[-123.0922,39.0498],[-123.091,39.0489],[-123.0857,39.0499],[-123.0779,39.0479],[-123.0686,39.0527],[-123.0652,39.0532],[-123.0651,39.0644],[-123.0838,39.0645],[-123.0837,39.0718],[-123.093,39.072],[-123.0942,39.0953],[-123.085,39.0953],[-123.0852,39.1101],[-123.0876,39.1101],[-123.0875,39.1384],[-123.0781,39.1387],[-123.0778,39.1738],[-123.0458,39.1735],[-123.0454,39.1806],[-123.0409,39.1807],[-123.0402,39.1914],[-123.0453,39.1978],[-123.0511,39.2021],[-123.0602,39.2065],[-123.0664,39.2119],[-123.0785,39.2158],[-123.0947,39.2298],[-123.1076,39.2342],[-123.1154,39.2405],[-123.1286,39.246],[-123.1415,39.2423],[-123.1445,39.2394],[-123.1543,39.2349],[-123.1627,39.2366],[-123.1687,39.2354],[-123.1715,39.2322],[-123.1733,39.2268],[-123.1748,39.2057],[-123.1837,39.2051],[-123.1884,39.2027],[-123.1885,39.2015],[-123.1857,39.1998],[-123.1879,39.1983],[-123.1852,39.1978],[-123.19,39.1938],[-123.1952,39.1934],[-123.2002,39.1896],[-123.2001,39.1841],[-123.2114,39.1857],[-123.2122,39.1801],[-123.2141,39.1817],[-123.222,39.1831],[-123.2303,39.1823],[-123.231,39.1832],[-123.2334,39.1808],[-123.2369,39.1811],[-123.2421,39.1769],[-123.2513,39.1801],[-123.2606,39.1853],[-123.2655,39.1863],[-123.2734,39.1842],[-123.2782,39.185],[-123.2876,39.184],[-123.2946,39.1857],[-123.2999,39.1821],[-123.3008,39.1743],[-123.3024,39.1732],[-123.3085,39.1728],[-123.3078,39.1652],[-123.3143,39.1572],[-123.316,39.1591],[-123.3187,39.1577],[-123.3203,39.1595],[-123.3227,39.1582],[-123.3284,39.1611],[-123.3307,39.1593],[-123.3325,39.1617],[-123.3336,39.1603],[-123.3361,39.1604],[-123.3366,39.1616],[-123.3419,39.1628],[-123.3429,39.1644],[-123.3507,39.1639],[-123.3561,39.165],[-123.3547,39.1652],[-123.36,39.1676],[-123.3625,39.165],[-123.3659,39.1662],[-123.3667,39.1648],[-123.3752,39.1656],[-123.3783,39.1673],[-123.3757,39.1674],[-123.3785,39.1686],[-123.3811,39.1661],[-123.3843,39.1672],[-123.3843,39.1686],[-123.3883,39.1707],[-123.3943,39.1705],[-123.3978,39.172],[-123.4013,39.1706],[-123.4038,39.1725],[-123.4098,39.1739],[-123.4141,39.1772],[-123.4166,39.1738],[-123.4214,39.1754],[-123.4193,39.171],[-123.4227,39.1682],[-123.425,39.1691],[-123.4241,39.1668],[-123.429,39.1582],[-123.4262,39.1599],[-123.426,39.159],[-123.431,39.1549],[-123.4319,39.1512],[-123.4391,39.1496]],[[-123.25505,39.13087],[-123.25505,39.13514],[-123.25504,39.13836],[-123.23215,39.13796],[-123.23249,39.14587],[-123.23702,39.14585],[-123.23714,39.14936],[-123.23266,39.14939],[-123.23327,39.16405],[-123.23037,39.16324],[-123.22834,39.16369],[-123.22831,39.16225],[-123.22489,39.1625],[-123.22701,39.16397],[-123.2271,39.1677],[-123.21215,39.16778],[-123.21138,39.16832],[-123.21122,39.16719],[-123.21209,39.16719],[-123.21073,39.16514],[-123.21082,39.16659],[-123.20985,39.1666],[-123.20942,39.16515],[-123.20556,39.16521],[-123.20594,39.15934],[-123.20367,39.15933],[-123.20361,39.15829],[-123.19893,39.15842],[-123.19896,39.15939],[-123.19791,39.15961],[-123.19799,39.16138],[-123.19502,39.16044],[-123.1923,39.16067],[-123.19333,39.16013],[-123.19253,39.15947],[-123.19777,39.15863],[-123.19651,39.15233],[-123.19114,39.15188],[-123.18849,39.14579],[-123.19224,39.14529],[-123.19152,39.14367],[-123.19287,39.14354],[-123.19322,39.14507],[-123.19589,39.14471],[-123.19535,39.13661],[-123.1925,39.13703],[-123.19116,39.13638],[-123.19222,39.13545],[-123.19209,39.13289],[-123.1958,39.1326],[-123.19507,39.12073],[-123.19579,39.11818],[-123.19636,39.11931],[-123.19799,39.11889],[-123.19721,39.11675],[-123.1985,39.1164],[-123.20172,39.12399],[-123.20442,39.12409],[-123.20431,39.12902],[-123.21328,39.12874],[-123.21348,39.13031],[-123.21483,39.13008],[-123.21461,39.13182],[-123.21719,39.13036],[-123.22336,39.13075],[-123.22339,39.13433],[-123.23652,39.13433],[-123.23647,39.13071],[-123.24107,39.13075],[-123.24124,39.12726],[-123.23203,39.12688],[-123.23213,39.12347],[-123.24571,39.12391],[-123.24567,39.13084],[-123.25505,39.13087]],[[-123.19488,39.1173],[-123.19227,39.11873],[-123.19076,39.1171],[-123.18452,39.11541],[-123.18271,39.11331],[-123.18256,39.11144],[-123.18628,39.10981],[-123.18648,39.10846],[-123.19051,39.10795],[-123.19151,39.11004],[-123.19337,39.1098],[-123.19357,39.11098],[-123.19199,39.11116],[-123.19488,39.1173]],[[-123.18509,39.14619],[-123.18155,39.14657],[-123.18205,39.14563],[-123.18077,39.14138],[-123.18494,39.1424],[-123.1838,39.14445],[-123.18474,39.14436],[-123.18509,39.14619]],[[-123.17432,39.17282],[-123.15251,39.17718],[-123.1523,39.16888],[-123.16679,39.16834],[-123.1687,39.16977],[-123.17411,39.17099],[-123.17432,39.17282]]]},"properties":{"GEOID":"0604593490","NAME":"Ukiah","COUNTY":"045"}}]}