{"type":"FeatureCollection","features":[{"type":"Feature","geometry":{"type":"MultiPolygon","coordinates":[[[[-120.6781,37.3314],[-120.669,37.3313],[-120.6691,37.3024],[-120.5776,37.3023],[-120.5773,37.3316],[-120.57588554126764,37.33413113667896],[-120.57709,37.3343],[-120.57708,37.33509],[-120.58202,37.33623],[-120.58815,37.33986],[-120.59412,37.34208],[-120.59415,37.34075],[-120.59599,37.34121],[-120.59663,37.33929],[-120.59838,37.33959],[-120.59984,37.33705],[-120.59805,37.33584],[-120.60034,37.33185],[-120.60407,37.33331],[-120.60507,37.33178],[-120.60753,37.33266],[-120.60775,37.33911],[-120.61687,37.34236],[-120.61682,37.33853],[-120.61895,37.33852],[-120.62367,37.34563],[-120.62594,37.34567],[-120.62674,37.35212],[-120.62992,37.35337],[-120.62603,37.35493],[-120.62019,37.35498],[-120.62164,37.35908],[-120.61872,37.36041],[-120.62204,37.36043],[-120.6225,37.36406],[-120.62621,37.36404],[-120.62614,37.36986],[-120.61478,37.37025],[-120.61347,37.3668],[-120.61098,37.36546],[-120.61202,37.36404],[-120.60918,37.36405],[-120.60921,37.36585],[-120.60819,37.36648],[-120.6078,37.36857],[-120.60368,37.36849],[-120.60276,37.37037],[-120.60035,37.37022],[-120.60042,37.37215],[-120.60209,37.37248],[-120.6013,37.37494],[-120.59658,37.37462],[-120.59076,37.37125],[-120.57656,37.3713],[-120.57666,37.3629],[-120.56861,37.35711],[-120.56857,37.35408],[-120.57073,37.35569],[-120.57667,37.35367],[-120.57673,37.34967],[-120.56682,37.34971],[-120.56681944736842,37.3495],[-120.5556,37.3495],[-120.5278,37.3321],[-120.5273,37.339],[-120.5225,37.339],[-120.5222,37.3462],[-120.5038,37.3464],[-120.5035,37.361],[-120.48600036410554,37.3610245781403],[-120.486,37.3611],[-120.4777,37.36111],[-120.47751,37.36493],[-120.48144,37.36489],[-120.48142,37.36823],[-120.49063,37.3682],[-120.49022,37.36107],[-120.49152,37.37551],[-120.46834,37.37569],[-120.46858,37.36121],[-120.4327,37.36123],[-120.432221640625,37.363842578125],[-120.4321,37.3681],[-120.4346,37.3685],[-120.4392,37.3739],[-120.4385,37.3757],[-120.4422,37.3788],[-120.446,37.386],[-120.4455,37.3896],[-120.4482,37.3923],[-120.4422,37.3976],[-120.4454,37.4004],[-120.4492,37.4008],[-120.4523,37.4038],[-120.4533,37.4064],[-120.4508,37.4095],[-120.454,37.4143],[-120.4567,37.4148],[-120.4662,37.4065],[-120.4689,37.406],[-120.4698,37.4069],[-120.4698,37.4136],[-120.474,37.4162],[-120.477,37.4156],[-120.4826,37.4184],[-120.488,37.4133],[-120.4898,37.4142],[-120.4932,37.4127],[-120.4953,37.4133],[-120.4955,37.4149],[-120.4988,37.4141],[-120.4938,37.4089],[-120.4973,37.4082],[-120.5027,37.4101],[-120.5047,37.4067],[-120.5056,37.4114],[-120.5119,37.4156],[-120.5136,37.42],[-120.5072,37.4281],[-120.5052,37.4459],[-120.4976,37.4532],[-120.4939,37.4611],[-120.4944,37.4635],[-120.5006,37.4704],[-120.5077,37.4679],[-120.5144,37.4697],[-120.5253,37.466],[-120.5285,37.4673],[-120.529,37.4707],[-120.5316,37.4718],[-120.5389,37.4685],[-120.5408,37.4708],[-120.543,37.4698],[-120.5461,37.4712],[-120.5478,37.4695],[-120.5478,37.465],[-120.5498,37.4632],[-120.5538,37.4649],[-120.5523,37.4707],[-120.5544,37.473],[-120.5607,37.473],[-120.5636,37.4697],[-120.5686,37.4717],[-120.5749,37.4708],[-120.58,37.4673],[-120.5836,37.4694],[-120.5878,37.4688],[-120.5936,37.4709],[-120.6005,37.466],[-120.5978,37.4605],[-120.6007,37.4587],[-120.6063,37.4605],[-120.6081,37.4599],[-120.608,37.4552],[-120.6123,37.4516],[-120.6168,37.4525],[-120.6206,37.4517],[-120.6223,37.4485],[-120.6301,37.4471],[-120.6318,37.4426],[-120.6365,37.441],[-120.6396,37.4446],[-120.6438,37.4447],[-120.6442,37.4388],[-120.6467,37.4374],[-120.649,37.4382],[-120.6542,37.4336],[-120.6552,37.4293],[-120.6584,37.4261],[-120.666,37.4246],[-120.6738,37.427],[-120.6716,37.4223],[-120.6677,37.4194],[-120.6684,37.3677],[-120.6774,37.3704],[-120.6781,37.3314]]],[[[-120.60101,37.34725],[-120.59903,37.34616],[-120.59801,37.34818],[-120.59976,37.34916],[-120.60101,37.34725]]],[[[-120.58538,37.34133],[-120.58243,37.3393],[-120.58018,37.3391],[-120.57923,37.34754],[-120.58508,37.34818],[-120.58538,37.34133]]]]},"properties":{"GEOID":"0604790150","NAME":"Atwater","COUNTY":"047"}},{"type":"Feature","geometry":{"type":"Polygon","coordinates":[[[-121.2225,37.1384],[-121.219,37.1399],[-121.2172,37.1383],[-121.2122,37.1392],[-121.2122,37.1383],[-121.2109,37.1389],[-121.2114,37.1403],[-121.2098,37.1425],[-121.2045,37.1445],[-121.2014,37.1473],[-121.1907,37.1481],[-121.1882,37.1501],[-121.1859,37.1493],[-121.18,37.1521],[-121.1766,37.1522],[-121.1729,37.1508],[-121.169,37.1512],[-121.166,37.1478],[-121.164,37.1485],[-121.1636,37.1462],[-121.1536,37.1397],[-121.1492,37.1344],[-121.1424,37.1296],[-121.1333,37.1274],[-121.1266,37.1282],[-121.1181,37.1241],[-121.1103,37.1243],[-121.0991,37.1284],[-121.0929,37.1278],[-121.0886,37.1251],[-121.071,37.1215],[-121.0548,37.1209],[-121.0531,37.1196],[-121.0521,37.1163],[-121.0498,37.1153],[-121.0156,37.1152],[-121.0153,37.1225],[-120.9458,37.122],[-120.9398,37.1092],[-120.9297,37.1001],[-120.8348,37.0997],[-120.8344,37.1345],[-120.8134,37.159],[-120.8077,37.1608],[-120.8066,37.1633],[-120.7946,37.1662],[-120.7888,37.1624],[-120.7889,37.1563],[-120.7824,37.1532],[-120.7745,37.153],[-120.7704,37.1555],[-120.7607,37.1553],[-120.7575,37.1435],[-120.746,37.1292],[-120.7428,37.1312],[-120.7201,37.1339],[-120.7107,37.131],[-120.7072,37.1285],[-120.707,37.1447],[-120.7084,37.1463],[-120.7079,37.1494],[-120.7089,37.1506],[-120.7164,37.1523],[-120.7218,37.1499],[-120.7267,37.155],[-120.7355,37.155],[-120.7378,37.153],[-120.739,37.1552],[-120.743,37.1541],[-120.7438,37.1555],[-120.7413,37.1584],[-120.7432,37.1589],[-120.7458,37.1568],[-120.7475,37.157],[-120.7478,37.1617],[-120.7491,37.1625],[-120.754,37.1593],[-120.7558,37.1597],[-120.7569,37.1632],[-120.7497,37.166],[-120.7584,37.1707],[-120.7599,37.1729],[-120.7575,37.1752],[-120.76,37.1756],[-120.7577,37.1772],[-120.7607,37.1783],[-120.7629,37.1772],[-120.763,37.1804],[-120.7661,37.1828],[-120.7654,37.1847],[-120.7666,37.1863],[-120.7642,37.1877],[-120.7639,37.1924],[-120.761,37.1944],[-120.7681,37.199],[-120.7664,37.2002],[-120.7672,37.2029],[-120.7637,37.2029],[-120.7629,37.2064],[-120.7657,37.2082],[-120.7673,37.2078],[-120.7675,37.2103],[-120.7707,37.2131],[-120.7739,37.2115],[-120.7746,37.2094],[-120.7734,37.2077],[-120.7758,37.2067],[-120.7759,37.2126],[-120.7747,37.2147],[-120.7769,37.2152],[-120.7821,37.2136],[-120.7823,37.2211],[-120.7843,37.2232],[-120.7952,37.2219],[-120.7989,37.2229],[-120.8003,37.2259],[-120.8044,37.226],[-120.8057,37.2305],[-120.809,37.229],[-120.8098,37.2311],[-120.8081,37.2348],[-120.8128,37.2369],[-120.8157,37.2359],[-120.8175,37.2408],[-120.8197,37.2424],[-120.8189,37.2451],[-120.8201,37.2474],[-120.8166,37.2521],[-120.8206,37.2531],[-120.8217,37.255],[-120.8244,37.2547],[-120.8253,37.257],[-120.8293,37.2583],[-120.8291,37.2609],[-120.8309,37.2626],[-120.8275,37.2669],[-120.8329,37.267],[-120.8314,37.2716],[-120.8298,37.2714],[-120.8292,37.2693],[-120.8267,37.2715],[-120.8272,37.2744],[-120.8321,37.2779],[-120.8279,37.2791],[-120.8271,37.2808],[-120.8312,37.2803],[-120.8382,37.284],[-120.8434,37.2823],[-120.8423,37.285],[-120.844,37.2899],[-120.8402,37.2929],[-120.842,37.2949],[-120.8467,37.294],[-120.8534,37.2955],[-120.8549,37.2929],[-120.8594,37.2928],[-120.8634,37.289],[-120.8662,37.2881],[-120.8663,37.2868],[-120.8708,37.2867],[-120.8718,37.2852],[-120.8756,37.2898],[-120.8764,37.293],[-120.8786,37.294],[-120.8808,37.2976],[-120.8879,37.2961],[-120.8891,37.2975],[-120.8905,37.2954],[-120.8948,37.2949],[-120.897,37.2964],[-120.897,37.2944],[-120.9001,37.2951],[-120.8991,37.2931],[-120.9003,37.292],[-120.9031,37.2928],[-120.9044,37.2919],[-120.9057,37.2949],[-120.911,37.2971],[-120.912,37.2988],[-120.9159,37.295],[-120.9212,37.2958],[-120.9232,37.2974],[-120.9218,37.3001],[-120.9221,37.3025],[-120.9245,37.3047],[-120.9217,37.3045],[-120.9224,37.3072],[-120.9244,37.3055],[-120.9259,37.3058],[-120.9261,37.3077],[-120.9321,37.3121],[-120.9382,37.3108],[-120.9395,37.3116],[-120.938,37.3145],[-120.9387,37.3173],[-120.9342,37.3177],[-120.9356,37.3225],[-120.9375,37.3239],[-120.9452,37.3225],[-120.9424,37.326],[-120.9462,37.3299],[-120.9432,37.3321],[-120.9524,37.3314],[-120.9531,37.3356],[-120.9562,37.3347],[-120.9588,37.3372],[-120.9613,37.3338],[-120.966,37.337],[-120.9693,37.3363],[-120.9718,37.339],[-121.001,37.3169],[-121.0663,37.2629],[-121.0898,37.2453],[-121.2225,37.1384]],[[-121.02051,37.2601],[-121.00806,37.26016],[-121.00793,37.2615],[-120.99963,37.26148],[-120.99913,37.26021],[-120.96946,37.26026],[-120.96622,37.26172],[-120.96181,37.26718],[-120.96192,37.2605],[-120.96376,37.26043],[-120.96373,37.25846],[-120.9608,37.25823],[-120.96084,37.24911],[-120.96304,37.24906],[-120.96314,37.25136],[-120.96738,37.25124],[-120.9672,37.26018],[-120.99443,37.26002],[-120.9944,37.25309],[-120.98518,37.25299],[-120.9851,37.24916],[-120.99439,37.2492],[-120.99433,37.23839],[-121.00349,37.23844],[-121.00345,37.24577],[-121.01282,37.24581],[-121.01254,37.25631],[-121.0163,37.2553],[-121.01693,37.25678],[-121.02051,37.2601]],[[-120.97835,37.2542],[-120.9736,37.25416],[-120.97357,37.25286],[-120.97832,37.25287],[-120.97835,37.2542]]]},"properties":{"GEOID":"0604791210","NAME":"Gustine","COUNTY":"047"}},{"type":"Feature","geometry":{"type":"Polygon","coordinates":[[[-121.2486,37.0337],[-121.246,37.0256],[-121.2333,37.0117],[-121.2382,37.0093],[-121.2363,37.0083],[-121.237,37.0066],[-121.2355,37.0058],[-121.2331,36.9993],[-121.2412,36.9975],[-121.2429,36.9943],[-121.2447,36.9935],[-121.2466,36.987],[-121.2459,36.983],[-121.2374,36.9731],[-121.2321,36.9689],[-121.2248,36.9674],[-121.2197,36.963],[-121.2145,36.9612],[-121.2117,36.9574],[-121.2185,36.9479],[-121.2219,36.9453],[-121.2255,36.9448],[-121.2292,36.941],[-121.2305,36.9359],[-121.2334,36.932],[-121.2343,36.9261],[-121.2302,36.9212],[-121.2242,36.9199],[-121.2234,36.9129],[-121.2217,36.9104],[-121.2171,36.9135],[-121.2072,36.9115],[-121.1983,36.9143],[-121.1927,36.9126],[-121.1888,36.9132],[-121.1843,36.909],[-121.1829,36.9024],[-121.1843,36.8964],[-121.1796,36.8904],[-121.1764,36.8894],[-121.1741,36.8857],[-121.1691,36.885],[-121.1661,36.8798],[-121.1666,36.8755],[-121.1636,36.8692],[-121.1526,36.8654],[-121.1519,36.8589],[-121.15,36.8576],[-121.1455,36.8473],[-121.143,36.8463],[-121.1415,36.8367],[-120.9337,36.7519],[-120.9187,36.7404],[-120.6844,36.93],[-120.6893,36.9326],[-120.7072,36.9343],[-120.7149,36.9384],[-120.7329,36.9392],[-120.7459,36.9418],[-120.7561,36.9399],[-120.7521,36.9462],[-120.7524,36.9506],[-120.7507,36.9584],[-120.7423,36.9634],[-120.7351,36.9651],[-120.7332,36.9673],[-120.7396,36.9744],[-120.7395,36.9798],[-120.7344,36.9788],[-120.727,36.983],[-120.7218,36.9834],[-120.7162,36.9866],[-120.7083,36.9868],[-120.7033,36.9901],[-120.708,36.9925],[-120.7079,37.03],[-120.709,37.0337],[-120.7079,37.036],[-120.708,37.0545],[-120.7056,37.0546],[-120.7079,37.0756],[-120.7072,37.1285],[-120.7107,37.131],[-120.7201,37.1339],[-120.7428,37.1312],[-120.746,37.1292],[-120.7575,37.1435],[-120.7606,37.1552],[-120.7704,37.1555],[-120.7745,37.153],[-120.7824,37.1532],[-120.7889,37.1563],[-120.7888,37.1624],[-120.7947,37.1662],[-120.8066,37.1633],[-120.8077,37.1608],[-120.8133,37.1591],[-120.8341,37.1351],[-120.8348,37.0997],[-120.9297,37.1001],[-120.9398,37.1092],[-120.9458,37.122],[-121.0153,37.1225],[-121.0156,37.1152],[-121.0498,37.1153],[-121.0521,37.1163],[-121.0531,37.1196],[-121.0548,37.1209],[-121.071,37.1215],[-121.0886,37.1251],[-121.0929,37.1278],[-121.0991,37.1284],[-121.1103,37.1243],[-121.1181,37.1241],[-121.1266,37.1282],[-121.1333,37.1274],[-121.1428,37.1298],[-121.1492,37.1344],[-121.1536,37.1397],[-121.1636,37.1462],[-121.164,37.1485],[-121.1664,37.1479],[-121.169,37.1512],[-121.1705,37.1505],[-121.18,37.1521],[-121.1859,37.1494],[-121.1882,37.1501],[-121.1907,37.1481],[-121.2014,37.1473],[-121.2045,37.1445],[-121.2098,37.1425],[-121.2114,37.1403],[-121.2109,37.1389],[-121.2122,37.1383],[-121.2122,37.1392],[-121.2172,37.1383],[-121.2192,37.1399],[-121.2268,37.1348],[-121.2229,37.1313],[-121.2233,37.1291],[-121.2218,37.1259],[-121.2173,37.123],[-121.2213,37.1164],[-121.2238,37.1151],[-121.2263,37.1097],[-121.2255,37.1068],[-121.2305,37.1048],[-121.2304,37.0969],[-121.2384,37.0934],[-121.2426,37.0931],[-121.2455,37.0891],[-121.242,37.0851],[-121.2355,37.0862],[-121.2246,37.0789],[-121.2224,37.0734],[-121.2158,37.0692],[-121.2096,37.0682],[-121.2103,37.066],[-121.2082,37.0617],[-121.209,37.0587],[-121.2126,37.0551],[-121.2187,37.0571],[-121.2234,37.0575],[-121.2245,37.0562],[-121.2232,37.0552],[-121.2258,37.0521],[-121.2245,37.0397],[-121.2361,37.0369],[-121.2406,37.0318],[-121.2486,37.0337]],[[-120.89252,37.05186],[-120.89035,37.05689],[-120.87838,37.05683],[-120.87772,37.06199],[-120.87427,37.06196],[-120.87537,37.06449],[-120.87424,37.06972],[-120.87142,37.06968],[-120.87146,37.06806],[-120.87049,37.06683],[-120.86564,37.06682],[-120.86549,37.07044],[-120.86708,37.07115],[-120.8645,37.07157],[-120.86448,37.07369],[-120.85586,37.07371],[-120.85585,37.07663],[-120.85356,37.07668],[-120.85327,37.08433],[-120.83976,37.08432],[-120.83976,37.08524],[-120.83491,37.08483],[-120.83488,37.08994],[-120.82335,37.09009],[-120.82409,37.08504],[-120.79665,37.08498],[-120.79654,37.0725],[-120.80342,37.07249],[-120.81523,37.08462],[-120.82403,37.08469],[-120.80486,37.06062],[-120.79169,37.06009],[-120.78799,37.05625],[-120.78797,37.05557],[-120.80433,37.05585],[-120.8114,37.04621],[-120.82634,37.05331],[-120.82612,37.04209],[-120.83573,37.04223],[-120.8354,37.05489],[-120.83967,37.05515],[-120.83949,37.04554],[-120.83784,37.04549],[-120.83787,37.04237],[-120.84865,37.04235],[-120.84866,37.04371],[-120.85379,37.0437],[-120.85415,37.0519],[-120.85713,37.05225],[-120.85716,37.05042],[-120.85896,37.05014],[-120.859,37.04948],[-120.86515,37.04941],[-120.86518,37.04598],[-120.87208,37.04587],[-120.87216,37.0422],[-120.89032,37.04212],[-120.89069,37.04707],[-120.89252,37.05186]]]},"properties":{"GEOID":"0604791760","NAME":"Los Banos","COUNTY":"047"}},{"type":"Feature","geometry":{"type":"Polygon","coordinates":[[[-120.8331,37.3177],[-120.833,37.313],[-120.8089,37.3134],[-120.7983,37.3099],[-120.7855,37.3092],[-120.7787,37.3063],[-120.7558,37.3013],[-120.706,37.2988],[-120.6594,37.3018],[-120.6693,37.3024],[-120.669,37.3313],[-120.6781,37.3313],[-120.6774,37.3704],[-120.6684,37.3677],[-120.6677,37.4194],[-120.6716,37.4223],[-120.6738,37.427],[-120.666,37.4246],[-120.6584,37.4261],[-120.6552,37.4293],[-120.6542,37.4336],[-120.649,37.4382],[-120.6467,37.4374],[-120.6442,37.4388],[-120.6438,37.4447],[-120.6396,37.4446],[-120.6361,37.4411],[-120.6318,37.4426],[-120.6293,37.4476],[-120.6223,37.4485],[-120.6206,37.4517],[-120.6182,37.4524],[-120.6123,37.4516],[-120.6086,37.4546],[-120.6147,37.4602],[-120.6208,37.4618],[-120.6451,37.4774],[-120.6816,37.5186],[-120.8229,37.4635],[-120.8125,37.4594],[-120.8139,37.3866],[-120.8114,37.3894],[-120.8075,37.3887],[-120.8059,37.3899],[-120.8054,37.3884],[-120.8084,37.3834],[-120.8118,37.3845],[-120.814,37.3824],[-120.8144,37.3419],[-120.8327,37.342],[-120.8331,37.3177]],[[-120.75958,37.38946],[-120.75949,37.39346],[-120.75733,37.3932],[-120.75534,37.39475],[-120.75271,37.39547],[-120.75269,37.39332],[-120.75468,37.39273],[-120.75476,37.38574],[-120.75531,37.38576],[-120.7552,37.38928],[-120.75958,37.38946]],[[-120.74159,37.37869],[-120.74138,37.3898],[-120.73978,37.39086],[-120.74133,37.39262],[-120.73969,37.39456],[-120.7373,37.39161],[-120.73522,37.3926],[-120.74082,37.3979],[-120.74092,37.39983],[-120.73858,37.40026],[-120.73685,37.40244],[-120.7349,37.40312],[-120.73352,37.40518],[-120.7304,37.40639],[-120.72972,37.40782],[-120.72634,37.40744],[-120.72308,37.40432],[-120.72305,37.39676],[-120.70933,37.39681],[-120.70927,37.38955],[-120.70492,37.38955],[-120.70488,37.39299],[-120.7004,37.39297],[-120.70047,37.38405],[-120.70507,37.38407],[-120.70519,37.38073],[-120.70967,37.38237],[-120.71416,37.38219],[-120.71424,37.37852],[-120.7052,37.37823],[-120.70527,37.37501],[-120.71432,37.37503],[-120.7144,37.37137],[-120.72996,37.37134],[-120.72997,37.37375],[-120.72896,37.37385],[-120.72901,37.37493],[-120.73944,37.37495],[-120.73942,37.3785],[-120.74159,37.37869]]]},"properties":{"GEOID":"0604791670","NAME":"Livingston-Delhi","COUNTY":"047"}},{"type":"Feature","geometry":{"type":"Polygon","coordinates":[[[-120.4495,37.4011],[-120.4454,37.4004],[-120.4422,37.3976],[-120.4483,37.3919],[-120.4455,37.3896],[-120.4462,37.3864],[-120.4422,37.3788],[-120.4385,37.3757],[-120.4392,37.3739],[-120.4346,37.3685],[-120.4276,37.368],[-120.42622841537786,37.36657355199298],[-120.41264,37.37648],[-120.40713,37.37647],[-120.40714,37.36419],[-120.40492,37.36123],[-120.40475,37.35745],[-120.39939,37.35553],[-120.39742,37.3567],[-120.39589,37.3564],[-120.39629,37.34669],[-120.4042,37.34671179663819],[-120.4042,37.345],[-120.4063,37.3424],[-120.4061,37.3405],[-120.4027,37.3388],[-120.3966,37.339],[-120.3953,37.3321],[-120.3783,37.3321],[-120.3793,37.2353],[-120.378,37.2323],[-120.3724,37.2277],[-120.3752,37.2256],[-120.3629,37.2125],[-120.3225,37.1815],[-120.2905,37.1524],[-120.2814,37.153],[-120.2763,37.1517],[-120.2499,37.1578],[-120.2439,37.157],[-120.2359,37.1587],[-120.2273,37.1634],[-120.223,37.164],[-120.2195,37.1622],[-120.2137,37.1643],[-120.2087,37.1645],[-120.2021,37.1627],[-120.1948,37.1632],[-120.1876,37.1603],[-120.1855,37.1617],[-120.1765,37.1623],[-120.1741,37.1659],[-120.1702,37.166],[-120.1646,37.1627],[-120.153,37.166],[-120.1465,37.1639],[-120.1426,37.1641],[-120.1328,37.1674],[-120.1151,37.1657],[-120.1145,37.1667],[-120.1033,37.1677],[-120.0996,37.1709],[-120.0947,37.1726],[-120.0852,37.1734],[-120.0713,37.1776],[-120.0647,37.1778],[-120.0521,37.1831],[-120.0574,37.188],[-120.0622,37.198],[-120.0676,37.2005],[-120.0844,37.2174],[-120.0901,37.2215],[-120.1056,37.225],[-120.1438,37.2392],[-120.1715,37.2567],[-120.1785,37.2624],[-120.1838,37.2705],[-120.1866,37.2803],[-120.1827,37.2914],[-120.1877,37.3011],[-120.2035,37.3133],[-120.2165,37.3373],[-120.2256,37.3498],[-120.2283,37.3517],[-120.2314,37.3582],[-120.2428,37.3725],[-120.247,37.3802],[-120.2547,37.3854],[-120.2681,37.4038],[-120.2758,37.4188],[-120.2797,37.4203],[-120.2834,37.4244],[-120.2844,37.4317],[-120.2813,37.435],[-120.278,37.4365],[-120.2751,37.4407],[-120.275,37.4436],[-120.2781,37.4492],[-120.2796,37.4579],[-120.284,37.4629],[-120.296,37.4615],[-120.3116,37.4556],[-120.3245,37.447],[-120.3702,37.4223],[-120.3789,37.4214],[-120.4173,37.4125],[-120.4495,37.4011]]]},"properties":{"GEOID":"0604792500","NAME":"Planada-Le Grand","COUNTY":"047"}},{"type":"Feature","geometry":{"type":"Polygon","coordinates":[[[-120.7561,36.94],[-120.7459,36.9418],[-120.7329,36.9392],[-120.7149,36.9384],[-120.7072,36.9343],[-120.6893,36.9326],[-120.6844,36.93],[-120.656,36.9528],[-120.5906,36.9526],[-120.5905,36.9816],[-120.5881,36.9816],[-120.5881,36.9853],[-120.586,36.9853],[-120.5864,36.9887],[-120.5852,36.9906],[-120.588,36.9927],[-120.5912,36.9928],[-120.5936,36.9979],[-120.5986,36.9986],[-120.5417,37.0445],[-120.543,37.0461],[-120.5406,37.0473],[-120.5408,37.0491],[-120.5448,37.0504],[-120.5478,37.0549],[-120.5532,37.0585],[-120.5539,37.0614],[-120.5567,37.0628],[-120.5565,37.067],[-120.5544,37.0679],[-120.5557,37.0736],[-120.5583,37.0754],[-120.5634,37.0764],[-120.5633,37.0807],[-120.5666,37.0815],[-120.568,37.0847],[-120.5702,37.0861],[-120.5677,37.0889],[-120.573,37.0908],[-120.573,37.0936],[-120.5772,37.0954],[-120.5779,37.0993],[-120.5883,37.1064],[-120.5889,37.1092],[-120.5907,37.1106],[-120.5895,37.1118],[-120.5902,37.1129],[-120.5954,37.1124],[-120.5961,37.1146],[-120.5993,37.1149],[-120.6014,37.1138],[-120.609,37.1141],[-120.6097,37.117],[-120.6137,37.1167],[-120.6161,37.1198],[-120.6227,37.1192],[-120.6216,37.1214],[-120.6223,37.122],[-120.6255,37.1206],[-120.6267,37.1168],[-120.6299,37.1211],[-120.6302,37.1188],[-120.6319,37.1177],[-120.6376,37.1199],[-120.641,37.1184],[-120.642,37.1213],[-120.6402,37.1253],[-120.643,37.1269],[-120.6417,37.1292],[-120.6441,37.1306],[-120.6435,37.1327],[-120.6472,37.1377],[-120.6474,37.1401],[-120.6502,37.1407],[-120.652,37.1433],[-120.6567,37.1443],[-120.6604,37.1481],[-120.6665,37.1464],[-120.6707,37.1506],[-120.6748,37.1506],[-120.6784,37.1537],[-120.6812,37.1537],[-120.6822,37.151],[-120.6853,37.1505],[-120.6853,37.1478],[-120.6825,37.1452],[-120.6852,37.1432],[-120.6876,37.1444],[-120.6895,37.1493],[-120.6954,37.1487],[-120.6976,37.1502],[-120.7053,37.1441],[-120.707,37.1444],[-120.7079,37.0756],[-120.7056,37.0546],[-120.708,37.0545],[-120.7079,37.036],[-120.7091,37.0328],[-120.7079,37.03],[-120.708,36.9925],[-120.7033,36.9901],[-120.7083,36.9868],[-120.7162,36.9866],[-120.7218,36.9834],[-120.727,36.983],[-120.7344,36.9788],[-120.7395,36.9798],[-120.7396,36.9744],[-120.7332,36.9673],[-120.7351,36.9651],[-120.7423,36.9634],[-120.7507,36.9584],[-120.7524,36.9506],[-120.7521,36.9462],[-120.7561,36.94]],[[-120.66302,36.98691],[-120.65416,36.98685],[-120.65416,36.98399],[-120.64889,36.98395],[-120.64891,36.98202],[-120.64471,36.98188],[-120.64469,36.98914],[-120.64085,36.98911],[-120.64088,36.99072],[-120.63111,36.99085],[-120.63113,36.99632],[-120.62731,36.99629],[-120.62728,36.99194],[-120.6222,36.99198],[-120.62223,36.98991],[-120.61759,36.98993],[-120.61759,36.98734],[-120.6216,36.98736],[-120.61759,36.98693],[-120.61754,36.98356],[-120.62226,36.97984],[-120.6265,36.97982],[-120.62649,36.97826],[-120.63093,36.97826],[-120.63095,36.97462],[-120.63467,36.97462],[-120.63467,36.97575],[-120.63545,36.97573],[-120.63543,36.97821],[-120.63317,36.97821],[-120.63297,36.97953],[-120.63297,36.98032],[-120.63451,36.98037],[-120.63455,36.98174],[-120.65759,36.98185],[-120.66302,36.98691]]]},"properties":{"GEOID":"0604790720","NAME":"Dos Palos","COUNTY":"047"}},{"type":"Feature","geometry":{"type":"Polygon","coordinates":[[[-120.9945,37.3866],[-120.9936,37.3842],[-120.9885,37.3866],[-120.9825,37.3862],[-120.982,37.3851],[-120.9856,37.3784],[-120.984,37.3749],[-120.9779,37.3777],[-120.9731,37.3761],[-120.9734,37.3742],[-120.9771,37.3741],[-120.9789,37.372],[-120.9784,37.3702],[-120.9743,37.3698],[-120.9742,37.3686],[-120.981,37.3669],[-120.9818,37.3656],[-120.9781,37.3617],[-120.979,37.3575],[-120.9771,37.3549],[-120.9765,37.3496],[-120.9706,37.3489],[-120.9684,37.346],[-120.9638,37.3461],[-120.9734,37.3381],[-120.9712,37.3388],[-120.9685,37.3361],[-120.966,37.337],[-120.9613,37.3338],[-120.9588,37.3372],[-120.9562,37.3347],[-120.9531,37.3356],[-120.9524,37.3314],[-120.9434,37.3323],[-120.9436,37.3309],[-120.9462,37.3299],[-120.9424,37.326],[-120.9452,37.3225],[-120.9375,37.3239],[-120.9356,37.3225],[-120.9342,37.3177],[-120.9387,37.3173],[-120.938,37.3145],[-120.9395,37.3116],[-120.9382,37.3108],[-120.9321,37.3121],[-120.9261,37.3077],[-120.9259,37.3058],[-120.9244,37.3055],[-120.9224,37.3072],[-120.9217,37.3045],[-120.9245,37.3047],[-120.9217,37.301],[-120.9226,37.2966],[-120.9159,37.295],[-120.912,37.2988],[-120.911,37.2971],[-120.9057,37.2949],[-120.9044,37.2919],[-120.9031,37.2928],[-120.9003,37.292],[-120.8991,37.2931],[-120.9001,37.2951],[-120.897,37.2944],[-120.897,37.2964],[-120.8948,37.2949],[-120.8905,37.2954],[-120.8891,37.2975],[-120.8879,37.2961],[-120.8808,37.2976],[-120.8786,37.294],[-120.8764,37.293],[-120.8725,37.2855],[-120.8708,37.2867],[-120.8663,37.2868],[-120.8662,37.2881],[-120.8634,37.289],[-120.8594,37.2928],[-120.8549,37.2929],[-120.854,37.2952],[-120.8513,37.2954],[-120.8512,37.3132],[-120.833,37.313],[-120.8327,37.342],[-120.8144,37.3419],[-120.814,37.3824],[-120.8118,37.3845],[-120.8084,37.3834],[-120.8054,37.3884],[-120.8059,37.3899],[-120.8075,37.3887],[-120.8114,37.3894],[-120.8139,37.3866],[-120.8125,37.4594],[-120.8229,37.4635],[-120.8864,37.4402],[-120.934,37.4207],[-120.9406,37.4167],[-120.9838,37.3996],[-120.99,37.3957],[-120.9913,37.3921],[-120.99,37.3897],[-120.9942,37.3887],[-120.9945,37.3866]]]},"properties":{"GEOID":"0604791290","NAME":"Hilmar-Irwin","COUNTY":"047"}},{"type":"Feature","geometry":{"type":"MultiPolygon","coordinates":[[[[-120.8513,37.2954],[-120.8467,37.294],[-120.8423,37.2951],[-120.8403,37.2931],[-120.844,37.2899],[-120.8423,37.285],[-120.8434,37.2823],[-120.8382,37.284],[-120.8312,37.2803],[-120.8271,37.2808],[-120.8279,37.2791],[-120.8321,37.2779],[-120.8272,37.2744],[-120.8267,37.2715],[-120.8292,37.2693],[-120.8298,37.2714],[-120.8314,37.2716],[-120.8329,37.267],[-120.8275,37.2669],[-120.8309,37.2626],[-120.8291,37.2609],[-120.8293,37.2583],[-120.8253,37.257],[-120.8244,37.2547],[-120.8217,37.255],[-120.8206,37.2531],[-120.8166,37.2521],[-120.8201,37.2474],[-120.8189,37.2451],[-120.8197,37.2424],[-120.8175,37.2408],[-120.8157,37.2359],[-120.8128,37.2369],[-120.8081,37.2348],[-120.8098,37.2311],[-120.809,37.229],[-120.8057,37.2305],[-120.8044,37.226],[-120.8003,37.2259],[-120.7989,37.2229],[-120.7952,37.2219],[-120.7843,37.2232],[-120.7823,37.2211],[-120.7821,37.2136],[-120.7769,37.2152],[-120.7747,37.2147],[-120.7759,37.2126],[-120.7758,37.2067],[-120.7734,37.2077],[-120.7746,37.2094],[-120.7739,37.2115],[-120.7707,37.2131],[-120.7675,37.2103],[-120.7673,37.2078],[-120.7631,37.2068],[-120.7629,37.2037],[-120.7672,37.2029],[-120.7664,37.2002],[-120.7681,37.199],[-120.761,37.1944],[-120.7639,37.1924],[-120.764,37.188],[-120.7666,37.1863],[-120.7654,37.1847],[-120.7662,37.1833],[-120.763,37.1804],[-120.7629,37.1772],[-120.7607,37.1783],[-120.7577,37.1772],[-120.76,37.1756],[-120.7575,37.1752],[-120.7599,37.1729],[-120.7584,37.1707],[-120.7497,37.166],[-120.7569,37.1632],[-120.7553,37.1591],[-120.7491,37.1625],[-120.7478,37.1617],[-120.7475,37.157],[-120.7458,37.1568],[-120.7432,37.1589],[-120.7413,37.1584],[-120.7438,37.1555],[-120.743,37.1541],[-120.739,37.1552],[-120.7378,37.153],[-120.7355,37.155],[-120.7267,37.155],[-120.7218,37.1499],[-120.7164,37.1523],[-120.7089,37.1506],[-120.7079,37.1494],[-120.7082,37.146],[-120.7058,37.144],[-120.6974,37.1503],[-120.6954,37.1487],[-120.6895,37.1493],[-120.6876,37.1444],[-120.6846,37.1433],[-120.6825,37.1452],[-120.6853,37.1478],[-120.6852,37.1508],[-120.6824,37.1509],[-120.6812,37.1537],[-120.6784,37.1537],[-120.6748,37.1506],[-120.6707,37.1506],[-120.6665,37.1464],[-120.6604,37.1481],[-120.6567,37.1443],[-120.652,37.1433],[-120.6502,37.1407],[-120.6474,37.1401],[-120.6472,37.1377],[-120.6435,37.1327],[-120.6441,37.1306],[-120.6417,37.1292],[-120.643,37.1269],[-120.6402,37.1253],[-120.642,37.1213],[-120.641,37.1184],[-120.6376,37.1199],[-120.6319,37.1177],[-120.6302,37.1188],[-120.6299,37.1211],[-120.6267,37.1168],[-120.6255,37.1206],[-120.6223,37.122],[-120.6216,37.1214],[-120.6227,37.1192],[-120.6161,37.1198],[-120.6137,37.1167],[-120.6097,37.117],[-120.609,37.1141],[-120.6014,37.1138],[-120.5993,37.1149],[-120.5961,37.1146],[-120.5954,37.1124],[-120.5902,37.1129],[-120.5895,37.1118],[-120.5907,37.1106],[-120.5889,37.1092],[-120.5883,37.1064],[-120.5779,37.0993],[-120.5772,37.0954],[-120.573,37.0936],[-120.573,37.0908],[-120.5677,37.0889],[-120.5702,37.0861],[-120.568,37.0847],[-120.5666,37.0815],[-120.5633,37.0807],[-120.5634,37.0764],[-120.5583,37.0754],[-120.5557,37.0736],[-120.5544,37.0679],[-120.5565,37.067],[-120.5567,37.0628],[-120.5539,37.0614],[-120.5532,37.0585],[-120.5478,37.0549],[-120.5448,37.0504],[-120.5413,37.0499],[-120.5406,37.0473],[-120.543,37.0457],[-120.5417,37.0445],[-120.4767,37.0964],[-120.4725,37.0941],[-120.4698,37.0943],[-120.4655,37.0978],[-120.4561,37.1003],[-120.4529,37.0989],[-120.4442,37.1031],[-120.4278,37.1063],[-120.4214,37.1097],[-120.417,37.1082],[-120.4148,37.1109],[-120.4068,37.1109],[-120.4028,37.1167],[-120.3954,37.1191],[-120.3936,37.1213],[-120.3888,37.121],[-120.3849,37.1246],[-120.379,37.1243],[-120.3722,37.1211],[-120.3635,37.1197],[-120.3584,37.1206],[-120.3575,37.1225],[-120.3541,37.1234],[-120.3497,37.1226],[-120.3487,37.1237],[-120.3412,37.1246],[-120.3399,37.1263],[-120.3283,37.1311],[-120.3286,37.1339],[-120.3245,37.1364],[-120.316,37.1378],[-120.3109,37.1411],[-120.3038,37.1411],[-120.298,37.1479],[-120.2905,37.1524],[-120.3225,37.1815],[-120.3629,37.2125],[-120.3752,37.2256],[-120.3724,37.2277],[-120.378,37.2323],[-120.3793,37.2353],[-120.3783,37.3321],[-120.3953,37.3321],[-120.3966,37.339],[-120.4027,37.3388],[-120.4061,37.3405],[-120.4063,37.3424],[-120.4042,37.345],[-120.4042,37.34671179663819],[-120.43258,37.34679],[-120.43227,37.36103],[-120.46859,37.36098],[-120.46871,37.35374],[-120.45994,37.35375],[-120.45982,37.34668],[-120.45048,37.34668],[-120.45092,37.33186],[-120.43296,37.33192],[-120.43302,37.32543],[-120.43446,37.32526],[-120.43503,37.32425],[-120.43859,37.32493],[-120.43966,37.32363],[-120.43991,37.31847],[-120.4444,37.31846],[-120.44444,37.31535],[-120.44664,37.31537],[-120.44628,37.31377],[-120.44444,37.31343],[-120.44444,37.31166],[-120.44671,37.31167],[-120.44666,37.3137],[-120.44855,37.31411],[-120.44854,37.31264],[-120.45131,37.31264],[-120.4514,37.31001],[-120.45248,37.31001],[-120.45353,37.31086],[-120.45327,37.31406],[-120.4575,37.31412],[-120.4575,37.31574],[-120.46346,37.31527],[-120.4603,37.31395],[-120.46033,37.31219],[-120.46227,37.3119],[-120.46226,37.30819],[-120.45582,37.30663],[-120.45462,37.30823],[-120.45346,37.30819],[-120.45186,37.30946],[-120.44962,37.30912],[-120.44884,37.30794],[-120.4449,37.30759],[-120.44502,37.30301],[-120.44686,37.303],[-120.44685,37.30209],[-120.45064,37.30105],[-120.45605,37.30054],[-120.45613,37.29989],[-120.45306,37.29877],[-120.45484,37.29554],[-120.45034,37.29491],[-120.4494,37.29577],[-120.44938,37.29742],[-120.44266,37.29512],[-120.39943,37.29543],[-120.39952,37.29013],[-120.40634,37.28992],[-120.4064,37.2734],[-120.43348,37.27321],[-120.43443,37.27548],[-120.43728,37.27765],[-120.43804,37.27713],[-120.43824,37.27516],[-120.44347,37.27778],[-120.44351,37.27656],[-120.45867,37.28881],[-120.46746,37.29358],[-120.46753,37.28793],[-120.481,37.28814],[-120.48109,37.28449],[-120.47438,37.28436],[-120.47438,37.28258],[-120.47644,37.28277],[-120.47607,37.28079],[-120.47433,37.28075],[-120.47434,37.27705],[-120.46978,37.27693],[-120.46979,37.27325],[-120.48782,37.27362],[-120.48775,37.27697],[-120.48554,37.27697],[-120.48548,37.28108],[-120.48341,37.28111],[-120.48334,37.28721],[-120.48257,37.28721],[-120.48261,37.28816],[-120.48741,37.28823],[-120.48754,37.28684],[-120.48932,37.28685],[-120.48951,37.28096],[-120.48766,37.28099],[-120.48768,37.28019],[-120.48941,37.28021],[-120.48929,37.27686],[-120.49673,37.27693],[-120.49701,37.2882],[-120.50023,37.28819],[-120.50016,37.28444],[-120.50211,37.28445],[-120.50214,37.28325],[-120.50392,37.2833],[-120.5039,37.28433],[-120.50588,37.28437],[-120.50591,37.28081],[-120.50201,37.28084],[-120.50203,37.27891],[-120.49923,37.27895],[-120.49927,37.27399],[-120.50322,37.27382],[-120.50431,37.27551],[-120.50601,37.27552],[-120.50602,37.2746],[-120.51288,37.28072],[-120.52362,37.2808],[-120.52374,37.27309],[-120.528,37.2729],[-120.52852,37.25547],[-120.5239,37.25548],[-120.52403,37.24401],[-120.51098,37.24398],[-120.51119,37.2362],[-120.521,37.23567],[-120.52101,37.23031],[-120.52194,37.22983],[-120.52134,37.22802],[-120.52277,37.22502],[-120.52403,37.2242],[-120.52378,37.22264],[-120.52506,37.2218],[-120.52502,37.22862],[-120.54335,37.22862],[-120.5425,37.23405],[-120.54293,37.24389],[-120.53882,37.24684],[-120.53653,37.25225],[-120.531,37.25293],[-120.53056,37.25544],[-120.52889,37.25542],[-120.52869,37.27332],[-120.52405,37.27333],[-120.52348,37.29156],[-120.52768,37.29163],[-120.52777,37.2953],[-120.52332,37.29549],[-120.52318,37.29913],[-120.51403,37.2991],[-120.51399,37.3074],[-120.51004,37.30788],[-120.51226,37.31029],[-120.51011,37.30951],[-120.50904,37.31147],[-120.51225,37.31141],[-120.51555,37.31325],[-120.52118,37.31405],[-120.52276,37.31462],[-120.52274,37.3158],[-120.5197,37.31773],[-120.51329,37.3187],[-120.51033,37.32075],[-120.50487,37.32062],[-120.50454,37.33173],[-120.49895,37.33187],[-120.49896,37.33459],[-120.50445,37.33459],[-120.50431,37.33919],[-120.49916,37.33959],[-120.4991,37.34316],[-120.49691,37.34341],[-120.49878,37.34341],[-120.49903,37.34648],[-120.48607,37.3466],[-120.48600036410554,37.3610245781403],[-120.5035,37.361],[-120.5038,37.3464],[-120.5222,37.3462],[-120.5225,37.339],[-120.5273,37.339],[-120.5278,37.3321],[-120.5556,37.3495],[-120.56681944736842,37.3495],[-120.56681,37.34591],[-120.57009,37.34583],[-120.57023,37.33859],[-120.55878,37.3387],[-120.55894,37.32858],[-120.56293,37.3295],[-120.56547,37.33271],[-120.5672,37.33344],[-120.56693,37.33397],[-120.56903,37.33317],[-120.57588554126764,37.33413113667896],[-120.5773,37.3316],[-120.5776,37.3023],[-120.6482,37.3025],[-120.7076,37.2989],[-120.756,37.3013],[-120.7787,37.3063],[-120.7855,37.3092],[-120.7983,37.3099],[-120.8089,37.3134],[-120.8512,37.3132],[-120.8513,37.2974],[-120.8513,37.2954]]],[[[-120.49343,37.31577],[-120.49338,37.315],[-120.48924,37.31427],[-120.48935,37.31734],[-120.49056,37.31734],[-120.49048,37.31631],[-120.49343,37.31577]]],[[[-120.44846,37.32003],[-120.44193,37.3202],[-120.44179,37.32352],[-120.44289,37.32287],[-120.44291,37.32436],[-120.4442,37.32416],[-120.4447,37.32018],[-120.44472,37.32359],[-120.4482,37.32432],[-120.44846,37.32003]]],[[[-120.4478,37.28782],[-120.43355,37.2878],[-120.4335,37.29488],[-120.44485,37.29486],[-120.44486,37.29014],[-120.4471,37.29013],[-120.4478,37.28782]]],[[[-120.432221640625,37.363842578125],[-120.43218,37.36407],[-120.42862,37.36483],[-120.42674568413837,37.366196444292115],[-120.4276,37.368],[-120.4321,37.3681],[-120.432221640625,37.363842578125]]]]},"properties":{"GEOID":"0604791960","NAME":"Merced","COUNTY":"047"}},{"type":"Feature","geometry":{"type":"Polygon","coordinates":[[[-120.6816,37.5186],[-120.6451,37.4774],[-120.6208,37.4618],[-120.6147,37.4602],[-120.6086,37.4546],[-120.6081,37.4599],[-120.6063,37.4605],[-120.6007,37.4587],[-120.5978,37.4605],[-120.6005,37.466],[-120.5936,37.4709],[-120.5878,37.4688],[-120.5836,37.4694],[-120.58,37.4673],[-120.5749,37.4708],[-120.5686,37.4717],[-120.5636,37.4697],[-120.5607,37.473],[-120.5544,37.473],[-120.5523,37.4707],[-120.5538,37.4649],[-120.5498,37.4632],[-120.5478,37.465],[-120.5478,37.4695],[-120.5461,37.4712],[-120.543,37.4698],[-120.5408,37.4708],[-120.5389,37.4685],[-120.5316,37.4718],[-120.529,37.4707],[-120.5285,37.4673],[-120.5253,37.466],[-120.5144,37.4697],[-120.5077,37.4679],[-120.5006,37.4704],[-120.4944,37.4635],[-120.4939,37.461],[-120.4976,37.4532],[-120.5051,37.4461],[-120.5072,37.4281],[-120.5136,37.4198],[-120.5116,37.4153],[-120.5054,37.4112],[-120.5047,37.4067],[-120.5027,37.4101],[-120.4973,37.4082],[-120.4938,37.4089],[-120.4988,37.4141],[-120.4955,37.4149],[-120.4953,37.4133],[-120.4932,37.4127],[-120.4898,37.4142],[-120.488,37.4133],[-120.4826,37.4184],[-120.477,37.4156],[-120.474,37.4162],[-120.4698,37.4136],[-120.4698,37.4069],[-120.4689,37.406],[-120.4662,37.4065],[-120.4582,37.4138],[-120.4553,37.415],[-120.4509,37.41],[-120.4534,37.4057],[-120.4495,37.4011],[-120.4173,37.4125],[-120.3789,37.4214],[-120.3702,37.4223],[-120.3245,37.447],[-120.3116,37.4556],[-120.296,37.4615],[-120.284,37.4629],[-120.2936,37.4781],[-120.3002,37.4843],[-120.2991,37.4888],[-120.3114,37.4971],[-120.3164,37.5053],[-120.3164,37.5141],[-120.3188,37.5208],[-120.3877,37.6334],[-120.6816,37.5186]]]},"properties":{"GEOID":"0604793050","NAME":"Snelling","COUNTY":"047"}}]}