{"type":"FeatureCollection","features":[{"type":"Feature","geometry":{"type":"Polygon","coordinates":[[[-120.2904,41.5177],[-120.28,41.5077],[-120.2798,41.5048],[-120.2705,41.4978],[-120.2679,41.4933],[-120.2625,41.4914],[-120.2575,41.4816],[-120.2507,41.4736],[-120.2477,41.4718],[-120.2414,41.46],[-120.2453,41.4583],[-120.2441,41.4543],[-120.2446,41.4483],[-120.2384,41.4453],[-120.237,41.4394],[-120.2271,41.4337],[-120.2265,41.426],[-120.2245,41.4224],[-120.2256,41.4216],[-120.2231,41.4172],[-120.2254,41.4123],[-120.2237,41.4079],[-120.226,41.4033],[-120.2273,41.3949],[-120.2253,41.3919],[-120.2212,41.39],[-120.2195,41.3845],[-120.2176,41.3842],[-120.2159,41.3808],[-120.2141,41.38],[-120.2152,41.3784],[-120.2143,41.3756],[-120.2153,41.3742],[-120.2155,41.3477],[-120.2125,41.3483],[-120.2087,41.3464],[-120.2068,41.3424],[-120.2073,41.3403],[-120.2133,41.3402],[-120.2197,41.3331],[-120.2181,41.3257],[-120.2227,41.3173],[-120.2217,41.3117],[-120.224,41.3047],[-120.221,41.299],[-120.2171,41.2965],[-120.2231,41.2932],[-120.2254,41.2897],[-120.2252,41.2871],[-120.2209,41.2834],[-120.2232,41.2821],[-120.2227,41.2755],[-120.2201,41.2705],[-120.2199,41.2671],[-120.2159,41.2655],[-120.2096,41.2666],[-120.2071,41.2684],[-120.1884,41.266],[-120.1872,41.2514],[-120.1824,41.238],[-120.1817,41.231],[-120.1772,41.2259],[-120.1746,41.2182],[-120.1748,41.2137],[-120.177,41.2094],[-120.1792,41.2092],[-120.1823,41.2065],[-120.1821,41.2042],[-120.1881,41.2021],[-120.1874,41.1979],[-120.1918,41.1958],[-120.1969,41.1956],[-120.2023,41.1927],[-120.2076,41.1879],[-120.2089,41.1841],[-119.9999,41.184],[-119.9983,41.6188],[-119.9992,41.9949],[-120.1594,41.9946],[-120.165,41.9898],[-120.1694,41.9895],[-120.1717,41.9879],[-120.1778,41.988],[-120.1792,41.9861],[-120.1774,41.9841],[-120.1787,41.9825],[-120.1786,41.9798],[-120.1832,41.979],[-120.1843,41.9767],[-120.1907,41.9726],[-120.1939,41.9681],[-120.2212,41.9503],[-120.2319,41.9458],[-120.2449,41.9442],[-120.252,41.9396],[-120.2553,41.9323],[-120.2569,41.924],[-120.2611,41.917],[-120.2629,41.9079],[-120.2475,41.8851],[-120.2387,41.8767],[-120.2321,41.8657],[-120.2479,41.8544],[-120.2449,41.8509],[-120.2452,41.8497],[-120.2537,41.8504],[-120.2558,41.8469],[-120.2616,41.8455],[-120.2484,41.8352],[-120.2437,41.8345],[-120.2435,41.831],[-120.2363,41.8308],[-120.2342,41.8278],[-120.2333,41.8224],[-120.2303,41.8202],[-120.2231,41.8193],[-120.2178,41.811],[-120.2097,41.8062],[-120.2075,41.8027],[-120.2196,41.7964],[-120.2245,41.7924],[-120.2259,41.7865],[-120.2251,41.7744],[-120.2272,41.7693],[-120.2258,41.7673],[-120.226,41.7626],[-120.2227,41.7574],[-120.2246,41.7535],[-120.2283,41.7525],[-120.233,41.7547],[-120.2338,41.7527],[-120.2372,41.7514],[-120.2395,41.7473],[-120.2393,41.7444],[-120.2471,41.7381],[-120.2442,41.7346],[-120.2471,41.7284],[-120.256,41.7275],[-120.2634,41.7201],[-120.2675,41.7201],[-120.2701,41.718],[-120.2746,41.7182],[-120.274,41.715],[-120.2688,41.7103],[-120.2647,41.7019],[-120.2672,41.6988],[-120.2718,41.697],[-120.2736,41.6948],[-120.2703,41.6898],[-120.2692,41.6829],[-120.2798,41.6787],[-120.2868,41.6809],[-120.2876,41.6779],[-120.2866,41.6742],[-120.2836,41.6712],[-120.2774,41.6683],[-120.2791,41.6674],[-120.2769,41.6661],[-120.2776,41.6617],[-120.2751,41.6624],[-120.2751,41.6582],[-120.2718,41.655],[-120.2741,41.653],[-120.2691,41.6439],[-120.2755,41.6313],[-120.2758,41.6261],[-120.269,41.5986],[-120.2714,41.5896],[-120.2689,41.5848],[-120.2623,41.5821],[-120.2598,41.5737],[-120.2621,41.5673],[-120.2772,41.5558],[-120.2752,41.55],[-120.2772,41.5415],[-120.2798,41.5382],[-120.2798,41.5348],[-120.2861,41.5301],[-120.2828,41.5288],[-120.2814,41.5233],[-120.2831,41.5214],[-120.2886,41.52],[-120.2904,41.5177]]]},"properties":{"GEOID":"0604993270","NAME":"Surprise Valley","COUNTY":"049"}},{"type":"Feature","geometry":{"type":"Polygon","coordinates":[[[-121.4572,41.9499],[-121.4569,41.7763],[-121.449,41.7764],[-121.4489,41.4728],[-121.4256,41.4798],[-121.3881,41.5093],[-121.3761,41.5142],[-121.3576,41.5149],[-121.3484,41.5168],[-121.3444,41.5166],[-121.3398,41.5151],[-121.3382,41.5128],[-121.3335,41.5126],[-121.3271,41.5102],[-121.3212,41.5115],[-121.3139,41.511],[-121.3067,41.5089],[-121.3034,41.5091],[-121.2868,41.5039],[-121.2742,41.502],[-121.2517,41.4925],[-121.2483,41.4896],[-121.237,41.4884],[-121.2337,41.4893],[-121.2321,41.4869],[-121.23,41.4864],[-121.214,41.4883],[-121.1597,41.4757],[-121.1573,41.4893],[-121.1596,41.5142],[-121.1529,41.5271],[-121.1548,41.5372],[-121.1531,41.54],[-121.1605,41.5502],[-121.1898,41.5812],[-121.2802,41.7013],[-121.2811,41.7061],[-121.2769,41.7067],[-121.2746,41.7084],[-121.2751,41.7119],[-121.274,41.7161],[-121.2714,41.7219],[-121.2654,41.7299],[-121.2577,41.7348],[-121.2534,41.7355],[-121.2462,41.7338],[-121.2355,41.7428],[-121.2232,41.7482],[-121.2134,41.7611],[-121.1965,41.7748],[-121.1913,41.7807],[-121.1828,41.7844],[-121.1687,41.7984],[-121.1624,41.7975],[-121.1545,41.7938],[-121.1389,41.8005],[-121.1258,41.8029],[-121.122,41.8054],[-121.1102,41.8198],[-121.1185,41.8243],[-121.1514,41.8303],[-121.1745,41.8401],[-121.1779,41.8437],[-121.1819,41.8544],[-121.1824,41.8707],[-121.2303,41.9056],[-121.2289,41.9063],[-121.2287,41.9103],[-121.2308,41.9165],[-121.2304,41.9188],[-121.223,41.9246],[-121.2246,41.9293],[-121.2295,41.9329],[-121.2305,41.9362],[-121.2283,41.9402],[-121.2253,41.9409],[-121.2348,41.9398],[-121.2407,41.9463],[-121.2412,41.9494],[-121.2424,41.9503],[-121.239,41.9524],[-121.2393,41.956],[-121.2377,41.9603],[-121.2388,41.9796],[-121.2417,41.9829],[-121.242,41.9867],[-121.2459,41.9881],[-121.244,41.9891],[-121.2445,41.9916],[-121.2503,41.9973],[-121.3449,41.9962],[-121.4475,41.9975],[-121.4474,41.9505],[-121.4572,41.9499]]]},"properties":{"GEOID":"0604992105","NAME":"Newell","COUNTY":"049"}},{"type":"Feature","geometry":{"type":"Polygon","coordinates":[[[-121.2812,41.7044],[-121.2796,41.7004],[-121.1891,41.5803],[-121.1605,41.5502],[-121.1531,41.54],[-121.1548,41.5372],[-121.1529,41.5271],[-121.1596,41.5142],[-121.1573,41.4893],[-121.1689,41.4276],[-121.1935,41.3867],[-121.1947,41.3818],[-121.1924,41.3728],[-121.1854,41.3642],[-121.1657,41.3629],[-121.1578,41.3612],[-121.1513,41.3596],[-121.1483,41.356],[-121.1347,41.3522],[-121.1308,41.3551],[-121.1169,41.3594],[-121.1125,41.3634],[-121.0981,41.3661],[-121.0849,41.3703],[-121.0792,41.365],[-121.0741,41.364],[-121.0637,41.3659],[-121.0572,41.3651],[-121.0519,41.3708],[-121.0408,41.3717],[-121.0316,41.3682],[-121.0176,41.3675],[-120.9945,41.3586],[-120.9884,41.3617],[-120.9805,41.3618],[-120.9721,41.3651],[-120.96,41.3668],[-120.9495,41.3612],[-120.9451,41.3568],[-120.9312,41.3515],[-120.9268,41.347],[-120.9112,41.3438],[-120.9083,41.3392],[-120.9062,41.3269],[-120.8898,41.2948],[-120.8899,41.2917],[-120.8876,41.2893],[-120.8888,41.2861],[-120.8871,41.282],[-120.8843,41.2808],[-120.885,41.2772],[-120.881,41.2785],[-120.8759,41.2777],[-120.8708,41.275],[-120.8722,41.2735],[-120.8714,41.273],[-120.8685,41.2758],[-120.8713,41.2767],[-120.872,41.2782],[-120.87,41.2792],[-120.8714,41.2818],[-120.8694,41.2832],[-120.8699,41.2847],[-120.8685,41.2861],[-120.8707,41.2879],[-120.8688,41.2894],[-120.8688,41.2912],[-120.8656,41.2928],[-120.8604,41.2898],[-120.8587,41.293],[-120.8544,41.2913],[-120.8516,41.2941],[-120.8492,41.2945],[-120.8423,41.2886],[-120.8399,41.2913],[-120.8386,41.2884],[-120.8361,41.2872],[-120.8344,41.2828],[-120.8189,41.2751],[-120.8142,41.2746],[-120.8045,41.2688],[-120.7951,41.26],[-120.7848,41.2558],[-120.7815,41.2494],[-120.7741,41.2433],[-120.7728,41.2403],[-120.7729,41.236],[-120.7689,41.231],[-120.7685,41.2288],[-120.7596,41.2205],[-120.7546,41.2216],[-120.7571,41.2197],[-120.7603,41.2204],[-120.7707,41.228],[-120.7808,41.2291],[-120.7839,41.2276],[-120.7882,41.2153],[-120.7928,41.2134],[-120.7934,41.2121],[-120.7893,41.1995],[-120.785,41.1963],[-120.7875,41.1915],[-120.7832,41.1891],[-120.7824,41.184],[-120.2089,41.1841],[-120.2076,41.1879],[-120.2023,41.1927],[-120.1969,41.1956],[-120.1918,41.1958],[-120.1874,41.1979],[-120.1881,41.2021],[-120.1821,41.2042],[-120.1823,41.2064],[-120.1792,41.2092],[-120.177,41.2094],[-120.1749,41.2134],[-120.1747,41.2188],[-120.1772,41.2259],[-120.1816,41.2308],[-120.1824,41.238],[-120.1872,41.2514],[-120.1884,41.266],[-120.2071,41.2684],[-120.2096,41.2666],[-120.2159,41.2655],[-120.2199,41.2671],[-120.2201,41.2705],[-120.2227,41.2755],[-120.2232,41.2821],[-120.2209,41.2834],[-120.2252,41.2871],[-120.2254,41.2897],[-120.2231,41.2932],[-120.2171,41.2965],[-120.221,41.299],[-120.224,41.3047],[-120.2217,41.3117],[-120.2227,41.3173],[-120.2181,41.3257],[-120.2197,41.3331],[-120.2133,41.3402],[-120.2073,41.3403],[-120.2068,41.3424],[-120.2087,41.3464],[-120.2125,41.3483],[-120.2155,41.3477],[-120.2153,41.3742],[-120.2143,41.3756],[-120.2152,41.3784],[-120.2141,41.38],[-120.2159,41.3808],[-120.2176,41.3842],[-120.2195,41.3845],[-120.2212,41.39],[-120.2253,41.3919],[-120.2273,41.3949],[-120.226,41.4033],[-120.2237,41.4079],[-120.2254,41.4123],[-120.2231,41.4172],[-120.2256,41.4216],[-120.2245,41.4224],[-120.2265,41.426],[-120.2271,41.4338],[-120.237,41.4394],[-120.2384,41.4453],[-120.2446,41.4483],[-120.2441,41.4543],[-120.2453,41.4583],[-120.2414,41.46],[-120.2477,41.4718],[-120.2507,41.4736],[-120.2575,41.4816],[-120.2625,41.4914],[-120.2679,41.4933],[-120.2705,41.4978],[-120.2798,41.5048],[-120.28,41.5077],[-120.2904,41.5175],[-120.2886,41.52],[-120.2831,41.5214],[-120.2814,41.5233],[-120.2828,41.5288],[-120.2861,41.5301],[-120.2798,41.5348],[-120.2798,41.5382],[-120.2772,41.5415],[-120.2752,41.55],[-120.2772,41.5558],[-120.2621,41.5673],[-120.2598,41.5737],[-120.2623,41.5821],[-120.2689,41.5848],[-120.2714,41.5896],[-120.269,41.5986],[-120.2758,41.6261],[-120.2755,41.6313],[-120.2691,41.6439],[-120.2741,41.653],[-120.2718,41.655],[-120.2751,41.6582],[-120.2751,41.6624],[-120.2776,41.6617],[-120.2769,41.6661],[-120.2791,41.6674],[-120.2774,41.6683],[-120.2844,41.6718],[-120.2869,41.6746],[-120.2876,41.6779],[-120.2864,41.6812],[-120.2798,41.6787],[-120.2692,41.6829],[-120.2703,41.6898],[-120.2736,41.6948],[-120.2718,41.697],[-120.2672,41.6988],[-120.2647,41.7019],[-120.2688,41.7103],[-120.274,41.715],[-120.2746,41.7182],[-120.2701,41.718],[-120.2675,41.7201],[-120.2634,41.7201],[-120.256,41.7275],[-120.2471,41.7284],[-120.2442,41.7346],[-120.2471,41.7381],[-120.2393,41.7444],[-120.2395,41.7473],[-120.2372,41.7514],[-120.2338,41.7527],[-120.233,41.7547],[-120.2283,41.7525],[-120.2246,41.7535],[-120.2227,41.7574],[-120.226,41.7626],[-120.2258,41.7673],[-120.2272,41.7693],[-120.2251,41.7744],[-120.2259,41.7865],[-120.2245,41.7924],[-120.2196,41.7964],[-120.2075,41.8027],[-120.2097,41.8062],[-120.2178,41.811],[-120.2231,41.8193],[-120.2303,41.8202],[-120.2333,41.8224],[-120.2342,41.8278],[-120.2363,41.8308],[-120.2435,41.831],[-120.2437,41.8345],[-120.2484,41.8352],[-120.2616,41.8455],[-120.2558,41.8469],[-120.2537,41.8504],[-120.2452,41.8497],[-120.2449,41.8509],[-120.2479,41.8544],[-120.2321,41.8657],[-120.2387,41.8767],[-120.2475,41.8851],[-120.2629,41.9079],[-120.2611,41.917],[-120.2569,41.924],[-120.2545,41.9346],[-120.2511,41.9409],[-120.2449,41.9442],[-120.2319,41.9458],[-120.2164,41.9533],[-120.1939,41.9681],[-120.1907,41.9726],[-120.1843,41.9767],[-120.1832,41.979],[-120.1786,41.9798],[-120.1787,41.9825],[-120.1774,41.9841],[-120.1792,41.9861],[-120.178,41.9879],[-120.1717,41.9879],[-120.1694,41.9895],[-120.165,41.9898],[-120.1594,41.9946],[-120.3264,41.9926],[-120.7981,41.994],[-120.9741,41.993],[-121.1685,41.9972],[-121.2503,41.9973],[-121.2445,41.9916],[-121.244,41.9891],[-121.2459,41.9881],[-121.242,41.9867],[-121.2417,41.9829],[-121.2388,41.9796],[-121.2377,41.9603],[-121.2393,41.956],[-121.239,41.9524],[-121.2424,41.9503],[-121.2412,41.9494],[-121.2407,41.9463],[-121.2348,41.9398],[-121.2253,41.9409],[-121.2283,41.9402],[-121.2305,41.9362],[-121.2295,41.9329],[-121.2246,41.9293],[-121.223,41.9246],[-121.2304,41.9188],[-121.2308,41.9165],[-121.2287,41.9103],[-121.2289,41.9063],[-121.2303,41.9056],[-121.1824,41.8707],[-121.1819,41.8544],[-121.1779,41.8437],[-121.1745,41.8401],[-121.1514,41.8303],[-121.1185,41.8243],[-121.1102,41.8198],[-121.122,41.8054],[-121.1258,41.8029],[-121.1389,41.8005],[-121.1545,41.7938],[-121.1624,41.7975],[-121.1687,41.7984],[-121.1828,41.7844],[-121.1913,41.7807],[-121.1965,41.7748],[-121.2134,41.7611],[-121.2232,41.7482],[-121.2355,41.7428],[-121.2462,41.7338],[-121.2534,41.7355],[-121.2577,41.7348],[-121.2654,41.7299],[-121.2714,41.7219],[-121.274,41.7161],[-121.2751,41.7119],[-121.2746,41.7084],[-121.2769,41.7067],[-121.2811,41.7061],[-121.2812,41.7044]],[[-120.57572,41.48051],[-120.57476,41.48106],[-120.57279,41.4835],[-120.57534,41.48877],[-120.5694,41.48872],[-120.56404,41.48731],[-120.56418,41.50576],[-120.55951,41.50579],[-120.55951,41.50191],[-120.53512,41.50182],[-120.53521,41.4909],[-120.5255,41.49073],[-120.52552,41.48738],[-120.53513,41.48747],[-120.53525,41.48001],[-120.56307,41.47994],[-120.56147,41.47678],[-120.56222,41.47685],[-120.56399,41.47994],[-120.56398,41.47754],[-120.57152,41.48039],[-120.57572,41.48051]],[[-120.56009,41.47144],[-120.55977,41.47676],[-120.55492,41.47671],[-120.5571,41.47105],[-120.55973,41.46869],[-120.56009,41.47144]]]},"properties":{"GEOID":"0604990040","NAME":"Alturas","COUNTY":"049"}},{"type":"Feature","geometry":{"type":"Polygon","coordinates":[[[-121.4489,41.4728],[-121.4487,41.4294],[-121.4466,41.429],[-121.4465,41.1835],[-121.211,41.1845],[-120.7824,41.184],[-120.7832,41.1891],[-120.7875,41.1915],[-120.785,41.1963],[-120.7893,41.1995],[-120.7934,41.2121],[-120.7928,41.2134],[-120.7882,41.2153],[-120.7839,41.2276],[-120.7808,41.2291],[-120.7707,41.228],[-120.7603,41.2204],[-120.7571,41.2197],[-120.7546,41.2216],[-120.7596,41.2205],[-120.7685,41.2288],[-120.7689,41.231],[-120.7729,41.236],[-120.7728,41.2403],[-120.7741,41.2433],[-120.7815,41.2494],[-120.7848,41.2558],[-120.7951,41.26],[-120.8045,41.2688],[-120.8142,41.2746],[-120.8189,41.2751],[-120.8344,41.2828],[-120.8361,41.2872],[-120.8386,41.2884],[-120.84,41.2914],[-120.8421,41.2885],[-120.8494,41.2946],[-120.8517,41.294],[-120.8544,41.2913],[-120.8587,41.293],[-120.8604,41.2898],[-120.8661,41.2928],[-120.8688,41.2912],[-120.8688,41.2894],[-120.8707,41.2879],[-120.8685,41.2862],[-120.8699,41.2847],[-120.8693,41.2833],[-120.8714,41.2818],[-120.87,41.2791],[-120.872,41.278],[-120.8685,41.276],[-120.8693,41.2745],[-120.872,41.273],[-120.8708,41.275],[-120.8765,41.2779],[-120.8812,41.2785],[-120.885,41.2772],[-120.8843,41.2808],[-120.8871,41.282],[-120.8888,41.2861],[-120.8876,41.2893],[-120.8899,41.2917],[-120.8898,41.2948],[-120.9062,41.3269],[-120.9083,41.3392],[-120.9112,41.3438],[-120.9268,41.347],[-120.9312,41.3515],[-120.9451,41.3568],[-120.9495,41.3612],[-120.9607,41.367],[-120.9721,41.3651],[-120.9805,41.3618],[-120.9884,41.3617],[-120.9945,41.3586],[-121.0176,41.3675],[-121.0316,41.3682],[-121.0408,41.3717],[-121.0519,41.3708],[-121.0572,41.3651],[-121.0637,41.3659],[-121.0741,41.364],[-121.0792,41.365],[-121.0849,41.3703],[-121.0981,41.3661],[-121.1125,41.3634],[-121.1169,41.3594],[-121.1308,41.3551],[-121.1347,41.3522],[-121.1483,41.356],[-121.1513,41.3596],[-121.1578,41.3612],[-121.1657,41.3629],[-121.1854,41.3642],[-121.1928,41.3736],[-121.1948,41.3808],[-121.194,41.3854],[-121.1689,41.4275],[-121.1597,41.4757],[-121.214,41.4883],[-121.23,41.4864],[-121.2321,41.4869],[-121.2337,41.4893],[-121.237,41.4884],[-121.2483,41.4896],[-121.2517,41.4925],[-121.2742,41.502],[-121.2868,41.5039],[-121.3034,41.5091],[-121.3067,41.5089],[-121.3139,41.511],[-121.3212,41.5115],[-121.3271,41.5102],[-121.3335,41.5126],[-121.3382,41.5128],[-121.3398,41.5151],[-121.3444,41.5166],[-121.3484,41.5168],[-121.3576,41.5149],[-121.3761,41.5142],[-121.3881,41.5093],[-121.4256,41.4798],[-121.4489,41.4728]]]},"properties":{"GEOID":"0604990010","NAME":"Adin-Lookout","COUNTY":"049"}}]}