{"type":"FeatureCollection","features":[{"type":"Feature","geometry":{"type":"Polygon","coordinates":[[[-121.8252,36.4292],[-121.8214,36.4198],[-121.8175,36.4198],[-121.8112,36.4158],[-121.8098,36.3982],[-121.8062,36.3961],[-121.8029,36.396],[-121.799,36.3919],[-121.7931,36.3887],[-121.79,36.3884],[-121.7867,36.3827],[-121.7859,36.3769],[-121.7767,36.3701],[-121.7758,36.3683],[-121.7699,36.3673],[-121.7648,36.3689],[-121.7624,36.3716],[-121.7531,36.3628],[-121.7455,36.3628],[-121.7404,36.3648],[-121.7343,36.3644],[-121.7255,36.3581],[-121.7259,36.3535],[-121.7228,36.3497],[-121.7072,36.341],[-121.714,36.3333],[-121.7147,36.3284],[-121.7168,36.3282],[-121.7152,36.3256],[-121.7178,36.3202],[-121.7161,36.3177],[-121.7165,36.3152],[-121.7138,36.3154],[-121.7149,36.3101],[-121.7137,36.3034],[-121.7151,36.3015],[-121.7148,36.297],[-121.7026,36.2912],[-121.6723,36.2845],[-121.6622,36.2804],[-121.6419,36.2751],[-121.6368,36.2756],[-121.6312,36.2795],[-121.6305,36.2817],[-121.6195,36.2726],[-121.6177,36.2692],[-121.612,36.2676],[-121.6089,36.265],[-121.6058,36.2602],[-121.603,36.2598],[-121.6005,36.2574],[-121.5945,36.2572],[-121.5922,36.2545],[-121.5859,36.2523],[-121.5843,36.2495],[-121.5783,36.2473],[-121.5718,36.2425],[-121.5664,36.2425],[-121.5661,36.2411],[-121.5678,36.2399],[-121.5616,36.2346],[-121.5592,36.2348],[-121.5573,36.2325],[-121.5533,36.2307],[-121.5508,36.2309],[-121.5521,36.2326],[-121.5496,36.2334],[-121.5499,36.2398],[-121.5508,36.2411],[-121.5512,36.2404],[-121.5525,36.2454],[-121.549,36.2472],[-121.552,36.2513],[-121.552,36.254],[-121.554,36.2545],[-121.5509,36.2567],[-121.5498,36.2617],[-121.5461,36.2629],[-121.5484,36.2653],[-121.5464,36.2676],[-121.5465,36.2696],[-121.5517,36.2717],[-121.5532,36.2712],[-121.5522,36.2738],[-121.5601,36.2809],[-121.5658,36.289],[-121.5654,36.2911],[-121.5673,36.2939],[-121.5665,36.2953],[-121.5686,36.2985],[-121.5687,36.3039],[-121.5716,36.306],[-121.5725,36.3125],[-121.5713,36.3134],[-121.5763,36.3208],[-121.5746,36.3224],[-121.5753,36.3299],[-121.5765,36.3316],[-121.5761,36.3347],[-121.5796,36.3388],[-121.5812,36.3441],[-121.5801,36.3441],[-121.58,36.3472],[-121.5758,36.3523],[-121.5778,36.3535],[-121.578,36.3556],[-121.5795,36.3544],[-121.5878,36.3607],[-121.5867,36.3627],[-121.5812,36.3616],[-121.5896,36.3668],[-121.5922,36.38],[-121.5964,36.3862],[-121.5943,36.3893],[-121.5953,36.3908],[-121.5938,36.392],[-121.5815,36.3949],[-121.5804,36.397],[-121.5807,36.4016],[-121.5868,36.4026],[-121.5884,36.4053],[-121.5916,36.4064],[-121.595,36.4144],[-121.6024,36.415],[-121.6053,36.4169],[-121.6023,36.4154],[-121.5951,36.4153],[-121.5877,36.4241],[-121.583,36.4273],[-121.5745,36.4297],[-121.5691,36.4327],[-121.5592,36.4333],[-121.5492,36.4311],[-121.5449,36.4318],[-121.5379,36.4296],[-121.5281,36.4295],[-121.5163,36.4369],[-121.5182,36.4386],[-121.5246,36.4353],[-121.5299,36.4369],[-121.5277,36.4398],[-121.5282,36.4416],[-121.5314,36.4418],[-121.5297,36.4417],[-121.5285,36.4532],[-121.5321,36.4619],[-121.5319,36.466],[-121.5338,36.4701],[-121.5367,36.4704],[-121.5406,36.4741],[-121.5423,36.473],[-121.5425,36.4751],[-121.5458,36.4755],[-121.5477,36.4793],[-121.5494,36.4801],[-121.5463,36.4809],[-121.5477,36.4818],[-121.5483,36.4873],[-121.5518,36.4882],[-121.5637,36.4968],[-121.5705,36.4964],[-121.5706,36.5013],[-121.5745,36.5115],[-121.5792,36.5154],[-121.5826,36.5212],[-121.5844,36.5202],[-121.5891,36.5253],[-121.596,36.524],[-121.6015,36.5264],[-121.6015,36.5289],[-121.6034,36.528],[-121.6063,36.529],[-121.6159,36.5218],[-121.6174,36.5177],[-121.6186,36.5182],[-121.6261,36.5119],[-121.6662,36.5012],[-121.6738,36.4971],[-121.684,36.4954],[-121.6914,36.4958],[-121.6972,36.5],[-121.7061,36.5005],[-121.7192,36.5082],[-121.7361,36.5144],[-121.7426,36.5226],[-121.7436,36.5244],[-121.7426,36.5252],[-121.7475,36.5293],[-121.747,36.5313],[-121.7523,36.5293],[-121.7572,36.5224],[-121.7558,36.5192],[-121.7584,36.5161],[-121.756,36.515],[-121.7523,36.5056],[-121.7527,36.5029],[-121.7565,36.5009],[-121.7616,36.5044],[-121.7657,36.5097],[-121.785,36.516],[-121.7899,36.5159],[-121.7998,36.5228],[-121.8033,36.522],[-121.8114,36.5184],[-121.8129,36.5162],[-121.8082,36.5058],[-121.8092,36.5058],[-121.8082,36.5039],[-121.8117,36.4938],[-121.8095,36.4884],[-121.8103,36.4864],[-121.8087,36.4872],[-121.8065,36.486],[-121.8044,36.483],[-121.8068,36.4841],[-121.807,36.4829],[-121.801,36.4766],[-121.8005,36.4742],[-121.8023,36.4709],[-121.7991,36.4656],[-121.7995,36.4625],[-121.7982,36.4592],[-121.8001,36.4598],[-121.8025,36.4557],[-121.808,36.4552],[-121.8077,36.4538],[-121.8214,36.4475],[-121.8196,36.4447],[-121.8206,36.4419],[-121.8199,36.441],[-121.8221,36.4378],[-121.824,36.4374],[-121.8238,36.4334],[-121.8252,36.4292]]]},"properties":{"GEOID":"0605390370","NAME":"Carmel Valley","COUNTY":"053"}},{"type":"Feature","geometry":{"type":"Polygon","coordinates":[[[-122.0519,36.8196],[-122.0459,36.7996],[-121.8761,36.8037],[-121.7897,36.807],[-121.7883,36.804],[-121.7932,36.7912],[-121.7905,36.7905],[-121.793,36.7839],[-121.788,36.7726],[-121.7843,36.7719],[-121.7841,36.7707],[-121.782,36.7728],[-121.7787,36.7727],[-121.7745,36.7687],[-121.7651,36.768],[-121.7668,36.7721],[-121.7595,36.7765],[-121.7514,36.7725],[-121.7477,36.7669],[-121.7468,36.7675],[-121.7547,36.7942],[-121.7483,36.8042],[-121.745,36.8133],[-121.7467,36.8173],[-121.7446,36.8271],[-121.7424,36.8301],[-121.7402,36.8289],[-121.7319,36.8292],[-121.7296,36.8274],[-121.7213,36.825],[-121.7115,36.8262],[-121.6951,36.8322],[-121.6826,36.8326],[-121.6789,36.8302],[-121.6735,36.8217],[-121.6629,36.8254],[-121.6531,36.8255],[-121.6516,36.8288],[-121.6436,36.8298],[-121.6357,36.8265],[-121.6305,36.8214],[-121.6282,36.8269],[-121.6305,36.8361],[-121.6362,36.8491],[-121.6346,36.8532],[-121.6301,36.857],[-121.6426,36.8737],[-121.6413,36.8803],[-121.644,36.894],[-121.6456,36.8941],[-121.646,36.8956],[-121.6462,36.9026],[-121.6479,36.9027],[-121.65,36.9002],[-121.6519,36.9009],[-121.6537,36.9038],[-121.6526,36.9101],[-121.6552,36.9129],[-121.6608,36.9141],[-121.6676,36.9121],[-121.6806,36.9033],[-121.6863,36.9079],[-121.6974,36.9116],[-121.7023,36.9082],[-121.7068,36.9112],[-121.701,36.9137],[-121.6991,36.916],[-121.6985,36.9185],[-121.7,36.9197],[-121.7068,36.9151],[-121.71,36.9153],[-121.7147,36.9088],[-121.7256,36.9143],[-121.7284,36.9114],[-121.7348,36.9087],[-121.7453,36.9093],[-121.7573,36.9003],[-121.7605,36.8945],[-121.7641,36.8916],[-121.7651,36.8883],[-121.7695,36.8851],[-121.7775,36.8832],[-121.7835,36.8858],[-121.787,36.885],[-121.7938,36.8795],[-121.7974,36.8737],[-121.8032,36.8688],[-121.8007,36.8579],[-121.81,36.8508],[-121.8761,36.839],[-122.0011,36.8242],[-122.0519,36.8196]]]},"properties":{"GEOID":"0605392320","NAME":"Pajaro","COUNTY":"053"}},{"type":"Feature","geometry":{"type":"Polygon","coordinates":[[[-121.7577,36.5539],[-121.7544,36.552],[-121.7529,36.5488],[-121.7536,36.5397],[-121.7502,36.5355],[-121.7492,36.5315],[-121.75,36.5304],[-121.7467,36.531],[-121.7475,36.5293],[-121.7426,36.5252],[-121.7436,36.5244],[-121.7426,36.5226],[-121.7361,36.5144],[-121.7192,36.5082],[-121.7061,36.5005],[-121.6972,36.5],[-121.6914,36.4958],[-121.684,36.4954],[-121.6738,36.4971],[-121.6662,36.5012],[-121.6261,36.5119],[-121.6186,36.5182],[-121.6174,36.5177],[-121.6159,36.5218],[-121.6063,36.529],[-121.6034,36.528],[-121.6015,36.5289],[-121.6015,36.5264],[-121.596,36.524],[-121.5891,36.5253],[-121.5844,36.5202],[-121.5824,36.521],[-121.5792,36.5154],[-121.5745,36.5115],[-121.5706,36.5013],[-121.5705,36.4964],[-121.5669,36.4961],[-121.5637,36.4968],[-121.5646,36.4979],[-121.5635,36.4995],[-121.5541,36.4996],[-121.5507,36.5007],[-121.5524,36.5012],[-121.546,36.5021],[-121.5412,36.5056],[-121.5404,36.5043],[-121.5451,36.5004],[-121.5393,36.5027],[-121.536,36.5068],[-121.536,36.5053],[-121.5334,36.5076],[-121.5316,36.5075],[-121.5307,36.5101],[-121.5292,36.5101],[-121.5271,36.5124],[-121.5263,36.5168],[-121.5212,36.5215],[-121.5271,36.5277],[-121.5412,36.535],[-121.541,36.5404],[-121.5495,36.5511],[-121.5501,36.5564],[-121.5484,36.5556],[-121.5488,36.5682],[-121.5444,36.5789],[-121.5454,36.5809],[-121.5508,36.5847],[-121.5542,36.5853],[-121.5574,36.5838],[-121.5579,36.5807],[-121.5605,36.5789],[-121.5704,36.5754],[-121.5755,36.5752],[-121.5788,36.578],[-121.5791,36.5831],[-121.581,36.5878],[-121.5804,36.5898],[-121.5664,36.5935],[-121.5604,36.5981],[-121.5616,36.601],[-121.572,36.6049],[-121.5811,36.611],[-121.5953,36.6105],[-121.6053,36.6155],[-121.6099,36.6136],[-121.621,36.6047],[-121.6296,36.6026],[-121.6352,36.607],[-121.6433,36.6108],[-121.649,36.6107],[-121.66,36.6188],[-121.6679,36.6283],[-121.6724,36.6303],[-121.6881,36.6296],[-121.6888,36.6223],[-121.6877,36.6195],[-121.6891,36.6174],[-121.6925,36.6161],[-121.6924,36.6134],[-121.6958,36.6115],[-121.6982,36.6068],[-121.6951,36.6053],[-121.6944,36.6072],[-121.693,36.6075],[-121.7,36.5968],[-121.7108,36.5886],[-121.7137,36.5837],[-121.7177,36.5815],[-121.7252,36.5867],[-121.7286,36.5845],[-121.7288,36.5813],[-121.7271,36.5785],[-121.7388,36.5729],[-121.7556,36.5697],[-121.7549,36.5668],[-121.7495,36.5619],[-121.752,36.5569],[-121.7577,36.5539]]]},"properties":{"GEOID":"0605393372","NAME":"Toro Park","COUNTY":"053"}},{"type":"Feature","geometry":{"type":"Polygon","coordinates":[[[-121.605,36.4168],[-121.6024,36.415],[-121.595,36.4144],[-121.5916,36.4064],[-121.5884,36.4053],[-121.5868,36.4026],[-121.5807,36.4016],[-121.5804,36.397],[-121.5815,36.3949],[-121.5938,36.392],[-121.5953,36.3908],[-121.5943,36.3893],[-121.5964,36.3862],[-121.5922,36.38],[-121.5896,36.3668],[-121.5812,36.3616],[-121.5867,36.3627],[-121.5878,36.3607],[-121.5795,36.3544],[-121.578,36.3556],[-121.5778,36.3535],[-121.5758,36.3523],[-121.58,36.3472],[-121.5801,36.3441],[-121.5812,36.3441],[-121.5796,36.3388],[-121.5761,36.3347],[-121.5765,36.3316],[-121.5753,36.3299],[-121.5746,36.3224],[-121.5763,36.3208],[-121.5713,36.3134],[-121.5725,36.3125],[-121.5716,36.306],[-121.5687,36.3039],[-121.5686,36.2985],[-121.5665,36.2953],[-121.5673,36.2939],[-121.5654,36.2911],[-121.5658,36.289],[-121.5601,36.2809],[-121.5522,36.2738],[-121.5532,36.2712],[-121.5517,36.2717],[-121.5465,36.2696],[-121.5464,36.2676],[-121.5484,36.2653],[-121.5461,36.2629],[-121.5498,36.2617],[-121.5509,36.2567],[-121.554,36.2545],[-121.552,36.254],[-121.552,36.2513],[-121.549,36.2472],[-121.5525,36.2454],[-121.5512,36.2404],[-121.5508,36.2411],[-121.5499,36.2398],[-121.5499,36.2341],[-121.5455,36.2311],[-121.5391,36.2295],[-121.5385,36.2284],[-121.5401,36.2265],[-121.537,36.2267],[-121.5381,36.2244],[-121.5354,36.2248],[-121.5347,36.2232],[-121.5326,36.2231],[-121.5318,36.2199],[-121.5332,36.2187],[-121.5292,36.2171],[-121.5302,36.2152],[-121.5274,36.2147],[-121.5133,36.2191],[-121.5074,36.2197],[-121.5038,36.2187],[-121.4968,36.2216],[-121.4971,36.2225],[-121.4945,36.2222],[-121.4982,36.2233],[-121.4982,36.2244],[-121.4915,36.2266],[-121.4952,36.2297],[-121.4951,36.2308],[-121.4918,36.2318],[-121.4921,36.2347],[-121.4878,36.2342],[-121.4735,36.2365],[-121.4684,36.2349],[-121.4667,36.2322],[-121.4636,36.2317],[-121.459,36.2322],[-121.4525,36.235],[-121.446,36.2381],[-121.444,36.2411],[-121.441,36.2424],[-121.4345,36.2407],[-121.4323,36.2433],[-121.4322,36.2491],[-121.4309,36.2513],[-121.4322,36.2539],[-121.4305,36.2568],[-121.4212,36.2579],[-121.4149,36.2637],[-121.4061,36.2684],[-121.4028,36.2717],[-121.3956,36.2718],[-121.364,36.2657],[-121.3595,36.2662],[-121.3482,36.2719],[-121.3348,36.2704],[-121.3321,36.278],[-121.3208,36.2821],[-121.3203,36.2854],[-121.3129,36.2982],[-121.3112,36.3148],[-121.3205,36.3487],[-121.3205,36.3602],[-121.3341,36.3937],[-121.3335,36.3949],[-121.31851874200426,36.40281462686567],[-121.32181,36.40129],[-121.32204,36.40202],[-121.31867,36.40383],[-121.31829571366595,36.40567702169197],[-121.32,36.4115],[-121.3128,36.4082],[-121.3088,36.4087],[-121.2813,36.4048],[-121.2667,36.4062],[-121.2661,36.4048],[-121.2642,36.4056],[-121.2613,36.4043],[-121.257,36.4006],[-121.2564,36.4012],[-121.2603,36.4046],[-121.2781,36.4159],[-121.267,36.4159],[-121.2645,36.4154],[-121.2638,36.4139],[-121.2548,36.4157],[-121.2407,36.4232],[-121.2297,36.426],[-121.2278,36.4344],[-121.222,36.4416],[-121.2268,36.4481],[-121.2222,36.4552],[-121.2211,36.4643],[-121.223,36.4721],[-121.2259,36.4722],[-121.2295,36.4753],[-121.2305,36.4786],[-121.228,36.4805],[-121.229,36.4822],[-121.2281,36.4842],[-121.2326,36.489],[-121.2308,36.4917],[-121.2369,36.4976],[-121.2393,36.5048],[-121.2441,36.5069],[-121.2472,36.5069],[-121.2498,36.5047],[-121.2522,36.5056],[-121.2549,36.5035],[-121.2596,36.5045],[-121.269,36.502],[-121.2735,36.5033],[-121.282,36.5027],[-121.285,36.5057],[-121.2872,36.5048],[-121.2941,36.5062],[-121.2971,36.5039],[-121.3007,36.5058],[-121.3077,36.4997],[-121.3094,36.4999],[-121.312,36.5046],[-121.3098,36.5062],[-121.3106,36.5093],[-121.3068,36.5122],[-121.3072,36.5168],[-121.3032,36.5181],[-121.3032,36.5201],[-121.2972,36.5243],[-121.2954,36.5271],[-121.2971,36.5303],[-121.2968,36.5323],[-121.2985,36.5331],[-121.3011,36.5376],[-121.3033,36.5333],[-121.3026,36.5305],[-121.3044,36.5304],[-121.3044,36.5294],[-121.3099,36.5287],[-121.3113,36.5268],[-121.3142,36.5261],[-121.3203,36.5278],[-121.3254,36.5262],[-121.3342,36.5199],[-121.3405,36.5172],[-121.3423,36.5139],[-121.3499,36.513],[-121.355,36.5108],[-121.365,36.5107],[-121.3648,36.489],[-121.3568,36.4889],[-121.3565,36.4817],[-121.3503,36.4816],[-121.3499,36.48],[-121.3496,36.4733],[-121.3598,36.4463],[-121.3786,36.4584],[-121.4058,36.4317],[-121.4017,36.4282],[-121.4028,36.427],[-121.4309,36.4383],[-121.4315,36.4449],[-121.4333,36.4472],[-121.456,36.4633],[-121.4617,36.4691],[-121.4615,36.4673],[-121.473,36.4547],[-121.4744,36.453],[-121.4739,36.4518],[-121.4966,36.4387],[-121.4983,36.4331],[-121.4962,36.4353],[-121.4938,36.4354],[-121.4953,36.4323],[-121.494,36.4315],[-121.4947,36.4299],[-121.492,36.4285],[-121.4894,36.4288],[-121.4927,36.4263],[-121.4961,36.4208],[-121.5018,36.4202],[-121.5082,36.423],[-121.5083,36.4259],[-121.5143,36.4325],[-121.514,36.4355],[-121.5149,36.4362],[-121.5134,36.4367],[-121.5158,36.438],[-121.5219,36.4326],[-121.5281,36.4295],[-121.5379,36.4296],[-121.5449,36.4318],[-121.5492,36.4311],[-121.5592,36.4333],[-121.5691,36.4327],[-121.5745,36.4297],[-121.583,36.4273],[-121.5877,36.4241],[-121.5951,36.4153],[-121.6023,36.4154],[-121.605,36.4168]],[[-121.36011,36.41752],[-121.3578,36.42669],[-121.35683,36.42685],[-121.35085,36.42651],[-121.3434,36.42399],[-121.33882,36.42219],[-121.33881,36.42072],[-121.33705,36.41976],[-121.3398,36.41733],[-121.33981,36.4153],[-121.34703,36.41907],[-121.35327,36.41782],[-121.35767,36.41512],[-121.36011,36.41752]],[[-121.33814,36.43432],[-121.33614,36.43676],[-121.33362,36.43675],[-121.33358,36.44517],[-121.31691,36.4451],[-121.31694,36.44155],[-121.31184,36.44153],[-121.31197,36.4291],[-121.3065,36.42913],[-121.30651,36.42508],[-121.30981,36.4256],[-121.30977,36.42352],[-121.31177,36.42358],[-121.3119,36.41101],[-121.3198,36.4115],[-121.3228,36.41859],[-121.32832,36.42426],[-121.33575,36.42912],[-121.33756,36.4316],[-121.33814,36.43432]],[[-121.3376,36.46176],[-121.3376,36.46341],[-121.33758,36.47027],[-121.33189,36.47196],[-121.33191,36.46192],[-121.3376,36.46176]]]},"properties":{"GEOID":"0605393060","NAME":"Soledad","COUNTY":"053"}},{"type":"Feature","geometry":{"type":"Polygon","coordinates":[[[-122.0268,36.5464],[-122.0175,36.5374],[-122.0205,36.5319],[-122.0227,36.5222],[-122.022,36.5089],[-122.0133,36.4839],[-122.009,36.4753],[-122.0052,36.4705],[-121.9995,36.4665],[-121.9998,36.4647],[-121.9377,36.4816],[-121.9261,36.4816],[-121.9129,36.4783],[-121.902,36.482],[-121.8958,36.4822],[-121.8905,36.4784],[-121.8886,36.4716],[-121.8747,36.4656],[-121.8707,36.4574],[-121.8702,36.4513],[-121.8644,36.4467],[-121.8534,36.4432],[-121.855,36.4381],[-121.8574,36.4375],[-121.8528,36.4329],[-121.8472,36.4323],[-121.8436,36.4301],[-121.8386,36.4298],[-121.8334,36.4279],[-121.8274,36.4211],[-121.8216,36.4197],[-121.8252,36.4292],[-121.8238,36.4334],[-121.824,36.4374],[-121.8221,36.4378],[-121.8199,36.441],[-121.8206,36.4419],[-121.8196,36.4447],[-121.8214,36.4475],[-121.8077,36.4538],[-121.808,36.4552],[-121.8025,36.4557],[-121.8001,36.4598],[-121.7982,36.4592],[-121.7995,36.4625],[-121.7991,36.4656],[-121.8023,36.4709],[-121.8005,36.4742],[-121.801,36.4766],[-121.807,36.4829],[-121.8068,36.4841],[-121.8044,36.483],[-121.8065,36.486],[-121.8087,36.4872],[-121.8103,36.4864],[-121.8095,36.4884],[-121.8117,36.494],[-121.8082,36.5039],[-121.8092,36.5058],[-121.8082,36.5058],[-121.8127,36.5143],[-121.8121,36.5177],[-121.7998,36.5228],[-121.7899,36.5159],[-121.785,36.516],[-121.7653,36.5096],[-121.7618,36.5046],[-121.7565,36.5009],[-121.7527,36.5029],[-121.7523,36.5056],[-121.756,36.515],[-121.7584,36.5161],[-121.7558,36.5192],[-121.7572,36.5224],[-121.7523,36.5293],[-121.7492,36.5315],[-121.7505,36.5361],[-121.7536,36.5397],[-121.7528,36.5486],[-121.7697,36.5484],[-121.7697,36.5517],[-121.842,36.552],[-121.9127,36.5686],[-121.913,36.5748],[-121.9146,36.5757],[-121.9193,36.5721],[-121.9249,36.5646],[-121.9259,36.5606],[-121.9287,36.5603],[-121.929,36.5586],[-121.9665,36.5464],[-122.0268,36.5464]],[[-121.93176,36.54506],[-121.92981,36.54604],[-121.92939,36.54809],[-121.93176,36.55731],[-121.92357,36.56102],[-121.9227,36.56308],[-121.92186,36.56308],[-121.92185,36.5643],[-121.91845,36.56339],[-121.91972,36.56235],[-121.91346,36.56237],[-121.91266,36.56097],[-121.91366,36.56112],[-121.91398,36.55965],[-121.91526,36.54853],[-121.91674,36.54578],[-121.91595,36.5458],[-121.91654,36.54177],[-121.91806,36.54064],[-121.91931,36.5418],[-121.92062,36.54184],[-121.92109,36.54282],[-121.92297,36.54262],[-121.92303,36.54383],[-121.92481,36.5446],[-121.92921,36.54543],[-121.93172,36.54452],[-121.93176,36.54506]]]},"properties":{"GEOID":"0605390362","NAME":"Carmel-by-the-Sea","COUNTY":"053"}},{"type":"Feature","geometry":{"type":"Polygon","coordinates":[[[-122.0008,36.4584],[-121.9994,36.4481],[-121.996,36.4386],[-121.9885,36.4278],[-121.9814,36.4209],[-121.9803,36.4109],[-121.9768,36.4022],[-121.9756,36.3926],[-121.9704,36.3834],[-121.9723,36.3728],[-121.9721,36.36],[-121.9674,36.3342],[-121.9629,36.3227],[-121.9644,36.3126],[-121.9642,36.3041],[-121.9605,36.29],[-121.9528,36.2785],[-121.9468,36.2718],[-121.9354,36.2628],[-121.9204,36.2551],[-121.9012,36.2397],[-121.8935,36.2243],[-121.8802,36.2103],[-121.8552,36.1965],[-121.8464,36.1903],[-121.8317,36.1846],[-121.8024,36.1783],[-121.788,36.1685],[-121.7707,36.162],[-121.7511,36.1474],[-121.7473,36.146],[-121.7381,36.1358],[-121.7278,36.129],[-121.7087,36.1026],[-121.6744,36.0647],[-121.658,36.0211],[-121.6482,35.9986],[-121.6318,35.9789],[-121.6204,35.9691],[-121.5893,35.9593],[-121.5696,35.9494],[-121.5615,35.9438],[-121.5418,35.9017],[-121.532,35.8848],[-121.5192,35.8634],[-121.501,35.8427],[-121.501,35.9921],[-121.5055,36.0002],[-121.5111,36.0042],[-121.5149,36.0055],[-121.5219,36.0049],[-121.5233,36.007],[-121.5257,36.0077],[-121.5259,36.0537],[-121.5427,36.0539],[-121.543,36.0677],[-121.578,36.0677],[-121.5773,36.0969],[-121.5953,36.0967],[-121.5951,36.1113],[-121.4617,36.1122],[-121.4633,36.1144],[-121.463,36.1168],[-121.4672,36.1186],[-121.4706,36.1232],[-121.4719,36.128],[-121.478,36.1329],[-121.4774,36.135],[-121.4915,36.1399],[-121.4939,36.1431],[-121.4881,36.1405],[-121.4885,36.1418],[-121.4906,36.1446],[-121.4969,36.1476],[-121.4891,36.1462],[-121.4916,36.1488],[-121.4884,36.1484],[-121.4855,36.15],[-121.4894,36.1508],[-121.4903,36.1544],[-121.4946,36.1589],[-121.495,36.172],[-121.49,36.1768],[-121.4902,36.1789],[-121.4884,36.1793],[-121.4901,36.1811],[-121.4923,36.181],[-121.4914,36.1824],[-121.4934,36.1832],[-121.4936,36.1855],[-121.4921,36.1872],[-121.4935,36.1887],[-121.4918,36.1898],[-121.4943,36.1909],[-121.4933,36.193],[-121.4913,36.194],[-121.4918,36.1955],[-121.4885,36.2021],[-121.4892,36.2037],[-121.4915,36.204],[-121.4904,36.2079],[-121.4933,36.2092],[-121.4927,36.211],[-121.4975,36.2132],[-121.4883,36.2148],[-121.4946,36.2148],[-121.4958,36.2173],[-121.4927,36.2167],[-121.4976,36.2193],[-121.499,36.2187],[-121.4983,36.2164],[-121.5,36.2166],[-121.4987,36.2172],[-121.5004,36.219],[-121.4991,36.2206],[-121.4963,36.2211],[-121.4964,36.2222],[-121.4946,36.2222],[-121.4961,36.2226],[-121.5038,36.2187],[-121.5074,36.2197],[-121.5133,36.2191],[-121.5191,36.2178],[-121.5218,36.2159],[-121.5302,36.2152],[-121.5292,36.2171],[-121.5332,36.2187],[-121.5318,36.2199],[-121.5326,36.2231],[-121.5347,36.2232],[-121.5354,36.2248],[-121.5381,36.2244],[-121.537,36.2267],[-121.5401,36.2265],[-121.5385,36.2284],[-121.5391,36.2295],[-121.5455,36.2311],[-121.5485,36.2333],[-121.5517,36.2329],[-121.5508,36.2309],[-121.5527,36.2305],[-121.5573,36.2325],[-121.5592,36.2348],[-121.5616,36.2346],[-121.5678,36.2399],[-121.5661,36.2411],[-121.5664,36.2425],[-121.5718,36.2425],[-121.5783,36.2473],[-121.5843,36.2495],[-121.5859,36.2523],[-121.5922,36.2545],[-121.5945,36.2572],[-121.6005,36.2574],[-121.603,36.2598],[-121.6058,36.2602],[-121.6089,36.265],[-121.612,36.2676],[-121.6177,36.2692],[-121.6195,36.2726],[-121.6305,36.2817],[-121.6312,36.2795],[-121.6368,36.2756],[-121.6419,36.2751],[-121.6622,36.2804],[-121.6723,36.2845],[-121.7026,36.2912],[-121.7131,36.2958],[-121.7151,36.2983],[-121.7137,36.3034],[-121.7149,36.3101],[-121.7138,36.3154],[-121.7165,36.3152],[-121.716,36.3171],[-121.7179,36.3214],[-121.7152,36.3256],[-121.7166,36.3286],[-121.7147,36.3284],[-121.714,36.3333],[-121.7072,36.341],[-121.7228,36.3497],[-121.7259,36.3535],[-121.7255,36.3581],[-121.7343,36.3644],[-121.7404,36.3648],[-121.7455,36.3628],[-121.7531,36.3628],[-121.7624,36.3716],[-121.7648,36.3689],[-121.7699,36.3673],[-121.7758,36.3683],[-121.7767,36.3701],[-121.7859,36.3769],[-121.7867,36.3827],[-121.79,36.3884],[-121.7931,36.3887],[-121.799,36.3919],[-121.8029,36.396],[-121.8062,36.3961],[-121.8098,36.3982],[-121.8112,36.4061],[-121.8102,36.4095],[-121.8122,36.4169],[-121.8175,36.4198],[-121.8274,36.4211],[-121.8334,36.4279],[-121.8386,36.4298],[-121.8436,36.4301],[-121.8472,36.4323],[-121.8528,36.4329],[-121.8574,36.4375],[-121.855,36.4381],[-121.8534,36.4432],[-121.8644,36.4467],[-121.8702,36.4513],[-121.8707,36.4574],[-121.8747,36.4656],[-121.8886,36.4716],[-121.8905,36.4784],[-121.8955,36.4821],[-121.902,36.482],[-121.9129,36.4783],[-121.9261,36.4816],[-121.9377,36.4816],[-121.9998,36.4647],[-122.0008,36.4584]]]},"properties":{"GEOID":"0605390235","NAME":"Big Sur","COUNTY":"053"}},{"type":"Feature","geometry":{"type":"Polygon","coordinates":[[[-121.5004,36.219],[-121.4987,36.2172],[-121.5,36.2166],[-121.4983,36.2164],[-121.499,36.2187],[-121.4976,36.2193],[-121.4927,36.2167],[-121.4958,36.2173],[-121.4946,36.2148],[-121.4883,36.2148],[-121.4975,36.2132],[-121.4927,36.211],[-121.4933,36.2092],[-121.4904,36.2079],[-121.4915,36.204],[-121.4892,36.2037],[-121.4885,36.2021],[-121.4918,36.1955],[-121.4913,36.194],[-121.4933,36.193],[-121.4943,36.1909],[-121.4918,36.1898],[-121.4935,36.1887],[-121.4921,36.1872],[-121.4936,36.1855],[-121.4934,36.1832],[-121.4914,36.1824],[-121.4923,36.181],[-121.4901,36.1811],[-121.4884,36.1793],[-121.4902,36.1789],[-121.49,36.1768],[-121.495,36.172],[-121.4946,36.1589],[-121.4903,36.1544],[-121.4894,36.1508],[-121.4855,36.15],[-121.4884,36.1484],[-121.4916,36.1488],[-121.4891,36.1462],[-121.4969,36.1476],[-121.4906,36.1446],[-121.4885,36.1418],[-121.4881,36.1405],[-121.4939,36.1431],[-121.4915,36.1399],[-121.4774,36.135],[-121.478,36.1329],[-121.4719,36.128],[-121.4697,36.1215],[-121.4662,36.1179],[-121.463,36.1168],[-121.4633,36.1144],[-121.4607,36.1097],[-121.4466,36.1008],[-121.4399,36.0991],[-121.4381,36.1],[-121.4375,36.1026],[-121.4353,36.1028],[-121.4323,36.1005],[-121.4272,36.0992],[-121.4243,36.0957],[-121.4128,36.089],[-121.4055,36.0875],[-121.4007,36.084],[-121.3976,36.0834],[-121.3969,36.0867],[-121.398,36.0911],[-121.4142,36.0975],[-121.4147,36.1024],[-121.4101,36.1062],[-121.4101,36.1087],[-121.3879,36.1088],[-121.3878,36.105],[-121.3746,36.105],[-121.3745,36.1034],[-121.2941,36.0952],[-121.2817,36.0924],[-121.2772,36.093],[-121.277,36.0958],[-121.2561,36.0961],[-121.256,36.1003],[-121.252,36.1003],[-121.2519,36.1035],[-121.2561,36.1039],[-121.2559,36.1111],[-121.252,36.1111],[-121.2519,36.1147],[-121.2385,36.1145],[-121.2387,36.1073],[-121.2341,36.1072],[-121.2339,36.1004],[-121.2298,36.1003],[-121.2287,36.0855],[-121.2333,36.0853],[-121.2336,36.0817],[-121.229,36.0818],[-121.2277,36.0709],[-121.2234,36.0709],[-121.2228,36.0639],[-121.2141,36.0638],[-121.214,36.0602],[-121.2051,36.06],[-121.2046,36.0552],[-121.1823,36.049],[-121.1818,36.0538],[-121.1848,36.0617],[-121.1844,36.0677],[-121.1797,36.0736],[-121.1785,36.0812],[-121.1691,36.0913],[-121.1601,36.0971],[-121.1432,36.1026],[-121.1307,36.1111],[-121.1287,36.1151],[-121.1201,36.1141],[-121.1142,36.115],[-121.0983,36.1111],[-121.0724,36.1109],[-121.0644,36.113],[-121.059,36.1118],[-121.0501,36.107],[-121.0379,36.1124],[-121.0332,36.1107],[-121.0317,36.1116],[-121.0299,36.116],[-121.0255,36.1183],[-121.0231,36.1223],[-121.0162,36.126],[-121.0118,36.1315],[-121.0113,36.1404],[-121.0061,36.1469],[-120.99,36.1576],[-120.9816,36.1584],[-120.9643,36.1487],[-120.9326,36.1503],[-120.9143,36.1547],[-120.9038,36.1608],[-120.8857,36.1654],[-120.8632,36.1651],[-120.8548,36.1664],[-120.852,36.1695],[-120.8467,36.1829],[-120.8408,36.1897],[-120.8373,36.1896],[-120.8347,36.1878],[-120.8256,36.1852],[-120.821,36.1873],[-120.8115,36.1892],[-120.8065,36.1922],[-120.8038,36.1921],[-120.8016,36.1902],[-120.7988,36.1954],[-120.8006,36.1986],[-120.7943,36.2005],[-120.7748,36.1922],[-120.7689,36.1939],[-120.7593,36.1929],[-120.7487,36.1875],[-120.7469,36.189],[-120.7474,36.1954],[-120.7389,36.1959],[-120.7381,36.2001],[-120.742,36.1986],[-120.7467,36.1998],[-120.7491,36.1988],[-120.7531,36.1997],[-120.7559,36.2033],[-120.7583,36.202],[-120.7613,36.2034],[-120.7638,36.2091],[-120.767,36.2101],[-120.7653,36.2135],[-120.7685,36.2139],[-120.7723,36.2202],[-120.776,36.2201],[-120.7787,36.2232],[-120.7813,36.2224],[-120.7807,36.2248],[-120.7832,36.2292],[-120.789,36.2305],[-120.7893,36.235],[-120.7937,36.2343],[-120.7953,36.2366],[-120.7991,36.2355],[-120.8021,36.2378],[-120.8006,36.2386],[-120.8007,36.2403],[-120.8055,36.2402],[-120.8073,36.2438],[-120.8122,36.2452],[-120.8104,36.2485],[-120.8108,36.2517],[-120.8136,36.2502],[-120.8143,36.2532],[-120.8203,36.2538],[-120.8235,36.2572],[-120.826,36.2545],[-120.8256,36.2578],[-120.8293,36.2572],[-120.8282,36.2586],[-120.8329,36.2592],[-120.8335,36.2624],[-120.8368,36.2624],[-120.8362,36.2656],[-120.8394,36.2708],[-120.8372,36.2707],[-120.8369,36.2721],[-120.8396,36.2729],[-120.8399,36.2762],[-120.845,36.2809],[-120.8509,36.2826],[-120.8514,36.2859],[-120.8565,36.2847],[-120.8598,36.2881],[-120.8599,36.2905],[-120.8625,36.2898],[-120.8651,36.2926],[-120.8718,36.2934],[-120.8741,36.2952],[-120.8791,36.2954],[-120.8817,36.2934],[-120.8841,36.2941],[-120.8895,36.2903],[-120.899,36.3008],[-120.9045,36.3022],[-120.9049,36.304],[-120.9089,36.3043],[-120.9117,36.3083],[-120.9161,36.3088],[-120.9191,36.3109],[-120.9235,36.3101],[-120.9256,36.3081],[-120.926,36.3015],[-120.9281,36.3006],[-120.9304,36.3014],[-120.9331,36.2998],[-120.9339,36.2965],[-120.9365,36.294],[-120.9346,36.2893],[-120.9362,36.2896],[-120.9412,36.2866],[-120.9392,36.2852],[-120.9401,36.2823],[-120.9534,36.2747],[-120.9567,36.276],[-120.9593,36.2808],[-120.9644,36.2805],[-120.9645,36.2827],[-120.9725,36.2879],[-120.9738,36.2903],[-120.979,36.29],[-120.9858,36.2929],[-120.9864,36.292],[-120.9851,36.2902],[-120.9881,36.2852],[-120.9871,36.2757],[-120.9924,36.2699],[-121.0002,36.2708],[-121.0047,36.267],[-121.0105,36.2688],[-121.0118,36.2645],[-121.0144,36.2687],[-121.0188,36.2597],[-121.0223,36.2615],[-121.0272,36.2599],[-121.0277,36.2618],[-121.0262,36.2632],[-121.0279,36.2644],[-121.0286,36.2698],[-121.0255,36.2713],[-121.0274,36.2753],[-121.0363,36.2755],[-121.0361,36.2729],[-121.0403,36.2711],[-121.0408,36.324],[-121.1204,36.3879],[-121.1218,36.3851],[-121.125,36.384],[-121.1283,36.385],[-121.1375,36.3835],[-121.141,36.3847],[-121.145,36.3843],[-121.1467,36.3814],[-121.1409,36.3794],[-121.1415,36.378],[-121.14,36.3769],[-121.142,36.3747],[-121.1447,36.376],[-121.1482,36.3756],[-121.1527,36.3721],[-121.1575,36.3734],[-121.1652,36.3729],[-121.1647,36.3706],[-121.1676,36.3655],[-121.1813,36.3698],[-121.1849,36.3724],[-121.1912,36.3716],[-121.1967,36.3679],[-121.2005,36.3609],[-121.2041,36.3581],[-121.2136,36.3566],[-121.203,36.3501],[-121.1996,36.3404],[-121.2014,36.3397],[-121.1978,36.3326],[-121.1876,36.3232],[-121.1808,36.3192],[-121.1756,36.3122],[-121.1757,36.3105],[-121.1818,36.3095],[-121.1871,36.3114],[-121.1922,36.3077],[-121.1975,36.3076],[-121.2008,36.3092],[-121.2055,36.3056],[-121.2058,36.3006],[-121.2096,36.2973],[-121.1991,36.2922],[-121.1856,36.2761],[-121.2125,36.261],[-121.2239,36.2598],[-121.2256,36.2558],[-121.2426,36.2397],[-121.2441,36.2312],[-121.2496,36.2247],[-121.2551,36.2221],[-121.263,36.2119],[-121.2668,36.2109],[-121.267,36.2092],[-121.2646,36.2083],[-121.2667,36.2046],[-121.2748,36.2091],[-121.2744,36.2029],[-121.2777,36.2047],[-121.2808,36.2145],[-121.2779,36.2188],[-121.2799,36.2247],[-121.2791,36.2263],[-121.287,36.2406],[-121.2865,36.2433],[-121.2898,36.2492],[-121.2895,36.2521],[-121.2992,36.2677],[-121.3018,36.2758],[-121.301,36.2777],[-121.3026,36.2782],[-121.303,36.2806],[-121.3126,36.2791],[-121.3245,36.281],[-121.3326,36.2776],[-121.3352,36.2702],[-121.3482,36.2719],[-121.3622,36.2657],[-121.3719,36.2677],[-121.3783,36.2676],[-121.3815,36.2694],[-121.3956,36.2718],[-121.4028,36.2717],[-121.4061,36.2684],[-121.4149,36.2637],[-121.4212,36.2579],[-121.4305,36.2568],[-121.4322,36.2539],[-121.4309,36.2513],[-121.4322,36.2491],[-121.4323,36.2433],[-121.4345,36.2407],[-121.441,36.2424],[-121.444,36.2411],[-121.446,36.2381],[-121.4525,36.235],[-121.459,36.2322],[-121.4636,36.2317],[-121.4667,36.2322],[-121.4684,36.2349],[-121.4735,36.2365],[-121.4878,36.2342],[-121.4921,36.2347],[-121.4918,36.2318],[-121.4951,36.2308],[-121.4952,36.2297],[-121.4915,36.2266],[-121.4932,36.2252],[-121.4979,36.2249],[-121.4982,36.2233],[-121.4945,36.2222],[-121.4964,36.2222],[-121.4963,36.2211],[-121.4991,36.2206],[-121.5004,36.219]],[[-121.16779,36.24357],[-121.16635,36.24362],[-121.16571,36.24365],[-121.16609,36.24187],[-121.16288,36.23236],[-121.16217,36.23187],[-121.15802,36.23311],[-121.15822,36.23212],[-121.15707,36.23241],[-121.15587,36.23083],[-121.15577,36.22996],[-121.1568,36.22968],[-121.15537,36.22629],[-121.15581,36.22441],[-121.15241,36.22512],[-121.15137,36.22121],[-121.15213,36.22039],[-121.15136,36.21402],[-121.15892,36.21403],[-121.16319,36.22242],[-121.16779,36.24357]],[[-121.14701,36.20745],[-121.14523,36.20942],[-121.1403,36.21101],[-121.14004,36.21459],[-121.13793,36.21624],[-121.14114,36.2176],[-121.14212,36.22095],[-121.13054,36.22885],[-121.12921,36.22888],[-121.12862,36.23449],[-121.12699,36.23463],[-121.12516,36.23276],[-121.12343,36.23304],[-121.12147,36.2353],[-121.11022,36.2274],[-121.11335,36.22435],[-121.11973,36.22059],[-121.11602,36.21581],[-121.11474,36.21666],[-121.11243,36.21521],[-121.11552,36.21365],[-121.11672,36.2114],[-121.11233,36.20442],[-121.11226,36.203],[-121.10846,36.20093],[-121.1093,36.19974],[-121.11158,36.19935],[-121.11466,36.20116],[-121.118,36.20169],[-121.12451,36.19599],[-121.12342,36.19456],[-121.12632,36.19196],[-121.12837,36.19339],[-121.12817,36.19524],[-121.12613,36.19771],[-121.13987,36.20319],[-121.14044,36.20425],[-121.14434,36.20411],[-121.14701,36.20745]]]},"properties":{"GEOID":"0605391470","NAME":"King City","COUNTY":"053"}},{"type":"Feature","geometry":{"type":"MultiPolygon","coordinates":[[[[-122.0444,36.5835],[-122.0428,36.5728],[-122.0397,36.5647],[-122.0268,36.5464],[-121.9665,36.5464],[-121.929,36.5586],[-121.9287,36.5603],[-121.9259,36.5606],[-121.9249,36.5646],[-121.9193,36.5721],[-121.9146,36.5757],[-121.913,36.5748],[-121.9127,36.5686],[-121.842,36.552],[-121.7697,36.5517],[-121.7697,36.5484],[-121.7528,36.5486],[-121.7544,36.552],[-121.7577,36.5542],[-121.752,36.5569],[-121.7495,36.562],[-121.7549,36.5668],[-121.7556,36.5697],[-121.7388,36.5729],[-121.7271,36.5785],[-121.7288,36.5813],[-121.7286,36.5845],[-121.7252,36.5867],[-121.7177,36.5815],[-121.7137,36.5837],[-121.7108,36.5886],[-121.7,36.5968],[-121.693,36.6075],[-121.6944,36.6072],[-121.6951,36.6053],[-121.6982,36.6068],[-121.6958,36.6115],[-121.6924,36.6134],[-121.6925,36.6161],[-121.6891,36.6174],[-121.6877,36.6195],[-121.6888,36.6223],[-121.6879,36.6243],[-121.6883,36.6272],[-121.6928,36.6311],[-121.6974,36.6331],[-121.7025,36.6302],[-121.7028,36.6265],[-121.709,36.625],[-121.7135,36.6284],[-121.7128,36.6291],[-121.7208,36.6313],[-121.71,36.6361],[-121.7084,36.6395],[-121.709,36.6418],[-121.714,36.6416],[-121.7192,36.6462],[-121.7253,36.6466],[-121.7265,36.6485],[-121.7249,36.6517],[-121.7273,36.6543],[-121.7345,36.6563],[-121.7567,36.6669],[-121.75041040960507,36.67518628575841],[-121.75044,36.67517],[-121.75674,36.66686],[-121.76653,36.67152],[-121.7757,36.66478],[-121.78972,36.66184],[-121.78975,36.6547],[-121.79003,36.64385],[-121.80828,36.59681],[-121.82798567680749,36.59696226875231],[-121.82138,36.5969],[-121.81995,36.59355],[-121.81373,36.58832],[-121.80992,36.58227],[-121.80854,36.57704],[-121.80677,36.57627],[-121.80831,36.57637],[-121.80829,36.5715],[-121.81924,36.57338],[-121.82503,36.57771],[-121.82946,36.57694],[-121.83003,36.57619],[-121.83326,36.57705],[-121.83476,36.57671],[-121.83548,36.57464],[-121.83659,36.57474],[-121.83725,36.57381],[-121.83828,36.57461],[-121.83668,36.57917],[-121.84983,36.58306],[-121.84979,36.58398],[-121.8564,36.58358],[-121.85398,36.57835],[-121.85288,36.5798],[-121.85061,36.57983],[-121.85066,36.57834],[-121.85361,36.57834],[-121.85725,36.57402],[-121.86159,36.5742],[-121.8674,36.58152],[-121.8667,36.58442],[-121.86739,36.5845],[-121.86772,36.58588],[-121.86497,36.58315],[-121.86196,36.58566],[-121.8661,36.5876],[-121.86803,36.58614],[-121.86968,36.58735],[-121.87081,36.58876],[-121.87035,36.59253],[-121.87671,36.59156],[-121.87587,36.5882],[-121.87345,36.58508],[-121.87426,36.58481],[-121.87397,36.58195],[-121.87246,36.581],[-121.87375,36.57856],[-121.87128,36.5782],[-121.86785,36.57548],[-121.86759,36.57493],[-121.86952,36.57516],[-121.86898,36.57408],[-121.87401,36.57569],[-121.89174,36.57774],[-121.8906,36.57919],[-121.89094,36.58008],[-121.8924,36.58039],[-121.89464,36.57806],[-121.90425,36.5792],[-121.90647,36.57813],[-121.90588,36.57775],[-121.90731,36.57787],[-121.91143,36.57469],[-121.91459,36.5768],[-121.91531,36.57926],[-121.91778,36.58114],[-121.91881,36.58332],[-121.91859,36.58584],[-121.92099,36.58878],[-121.9197,36.58884],[-121.9188,36.5917],[-121.92078,36.59167],[-121.92024,36.59345],[-121.92098,36.59554],[-121.92665,36.59924],[-121.92711,36.6004],[-121.92323,36.6025],[-121.93406,36.59756],[-121.93729,36.60163],[-121.93285,36.60368],[-121.93354,36.60468],[-121.93282,36.60586],[-121.92981,36.60671],[-121.93158,36.60675],[-121.93224,36.60873],[-121.92929,36.61268],[-121.93309,36.61435],[-121.93475,36.61405],[-121.939,36.61773],[-121.94017,36.61705],[-121.94812,36.62101],[-121.94685,36.62249],[-121.94272,36.63067],[-121.94173,36.63656],[-121.93901,36.64055],[-121.93567,36.64266],[-121.92847,36.64206],[-121.91607,36.63326],[-121.9019,36.62106],[-121.9018,36.61864],[-121.90314,36.65425],[-121.88947,36.65458],[-121.888,36.61529],[-121.86334,36.61592],[-121.85767,36.61158],[-121.87471,36.62476],[-121.87369,36.62577],[-121.85977,36.6144],[-121.881,36.63203],[-121.88047,36.63247],[-121.86566,36.64496],[-121.83929,36.62761],[-121.84117,36.62498],[-121.83305,36.63422],[-121.83189,36.63645],[-121.82567,36.64211],[-121.81551,36.64857],[-121.81501,36.64997],[-121.81574284975504,36.652366616766464],[-121.81598,36.65227],[-121.81738,36.65691],[-121.8165,36.66345],[-121.81407,36.66956],[-121.80798,36.67844],[-121.80831,36.67978],[-121.82076,36.68566],[-121.81991,36.68649],[-121.81881,36.68806],[-121.81564,36.69894],[-121.81236,36.71393],[-121.81065,36.72851],[-121.80671,36.72853],[-121.79836,36.72503],[-121.79988,36.723],[-121.79898,36.718],[-121.80061,36.71391],[-121.7988,36.71202],[-121.80094,36.71203],[-121.80132,36.70772],[-121.80287,36.70382],[-121.80047,36.70288],[-121.79858,36.70663],[-121.78977,36.70226],[-121.77968,36.69887],[-121.78343,36.6891],[-121.78286,36.68716],[-121.75683,36.69626],[-121.75854,36.68703],[-121.75792,36.68604],[-121.75591,36.68709],[-121.753,36.68098],[-121.7481,36.67857],[-121.7452053738228,36.67813868152989],[-121.753,36.681],[-121.7559,36.6871],[-121.7542,36.6907],[-121.7493,36.6951],[-121.7464,36.7044],[-121.7469,36.7059],[-121.7535,36.7122],[-121.7683,36.7177],[-121.7662,36.7283],[-121.7696,36.7312],[-121.7742,36.7326],[-121.7823,36.7317],[-121.7853,36.7329],[-121.7938,36.7395],[-121.8071,36.754],[-121.8761,36.7499],[-122.0312,36.7499],[-122.0011,36.6477],[-122.0142,36.6367],[-122.0194,36.6278],[-122.0201,36.6228],[-122.0342,36.6097],[-122.0407,36.6001],[-122.0441,36.5914],[-122.0444,36.5835]]],[[[-121.86381,36.58243],[-121.86247,36.58166],[-121.86164,36.58363],[-121.86047,36.58304],[-121.86137,36.58179],[-121.85955,36.58162],[-121.85818,36.58259],[-121.8591,36.58296],[-121.85825,36.58419],[-121.86104,36.58536],[-121.86381,36.58243]]],[[[-121.86357,36.58727],[-121.86187,36.58658],[-121.85454,36.58805],[-121.84844,36.586],[-121.84979,36.58398],[-121.84709,36.58344],[-121.8463,36.585],[-121.83697,36.58171],[-121.83159554593689,36.58180078469701],[-121.83165,36.58181],[-121.83052,36.5828],[-121.8341,36.5898],[-121.84063,36.59239],[-121.8451,36.59198],[-121.84571,36.59435],[-121.85013,36.59651],[-121.84645,36.5942],[-121.84583,36.59165],[-121.85144,36.59354],[-121.8529,36.5933],[-121.85169,36.59216],[-121.85224,36.59092],[-121.85666,36.5927],[-121.85818,36.5902],[-121.86354,36.58889],[-121.86303,36.58726],[-121.86357,36.58727]]]]},"properties":{"GEOID":"0605392970","NAME":"Seaside-Monterey","COUNTY":"053"}},{"type":"Feature","geometry":{"type":"Polygon","coordinates":[[[-122.0454,36.7997],[-122.0312,36.7499],[-121.8761,36.7499],[-121.8071,36.754],[-121.7938,36.7395],[-121.7853,36.7329],[-121.7823,36.7317],[-121.7742,36.7326],[-121.7696,36.7312],[-121.7662,36.7283],[-121.7683,36.7177],[-121.7535,36.7122],[-121.7469,36.7059],[-121.7464,36.7044],[-121.7493,36.6951],[-121.7542,36.6907],[-121.7559,36.6871],[-121.753,36.681],[-121.7452053738228,36.67813868152989],[-121.74508,36.67812],[-121.7451098015393,36.67810359803341],[-121.7451,36.6781],[-121.735,36.6787],[-121.7352,36.7017],[-121.731,36.7076],[-121.718,36.7141],[-121.7354,36.7327],[-121.7403,36.745],[-121.7327,36.7425],[-121.7229,36.748],[-121.7046,36.7479],[-121.6572,36.7347],[-121.6689,36.7686],[-121.6695,36.7795],[-121.6662,36.7961],[-121.6632,36.8004],[-121.6501,36.8055],[-121.6402,36.8146],[-121.6315,36.8192],[-121.6305,36.8214],[-121.6357,36.8265],[-121.6433,36.8298],[-121.6516,36.8288],[-121.6531,36.8255],[-121.6629,36.8254],[-121.6735,36.8217],[-121.6789,36.8302],[-121.6826,36.8326],[-121.6951,36.8322],[-121.7115,36.8262],[-121.7213,36.825],[-121.7296,36.8274],[-121.7319,36.8292],[-121.7402,36.8289],[-121.7424,36.8301],[-121.7446,36.8271],[-121.7467,36.8173],[-121.745,36.8133],[-121.7483,36.8042],[-121.7547,36.7942],[-121.7468,36.7675],[-121.7477,36.7669],[-121.7514,36.7725],[-121.7595,36.7765],[-121.7668,36.7721],[-121.7651,36.768],[-121.7745,36.7687],[-121.7787,36.7727],[-121.782,36.7728],[-121.7841,36.7707],[-121.7843,36.7719],[-121.788,36.7726],[-121.793,36.7839],[-121.7905,36.7905],[-121.7932,36.7912],[-121.7883,36.804],[-121.7897,36.807],[-121.8761,36.8037],[-122.0454,36.7997]]]},"properties":{"GEOID":"0605390400","NAME":"Castroville","COUNTY":"053"}},{"type":"Feature","geometry":{"type":"Polygon","coordinates":[[[-121.3341,36.3937],[-121.3205,36.3602],[-121.3205,36.3487],[-121.3112,36.3148],[-121.3129,36.2982],[-121.3203,36.2854],[-121.3208,36.2821],[-121.3227,36.2811],[-121.3184,36.2793],[-121.3022,36.2803],[-121.303,36.2793],[-121.301,36.2777],[-121.3018,36.2758],[-121.2992,36.2677],[-121.2895,36.2521],[-121.2898,36.2492],[-121.2865,36.2433],[-121.287,36.2406],[-121.2791,36.2263],[-121.2799,36.2247],[-121.2779,36.2188],[-121.2808,36.2145],[-121.2777,36.2047],[-121.2757,36.2044],[-121.275,36.2027],[-121.2749,36.2091],[-121.2667,36.2046],[-121.2657,36.2056],[-121.2646,36.2083],[-121.267,36.2092],[-121.2668,36.2109],[-121.263,36.2119],[-121.2551,36.2221],[-121.2496,36.2247],[-121.2441,36.2312],[-121.2426,36.2397],[-121.2256,36.2558],[-121.2239,36.2598],[-121.2125,36.261],[-121.1856,36.2761],[-121.1991,36.2922],[-121.2096,36.2973],[-121.2058,36.3006],[-121.2055,36.3056],[-121.2008,36.3092],[-121.1975,36.3076],[-121.1922,36.3077],[-121.1871,36.3114],[-121.1818,36.3095],[-121.1757,36.3105],[-121.1756,36.3122],[-121.1808,36.3192],[-121.1876,36.3232],[-121.1978,36.3326],[-121.2014,36.3397],[-121.1996,36.3404],[-121.203,36.3501],[-121.2136,36.3566],[-121.2041,36.3581],[-121.2005,36.3609],[-121.1967,36.3679],[-121.1912,36.3716],[-121.1849,36.3724],[-121.1813,36.3698],[-121.1676,36.3655],[-121.1647,36.3706],[-121.1652,36.3729],[-121.1575,36.3734],[-121.1527,36.3721],[-121.1482,36.3756],[-121.1447,36.376],[-121.142,36.3747],[-121.14,36.3769],[-121.1415,36.378],[-121.1409,36.3794],[-121.1467,36.3814],[-121.145,36.3843],[-121.141,36.3847],[-121.1375,36.3835],[-121.1283,36.385],[-121.125,36.384],[-121.1218,36.3851],[-121.1204,36.3879],[-121.1951,36.4472],[-121.1979,36.4517],[-121.1977,36.4551],[-121.202,36.4579],[-121.2056,36.4624],[-121.2098,36.4648],[-121.2151,36.4732],[-121.2168,36.474],[-121.2189,36.4724],[-121.2224,36.4738],[-121.2233,36.4725],[-121.2211,36.4643],[-121.2219,36.4565],[-121.2268,36.4481],[-121.222,36.4416],[-121.2278,36.4344],[-121.2297,36.426],[-121.2407,36.4232],[-121.2548,36.4157],[-121.2638,36.4139],[-121.2645,36.4154],[-121.267,36.4159],[-121.2781,36.4159],[-121.2603,36.4046],[-121.2564,36.4012],[-121.257,36.4006],[-121.2613,36.4043],[-121.2642,36.4056],[-121.2661,36.4048],[-121.2667,36.4062],[-121.2813,36.4048],[-121.3088,36.4087],[-121.3128,36.4082],[-121.32,36.4115],[-121.31829571366595,36.40567702169197],[-121.31821,36.4061],[-121.3179415625,36.40446700520833],[-121.3176,36.4033],[-121.31773776218787,36.403227219976216],[-121.31773,36.40318],[-121.31851874200426,36.40281462686567],[-121.3335,36.3949],[-121.3341,36.3937]],[[-121.26362,36.34811],[-121.26126,36.35026],[-121.2489,36.34156],[-121.2542,36.33904],[-121.24509,36.33088],[-121.24049,36.33347],[-121.23922,36.33195],[-121.23186,36.33607],[-121.22675,36.33011],[-121.23229,36.32704],[-121.23083,36.32545],[-121.23285,36.32448],[-121.23158,36.32298],[-121.22866,36.32461],[-121.23189,36.3219],[-121.222,36.3117],[-121.22968,36.30866],[-121.23458,36.31285],[-121.24425,36.30748],[-121.24916,36.31319],[-121.25746,36.30858],[-121.26,36.31154],[-121.25812,36.3126],[-121.26321,36.31857],[-121.26135,36.3196],[-121.2601,36.31809],[-121.25824,36.31914],[-121.25697,36.31765],[-121.25331,36.31972],[-121.25719,36.32425],[-121.25533,36.32529],[-121.25656,36.3267],[-121.25292,36.32874],[-121.25802,36.33469],[-121.25653,36.33553],[-121.25703,36.33858],[-121.25623,36.33893],[-121.25682,36.3403],[-121.26362,36.34811]],[[-121.22576,36.34186],[-121.2222,36.34367],[-121.21854,36.34736],[-121.21178,36.3458],[-121.21699,36.34265],[-121.21832,36.34266],[-121.22057,36.34452],[-121.22416,36.34187],[-121.22309,36.34099],[-121.2245,36.34021],[-121.22576,36.34186]]]},"properties":{"GEOID":"0605391150","NAME":"Greenfield","COUNTY":"053"}},{"type":"Feature","geometry":{"type":"Polygon","coordinates":[[[-121.5953,36.0967],[-121.5773,36.0969],[-121.578,36.0677],[-121.543,36.0677],[-121.5427,36.0539],[-121.5259,36.0537],[-121.5257,36.0077],[-121.5233,36.007],[-121.5219,36.0049],[-121.5149,36.0055],[-121.5111,36.0042],[-121.5055,36.0002],[-121.501,35.9921],[-121.501,35.8427],[-121.4816,35.8294],[-121.4561,35.8177],[-121.4506,35.8098],[-121.4382,35.7967],[-121.3997,35.7952],[-121.0606,35.7929],[-120.214,35.7893],[-120.2158,35.7901],[-120.2148,35.7952],[-120.2179,35.8022],[-120.2166,35.8036],[-120.2194,35.806],[-120.2179,35.8116],[-120.2199,35.8189],[-120.2254,35.8212],[-120.2298,35.821],[-120.2312,35.8233],[-120.2345,35.8233],[-120.2389,35.8258],[-120.2423,35.8234],[-120.2445,35.824],[-120.2498,35.8299],[-120.2503,35.8331],[-120.2551,35.8426],[-120.2593,35.8451],[-120.2575,35.8519],[-120.255,35.853],[-120.2563,35.8554],[-120.2503,35.8579],[-120.2486,35.8619],[-120.246,35.8641],[-120.2402,35.8659],[-120.2452,35.8731],[-120.2435,35.8751],[-120.2433,35.8777],[-120.2525,35.8871],[-120.2564,35.8889],[-120.2627,35.8961],[-120.2679,35.8984],[-120.2758,35.9059],[-120.2803,35.907],[-120.2874,35.9055],[-120.2976,35.9079],[-120.3187,35.9069],[-120.3229,35.9078],[-120.326,35.9131],[-120.3299,35.9135],[-120.3323,35.9155],[-120.3321,35.9188],[-120.3367,35.9236],[-120.3351,35.9284],[-120.3371,35.9317],[-120.336,35.9372],[-120.3402,35.939],[-120.3458,35.9449],[-120.3496,35.9441],[-120.3565,35.9481],[-120.3575,35.9555],[-120.3593,35.9583],[-120.3625,35.9594],[-120.36,35.9631],[-120.3604,35.9644],[-120.3889,35.9693],[-120.394,35.9679],[-120.3966,35.9704],[-120.4063,35.974],[-120.4085,35.976],[-120.4228,35.9737],[-120.4312,35.9693],[-120.4344,35.9694],[-120.4365,35.9716],[-120.4382,35.9778],[-120.4491,35.9851],[-120.4497,35.9884],[-120.4537,35.9895],[-120.4598,35.9935],[-120.4637,35.9928],[-120.4686,35.9943],[-120.4706,35.9971],[-120.4734,35.9979],[-120.4731,35.9992],[-120.4774,36.0008],[-120.4778,36.0033],[-120.4804,36.0059],[-120.4784,36.0088],[-120.4793,36.0107],[-120.483,36.0121],[-120.4862,36.0112],[-120.4883,36.0149],[-120.4932,36.0166],[-120.4975,36.0202],[-120.5001,36.0208],[-120.5004,36.0222],[-120.5023,36.0222],[-120.5027,36.0204],[-120.5049,36.0204],[-120.5049,36.0214],[-120.5083,36.0216],[-120.5072,36.0233],[-120.5084,36.0242],[-120.5109,36.0221],[-120.5133,36.0237],[-120.5132,36.0257],[-120.5176,36.0275],[-120.5197,36.0267],[-120.519,36.0223],[-120.52,36.0209],[-120.5223,36.0231],[-120.5262,36.0228],[-120.5298,36.0243],[-120.5298,36.029],[-120.527,36.0357],[-120.5294,36.0343],[-120.5308,36.0354],[-120.5355,36.0351],[-120.5404,36.0367],[-120.543,36.0398],[-120.5431,36.0433],[-120.5454,36.0461],[-120.5507,36.0476],[-120.5518,36.0495],[-120.5589,36.0499],[-120.5666,36.0529],[-120.5846,36.0662],[-120.5879,36.0666],[-120.5883,36.069],[-120.592,36.0713],[-120.5923,36.0737],[-120.5961,36.0782],[-120.5949,36.0832],[-120.5928,36.0856],[-120.5932,36.0885],[-120.5898,36.0896],[-120.5994,36.1009],[-120.608,36.1027],[-120.6087,36.0993],[-120.6124,36.0991],[-120.6116,36.0956],[-120.6142,36.0951],[-120.6231,36.0979],[-120.6267,36.0971],[-120.6277,36.0992],[-120.6336,36.1033],[-120.6354,36.101],[-120.6419,36.1013],[-120.6461,36.1047],[-120.6488,36.108],[-120.6462,36.1108],[-120.6454,36.1162],[-120.6494,36.1178],[-120.6512,36.1171],[-120.6532,36.1188],[-120.6542,36.1227],[-120.6525,36.1252],[-120.6565,36.1326],[-120.6627,36.1367],[-120.6676,36.1381],[-120.6643,36.1414],[-120.6647,36.1473],[-120.6665,36.1496],[-120.6657,36.1519],[-120.668,36.1606],[-120.6713,36.162],[-120.672,36.1643],[-120.6642,36.1657],[-120.6631,36.1712],[-120.6546,36.1677],[-120.6499,36.168],[-120.6491,36.1696],[-120.6524,36.1729],[-120.652,36.1741],[-120.6487,36.1775],[-120.6489,36.1794],[-120.6447,36.1792],[-120.6449,36.1837],[-120.6424,36.1859],[-120.6428,36.188],[-120.6404,36.1906],[-120.6411,36.192],[-120.6389,36.1941],[-120.6392,36.1965],[-120.6328,36.1987],[-120.6269,36.2032],[-120.6294,36.2058],[-120.6294,36.2074],[-120.6388,36.215],[-120.641,36.2198],[-120.6493,36.224],[-120.6517,36.2307],[-120.6564,36.2335],[-120.6669,36.236],[-120.6709,36.2419],[-120.6797,36.2467],[-120.6815,36.252],[-120.6799,36.2542],[-120.6746,36.2555],[-120.673,36.2577],[-120.6754,36.2623],[-120.6799,36.2653],[-120.6804,36.2671],[-120.6786,36.2673],[-120.6817,36.2715],[-120.688,36.2718],[-120.6931,36.2779],[-120.6949,36.278],[-120.6975,36.2827],[-120.7011,36.2841],[-120.702,36.2862],[-120.7054,36.2872],[-120.7077,36.2858],[-120.7161,36.2902],[-120.7169,36.2924],[-120.7226,36.2927],[-120.7256,36.2973],[-120.741,36.3058],[-120.7467,36.3102],[-120.7504,36.3102],[-120.7529,36.3078],[-120.7583,36.3082],[-120.7557,36.3053],[-120.751,36.3042],[-120.7431,36.2981],[-120.7383,36.2883],[-120.7338,36.2842],[-120.7321,36.2755],[-120.7248,36.2703],[-120.7243,36.2669],[-120.7215,36.2648],[-120.7194,36.2607],[-120.7177,36.26],[-120.7175,36.2547],[-120.7128,36.2462],[-120.7122,36.2413],[-120.711,36.2401],[-120.7119,36.2391],[-120.7094,36.2367],[-120.7071,36.2307],[-120.7069,36.22],[-120.7049,36.2103],[-120.7061,36.2037],[-120.7111,36.2008],[-120.7117,36.1985],[-120.7184,36.1968],[-120.7207,36.1984],[-120.7204,36.1996],[-120.7245,36.2013],[-120.7268,36.2012],[-120.7285,36.2027],[-120.7307,36.2016],[-120.7318,36.204],[-120.7358,36.2032],[-120.7438,36.1991],[-120.742,36.1986],[-120.7382,36.2004],[-120.7389,36.1959],[-120.7474,36.1954],[-120.7469,36.189],[-120.7487,36.1875],[-120.7593,36.1929],[-120.7689,36.1939],[-120.7748,36.1922],[-120.7828,36.1949],[-120.7848,36.1972],[-120.789,36.1989],[-120.795,36.2004],[-120.8006,36.1986],[-120.7988,36.1954],[-120.8016,36.1902],[-120.8038,36.1921],[-120.8065,36.1922],[-120.8115,36.1892],[-120.821,36.1873],[-120.8256,36.1852],[-120.8347,36.1878],[-120.8373,36.1896],[-120.8418,36.1891],[-120.8471,36.1823],[-120.852,36.1695],[-120.8561,36.1659],[-120.8857,36.1654],[-120.9038,36.1608],[-120.9143,36.1547],[-120.9326,36.1503],[-120.9643,36.1487],[-120.9816,36.1584],[-120.99,36.1576],[-121.0061,36.1469],[-121.0113,36.1404],[-121.0118,36.1315],[-121.0162,36.126],[-121.0231,36.1223],[-121.0255,36.1183],[-121.0299,36.116],[-121.0317,36.1116],[-121.0332,36.1107],[-121.0379,36.1124],[-121.0501,36.107],[-121.059,36.1118],[-121.0644,36.113],[-121.0724,36.1109],[-121.0983,36.1111],[-121.1142,36.115],[-121.1201,36.1141],[-121.1287,36.1151],[-121.1307,36.1111],[-121.1432,36.1026],[-121.1601,36.0971],[-121.1691,36.0913],[-121.1785,36.0812],[-121.1797,36.0736],[-121.1844,36.0677],[-121.1848,36.0617],[-121.1818,36.0538],[-121.1823,36.049],[-121.2046,36.0552],[-121.2051,36.06],[-121.214,36.0602],[-121.2141,36.0638],[-121.2228,36.0639],[-121.2234,36.0709],[-121.2277,36.0709],[-121.229,36.0818],[-121.2336,36.0817],[-121.2333,36.0853],[-121.2287,36.0855],[-121.2298,36.1003],[-121.2339,36.1004],[-121.2341,36.1072],[-121.2387,36.1073],[-121.2385,36.1145],[-121.2519,36.1147],[-121.252,36.1111],[-121.2559,36.1111],[-121.2561,36.1039],[-121.2519,36.1035],[-121.252,36.1003],[-121.256,36.1003],[-121.2561,36.0961],[-121.277,36.0958],[-121.2772,36.093],[-121.2817,36.0924],[-121.2941,36.0952],[-121.3745,36.1034],[-121.3746,36.105],[-121.3878,36.105],[-121.3879,36.1088],[-121.4101,36.1087],[-121.4101,36.1062],[-121.4147,36.1024],[-121.4142,36.0975],[-121.398,36.0911],[-121.3969,36.0867],[-121.3976,36.0834],[-121.4007,36.084],[-121.4055,36.0875],[-121.4128,36.089],[-121.4243,36.0957],[-121.4272,36.0992],[-121.4323,36.1005],[-121.4353,36.1028],[-121.4375,36.1026],[-121.4394,36.0992],[-121.4448,36.0999],[-121.4607,36.1097],[-121.4617,36.1122],[-121.5951,36.1113],[-121.5952,36.102],[-121.5953,36.0967]]]},"properties":{"GEOID":"0605392750","NAME":"San Ardo","COUNTY":"053"}},{"type":"Feature","geometry":{"type":"Polygon","coordinates":[[[-121.7567,36.6669],[-121.7345,36.6563],[-121.7273,36.6543],[-121.7249,36.6517],[-121.7265,36.6485],[-121.7253,36.6466],[-121.7192,36.6462],[-121.714,36.6416],[-121.709,36.6418],[-121.7084,36.6395],[-121.71,36.6361],[-121.7208,36.6313],[-121.7128,36.6291],[-121.7135,36.6284],[-121.709,36.625],[-121.7028,36.6265],[-121.7025,36.6302],[-121.698,36.633],[-121.6928,36.6311],[-121.6883,36.6272],[-121.6881,36.6296],[-121.6724,36.6303],[-121.6679,36.6283],[-121.66,36.6188],[-121.649,36.6107],[-121.6433,36.6108],[-121.6352,36.607],[-121.6296,36.6026],[-121.621,36.6047],[-121.6099,36.6136],[-121.6053,36.6155],[-121.5953,36.6105],[-121.5811,36.611],[-121.572,36.6049],[-121.5616,36.601],[-121.5604,36.5981],[-121.5664,36.5935],[-121.5804,36.5898],[-121.5793,36.5794],[-121.546,36.5959],[-121.5572,36.6055],[-121.5289,36.6247],[-121.5309,36.6268],[-121.5086,36.6201],[-121.4978,36.6262],[-121.4781,36.6322],[-121.4716,36.6389],[-121.4691,36.6447],[-121.462,36.6476],[-121.4518,36.6539],[-121.4387,36.6577],[-121.4277,36.6557],[-121.4186,36.6558],[-121.4134,36.654],[-121.407,36.656],[-121.4093,36.6583],[-121.4092,36.6612],[-121.4155,36.6731],[-121.4239,36.6743],[-121.4316,36.6787],[-121.4443,36.6731],[-121.4461,36.6738],[-121.4495,36.6788],[-121.4571,36.6821],[-121.459,36.6857],[-121.461,36.6867],[-121.4654,36.6847],[-121.469,36.6854],[-121.4687,36.6895],[-121.4716,36.6923],[-121.4728,36.6969],[-121.4757,36.6982],[-121.4749,36.6991],[-121.4767,36.7],[-121.4775,36.703],[-121.4817,36.7046],[-121.4805,36.7065],[-121.4823,36.7096],[-121.4836,36.7092],[-121.4841,36.7143],[-121.4834,36.7155],[-121.4768,36.7153],[-121.4744,36.7167],[-121.466,36.7181],[-121.4613,36.7177],[-121.4559,36.7214],[-121.4531,36.7212],[-121.4531,36.723],[-121.4513,36.7248],[-121.4526,36.7292],[-121.4592,36.7343],[-121.4597,36.7355],[-121.4574,36.7368],[-121.4602,36.7373],[-121.46,36.7409],[-121.4624,36.7439],[-121.4658,36.7436],[-121.4668,36.7456],[-121.4717,36.7455],[-121.4742,36.7493],[-121.4757,36.7492],[-121.4767,36.7534],[-121.4744,36.7567],[-121.4772,36.7607],[-121.4793,36.7611],[-121.4815,36.7654],[-121.4912,36.7627],[-121.4926,36.7633],[-121.4974,36.7604],[-121.5024,36.7602],[-121.504,36.7572],[-121.5977,36.8373],[-121.6221,36.8462],[-121.6301,36.857],[-121.6343,36.8536],[-121.6362,36.8494],[-121.6305,36.8361],[-121.6283,36.8275],[-121.6309,36.8199],[-121.6402,36.8146],[-121.6514,36.8046],[-121.6632,36.8004],[-121.6667,36.7943],[-121.6695,36.7795],[-121.6689,36.7686],[-121.6572,36.7347],[-121.7046,36.7479],[-121.7229,36.748],[-121.7327,36.7425],[-121.7403,36.745],[-121.7354,36.7327],[-121.718,36.7141],[-121.731,36.7076],[-121.7352,36.7017],[-121.735,36.6787],[-121.7441,36.6784],[-121.74577306465156,36.67773855583543],[-121.74904605213422,36.67593719145598],[-121.7567,36.6669]],[[-121.687,36.66049],[-121.68591,36.6617],[-121.68372,36.66494],[-121.68281,36.66129],[-121.68087,36.66017],[-121.68163,36.65855],[-121.68027,36.6589],[-121.68128,36.6577],[-121.68408,36.65895],[-121.68666,36.65604],[-121.6842,36.65901],[-121.687,36.66049]],[[-121.6851,36.66681],[-121.67502,36.67852],[-121.67501,36.68239],[-121.67307,36.68413],[-121.67258,36.68495],[-121.67368,36.68535],[-121.67268,36.68757],[-121.66843,36.69332],[-121.6713,36.69431],[-121.67053,36.69599],[-121.67181,36.69717],[-121.67117,36.69816],[-121.66826,36.69822],[-121.6694,36.69854],[-121.66863,36.69971],[-121.66984,36.70014],[-121.66824,36.70261],[-121.67049,36.70339],[-121.66964,36.70471],[-121.67252,36.70431],[-121.66414,36.71041],[-121.66327,36.71299],[-121.66387,36.71455],[-121.66921,36.71931],[-121.665,36.72279],[-121.65794,36.72177],[-121.65854,36.72451],[-121.65619,36.73443],[-121.63212,36.72761],[-121.63036,36.73096],[-121.62611,36.72907],[-121.61596,36.72816],[-121.6202,36.72411],[-121.62143,36.72097],[-121.60999,36.72026],[-121.60933,36.72234],[-121.60148,36.71967],[-121.59288,36.71902],[-121.57393,36.6985],[-121.59664,36.68557],[-121.59057,36.67804],[-121.60057,36.67227],[-121.59291,36.66368],[-121.59758,36.6617],[-121.59828,36.6598],[-121.5994,36.65928],[-121.59767,36.65703],[-121.59935,36.65622],[-121.59777,36.65404],[-121.5983,36.65379],[-121.59513,36.65059],[-121.59557,36.64992],[-121.59661,36.65122],[-121.6126,36.65796],[-121.61453,36.65673],[-121.6184,36.65631],[-121.61853,36.65306],[-121.61673,36.64996],[-121.61925,36.65009],[-121.60864,36.64248],[-121.61065,36.63903],[-121.61454,36.64186],[-121.61646,36.63973],[-121.62883,36.64412],[-121.63416,36.6447],[-121.6335,36.64581],[-121.64046,36.64835],[-121.6381,36.6526],[-121.63867,36.6528],[-121.64296,36.65177],[-121.66021,36.65572],[-121.66201,36.65055],[-121.66276,36.65081],[-121.66197,36.65338],[-121.67542,36.6586],[-121.6733,36.66231],[-121.6851,36.66681]]]},"properties":{"GEOID":"0605392730","NAME":"Salinas","COUNTY":"053"}},{"type":"Feature","geometry":{"type":"Polygon","coordinates":[[[-121.5793,36.5794],[-121.5762,36.5755],[-121.5704,36.5754],[-121.5605,36.5789],[-121.5579,36.5807],[-121.5574,36.5838],[-121.5534,36.5853],[-121.5493,36.584],[-121.5447,36.58],[-121.5488,36.5682],[-121.5484,36.5556],[-121.5501,36.5564],[-121.5495,36.5511],[-121.541,36.5404],[-121.5412,36.535],[-121.5271,36.5277],[-121.5212,36.5215],[-121.5263,36.5168],[-121.5271,36.5124],[-121.5292,36.5101],[-121.5307,36.5101],[-121.5316,36.5075],[-121.5334,36.5076],[-121.536,36.5053],[-121.536,36.5068],[-121.5393,36.5027],[-121.5451,36.5004],[-121.5404,36.5043],[-121.5412,36.5056],[-121.5465,36.5019],[-121.5524,36.5012],[-121.5507,36.5007],[-121.5541,36.4996],[-121.5635,36.4995],[-121.5646,36.4979],[-121.5523,36.4885],[-121.5483,36.4873],[-121.5477,36.4818],[-121.5463,36.4809],[-121.5494,36.4801],[-121.5477,36.4793],[-121.5451,36.4748],[-121.5425,36.4751],[-121.5423,36.473],[-121.5406,36.4741],[-121.5367,36.4704],[-121.5338,36.4701],[-121.5319,36.466],[-121.5321,36.4619],[-121.5285,36.4532],[-121.5297,36.4417],[-121.5314,36.4418],[-121.5282,36.4416],[-121.5279,36.439],[-121.5298,36.4368],[-121.5246,36.4353],[-121.5186,36.4386],[-121.5142,36.4373],[-121.5134,36.4367],[-121.5149,36.4362],[-121.514,36.4355],[-121.5143,36.4325],[-121.5083,36.4259],[-121.5082,36.423],[-121.4993,36.4198],[-121.4959,36.421],[-121.4927,36.4263],[-121.4894,36.4288],[-121.492,36.4285],[-121.4947,36.4299],[-121.494,36.4315],[-121.4953,36.4323],[-121.4938,36.4354],[-121.4962,36.4353],[-121.4983,36.4331],[-121.4963,36.4391],[-121.4919,36.4406],[-121.4863,36.445],[-121.4739,36.4518],[-121.4744,36.453],[-121.473,36.4547],[-121.4615,36.4673],[-121.4617,36.4691],[-121.456,36.4633],[-121.4333,36.4472],[-121.4315,36.4449],[-121.4309,36.4383],[-121.4028,36.427],[-121.4017,36.4282],[-121.4058,36.4317],[-121.3786,36.4584],[-121.3598,36.4463],[-121.3496,36.4733],[-121.3499,36.48],[-121.3503,36.4816],[-121.3565,36.4817],[-121.3568,36.4889],[-121.3648,36.489],[-121.365,36.5107],[-121.355,36.5108],[-121.3499,36.513],[-121.3423,36.5139],[-121.3405,36.5172],[-121.3342,36.5199],[-121.3254,36.5262],[-121.3203,36.5278],[-121.3142,36.5261],[-121.3113,36.5268],[-121.3099,36.5287],[-121.3044,36.5294],[-121.3044,36.5304],[-121.3026,36.5305],[-121.3033,36.5333],[-121.3015,36.5355],[-121.3016,36.5392],[-121.3051,36.5407],[-121.3079,36.5433],[-121.3079,36.5456],[-121.31,36.5459],[-121.3135,36.5499],[-121.3165,36.5495],[-121.3206,36.5526],[-121.3287,36.5547],[-121.3298,36.558],[-121.3287,36.5611],[-121.332,36.5622],[-121.3306,36.5637],[-121.3316,36.5659],[-121.3311,36.57],[-121.3335,36.5717],[-121.3339,36.5744],[-121.3314,36.5762],[-121.3235,36.5776],[-121.3262,36.5806],[-121.3249,36.5825],[-121.3255,36.5839],[-121.3272,36.5842],[-121.3274,36.5859],[-121.3242,36.5884],[-121.3253,36.5925],[-121.3238,36.6024],[-121.3221,36.6041],[-121.3187,36.6049],[-121.3197,36.6065],[-121.3184,36.61],[-121.3231,36.6125],[-121.3303,36.62],[-121.3326,36.6206],[-121.3384,36.6284],[-121.3421,36.6314],[-121.3416,36.6333],[-121.3435,36.6354],[-121.3416,36.6383],[-121.3466,36.6432],[-121.3495,36.6433],[-121.3507,36.6462],[-121.3501,36.6484],[-121.353,36.6479],[-121.3532,36.6495],[-121.3564,36.6501],[-121.3662,36.6566],[-121.3734,36.6555],[-121.3783,36.6529],[-121.3807,36.654],[-121.3836,36.6533],[-121.39,36.6556],[-121.3939,36.6549],[-121.3966,36.6569],[-121.4019,36.6554],[-121.407,36.656],[-121.4134,36.654],[-121.4186,36.6558],[-121.4413,36.6573],[-121.4518,36.6539],[-121.462,36.6476],[-121.4691,36.6447],[-121.4716,36.6389],[-121.4781,36.6322],[-121.4978,36.6262],[-121.5086,36.6201],[-121.5309,36.6268],[-121.5289,36.6247],[-121.5572,36.6055],[-121.546,36.5959],[-121.5793,36.5794]],[[-121.48573,36.49263],[-121.48448,36.49343],[-121.48126,36.49637],[-121.47931,36.4948],[-121.47784,36.49569],[-121.47603,36.49326],[-121.47487,36.4936],[-121.47504,36.49141],[-121.4739,36.49128],[-121.47526,36.49081],[-121.4715,36.48906],[-121.47229,36.48723],[-121.4739,36.48741],[-121.47576,36.48881],[-121.48573,36.49263]],[[-121.45407,36.50881],[-121.44403,36.51623],[-121.44342,36.51574],[-121.44108,36.51805],[-121.4475,36.52142],[-121.45065,36.52424],[-121.44696,36.52716],[-121.4373,36.51761],[-121.43651,36.51814],[-121.43596,36.51761],[-121.43428,36.51549],[-121.43488,36.5152],[-121.43301,36.51173],[-121.43159,36.51093],[-121.42705,36.50498],[-121.42383,36.49796],[-121.4196,36.50037],[-121.41821,36.49931],[-121.41692,36.49665],[-121.42261,36.49535],[-121.42197,36.49378],[-121.42793,36.4918],[-121.44111,36.5025],[-121.44175,36.50201],[-121.44294,36.50277],[-121.44957,36.49836],[-121.45365,36.50235],[-121.44948,36.50501],[-121.45407,36.50881]],[[-121.39147,36.46704],[-121.36818,36.48892],[-121.36825,36.47431],[-121.36217,36.47423],[-121.37841,36.45849],[-121.39147,36.46704]]]},"properties":{"GEOID":"0605391130","NAME":"Gonzales","COUNTY":"053"}}]}