{"type":"FeatureCollection","features":[{"type":"Feature","geometry":{"type":"Polygon","coordinates":[[[-122.5349,38.6184],[-122.5338,38.615],[-122.5228,38.6178],[-122.5033,38.6097],[-122.5019,38.6016],[-122.5044,38.5851],[-122.5098,38.5803],[-122.5196,38.5769],[-122.5209,38.5695],[-122.5195,38.5667],[-122.5107,38.5611],[-122.5109,38.5594],[-122.499,38.5535],[-122.4972,38.5506],[-122.4909,38.5475],[-122.4894,38.5389],[-122.4908,38.5303],[-122.4884,38.5284],[-122.485,38.5282],[-122.4813,38.5248],[-122.4841,38.5211],[-122.4813,38.523],[-122.4761,38.5221],[-122.47501199203187,38.521374661354585],[-122.47306,38.52087],[-122.47139570850203,38.518963805668015],[-122.4713,38.5189],[-122.47119286956521,38.518895130434785],[-122.46711,38.51876],[-122.46704389578164,38.518706540717346],[-122.4669,38.5187],[-122.46180825087532,38.5144895151469],[-122.460165860735,38.51445290135396],[-122.4588,38.5145],[-122.45878492571192,38.51442211617829],[-122.45869,38.51442],[-122.45819,38.51144],[-122.45695,38.51123333333334],[-122.4567,38.5112],[-122.45616711191336,38.5116042599278],[-122.45385,38.51344],[-122.44949636471284,38.51314180580225],[-122.44948702669903,38.51324919296116],[-122.44993,38.51609],[-122.44924,38.51609],[-122.4489,38.52],[-122.44886102304515,38.519999589716264],[-122.44886,38.52004],[-122.4441052356021,38.51994952879581],[-122.4394,38.5199],[-122.43940171288891,38.519860032591964],[-122.4394,38.51986],[-122.43968,38.51293],[-122.43969882855801,38.512927333646466],[-122.4397,38.5129],[-122.44213059322034,38.5125829661017],[-122.44427,38.51228],[-122.44516703797468,38.51008724050633],[-122.44426295454545,38.50973727272727],[-122.4421,38.50892],[-122.44215792423985,38.508922422286396],[-122.4421,38.5089],[-122.44228487394957,38.508927731092434],[-122.4476,38.50915],[-122.44959406175772,38.51002410926366],[-122.4520514661274,38.51039271991911],[-122.45207098300332,38.51038401962502],[-122.44297345203906,38.50537378518093],[-122.44138,38.50541],[-122.43829,38.50282],[-122.43811813990462,38.502755643879176],[-122.4342,38.5018],[-122.4322,38.4982],[-122.4281,38.4974],[-122.4258,38.4951],[-122.4244,38.4971],[-122.4188,38.4931],[-122.4044,38.4869],[-122.4027,38.4879],[-122.3979,38.4867],[-122.3918,38.4875],[-122.3767,38.4806],[-122.3724,38.4802],[-122.3721,38.479],[-122.3702,38.4811],[-122.3664,38.4806],[-122.3558,38.4829],[-122.3532,38.4873],[-122.342,38.4926],[-122.3364,38.4924],[-122.3289,38.4899],[-122.3224,38.49],[-122.3152,38.4869],[-122.3094,38.4879],[-122.3016,38.4865],[-122.2988,38.4868],[-122.2938,38.493],[-122.2926,38.4974],[-122.2966,38.5026],[-122.2964,38.5044],[-122.3013,38.5077],[-122.3045,38.5128],[-122.3082,38.5133],[-122.3121,38.5163],[-122.3199,38.5273],[-122.337,38.5354],[-122.338,38.5398],[-122.3482,38.5432],[-122.3622,38.5544],[-122.3714,38.5572],[-122.3736,38.5598],[-122.3817,38.5632],[-122.3967,38.5725],[-122.4006,38.5882],[-122.3975,38.5916],[-122.3997,38.5962],[-122.4038,38.5975],[-122.4029,38.6],[-122.4043,38.6028],[-122.4094,38.6061],[-122.4174,38.6174],[-122.4215,38.6178],[-122.4306,38.6152],[-122.4408,38.6235],[-122.4445,38.6246],[-122.4533,38.6369],[-122.4538,38.6404],[-122.4568,38.6428],[-122.4582,38.65],[-122.4629,38.651],[-122.4655,38.6544],[-122.4716,38.6545],[-122.4811,38.6508],[-122.4864,38.6458],[-122.4897,38.6387],[-122.4985,38.6335],[-122.5068,38.6339],[-122.5147,38.6312],[-122.5236,38.631],[-122.5305,38.6286],[-122.5349,38.6184]],[[-122.49015,38.55879],[-122.47996,38.55875],[-122.47995,38.55606],[-122.48094,38.55588],[-122.48093,38.55363],[-122.48534,38.55361],[-122.48532,38.55515],[-122.49007,38.55515],[-122.49015,38.55879]]]},"properties":{"GEOID":"0605590070","NAME":"Angwin","COUNTY":"055"}},{"type":"Feature","geometry":{"type":"MultiPolygon","coordinates":[[[[-122.4724,38.4056],[-122.4706,38.4049],[-122.471,38.4025],[-122.468,38.4002],[-122.4703,38.3968],[-122.4658,38.3902],[-122.457,38.3867],[-122.4544,38.385],[-122.4541,38.3822],[-122.4481,38.3794],[-122.449,38.3752],[-122.4536,38.3741],[-122.4569,38.3707],[-122.4573,38.3677],[-122.4545,38.3658],[-122.4525,38.3624],[-122.447,38.3591],[-122.4395,38.3581],[-122.4367,38.3551],[-122.4309,38.3524],[-122.4293,38.3495],[-122.4268,38.349],[-122.4276,38.3457],[-122.4252,38.3456],[-122.4199,38.3383],[-122.4175,38.3398],[-122.4176,38.3376],[-122.412,38.3343],[-122.4139,38.3308],[-122.4096,38.3257],[-122.4087,38.32],[-122.4054,38.322],[-122.4016,38.3138],[-122.3963,38.3091],[-122.3947,38.3046],[-122.4003,38.3032],[-122.4038,38.2998],[-122.4017,38.2953],[-122.4017,38.2907],[-122.4002,38.2897],[-122.4017,38.2883],[-122.4023,38.2843],[-122.4047,38.2817],[-122.4004,38.2745],[-122.3964,38.2712],[-122.3934,38.2737],[-122.3876,38.2738],[-122.3898,38.2608],[-122.3843,38.2545],[-122.3809,38.2529],[-122.3768,38.2485],[-122.373,38.2472],[-122.3739,38.2439],[-122.3707,38.2443],[-122.3692,38.2474],[-122.3653,38.246],[-122.3634,38.239],[-122.3656,38.2357],[-122.3637,38.2312],[-122.3636,38.2276],[-122.3654,38.2262],[-122.3645,38.2236],[-122.3654,38.2229],[-122.3636,38.2195],[-122.3642,38.2153],[-122.3627,38.2148],[-122.3631,38.2132],[-122.361,38.2114],[-122.3615,38.21],[-122.3574,38.2087],[-122.3504,38.2012],[-122.3509,38.1969],[-122.3496,38.194],[-122.3506,38.1927],[-122.356,38.1972],[-122.3591,38.1976],[-122.3608,38.1962],[-122.3571,38.1906],[-122.3579,38.1826],[-122.3596,38.1818],[-122.3668,38.1838],[-122.369,38.1819],[-122.3695,38.1745],[-122.3656,38.166],[-122.3676,38.1588],[-122.3726,38.1577],[-122.3848,38.161],[-122.3968,38.1615],[-122.4061,38.1594],[-122.4075,38.1578],[-122.4068,38.1556],[-122.1954,38.155],[-122.1988,38.1593],[-122.194,38.1651],[-122.1953,38.1673],[-122.1981,38.1686],[-122.2034,38.1688],[-122.2033,38.1726],[-122.209,38.1729],[-122.2151,38.1797],[-122.2135,38.1811],[-122.213,38.1843],[-122.2152,38.1888],[-122.2093,38.1901],[-122.2116,38.192],[-122.2057,38.1963],[-122.2045,38.2054],[-122.1995,38.2107],[-122.1939,38.2137],[-122.1963,38.2181],[-122.1959,38.2196],[-122.1932,38.2213],[-122.193,38.2231],[-122.2015,38.2401],[-122.2041,38.2411],[-122.2051,38.2441],[-122.209,38.2446],[-122.2122,38.2488],[-122.2119,38.2508],[-122.2113,38.2528],[-122.2015,38.2489],[-122.1996,38.2512],[-122.1946,38.2518],[-122.1948,38.2552],[-122.1933,38.2564],[-122.1973,38.2589],[-122.2033,38.2598],[-122.2043,38.2588],[-122.2131,38.2592],[-122.2166,38.2625],[-122.2166,38.2647],[-122.2121,38.2731],[-122.2098,38.2717],[-122.1974,38.273],[-122.1943,38.2709],[-122.1882,38.2717],[-122.1911,38.2759],[-122.1901,38.2775],[-122.1981,38.2849],[-122.2013,38.2899],[-122.2013,38.2928],[-122.2034,38.2934],[-122.1988,38.3012],[-122.2026,38.3042],[-122.2008,38.3096],[-122.2045,38.3116],[-122.2061,38.3158],[-122.0648,38.3159],[-122.068,38.3186],[-122.0652,38.3235],[-122.0622,38.3252],[-122.0614,38.327],[-122.0624,38.332],[-122.0657,38.3343],[-122.0698,38.3428],[-122.0709,38.3484],[-122.0696,38.3509],[-122.0733,38.3569],[-122.0736,38.3615],[-122.0777,38.3638],[-122.0891,38.3846],[-122.1095,38.4045],[-122.1097,38.4074],[-122.1151,38.4123],[-122.1147,38.414],[-122.1177,38.414],[-122.1199,38.4184],[-122.1252,38.4242],[-122.1261,38.4275],[-122.1266,38.4355],[-122.1232,38.4496],[-122.1131,38.4751],[-122.109,38.482],[-122.1083,38.4863],[-122.1047,38.4909],[-122.1072,38.4945],[-122.1056,38.5012],[-122.1063,38.5083],[-122.1038,38.5102],[-122.1036,38.5122],[-122.1086,38.5116],[-122.1121,38.5092],[-122.1132,38.5075],[-122.1113,38.5056],[-122.1149,38.5051],[-122.1188,38.502],[-122.1257,38.4928],[-122.1269,38.489],[-122.1337,38.4826],[-122.1365,38.4772],[-122.1402,38.4771],[-122.1434,38.4752],[-122.1418,38.4697],[-122.1461,38.4698],[-122.1477,38.4658],[-122.1525,38.4668],[-122.1521,38.441],[-122.1539,38.4374],[-122.1531,38.4333],[-122.1563,38.4301],[-122.1635,38.4355],[-122.1711,38.4361],[-122.1744,38.4377],[-122.1788,38.4372],[-122.1938,38.4431],[-122.1973,38.447],[-122.2027,38.4498],[-122.2045,38.4527],[-122.2091,38.4544],[-122.2234,38.4638],[-122.2272,38.4712],[-122.2349,38.4757],[-122.238,38.4809],[-122.2447,38.486],[-122.2471,38.4917],[-122.247,38.4945],[-122.2542,38.4973],[-122.2575,38.5011],[-122.272,38.5088],[-122.2764,38.5075],[-122.278,38.5054],[-122.2838,38.5051],[-122.2881,38.5028],[-122.2953,38.5046],[-122.2967,38.5027],[-122.2926,38.4968],[-122.2938,38.493],[-122.2989,38.4868],[-122.3094,38.4879],[-122.3152,38.4869],[-122.3224,38.49],[-122.3289,38.4899],[-122.3364,38.4924],[-122.342,38.4926],[-122.3532,38.4873],[-122.3558,38.4829],[-122.3664,38.4806],[-122.3702,38.4811],[-122.3719,38.4789],[-122.3724,38.4802],[-122.3767,38.4806],[-122.3918,38.4875],[-122.4042,38.4873],[-122.3985,38.4822],[-122.3897,38.4774],[-122.3744,38.4639],[-122.365,38.4579],[-122.3604,38.4501],[-122.3535,38.4451],[-122.3514,38.4396],[-122.3458,38.4315],[-122.3412,38.4276],[-122.3518,38.4183],[-122.3604,38.422],[-122.37,38.4212],[-122.3793,38.4267],[-122.3903,38.4225],[-122.4005,38.4342],[-122.4148,38.4218],[-122.4273,38.4216],[-122.4254,38.4165],[-122.427,38.4116],[-122.4288,38.4112],[-122.4292,38.4083],[-122.441,38.4064],[-122.4512,38.4111],[-122.4551,38.4097],[-122.4563,38.4081],[-122.4591,38.4092],[-122.4633,38.4082],[-122.47,38.4088],[-122.4721,38.4074],[-122.4712,38.4066],[-122.4724,38.4056]],[[-122.38698,38.39466],[-122.37652,38.39462],[-122.3675,38.39849],[-122.36505,38.39525],[-122.36037,38.39736],[-122.36259,38.40021],[-122.36923,38.4055],[-122.36806,38.40648],[-122.37021,38.40825],[-122.36666,38.41029],[-122.36745,38.41154],[-122.36513,38.41339],[-122.35024,38.39985],[-122.35598,38.39528],[-122.35389,38.39301],[-122.3701,38.38578],[-122.37421,38.39117],[-122.37538,38.39066],[-122.37794,38.38717],[-122.37797,38.3821],[-122.3819,38.37988],[-122.38222,38.39107],[-122.38683,38.39104],[-122.38698,38.39466]],[[-122.35879,38.29935],[-122.35818,38.3028],[-122.35736,38.30748],[-122.35034,38.3093],[-122.34896,38.31059],[-122.35026,38.31082],[-122.34983,38.31149],[-122.35062,38.31208],[-122.35008,38.31249],[-122.35065,38.3134],[-122.34921,38.31351],[-122.3506,38.31528],[-122.34955,38.31662],[-122.3468,38.3169],[-122.34482,38.31808],[-122.34588,38.31656],[-122.34483,38.31561],[-122.34357,38.31563],[-122.34392,38.317],[-122.34243,38.31559],[-122.34107,38.31573],[-122.34086,38.31657],[-122.33934,38.31649],[-122.33895,38.31523],[-122.33819,38.31597],[-122.33792,38.31397],[-122.33544,38.31335],[-122.33297,38.31369],[-122.33304,38.31482],[-122.33215,38.31547],[-122.3329,38.31656],[-122.33205,38.31692],[-122.33202,38.31607],[-122.32992,38.31521],[-122.33033,38.31726],[-122.32716,38.31787],[-122.33116,38.32188],[-122.33673,38.31862],[-122.33931,38.32138],[-122.33704,38.32271],[-122.33921,38.32562],[-122.34339,38.32325],[-122.34471,38.32497],[-122.3487,38.32276],[-122.34769,38.32369],[-122.34906,38.32548],[-122.33793,38.32895],[-122.33881,38.32984],[-122.32773,38.33615],[-122.33431,38.34346],[-122.33307,38.3439],[-122.3343,38.34542],[-122.3311,38.34647],[-122.33497,38.34951],[-122.3306,38.35088],[-122.32545,38.34227],[-122.32101,38.34371],[-122.32264,38.3468],[-122.31889,38.34801],[-122.31852,38.34741],[-122.31617,38.34868],[-122.31361,38.34531],[-122.31237,38.34598],[-122.31141,38.34473],[-122.31249,38.34413],[-122.31067,38.3418],[-122.30938,38.34243],[-122.30399,38.33545],[-122.30266,38.3362],[-122.30037,38.33329],[-122.29863,38.33425],[-122.29786,38.33334],[-122.29644,38.33405],[-122.29716,38.33492],[-122.29498,38.33553],[-122.2944,38.33643],[-122.29009,38.32904],[-122.28885,38.32475],[-122.28421,38.32529],[-122.28158,38.31862],[-122.27774,38.31653],[-122.27553,38.31696],[-122.27526,38.31971],[-122.27199,38.32069],[-122.27255,38.3219],[-122.2717,38.32298],[-122.27021,38.32192],[-122.26908,38.32265],[-122.26509,38.32288],[-122.265,38.31909],[-122.2699,38.31878],[-122.26972,38.31741],[-122.2707,38.31708],[-122.27087,38.31881],[-122.27327,38.31889],[-122.27387,38.31746],[-122.27315,38.31696],[-122.27437,38.3164],[-122.27448,38.31496],[-122.27226,38.31527],[-122.2723,38.31592],[-122.27048,38.31544],[-122.26954,38.31227],[-122.27089,38.31115],[-122.26633,38.31175],[-122.26583,38.31112],[-122.26757,38.31066],[-122.26667,38.30798],[-122.2643,38.30634],[-122.26265,38.30707],[-122.26238,38.30806],[-122.25963,38.30736],[-122.25912,38.3044],[-122.25813,38.30448],[-122.25765,38.30356],[-122.25819,38.30267],[-122.26122,38.30207],[-122.25989,38.30184],[-122.26187,38.29718],[-122.26122,38.29638],[-122.25694,38.29526],[-122.2581,38.29253],[-122.26335,38.29393],[-122.26335,38.29073],[-122.26407,38.29077],[-122.26407,38.28942],[-122.25598,38.28811],[-122.25493,38.28705],[-122.2558,38.2843],[-122.25491,38.28431],[-122.25496,38.2815],[-122.25584,38.2815],[-122.25584,38.27977],[-122.25993,38.2798],[-122.26004,38.2811],[-122.26167,38.28117],[-122.26147,38.2805],[-122.26259,38.2799],[-122.26505,38.28],[-122.26504,38.28235],[-122.26459,38.28369],[-122.26364,38.28346],[-122.26366,38.28455],[-122.26645,38.2846],[-122.26647,38.28558],[-122.26795,38.28556],[-122.26795,38.28348],[-122.26667,38.28348],[-122.26595,38.28128],[-122.26858,38.28205],[-122.26859,38.28439],[-122.26957,38.28439],[-122.26956,38.28269],[-122.27049255421687,38.282265108433734],[-122.27035,38.28198],[-122.27048,38.28209],[-122.27049816344726,38.28226255274888],[-122.27125,38.28192],[-122.26858,38.28122],[-122.26868,38.28019],[-122.26702,38.28057],[-122.26704,38.28006],[-122.27423,38.28051],[-122.27077,38.26396],[-122.27164,38.25447],[-122.27078,38.25029],[-122.27121,38.24441],[-122.27291,38.24391],[-122.27711,38.24508],[-122.27729,38.24365],[-122.27891,38.24361],[-122.28312,38.24454],[-122.28423,38.24458],[-122.28444,38.24387],[-122.28611,38.24429],[-122.28891,38.23316],[-122.29687,38.23173],[-122.30401,38.22747],[-122.30503,38.2293],[-122.30351,38.232],[-122.3073,38.23566],[-122.30603,38.23646],[-122.30829,38.2387],[-122.30333,38.24156],[-122.30763,38.24582],[-122.30341,38.24833],[-122.3057,38.24897],[-122.30679,38.25975],[-122.30266,38.26069],[-122.29464,38.25131],[-122.28962,38.24903],[-122.2881,38.24646],[-122.28548,38.24634],[-122.28414,38.24527],[-122.28439,38.25367],[-122.28306,38.25608],[-122.28345,38.25663],[-122.28238,38.2574],[-122.27888,38.2574],[-122.27907,38.25963],[-122.27094,38.26353],[-122.27331,38.26288],[-122.27775,38.26347],[-122.27869,38.26094],[-122.28144,38.25942],[-122.28341,38.2572],[-122.28349,38.25801],[-122.28723,38.2606],[-122.28688,38.26247],[-122.28508,38.26488],[-122.28628,38.2666],[-122.28745,38.2712],[-122.28658,38.27277],[-122.28393,38.27458],[-122.30099,38.27465],[-122.30131,38.27759],[-122.30246,38.27769],[-122.30588,38.2777],[-122.30577,38.27477],[-122.31054,38.27468],[-122.31054,38.27787],[-122.30588,38.27783],[-122.30709,38.278],[-122.30776,38.28191],[-122.31974,38.28196],[-122.31633,38.2874],[-122.31233,38.28777],[-122.31157,38.29122],[-122.31376,38.29124],[-122.31217,38.29191],[-122.31232,38.2926],[-122.31336,38.2926],[-122.31292,38.29328],[-122.3165,38.29296],[-122.31836,38.29396],[-122.31894,38.29288],[-122.32085,38.29352],[-122.3203,38.29456],[-122.32406,38.29701],[-122.32355,38.29932],[-122.32428,38.30189],[-122.33085,38.30206],[-122.33119,38.30358],[-122.33428,38.30413],[-122.33556,38.30354],[-122.33642,38.30432],[-122.33298,38.29162],[-122.35879,38.29935]],[[-122.34806,38.31794],[-122.34729,38.31741],[-122.34781,38.3177],[-122.34806,38.31794]],[[-122.31055,38.26984],[-122.3105,38.27285],[-122.30885,38.27279],[-122.30886,38.27205],[-122.30691,38.27122],[-122.30689,38.27287],[-122.30578,38.27289],[-122.30581,38.27064],[-122.30689,38.27068],[-122.3069,38.2692],[-122.31054,38.26883],[-122.31055,38.26984]],[[-122.30733,38.27346],[-122.30676,38.27454],[-122.30578,38.27455],[-122.30578,38.27345],[-122.30733,38.27346]],[[-122.28636,38.32786],[-122.28573,38.32873],[-122.28613,38.3295],[-122.28225,38.33142],[-122.28237,38.33018],[-122.28355,38.32936],[-122.28307,38.32734],[-122.28457,38.32582],[-122.28425,38.32534],[-122.28538,38.3255],[-122.28513,38.32625],[-122.28636,38.32786]],[[-122.28391,38.19705],[-122.28386,38.20186],[-122.28084,38.202],[-122.2805,38.2055],[-122.26526,38.20832],[-122.26282,38.20471],[-122.25628,38.20764],[-122.25622,38.20637],[-122.25784,38.20635],[-122.25784,38.20575],[-122.25715,38.20576],[-122.2572,38.20454],[-122.25603,38.20455],[-122.25603,38.19517],[-122.255,38.19512],[-122.25491,38.19368],[-122.2528,38.19073],[-122.25487,38.19074],[-122.25485,38.18903],[-122.25173,38.18846],[-122.25067,38.18674],[-122.24943,38.19189],[-122.24886,38.1929],[-122.24707,38.19289],[-122.24706,38.19349],[-122.24342,38.19069],[-122.24102,38.17944],[-122.24266,38.17573],[-122.2399,38.17795],[-122.23866,38.17272],[-122.24184,38.17143],[-122.24129,38.16896],[-122.23686,38.16892],[-122.23468,38.16672],[-122.23164,38.16662],[-122.23193,38.16398],[-122.23286,38.16405],[-122.2346,38.16078],[-122.23443,38.16023],[-122.23077,38.16113],[-122.23119,38.15968],[-122.23023,38.15605],[-122.23201,38.15517],[-122.26474,38.15539],[-122.26472,38.16077],[-122.26687,38.16113],[-122.26803,38.16401],[-122.27917,38.16414],[-122.27918,38.16694],[-122.26956,38.16623],[-122.27188,38.18124],[-122.27682,38.18113],[-122.27673,38.18417],[-122.28232,38.18428],[-122.28169,38.18616],[-122.27865,38.18907],[-122.27853,38.19701],[-122.28391,38.19705]],[[-122.27786,38.32747],[-122.27557,38.32656],[-122.27526,38.32536],[-122.27692,38.32511],[-122.27786,38.32747]],[[-122.26956,38.28152],[-122.26956,38.28166],[-122.26908,38.28153],[-122.26956,38.28152]],[[-122.26735,38.21162],[-122.2634,38.21157],[-122.26333,38.20867],[-122.26543,38.2087],[-122.26735,38.21162]],[[-122.22773,38.22163],[-122.22773,38.2254],[-122.2263,38.22568],[-122.22227,38.22572],[-122.22227,38.22173],[-122.22354,38.22104],[-122.22628,38.22165],[-122.22773,38.22163]]],[[[-122.31784,38.31791],[-122.3176,38.31703],[-122.31528,38.31745],[-122.31498,38.31642],[-122.31651,38.31539],[-122.31592,38.31323],[-122.31358,38.31383],[-122.31438,38.31351],[-122.31413,38.31267],[-122.31249,38.31136],[-122.31136,38.31196],[-122.31175,38.31386],[-122.30933,38.31355],[-122.31,38.31507],[-122.30808,38.31575],[-122.3093,38.31744],[-122.30808,38.31744],[-122.30869,38.31878],[-122.31292,38.31856],[-122.31337,38.32012],[-122.31574,38.31934],[-122.3161,38.31998],[-122.31754,38.31973],[-122.31717,38.31839],[-122.31784,38.31791]],[[-122.31333,38.31282],[-122.31212,38.31304],[-122.31195,38.31248],[-122.31269,38.31198],[-122.31333,38.31282]]]]},"properties":{"GEOID":"0605592070","NAME":"Napa","COUNTY":"055"}},{"type":"Feature","geometry":{"type":"Polygon","coordinates":[[[-122.5695,38.5295],[-122.5664,38.5284],[-122.5666,38.5256],[-122.5638,38.5254],[-122.5624,38.5271],[-122.5577,38.5257],[-122.5542,38.5262],[-122.5512,38.5242],[-122.5505,38.522],[-122.5471,38.5226],[-122.5468,38.5212],[-122.5439,38.52],[-122.5432,38.518],[-122.5453,38.5167],[-122.5417,38.5133],[-122.55,38.5112],[-122.5472,38.5103],[-122.5455,38.5068],[-122.5427,38.5072],[-122.5407,38.5031],[-122.5353,38.5017],[-122.5378,38.4982],[-122.5426,38.4991],[-122.5449,38.4963],[-122.541,38.4921],[-122.5404,38.4887],[-122.538,38.4867],[-122.5364,38.4827],[-122.5313,38.4785],[-122.5296,38.4696],[-122.5201,38.4714],[-122.5159,38.4709],[-122.5058,38.4647],[-122.5079,38.4645],[-122.5097,38.4622],[-122.5085,38.4603],[-122.5096,38.4574],[-122.5039,38.4573],[-122.4979,38.4554],[-122.4936,38.4568],[-122.4922,38.4546],[-122.4881,38.4544],[-122.4798,38.4513],[-122.48,38.4492],[-122.4823,38.4477],[-122.4832,38.444],[-122.4858,38.4414],[-122.4859,38.4382],[-122.4917,38.4346],[-122.4939,38.4307],[-122.4934,38.4293],[-122.4979,38.4246],[-122.4755,38.4093],[-122.4761,38.4079],[-122.4742,38.4056],[-122.4723,38.4054],[-122.4712,38.4066],[-122.4721,38.4074],[-122.47,38.4088],[-122.4633,38.4082],[-122.4591,38.4092],[-122.4563,38.4081],[-122.4551,38.4097],[-122.4512,38.4111],[-122.441,38.4064],[-122.4292,38.4083],[-122.4288,38.4112],[-122.427,38.4116],[-122.4254,38.4165],[-122.4273,38.4216],[-122.4148,38.4218],[-122.4005,38.4342],[-122.3903,38.4225],[-122.3793,38.4267],[-122.37,38.4212],[-122.3604,38.422],[-122.3518,38.4183],[-122.3412,38.4276],[-122.3458,38.4315],[-122.3514,38.4396],[-122.3535,38.4451],[-122.3604,38.4501],[-122.3646,38.4575],[-122.3813,38.4693],[-122.3897,38.4774],[-122.3985,38.4822],[-122.4024,38.4862],[-122.4188,38.4931],[-122.4244,38.4971],[-122.4258,38.4951],[-122.4281,38.4974],[-122.4322,38.4982],[-122.4342,38.5018],[-122.43811813990462,38.502755643879176],[-122.43594,38.50194],[-122.44034,38.49866],[-122.44201,38.50101],[-122.45956,38.48801],[-122.46153,38.48969],[-122.46569,38.48677],[-122.47591,38.48648],[-122.48145,38.48787],[-122.4814,38.49466],[-122.49097,38.49462],[-122.49095,38.50432],[-122.48726,38.50402],[-122.48671,38.50627],[-122.48799,38.50689],[-122.49086,38.50663],[-122.49286,38.50773],[-122.4911,38.50887],[-122.49231,38.51104],[-122.49083,38.51048],[-122.4908,38.51255],[-122.49268,38.51398],[-122.48126,38.52299],[-122.47501199203187,38.521374661354585],[-122.4761,38.5221],[-122.4813,38.523],[-122.4841,38.5211],[-122.4813,38.5248],[-122.485,38.5282],[-122.4884,38.5284],[-122.4908,38.5303],[-122.4894,38.5389],[-122.4907,38.5472],[-122.5068,38.5578],[-122.5119,38.5573],[-122.5289,38.5476],[-122.5622,38.5381],[-122.5657,38.5363],[-122.5657,38.5319],[-122.5695,38.5295]]]},"properties":{"GEOID":"0605592710","NAME":"St. Helena","COUNTY":"055"}},{"type":"Feature","geometry":{"type":"Polygon","coordinates":[[[-122.4655,38.6544],[-122.4629,38.651],[-122.4582,38.65],[-122.4568,38.6428],[-122.4538,38.6404],[-122.4533,38.6369],[-122.4445,38.6246],[-122.4408,38.6235],[-122.4306,38.6152],[-122.4215,38.6178],[-122.4174,38.6174],[-122.4094,38.6061],[-122.4043,38.6028],[-122.4029,38.6],[-122.4038,38.5975],[-122.3997,38.5962],[-122.3975,38.5916],[-122.4006,38.5882],[-122.3967,38.5725],[-122.3817,38.5632],[-122.3736,38.5598],[-122.3714,38.5572],[-122.3622,38.5544],[-122.3482,38.5432],[-122.338,38.5398],[-122.337,38.5354],[-122.3199,38.5273],[-122.3121,38.5163],[-122.3082,38.5133],[-122.3045,38.5128],[-122.3013,38.5077],[-122.2961,38.5038],[-122.2938,38.5049],[-122.2881,38.5028],[-122.2838,38.5051],[-122.278,38.5054],[-122.276,38.5078],[-122.2715,38.5088],[-122.2575,38.5011],[-122.2542,38.4973],[-122.2475,38.4948],[-122.2447,38.486],[-122.238,38.4809],[-122.2349,38.4757],[-122.2272,38.4712],[-122.2231,38.4635],[-122.2091,38.4544],[-122.2048,38.4529],[-122.2027,38.4498],[-122.1973,38.447],[-122.1938,38.4431],[-122.1866,38.4395],[-122.1788,38.4372],[-122.1744,38.4377],[-122.1711,38.4361],[-122.1635,38.4355],[-122.1573,38.4302],[-122.1558,38.4303],[-122.1531,38.4333],[-122.1539,38.4374],[-122.1521,38.441],[-122.1525,38.4668],[-122.1477,38.4658],[-122.1461,38.4698],[-122.1418,38.4697],[-122.1434,38.4752],[-122.1402,38.4771],[-122.1365,38.4772],[-122.1337,38.4826],[-122.1269,38.489],[-122.1257,38.4928],[-122.1188,38.502],[-122.1149,38.5051],[-122.1113,38.5056],[-122.1132,38.5075],[-122.1121,38.5092],[-122.1086,38.5116],[-122.1036,38.5122],[-122.1046,38.5169],[-122.1096,38.5214],[-122.11,38.5241],[-122.1116,38.5241],[-122.113,38.5272],[-122.1132,38.5293],[-122.1116,38.5309],[-122.115,38.5339],[-122.1142,38.5394],[-122.1233,38.565],[-122.1213,38.5669],[-122.1216,38.5689],[-122.1268,38.5814],[-122.126,38.5838],[-122.127,38.5874],[-122.1316,38.5947],[-122.1344,38.6046],[-122.138,38.6103],[-122.14,38.6101],[-122.1417,38.6117],[-122.1437,38.6164],[-122.1494,38.6223],[-122.1484,38.6246],[-122.1494,38.6255],[-122.1558,38.6227],[-122.1595,38.6193],[-122.164,38.6179],[-122.1665,38.6197],[-122.1662,38.625],[-122.1687,38.6299],[-122.1608,38.6328],[-122.1592,38.6351],[-122.1642,38.6406],[-122.1634,38.6427],[-122.1603,38.644],[-122.1613,38.6476],[-122.1661,38.6552],[-122.1743,38.6589],[-122.1809,38.6572],[-122.1901,38.6635],[-122.1923,38.6669],[-122.1966,38.6698],[-122.2021,38.6777],[-122.1992,38.6805],[-122.198,38.6836],[-122.2006,38.687],[-122.2014,38.6907],[-122.2065,38.6958],[-122.2111,38.696],[-122.2105,38.6947],[-122.2127,38.6933],[-122.2184,38.6952],[-122.2222,38.6986],[-122.2229,38.7003],[-122.2215,38.7047],[-122.2236,38.7079],[-122.2246,38.716],[-122.2268,38.7196],[-122.2237,38.7223],[-122.2256,38.7257],[-122.2251,38.7274],[-122.2285,38.7296],[-122.229,38.7325],[-122.2331,38.7368],[-122.2321,38.7381],[-122.2341,38.7389],[-122.234,38.7404],[-122.2403,38.7433],[-122.2427,38.7497],[-122.2459,38.7511],[-122.2487,38.7551],[-122.2503,38.7667],[-122.2545,38.7816],[-122.2587,38.7864],[-122.2585,38.7895],[-122.2606,38.7909],[-122.2613,38.794],[-122.2644,38.7963],[-122.2658,38.8007],[-122.2697,38.8033],[-122.2734,38.8097],[-122.276,38.8194],[-122.2817,38.8259],[-122.2848,38.8354],[-122.2876,38.84],[-122.2953,38.8388],[-122.3017,38.8395],[-122.3029,38.8426],[-122.3154,38.8396],[-122.3187,38.8433],[-122.324,38.8463],[-122.3303,38.8423],[-122.3346,38.8438],[-122.3385,38.842],[-122.3422,38.8422],[-122.3477,38.8364],[-122.3507,38.8359],[-122.3727,38.8452],[-122.3762,38.849],[-122.3816,38.8502],[-122.3917,38.8582],[-122.3956,38.8643],[-122.4038,38.8558],[-122.4017,38.8562],[-122.3968,38.8509],[-122.3955,38.8479],[-122.394,38.8473],[-122.3944,38.8459],[-122.3909,38.8427],[-122.3896,38.8384],[-122.3851,38.8347],[-122.3817,38.8341],[-122.3794,38.8298],[-122.3754,38.8265],[-122.3768,38.8222],[-122.3736,38.817],[-122.3753,38.8139],[-122.3742,38.8118],[-122.3756,38.8081],[-122.3789,38.8055],[-122.3797,38.8022],[-122.3881,38.8033],[-122.3898,38.8025],[-122.3975,38.8049],[-122.4044,38.7986],[-122.4074,38.7939],[-122.4086,38.7882],[-122.4127,38.786],[-122.4079,38.7845],[-122.4086,38.7822],[-122.4073,38.7802],[-122.4088,38.7794],[-122.4093,38.7763],[-122.4031,38.773],[-122.4163,38.768],[-122.4645,38.7061],[-122.461,38.7026],[-122.4499,38.699],[-122.4451,38.6959],[-122.4446,38.6939],[-122.446,38.6918],[-122.4468,38.6853],[-122.4445,38.6795],[-122.4461,38.6761],[-122.4445,38.6729],[-122.4464,38.6702],[-122.4458,38.6675],[-122.4501,38.6601],[-122.4536,38.6586],[-122.4582,38.6584],[-122.4655,38.6544]]]},"properties":{"GEOID":"0605591515","NAME":"Lake Berryessa","COUNTY":"055"}},{"type":"Feature","geometry":{"type":"Polygon","coordinates":[[[-122.6466,38.5981],[-122.6452,38.5977],[-122.6399,38.59],[-122.635,38.5864],[-122.6346,38.5814],[-122.6302,38.5785],[-122.6319,38.5765],[-122.6309,38.5751],[-122.6326,38.5718],[-122.6318,38.5694],[-122.6267,38.5702],[-122.6227,38.5677],[-122.6204,38.5657],[-122.6208,38.5603],[-122.6143,38.5587],[-122.6111,38.5584],[-122.6081,38.5599],[-122.6032,38.5588],[-122.601,38.5559],[-122.5951,38.5551],[-122.5932,38.5535],[-122.5902,38.5538],[-122.5861,38.5515],[-122.5859,38.5494],[-122.5821,38.5494],[-122.5772,38.5423],[-122.574,38.5404],[-122.5725,38.536],[-122.5696,38.5331],[-122.5703,38.5301],[-122.5695,38.5295],[-122.5657,38.5319],[-122.5657,38.5363],[-122.5622,38.5381],[-122.5417,38.5433],[-122.5395,38.5452],[-122.5297,38.5473],[-122.5219,38.5509],[-122.5091,38.5581],[-122.5109,38.5594],[-122.5107,38.5611],[-122.5197,38.5668],[-122.5209,38.5695],[-122.5204,38.5745],[-122.5196,38.5769],[-122.5098,38.5803],[-122.5044,38.5851],[-122.5019,38.6038],[-122.5033,38.6097],[-122.5228,38.6178],[-122.5338,38.615],[-122.5349,38.6184],[-122.5312,38.6281],[-122.5236,38.631],[-122.5149,38.6311],[-122.5068,38.6339],[-122.4985,38.6335],[-122.4899,38.6385],[-122.4864,38.6458],[-122.4769,38.6531],[-122.4655,38.6544],[-122.4582,38.6584],[-122.4503,38.66],[-122.4458,38.6675],[-122.4464,38.6702],[-122.4445,38.6723],[-122.4461,38.6761],[-122.4445,38.6795],[-122.4468,38.6853],[-122.4449,38.6956],[-122.4499,38.699],[-122.461,38.7026],[-122.4645,38.7061],[-122.6335,38.6693],[-122.6285,38.669],[-122.6233,38.6644],[-122.6244,38.658],[-122.6231,38.6535],[-122.6239,38.6506],[-122.6269,38.6476],[-122.6273,38.6446],[-122.6329,38.6405],[-122.6341,38.6376],[-122.6319,38.632],[-122.6325,38.628],[-122.6293,38.6272],[-122.6283,38.623],[-122.6338,38.6199],[-122.6335,38.6162],[-122.6397,38.6117],[-122.6391,38.6092],[-122.6417,38.6049],[-122.6446,38.6029],[-122.6442,38.6016],[-122.6466,38.5981]],[[-122.60429,38.58366],[-122.59543,38.59045],[-122.59718,38.59211],[-122.59817,38.59162],[-122.59828,38.59398],[-122.59768,38.59437],[-122.59438,38.59113],[-122.58338,38.59807],[-122.57741,38.58903],[-122.57045,38.58521],[-122.56415,38.58612],[-122.5611,38.58536],[-122.56662,38.57536],[-122.55476,38.5703],[-122.55516,38.56877],[-122.55737,38.56925],[-122.56006,38.57209],[-122.56297,38.57268],[-122.56418,38.57403],[-122.56682,38.57499],[-122.57105,38.56734],[-122.59027,38.57399],[-122.60022,38.57854],[-122.60427,38.58083],[-122.60429,38.58366]]]},"properties":{"GEOID":"0605590340","NAME":"Calistoga","COUNTY":"055"}}]}