{"type":"FeatureCollection","features":[{"type":"Feature","geometry":{"type":"Polygon","coordinates":[[[-120.7171,39.489],[-120.7137,39.4828],[-120.7094,39.4814],[-120.6968,39.4844],[-120.694,39.4881],[-120.6917,39.4887],[-120.6863,39.4874],[-120.6853,39.4859],[-120.6799,39.4852],[-120.6765,39.4825],[-120.6722,39.4832],[-120.6691,39.4816],[-120.6679,39.4788],[-120.6643,39.4791],[-120.6626,39.4757],[-120.6601,39.4756],[-120.6568,39.4719],[-120.6536,39.4645],[-120.6476,39.462],[-120.6456,39.4582],[-120.6425,39.4586],[-120.6444,39.4551],[-120.6562,39.4511],[-120.6604,39.4475],[-120.6619,39.4481],[-120.6598,39.4455],[-120.6568,39.4449],[-120.6602,39.4409],[-120.66,39.4376],[-120.6612,39.4355],[-120.6695,39.4294],[-120.6723,39.4228],[-120.6706,39.422],[-120.6693,39.4171],[-120.6679,39.417],[-120.6686,39.4141],[-120.6645,39.4131],[-120.6628,39.4099],[-120.6694,39.4056],[-120.6737,39.3977],[-120.6719,39.3946],[-120.6707,39.3949],[-120.6715,39.392],[-120.6697,39.3903],[-120.67,39.3866],[-120.6755,39.3828],[-120.6764,39.3802],[-120.6755,39.3779],[-120.6707,39.3788],[-120.6736,39.3781],[-120.6737,39.3752],[-120.6764,39.3703],[-120.6711,39.3707],[-120.6729,39.3634],[-120.6678,39.3585],[-120.6617,39.3566],[-120.6617,39.3539],[-120.6547,39.3462],[-120.6492,39.343],[-120.6568,39.3318],[-120.6569,39.3284],[-120.6558,39.3264],[-120.6546,39.3274],[-120.6542,39.3252],[-120.6589,39.3192],[-120.6567,39.3183],[-120.6568,39.3174],[-120.6618,39.3141],[-120.6651,39.3098],[-120.6626,39.3101],[-120.6588,39.3079],[-120.6487,39.3114],[-120.6458,39.3152],[-120.0063,39.3165],[-120.0061,39.3741],[-120.0038,39.4451],[-120.5054,39.4461],[-120.5077,39.4534],[-120.5101,39.4552],[-120.5177,39.455],[-120.5183,39.4572],[-120.5217,39.4569],[-120.522,39.459],[-120.5246,39.4587],[-120.5345,39.4644],[-120.5342,39.4837],[-120.5396,39.4867],[-120.5413,39.4909],[-120.5491,39.4945],[-120.5512,39.4992],[-120.5501,39.5016],[-120.5507,39.5036],[-120.5566,39.5068],[-120.5563,39.5139],[-120.5607,39.5162],[-120.5681,39.5159],[-120.5709,39.5194],[-120.5779,39.5233],[-120.5819,39.5229],[-120.5838,39.5215],[-120.5896,39.5235],[-120.5971,39.5206],[-120.5994,39.5221],[-120.6138,39.5206],[-120.6223,39.5215],[-120.6246,39.5195],[-120.627,39.5203],[-120.6276,39.5228],[-120.6301,39.5249],[-120.6337,39.5235],[-120.6372,39.5246],[-120.6411,39.523],[-120.6441,39.5239],[-120.6509,39.5234],[-120.655,39.5268],[-120.6575,39.526],[-120.6592,39.5237],[-120.6727,39.5207],[-120.677,39.5184],[-120.6793,39.5131],[-120.6829,39.5125],[-120.6831,39.5108],[-120.6859,39.5098],[-120.6864,39.5069],[-120.7008,39.5026],[-120.7032,39.4986],[-120.7065,39.496],[-120.7066,39.4931],[-120.7126,39.4891],[-120.7171,39.489]],[[-120.30159,39.31637],[-120.30119,39.32135],[-120.30094,39.32979],[-120.29964,39.3285],[-120.297,39.32831],[-120.29221,39.33142],[-120.28819,39.33187],[-120.27408,39.32792],[-120.25837,39.33203],[-120.25373,39.33183],[-120.25354,39.33712],[-120.25618,39.33706],[-120.25614,39.34026],[-120.25437,39.34028],[-120.25407,39.34269],[-120.27354,39.34253],[-120.27334,39.35816],[-120.25471,39.35868],[-120.25484,39.37397],[-120.23652,39.37414],[-120.23648,39.37087],[-120.23222,39.36863],[-120.22798,39.36853],[-120.22518,39.36528],[-120.22041,39.36312],[-120.2086,39.36453],[-120.20702,39.36401],[-120.20217,39.3664],[-120.19576,39.36755],[-120.18473,39.3671],[-120.18478,39.37],[-120.18279,39.37009],[-120.18167,39.37258],[-120.17092,39.37247],[-120.16312,39.36759],[-120.16092,39.36729],[-120.15843,39.36814],[-120.14934,39.37472],[-120.13776,39.37485],[-120.13775,39.36786],[-120.11622,39.36799],[-120.11674,39.37258],[-120.11331,39.37497],[-120.10016,39.38065],[-120.09476,39.38499],[-120.08586,39.38732],[-120.08542,39.36373],[-120.0815,39.36369],[-120.08155,39.36009],[-120.07789,39.35979],[-120.07746,39.34491],[-120.1046,39.34463],[-120.10425,39.34106],[-120.11577,39.34098],[-120.11577,39.34429],[-120.11757,39.3443],[-120.11771,39.33632],[-120.11823,39.33446],[-120.11931,39.33425],[-120.12006,39.33301],[-120.11964,39.33086],[-120.13143,39.33032],[-120.13067,39.32923],[-120.14318,39.32977],[-120.14331,39.32144],[-120.14999,39.3244],[-120.15056,39.32346],[-120.15933,39.32704],[-120.15949,39.32414],[-120.15155,39.32066],[-120.15236,39.31931],[-120.1469,39.31687],[-120.1463,39.31767],[-120.14365,39.31641],[-120.30159,39.31637]]]},"properties":{"GEOID":"0605790710","NAME":"Donner","COUNTY":"057"}},{"type":"Feature","geometry":{"type":"Polygon","coordinates":[[[-121.2096,39.2963],[-121.1921,39.287],[-121.1913,39.2812],[-121.1885,39.2786],[-121.1762,39.2768],[-121.1721,39.272],[-121.1612,39.2702],[-121.1653,39.2687],[-121.162,39.2687],[-121.161,39.2674],[-121.1615,39.2631],[-121.1642,39.2616],[-121.1638,39.2536],[-121.1621,39.2548],[-121.1592,39.2543],[-121.1536,39.2558],[-121.1499,39.2543],[-121.1448,39.2554],[-121.1166,39.2537],[-121.1119,39.2467],[-121.1028,39.245],[-121.102,39.2423],[-121.0999,39.2424],[-121.0992,39.2411],[-121.0962,39.2424],[-121.0939,39.2408],[-121.0909,39.2427],[-121.0896,39.2397],[-121.0845,39.2365],[-121.0755,39.2379],[-121.0675,39.2363],[-121.06582278670864,39.23648868649528],[-121.06558,39.24147],[-121.07244,39.24151],[-121.07476,39.24304],[-121.07427,39.24375],[-121.07131,39.24279],[-121.06559,39.2435],[-121.05713,39.24324],[-121.0556,39.24097],[-121.05638558070866,39.24046476377953],[-121.049,39.2442],[-121.0417,39.2464],[-121.0307,39.2469],[-121.02948054814814,39.247451656790126],[-121.02957,39.24813],[-121.03088,39.24812],[-121.03047,39.25029],[-121.03327,39.25145],[-121.03717,39.25498],[-121.03801,39.2589],[-121.03288,39.26022],[-121.03286,39.2618],[-121.03016,39.26222],[-121.03053,39.2647],[-121.03143,39.2655],[-121.03293,39.26444],[-121.03847,39.26446],[-121.03936,39.26637],[-121.03616,39.26633],[-121.03656,39.26803],[-121.03553,39.26878],[-121.03701,39.26951],[-121.03639,39.27034],[-121.03001,39.2692],[-121.02823,39.27099],[-121.02587,39.27068],[-121.02574,39.26983],[-121.02461,39.27011],[-121.02531,39.27073],[-121.02499,39.27201],[-121.02352,39.27327],[-121.02184,39.27266],[-121.0223,39.27201],[-121.02173,39.27185],[-121.02152,39.26914],[-121.02006,39.26908],[-121.01987,39.27126],[-121.01732,39.2713],[-121.01702,39.26763],[-121.01603,39.26762],[-121.01147,39.27249],[-121.0069,39.27412],[-121.00991,39.27156],[-121.00911,39.27155],[-121.0097,39.27012],[-121.00871,39.26951],[-121.0101,39.26866],[-121.00877,39.26762],[-121.00957,39.2675],[-121.00968,39.26606],[-121.00837,39.26461],[-121.01061,39.26364],[-121.01017,39.26223],[-121.00884,39.26148],[-121.0102,39.26123],[-121.00919,39.25908],[-121.00977,39.2583],[-121.00925,39.25784],[-121.01,39.25744],[-121.01003,39.2532],[-121.01126,39.25315],[-121.01029,39.25234],[-121.01132,39.2519],[-121.01132,39.25256],[-121.01248,39.25256],[-121.01588,39.24709],[-121.02134,39.24678],[-121.0248221414179,39.248281912644536],[-121.02530431787858,39.24788802201468],[-121.02637,39.24637],[-121.02928479900538,39.24463636137588],[-121.03123602350266,39.24304240333586],[-121.03116,39.24297],[-121.03183252496434,39.242439272467905],[-121.0299,39.2407],[-121.021,39.2379],[-121.0131,39.2388],[-121.0046,39.2358],[-121.0005,39.2393],[-120.9977,39.239],[-120.9947,39.2404],[-120.9954,39.2417],[-120.9868,39.2427],[-120.9871,39.2442],[-120.9857,39.2451],[-120.9803,39.2439],[-120.9804,39.2453],[-120.978,39.2462],[-120.9749,39.2449],[-120.975,39.2469],[-120.9732,39.2492],[-120.9703,39.25],[-120.9732,39.2506],[-120.9782,39.2493],[-120.9836,39.2508],[-120.9829,39.255],[-120.9793,39.2551],[-120.9795,39.2568],[-120.9733,39.2583],[-120.9752,39.2604],[-120.9655,39.2603],[-120.9631,39.2625],[-120.9585,39.2617],[-120.9579,39.2637],[-120.9597,39.2642],[-120.9596,39.2652],[-120.9578,39.2661],[-120.9541,39.2663],[-120.9517,39.2638],[-120.9388,39.2622],[-120.9333,39.2633],[-120.9318,39.2658],[-120.926,39.2677],[-120.9198,39.2626],[-120.9095,39.2641],[-120.9056,39.2732],[-120.8981,39.2782],[-120.8983,39.2816],[-120.8999,39.2837],[-120.8989,39.2858],[-120.8934,39.2887],[-120.8944,39.2906],[-120.892,39.2906],[-120.8899,39.2936],[-120.8862,39.2909],[-120.8849,39.2922],[-120.8782,39.2931],[-120.8776,39.2946],[-120.8748,39.2919],[-120.8712,39.2921],[-120.8611,39.2971],[-120.8589,39.2963],[-120.8444,39.2982],[-120.8399,39.3006],[-120.8341,39.3017],[-120.8314,39.3007],[-120.8291,39.3022],[-120.8264,39.2989],[-120.8227,39.2981],[-120.8207,39.2993],[-120.8141,39.2989],[-120.7957,39.3039],[-120.7907,39.3014],[-120.7852,39.3032],[-120.7746,39.3017],[-120.7773,39.3075],[-120.7748,39.3084],[-120.7754,39.3098],[-120.7682,39.3102],[-120.7645,39.3082],[-120.7618,39.3083],[-120.7437,39.3206],[-120.7264,39.318],[-120.7226,39.3145],[-120.7157,39.3137],[-120.7154,39.3125],[-120.7186,39.3096],[-120.7147,39.307],[-120.718,39.3045],[-120.7171,39.303],[-120.7099,39.3041],[-120.7018,39.3079],[-120.6891,39.3105],[-120.6792,39.3064],[-120.6714,39.3104],[-120.6703,39.3084],[-120.6685,39.3081],[-120.6569,39.3172],[-120.6567,39.3183],[-120.6589,39.3192],[-120.6542,39.3252],[-120.6546,39.3274],[-120.6558,39.3264],[-120.6569,39.3284],[-120.6568,39.3318],[-120.6492,39.343],[-120.6547,39.3462],[-120.6617,39.3539],[-120.6617,39.3566],[-120.6678,39.3585],[-120.6729,39.3634],[-120.6711,39.3707],[-120.6764,39.3703],[-120.6737,39.3752],[-120.6736,39.3781],[-120.6707,39.3788],[-120.6755,39.3779],[-120.6764,39.3802],[-120.6755,39.3828],[-120.67,39.3866],[-120.6697,39.3903],[-120.6715,39.392],[-120.6707,39.3949],[-120.6719,39.3946],[-120.6737,39.3977],[-120.6694,39.4056],[-120.6628,39.4099],[-120.6645,39.4131],[-120.6686,39.4141],[-120.6679,39.417],[-120.6693,39.4171],[-120.6706,39.422],[-120.6723,39.4228],[-120.6695,39.4294],[-120.6612,39.4355],[-120.66,39.4376],[-120.6602,39.4409],[-120.6568,39.4449],[-120.6598,39.4455],[-120.6619,39.4481],[-120.6604,39.4475],[-120.6562,39.4511],[-120.6444,39.4551],[-120.6425,39.4586],[-120.6456,39.4582],[-120.6476,39.462],[-120.6539,39.4648],[-120.6569,39.472],[-120.6602,39.4756],[-120.6626,39.4758],[-120.6643,39.4791],[-120.6678,39.4787],[-120.6691,39.4816],[-120.6722,39.4832],[-120.6765,39.4825],[-120.6799,39.4852],[-120.6853,39.4859],[-120.6863,39.4874],[-120.6917,39.4887],[-120.694,39.4881],[-120.6966,39.4844],[-120.7026,39.4823],[-120.7094,39.4814],[-120.7137,39.4828],[-120.7267,39.4722],[-120.7322,39.4698],[-120.7376,39.4702],[-120.7428,39.4673],[-120.7437,39.4665],[-120.7421,39.4645],[-120.7425,39.4613],[-120.7464,39.4592],[-120.7496,39.4594],[-120.7499,39.4575],[-120.7529,39.4583],[-120.7557,39.4527],[-120.7589,39.4525],[-120.761,39.4539],[-120.7645,39.4532],[-120.7654,39.4509],[-120.7729,39.4499],[-120.7737,39.4486],[-120.7758,39.4508],[-120.7808,39.4465],[-120.7847,39.4481],[-120.7866,39.4466],[-120.7861,39.4442],[-120.7904,39.4432],[-120.7917,39.4413],[-120.7973,39.4417],[-120.8002,39.4376],[-120.8056,39.4387],[-120.811,39.4361],[-120.8135,39.4399],[-120.8166,39.4408],[-120.8178,39.4365],[-120.8231,39.4374],[-120.8264,39.435],[-120.8281,39.4365],[-120.8336,39.4373],[-120.8322,39.4396],[-120.8369,39.4405],[-120.8424,39.4375],[-120.8433,39.4351],[-120.8543,39.4363],[-120.8551,39.4337],[-120.8575,39.4353],[-120.8618,39.4334],[-120.8645,39.4303],[-120.8691,39.4314],[-120.8705,39.4294],[-120.8749,39.4312],[-120.8767,39.4296],[-120.8783,39.4312],[-120.8784,39.4289],[-120.8845,39.4294],[-120.8939,39.4241],[-120.9028,39.4241],[-120.9106,39.426],[-120.9134,39.424],[-120.9142,39.4201],[-120.9184,39.4207],[-120.9207,39.4224],[-120.9263,39.4201],[-120.9289,39.421],[-120.9301,39.4202],[-120.9298,39.418],[-120.9318,39.4171],[-120.9395,39.4177],[-120.9435,39.4198],[-120.9462,39.4184],[-120.9509,39.4189],[-120.9523,39.4168],[-120.9561,39.417],[-120.958,39.4156],[-120.9717,39.4189],[-120.9737,39.4174],[-120.9786,39.4178],[-120.98,39.4166],[-120.9789,39.4129],[-120.9798,39.4116],[-120.9817,39.4142],[-120.986,39.4115],[-120.9926,39.4144],[-121.007,39.4047],[-121.0152,39.4054],[-121.0153,39.4026],[-121.0077,39.4003],[-121.0075,39.3991],[-121.018,39.3955],[-121.0245,39.3893],[-121.0318,39.3957],[-121.0361,39.3949],[-121.0365,39.3923],[-121.0415,39.3882],[-121.0475,39.3897],[-121.0471,39.3935],[-121.0498,39.3954],[-121.0594,39.395],[-121.0631,39.3909],[-121.0701,39.3933],[-121.0795,39.3928],[-121.084,39.3946],[-121.0869,39.3864],[-121.092,39.3859],[-121.0964,39.3877],[-121.1016,39.381],[-121.1045,39.3803],[-121.112,39.3812],[-121.1162,39.3785],[-121.1279,39.38],[-121.1258,39.3772],[-121.1271,39.3726],[-121.1337,39.3716],[-121.1346,39.3687],[-121.1368,39.3681],[-121.1371,39.3633],[-121.1451,39.3558],[-121.1438,39.3497],[-121.1521,39.3497],[-121.1548,39.3486],[-121.1555,39.3437],[-121.1577,39.3401],[-121.1566,39.3341],[-121.1575,39.3325],[-121.1625,39.3326],[-121.165,39.3386],[-121.178,39.3387],[-121.1834,39.336],[-121.1834,39.3321],[-121.1845,39.3308],[-121.1956,39.3296],[-121.1992,39.3227],[-121.2036,39.3201],[-121.2064,39.3165],[-121.205,39.3079],[-121.2001,39.3024],[-121.208,39.2984],[-121.2096,39.2963]],[[-121.03876,39.27802],[-121.02606,39.27832],[-121.02494,39.27696],[-121.02715,39.27582],[-121.02706,39.2746],[-121.03875,39.27457],[-121.03876,39.27802]]]},"properties":{"GEOID":"0605792090","NAME":"Nevada City","COUNTY":"057"}},{"type":"Feature","geometry":{"type":"MultiPolygon","coordinates":[[[[-121.2798,39.1216],[-121.2795,39.0346],[-121.273,39.0342],[-121.2707,39.0321],[-121.2692,39.0328],[-121.2658,39.0303],[-121.2585,39.0295],[-121.257,39.028],[-121.2532,39.0277],[-121.2497,39.0289],[-121.2468,39.0249],[-121.241,39.0214],[-121.238,39.024],[-121.2329,39.0247],[-121.2289,39.0221],[-121.2218,39.012],[-121.2135,39.0129],[-121.2059,39.0119],[-121.2047,39.0156],[-121.1989,39.0175],[-121.1923,39.0155],[-121.1881,39.0126],[-121.1864,39.0129],[-121.1794,39.02],[-121.1726,39.0185],[-121.1638,39.0224],[-121.162,39.0244],[-121.1525,39.0268],[-121.1501,39.0322],[-121.1448,39.0337],[-121.1374,39.0379],[-121.1334,39.0344],[-121.1251,39.0325],[-121.1268,39.03],[-121.1235,39.0279],[-121.1232,39.0244],[-121.1208,39.0241],[-121.1191,39.021],[-121.1151,39.0186],[-121.1077,39.0176],[-121.1061,39.0162],[-121.1051,39.0121],[-121.097,39.0133],[-121.0964,39.0116],[-121.095,39.0115],[-121.0895,39.0144],[-121.0808,39.0097],[-121.0803,39.0069],[-121.0675,39.0054],[-121.0617,39.0101],[-121.053,39.0104],[-121.0494,39.0127],[-121.0416,39.0138],[-121.0381,39.016],[-121.037,39.0176],[-121.0377,39.0208],[-121.0301,39.0304],[-121.0294,39.0331],[-121.0304,39.0372],[-121.0283,39.0386],[-121.0217,39.0392],[-121.0202,39.0461],[-121.0128,39.0483],[-121.013,39.0524],[-121.0082,39.0522],[-121.0071,39.0612],[-121.0027,39.0629],[-121.0027,39.0675],[-120.9969,39.0682],[-120.9964,39.0695],[-120.9985,39.0721],[-120.9918,39.0758],[-120.9917,39.0771],[-120.9949,39.0785],[-120.996,39.0808],[-120.991,39.082],[-120.9885,39.0856],[-120.9869,39.0984],[-120.9883,39.1002],[-120.9863,39.1027],[-120.9897,39.1095],[-120.9891,39.1115],[-120.9793,39.1104],[-120.9756,39.114],[-120.9735,39.1196],[-120.968,39.1221],[-120.9678,39.1249],[-120.9658,39.1282],[-120.9554,39.1329],[-120.9521,39.1367],[-120.9501,39.1364],[-120.9475,39.1434],[-120.9449,39.1454],[-120.9405,39.1453],[-120.9369,39.1514],[-120.9299,39.154],[-120.9316,39.1559],[-120.9264,39.1553],[-120.9234,39.1572],[-120.9245,39.1608],[-120.9197,39.1627],[-120.9085,39.1638],[-120.906,39.1661],[-120.9089,39.1686],[-120.909,39.1702],[-120.9053,39.1714],[-120.9047,39.173],[-120.9006,39.174],[-120.8969,39.1766],[-120.8923,39.1753],[-120.8912,39.1771],[-120.8871,39.1765],[-120.8848,39.1784],[-120.8814,39.1791],[-120.8795,39.1781],[-120.8688,39.1807],[-120.8695,39.1848],[-120.8652,39.1878],[-120.8669,39.1896],[-120.8608,39.1925],[-120.8613,39.1951],[-120.8578,39.1974],[-120.8566,39.2041],[-120.8581,39.2061],[-120.8553,39.2069],[-120.8517,39.212],[-120.8391,39.2155],[-120.8376,39.2174],[-120.8311,39.2199],[-120.8299,39.2216],[-120.8279,39.2211],[-120.8286,39.2235],[-120.8191,39.2272],[-120.8192,39.2286],[-120.8166,39.23],[-120.8138,39.2297],[-120.8105,39.2323],[-120.8039,39.2334],[-120.8029,39.2353],[-120.8002,39.2357],[-120.7987,39.2384],[-120.792,39.2408],[-120.7876,39.2441],[-120.7849,39.2466],[-120.7847,39.2486],[-120.7766,39.2523],[-120.7761,39.2541],[-120.7739,39.2554],[-120.7687,39.2563],[-120.7641,39.2631],[-120.7564,39.2644],[-120.7491,39.2706],[-120.7473,39.2749],[-120.7383,39.2793],[-120.7279,39.2881],[-120.7156,39.2922],[-120.7107,39.2923],[-120.7026,39.2997],[-120.6932,39.3018],[-120.6915,39.3041],[-120.686,39.3047],[-120.6822,39.3069],[-120.6792,39.3064],[-120.6891,39.3105],[-120.7018,39.3079],[-120.7099,39.3041],[-120.7171,39.303],[-120.718,39.3045],[-120.7147,39.307],[-120.7186,39.3096],[-120.7154,39.3125],[-120.7157,39.3137],[-120.7226,39.3145],[-120.7264,39.318],[-120.7434,39.3206],[-120.7467,39.3195],[-120.7618,39.3083],[-120.7645,39.3082],[-120.7682,39.3102],[-120.7754,39.3098],[-120.7748,39.3084],[-120.7773,39.3075],[-120.7746,39.3017],[-120.7852,39.3032],[-120.7907,39.3014],[-120.7957,39.3039],[-120.8141,39.2989],[-120.8207,39.2993],[-120.8227,39.2981],[-120.8264,39.2989],[-120.8291,39.3022],[-120.8314,39.3007],[-120.8341,39.3017],[-120.8399,39.3006],[-120.8444,39.2982],[-120.8589,39.2963],[-120.8611,39.2971],[-120.8712,39.2921],[-120.8748,39.2919],[-120.8776,39.2946],[-120.8782,39.2931],[-120.8849,39.2922],[-120.8862,39.2909],[-120.8899,39.2936],[-120.892,39.2906],[-120.8944,39.2906],[-120.8934,39.2887],[-120.8989,39.2858],[-120.8999,39.2837],[-120.8983,39.2816],[-120.8981,39.2782],[-120.9056,39.2732],[-120.9095,39.2641],[-120.9198,39.2626],[-120.926,39.2677],[-120.9318,39.2658],[-120.9333,39.2633],[-120.9388,39.2622],[-120.9517,39.2638],[-120.9541,39.2663],[-120.9578,39.2661],[-120.9596,39.2652],[-120.9597,39.2642],[-120.9579,39.2637],[-120.9585,39.2617],[-120.9631,39.2625],[-120.9655,39.2603],[-120.9752,39.2604],[-120.9733,39.2583],[-120.9795,39.2568],[-120.9793,39.2551],[-120.9829,39.255],[-120.9836,39.2508],[-120.9782,39.2493],[-120.9732,39.2506],[-120.9703,39.25],[-120.9732,39.2492],[-120.975,39.2469],[-120.9749,39.2449],[-120.978,39.2462],[-120.9804,39.2453],[-120.9803,39.2439],[-120.9857,39.2451],[-120.9871,39.2442],[-120.9868,39.2427],[-120.9954,39.2417],[-120.9947,39.2404],[-120.9977,39.239],[-121.0005,39.2393],[-121.0046,39.2358],[-121.0131,39.2388],[-121.021,39.2379],[-121.0299,39.2407],[-121.03183252496434,39.242439272467905],[-121.03282,39.24166],[-121.03208,39.24143],[-121.03197,39.23854],[-121.03099,39.23726],[-121.02917,39.23665],[-121.02814,39.2323],[-121.03283,39.2319],[-121.03283,39.23101],[-121.03003,39.22796],[-121.02764,39.22801],[-121.02348,39.23],[-121.02341,39.23104],[-121.00913,39.23169],[-121.0091,39.22705],[-121.01095,39.22648],[-121.01578,39.22749],[-121.01933,39.22561],[-121.02638,39.22392],[-121.02565,39.22055],[-121.02356,39.21907],[-121.02693,39.21695],[-121.03006,39.21802],[-121.03469,39.21764],[-121.03388,39.22101],[-121.0388,39.22148],[-121.04089,39.22359],[-121.04528,39.22294],[-121.04637,39.21988],[-121.05005,39.2199],[-121.05002,39.21902],[-121.05118,39.21896],[-121.04962,39.21551],[-121.0531,39.21576],[-121.05244,39.2145],[-121.05414,39.21423],[-121.05404,39.21329],[-121.05274,39.21357],[-121.0518,39.21173],[-121.04956,39.21126],[-121.04929,39.21184],[-121.04902,39.20959],[-121.05076,39.20899],[-121.05147,39.20967],[-121.05045,39.21083],[-121.05441,39.21256],[-121.05588,39.21172],[-121.05518,39.20887],[-121.05787,39.20879],[-121.05781,39.20792],[-121.06005,39.20873],[-121.06016,39.20724],[-121.05902,39.20535],[-121.05776,39.20512],[-121.05777,39.20271],[-121.0561,39.2011],[-121.05012,39.19923],[-121.04655,39.19958],[-121.04545,39.19545],[-121.0456,39.19329],[-121.04651,39.19331],[-121.04734,39.1874],[-121.04695,39.18626],[-121.04351,39.187],[-121.04377,39.18161],[-121.04674,39.18205],[-121.04735,39.18457],[-121.05236,39.18434],[-121.05181,39.18837],[-121.05263,39.19148],[-121.05696,39.19164],[-121.05696,39.18799],[-121.05962,39.18809],[-121.06003,39.19176],[-121.06128,39.19219],[-121.06161,39.19514],[-121.06467,39.19512],[-121.06464,39.19365],[-121.06564,39.19377],[-121.06718,39.19674],[-121.06557,39.19817],[-121.06586,39.19979],[-121.06963,39.20255],[-121.06971,39.20729],[-121.07195,39.20829],[-121.07169,39.20924],[-121.07489,39.20748],[-121.0742,39.20653],[-121.07543,39.20535],[-121.07594,39.20328],[-121.07786,39.20282],[-121.07839,39.20055],[-121.08296,39.20079],[-121.08295,39.20152],[-121.07876,39.20353],[-121.07451,39.2084],[-121.07548,39.20906],[-121.07909,39.20866],[-121.08172,39.2123],[-121.08273,39.21224],[-121.08305,39.21322],[-121.08244,39.21326],[-121.0836,39.21476],[-121.08055,39.21469],[-121.07905,39.22085],[-121.07848,39.22087],[-121.07852,39.22281],[-121.07599,39.22319],[-121.07483,39.22217],[-121.07259,39.22209],[-121.0735,39.22271],[-121.07168,39.22702],[-121.0708,39.22702],[-121.06993,39.22416],[-121.06755,39.22304],[-121.06794,39.22424],[-121.06687,39.22433],[-121.06678,39.22575],[-121.06606,39.22579],[-121.06605,39.23099],[-121.06464,39.23136],[-121.06461,39.23209],[-121.06655,39.2321],[-121.06811,39.23534],[-121.06587,39.23552],[-121.06582278670864,39.23648868649528],[-121.0675,39.2363],[-121.0755,39.2379],[-121.0845,39.2365],[-121.0896,39.2397],[-121.0909,39.2427],[-121.0939,39.2408],[-121.0962,39.2424],[-121.0992,39.2411],[-121.0999,39.2424],[-121.102,39.2423],[-121.1028,39.245],[-121.1119,39.2467],[-121.1166,39.2537],[-121.1448,39.2554],[-121.1499,39.2543],[-121.1536,39.2558],[-121.1592,39.2543],[-121.1621,39.2548],[-121.1638,39.2536],[-121.1642,39.2616],[-121.1615,39.2631],[-121.161,39.2674],[-121.162,39.2687],[-121.1653,39.2687],[-121.1612,39.2702],[-121.1721,39.272],[-121.1762,39.2768],[-121.1885,39.2786],[-121.1913,39.2812],[-121.1921,39.287],[-121.2096,39.2963],[-121.2149,39.2929],[-121.2162,39.2913],[-121.2166,39.2863],[-121.221,39.2826],[-121.2426,39.2835],[-121.2511,39.2781],[-121.2634,39.2748],[-121.2669,39.2716],[-121.2664,39.2686],[-121.2624,39.2646],[-121.2592,39.2564],[-121.2605,39.2548],[-121.2682,39.2534],[-121.2693,39.2521],[-121.2688,39.2402],[-121.2761,39.2314],[-121.2795,39.2305],[-121.2798,39.1216]],[[-121.07041,39.22992],[-121.06782,39.231],[-121.06705,39.2294],[-121.06753,39.22678],[-121.0683,39.22677],[-121.06824,39.22783],[-121.0699,39.22729],[-121.06954,39.22916],[-121.07041,39.22992]],[[-121.0538,39.20834],[-121.05352,39.20908],[-121.05264,39.20884],[-121.05273,39.20808],[-121.0538,39.20834]]],[[[-121.05805968919586,39.23928044893932],[-121.05589,39.23809],[-121.04877,39.23812],[-121.04956,39.24073],[-121.05161,39.24211],[-121.04745,39.2437],[-121.04747,39.24169],[-121.04033,39.24176],[-121.04028,39.24391],[-121.03908,39.24412],[-121.03875,39.2432],[-121.03686,39.24334],[-121.03624,39.24235],[-121.03543,39.24334],[-121.03158,39.24337],[-121.03123602350266,39.24304240333586],[-121.02928479900538,39.24463636137588],[-121.03096,39.24364],[-121.02933,39.24631],[-121.02948054814814,39.247451656790126],[-121.0307,39.2469],[-121.0417,39.2464],[-121.049,39.2442],[-121.05638558070866,39.24046476377953],[-121.0579253670473,39.23947446982056],[-121.05805968919586,39.23928044893932]]]]},"properties":{"GEOID":"0605791140","NAME":"Grass Valley","COUNTY":"057"}}]}