{"type":"FeatureCollection","features":[{"type":"Feature","properties":{"GEOID":"0605993015","NAME":"Silverado","COUNTY":"059"},"geometry":{"type":"Polygon","coordinates":[[[-117.6813,33.7725],[-117.6775,33.7628],[-117.677,33.7565],[-117.6721,33.75],[-117.6731,33.7483],[-117.6694,33.747],[-117.6667,33.7412],[-117.6551,33.7355],[-117.6516,33.7323],[-117.6411829080626,33.701643986584244],[-117.64049823389021,33.700884200477326],[-117.63890229029218,33.699516248821865],[-117.63467,33.69863],[-117.63340650905282,33.697084689510696],[-117.63018447575183,33.69414458412354],[-117.62824,33.69285],[-117.62741435693842,33.6916168507063],[-117.6263,33.6906],[-117.622,33.6885],[-117.62129953222887,33.685898262564386],[-117.62082,33.6859],[-117.62056475757262,33.68331812467694],[-117.6136,33.6869],[-117.6073,33.686],[-117.6035,33.6833],[-117.6033,33.6779],[-117.6016,33.6737],[-117.6003,33.6534],[-117.5983,33.6534],[-117.5905,33.6596],[-117.5856,33.6592],[-117.5751,33.6613],[-117.565,33.6684],[-117.56490052989335,33.66462013594755],[-117.55623,33.66465],[-117.55621,33.65853],[-117.55526,33.65853],[-117.55581,33.65663],[-117.55496,33.65564],[-117.55411,33.65618],[-117.55441,33.65674],[-117.55202,33.65674],[-117.5521,33.65136],[-117.55604954718928,33.65132184012378],[-117.55624073773882,33.65079325448681],[-117.55625,33.64418],[-117.5555,33.64417],[-117.55511,33.64261],[-117.55642783906555,33.64012917585983],[-117.5549,33.6399],[-117.5557,33.6332],[-117.5544,33.6295],[-117.5596,33.6219],[-117.5617,33.6199],[-117.5628,33.6206],[-117.5618,33.6178],[-117.5639,33.6064],[-117.5664,33.6021],[-117.5683,33.5908],[-117.5672,33.5858],[-117.5695,33.5832],[-117.5671,33.5791],[-117.5652,33.5713],[-117.5673,33.5683],[-117.5645,33.564],[-117.5659,33.5536],[-117.5649,33.5502],[-117.564,33.5477],[-117.5609,33.546],[-117.5616,33.5436],[-117.5587,33.5421],[-117.5581,33.5389],[-117.5547,33.5378],[-117.5542,33.5341],[-117.5517,33.5376],[-117.5511,33.5343],[-117.5498,33.5338],[-117.5486,33.5408],[-117.5495,33.5441],[-117.549,33.5566],[-117.5406,33.5746],[-117.5366,33.5778],[-117.5242,33.583],[-117.5214,33.5866],[-117.515,33.5894],[-117.5118,33.5923],[-117.503,33.5902],[-117.4989,33.5905],[-117.4952,33.5927],[-117.4856,33.5939],[-117.4836,33.5953],[-117.4739,33.5918],[-117.4699,33.5915],[-117.4682,33.5934],[-117.4655,33.5936],[-117.4643,33.5968],[-117.4626,33.5969],[-117.4579,33.6022],[-117.413,33.659],[-117.458,33.6903],[-117.4746,33.7038],[-117.534,33.7104],[-117.5364,33.7577],[-117.5801,33.768],[-117.6366,33.83],[-117.639,33.8265],[-117.6384,33.8241],[-117.6405,33.8188],[-117.6437,33.8213],[-117.6515,33.8209],[-117.6506,33.8113],[-117.6533,33.8051],[-117.6552,33.8026],[-117.6577,33.8024],[-117.6583,33.7989],[-117.6571,33.7978],[-117.6629,33.7966],[-117.6618,33.7927],[-117.664,33.7919],[-117.6629,33.7915],[-117.663,33.7892],[-117.6636,33.7908],[-117.6652,33.7909],[-117.6638,33.7906],[-117.6645,33.7878],[-117.66202335766424,33.786847445255475],[-117.6659,33.7866],[-117.668,33.7813],[-117.6773,33.7752],[-117.6794,33.7727],[-117.6813,33.7725]],[[-117.66184090909091,33.78685909090909],[-117.6606,33.7881],[-117.6612,33.7869],[-117.66184090909091,33.78685909090909]]]}},{"type":"Feature","properties":{"GEOID":"0605990050","NAME":"Anaheim-Santa Ana-Garden Grove","COUNTY":"059"},"geometry":{"type":"MultiPolygon","coordinates":[[[[-118.0971,33.7744],[-118.09701570478927,33.77439961509036],[-118.09684844444445,33.776965866666664],[-118.0971,33.7744]]],[[[-118.09662411001115,33.779254077886314],[-118.09575757709251,33.78090943832599],[-118.0966,33.7795],[-118.09662411001115,33.779254077886314]]],[[[-118.08924,33.78502],[-118.08912,33.77792],[-118.08633,33.7754],[-118.0803,33.7748],[-118.07224943852997,33.77793902581304],[-118.0722,33.778],[-118.07213277330264,33.78035293440737],[-118.07578,33.7805],[-118.07626,33.78289],[-118.07618,33.78594],[-118.07273,33.78593],[-118.07216,33.78757],[-118.07187412658227,33.78499713924051],[-118.07187018453062,33.784997049648425],[-118.07196,33.80303],[-118.08105,33.80293],[-118.08595,33.79688],[-118.08905,33.78804],[-118.08924,33.78502]]],[[[-118.07476225174825,33.812921258741255],[-118.07283,33.81486],[-118.06317,33.81968],[-118.06305,33.81042],[-118.06326147906977,33.826954530232555],[-118.0632,33.8197],[-118.0728,33.8149],[-118.07476225174825,33.812921258741255]]],[[[-118.059,33.835206176470585],[-118.05899,33.83521],[-118.05892,33.8462],[-118.059,33.8462],[-118.059,33.835206176470585]]],[[[-118.05892,33.8462],[-118.04982,33.84069],[-118.05883,33.8462],[-118.05892,33.8462]]],[[[-118.0547,33.84621995169082],[-118.05469,33.84622],[-118.0547,33.84742],[-118.0547,33.84621995169082]]],[[[-118.05297607305936,33.849840091324204],[-118.05038,33.84987],[-118.05039978204397,33.853500005068746],[-118.0504,33.8535],[-118.0504,33.8499],[-118.05297607305936,33.849840091324204]]],[[[-118.0462,33.8587],[-118.04610018966378,33.85360967285267],[-118.04608,33.85361],[-118.04619,33.85869],[-118.04474333333333,33.8587],[-118.0462,33.8587]]],[[[-118.04267926622707,33.774189223882026],[-118.04267506988623,33.77409900255398],[-118.0424600382291,33.77409728573436],[-118.04246,33.7741],[-117.99428,33.77385],[-118.04267926622707,33.774189223882026]]],[[[-118.0426696335077,33.77486047120512],[-118.04158,33.78093],[-118.04157898254414,33.7810926475873],[-118.04165656716417,33.78077002487567],[-118.0426696335077,33.77486047120512]]],[[[-118.0419,33.85871965437788],[-118.04185,33.85872],[-118.04187975451627,33.86230046012463],[-118.0419,33.8623],[-118.0419,33.85871965437788]]],[[[-118.04147,33.83901],[-118.03476220798065,33.839068498186215],[-118.03506,33.8406],[-118.03495,33.83907],[-118.04147,33.83901]]],[[[-118.03969317829457,33.86235015503876],[-118.03754,33.86237],[-118.0375404793409,33.86239908001498],[-118.03969317829457,33.86235015503876]]],[[[-118.0376,33.866],[-118.0375995945946,33.865985405405404],[-118.03759983516484,33.866],[-118.0376,33.866]]],[[[-118.0288,33.8733],[-118.02870337968726,33.86624671717019],[-118.02865328001735,33.8662480501991],[-118.02877964372277,33.8733001169901],[-118.0288,33.8733]]],[[[-118.02806,33.80983],[-118.0107,33.80999],[-118.01181,33.80998],[-118.01727,33.80993],[-118.02806,33.80983]]],[[[-118.01819,33.80631],[-118.01089,33.80415],[-118.01809,33.8063],[-118.01068,33.80628],[-118.01819,33.80631]]],[[[-118.01695108054027,33.824469569784895],[-118.01644,33.82448],[-118.01649,33.82636],[-118.01695108054027,33.824469569784895]]],[[[-118.0115,33.8808],[-118.01140040366232,33.87342987101133],[-118.01138,33.87343],[-118.0114693977975,33.88080035174946],[-118.0115,33.8808]]],[[[-118.01096,33.82287],[-118.0109411504752,33.82172960375022],[-118.01094,33.82173],[-118.01096,33.82287]]],[[[-118.0092733126476,33.811309168543026],[-118.00287,33.81189],[-118.00856,33.81183],[-118.0092733126476,33.811309168543026]]],[[[-118.00428099236642,33.88088297709923],[-118.00275,33.88089],[-118.00286,33.88816],[-117.99699333333334,33.8882],[-118.0029,33.8882],[-118.0028,33.8809],[-118.00428099236642,33.88088297709923]]],[[[-117.9941,33.88821972727273],[-117.99406,33.88822],[-117.99404,33.88938],[-117.99222,33.89182],[-117.98966,33.89405],[-117.98968,33.89549],[-117.98781571428572,33.8955],[-117.9941,33.8955],[-117.9941,33.88821972727273]]],[[[-117.99177,33.7921],[-117.98853,33.79214],[-117.98851,33.79111],[-117.99069,33.79111],[-117.99065,33.78839],[-117.98238,33.78843],[-117.98661,33.78841],[-117.98414,33.79001],[-117.98421,33.79569],[-117.98856,33.79567],[-117.98882,33.80074],[-117.98859,33.79297],[-117.99177,33.79296],[-117.99177,33.7921]]],[[[-117.9854,33.9028],[-117.98539958906666,33.90277000186576],[-117.9787925,33.9028],[-117.9854,33.9028]]],[[[-117.98530136805971,33.89559986835889],[-117.9853001848392,33.8955134932614],[-117.97663,33.89556],[-117.98530136805971,33.89559986835889]]],[[[-117.98493,33.85908],[-117.98442946108031,33.8587235953242],[-117.97656,33.85911],[-117.98493,33.85908]]],[[[-117.98446,33.80298],[-117.97297,33.80307],[-117.97242,33.80427],[-117.97348783512226,33.80566716744968],[-117.97398,33.80566],[-117.97396,33.80381],[-117.97565,33.8038],[-117.97564,33.80307],[-117.97666,33.80376],[-117.97567,33.80573],[-117.98012,33.80658],[-117.98009,33.80348],[-117.97731,33.80376],[-117.97728,33.80305],[-117.98446,33.80298]]],[[[-117.97659997700993,33.90280995470143],[-117.97659,33.90281],[-117.97657,33.90641],[-117.97657,33.91008],[-117.9765,33.94605],[-117.91999,33.94608],[-117.91987866034266,33.94574285935534],[-117.919818671875,33.9461],[-117.9765,33.9461],[-117.97659997700993,33.90280995470143]]],[[[-117.97656,33.85911],[-117.97626,33.86363],[-117.97628,33.86456],[-117.97656,33.85911]]],[[[-117.97529,33.80727],[-117.96758,33.80734],[-117.96757,33.80665],[-117.97193,33.80661],[-117.97192,33.80569],[-117.97192,33.80308],[-117.94142,33.80308],[-117.96322,33.8031],[-117.96323,33.80673],[-117.95888,33.80678],[-117.95951,33.81707],[-117.96033,33.81708],[-117.96033,33.81775],[-117.96332,33.81772],[-117.96328,33.82135],[-117.95893,33.8214],[-117.95893,33.8221],[-117.96038,33.82209],[-117.96036,33.8232],[-117.96171,33.82429],[-117.96113,33.82569],[-117.96024,33.8257],[-117.9603,33.82763],[-117.95892,33.82764],[-117.95892,33.8289],[-117.96333,33.8288],[-117.96329,33.82684],[-117.96219,33.82685],[-117.96249,33.82401],[-117.96328,33.824],[-117.96328,33.825],[-117.96543,33.82499],[-117.96546,33.82768],[-117.96764,33.82766],[-117.96762,33.8198],[-117.96596,33.8189],[-117.96761,33.81823],[-117.96759,33.8104],[-117.97194,33.81036],[-117.97195,33.8114],[-117.97193,33.80769],[-117.97529,33.80727]]],[[[-117.94568809875128,33.73254959682551],[-117.94381,33.73254],[-117.94382,33.732995],[-117.94568809875128,33.73254959682551]]],[[[-117.94171,33.73713],[-117.94166,33.73351],[-117.94164,33.73264],[-117.94171,33.73713]]],[[[-117.93659,33.73085],[-117.93,33.73084],[-117.92413,33.73099],[-117.93659,33.73085]]],[[[-117.9307,33.7019],[-117.92956913478446,33.7019201940217],[-117.92953,33.70198],[-117.92042,33.71557],[-117.91658,33.72265],[-117.91423,33.72861],[-117.9155,33.72934269230769],[-117.9155,33.7275],[-117.9179,33.7214],[-117.9307,33.7019]]],[[[-117.92434,33.92461],[-117.92433942088535,33.924399781378405],[-117.92185,33.92346],[-117.92434,33.92461]]],[[[-117.92404992141059,33.798778808060455],[-117.92387,33.79605],[-117.92392,33.79878],[-117.92404992141059,33.798778808060455]]],[[[-117.9196,33.94740186046512],[-117.91956771086565,33.94759409345103],[-117.9196,33.9476],[-117.9196,33.94740186046512]]],[[[-117.91840462222223,33.94738133333333],[-117.90951,33.94539],[-117.90933,33.94601],[-117.90564,33.94529],[-117.90477,33.94408],[-117.90609,33.94277],[-117.90415,33.94222],[-117.90406,33.93919],[-117.89875,33.9393],[-117.89824,33.93837],[-117.89584,33.93854],[-117.89429,33.93668],[-117.89109,33.9371],[-117.89142,33.93654],[-117.88994,33.93575],[-117.88641,33.93687],[-117.88643,33.94157],[-117.87993,33.94031],[-117.87183,33.93559],[-117.84857,33.93423],[-117.84855,33.93541],[-117.8453,33.93537],[-117.84538,33.93173],[-117.84234,33.9317],[-117.84138,33.93046],[-117.83843,33.93025],[-117.83523,33.93163],[-117.83237,33.93163],[-117.83234,33.92794],[-117.8281,33.92788],[-117.82825,33.92064],[-117.81787,33.92052],[-117.81783,33.92877],[-117.81329,33.92872],[-117.81333,33.9324],[-117.80177,33.93233],[-117.80248,33.93382],[-117.80081,33.93405],[-117.8005,33.93593],[-117.80031633636904,33.94627316237511],[-117.9114,33.9461],[-117.91840462222223,33.94738133333333]],[[-117.8992,33.94143],[-117.89847,33.94114],[-117.89912,33.94125],[-117.8992,33.94143]]],[[[-117.91559095151378,33.73099880719326],[-117.91554873555252,33.73099936084521],[-117.91557,33.73286],[-117.91559095151378,33.73099880719326]]],[[[-117.91162152398428,33.90676183625085],[-117.91157,33.90671],[-117.88977,33.907],[-117.91162152398428,33.90676183625085]]],[[[-117.90629,33.7925],[-117.90413,33.7925],[-117.8976,33.79251],[-117.90629,33.7925]]],[[[-117.90439892265194,33.79073],[-117.90408,33.79073],[-117.90413,33.7925],[-117.90439892265194,33.79073]]],[[[-117.90229998297396,33.85423929985569],[-117.90214,33.85424],[-117.89728,33.85634],[-117.90229998297396,33.85423929985569]]],[[[-117.89423784101925,33.77446469741033],[-117.88812,33.77363],[-117.89141,33.77446],[-117.89423784101925,33.77446469741033]]],[[[-117.88498,33.85361],[-117.8688,33.85774],[-117.88497,33.85363],[-117.88483827975911,33.854079591933335],[-117.88498,33.85361]]],[[[-117.86865,33.69005],[-117.86863982497083,33.68986812135356],[-117.86844395663265,33.69031415816327],[-117.86865,33.69005]]],[[[-117.86861248917565,33.68937949401477],[-117.86857,33.68862],[-117.86812839316399,33.688390480657596],[-117.86861248917565,33.68937949401477]]],[[[-117.86437238846725,33.68577727125607],[-117.85718456896676,33.68274296683026],[-117.85695,33.68312],[-117.86105,33.68503],[-117.85945,33.68756],[-117.86032,33.68795],[-117.85955,33.68916],[-117.86071,33.68967],[-117.86148,33.68846],[-117.86236,33.68885],[-117.86401,33.68625],[-117.86437238846725,33.68577727125607]]],[[[-117.86392,33.90924],[-117.86386,33.90558],[-117.86388,33.9074],[-117.86392,33.90924]]],[[[-117.86341611658091,33.8354573124815],[-117.85873,33.83493],[-117.85959,33.83711],[-117.85805,33.83757],[-117.85882,33.83907],[-117.85458,33.84209],[-117.85646,33.8433],[-117.84516,33.84682],[-117.84989,33.84536],[-117.85069,33.84713],[-117.86009,33.84277],[-117.85799,33.84173],[-117.86341611658091,33.8354573124815]]],[[[-117.86265,33.69672],[-117.86009,33.69722],[-117.86059,33.69887],[-117.86265,33.69672]]],[[[-117.85855,33.8351],[-117.85528,33.83529],[-117.85584,33.83635],[-117.85847,33.83604],[-117.85855,33.8351]]],[[[-117.84873,33.70008],[-117.84325,33.70558],[-117.83764,33.71126],[-117.84873,33.70008]]],[[[-117.84671,33.83605],[-117.84597,33.83692],[-117.84378,33.83714],[-117.84578,33.83882],[-117.84671,33.83605]]],[[[-117.84602,33.9067],[-117.84246363265842,33.91009874441231],[-117.84291,33.91012],[-117.84602,33.9067]]],[[[-117.84465,33.71555],[-117.83764,33.71126],[-117.84462,33.71557],[-117.83405,33.72604],[-117.84465,33.71555]]],[[[-117.84367,33.83791],[-117.84114,33.83613],[-117.83888,33.83662],[-117.83845,33.8384],[-117.83926,33.83791],[-117.83911,33.83884],[-117.84052,33.83884],[-117.84178,33.83785],[-117.84178,33.83885],[-117.84367,33.83885],[-117.84367,33.83791]]],[[[-117.83734,33.88553],[-117.83153627320415,33.88529025913408],[-117.83154,33.88559],[-117.83734,33.88553]]],[[[-117.83733972154471,33.91007144695122],[-117.83692,33.91006],[-117.83515,33.91427],[-117.83733972154471,33.91007144695122]]],[[[-117.83508,33.91844],[-117.82675,33.91825],[-117.82708,33.91753],[-117.82212,33.91478],[-117.82591,33.91303],[-117.82675,33.91038],[-117.82445,33.91018],[-117.82529,33.90917],[-117.82412,33.90829],[-117.82313,33.90923],[-117.82144,33.90743],[-117.81968,33.90884],[-117.815,33.90906],[-117.815,33.90996],[-117.80066,33.90994],[-117.80068,33.90681],[-117.78338,33.90667],[-117.78337,33.90931],[-117.78031,33.90932],[-117.77971,33.90847],[-117.76958,33.90841],[-117.76217,33.9133],[-117.75771,33.91332],[-117.75779,33.91089],[-117.75334,33.91093],[-117.75342,33.90319],[-117.7589,33.90344],[-117.75861,33.89542],[-117.75657,33.89536],[-117.75635,33.89376],[-117.75182,33.89284],[-117.74599,33.89383],[-117.74651,33.90305],[-117.73259,33.90306],[-117.73255020507321,33.91029272794461],[-117.7381,33.9137],[-117.77459,33.94013497777778],[-117.77459,33.93921],[-117.78311,33.93925],[-117.78307,33.92837],[-117.79163,33.92846],[-117.79168,33.9249],[-117.80059,33.92496],[-117.80058,33.92141],[-117.80913,33.92238],[-117.80916,33.91802],[-117.83508,33.91844]]],[[[-117.83005883569737,33.773040031862905],[-117.82983,33.76715],[-117.82815,33.76714],[-117.82815,33.7657],[-117.82711,33.76573],[-117.82708,33.76713],[-117.82014,33.76709],[-117.82021,33.76616],[-117.82272,33.76618],[-117.82272,33.76349],[-117.82041,33.76349],[-117.8203,33.75984],[-117.82028,33.75807],[-117.82247,33.75806],[-117.82243,33.75225],[-117.81842,33.75227],[-117.81848,33.74864],[-117.8143,33.74871],[-117.81432,33.7553],[-117.81342,33.75522],[-117.81332,33.75087],[-117.81203,33.75088],[-117.81202,33.75001],[-117.81015,33.75014],[-117.8113,33.75158],[-117.81131,33.75331],[-117.81102,33.75177],[-117.80942,33.75159],[-117.80676,33.75454],[-117.80587,33.75444],[-117.80954,33.75075],[-117.80622,33.74842],[-117.80762,33.74703],[-117.80513,33.74528],[-117.80442,33.74598],[-117.80359,33.7454],[-117.80597,33.74302],[-117.80355,33.7413],[-117.80463,33.74021],[-117.802,33.73838],[-117.80362,33.73675],[-117.80242,33.73524],[-117.79761,33.74005],[-117.79594,33.73887],[-117.78621,33.74864],[-117.78394,33.74683],[-117.78234,33.74742],[-117.78112,33.74864],[-117.78163,33.7504],[-117.77341,33.75862],[-117.7751,33.75981],[-117.77232,33.76213],[-117.77265,33.76297],[-117.77448,33.7632],[-117.77123,33.76643],[-117.77011,33.76579],[-117.76537,33.76995],[-117.76424,33.7735],[-117.76215,33.77677],[-117.77313,33.78441],[-117.77174,33.7858],[-117.77553,33.78805],[-117.77749,33.78795],[-117.7798,33.78515],[-117.77923,33.78481],[-117.7799,33.7836],[-117.77895,33.78318],[-117.77938,33.78232],[-117.7808,33.78162],[-117.782,33.78273],[-117.78327,33.78236],[-117.78389,33.7803],[-117.78503,33.77995],[-117.795,33.78396],[-117.795,33.78497],[-117.79365,33.78496],[-117.79418,33.78768],[-117.79581,33.78769],[-117.79585,33.78451],[-117.79702,33.78445],[-117.79793,33.78589],[-117.80137,33.78591],[-117.8031,33.78483],[-117.80311,33.77794],[-117.8044334913682,33.77795155887658],[-117.80426,33.77746],[-117.80539440263726,33.77754579515744],[-117.80534,33.77352],[-117.81403,33.7735],[-117.81403,33.77841],[-117.81574,33.77868],[-117.81836,33.77864],[-117.81836,33.77685],[-117.81713,33.77686],[-117.81713,33.77348],[-117.81835,33.77348],[-117.81836,33.77592],[-117.82172,33.77592],[-117.82172,33.77505],[-117.82055,33.77505],[-117.82055,33.77379],[-117.82272,33.77379],[-117.82272,33.77687],[-117.82489,33.77686],[-117.8249,33.77506],[-117.82706,33.77506],[-117.82708,33.77324],[-117.83005883569737,33.773040031862905]],[[-117.8276,33.77074],[-117.8276,33.77084],[-117.82705,33.77074],[-117.8276,33.77074]],[[-117.81959,33.76636],[-117.81959,33.76638],[-117.81953,33.76631],[-117.81959,33.76636]],[[-117.80905,33.75914],[-117.80905,33.75942],[-117.80882,33.75908],[-117.80905,33.75914]],[[-117.79747,33.76871],[-117.7966,33.76972],[-117.79606,33.7694],[-117.79747,33.76871]],[[-117.7937,33.76943],[-117.79331,33.76902],[-117.79353,33.76892],[-117.7937,33.76943]],[[-117.78349,33.75219],[-117.7829,33.75202],[-117.78335,33.75209],[-117.78349,33.75219]]],[[[-117.82716,33.81457],[-117.82715,33.81381],[-117.82715987016243,33.814570002507594],[-117.82716,33.81457]]],[[[-117.82664,33.83539],[-117.82392,33.83376],[-117.82341743518788,33.8338086353044],[-117.82664,33.83539]]],[[[-117.82238485099963,33.833908562806485],[-117.82175,33.83397],[-117.82188498756791,33.83428830401817],[-117.82238485099963,33.833908562806485]]],[[[-117.81797,33.80234],[-117.81552,33.8022],[-117.81395,33.80096],[-117.81425,33.79871],[-117.80887,33.7987],[-117.80887,33.80676],[-117.8025,33.80725],[-117.80238,33.80805],[-117.80089,33.80811],[-117.80053,33.80927],[-117.79775,33.81038],[-117.79929,33.81422],[-117.79940454787943,33.814237898106164],[-117.79885,33.81312],[-117.80083,33.81307],[-117.80089,33.8109],[-117.80892,33.81068],[-117.80887,33.80705],[-117.8098,33.80703],[-117.8157,33.80226],[-117.81797,33.80234]]],[[[-117.8172186656912,33.87020086341146],[-117.81413776949479,33.87067004918785],[-117.81453,33.87092],[-117.81721431971309,33.870210016887484],[-117.8172186656912,33.87020086341146]]],[[[-117.80963,33.78776],[-117.80633,33.78865],[-117.79917,33.78863],[-117.79917,33.79224],[-117.80222,33.79229],[-117.80222,33.7932],[-117.8057,33.79322],[-117.80485,33.79277],[-117.8057,33.79139],[-117.80963,33.79122],[-117.80963,33.78776]]],[[[-117.80785,33.7986],[-117.80784,33.79506],[-117.8057,33.79504],[-117.80569,33.79684],[-117.80351,33.79685],[-117.80351,33.79868],[-117.80785,33.7986]]],[[[-117.8054,33.77796],[-117.80539476982437,33.77757296700373],[-117.80448330040733,33.77795199389002],[-117.8054,33.77796]]],[[[-117.80421,33.87417],[-117.80035132075471,33.87224066037736],[-117.80294,33.87406],[-117.80421,33.87417]]],[[[-117.80009,33.88791],[-117.79912,33.88156],[-117.79998,33.88032],[-117.79805,33.87916],[-117.79775,33.87631],[-117.79686,33.87622],[-117.79727,33.87494],[-117.7949,33.87551],[-117.79488,33.87246],[-117.79371,33.87267],[-117.79273,33.87511],[-117.79326,33.87711],[-117.79215,33.87893],[-117.79267,33.87959],[-117.79193,33.87888],[-117.79214,33.88324],[-117.78972,33.88304],[-117.79009,33.88556],[-117.7955,33.88548],[-117.7952,33.88863],[-117.80004,33.8886],[-117.80009,33.88791]]],[[[-117.79831654060496,33.87081060443027],[-117.79829,33.87047],[-117.7951,33.86855],[-117.79831654060496,33.87081060443027]]],[[[-117.79316,33.86554],[-117.79112,33.86556],[-117.79048,33.86235],[-117.78527,33.86256],[-117.78108048111442,33.86378511688624],[-117.78116,33.8661],[-117.78636,33.86645],[-117.78659,33.87143],[-117.78914,33.87116],[-117.79034,33.86974],[-117.79148,33.86977],[-117.79127,33.86556],[-117.79316,33.86554]]],[[[-117.79078,33.80407],[-117.78873,33.79954],[-117.78543,33.79912],[-117.78496,33.79629],[-117.78558,33.79293],[-117.78305,33.79421],[-117.78186,33.79338],[-117.78017,33.79482],[-117.78018,33.79664],[-117.78235,33.7967],[-117.78241,33.80141],[-117.78176,33.80187],[-117.77672,33.80297],[-117.77564,33.80156],[-117.77278,33.80161],[-117.77285,33.8038],[-117.77547,33.80377],[-117.7766,33.80302],[-117.77665,33.80376],[-117.77875,33.80375],[-117.77838,33.8048],[-117.77944,33.80479],[-117.78049,33.80624],[-117.77846,33.80587],[-117.77811,33.80798],[-117.77524,33.80781],[-117.77458,33.81072],[-117.77801,33.81024],[-117.77837,33.8121],[-117.77938,33.81196],[-117.77952,33.81272],[-117.77854,33.81308],[-117.77922,33.81418],[-117.78351,33.81358],[-117.78212,33.80929],[-117.78348,33.80919],[-117.78376,33.81035],[-117.78525,33.80969],[-117.78672,33.81206],[-117.78787,33.81192],[-117.78677,33.81133],[-117.78703,33.81049],[-117.78783,33.8106],[-117.78755,33.80982],[-117.78893,33.81003],[-117.78816,33.80792],[-117.78858,33.80706],[-117.78753,33.8062],[-117.78655,33.80645],[-117.78642,33.80562],[-117.79078,33.80407]]],[[[-117.78481799084786,33.946297321916056],[-117.78308,33.94626],[-117.7759864628821,33.94114663755459],[-117.7831,33.9463],[-117.78481799084786,33.946297321916056]]],[[[-117.77941669173131,33.864271649236144],[-117.77867,33.86449],[-117.77840140595521,33.864757795845556],[-117.77941669173131,33.864271649236144]]],[[[-117.76667,33.80167],[-117.76403,33.79833],[-117.76195,33.79724],[-117.76205,33.79588],[-117.76005,33.79645],[-117.75817,33.79453],[-117.75601,33.79466],[-117.75311,33.79346],[-117.74872,33.79042],[-117.74685,33.79031],[-117.74585,33.79141],[-117.74325,33.7922],[-117.74158,33.79182],[-117.73996,33.78953],[-117.73708,33.79131],[-117.73625,33.79014],[-117.73683,33.78939],[-117.73495,33.78796],[-117.73562,33.78514],[-117.73757,33.78387],[-117.73744,33.78196],[-117.74047,33.78451],[-117.73842,33.78121],[-117.73894,33.78001],[-117.7384,33.77756],[-117.73795,33.77632],[-117.73436,33.77672],[-117.73439,33.77594],[-117.73345,33.77588],[-117.73357,33.77138],[-117.73001,33.76926],[-117.72978,33.76826],[-117.72996931818182,33.76821386363636],[-117.7264,33.7675],[-117.7188,33.7685],[-117.7126,33.7635],[-117.7017,33.7595],[-117.6929,33.7528],[-117.6838,33.7529],[-117.6781,33.7482],[-117.6731,33.7483],[-117.6721,33.75],[-117.677,33.7565],[-117.6775,33.7628],[-117.6813,33.7725],[-117.6794,33.7727],[-117.6773,33.7752],[-117.668,33.7813],[-117.6659,33.7866],[-117.66202335766424,33.786847445255475],[-117.6645,33.7878],[-117.6638,33.7906],[-117.6652,33.7909],[-117.6636,33.7908],[-117.663,33.7892],[-117.6629,33.7915],[-117.664,33.7919],[-117.6618,33.7927],[-117.6629,33.7966],[-117.6571,33.7978],[-117.6583,33.7989],[-117.6577,33.8024],[-117.6552,33.8026],[-117.6533,33.8051],[-117.6506,33.8113],[-117.6515,33.8209],[-117.6437,33.8213],[-117.6405,33.8188],[-117.6384,33.8241],[-117.639,33.8265],[-117.6366,33.83],[-117.6621,33.8575],[-117.6743,33.858],[-117.67460972700297,33.86214259866469],[-117.67967,33.86321],[-117.67861,33.86081],[-117.68312,33.86179],[-117.68417,33.85925],[-117.6805,33.85767],[-117.68178,33.8564],[-117.68351,33.85725],[-117.68437,33.85639],[-117.68546,33.8568],[-117.68435,33.8579],[-117.68666,33.8602],[-117.68596,33.86187],[-117.6875,33.86174],[-117.68714,33.8624],[-117.68809,33.86271],[-117.68879,33.86251],[-117.68889,33.86093],[-117.68822,33.86035],[-117.68844,33.85902],[-117.68633,33.85753],[-117.68567,33.85473],[-117.6864,33.85405],[-117.69098,33.85349],[-117.69194,33.85253],[-117.69388,33.85389],[-117.69271,33.85505],[-117.69492,33.85661],[-117.69566,33.85505],[-117.69728,33.85618],[-117.69822,33.85291],[-117.69953,33.85193],[-117.69887,33.85145],[-117.69955,33.85078],[-117.69851,33.85025],[-117.70053,33.8495],[-117.70059,33.8477],[-117.6973,33.84518],[-117.69765,33.84363],[-117.70008,33.84156],[-117.70097,33.83831],[-117.70253,33.83674],[-117.69966,33.83443],[-117.70096,33.83354],[-117.70267,33.829],[-117.70521,33.82887],[-117.70575,33.82654],[-117.70673,33.8271],[-117.70646,33.82794],[-117.70905,33.82821],[-117.71083,33.83015],[-117.71078,33.83128],[-117.71285,33.83262],[-117.71288,33.8346],[-117.71417,33.83299],[-117.71349,33.83131],[-117.71422,33.82978],[-117.71402,33.8274],[-117.71474,33.82704],[-117.71865,33.83002],[-117.72064,33.82999],[-117.72033,33.83355],[-117.72134,33.83492],[-117.72233,33.84147],[-117.72428,33.84286],[-117.72518,33.84488],[-117.7273,33.84543],[-117.72904,33.84563],[-117.73183,33.84231],[-117.73236,33.84319],[-117.74717,33.82578],[-117.76075,33.82739],[-117.74585,33.82562],[-117.74708,33.82415],[-117.76615,33.82395],[-117.76609,33.80168],[-117.76667,33.80167]]],[[[-117.76424,33.7735],[-117.76279703708424,33.77352779788454],[-117.7627970126865,33.773527847123596],[-117.76424,33.7735]]],[[[-117.74762997943917,33.77924172535982],[-117.7459,33.7766],[-117.74574806352744,33.776486447478405],[-117.7472,33.7794],[-117.74762997943917,33.77924172535982]]],[[[-117.7365241323145,33.76959277257189],[-117.7364,33.7695],[-117.73578698113208,33.76937739622642],[-117.7365241323145,33.76959277257189]]],[[[-117.73571,33.87058],[-117.72431,33.86704],[-117.72396320505143,33.86702155667667],[-117.73571,33.87058]]],[[[-117.71997112396409,33.86680924896409],[-117.71284,33.86643],[-117.71260788634127,33.86651628194992],[-117.71997112396409,33.86680924896409]]],[[[-117.71111510403483,33.86707118323799],[-117.70216,33.8704],[-117.69980144112071,33.87182738758149],[-117.71111510403483,33.86707118323799]]],[[[-117.69751122704835,33.872790181523754],[-117.69522777777777,33.87296222222222],[-117.69725,33.8729],[-117.69751122704835,33.872790181523754]]],[[[-117.68992222910984,33.87312546987354],[-117.68815857727738,33.87287492323439],[-117.6888,33.87316],[-117.68992222910984,33.87312546987354]]],[[[-117.68787827296975,33.88286659275864],[-117.68756,33.87671],[-117.68503,33.8757],[-117.68567,33.87488],[-117.68419,33.87402],[-117.68358,33.87084],[-117.68527760479041,33.871594491017966],[-117.68208,33.86984],[-117.67509,33.86917],[-117.67505464465584,33.86870907106883],[-117.6716,33.8694],[-117.6793,33.8776],[-117.68787827296975,33.88286659275864]]],[[[-117.66202335766424,33.786847445255475],[-117.6619,33.7868],[-117.66184090909091,33.78685909090909],[-117.66202335766424,33.786847445255475]]],[[[-117.66184090909091,33.78685909090909],[-117.6612,33.7869],[-117.6606,33.7881],[-117.66184090909091,33.78685909090909]]]]}},{"type":"Feature","properties":{"GEOID":"0605991413","NAME":"Irvine-Lake Forest","COUNTY":"059"},"geometry":{"type":"MultiPolygon","coordinates":[[[[-117.77999,33.73491],[-117.76798,33.74703],[-117.76796477163956,33.74707322278426],[-117.77999,33.73491]]],[[[-117.76279703708424,33.77352779788454],[-117.75853,33.77361],[-117.75717,33.77247],[-117.75777,33.7706],[-117.75418,33.77065],[-117.75424,33.77362],[-117.75166,33.77365],[-117.74996,33.77153],[-117.75229,33.76743],[-117.74653,33.76475],[-117.74616,33.76314],[-117.74163,33.76074],[-117.7415,33.75391],[-117.73825,33.75405],[-117.73567,33.75077],[-117.73084,33.75434],[-117.72511,33.75125],[-117.71706,33.74853],[-117.70682,33.74049],[-117.70668,33.73883],[-117.70079,33.74011],[-117.70063,33.73867],[-117.70831,33.7367],[-117.70991,33.73466],[-117.71692,33.73287],[-117.71818,33.72995],[-117.71756,33.72844],[-117.71872,33.72531],[-117.71904,33.72004],[-117.72438,33.71799],[-117.73146,33.71795],[-117.73544,33.71553],[-117.73784,33.71151],[-117.73386,33.70797],[-117.72742,33.70389],[-117.72316,33.70933],[-117.72026,33.7098],[-117.71748,33.70694],[-117.71056,33.70357],[-117.7085,33.70149],[-117.70462,33.70084],[-117.69841,33.69802],[-117.68787,33.69196],[-117.67803225793834,33.685028636557576],[-117.67713,33.6861],[-117.65489,33.70667],[-117.64798,33.70618],[-117.64202,33.70378],[-117.64172,33.70224],[-117.64170251130683,33.70222059271602],[-117.6422,33.7063],[-117.6448,33.7106],[-117.6517,33.7325],[-117.6551,33.7355],[-117.6667,33.7412],[-117.67,33.7476],[-117.6778,33.7481],[-117.6838,33.7529],[-117.6924,33.7526],[-117.7017,33.7595],[-117.7126,33.7635],[-117.7188,33.7685],[-117.7264,33.7675],[-117.72996931818182,33.76821386363636],[-117.73097,33.76797],[-117.73578698113208,33.76937739622642],[-117.7364,33.7695],[-117.7365241323145,33.76959277257189],[-117.73672,33.76965],[-117.7457,33.77639],[-117.74574806352744,33.776486447478405],[-117.7459,33.7766],[-117.74762997943917,33.77924172535982],[-117.74883,33.7788],[-117.75082,33.78019],[-117.75377,33.77917],[-117.75712,33.77569],[-117.75801,33.77595],[-117.75854,33.77361],[-117.7627970126865,33.773527847123596],[-117.76279703708424,33.77352779788454]]],[[[-117.7266,33.63471],[-117.72648493161013,33.634388278175244],[-117.71997,33.6289],[-117.7266,33.63471]]],[[[-117.72645573818558,33.63430665574336],[-117.72611,33.63334],[-117.72089,33.62833],[-117.71446943712574,33.621479808383235],[-117.70857372360516,33.615487969098716],[-117.70762673345332,33.614659176826166],[-117.70748719150265,33.61477188378632],[-117.72645573818558,33.63430665574336]]],[[[-117.71838,33.6371],[-117.71834347703565,33.63707089286597],[-117.71828489130435,33.63717091728526],[-117.71838,33.6371]]],[[[-117.70577,33.66381],[-117.69956005306418,33.65946599896381],[-117.69559697361947,33.66417185773884],[-117.69986,33.66715],[-117.70577,33.66381]]],[[[-117.64110056818181,33.701552613636366],[-117.63935,33.69961],[-117.63929027096015,33.699597492636954],[-117.64110056818181,33.701552613636366]]],[[[-117.63717598527545,33.663035642550945],[-117.63715,33.66304],[-117.62673,33.66992],[-117.62535369006282,33.67146494870419],[-117.63717598527545,33.663035642550945]]],[[[-117.63340650905282,33.697084689510696],[-117.63198,33.69534],[-117.63018447575183,33.69414458412354],[-117.63340650905282,33.697084689510696]]],[[[-117.62741435693842,33.6916168507063],[-117.62358,33.68589],[-117.62126233657463,33.68589839733125],[-117.6219,33.6884],[-117.6263,33.6906],[-117.62741435693842,33.6916168507063]]],[[[-117.6246214659686,33.67237329842929],[-117.6239,33.6734],[-117.62374145299145,33.673875641025646],[-117.6246214659686,33.67237329842929]]]]}},{"type":"Feature","properties":{"GEOID":"0605992150","NAME":"North Coast","COUNTY":"059"},"geometry":{"type":"MultiPolygon","coordinates":[[[[-118.1478,33.6941],[-118.1259,33.6972],[-118.0965,33.6537],[-118.0751,33.6396],[-118.0498,33.62],[-118.0336,33.6094],[-118.0009,33.5932],[-117.9891,33.5858],[-117.9571215666152,33.630231094360184],[-117.95685,33.63115],[-117.95678574869231,33.631137490895846],[-117.95603334509278,33.63372739716362],[-117.95612,33.63376],[-117.95571,33.63518],[-117.95561671297358,33.63516151860797],[-117.95328030353984,33.643203853121335],[-117.95471,33.64318],[-117.95455,33.64373],[-117.95959,33.62978],[-117.95996,33.62934],[-117.96371,33.63122],[-117.97464,33.63751],[-118.00364,33.65553],[-118.00633,33.65297],[-118.00371,33.65558],[-118.03731,33.68295],[-118.05936,33.70621],[-118.07985,33.72299],[-118.08874,33.7303],[-118.0919,33.72958],[-118.09147,33.73127],[-118.09223,33.73265],[-118.09577,33.73463],[-118.09666,33.73413],[-118.10023,33.73479],[-118.10263,33.73658],[-118.10709,33.73816],[-118.10908,33.73534],[-118.10734,33.73834],[-118.11558,33.73997],[-118.11654,33.73864],[-118.1178,33.73966],[-118.11362065001711,33.746368956551485],[-118.1141,33.7461],[-118.1415,33.7036],[-118.1478,33.6941]]],[[[-118.0971,33.7742],[-118.09703701141545,33.77407271056872],[-118.09702869386227,33.774200325598805],[-118.0971,33.7742]]],[[[-118.09421202566453,33.75725886342805],[-118.09197,33.75847],[-118.09215,33.7615],[-118.092,33.7585],[-118.09421202566453,33.75725886342805]]],[[[-118.08251,33.7283],[-118.08240191704556,33.728187523429526],[-118.07654,33.7255],[-118.08251,33.7283]]],[[[-118.08222900178144,33.72800757908963],[-118.08005,33.72574],[-118.0778,33.72463],[-118.08222900178144,33.72800757908963]]],[[[-118.07224943852997,33.77793902581304],[-118.07217,33.77797],[-118.07206,33.78035],[-118.07213277330264,33.78035293440737],[-118.0722,33.778],[-118.07224943852997,33.77793902581304]]],[[[-118.07187412658227,33.78499713924051],[-118.07187,33.78496],[-118.07187018453062,33.784997049648425],[-118.07187412658227,33.78499713924051]]],[[[-118.06396,33.71152],[-118.05346,33.70241],[-118.03218,33.68018],[-118.03215,33.68266],[-118.02673,33.68271],[-118.02674,33.68362],[-118.02457,33.68364],[-118.02351,33.68546],[-118.02134,33.68548],[-118.02135,33.68638],[-118.02211,33.68638],[-118.02053,33.68912],[-118.01814,33.68914],[-118.01819,33.69277],[-118.015,33.69367],[-118.01504,33.69765],[-118.01669,33.69789],[-118.02094,33.6948],[-118.03894,33.70801],[-118.0426,33.70643],[-118.04556,33.70671],[-118.05025,33.70899],[-118.05206,33.71037],[-118.05209,33.71155],[-118.06396,33.71152]]],[[[-118.04332,33.75205],[-118.04266,33.74967],[-118.04329177741761,33.75819899513776],[-118.04332,33.75205]]],[[[-118.04277,33.77614],[-118.04270208059839,33.77467973286521],[-118.0426696335077,33.77486047120512],[-118.04165656716417,33.78077002487567],[-118.04277,33.77614]]],[[[-118.04267506988623,33.77409900255398],[-118.04251,33.77055],[-118.0424600382291,33.77409728573436],[-118.04267506988623,33.77409900255398]]],[[[-118.04266,33.74967],[-118.04192531776802,33.74967979576309],[-118.04193,33.75009],[-118.03336,33.7562],[-118.04266,33.74967]]],[[[-118.04122,33.71025],[-118.04121,33.70961],[-118.04119,33.7086],[-118.0397,33.70863],[-118.03972,33.71027],[-118.04122,33.71025]]],[[[-117.99396,33.74455],[-117.99393,33.74287],[-117.99265,33.74288],[-117.99267,33.74198],[-117.99039,33.74199],[-117.99084,33.74469],[-117.99396,33.74455]]],[[[-117.99390996805722,33.741057966309924],[-117.99382,33.73533],[-117.99385,33.73746],[-117.9893,33.73746],[-117.98934,33.74019],[-117.99052,33.74018],[-117.99053,33.74108],[-117.99390996805722,33.741057966309924]]],[[[-117.98947,33.75019],[-117.98854,33.74517],[-117.98928,33.74469],[-117.98924,33.74226],[-117.98849,33.74161],[-117.98935,33.74109],[-117.98741,33.7411],[-117.98737,33.73747],[-117.98625,33.73747],[-117.9863,33.74039],[-117.98343,33.74113],[-117.98348,33.74471],[-117.97661,33.7448],[-117.97662,33.74844],[-117.97554,33.74845],[-117.97556,33.75028],[-117.97708,33.75072],[-117.97667,33.75209],[-117.98795,33.75203],[-117.98794,33.7511],[-117.98947,33.75107],[-117.98947,33.75019]]],[[[-117.98737,33.73385],[-117.98298,33.73387],[-117.9835,33.73654],[-117.98297,33.7375],[-117.98583,33.73748],[-117.9858,33.73567],[-117.98732,33.73566],[-117.98737,33.73385]]],[[[-117.97191950468104,33.71992521119095],[-117.97178,33.71576],[-117.97183069201837,33.71984915614833],[-117.97191950468104,33.71992521119095]]],[[[-117.95455,33.64373],[-117.95334,33.64374],[-117.95132487258589,33.65063979626595],[-117.95204,33.65063],[-117.95385,33.64391],[-117.95455,33.64373]]],[[[-117.95083816397859,33.65230058793944],[-117.95061700155468,33.65237140961451],[-117.95047467551711,33.6528613210091],[-117.950679194958,33.6528600662886],[-117.95083816397859,33.65230058793944]]],[[[-117.95047788699765,33.65356855304225],[-117.94341690147549,33.677155427574164],[-117.9423,33.681],[-117.9417598108747,33.68203716312057],[-117.93928,33.68708],[-117.9385612565445,33.688178387434554],[-117.9348,33.6954],[-117.9179,33.7214],[-117.91583174682239,33.72752815756326],[-117.92001,33.72749],[-117.91993,33.72526],[-117.91663,33.72522],[-117.91898,33.72024],[-117.94044,33.68681],[-117.94472,33.67608],[-117.94576,33.67238],[-117.94513,33.67239],[-117.95047788699765,33.65356855304225]]],[[[-117.91562306016822,33.72814648839048],[-117.91526508249497,33.729207162977865],[-117.91553,33.72936],[-117.91554873555252,33.73099936084521],[-117.91559095151378,33.73099880719326],[-117.91562306016822,33.72814648839048]]]]}},{"type":"Feature","properties":{"GEOID":"0605991977","NAME":"Mission Viejo","COUNTY":"059"},"geometry":{"type":"MultiPolygon","coordinates":[[[[-117.7076,33.6147],[-117.70673052631578,33.61399263157894],[-117.70749761938703,33.61478262295082],[-117.7076,33.6147]]],[[[-117.69812758187231,33.60834068971221],[-117.69542679454067,33.60699895241604],[-117.69333437956206,33.60603131386862],[-117.69466,33.60681],[-117.69812758187231,33.60834068971221]]],[[[-117.69588,33.613],[-117.6934760667633,33.616476319810694],[-117.69368,33.61635],[-117.69588,33.613]]],[[[-117.66355,33.64076],[-117.66252,33.6418],[-117.66224090556803,33.64223554286491],[-117.66355,33.64076]]],[[[-117.65902,33.55605],[-117.65899000652577,33.53383483341973],[-117.65332,33.53035],[-117.65214,33.53075],[-117.65057,33.52942],[-117.65125,33.52908],[-117.63067,33.51641],[-117.62631,33.51872],[-117.61981,33.51919],[-117.62012,33.51731],[-117.62264,33.51352],[-117.62229,33.50862],[-117.62095,33.50452],[-117.61828130811105,33.49987635111595],[-117.6181,33.4999],[-117.6095048192771,33.4835],[-117.59498,33.4835],[-117.59109,33.48695],[-117.5893,33.48669],[-117.58574,33.4889],[-117.58428,33.48883],[-117.58323,33.48944],[-117.58292,33.49077],[-117.57987,33.49083],[-117.57841,33.48344],[-117.57342,33.48342],[-117.57339,33.46899],[-117.57782,33.46899],[-117.57815,33.46562],[-117.579,33.4647],[-117.57119,33.46099],[-117.5721,33.45903],[-117.57118,33.45903],[-117.5712,33.45591],[-117.57199,33.45613],[-117.57173,33.45447],[-117.57334,33.45446],[-117.57332159949249,33.45324556650455],[-117.5598,33.4514],[-117.5382,33.4549],[-117.5095,33.4703],[-117.5097,33.5091],[-117.5038,33.5089],[-117.5032,33.5204],[-117.5099,33.5205],[-117.5102,33.534],[-117.4579,33.6022],[-117.4626,33.5969],[-117.4643,33.5968],[-117.4654,33.5937],[-117.4682,33.5934],[-117.4699,33.5915],[-117.4745,33.5919],[-117.4834,33.5953],[-117.4924,33.5923],[-117.4968,33.5923],[-117.4994,33.5903],[-117.5121,33.5922],[-117.515,33.5894],[-117.5214,33.5866],[-117.5242,33.583],[-117.5372,33.5774],[-117.541,33.5741],[-117.549,33.5569],[-117.5495,33.5441],[-117.5486,33.5408],[-117.5498,33.5338],[-117.5511,33.5343],[-117.5517,33.5376],[-117.5542,33.5341],[-117.5547,33.5378],[-117.5581,33.5389],[-117.5587,33.5421],[-117.5616,33.5436],[-117.5609,33.546],[-117.564,33.5477],[-117.5649,33.5502],[-117.5659,33.5536],[-117.5645,33.564],[-117.5673,33.5683],[-117.5652,33.5713],[-117.5671,33.5791],[-117.5695,33.5832],[-117.5672,33.5858],[-117.5683,33.5908],[-117.5664,33.6021],[-117.5639,33.6064],[-117.5618,33.6178],[-117.5628,33.6206],[-117.5617,33.6199],[-117.5596,33.6219],[-117.5544,33.6295],[-117.5557,33.6332],[-117.5549,33.6399],[-117.55642783906555,33.64012917585983],[-117.55928,33.63476],[-117.55887,33.63202],[-117.56019,33.62748],[-117.5659,33.61801],[-117.5663,33.61267],[-117.57356,33.60917],[-117.5701,33.61215],[-117.56903,33.61835],[-117.57085,33.6212],[-117.57099,33.62772],[-117.57298,33.63105],[-117.574,33.63829],[-117.57821,33.64113],[-117.5783,33.64281],[-117.57857,33.64193],[-117.57941,33.6424],[-117.58405,33.63931],[-117.58928,33.62997],[-117.59198,33.6266],[-117.59163,33.62566],[-117.5967,33.61966],[-117.59659,33.61399],[-117.59482,33.61386],[-117.59441,33.61058],[-117.5962,33.60617],[-117.59505,33.59892],[-117.60168,33.59453],[-117.60154,33.58977],[-117.60659,33.58912],[-117.61338,33.5861],[-117.6186,33.58731],[-117.614,33.60138],[-117.61777,33.60242],[-117.62309,33.60145],[-117.62369,33.59835],[-117.62649,33.5959],[-117.6288,33.59606],[-117.63019,33.59516],[-117.63715,33.59667],[-117.63715136363636,33.59667354545454],[-117.63784,33.59604],[-117.63914,33.59624],[-117.63845,33.58891],[-117.64195,33.58297],[-117.64006,33.58133],[-117.64276,33.57746],[-117.65049,33.57061],[-117.65398,33.56485],[-117.65494,33.5607],[-117.65902,33.55605]]],[[[-117.62493,33.66984],[-117.60666,33.66488],[-117.60768,33.65934],[-117.60726,33.65798],[-117.60848,33.65741],[-117.60877,33.65564],[-117.60495,33.651],[-117.60375,33.65049],[-117.60224,33.64581],[-117.60009,33.64624],[-117.59882,33.64923],[-117.58699,33.65684],[-117.5836,33.65729],[-117.58275,33.6583],[-117.5765,33.65661],[-117.57625,33.65744],[-117.5649,33.65743],[-117.56494,33.66462],[-117.56490052989335,33.66462013594755],[-117.565,33.6684],[-117.5751,33.6613],[-117.5856,33.6592],[-117.5905,33.6596],[-117.5983,33.6534],[-117.6,33.6532],[-117.6035,33.6833],[-117.6073,33.686],[-117.6136,33.6869],[-117.62056475757262,33.68331812467694],[-117.62056,33.68327],[-117.6232,33.6748],[-117.62374145299145,33.673875641025646],[-117.6239,33.6734],[-117.6246214659686,33.67237329842929],[-117.62476925708737,33.67212099204422],[-117.6242,33.67276],[-117.61961,33.6728],[-117.62138,33.66888],[-117.62493,33.66984]]],[[[-117.55624073773882,33.65079325448681],[-117.55604954718928,33.65132184012378],[-117.55624,33.65132],[-117.55624073773882,33.65079325448681]]]]}},{"type":"Feature","properties":{"GEOID":"0605993110","NAME":"South Coast","COUNTY":"059"},"geometry":{"type":"MultiPolygon","coordinates":[[[[-117.8699,33.5178],[-117.836,33.5],[-117.8266,33.497],[-117.8164,33.4909],[-117.8113,33.482],[-117.7933,33.4698],[-117.7905,33.4612],[-117.7651,33.4315],[-117.7414,33.4101],[-117.7353,33.4074],[-117.7136,33.4088],[-117.6662,33.375],[-117.6538,33.3648],[-117.6479,33.3636],[-117.6362,33.3491],[-117.6111,33.334],[-117.5961,33.3859],[-117.57914198545684,33.45141960164401],[-117.5962,33.3869],[-117.60242,33.39921],[-117.61373,33.41268],[-117.62029,33.41948],[-117.62357,33.41762],[-117.62033,33.41953],[-117.6222,33.42168],[-117.62723,33.42555],[-117.63247,33.43113],[-117.64487,33.44028],[-117.6448563795878,33.44031445163087],[-117.65663,33.44853],[-117.66538,33.45269],[-117.67535,33.45918],[-117.68134,33.46165],[-117.68952,33.46117],[-117.68986,33.45785],[-117.69136,33.45428],[-117.70472,33.45801],[-117.70805,33.4606],[-117.71462,33.45991],[-117.71571,33.4611],[-117.71502,33.4632],[-117.71557,33.46452],[-117.71978,33.47183],[-117.72185,33.47364],[-117.7219,33.4755],[-117.72521,33.48097],[-117.7278,33.48361],[-117.73226,33.48483],[-117.73226040888962,33.48487994294563],[-117.73441,33.48458],[-117.73353,33.48669],[-117.73463,33.48823],[-117.73647,33.48894],[-117.7379,33.4886],[-117.73712,33.48951],[-117.73827,33.48952],[-117.73808,33.49059],[-117.73889,33.49065],[-117.7386,33.49193],[-117.7401,33.49541],[-117.74521,33.50067],[-117.74622,33.50059],[-117.74575,33.50123],[-117.74825,33.50352],[-117.74815,33.50453],[-117.74932,33.5058],[-117.75096,33.50644],[-117.75212,33.50931],[-117.75629,33.51308],[-117.75775,33.51337],[-117.75787,33.51253],[-117.75836,33.51422],[-117.76002,33.51435],[-117.76069,33.51333],[-117.76098,33.51637],[-117.76288,33.51907],[-117.76449,33.51954],[-117.76612,33.52337],[-117.76795,33.52488],[-117.7693,33.52469],[-117.76909,33.52535],[-117.77113,33.52698],[-117.77209,33.52676],[-117.77232,33.52808],[-117.77681,33.53179],[-117.78381,33.5409],[-117.78659,33.54236],[-117.78915,33.54221],[-117.79035,33.54324],[-117.79296,33.5429],[-117.79348,33.54418],[-117.79549,33.54532],[-117.79724,33.54466],[-117.79716,33.54526],[-117.79887,33.54547],[-117.79988,33.54449],[-117.80146,33.54651],[-117.80447,33.54608],[-117.80614,33.54699],[-117.80572,33.54829],[-117.8068,33.54786],[-117.80725,33.54855],[-117.80527,33.5506],[-117.80666,33.55237],[-117.81263,33.55469],[-117.81442,33.55242],[-117.8164,33.55373],[-117.81965,33.5536],[-117.82014,33.55598],[-117.81976,33.55679],[-117.81685,33.55683],[-117.81568,33.55873],[-117.81095,33.55638],[-117.81242,33.5549],[-117.8067,33.55273],[-117.80501,33.55082],[-117.80174,33.55412],[-117.79468,33.54924],[-117.79183,33.55196],[-117.78655,33.54874],[-117.78413,33.55078],[-117.78521,33.55216],[-117.7836,33.55264],[-117.78285,33.55122],[-117.78309,33.54903],[-117.78157,33.54891],[-117.77441,33.55602],[-117.77414,33.55686],[-117.77694,33.5592],[-117.77386,33.55852],[-117.77304,33.55996],[-117.77332,33.56134],[-117.77092,33.56357],[-117.76467,33.56425],[-117.76401,33.57429],[-117.76231,33.58336],[-117.76152,33.58345],[-117.76039,33.58848],[-117.76012,33.59442],[-117.76158,33.59961],[-117.76084,33.60302],[-117.75951,33.60667],[-117.75636,33.6103],[-117.75406,33.61228],[-117.75735,33.61533],[-117.75695,33.6161],[-117.75555,33.6205],[-117.75579,33.62332],[-117.75686556619911,33.6253217482039],[-117.77435,33.61839],[-117.77623,33.5996],[-117.78257,33.60215],[-117.79005,33.60347],[-117.79930997852905,33.60702808435533],[-117.8003197704918,33.60667854098361],[-117.7996845727724,33.60625047295532],[-117.79861,33.60595],[-117.79592138453765,33.60371441131885],[-117.7959,33.6037],[-117.79589633100697,33.60369357926221],[-117.79588,33.60368],[-117.79381,33.6000425],[-117.79349076923077,33.599483846153845],[-117.79349539881345,33.59948966820479],[-117.79312,33.59883],[-117.79311532258065,33.59882681451613],[-117.79304126344086,33.598776377688175],[-117.79279465337562,33.59860842772995],[-117.79287504813246,33.59870953022718],[-117.78396792582417,33.5951273179945],[-117.78388,33.5951],[-117.78391211741094,33.595104873306575],[-117.7839,33.5951],[-117.7908,33.5961],[-117.79105564261341,33.596421489953244],[-117.79693,33.60266],[-117.79732494791666,33.604305616319444],[-117.79739649384885,33.60439559074932],[-117.79977,33.60366],[-117.80122,33.60546],[-117.8024,33.60467],[-117.80327096,33.60245384],[-117.8043,33.5998],[-117.8037775,33.59771],[-117.8036,33.59701],[-117.80360119300911,33.59700477203648],[-117.8036,33.597],[-117.80374354285715,33.59638097142857],[-117.80517,33.59013],[-117.80519314977656,33.59012954158858],[-117.8052,33.5901],[-117.80637057129141,33.589577988478155],[-117.80666,33.58877],[-117.8126,33.58676],[-117.81260325056434,33.586750158013544],[-117.8129,33.5822],[-117.81440032786885,33.58093049180328],[-117.8155,33.57998],[-117.81519,33.57771],[-117.81587375868918,33.57708468222443],[-117.816,33.5761],[-117.81605655818309,33.57608052915008],[-117.81604,33.57605],[-117.8191956501182,33.574999858156026],[-117.82207058752026,33.57401012560778],[-117.82139,33.57185],[-117.82190941135002,33.570283521325344],[-117.8219,33.5701],[-117.82199771271729,33.57001721561452],[-117.82202,33.56995],[-117.82667966101695,33.56605056497175],[-117.8291,33.564],[-117.82912013099678,33.56400825887048],[-117.82913,33.564],[-117.83301,33.56558],[-117.83406098252144,33.567615235993884],[-117.8699,33.5178]]],[[[-117.8351994933655,33.62889958986731],[-117.83494116567233,33.62869046744903],[-117.83491377683386,33.6286813318535],[-117.83517,33.62889],[-117.8351994933655,33.62889958986731]]],[[[-117.82465515151515,33.62186484848485],[-117.82210484963052,33.62070221086097],[-117.82211,33.62071],[-117.82465515151515,33.62186484848485]]],[[[-117.815798006993,33.61229734265734],[-117.8155,33.6119],[-117.8150901920354,33.61177932035398],[-117.815798006993,33.61229734265734]]],[[[-117.80883420038097,33.60993706514286],[-117.80788105343805,33.60965638383452],[-117.80609418700713,33.60936097446489],[-117.80883420038097,33.60993706514286]]],[[[-117.80474472198831,33.60907724803311],[-117.80327569335034,33.60855188355411],[-117.80452,33.60903],[-117.80474472198831,33.60907724803311]]],[[[-117.7614,33.5828],[-117.76136,33.58182],[-117.74937,33.58194],[-117.74943,33.5416],[-117.75429,33.5417],[-117.75416,33.53052],[-117.75294,33.53052],[-117.75295,33.52714],[-117.74944,33.52712],[-117.74943,33.52523],[-117.74099,33.52527],[-117.74097,33.51281],[-117.73917,33.51282],[-117.73668,33.51281],[-117.73315,33.52013],[-117.73826,33.53247],[-117.737,33.53955],[-117.73518,33.54165],[-117.73468,33.54031],[-117.72668,33.53887],[-117.72454,33.54182],[-117.72224,33.54343],[-117.72113,33.54319],[-117.7195,33.54941],[-117.72162,33.55112],[-117.7212,33.55036],[-117.72283,33.54906],[-117.72345,33.54594],[-117.72585,33.5442],[-117.72762,33.54451],[-117.72935,33.54503],[-117.72929,33.54921],[-117.73,33.55017],[-117.73013,33.54729],[-117.73127,33.54734],[-117.7336,33.54982],[-117.73515,33.5487],[-117.73614,33.54962],[-117.73724,33.54839],[-117.73866,33.55346],[-117.73683,33.55378],[-117.73695,33.55572],[-117.73508,33.55697],[-117.73643,33.55765],[-117.73646,33.55852],[-117.73823,33.55867],[-117.73843,33.55988],[-117.74013,33.55962],[-117.74003,33.56238],[-117.74333,33.56194],[-117.7408,33.57145],[-117.74244,33.57364],[-117.742,33.57518],[-117.74101,33.57548],[-117.74251,33.57587],[-117.74335,33.57417],[-117.74421,33.57493],[-117.74322,33.5773],[-117.74418,33.57946],[-117.74573,33.58036],[-117.746,33.58234],[-117.7548,33.58652],[-117.75631,33.58485],[-117.75717,33.58564],[-117.75610946132122,33.586650557474485],[-117.7614,33.5828]]],[[[-117.74783,33.61899],[-117.74626,33.62116],[-117.74312,33.62551],[-117.74783,33.61899]]],[[[-117.74069714682894,33.605694389503334],[-117.7394869288016,33.60697808010278],[-117.73984,33.60686],[-117.74069714682894,33.605694389503334]]],[[[-117.74014,33.51152],[-117.74010864978904,33.51148864978903],[-117.73917,33.51282],[-117.74014,33.51152]]],[[[-117.73978846153847,33.51116846153846],[-117.7394,33.51078],[-117.73928221334204,33.51080223943892],[-117.73978846153847,33.51116846153846]]],[[[-117.73654,33.51132],[-117.73617,33.50959],[-117.73603154209216,33.50961572442004],[-117.73654,33.51132]]],[[[-117.73489,33.49882],[-117.73457,33.49816],[-117.73457,33.50282],[-117.73489,33.49882]]],[[[-117.73457,33.49816],[-117.73227,33.49813],[-117.73226,33.49543],[-117.73226989782148,33.4982013900135],[-117.73457,33.49816]]],[[[-117.73227,33.49411],[-117.73226930116833,33.493464978364344],[-117.73118,33.49499],[-117.73227,33.49411]]],[[[-117.71913696629214,33.62645966292135],[-117.71013,33.61685],[-117.70596886435331,33.613208233438485],[-117.71261204986146,33.62004972299166],[-117.71913696629214,33.62645966292135]]],[[[-117.7173,33.60142],[-117.71647232689716,33.597623213861574],[-117.708,33.59437],[-117.71642,33.59762],[-117.7173,33.60142]]],[[[-117.7125,33.60923],[-117.71072,33.60757],[-117.7105203509497,33.6075198806326],[-117.7125,33.60923]]],[[[-117.71176,33.58389],[-117.7098618939587,33.58101850624522],[-117.71047,33.5828],[-117.71176,33.58389]]],[[[-117.70963562850031,33.58067620721842],[-117.70942,33.58035],[-117.70692,33.57972],[-117.70963562850031,33.58067620721842]]],[[[-117.7078389880456,33.60684675840979],[-117.70614390531676,33.606421229343006],[-117.70627,33.60651],[-117.7078389880456,33.60684675840979]]],[[[-117.70680380740485,33.59325098112066],[-117.70676,33.59321],[-117.70155,33.59571],[-117.70680380740485,33.59325098112066]]],[[[-117.70468702663787,33.60539558675306],[-117.70373294425144,33.60463701305237],[-117.70377,33.60475],[-117.70468702663787,33.60539558675306]]],[[[-117.70466780117144,33.61206956150071],[-117.7034,33.61096],[-117.70253110227007,33.61052833606365],[-117.702772740668,33.61070263261298],[-117.7034,33.611],[-117.70399403042876,33.61158356293222],[-117.70466780117144,33.61206956150071]]],[[[-117.70296,33.57151],[-117.70083129167834,33.569635811151585],[-117.70095,33.57222],[-117.70084,33.56977],[-117.70296,33.57151]]],[[[-117.70159658339591,33.59812301990806],[-117.70155,33.59571],[-117.70153,33.59792],[-117.70159658339591,33.59812301990806]]],[[[-117.69906,33.49122],[-117.68733,33.4872],[-117.68699657862602,33.48720211026186],[-117.69906,33.49122]]],[[[-117.69812758187231,33.60834068971221],[-117.69254135048236,33.60556547860502],[-117.69466,33.60681],[-117.69812758187231,33.60834068971221]]],[[[-117.6866466463895,33.48720432502285],[-117.68259,33.48723],[-117.68661115932585,33.48728972018801],[-117.6866466463895,33.48720432502285]]],[[[-117.68245868007364,33.5233469310296],[-117.68221,33.52294],[-117.68129765283842,33.52308864082969],[-117.68245868007364,33.5233469310296]]],[[[-117.68231149501659,33.600483338870426],[-117.67564976740042,33.59717382675341],[-117.67739,33.59847],[-117.68231149501659,33.600483338870426]]],[[[-117.68092,33.50893],[-117.6797,33.51045],[-117.6796863729128,33.510558387755104],[-117.68092,33.50893]]],[[[-117.68035130735,33.52287811022544],[-117.6799,33.52086],[-117.68018,33.52284],[-117.68035130735,33.52287811022544]]],[[[-117.67965328257034,33.510821583248216],[-117.67905,33.51562],[-117.67916,33.51795],[-117.67965328257034,33.510821583248216]]],[[[-117.67787824258355,33.54079629553136],[-117.67772,33.54072],[-117.67441,33.54177],[-117.67787824258355,33.54079629553136]]],[[[-117.67645,33.56353],[-117.67638,33.56863],[-117.6764,33.57803],[-117.67645,33.56353]]],[[[-117.67441,33.54177],[-117.67413,33.54314],[-117.67319,33.5504],[-117.67441,33.54177]]],[[[-117.66657626522327,33.46692185385656],[-117.65638,33.46327],[-117.66644,33.46693],[-117.66455,33.4684],[-117.66645,33.46693],[-117.66657626522327,33.46692185385656]]],[[[-117.64519,33.4418],[-117.6448529787234,33.44032305381727],[-117.64453,33.44114],[-117.64519,33.4418]]],[[[-117.61828130811105,33.49987635111595],[-117.61668,33.49709],[-117.61592,33.49499],[-117.61714,33.49416],[-117.61243489655172,33.4835],[-117.6095048192771,33.4835],[-117.6181,33.4999],[-117.61828130811105,33.49987635111595]]]]}},{"type":"Feature","properties":{"GEOID":"0605990420","NAME":"Central Coast","COUNTY":"059"},"geometry":{"type":"MultiPolygon","coordinates":[[[[-117.989,33.5859],[-117.934,33.5493],[-117.8699,33.5178],[-117.83406098252144,33.567615235993884],[-117.83427,33.56802],[-117.83592,33.56858],[-117.84106,33.57425],[-117.84745,33.57766],[-117.85373,33.5796],[-117.85708,33.58219],[-117.86423,33.58455],[-117.86441,33.58589],[-117.86526,33.58581],[-117.86861,33.58965],[-117.87004,33.58976],[-117.87265,33.5925],[-117.8776,33.5925],[-117.88391,33.59407],[-117.90269,33.60078],[-117.92854,33.60652],[-117.94116,33.62032],[-117.95771,33.62824],[-117.95712164083865,33.63023084320875],[-117.989,33.5859]]],[[[-117.95678869328214,33.63113806417882],[-117.9512,33.63005],[-117.94868,33.63247],[-117.9467,33.62972],[-117.94637,33.62534],[-117.94041,33.62371],[-117.94049,33.63241],[-117.94269,33.63242],[-117.94275,33.63743],[-117.93937,33.63242],[-117.94482,33.6405],[-117.94363505929184,33.643317968238755],[-117.94512,33.64334],[-117.95333453421925,33.64320294833419],[-117.95563570672216,33.63516528152043],[-117.95359,33.63476],[-117.9541,33.633],[-117.9560460070555,33.63373216107039],[-117.95678869328214,33.63113806417882]]],[[[-117.95071896486301,33.65233875844274],[-117.94906,33.65287],[-117.95056952254075,33.652860739125515],[-117.95071896486301,33.65233875844274]]],[[[-117.9479337410352,33.66206714738421],[-117.94249972897016,33.680219197176775],[-117.943,33.6793],[-117.9479337410352,33.66206714738421]]],[[[-117.93622405339806,33.69175011326861],[-117.92956913478446,33.7019201940217],[-117.9307,33.7019],[-117.93622405339806,33.69175011326861]]],[[[-117.89435,33.66566],[-117.88763,33.66098],[-117.88324,33.6654],[-117.8829475459432,33.66526250861225],[-117.88504,33.66771],[-117.88702,33.66835],[-117.88921,33.67063],[-117.89435,33.66566]]],[[[-117.89192,33.65666],[-117.89074,33.65608],[-117.88936,33.65747],[-117.88874,33.65704],[-117.89012,33.65565],[-117.88844713141131,33.65448288237998],[-117.88429,33.65866],[-117.88763,33.66098],[-117.891,33.65759],[-117.89017,33.65701],[-117.89192,33.65666]]],[[[-117.89085,33.6532],[-117.8904980805855,33.65242207287322],[-117.88996494280173,33.652957773819416],[-117.89085,33.6532]]],[[[-117.88146,33.6615],[-117.87814,33.65974],[-117.86653,33.67081],[-117.86327866266242,33.67157133243442],[-117.86403,33.67174],[-117.85723688258975,33.68265888080913],[-117.86437658839003,33.685771792538056],[-117.87383,33.67344],[-117.87328,33.67308],[-117.87601,33.66877],[-117.87528,33.66845],[-117.8792,33.6634],[-117.87948113448883,33.66349798498471],[-117.88146,33.6615]]],[[[-117.86248355833096,33.67139283962532],[-117.85428,33.66613],[-117.86158,33.67119],[-117.86248355833096,33.67139283962532]]],[[[-117.84984,33.63366],[-117.83494116567233,33.62869046744903],[-117.8351994933655,33.62889958986731],[-117.84984,33.63366]]],[[[-117.82912013099678,33.56400825887048],[-117.8291,33.564],[-117.82667966101695,33.56605056497175],[-117.82912013099678,33.56400825887048]]],[[[-117.82892,33.6238],[-117.82195499159154,33.62047557370325],[-117.82210484963052,33.62070221086097],[-117.82465515151515,33.62186484848485],[-117.82892,33.6238]]],[[[-117.82208,33.57404],[-117.82207058752026,33.57401012560778],[-117.8191956501182,33.574999858156026],[-117.82208,33.57404]]],[[[-117.82199771271729,33.57001721561452],[-117.8219,33.5701],[-117.82190941135002,33.570283521325344],[-117.82199771271729,33.57001721561452]]],[[[-117.81855222056853,33.615329407649945],[-117.81758,33.61376],[-117.8174169375907,33.61361246734398],[-117.81855222056853,33.615329407649945]]],[[[-117.81666337098176,33.612930668983495],[-117.81548,33.61186],[-117.81465709979564,33.61146235694823],[-117.8150901920354,33.61177932035398],[-117.8155,33.6119],[-117.815798006993,33.61229734265734],[-117.81666337098176,33.612930668983495]]],[[[-117.81636,33.57664],[-117.81605655818309,33.57608052915008],[-117.816,33.5761],[-117.81587375868918,33.57708468222443],[-117.81636,33.57664]]],[[[-117.81440032786885,33.58093049180328],[-117.8129,33.5822],[-117.81260325056434,33.586750158013544],[-117.81332,33.58458],[-117.81292,33.58221],[-117.81440032786885,33.58093049180328]]],[[[-117.81355433891417,33.61092947920685],[-117.8125,33.61042],[-117.80788105343805,33.60965638383452],[-117.80883420038097,33.60993706514286],[-117.81355433891417,33.61092947920685]]],[[[-117.80637057129141,33.589577988478155],[-117.8052,33.5901],[-117.80519314977656,33.59012954158858],[-117.80618,33.59011],[-117.80637057129141,33.589577988478155]]],[[[-117.80431,33.59981],[-117.8037775,33.59771],[-117.8043,33.5998],[-117.80327096,33.60245384],[-117.80431,33.59981]]],[[[-117.80374354285715,33.59638097142857],[-117.8036,33.597],[-117.80360119300911,33.59700477203648],[-117.80374354285715,33.59638097142857]]],[[[-117.80072,33.60654],[-117.7996845727724,33.60625047295532],[-117.8003197704918,33.60667854098361],[-117.80072,33.60654]]],[[[-117.79739649384885,33.60439559074932],[-117.79732494791666,33.604305616319444],[-117.79735,33.60441],[-117.79739649384885,33.60439559074932]]],[[[-117.79592138453765,33.60371441131885],[-117.79589633100697,33.60369357926221],[-117.7959,33.6037],[-117.79592138453765,33.60371441131885]]],[[[-117.79381,33.6000425],[-117.79349539881345,33.59948966820479],[-117.79349076923077,33.599483846153845],[-117.79381,33.6000425]]],[[[-117.79349076923077,33.599483846153845],[-117.79311532258065,33.59882681451613],[-117.79304126344086,33.598776377688175],[-117.79287504813246,33.59870953022718],[-117.79349076923077,33.599483846153845]]],[[[-117.79287504813246,33.59870953022718],[-117.79279465337562,33.59860842772995],[-117.7908,33.59725],[-117.78396792582417,33.5951273179945],[-117.79287504813246,33.59870953022718]]],[[[-117.79105564261341,33.596421489953244],[-117.7908,33.5961],[-117.7839,33.5951],[-117.78391211741094,33.595104873306575],[-117.7908,33.59615],[-117.79105564261341,33.596421489953244]]]]}}]}