{"type":"FeatureCollection","features":[{"type":"Feature","geometry":{"type":"Polygon","coordinates":[[[-121.0654,39.0065],[-121.0575,38.9933],[-121.0521,38.9957],[-121.0477,38.9952],[-121.0455,38.9931],[-121.0414,38.9921],[-121.0342,38.9879],[-121.0312,38.9844],[-121.0284,38.9839],[-121.0239,38.9805],[-121.0195,38.9796],[-121.0193,38.9769],[-121.0223,38.9756],[-121.0206,38.9686],[-121.0191,38.9706],[-121.0177,38.9697],[-121.0165,38.9705],[-121.012,38.9662],[-121.0105,38.9624],[-121.0078,38.9608],[-121.0026,38.9608],[-121.0063,38.9591],[-121.0061,38.9574],[-121.0098,38.955],[-121.009,38.9535],[-121.0102,38.9518],[-121.0142,38.9526],[-121.018,38.9486],[-121.0256,38.9464],[-121.0335,38.9409],[-121.034,38.9337],[-121.0313,38.9332],[-121.0223,38.9376],[-121.0196,38.9402],[-121.0122,38.942],[-121.0087,38.9453],[-121.0017,38.9442],[-120.9954,38.9509],[-120.9896,38.9512],[-120.9866,38.9559],[-120.9775,38.9584],[-120.9756,38.9677],[-120.9738,38.9683],[-120.9699,38.9663],[-120.9676,38.9666],[-120.9661,38.9718],[-120.9744,38.9732],[-120.9755,38.9752],[-120.9714,38.9777],[-120.9712,38.9801],[-120.9694,38.9821],[-120.9625,38.9864],[-120.959,38.9868],[-120.9573,38.9919],[-120.9526,38.9918],[-120.9465,38.9939],[-120.944,38.9986],[-120.9392,39.0002],[-120.9371,39.0043],[-120.9302,39.0086],[-120.9266,39.0149],[-120.9181,39.0114],[-120.9181,39.0143],[-120.9207,39.0164],[-120.9161,39.026],[-120.9085,39.0363],[-120.9046,39.0357],[-120.9031,39.0367],[-120.9025,39.0421],[-120.9045,39.0469],[-120.9043,39.0538],[-120.9091,39.0564],[-120.9107,39.0597],[-120.9144,39.062],[-120.914,39.07],[-120.9179,39.0733],[-120.9164,39.0826],[-120.9246,39.0869],[-120.9232,39.0939],[-120.9253,39.1027],[-120.9241,39.1069],[-120.9192,39.1069],[-120.9155,39.1125],[-120.9111,39.1109],[-120.9068,39.1123],[-120.9008,39.1166],[-120.8923,39.1182],[-120.8804,39.1165],[-120.8802,39.1147],[-120.877,39.1135],[-120.8731,39.1154],[-120.8687,39.1143],[-120.8681,39.1166],[-120.8652,39.1167],[-120.8636,39.1181],[-120.8653,39.1213],[-120.8618,39.1261],[-120.8641,39.1286],[-120.8614,39.1317],[-120.8591,39.1323],[-120.8577,39.1284],[-120.856,39.1279],[-120.8551,39.1311],[-120.8531,39.1316],[-120.8532,39.1351],[-120.8486,39.1358],[-120.8468,39.1416],[-120.8442,39.1442],[-120.8413,39.1445],[-120.8427,39.1484],[-120.8387,39.1489],[-120.8354,39.1533],[-120.8285,39.1559],[-120.8218,39.1608],[-120.8178,39.16],[-120.8158,39.1616],[-120.8163,39.1644],[-120.8139,39.1667],[-120.809,39.1667],[-120.7995,39.172],[-120.7894,39.1732],[-120.7841,39.1795],[-120.7726,39.1779],[-120.7684,39.1804],[-120.7682,39.183],[-120.7614,39.1851],[-120.759,39.1882],[-120.7529,39.1869],[-120.7521,39.1849],[-120.7486,39.1843],[-120.7459,39.181],[-120.7424,39.1803],[-120.7411,39.1789],[-120.7274,39.1792],[-120.7196,39.1844],[-120.7158,39.1847],[-120.7082,39.1937],[-120.7016,39.1948],[-120.6981,39.1997],[-120.691,39.2045],[-120.6861,39.2041],[-120.6833,39.2054],[-120.6683,39.2035],[-120.6621,39.1994],[-120.6562,39.2021],[-120.6472,39.2003],[-120.644,39.1983],[-120.6377,39.2002],[-120.633,39.1994],[-120.6237,39.2018],[-120.6115,39.2029],[-120.6078,39.2059],[-120.6015,39.2084],[-120.6009,39.2111],[-120.5983,39.2126],[-120.5904,39.2116],[-120.5873,39.2131],[-120.577,39.2129],[-120.5733,39.2152],[-120.5693,39.2146],[-120.5581,39.2183],[-120.556,39.22],[-120.5539,39.2198],[-120.5507,39.2228],[-120.5431,39.221],[-120.5357,39.2232],[-120.5259,39.2237],[-120.5205,39.2204],[-120.5133,39.22],[-120.505,39.2176],[-120.4948,39.217],[-120.4901,39.2187],[-120.4831,39.2169],[-120.4792,39.2181],[-120.477,39.217],[-120.4731,39.2195],[-120.4646,39.2191],[-120.4582,39.2213],[-120.4533,39.2206],[-120.4451,39.2219],[-120.4405,39.2239],[-120.437,39.2267],[-120.4334,39.2329],[-120.4348,39.2371],[-120.4339,39.2419],[-120.4206,39.2435],[-120.4186,39.2458],[-120.4132,39.2434],[-120.4083,39.2445],[-120.4072,39.2474],[-120.4028,39.2513],[-120.3861,39.2518],[-120.38,39.2548],[-120.3758,39.2536],[-120.3697,39.2546],[-120.3664,39.253],[-120.3624,39.253],[-120.3581,39.2495],[-120.3525,39.2486],[-120.3518,39.2472],[-120.3469,39.2452],[-120.3403,39.2441],[-120.3329,39.2475],[-120.3288,39.2469],[-120.3231,39.2493],[-120.3151,39.2438],[-120.3108,39.2375],[-120.3011,39.2364],[-120.2944,39.2334],[-120.2834,39.2255],[-120.285,39.214],[-120.2871,39.2122],[-120.287,39.2094],[-120.2899,39.2054],[-120.2931,39.206],[-120.2973,39.2041],[-120.2976,39.1996],[-120.2924,39.1977],[-120.2871,39.1982],[-120.2764,39.1936],[-120.2779,39.1883],[-120.2657,39.1759],[-120.2641,39.1751],[-120.2604,39.1778],[-120.2567,39.1777],[-120.2566,39.1748],[-120.2547,39.1757],[-120.2519,39.1687],[-120.2534,39.1625],[-120.251,39.1602],[-120.251,39.1573],[-120.2477,39.1494],[-120.2458,39.148],[-120.2409,39.1479],[-120.234,39.1511],[-120.2267,39.1597],[-120.223,39.1576],[-120.2205,39.1585],[-120.1958,39.1869],[-120.1853,39.1888],[-120.1819,39.1909],[-120.1787,39.2122],[-120.1727,39.2191],[-120.165,39.2207],[-120.1613,39.2191],[-120.1461,39.2206],[-120.1397,39.2411],[-120.126,39.2445],[-120.1217,39.2531],[-120.1158,39.2581],[-120.1131,39.2586],[-120.1095,39.2549],[-120.0966,39.2522],[-120.0941,39.2529],[-120.084,39.2612],[-120.0714,39.2613],[-120.0543,39.2672],[-120.0505,39.2695],[-120.0495,39.2733],[-120.0515,39.2779],[-120.0572,39.282],[-120.0467,39.2831],[-120.0449,39.2864],[-120.0396,39.2889],[-120.0378,39.2915],[-120.0329,39.2934],[-120.0204,39.2934],[-120.0111,39.2883],[-120.0064,39.2808],[-120.0063,39.3165],[-120.6249,39.3154],[-120.6458,39.3152],[-120.6487,39.3114],[-120.658,39.3078],[-120.663,39.3101],[-120.6698,39.3082],[-120.6714,39.3104],[-120.6759,39.3073],[-120.6803,39.3059],[-120.6822,39.3069],[-120.686,39.3047],[-120.6915,39.3041],[-120.6932,39.3018],[-120.7025,39.2998],[-120.7107,39.2923],[-120.7156,39.2922],[-120.7279,39.2881],[-120.7383,39.2793],[-120.7473,39.2749],[-120.7491,39.2706],[-120.7564,39.2644],[-120.7641,39.2631],[-120.7687,39.2563],[-120.7739,39.2554],[-120.7761,39.2541],[-120.7766,39.2523],[-120.7847,39.2486],[-120.7849,39.2466],[-120.7876,39.2441],[-120.792,39.2408],[-120.7987,39.2384],[-120.8002,39.2357],[-120.8029,39.2353],[-120.8039,39.2334],[-120.8105,39.2323],[-120.8138,39.2297],[-120.8166,39.23],[-120.8192,39.2286],[-120.8191,39.2272],[-120.8286,39.2235],[-120.8279,39.2211],[-120.8299,39.2216],[-120.8311,39.2199],[-120.8376,39.2174],[-120.8391,39.2155],[-120.8517,39.212],[-120.8553,39.2069],[-120.8581,39.2061],[-120.8566,39.2041],[-120.8578,39.1974],[-120.8613,39.1951],[-120.8608,39.1925],[-120.8669,39.1896],[-120.8652,39.1878],[-120.8695,39.1849],[-120.8683,39.1817],[-120.8696,39.1802],[-120.8795,39.1781],[-120.8814,39.1791],[-120.8848,39.1784],[-120.8871,39.1765],[-120.8912,39.1771],[-120.8923,39.1753],[-120.8972,39.1765],[-120.909,39.1702],[-120.9089,39.1686],[-120.906,39.1661],[-120.9085,39.1638],[-120.921,39.1623],[-120.9245,39.1608],[-120.9234,39.1572],[-120.9264,39.1553],[-120.9316,39.1559],[-120.9299,39.154],[-120.9369,39.1514],[-120.9405,39.1453],[-120.9449,39.1454],[-120.9475,39.1434],[-120.9501,39.1364],[-120.9521,39.1367],[-120.9554,39.1329],[-120.9661,39.1279],[-120.968,39.1221],[-120.9735,39.1196],[-120.9756,39.114],[-120.9793,39.1104],[-120.9887,39.1118],[-120.9897,39.1109],[-120.9863,39.1027],[-120.9883,39.1002],[-120.9869,39.0984],[-120.9885,39.0856],[-120.991,39.082],[-120.9961,39.0804],[-120.9949,39.0785],[-120.9917,39.0771],[-120.9918,39.0758],[-120.9985,39.0721],[-120.9964,39.0695],[-120.9969,39.0682],[-121.0027,39.0675],[-121.0027,39.0629],[-121.0071,39.0612],[-121.0082,39.0522],[-121.013,39.0524],[-121.0128,39.0483],[-121.0202,39.0461],[-121.0217,39.0392],[-121.0283,39.0386],[-121.0304,39.0372],[-121.0294,39.0331],[-121.0301,39.0304],[-121.0377,39.0208],[-121.0373,39.0167],[-121.0416,39.0138],[-121.0481,39.013],[-121.053,39.0104],[-121.0617,39.0101],[-121.0654,39.0065]],[[-120.96505,39.09996],[-120.96487,39.10321],[-120.96265,39.10322],[-120.96085,39.10225],[-120.95975,39.10279],[-120.95952,39.10122],[-120.95941,39.10341],[-120.9543,39.10438],[-120.95395,39.10604],[-120.95757,39.10607],[-120.95726,39.10828],[-120.95563,39.10824],[-120.95394,39.11165],[-120.94997,39.11122],[-120.94988,39.11428],[-120.9478,39.11482],[-120.9492,39.11272],[-120.94882,39.10792],[-120.95009,39.1062],[-120.94937,39.10434],[-120.94883,39.10456],[-120.94879,39.10269],[-120.94787,39.10569],[-120.94577,39.10358],[-120.94799,39.10261],[-120.94828,39.10086],[-120.94785,39.09761],[-120.94485,39.09749],[-120.94476,39.09521],[-120.94673,39.09526],[-120.94674,39.09371],[-120.94937,39.09376],[-120.95221,39.08986],[-120.95004,39.08853],[-120.94992,39.09038],[-120.94571,39.08891],[-120.94574,39.08724],[-120.94995,39.08724],[-120.94993,39.08369],[-120.95329,39.08396],[-120.95331,39.08274],[-120.95448,39.08269],[-120.95443,39.07764],[-120.95133,39.07764],[-120.95133,39.07543],[-120.95565,39.07543],[-120.95565,39.07708],[-120.95956,39.07717],[-120.96111,39.07492],[-120.9618,39.07508],[-120.95966,39.07907],[-120.96035,39.08022],[-120.96045,39.08923],[-120.959,39.08999],[-120.9574,39.09305],[-120.95984,39.09314],[-120.95997,39.09824],[-120.96191,39.09833],[-120.96062,39.10015],[-120.95967,39.09915],[-120.96052,39.1001],[-120.96019,39.10154],[-120.96203,39.10154],[-120.96278,39.0996],[-120.96505,39.09996]],[[-120.94296,39.09075],[-120.94011,39.09151],[-120.94158,39.09193],[-120.94157,39.09373],[-120.93973,39.09372],[-120.93968,39.0909],[-120.94296,39.09075]],[[-120.94109,39.08259],[-120.93957,39.08507],[-120.93491,39.08452],[-120.93599,39.08094],[-120.94058,39.08061],[-120.94109,39.08259]]]},"properties":{"GEOID":"0606190548","NAME":"Colfax-Monumental Ridge","COUNTY":"061"}},{"type":"Feature","geometry":{"type":"MultiPolygon","coordinates":[[[[-121.30745628745201,38.810123951343535],[-121.30069,38.81002],[-121.30082,38.79562],[-121.27492,38.7957],[-121.2949,38.79566],[-121.29823,38.79772],[-121.29889,38.80191],[-121.29984,38.80301],[-121.29999,38.80633],[-121.29982768284975,38.81713707586408],[-121.3072,38.8173],[-121.30745628745201,38.810123951343535]]],[[[-121.238,38.8865],[-121.2373,38.8718],[-121.2349,38.8688],[-121.225,38.8644],[-121.2283,38.8612],[-121.22825889917695,38.86088763374486],[-121.22786,38.86053],[-121.22815363103953,38.86008759590044],[-121.2278,38.8574],[-121.22804520754717,38.85722577358491],[-121.23155,38.85467],[-121.2315246875,38.8522146875],[-121.2315,38.8514],[-121.23151623437934,38.85139473479589],[-121.23139,38.83915],[-121.23146,38.84856],[-121.22714,38.84884],[-121.22173,38.85114],[-121.22248,38.84837],[-121.22023,38.84354],[-121.21962,38.83516],[-121.22039,38.83517],[-121.22031195429453,38.83230182032407],[-121.20106,38.83183],[-121.20108,38.83782],[-121.19807,38.83866],[-121.19803,38.83667],[-121.19178,38.83672],[-121.19178,38.83569],[-121.17893,38.83624],[-121.1778,38.83692],[-121.17798,38.82616],[-121.18258,38.82231],[-121.18249,38.81807],[-121.1802,38.81813],[-121.18022,38.81436],[-121.17356,38.81447],[-121.17371,38.80918],[-121.17246,38.80873],[-121.17375,38.80834],[-121.17388,38.80547],[-121.17355,38.78325],[-121.18192,38.78321],[-121.18183,38.78128],[-121.18326,38.78131],[-121.18298,38.77417],[-121.20693,38.7742],[-121.20634659580529,38.77454744135163],[-121.21168,38.77361],[-121.21780181091442,38.77040002447182],[-121.2178,38.7704],[-121.2221,38.7672],[-121.22426148178808,38.75678558774835],[-121.22426,38.75663],[-121.22649434127267,38.75166802132954],[-121.22644996906604,38.74906485187388],[-121.22584,38.73669],[-121.21884,38.73663],[-121.21874,38.73244],[-121.21658,38.73233],[-121.21649,38.71619],[-121.22232,38.71657],[-121.22238,38.72026],[-121.22581,38.72034],[-121.22581,38.72214],[-121.22233,38.72191],[-121.22233,38.7239],[-121.22578,38.72393],[-121.22595,38.72942],[-121.22611511971529,38.72942035663006],[-121.2259,38.7168],[-121.1466,38.7114],[-121.1345,38.712],[-121.1332,38.7165],[-121.1333,38.7315],[-121.1283,38.7336],[-121.1214,38.7488],[-121.1213,38.7522],[-121.1177,38.7564],[-121.1193,38.7658],[-121.1186,38.7689],[-121.1117,38.7738],[-121.1017,38.788],[-121.1023,38.7959],[-121.0981,38.8033],[-121.0978,38.8073],[-121.1018,38.8152],[-121.0934,38.8138],[-121.087,38.8153],[-121.0884,38.8189],[-121.0932,38.8194],[-121.093,38.8232],[-121.095,38.8244],[-121.0957,38.8273],[-121.0979,38.8283],[-121.0989,38.8305],[-121.1041,38.8347],[-121.1102,38.8347],[-121.1118,38.8409],[-121.1174,38.8433],[-121.1236,38.8523],[-121.1311,38.8525],[-121.1313,38.8547],[-121.1439,38.8545],[-121.1551,38.8452],[-121.1607,38.8503],[-121.1645,38.8514],[-121.1577,38.8579],[-121.1524,38.8654],[-121.1342,38.8763],[-121.1362,38.8788],[-121.1453,38.8789],[-121.153,38.8762],[-121.1642,38.8765],[-121.1719,38.8799],[-121.1734,38.8835],[-121.18,38.891],[-121.1887,38.8936],[-121.1919,38.8914],[-121.199,38.8913],[-121.2036,38.8894],[-121.2064,38.8866],[-121.238,38.8865]]]]},"properties":{"GEOID":"0606192645","NAME":"Rocklin","COUNTY":"061"}},{"type":"Feature","geometry":{"type":"Polygon","coordinates":[[[-120.2521,39.0853],[-120.2509,39.0837],[-120.2476,39.0833],[-120.2317,39.0762],[-120.2311,39.0665],[-120.2227,39.0636],[-120.2079,39.061],[-120.198,39.0644],[-120.2002,39.0565],[-120.2004,39.048],[-120.1925,39.0479],[-120.1895,39.0411],[-120.186,39.0386],[-120.1844,39.031],[-120.1836,39.0384],[-120.165,39.0385],[-120.165,39.0458],[-120.153,39.0458],[-120.153,39.0603],[-120.1436,39.0602],[-120.1437,39.0673],[-120.0025,39.0675],[-120.0065,39.2818],[-120.0111,39.2883],[-120.0228,39.2939],[-120.0353,39.2928],[-120.0396,39.2889],[-120.0449,39.2864],[-120.0467,39.2831],[-120.0572,39.282],[-120.0515,39.2779],[-120.0495,39.2733],[-120.0505,39.2695],[-120.0543,39.2672],[-120.0714,39.2613],[-120.084,39.2612],[-120.0941,39.2529],[-120.0966,39.2522],[-120.1095,39.2549],[-120.1131,39.2586],[-120.1158,39.2581],[-120.1217,39.2531],[-120.126,39.2445],[-120.1397,39.2411],[-120.1461,39.2206],[-120.1613,39.2191],[-120.165,39.2207],[-120.1727,39.2191],[-120.1787,39.2122],[-120.1819,39.1909],[-120.1853,39.1888],[-120.1958,39.1869],[-120.2205,39.1585],[-120.223,39.1576],[-120.2267,39.1597],[-120.234,39.1511],[-120.2464,39.1467],[-120.2465,39.1397],[-120.2431,39.1337],[-120.244,39.129],[-120.2474,39.1249],[-120.2444,39.1204],[-120.2373,39.1159],[-120.2342,39.1122],[-120.2368,39.1041],[-120.2487,39.0983],[-120.248,39.0936],[-120.2521,39.0853]]]},"properties":{"GEOID":"0606191550","NAME":"Lake Tahoe","COUNTY":"061"}},{"type":"Feature","geometry":{"type":"MultiPolygon","coordinates":[[[[-121.2298,38.9592],[-121.2285,38.9578],[-121.2282,38.9415],[-121.2098,38.9414],[-121.2093,38.9342],[-121.1959,38.9343],[-121.1956,38.927],[-121.1908,38.9268],[-121.1858,38.9231],[-121.1896,38.9117],[-121.1814,38.9029],[-121.1801,38.8996],[-121.1805,38.8913],[-121.1734,38.8835],[-121.1719,38.8799],[-121.1635,38.8763],[-121.1528,38.8762],[-121.1424,38.8792],[-121.1364,38.8788],[-121.1342,38.8763],[-121.1524,38.8654],[-121.1577,38.8579],[-121.1645,38.8514],[-121.1607,38.8503],[-121.1551,38.8452],[-121.1439,38.8545],[-121.1313,38.8547],[-121.1311,38.8525],[-121.1236,38.8523],[-121.1174,38.8433],[-121.1118,38.8409],[-121.1102,38.8347],[-121.1041,38.8347],[-121.0989,38.8305],[-121.0979,38.8283],[-121.0957,38.8273],[-121.095,38.8244],[-121.093,38.8232],[-121.0932,38.8194],[-121.0884,38.8189],[-121.087,38.8153],[-121.0845,38.8164],[-121.0827,38.8224],[-121.0887,38.8271],[-121.0873,38.8333],[-121.085,38.835],[-121.0823,38.8349],[-121.0736,38.8426],[-121.0624,38.8451],[-121.058,38.8478],[-121.0576,38.8513],[-121.0618,38.8599],[-121.0586,38.8635],[-121.0545,38.865],[-121.0533,38.8683],[-121.0569,38.8773],[-121.062,38.8821],[-121.0443,38.8903],[-121.0482,38.8953],[-121.053,38.8968],[-121.0534,38.8995],[-121.0498,38.9018],[-121.048,38.9051],[-121.044,38.907],[-121.0404,38.9157],[-121.0375,38.9157],[-121.0356,38.9173],[-121.0411,38.9261],[-121.0381,38.9322],[-121.034,38.9338],[-121.0337,38.9406],[-121.0256,38.9464],[-121.018,38.9486],[-121.0147,38.9524],[-121.0102,38.9518],[-121.009,38.9535],[-121.0098,38.955],[-121.0061,38.9574],[-121.0063,38.9591],[-121.0026,38.9608],[-121.0078,38.9608],[-121.0105,38.9624],[-121.012,38.9662],[-121.0165,38.9705],[-121.0177,38.9697],[-121.0191,38.9706],[-121.0206,38.9686],[-121.0223,38.9756],[-121.0193,38.9769],[-121.0195,38.9796],[-121.0239,38.9805],[-121.0284,38.9839],[-121.0312,38.9844],[-121.0342,38.9879],[-121.0414,38.9921],[-121.0455,38.9931],[-121.0477,38.9952],[-121.0521,38.9957],[-121.0575,38.9933],[-121.0654,39.0065],[-121.0686,39.0052],[-121.0803,39.0069],[-121.0808,39.0097],[-121.0895,39.0144],[-121.095,39.0115],[-121.0964,39.0116],[-121.097,39.0133],[-121.1051,39.0121],[-121.1061,39.0162],[-121.1077,39.0176],[-121.1151,39.0186],[-121.1191,39.021],[-121.1208,39.0241],[-121.1232,39.0244],[-121.1235,39.0279],[-121.1268,39.03],[-121.1251,39.0325],[-121.1334,39.0344],[-121.138,39.0379],[-121.1448,39.0337],[-121.1501,39.0322],[-121.1525,39.0268],[-121.162,39.0244],[-121.1638,39.0224],[-121.1726,39.0185],[-121.1794,39.02],[-121.1874,39.0125],[-121.1989,39.0175],[-121.2047,39.0156],[-121.2059,39.0119],[-121.2174,39.0125],[-121.2184,39.0075],[-121.2121,38.9925],[-121.219,38.99],[-121.2198,38.9882],[-121.2182,38.9856],[-121.2192,38.9848],[-121.2196,38.9785],[-121.2182,38.9767],[-121.222,38.9758],[-121.2255,38.9727],[-121.225,38.9707],[-121.2285,38.9699],[-121.2295,38.9643],[-121.2284,38.9614],[-121.2298,38.9592]],[[-121.11231,38.88623],[-121.11229,38.88682],[-121.11219,38.88919],[-121.10942,38.88874],[-121.1085,38.88993],[-121.10474,38.89055],[-121.1022,38.89058],[-121.10034,38.88967],[-121.10034,38.88839],[-121.10316,38.88933],[-121.10397,38.88764],[-121.10721,38.88739],[-121.10897,38.88607],[-121.11231,38.88623]],[[-121.10294,38.86982],[-121.0983,38.86993],[-121.09896,38.88594],[-121.08949,38.88959],[-121.08429,38.89312],[-121.08722,38.89194],[-121.08717,38.89434],[-121.08794,38.894],[-121.08787,38.89588],[-121.08704,38.89595],[-121.08701,38.89883],[-121.08917,38.89886],[-121.08935,38.90086],[-121.08756,38.90087],[-121.08746,38.90213],[-121.08525,38.90197],[-121.08526,38.90468],[-121.08454,38.90488],[-121.08591,38.90959],[-121.08746,38.90993],[-121.08501,38.91153],[-121.08534,38.91464],[-121.08425,38.91469],[-121.08442,38.91794],[-121.08347,38.91685],[-121.07956,38.91777],[-121.07714,38.91607],[-121.07542,38.91841],[-121.07542,38.91926],[-121.07649,38.91926],[-121.07655,38.92043],[-121.07974,38.92089],[-121.07947,38.92592],[-121.07833,38.92596],[-121.07732,38.92496],[-121.07498,38.92519],[-121.07628,38.92836],[-121.07731,38.92814],[-121.07709,38.93206],[-121.0763,38.93212],[-121.07628,38.93324],[-121.07493,38.93323],[-121.07436,38.93262],[-121.07494,38.93201],[-121.07291,38.93161],[-121.0728,38.92961],[-121.07151,38.92964],[-121.07045,38.92718],[-121.06784,38.9272],[-121.06776,38.92228],[-121.07023,38.92231],[-121.07023,38.92351],[-121.07133,38.92351],[-121.07182,38.92151],[-121.07098,38.92154],[-121.07097,38.92028],[-121.06767,38.92027],[-121.06761,38.91868],[-121.06471,38.91882],[-121.06304,38.92],[-121.06214,38.9174],[-121.06719,38.91543],[-121.06819,38.91291],[-121.06644,38.91288],[-121.06103,38.91799],[-121.06037,38.91783],[-121.0613,38.90919],[-121.05895,38.90921],[-121.05885,38.91065],[-121.05377,38.91168],[-121.05297,38.91026],[-121.0545,38.90928],[-121.05617,38.90959],[-121.05589,38.90809],[-121.05663,38.908],[-121.05655,38.89286],[-121.05366,38.89257],[-121.05366,38.89164],[-121.05514,38.89196],[-121.05653,38.89126],[-121.05652,38.88719],[-121.06052,38.88722],[-121.06058,38.88454],[-121.06877,38.88421],[-121.06911,38.88282],[-121.06907,38.88056],[-121.06782,38.88056],[-121.06843,38.87813],[-121.06739,38.87128],[-121.06286,38.86699],[-121.06334,38.85805],[-121.06965,38.85807],[-121.06993,38.86586],[-121.07471,38.86586],[-121.07594,38.86691],[-121.07561,38.86918],[-121.07641,38.86923],[-121.08474,38.86917],[-121.08475,38.86575],[-121.08664,38.86581],[-121.08658,38.86206],[-121.09399,38.86188],[-121.09436,38.86002],[-121.09724,38.8596],[-121.09737,38.86181],[-121.10265,38.86177],[-121.10294,38.86982]],[[-121.09498,38.95304],[-121.09495,38.95365],[-121.0949,38.95477],[-121.09356,38.95475],[-121.09362,38.95656],[-121.06984,38.95657],[-121.06988,38.95331],[-121.07519,38.95329],[-121.07483,38.95242],[-121.0796,38.95231],[-121.07937,38.94925],[-121.08895,38.94941],[-121.08891,38.95298],[-121.09498,38.95304]]],[[[-121.08968,38.87508],[-121.08965,38.87274],[-121.08881,38.87274],[-121.0888,38.87361],[-121.08628,38.87389],[-121.08627,38.87323],[-121.0851,38.87389],[-121.08602,38.87437],[-121.08568,38.87685],[-121.08964,38.87643],[-121.08968,38.87508]]]]},"properties":{"GEOID":"0606190160","NAME":"Auburn","COUNTY":"061"}},{"type":"Feature","geometry":{"type":"Polygon","coordinates":[[[-121.4844,38.7346],[-121.3925,38.7286],[-121.39269961426976,38.75175525529218],[-121.40318,38.75174],[-121.40322,38.75936],[-121.40025,38.75895],[-121.40026,38.80248],[-121.44665,38.80247],[-121.44662,38.80613],[-121.44196,38.80615],[-121.44159,38.8126],[-121.43599,38.81247],[-121.43259,38.81056],[-121.43246,38.82432],[-121.42618,38.82432],[-121.42611,38.81729],[-121.4247,38.81692],[-121.42468,38.81187],[-121.41929,38.81297],[-121.41933,38.81533],[-121.42083,38.81561],[-121.41862,38.81718],[-121.39541,38.81707],[-121.39564,38.82434],[-121.37713,38.82439],[-121.37702,38.8098],[-121.34,38.80995051440693],[-121.34,38.81],[-121.32782869565217,38.81],[-121.32045,38.81003],[-121.32040001321789,38.80719075077655],[-121.32038474820143,38.80717916067146],[-121.31881,38.80606],[-121.31263,38.80721],[-121.31187,38.80467],[-121.30814,38.80538],[-121.30785,38.81013],[-121.30745628745201,38.810123951343535],[-121.3072,38.8173],[-121.29982768284975,38.81713707586408],[-121.29949403675609,38.839351232780054],[-121.3071,38.83903],[-121.30685,38.8512],[-121.30506,38.85722],[-121.32603,38.85715],[-121.32604,38.85354],[-121.33549,38.85356],[-121.3355,38.85843],[-121.33889,38.8561],[-121.34267,38.85628],[-121.3458,38.85168],[-121.34936,38.85171],[-121.34929,38.8681],[-121.33549,38.86811],[-121.33547,38.86447],[-121.33068,38.86452],[-121.33058,38.86799],[-121.33177,38.86813],[-121.33068,38.86902],[-121.33063,38.87274],[-121.32927,38.87362],[-121.32186,38.87366],[-121.32134,38.88218],[-121.32863,38.88538],[-121.34006,38.88606],[-121.34007,38.89727],[-121.35837,38.89727],[-121.35846,38.92645],[-121.3446,38.92646],[-121.34458,38.91928],[-121.34006,38.91928],[-121.34014,38.9119],[-121.31768,38.9118],[-121.30312,38.90354],[-121.30311,38.90458],[-121.27948,38.90464],[-121.27917,38.90565],[-121.27473,38.90568],[-121.27476,38.90844],[-121.27244,38.90845],[-121.27242,38.90476],[-121.26521,38.90481],[-121.2651,38.90112],[-121.25186,38.90082],[-121.25162,38.89771],[-121.2499,38.89446],[-121.24713,38.89401],[-121.2471,38.89037],[-121.24594,38.89019],[-121.24595,38.88661],[-121.24711,38.8865],[-121.24729,38.86835],[-121.23583,38.86841],[-121.22868,38.86471],[-121.22873,38.86131],[-121.22825889917695,38.86088763374486],[-121.2283,38.8612],[-121.225,38.8644],[-121.2349,38.8688],[-121.2373,38.8718],[-121.238,38.8865],[-121.2064,38.8866],[-121.2036,38.8894],[-121.199,38.8913],[-121.1919,38.8914],[-121.1887,38.8936],[-121.1805,38.8913],[-121.1801,38.8996],[-121.1814,38.9029],[-121.1896,38.9118],[-121.1857,38.923],[-121.1907,38.9267],[-121.1956,38.927],[-121.1959,38.9343],[-121.2093,38.9342],[-121.2098,38.9414],[-121.2283,38.9416],[-121.2285,38.9578],[-121.2298,38.9591],[-121.2284,38.9614],[-121.2295,38.9643],[-121.2286,38.9698],[-121.225,38.9707],[-121.2255,38.9727],[-121.222,38.9758],[-121.2182,38.9767],[-121.2196,38.9785],[-121.2182,38.9857],[-121.2199,38.9883],[-121.2188,38.9902],[-121.2121,38.9927],[-121.2184,39.0075],[-121.2174,39.0125],[-121.222,39.0121],[-121.2289,39.0221],[-121.2329,39.0247],[-121.238,39.024],[-121.241,39.0214],[-121.2468,39.0249],[-121.2497,39.0289],[-121.2532,39.0277],[-121.257,39.028],[-121.2585,39.0295],[-121.2658,39.0303],[-121.2692,39.0328],[-121.2707,39.0321],[-121.273,39.0342],[-121.2902,39.0369],[-121.2933,39.044],[-121.3023,39.0478],[-121.3045,39.0525],[-121.307,39.0529],[-121.3196,39.0487],[-121.3207,39.0444],[-121.323,39.043],[-121.3291,39.0439],[-121.3357,39.0388],[-121.3488,39.0345],[-121.3539,39.0313],[-121.3588,39.0302],[-121.3612,39.0326],[-121.3656,39.0317],[-121.3724,39.0277],[-121.3771,39.021],[-121.3851,39.0177],[-121.3858,39.0163],[-121.3845,39.0145],[-121.3883,39.0145],[-121.3969,39.0095],[-121.3977,39.0059],[-121.4079,38.999],[-121.4148,38.9984],[-121.4144,38.9262],[-121.4694,38.926],[-121.4698,38.7516],[-121.4844,38.7514],[-121.4844,38.7346]],[[-121.40505,38.94086],[-121.40505,38.94813],[-121.38638,38.94816],[-121.38635,38.9409],[-121.40505,38.94086]]]},"properties":{"GEOID":"0606191605","NAME":"Lincoln","COUNTY":"061"}},{"type":"Feature","geometry":{"type":"Polygon","coordinates":[[[-121.0411,38.9261],[-121.0356,38.9179],[-121.0375,38.9157],[-121.0338,38.9128],[-121.0254,38.915],[-121.0235,38.9172],[-121.0198,38.9181],[-121.012,38.9167],[-121.0071,38.9179],[-121.0051,38.9202],[-121.002,38.918],[-120.9995,38.9182],[-120.997,38.9211],[-120.9912,38.9236],[-120.992,38.9272],[-120.9773,38.9292],[-120.9707,38.9331],[-120.9651,38.9328],[-120.9578,38.9391],[-120.9492,38.9386],[-120.943,38.9355],[-120.9386,38.9356],[-120.9381,38.9551],[-120.9406,38.961],[-120.94,38.9625],[-120.9362,38.9639],[-120.9325,38.9621],[-120.9232,38.9609],[-120.9139,38.9552],[-120.902,38.9531],[-120.8914,38.9592],[-120.8879,38.9597],[-120.8816,38.9567],[-120.8774,38.957],[-120.868,38.954],[-120.8639,38.9543],[-120.8599,38.9517],[-120.8577,38.9566],[-120.8521,38.9595],[-120.8555,38.9677],[-120.8536,38.9724],[-120.8499,38.9765],[-120.8408,38.9756],[-120.8388,38.9718],[-120.8342,38.9719],[-120.8327,38.9738],[-120.833,38.9776],[-120.8294,38.9804],[-120.8297,38.9873],[-120.8284,38.9898],[-120.8239,38.9931],[-120.8155,38.9948],[-120.8128,38.9999],[-120.8019,39.0011],[-120.7994,38.9969],[-120.7971,38.9962],[-120.7915,38.9994],[-120.7861,38.9999],[-120.7803,39.0042],[-120.774,39.0056],[-120.7738,39.007],[-120.7709,39.0066],[-120.768,39.0094],[-120.7651,39.0097],[-120.7636,39.0082],[-120.7662,39.007],[-120.7669,39.0043],[-120.7641,39.002],[-120.7614,39.0019],[-120.7603,39.0037],[-120.7638,39.0041],[-120.7638,39.0062],[-120.7604,39.0055],[-120.7578,39.0077],[-120.7528,39.0053],[-120.7499,39.0095],[-120.7477,39.0104],[-120.7459,39.0098],[-120.7485,39.0052],[-120.7479,39.003],[-120.7441,39.0049],[-120.7416,39.0014],[-120.7383,39.002],[-120.736,39.0006],[-120.7296,39.004],[-120.7232,38.9993],[-120.7222,38.9932],[-120.7163,38.9867],[-120.7113,38.9858],[-120.7044,38.9812],[-120.6929,38.9853],[-120.6889,38.9897],[-120.6846,38.9892],[-120.6852,38.9836],[-120.6809,38.9779],[-120.6834,38.9746],[-120.6826,38.9701],[-120.6837,38.9675],[-120.6797,38.9665],[-120.6777,38.9636],[-120.674,38.9624],[-120.6727,38.9586],[-120.6648,38.9572],[-120.6604,38.9541],[-120.6557,38.9535],[-120.6542,38.9482],[-120.651,38.9489],[-120.6447,38.9467],[-120.6425,38.9444],[-120.6363,38.9433],[-120.6301,38.9465],[-120.622,38.943],[-120.6122,38.943],[-120.6058,38.9345],[-120.5981,38.9368],[-120.5944,38.9361],[-120.5927,38.9318],[-120.5875,38.9316],[-120.5851,38.9277],[-120.5868,38.9236],[-120.5844,38.9213],[-120.5805,38.9202],[-120.5789,38.9166],[-120.574,38.9158],[-120.5712,38.914],[-120.5674,38.9149],[-120.5637,38.9137],[-120.5591,38.9158],[-120.5563,38.9152],[-120.5548,38.9185],[-120.5521,38.9206],[-120.5461,38.9207],[-120.5449,38.927],[-120.5351,38.9259],[-120.5323,38.9291],[-120.5273,38.9316],[-120.5233,38.9303],[-120.5121,38.9313],[-120.5108,38.9342],[-120.5048,38.9352],[-120.5026,38.9411],[-120.4927,38.9434],[-120.4918,38.9452],[-120.4927,38.9491],[-120.4875,38.9525],[-120.486,38.959],[-120.4828,38.9603],[-120.4797,38.9598],[-120.4748,38.9644],[-120.4708,38.9656],[-120.4692,38.9705],[-120.4663,38.9721],[-120.4621,38.9777],[-120.4601,38.9845],[-120.4515,38.9879],[-120.4511,38.9896],[-120.4537,38.9955],[-120.4502,39.0003],[-120.4495,39.0061],[-120.4457,39.0089],[-120.4452,39.0176],[-120.4423,39.023],[-120.4392,39.0242],[-120.4352,39.0284],[-120.3281,39.0224],[-120.2594,39.0235],[-120.2593,39.0247],[-120.2404,39.0237],[-120.2402,39.0309],[-120.1842,39.0311],[-120.186,39.0386],[-120.1895,39.0411],[-120.1925,39.0479],[-120.2004,39.048],[-120.2002,39.0565],[-120.198,39.0644],[-120.2079,39.061],[-120.2227,39.0636],[-120.2311,39.0665],[-120.2317,39.0762],[-120.2518,39.0845],[-120.248,39.0936],[-120.2487,39.0983],[-120.2368,39.1041],[-120.2342,39.1122],[-120.2373,39.1159],[-120.2444,39.1204],[-120.2474,39.1249],[-120.244,39.129],[-120.2431,39.1337],[-120.2465,39.1397],[-120.2464,39.1467],[-120.2422,39.1479],[-120.2458,39.148],[-120.2477,39.1494],[-120.251,39.1573],[-120.251,39.1602],[-120.2534,39.1625],[-120.2519,39.1687],[-120.2547,39.1757],[-120.2566,39.1748],[-120.2571,39.1779],[-120.2604,39.1778],[-120.2641,39.1751],[-120.2657,39.1759],[-120.2779,39.1883],[-120.2762,39.1932],[-120.2773,39.1942],[-120.2871,39.1982],[-120.2924,39.1977],[-120.2976,39.1996],[-120.2973,39.2041],[-120.2931,39.206],[-120.2899,39.2054],[-120.287,39.2094],[-120.2871,39.2122],[-120.285,39.214],[-120.2835,39.2256],[-120.2944,39.2334],[-120.3011,39.2364],[-120.3108,39.2375],[-120.3151,39.2438],[-120.3229,39.2492],[-120.3288,39.2469],[-120.3329,39.2475],[-120.3403,39.2441],[-120.3457,39.2448],[-120.3518,39.2472],[-120.3525,39.2486],[-120.3579,39.2493],[-120.3626,39.2531],[-120.3664,39.253],[-120.3702,39.2547],[-120.3758,39.2536],[-120.38,39.2548],[-120.3861,39.2518],[-120.4031,39.2512],[-120.4072,39.2474],[-120.4083,39.2445],[-120.4099,39.244],[-120.4132,39.2434],[-120.4184,39.2459],[-120.4206,39.2435],[-120.4339,39.2419],[-120.4348,39.2371],[-120.4334,39.2331],[-120.436,39.2283],[-120.4401,39.224],[-120.4451,39.2219],[-120.4533,39.2206],[-120.4582,39.2213],[-120.4646,39.2191],[-120.4729,39.2195],[-120.4772,39.217],[-120.4792,39.2181],[-120.4831,39.2169],[-120.4901,39.2187],[-120.495,39.217],[-120.505,39.2176],[-120.5133,39.22],[-120.5172,39.2195],[-120.5259,39.2237],[-120.5357,39.2232],[-120.5431,39.221],[-120.5507,39.2228],[-120.5539,39.2198],[-120.556,39.22],[-120.5581,39.2183],[-120.5693,39.2146],[-120.5733,39.2152],[-120.577,39.2129],[-120.5873,39.2131],[-120.5904,39.2116],[-120.5986,39.2126],[-120.6011,39.2108],[-120.6015,39.2084],[-120.6064,39.2067],[-120.6121,39.2027],[-120.6237,39.2018],[-120.633,39.1994],[-120.6377,39.2002],[-120.643,39.1984],[-120.6562,39.2021],[-120.6605,39.1995],[-120.6628,39.1995],[-120.6675,39.2033],[-120.6793,39.2051],[-120.691,39.2045],[-120.6981,39.1997],[-120.7016,39.1948],[-120.7082,39.1937],[-120.7158,39.1847],[-120.7196,39.1844],[-120.7274,39.1792],[-120.7411,39.1789],[-120.7424,39.1803],[-120.7459,39.181],[-120.7486,39.1843],[-120.7521,39.1849],[-120.7529,39.1869],[-120.759,39.1882],[-120.7614,39.1851],[-120.7682,39.183],[-120.7684,39.1804],[-120.7726,39.1779],[-120.7841,39.1795],[-120.7894,39.1732],[-120.7995,39.172],[-120.809,39.1667],[-120.8139,39.1667],[-120.8163,39.1644],[-120.8158,39.1616],[-120.8178,39.16],[-120.8218,39.1608],[-120.8285,39.1559],[-120.8354,39.1533],[-120.8387,39.1489],[-120.8427,39.1484],[-120.8413,39.1445],[-120.8442,39.1442],[-120.8468,39.1416],[-120.8486,39.1358],[-120.8532,39.1351],[-120.8531,39.1316],[-120.8551,39.1311],[-120.856,39.1279],[-120.8577,39.1284],[-120.8591,39.1323],[-120.8614,39.1317],[-120.8641,39.1286],[-120.8618,39.1261],[-120.8653,39.1213],[-120.8636,39.1181],[-120.8652,39.1167],[-120.8681,39.1166],[-120.8684,39.1145],[-120.8736,39.1153],[-120.877,39.1135],[-120.8802,39.1147],[-120.8804,39.1165],[-120.8923,39.1182],[-120.9008,39.1166],[-120.9068,39.1123],[-120.9111,39.1109],[-120.9155,39.1125],[-120.9192,39.1069],[-120.9244,39.1066],[-120.9253,39.1027],[-120.9232,39.0939],[-120.9249,39.0891],[-120.9245,39.0866],[-120.9164,39.0826],[-120.9179,39.0733],[-120.9139,39.0696],[-120.9147,39.0624],[-120.9107,39.0597],[-120.9091,39.0564],[-120.9043,39.0538],[-120.9045,39.0469],[-120.9025,39.0421],[-120.9034,39.0363],[-120.9085,39.0363],[-120.9203,39.0185],[-120.9206,39.0161],[-120.9181,39.0143],[-120.9176,39.0119],[-120.9196,39.0114],[-120.9215,39.0132],[-120.9266,39.0149],[-120.9302,39.0086],[-120.9371,39.0043],[-120.9392,39.0002],[-120.944,38.9986],[-120.9465,38.9939],[-120.9526,38.9918],[-120.9573,38.9919],[-120.959,38.9868],[-120.9632,38.9861],[-120.9702,38.9815],[-120.9714,38.9777],[-120.9756,38.9744],[-120.9735,38.9729],[-120.9667,38.9722],[-120.9662,38.9693],[-120.9683,38.9664],[-120.9738,38.9683],[-120.9756,38.9677],[-120.9775,38.9584],[-120.9866,38.9559],[-120.9896,38.9512],[-120.9954,38.9509],[-121.0017,38.9442],[-121.0087,38.9453],[-121.0122,38.942],[-121.0196,38.9402],[-121.0223,38.9376],[-121.0313,38.9332],[-121.0359,38.9334],[-121.0381,38.9322],[-121.0411,38.9261]]]},"properties":{"GEOID":"0606191020","NAME":"Foresthill-Back Country","COUNTY":"061"}},{"type":"Feature","geometry":{"type":"Polygon","coordinates":[[[-121.39269961426976,38.75175525529218],[-121.3925,38.7286],[-121.2259,38.7168],[-121.22611511971529,38.72942035663006],[-121.23521,38.72944],[-121.23518,38.7222],[-121.24033,38.72223],[-121.24221,38.72027],[-121.24235,38.71822],[-121.26485,38.71972],[-121.26491,38.72227],[-121.2672,38.72227],[-121.2672,38.71989],[-121.27065,38.72013],[-121.27068,38.72192],[-121.27204,38.7223],[-121.2812,38.7221],[-121.28141,38.72575],[-121.28726,38.72562],[-121.28727,38.72453],[-121.28866,38.72385],[-121.28865,38.72201],[-121.28963,38.72146],[-121.31805,38.72338],[-121.31791,38.72925],[-121.32015,38.72924],[-121.3202,38.73362],[-121.32218,38.73359],[-121.32223,38.74006],[-121.31842,38.74014],[-121.31845,38.73595],[-121.31449,38.73651],[-121.31443,38.72925],[-121.31192,38.72978],[-121.309,38.73307],[-121.30901,38.73419],[-121.31266,38.73419],[-121.31269,38.73642],[-121.30904,38.73652],[-121.30907,38.74022],[-121.31139,38.74022],[-121.31137,38.74386],[-121.31377,38.74384],[-121.31387,38.75187],[-121.35850001262249,38.75180503637173],[-121.3585,38.7518],[-121.36196,38.7518],[-121.39269961426976,38.75175525529218]]]},"properties":{"GEOID":"0606192660","NAME":"Roseville","COUNTY":"061"}}]}