{"type":"FeatureCollection","features":[{"type":"Feature","properties":{"GEOID":"0606590880","NAME":"Elsinore Valley","COUNTY":"065"},"geometry":{"type":"MultiPolygon","coordinates":[[[[-117.6751,33.8687],[-117.6743,33.858],[-117.6621,33.8575],[-117.5801,33.768],[-117.5364,33.7577],[-117.534,33.7104],[-117.4746,33.7038],[-117.458,33.6903],[-117.413,33.659],[-117.4877,33.5643],[-117.5102,33.534],[-117.5099,33.5205],[-117.5032,33.5204],[-117.5038,33.5089],[-117.5097,33.5091],[-117.5097,33.5052],[-117.3639,33.5051],[-117.3421,33.5602],[-117.3274,33.5714],[-117.30398856626005,33.59769050973387],[-117.31085,33.59773],[-117.31102,33.61485],[-117.30867,33.61677],[-117.3066,33.61551],[-117.30392453235496,33.61846506908229],[-117.31274,33.62388],[-117.31537,33.62094],[-117.31709,33.62201],[-117.31446,33.62497],[-117.31514,33.62539],[-117.31448,33.62614],[-117.31698,33.62833],[-117.3154,33.63009],[-117.31673,33.63099],[-117.31826,33.62924],[-117.31964,33.63055],[-117.319,33.63127],[-117.32001,33.6319],[-117.31937,33.63263],[-117.32876,33.63829],[-117.3342,33.63257],[-117.3293,33.63867],[-117.33077,33.63958],[-117.3357,33.63726],[-117.33796,33.63793],[-117.3447,33.64263],[-117.35638,33.64796],[-117.36099,33.65188],[-117.36648,33.65485],[-117.36732,33.65694],[-117.37027,33.65978],[-117.37303,33.65656],[-117.37061,33.65509],[-117.37226,33.65327],[-117.37116,33.65255],[-117.37241,33.65113],[-117.37294,33.65146],[-117.37515,33.64898],[-117.37502,33.65347],[-117.37584,33.65398],[-117.37498,33.65494],[-117.3774,33.65644],[-117.37944,33.65362],[-117.37926,33.6483],[-117.38365,33.64815],[-117.38364,33.65486],[-117.38267,33.65537],[-117.38371,33.65623],[-117.37976,33.66072],[-117.391,33.66776],[-117.38636,33.67483],[-117.38905,33.67654],[-117.38756,33.67881],[-117.39648,33.67853],[-117.39668,33.68174],[-117.39412,33.68178],[-117.39425,33.68407],[-117.41555,33.68418],[-117.41592,33.69842],[-117.42034,33.69823],[-117.42039,33.70164],[-117.41607,33.7017],[-117.41609,33.72761],[-117.40591,33.72754],[-117.40299,33.72923],[-117.40296,33.73094],[-117.40213,33.73139],[-117.39857,33.72982],[-117.3985679125466,33.73045980446865],[-117.4057,33.733],[-117.4185,33.7336],[-117.4307,33.7405],[-117.4412,33.7432],[-117.4515,33.7479],[-117.4589,33.7554],[-117.4724,33.762],[-117.4707,33.7626],[-117.4721,33.7646],[-117.4699,33.7711],[-117.4738,33.7821],[-117.4841,33.784],[-117.4903,33.789],[-117.4924,33.7984],[-117.4994,33.8062],[-117.49928473517811,33.807446955800415],[-117.50302,33.80744],[-117.50312,33.80673],[-117.50462,33.80701],[-117.50457,33.80778],[-117.50813,33.80682],[-117.51236,33.81497],[-117.51994,33.81467],[-117.51993,33.81109],[-117.52437,33.81112],[-117.52436,33.81032],[-117.5281,33.80745],[-117.52432,33.80749],[-117.52433,33.80033],[-117.55409,33.80008],[-117.55403,33.81148],[-117.57639309362993,33.82290084974722],[-117.5779,33.8236],[-117.58207291196388,33.82751611738149],[-117.58442,33.82967],[-117.58912,33.82966],[-117.5891,33.831372],[-117.5891,33.8339],[-117.59719067317776,33.841391364053486],[-117.59726273809524,33.838325833333336],[-117.5973,33.8365],[-117.59730564273397,33.83650073600878],[-117.59732,33.83589],[-117.59528,33.83588],[-117.59535,33.8332],[-117.59977,33.83322],[-117.59967,33.83502],[-117.60529,33.83506],[-117.60526,33.83597],[-117.60638,33.83596],[-117.60631,33.83866],[-117.6105,33.83868],[-117.61048,33.84231],[-117.61478,33.84226],[-117.61477,33.84408],[-117.61902,33.84405],[-117.61901,33.84585],[-117.61477,33.84589],[-117.61476,33.8477],[-117.61582,33.8477],[-117.61582,33.84868],[-117.61476,33.84878],[-117.61473,33.85462],[-117.61421,33.8546],[-117.61343488903103,33.85930035241446],[-117.62325317567567,33.85939952702703],[-117.6233,33.85939985844287],[-117.6233,33.8567],[-117.632,33.8567],[-117.632,33.85671995391705],[-117.63202,33.85672],[-117.63201,33.85937],[-117.64482,33.85939],[-117.64490263736263,33.864172637362635],[-117.64499900455071,33.86865371160829],[-117.64715513432836,33.86907480597015],[-117.6496,33.8695],[-117.64960802130261,33.86955385731754],[-117.6586,33.87131],[-117.6588,33.87623],[-117.66589,33.87134],[-117.67161,33.86937],[-117.67201658404957,33.869806007895264],[-117.6751,33.8687]]],[[[-117.53677,33.82364],[-117.5243,33.8238],[-117.52416,33.82531],[-117.52837,33.82924],[-117.51521,33.82929],[-117.5122,33.8269],[-117.51026,33.8238],[-117.50460848295765,33.82403185710943],[-117.505,33.8244],[-117.5026,33.8244],[-117.5035,33.8255],[-117.5085,33.8283],[-117.5072,33.8336],[-117.5102,33.8395],[-117.5091,33.8443],[-117.5119,33.8526],[-117.5206,33.8533],[-117.52290953481652,33.85743285177694],[-117.52356,33.8574],[-117.52751,33.85827],[-117.52757,33.85381],[-117.53192,33.85382],[-117.53192,33.85532],[-117.53494,33.85401],[-117.5335,33.84783],[-117.53401,33.84477],[-117.5319,33.84271],[-117.53242505789889,33.84189940499655],[-117.5323,33.8418],[-117.53593745739605,33.83647689161554],[-117.53635,33.83584],[-117.53642,33.83169],[-117.53447,33.83131],[-117.53451,33.83276],[-117.53222,33.83277],[-117.53217,33.8354],[-117.53056,33.83191],[-117.53468,33.82983],[-117.53645,33.83034],[-117.53677,33.82364]]],[[[-117.49868,33.81517],[-117.49857190947208,33.815158433892925],[-117.49853427884615,33.81556552884615],[-117.49868,33.81517]]],[[[-117.49841444181459,33.81820760946746],[-117.49832138751684,33.8178686259542],[-117.4983,33.8181],[-117.49841444181459,33.81820760946746]]],[[[-117.34647637853811,33.70753371721873],[-117.34621,33.69835],[-117.34318,33.6963],[-117.34224,33.6971],[-117.34054,33.69702],[-117.34054,33.69793],[-117.33698,33.6979],[-117.33552,33.69917],[-117.33231,33.6967],[-117.32516,33.70348],[-117.32426,33.70615],[-117.32377787523835,33.70669098883138],[-117.3266,33.709],[-117.32675491025925,33.71302766674053],[-117.32742,33.71302],[-117.32727024,33.7170136],[-117.32979925381393,33.71847264643111],[-117.33191,33.71532],[-117.33535,33.71751],[-117.33375531868131,33.71972789010989],[-117.3447,33.7076],[-117.34647637853811,33.70753371721873]]],[[[-117.30905052851182,33.71305906351414],[-117.29654,33.71328],[-117.29654,33.70956],[-117.29928,33.70953],[-117.29937,33.70408],[-117.28989855431402,33.704259837576316],[-117.2897,33.7079],[-117.2923,33.7106],[-117.2927,33.7133],[-117.2999,33.7133],[-117.3003,33.7163],[-117.30905052851182,33.71305906351414]]],[[[-117.28950354503465,33.7017283256351],[-117.2894,33.70105],[-117.2886756415833,33.700608220965634],[-117.28950354503465,33.7017283256351]]],[[[-117.28734315068493,33.69979554794521],[-117.28576,33.69883],[-117.28430857142857,33.69883],[-117.28734315068493,33.69979554794521]]],[[[-117.28402,33.68315],[-117.28076,33.68314],[-117.28401926246661,33.68350991629222],[-117.28402,33.68315]]],[[[-117.2666,33.67038],[-117.26228900930045,33.670414654266075],[-117.2622890052961,33.6704146596052],[-117.2666,33.67038]]]]}},{"type":"Feature","properties":{"GEOID":"0606590253","NAME":"Blythe","COUNTY":"065"},"geometry":{"type":"MultiPolygon","coordinates":[[[[-114.7664,33.4342],[-114.6271,33.4336],[-114.6223,33.4476],[-114.6229,33.4566],[-114.6125,33.4708],[-114.6017,33.4814],[-114.5924,33.4987],[-114.5892,33.5018],[-114.5805,33.5065],[-114.5695,33.5092],[-114.561,33.5167],[-114.5608,33.5243],[-114.5589,33.5318],[-114.5318,33.5479],[-114.5304,33.5501],[-114.5246,33.5522],[-114.5268,33.5575],[-114.5316,33.5617],[-114.53594453537285,33.569470034416824],[-114.53578,33.56893],[-114.54432,33.56878],[-114.54491,33.57323],[-114.54689,33.57409],[-114.54687,33.57569],[-114.54471,33.57647],[-114.54398,33.57861],[-114.54537,33.58415],[-114.54504,33.58815],[-114.54423,33.58936],[-114.57463,33.58892],[-114.57483,33.59619],[-114.57915,33.59612],[-114.57922,33.59975],[-114.5879,33.59958],[-114.58794,33.60142],[-114.60075,33.60121],[-114.60325,33.60117],[-114.60326,33.6006],[-114.60531,33.60056],[-114.60527,33.59931],[-114.6075,33.59928],[-114.60756,33.60664],[-114.65521,33.60627],[-114.65714,33.60572],[-114.65772,33.60326],[-114.65804,33.6057],[-114.66003,33.60626],[-114.69178055090649,33.606407631203844],[-114.7124,33.5842],[-114.7532,33.5304],[-114.7664,33.4342]]],[[[-114.69163915993902,33.606559912598314],[-114.69051,33.60682],[-114.69050055817472,33.607786213454126],[-114.69163915993902,33.606559912598314]]],[[[-114.68168117771074,33.61728489345775],[-114.67088,33.6173],[-114.67073,33.61362],[-114.65785,33.61361],[-114.6581,33.62093],[-114.65374,33.6209],[-114.65361,33.61723],[-114.64014,33.61722],[-114.64012,33.61631],[-114.63846,33.61631],[-114.63844,33.61543],[-114.63622,33.61542],[-114.63618,33.61356],[-114.62753,33.61354],[-114.62745,33.60998],[-114.623,33.60997],[-114.61427,33.61011],[-114.61453,33.61733],[-114.60741,33.61746],[-114.60745,33.61928],[-114.61016,33.61923],[-114.61044,33.63197],[-114.6265,33.63177],[-114.62665,33.63901],[-114.62815,33.63901],[-114.62861,33.66081],[-114.64130759539847,33.660768190334544],[-114.68168117771074,33.61728489345775]]],[[[-114.61987,33.66091],[-114.61969,33.65367],[-114.61525,33.65367],[-114.61504,33.64644],[-114.59776,33.64673],[-114.59763,33.63783],[-114.59956,33.63214],[-114.55383,33.63291],[-114.55415,33.64741],[-114.56124,33.64715],[-114.56127,33.64813],[-114.55646,33.65584],[-114.55432,33.65776],[-114.5544,33.66207],[-114.51974,33.66224],[-114.51711,33.66288],[-114.51704091520861,33.66284682368775],[-114.5171,33.6629],[-114.5264,33.6639],[-114.5303,33.6668],[-114.5321,33.6697],[-114.5315,33.6751],[-114.5303,33.6792],[-114.524,33.6859],[-114.4965,33.6969],[-114.4942,33.7079],[-114.4966,33.7192],[-114.5008,33.7222],[-114.5042,33.7281],[-114.5103,33.7321],[-114.512,33.735],[-114.5156,33.7345],[-114.5167,33.7264],[-114.5185,33.7233],[-114.5332,33.7123],[-114.5476,33.7117],[-114.5543,33.7094],[-114.5629,33.7038],[-114.5719,33.7019],[-114.5748,33.7025],[-114.5998,33.6919],[-114.6003,33.6903],[-114.6061,33.6891],[-114.61584423395581,33.68478376214038],[-114.61546,33.66098],[-114.61987,33.66091]]],[[[-114.54714,33.63872],[-114.52486133397198,33.63868000239492],[-114.5254,33.6407],[-114.53302273939808,33.648225011969906],[-114.52855,33.64309],[-114.53447,33.64144],[-114.53448,33.64221],[-114.53683,33.64149],[-114.54388,33.64168],[-114.54714,33.63872]]],[[[-114.54062,33.59141],[-114.54030876712329,33.580915616438354],[-114.5406,33.5914],[-114.53642,33.59701],[-114.54062,33.59141]]],[[[-114.54017394270123,33.580254242837654],[-114.53898,33.57679],[-114.53886860316105,33.576673882956],[-114.54017394270123,33.580254242837654]]],[[[-114.53321,33.64844],[-114.5332,33.648428519313306],[-114.5332,33.65005],[-114.53321,33.64844]]],[[[-114.53306572212065,33.65184460694698],[-114.53080531194296,33.65427889483066],[-114.53216,33.65319],[-114.53306572212065,33.65184460694698]]],[[[-114.53121,33.62391],[-114.53119942585798,33.62389907835096],[-114.5312,33.6239],[-114.531,33.6282],[-114.52960320224719,33.628837668539326],[-114.53103,33.62821],[-114.53121,33.62391]]],[[[-114.52896996129326,33.606849039162114],[-114.52237878014516,33.61111938187778],[-114.52678,33.60883],[-114.52896996129326,33.606849039162114]]],[[[-114.52730653465346,33.65535386138614],[-114.5252,33.6559],[-114.5183,33.6559],[-114.5152941322314,33.65760603305785],[-114.51834,33.65593],[-114.52516,33.65594],[-114.52730653465346,33.65535386138614]]],[[[-114.52316704545454,33.61475227272727],[-114.52239615567157,33.61418910773612],[-114.5224,33.6142],[-114.52316704545454,33.61475227272727]]],[[[-114.5223619117647,33.61409208333333],[-114.52208026894866,33.611378924205376],[-114.5218,33.6125],[-114.5223619117647,33.61409208333333]]]]}},{"type":"Feature","properties":{"GEOID":"0606590492","NAME":"Chuckwalla Valley","COUNTY":"065"},"geometry":{"type":"Polygon","coordinates":[[[-116.4585,33.9753],[-116.4469,33.9719],[-116.4469,33.9736],[-116.4446,33.9736],[-116.4446,33.9719],[-116.4413,33.9719],[-116.4413,33.9698],[-116.3995,33.9437],[-116.3967,33.9436],[-116.3967,33.9422],[-116.3839,33.9388],[-116.3839,33.9397],[-116.3794,33.9398],[-116.3795,33.937],[-116.3273,33.9166],[-116.3246,33.9167],[-116.325,33.9158],[-116.3231,33.915],[-116.3188,33.915],[-116.3187,33.913],[-116.277,33.894],[-116.2768,33.8988],[-116.2749,33.8988],[-116.2738,33.8943],[-116.2666,33.8893],[-116.2719,33.891],[-116.2768,33.8895],[-116.2809,33.8859],[-116.3018,33.8756],[-116.2904,33.8706],[-116.2487,33.8483],[-116.2486,33.8457],[-116.2424,33.8449],[-116.187,33.8015],[-116.17809742978017,33.78047895313729],[-116.17744,33.78048],[-116.16556335583857,33.75088307810342],[-116.1643,33.7479],[-116.16429921875672,33.747732813940466],[-116.16427,33.74766],[-116.16418005399773,33.7264827134647],[-116.1582,33.7213],[-116.15483637387388,33.71514936936937],[-116.15467,33.71494],[-116.14851,33.71488],[-116.12931,33.71488],[-116.1293,33.72945],[-116.07825,33.72929],[-116.07827,33.69953],[-116.09447,33.6982],[-116.09455,33.68566],[-116.0783,33.68572],[-116.07804,33.67144],[-116.10928784279854,33.671385402720794],[-116.1056,33.6678],[-116.1032,33.6575],[-116.0939,33.6487],[-116.0902,33.6412],[-116.0851,33.6376],[-116.0782,33.6376],[-116.0733,33.635],[-116.0717,33.6284],[-116.0659,33.6203],[-116.0548,33.6092],[-116.0484,33.6052],[-116.0385,33.5926],[-116.0325,33.5876],[-116.0264,33.5864],[-116.0261,33.5989],[-116.0088,33.5989],[-116.0086,33.5842],[-115.9914,33.5842],[-115.9914,33.5696],[-115.9963,33.5696],[-115.9901,33.5661],[-115.9839,33.5649],[-115.9648,33.5665],[-115.9565,33.5657],[-115.9456,33.5557],[-115.9337,33.5535],[-115.9303,33.5511],[-115.9289,33.5485],[-115.9226,33.5444],[-115.918,33.536],[-115.9133,33.5333],[-115.9101,33.5277],[-115.8611,33.52],[-115.848,33.5215],[-115.8313,33.5213],[-115.82,33.5149],[-115.8061,33.5114],[-115.7786,33.5108],[-115.768,33.5089],[-115.7662,33.5057],[-115.7666,33.4967],[-115.7636,33.4881],[-115.7493,33.4682],[-115.7309,33.4581],[-115.7137,33.4535],[-115.7138,33.4548],[-115.7034,33.4446],[-115.6905,33.4385],[-115.6808,33.429],[-115.6775,33.4274],[-115.498,33.4269],[-115.4675,33.427],[-115.4675,33.4284],[-115.1258,33.429],[-115.0632,33.4281],[-114.8308,33.4301],[-114.8309,33.4337],[-114.7665,33.4337],[-114.7532,33.5304],[-114.7124,33.5842],[-114.69178055090649,33.606407631203844],[-114.69229,33.60641],[-114.69163915993902,33.606559912598314],[-114.69050055817472,33.607786213454126],[-114.69048,33.60989],[-114.69231,33.60987],[-114.69179,33.61397],[-114.69232,33.61396],[-114.69233,33.61727],[-114.68168117771074,33.61728489345775],[-114.64130759539847,33.660768190334544],[-114.65898,33.66071],[-114.65912,33.66783],[-114.65046,33.66783],[-114.65059,33.67514],[-114.64408,33.67512],[-114.64423,33.68229],[-114.64201,33.68232],[-114.64216,33.68932],[-114.63422,33.68677],[-114.61587,33.68638],[-114.61584423395581,33.68478376214038],[-114.6061,33.6891],[-114.6003,33.6903],[-114.5998,33.6919],[-114.5748,33.7025],[-114.5719,33.7019],[-114.5629,33.7038],[-114.5543,33.7094],[-114.5476,33.7117],[-114.5339,33.712],[-114.5175,33.7246],[-114.5156,33.7345],[-114.512,33.735],[-114.506,33.7463],[-114.5043,33.7564],[-114.5071,33.7679],[-114.5167,33.7883],[-114.5189,33.7973],[-114.528,33.815],[-114.5227,33.819],[-114.52,33.8254],[-114.5296,33.8481],[-114.5306,33.8554],[-114.5299,33.8576],[-114.5257,33.86],[-114.5156,33.8583],[-114.5066,33.8635],[-114.5031,33.8672],[-114.5034,33.875],[-114.5228,33.8926],[-114.5257,33.8994],[-114.5257,33.9014],[-114.5243,33.9016],[-114.5163,33.8979],[-114.5124,33.8984],[-114.508,33.9018],[-114.5086,33.9061],[-114.5124,33.9121],[-114.521,33.9195],[-114.5284,33.9237],[-114.535,33.9257],[-114.5355,33.9347],[-114.5287,33.9478],[-114.522,33.9556],[-114.5159,33.9581],[-114.5096,33.9573],[-114.4999,33.9618],[-114.4848,33.9755],[-114.4815,33.9813],[-114.4711,33.988],[-114.4679,33.9929],[-114.4593,33.9947],[-114.458,33.9972],[-114.4592,34],[-114.4673,34.0052],[-114.4659,34.011],[-114.4633,34.0123],[-114.4548,34.011],[-114.4502,34.0126],[-114.4438,34.0162],[-114.4383,34.0226],[-114.4362,34.0281],[-114.4349,34.0378],[-114.4394,34.0538],[-114.4393,34.0579],[-114.4377,34.0719],[-114.4354,34.0797],[-115.1258,34.0798],[-115.1924,34.0794],[-115.1924,34.0778],[-115.3161,34.0778],[-115.3162,34.0341],[-115.8409,34.0354],[-116.1845,34.0336],[-116.3006,34.0344],[-116.3006,34.0325],[-116.3159,34.0325],[-116.4574,34.0329],[-116.4585,33.9771],[-116.4585,33.9753]],[[-114.93812,33.56912],[-114.8903,33.56921],[-114.89036,33.55471],[-114.9121,33.55466],[-114.91198,33.54741],[-114.91632,33.54742],[-114.91644,33.55468],[-114.93382,33.55465],[-114.93379,33.56553],[-114.93806,33.56554],[-114.93812,33.56912]]]}},{"type":"Feature","properties":{"GEOID":"0606591280","NAME":"Hemet-San Jacinto","COUNTY":"065"},"geometry":{"type":"MultiPolygon","coordinates":[[[[-117.0717,33.6858],[-117.0699,33.6811],[-117.0642,33.6773],[-117.0618,33.6783],[-117.0375,33.6783],[-117.0329,33.6825],[-117.0222,33.6856],[-116.99069280013443,33.68572355764653],[-116.99087,33.68848],[-116.99364,33.69456],[-116.99781,33.7013],[-116.99789,33.70046],[-116.99959,33.70118],[-117.00094,33.69811],[-117.00196,33.69836],[-117.00083,33.70232],[-117.00174,33.7028],[-117.00118,33.70392],[-117.00235,33.7044],[-117.00161,33.70557],[-117.0029,33.70628],[-117.00375,33.70601],[-117.00502,33.70266],[-117.00705,33.70393],[-117.00853,33.70268],[-117.00887,33.70384],[-117.00955,33.70376],[-117.01108,33.70066],[-117.01366,33.70416],[-117.01495,33.7028],[-117.01498,33.70376],[-117.01938,33.70376],[-117.01949,33.7075],[-117.02147,33.70748],[-117.02095,33.70835],[-117.02783,33.70789],[-117.03138,33.70648],[-117.03985,33.69959],[-117.04043057317074,33.699432020905924],[-117.0406,33.6993],[-117.04117650983146,33.69922904494382],[-117.04279,33.69879],[-117.04524526107942,33.69872827555945],[-117.0471,33.6985],[-117.0502,33.6957],[-117.0588,33.6952],[-117.0678,33.6921],[-117.071,33.6901],[-117.0717,33.6858]]],[[[-117.0686,33.8401],[-117.0599,33.8385],[-117.05850920482108,33.837638445464385],[-117.05838,33.83776],[-117.03729,33.82452],[-117.03583636363636,33.82409343434343],[-117.0337,33.8235],[-117.03369992918188,33.82349028021284],[-117.02235,33.82353],[-117.02239,33.83224],[-117.01018,33.83686],[-116.98377,33.82588],[-116.9814,33.82373],[-116.97838,33.82375],[-116.97376,33.82165],[-116.97398,33.82049],[-116.97219,33.8161],[-116.97207,33.81207],[-116.96136,33.81211],[-116.96138,33.81656],[-116.96024,33.81665],[-116.96695,33.82045],[-116.96605,33.82272],[-116.96654,33.82239],[-116.96657,33.82379],[-116.95472,33.82384],[-116.95472,33.81659],[-116.94599,33.81663],[-116.94599,33.81325],[-116.95124,33.81322],[-116.9547,33.8142],[-116.95472,33.81234],[-116.95831,33.80931],[-116.95683,33.8081],[-116.95941,33.80596],[-116.95463,33.80203],[-116.95683,33.80199],[-116.95682,33.80112],[-116.95897,33.80143],[-116.9589,33.78955],[-116.95313,33.78935],[-116.95314,33.79027],[-116.95455,33.79025],[-116.95458,33.7948],[-116.95024,33.79483],[-116.95012,33.80048],[-116.94908,33.80013],[-116.94441,33.80411],[-116.93847,33.79923],[-116.93897,33.80072],[-116.93686,33.80246],[-116.93245,33.8009],[-116.92953,33.7981],[-116.92427,33.79916],[-116.9247,33.80211],[-116.91945,33.80211],[-116.91942,33.79845],[-116.92239,33.79845],[-116.92236,33.79397],[-116.92724,33.79111],[-116.92239,33.78602],[-116.92843,33.78038],[-116.93262,33.78039],[-116.92636,33.77313],[-116.9173,33.76578],[-116.92823,33.76538],[-116.9162,33.7653],[-116.91506,33.76495],[-116.91506,33.76229],[-116.91273,33.76211],[-116.91071,33.76048],[-116.91509,33.76045],[-116.91493,33.75503],[-116.91015,33.75506],[-116.91013,33.75142],[-116.9089,33.75142],[-116.90889,33.7478],[-116.94563,33.74767],[-116.94559,33.74495],[-116.94776,33.74495],[-116.94822,33.74405],[-116.94937,33.745],[-116.95211,33.74509],[-116.95211,33.74582],[-116.95758,33.74628],[-116.95752,33.74307],[-116.95861,33.74308],[-116.95855,33.73673],[-116.95587,33.73674],[-116.95583,33.73491],[-116.95855,33.7349],[-116.95855,33.7313],[-116.96072,33.73125],[-116.96069,33.72946],[-116.96284,33.72947],[-116.96285,33.72763],[-116.96068,33.72765],[-116.96067,33.72356],[-116.9636,33.7238],[-116.9672,33.7228],[-116.96716,33.71481],[-116.96297,33.71483],[-116.96298,33.71305],[-116.95966,33.71307],[-116.95963,33.70951],[-116.96291,33.7095],[-116.96286,33.70299],[-116.95406,33.70307],[-116.95387,33.69273],[-116.96249,33.68581],[-116.97119874875457,33.68574244271065],[-116.9709,33.672],[-116.9495,33.6713],[-116.9479,33.6656],[-116.945,33.664],[-116.9448,33.6572],[-116.9421,33.6532],[-116.9372,33.6341],[-116.9373,33.6255],[-116.9339,33.6154],[-116.9348,33.6113],[-116.9324,33.6108],[-116.929,33.6128],[-116.9213,33.6132],[-116.9167,33.6159],[-116.9128,33.6167],[-116.9028,33.6161],[-116.9002,33.6194],[-116.9003,33.6262],[-116.8973,33.6278],[-116.8961,33.6315],[-116.894,33.6325],[-116.8856,33.6318],[-116.8716,33.6339],[-116.8681,33.6313],[-116.868,33.6261],[-116.8608,33.6216],[-116.8584,33.6218],[-116.8585,33.6865],[-116.8413,33.6865],[-116.8412,33.6875],[-116.8419,33.802],[-116.8757,33.8018],[-116.8758,33.8093],[-116.8857,33.8088],[-116.8856,33.8055],[-116.896,33.8053],[-116.9077,33.8171],[-116.9325,33.818],[-116.95522728780412,33.83105822237868],[-116.96344,33.83103],[-116.96347305075946,33.835795919515306],[-116.98039420279697,33.84551816037896],[-116.99074,33.84556],[-116.99074,33.84922],[-116.9984,33.8493],[-116.99839406318061,33.85586018542395],[-117.0009,33.8573],[-117.0095,33.857],[-117.0041,33.8457],[-117.0087,33.8462],[-117.02,33.8583],[-117.03,33.8651],[-117.0335,33.8666],[-117.0388,33.8666],[-117.0441,33.8698],[-117.0681,33.8554],[-117.0686,33.8401]]],[[[-117.0363,33.7547],[-117.03617023489933,33.752753523489936],[-117.03619990940857,33.75516375307364],[-117.0363,33.7547]]],[[[-117.033387734209,33.76819349816496],[-117.03338,33.76822],[-117.03337993887797,33.768229616532054],[-117.033387734209,33.76819349816496]]],[[[-117.0333316212221,33.77294001273416],[-117.0333316211511,33.77294000298892],[-116.97186,33.77295],[-117.0333316212221,33.77294001273416]]],[[[-116.93334,33.76228],[-116.93119,33.76067],[-116.93108194773707,33.76085198275862],[-116.93334,33.76228]]],[[[-116.93321236037644,33.759943213045595],[-116.93321,33.7599],[-116.92793,33.75633],[-116.93321236037644,33.759943213045595]]]]}},{"type":"Feature","properties":{"GEOID":"0606592060","NAME":"Murrieta","COUNTY":"065"},"geometry":{"type":"MultiPolygon","coordinates":[[[[-117.3708,33.4907],[-117.2415,33.4488],[-117.2414,33.4319],[-117.1388,33.4326],[-117.1044,33.4303],[-117.0309,33.4299],[-117.0309,33.4269],[-116.8367,33.4269],[-116.8381,33.4301],[-116.8428,33.4342],[-116.8489,33.4331],[-116.8495,33.4371],[-116.8532,33.4398],[-116.8702,33.4443],[-116.882,33.4438],[-116.8938,33.4489],[-116.8997,33.4571],[-116.9035,33.4594],[-116.9086,33.4602],[-116.9145,33.4639],[-116.9125,33.4686],[-116.914,33.4747],[-116.9119,33.479],[-116.9127,33.4832],[-116.9117,33.4857],[-116.9064,33.4947],[-116.9025,33.4957],[-116.8967,33.5031],[-116.8971,33.5098],[-116.9012,33.5197],[-116.8993,33.529],[-116.9006,33.53],[-116.9069,33.5294],[-116.9094,33.5325],[-116.9074,33.5357],[-116.9079,33.5416],[-116.9061,33.5448],[-116.9086,33.5502],[-116.9089,33.5541],[-116.92,33.5659],[-116.9219,33.569],[-116.9217,33.5725],[-116.925,33.572],[-116.9266,33.573],[-116.9326,33.5818],[-116.9334,33.5853],[-116.939,33.5915],[-116.9395,33.601],[-116.9353,33.609],[-116.9339,33.6154],[-116.9373,33.6255],[-116.937,33.6331],[-116.9421,33.6532],[-116.9448,33.6572],[-116.945,33.664],[-116.9479,33.6656],[-116.9495,33.6713],[-116.9709,33.672],[-116.97119874875457,33.68574244271065],[-116.97667,33.6857],[-116.97642,33.68302],[-116.97469,33.68169],[-116.98426,33.67848],[-116.98452,33.67117],[-116.98856,33.67115],[-116.98865,33.68569],[-116.99069,33.68568],[-116.99069049261287,33.68568766286678],[-117.0059,33.6856],[-117.0063,33.6795],[-117.0169,33.6778],[-117.0115,33.6745],[-117.0089,33.6651],[-117.007,33.6633],[-117.0086,33.6616],[-117.0092,33.6557],[-117.0044,33.65],[-117.0094,33.647],[-117.0113,33.6442],[-117.0099,33.6413],[-117.0148,33.6413],[-117.0194,33.6378],[-117.0236,33.639],[-117.0355,33.6384],[-117.0398,33.6399],[-117.0445,33.6376],[-117.0473,33.6341],[-117.0515,33.6341],[-117.0616,33.6284],[-117.0694,33.6304],[-117.075,33.6375],[-117.0804,33.6381],[-117.081,33.6372],[-117.0828,33.6395],[-117.0905,33.6418],[-117.13683937730708,33.64169547508878],[-117.13684,33.6415],[-117.1191,33.64162],[-117.11886,33.62701],[-117.1232,33.62701],[-117.12333,33.63429],[-117.14545,33.63418],[-117.14546,33.6415],[-117.15399,33.64146],[-117.15412,33.63417],[-117.16566,33.63424],[-117.14976,33.63412],[-117.14979,33.62694],[-117.15407,33.62694],[-117.15417,33.59788],[-117.12185,33.59798],[-117.12064,33.59929],[-117.11846,33.59804],[-117.12625,33.59079],[-117.13259,33.58271],[-117.13975,33.55779],[-117.14128,33.54954],[-117.14309,33.54435],[-117.14205,33.5452],[-117.14191,33.54344],[-117.14295,33.5422],[-117.13516,33.53904],[-117.12895,33.54435],[-117.12336,33.54065],[-117.12336,33.54382],[-117.12451,33.54644],[-117.12272,33.54644],[-117.1227,33.5493],[-117.12065,33.54932],[-117.12061,33.55411],[-117.0838,33.55442],[-117.08379,33.53984],[-117.10112,33.53979],[-117.1011,33.52993],[-117.10016,33.5261],[-117.08969,33.51297],[-117.08987,33.50819],[-117.08736,33.50888],[-117.0841,33.51143],[-117.07992,33.51232],[-117.0792,33.51097],[-117.0801,33.51017],[-117.08062,33.5077],[-117.07856,33.50633],[-117.0791,33.50455],[-117.07651,33.50368],[-117.07539,33.50247],[-117.07161,33.49418],[-117.07339,33.49256],[-117.07644,33.49149],[-117.07461,33.48702],[-117.0755,33.4868],[-117.07442,33.48383],[-117.06714,33.48486],[-117.05523,33.48839],[-117.05474,33.48714],[-117.06435,33.48433],[-117.06349,33.4809],[-117.06821,33.47896],[-117.07277,33.47432],[-117.07065,33.47125],[-117.07447,33.4687],[-117.07449,33.46644],[-117.07929,33.46651],[-117.08319,33.464],[-117.08304,33.45931],[-117.07879,33.45931],[-117.07876,33.4558],[-117.08308,33.4558],[-117.08305,33.4522],[-117.08733,33.45222],[-117.08733,33.44856],[-117.09398,33.44853],[-117.0982,33.45222],[-117.10197,33.4498],[-117.10324,33.4512],[-117.09972,33.45346],[-117.10773,33.45958],[-117.11545,33.45249],[-117.12421,33.45925],[-117.12896,33.45326],[-117.13745,33.46113],[-117.1363,33.45254],[-117.13676,33.44716],[-117.15348,33.44718],[-117.15377,33.4326],[-117.20652,33.43215],[-117.20649,33.43578],[-117.20644,33.44303],[-117.19755,33.44297],[-117.19753,33.44659],[-117.20642,33.44665],[-117.20637,33.45054],[-117.16741,33.4645],[-117.16733,33.46178],[-117.16319,33.46496],[-117.15937,33.4648],[-117.15546,33.46627],[-117.15509,33.46877],[-117.15585,33.46993],[-117.15441,33.47102],[-117.14542,33.47346],[-117.14423,33.47442],[-117.14834,33.4786],[-117.14796,33.47934],[-117.14915,33.48205],[-117.15536,33.48851],[-117.15857,33.49097],[-117.16244,33.49233],[-117.16538,33.49625],[-117.16538,33.49723],[-117.17377,33.49765],[-117.19002,33.51343],[-117.20671,33.52609],[-117.20779,33.52591],[-117.2102,33.52783],[-117.20967,33.52833],[-117.22214,33.53779],[-117.22286,33.53725],[-117.22601,33.53963],[-117.2253,33.54017],[-117.2334,33.54632],[-117.24079,33.54032],[-117.24225,33.54317],[-117.24154,33.54428],[-117.24324,33.54786],[-117.24327,33.55101],[-117.24602,33.55263],[-117.24724,33.55612],[-117.24566,33.55849],[-117.24554,33.56026],[-117.24683,33.5616],[-117.25251,33.56098],[-117.25406,33.55451],[-117.25486,33.5545],[-117.25621,33.56808],[-117.25985,33.56821],[-117.26288,33.56667],[-117.26522,33.56668],[-117.26385,33.56191],[-117.26511,33.55958],[-117.26579,33.5638],[-117.27445,33.5692],[-117.2781,33.56609],[-117.28005,33.56624],[-117.27745,33.57577],[-117.26425,33.58372],[-117.26565,33.5838],[-117.29147,33.58514],[-117.30061,33.58711],[-117.30475,33.59675],[-117.3039,33.59769],[-117.30398856626005,33.59769050973387],[-117.3274,33.5714],[-117.3421,33.5602],[-117.3619,33.5093],[-117.3708,33.4907]]],[[[-117.20178,33.62321],[-117.1913,33.62335],[-117.19129,33.62197],[-117.18849,33.62199],[-117.18853,33.62701],[-117.17108,33.62704],[-117.20175013310843,33.626993139598],[-117.20178,33.62321]]],[[[-117.17106,33.64153],[-117.16645,33.64152],[-117.16995,33.64155],[-117.17106,33.64153]]]]}},{"type":"Feature","properties":{"GEOID":"0606592130","NAME":"Norco","COUNTY":"065"},"geometry":{"type":"Polygon","coordinates":[[[-117.54958433755117,33.949640228879794],[-117.54922,33.94961],[-117.54957628172023,33.94965339328644],[-117.54958433755117,33.949640228879794]]]}},{"type":"Feature","properties":{"GEOID":"0606592640","NAME":"Riverside","COUNTY":"065"},"geometry":{"type":"MultiPolygon","coordinates":[[[[-117.52337617682768,33.9555801212559],[-117.51883,33.95562],[-117.51885,33.95924],[-117.5101,33.95918],[-117.5101,33.96007],[-117.50795,33.96007],[-117.50796,33.96089],[-117.48405,33.96075],[-117.48404,33.96166],[-117.48077,33.96164],[-117.48076,33.96254],[-117.47856,33.96254],[-117.4756097432233,33.96465584071864],[-117.47613,33.96466],[-117.48357,33.96664],[-117.48526018201285,33.96753529443255],[-117.48850146971202,33.968538550148956],[-117.48852,33.9681],[-117.50582,33.96784],[-117.50581,33.96623],[-117.51424,33.96615],[-117.51573,33.96298],[-117.51821,33.9628],[-117.52116,33.96109],[-117.52322,33.96099],[-117.52322,33.9625],[-117.52324,33.95933],[-117.52201,33.95933],[-117.52199,33.95753],[-117.5233,33.95732],[-117.52337617682768,33.9555801212559]]],[[[-117.50944356164383,33.901906506849315],[-117.50781657320873,33.90219704049844],[-117.50786,33.90225],[-117.50944356164383,33.901906506849315]]],[[[-117.49442684260731,33.885832852146265],[-117.4944,33.8858],[-117.49297981366459,33.886936149068326],[-117.49395,33.88682],[-117.49442684260731,33.885832852146265]]],[[[-117.47275,33.88596],[-117.47131991218194,33.88469915334384],[-117.4671,33.8858],[-117.463447132255,33.88788735299715],[-117.46502,33.88978],[-117.47109,33.88748],[-117.47275,33.88596]]],[[[-117.4536,33.96509],[-117.44915,33.96506],[-117.44914956043957,33.9651],[-117.4536,33.9651],[-117.4536,33.96509]]],[[[-117.44809061596958,33.965965186311784],[-117.44696,33.96596],[-117.44695,33.96686],[-117.43615,33.96686],[-117.43614214723927,33.9669],[-117.447,33.9669],[-117.44809061596958,33.965965186311784]]],[[[-117.43580393603627,33.9684790078066],[-117.43406333333333,33.96774492753623],[-117.4358,33.9685],[-117.43580393603627,33.9684790078066]]],[[[-117.42811709070165,33.968423628066176],[-117.42742,33.96854],[-117.4258392184064,33.96910437151073],[-117.42811709070165,33.968423628066176]]],[[[-117.41832778443116,33.971786107784425],[-117.41574,33.97271],[-117.41574,33.97308],[-117.41832778443116,33.971786107784425]]],[[[-117.41332772277228,33.887017185289956],[-117.4102,33.887],[-117.4055,33.8845],[-117.399,33.8771],[-117.3852,33.8683],[-117.3786,33.8586],[-117.375,33.858],[-117.34,33.8579],[-117.34008066509949,33.87274237830734],[-117.35311,33.87261],[-117.35307,33.87993],[-117.34876,33.87992],[-117.3487,33.88056],[-117.34875,33.88359],[-117.35166,33.88353],[-117.35166,33.88288],[-117.35306,33.88287],[-117.35306,33.88343],[-117.34668,33.88678],[-117.34008,33.88718],[-117.34008,33.88809],[-117.33856,33.8881],[-117.33807,33.88908],[-117.33131,33.88834],[-117.33124,33.90191],[-117.38356,33.90165],[-117.38358,33.88712],[-117.41332772277228,33.887017185289956]]],[[[-117.40277438974006,33.97633794112584],[-117.40275,33.97634],[-117.3993575,33.9814],[-117.40277438974006,33.97633794112584]]],[[[-117.38049,34.00703],[-117.37887,34.00542],[-117.37869905829957,34.00555222843298],[-117.38049,34.00703]]],[[[-117.37927,34.00625],[-117.3786916919952,34.00555792648606],[-117.37547,34.00805],[-117.36752,34.01814],[-117.36452974515254,34.01934606945514],[-117.3701,34.0194],[-117.37005318355938,34.019366953100736],[-117.3673,34.01935],[-117.37493,34.00939],[-117.37927,34.00625]]],[[[-117.35077,34.01421],[-117.34932,34.01198],[-117.33618,34.01207],[-117.33514,34.01332],[-117.33379,34.01331],[-117.33408,34.00661],[-117.3311,34.0066],[-117.3311,34.0084],[-117.32882,34.00841],[-117.32881,34.00925],[-117.32673,34.01011],[-117.32672,34.00839],[-117.32448,34.00839],[-117.31956,34.00619],[-117.31748,34.00624],[-117.31523,34.00521],[-117.31412,34.00697],[-117.31362,34.00479],[-117.30788,34.00474],[-117.30669,34.0039],[-117.30496,34.00474],[-117.30498,34.00105],[-117.30929,34.00101],[-117.30928,33.99736],[-117.31357,33.99733],[-117.31416,34.0009],[-117.31702,34.00093],[-117.31826,33.99984],[-117.31942,34.00023],[-117.32233,33.99914],[-117.32238,33.99747],[-117.32493,33.99747],[-117.32763,33.99542],[-117.33111,33.99603],[-117.33111,33.99384],[-117.30939,33.99372],[-117.30935,33.99019],[-117.30724,33.99017],[-117.30721,33.98654],[-117.30479,33.98631],[-117.30497,33.98509],[-117.30753,33.98453],[-117.30802,33.98509],[-117.30945,33.98349],[-117.30897,33.97217],[-117.31138,33.96723],[-117.31101,33.96527],[-117.31173,33.96293],[-117.31077,33.96098],[-117.31371,33.96089],[-117.31005,33.95826],[-117.31455,33.95733],[-117.31377,33.95392],[-117.31157,33.95375],[-117.31148,33.95272],[-117.31011,33.95282],[-117.30887,33.95183],[-117.3043,33.95215],[-117.30259,33.9474],[-117.30048,33.94709],[-117.29646,33.94493],[-117.29645,33.94619],[-117.29652,33.95727],[-117.29649,33.96102],[-117.28967,33.96077],[-117.28965,33.95723],[-117.28341,33.95707],[-117.28342,33.95364],[-117.27906,33.95359],[-117.27902,33.95022],[-117.26986,33.95034],[-117.26145,33.95385],[-117.27022,33.95382],[-117.27028,33.96086],[-117.26364,33.96109],[-117.26359,33.9629],[-117.26148,33.96292],[-117.2615,33.96814],[-117.27264,33.9681],[-117.27248,33.97567],[-117.27022,33.97564],[-117.27024,33.97739],[-117.27275,33.97738],[-117.27456,33.97966],[-117.27462,33.98195],[-117.27544,33.98193],[-117.27545,33.98297],[-117.26375,33.98325],[-117.2666,33.98575],[-117.26505,33.98601],[-117.26432,33.98783],[-117.26303,33.98809],[-117.26163,33.9873],[-117.26089,33.9849],[-117.26154,33.98285],[-117.22531,33.98233],[-117.22638,33.97554],[-117.22647,33.96696],[-117.22215,33.96703],[-117.22214,33.9683],[-117.21777,33.9683],[-117.21784,33.96129],[-117.16521,33.96116],[-117.16508,33.968],[-117.15836,33.96114],[-117.14761,33.96108],[-117.14767,33.95384],[-117.14327,33.95382],[-117.14334,33.95023],[-117.13895,33.95022],[-117.13903656946613,33.93939881673343],[-117.1382,33.9394],[-117.13103869526363,33.938280232350316],[-117.12686,33.93792],[-117.1267137088562,33.93760396174842],[-117.1107,33.9351],[-117.0999,33.9371],[-117.0993,33.94],[-117.1011,33.944],[-117.1069,33.9489],[-117.1171,33.9608],[-117.1371,33.9706],[-117.1491,33.9802],[-117.1804,33.9878],[-117.1946,33.9898],[-117.2018,33.9932],[-117.2123,34.0041],[-117.2254,34.0042],[-117.2255,34.018],[-117.34779274715203,34.01918402383135],[-117.34834,34.0183],[-117.34653,34.01746],[-117.34765,34.01578],[-117.34718,34.01528],[-117.3485,34.0148],[-117.34971,34.01542],[-117.35077,34.01421]]],[[[-117.31937,33.90925],[-117.31931,33.90198],[-117.31384,33.90203],[-117.31394,33.89841],[-117.30504,33.89848],[-117.30502,33.9003],[-117.30281,33.90033],[-117.30282,33.90217],[-117.29625,33.90224],[-117.29624,33.90405],[-117.29203,33.90408],[-117.29206,33.88765],[-117.30985,33.88755],[-117.31374,33.88816],[-117.31374,33.87301],[-117.3139,33.87300837439675],[-117.3139,33.8657],[-117.2619,33.8658],[-117.2611,33.8662],[-117.2612320754717,33.8665962264151],[-117.26266,33.86984],[-117.26231421994885,33.86984265984655],[-117.2624,33.8701],[-117.2562,33.8702],[-117.2549,33.8699],[-117.25489978088402,33.8698996939932],[-117.25486,33.8699],[-117.25292617801047,33.867143455497384],[-117.25161300915775,33.86530954727203],[-117.25157,33.86531],[-117.2496278,33.8625371],[-117.2491,33.8618],[-117.24911088372093,33.86179909302326],[-117.24825,33.86057],[-117.24822,33.85903],[-117.243880044104,33.85903594243163],[-117.2438,33.8664],[-117.24375502122449,33.86640025411737],[-117.24359,33.91016],[-117.27317,33.91014],[-117.28025,33.90914],[-117.28343867361184,33.91687679477397],[-117.30497,33.91661],[-117.30569,33.9131],[-117.3072,33.91309],[-117.3072,33.9159],[-117.31378,33.91586],[-117.31377,33.91163],[-117.31654,33.91159],[-117.31653,33.90929],[-117.31937,33.90925]]],[[[-117.27901976984019,33.9427875235647],[-117.27897,33.93144],[-117.27893,33.94277],[-117.27901976984019,33.9427875235647]]]]}},{"type":"Feature","properties":{"GEOID":"0606592450","NAME":"Perris Valley","COUNTY":"065"},"geometry":{"type":"MultiPolygon","coordinates":[[[[-117.3633,33.8294],[-117.3629,33.8271],[-117.3601,33.8241],[-117.3599,33.8196],[-117.3582,33.8173],[-117.3579,33.8096],[-117.3597,33.8024],[-117.3589,33.7912],[-117.3544,33.7913],[-117.3499,33.7932],[-117.3452,33.7919],[-117.3453,33.7859],[-117.3473,33.7828],[-117.3467,33.7806],[-117.3364,33.779],[-117.3386,33.7714],[-117.3366,33.7695],[-117.3372,33.7644],[-117.3419,33.7614],[-117.3438,33.7619],[-117.3458,33.7602],[-117.3456,33.7585],[-117.3399,33.7477],[-117.341,33.7446],[-117.33192651284635,33.73259366851386],[-117.33262,33.73471],[-117.32686,33.73498],[-117.32754,33.75279],[-117.33614,33.75249],[-117.33617,33.7561],[-117.31039,33.7568],[-117.3099,33.72762],[-117.31125,33.7276],[-117.31164,33.72582],[-117.30997,33.72377],[-117.31013,33.71304],[-117.30905052851182,33.71305906351414],[-117.3003,33.7163],[-117.2999,33.7133],[-117.2927,33.7133],[-117.2923,33.7106],[-117.2897,33.7079],[-117.28989855431402,33.704259837576316],[-117.28989,33.70426],[-117.28950354503465,33.7017283256351],[-117.2886756415833,33.700608220965634],[-117.28734315068493,33.69979554794521],[-117.28430857142857,33.69883],[-117.28416,33.69883],[-117.28414,33.7061],[-117.27542199361189,33.706228205976295],[-117.27543,33.71349],[-117.258,33.71387],[-117.24064,33.71415],[-117.25814,33.71387],[-117.25815,33.73568],[-117.26241,33.73562],[-117.26254,33.74291],[-117.25176,33.74296],[-117.25182,33.74662],[-117.2496,33.74662],[-117.24959,33.77206],[-117.24372,33.77201],[-117.24372,33.77923],[-117.24849,33.77928],[-117.25195,33.77562],[-117.25894,33.77239],[-117.25904,33.78288],[-117.2612,33.78289],[-117.26121,33.7865],[-117.25907,33.78652],[-117.25908,33.79012],[-117.25742,33.79013],[-117.25744,33.79373],[-117.26126,33.79373],[-117.26134,33.80819],[-117.25259,33.80823],[-117.25256,33.80461],[-117.24826,33.80461],[-117.2482,33.80106],[-117.2333,33.80106],[-117.24946,33.83958],[-117.25008,33.84406],[-117.2532,33.84835],[-117.26264271510607,33.869800734421716],[-117.2627,33.8698],[-117.2487,33.8377],[-117.3483,33.8362],[-117.3623,33.8324],[-117.3633,33.8294]]],[[[-117.3343,33.7211],[-117.334152,33.721014],[-117.33426,33.72123],[-117.3343,33.7211]]],[[[-117.33244784810127,33.727119493670884],[-117.33088,33.7294],[-117.33132670314637,33.730763214774285],[-117.33244784810127,33.727119493670884]]],[[[-117.32979344327725,33.71848132514759],[-117.32727018350141,33.7170151066292],[-117.32727,33.71702],[-117.32956,33.71883],[-117.32979344327725,33.71848132514759]]],[[[-117.32675674603465,33.713027645578855],[-117.3266,33.7089],[-117.32378545706116,33.70668248132091],[-117.32254,33.70808],[-117.32051,33.70892],[-117.32048,33.7131],[-117.32675674603465,33.713027645578855]]],[[[-117.26228900930045,33.670414654266075],[-117.24047983406753,33.670589969179524],[-117.24047,33.6777],[-117.24048,33.67059],[-117.2622890052961,33.6704146596052],[-117.26228900930045,33.670414654266075]]],[[[-117.25496,33.86989923076923],[-117.25489978088402,33.8698996939932],[-117.2549,33.8699],[-117.25496,33.86989923076923]]],[[[-117.25369,33.6885],[-117.24047,33.68863],[-117.24108,33.68863],[-117.25369,33.6885]]],[[[-117.25292617801047,33.867143455497384],[-117.25258,33.86665],[-117.25252,33.8653],[-117.25161300915775,33.86530954727203],[-117.25292617801047,33.867143455497384]]],[[[-117.2496278,33.8625371],[-117.24911088372093,33.86179909302326],[-117.2491,33.8618],[-117.2496278,33.8625371]]],[[[-117.243880044104,33.85903594243163],[-117.24383993859374,33.85903599734561],[-117.24381,33.86196],[-117.24274,33.86334],[-117.24376,33.86508],[-117.24375502122449,33.86640025411737],[-117.2438,33.8664],[-117.243880044104,33.85903594243163]]],[[[-117.23532,33.67786],[-117.23498,33.67841],[-117.23498029489603,33.678413234026465],[-117.23532,33.67786]]],[[[-117.22934501826356,33.8590558443383],[-117.2044,33.85909],[-117.20437,33.84463],[-117.1965,33.84456],[-117.19223,33.84311],[-117.179,33.83028],[-117.17963,33.83029],[-117.17962,33.82662],[-117.19561,33.82661],[-117.19559,33.83025],[-117.19995,33.83024],[-117.19995,33.82296],[-117.20659,33.82291],[-117.20572,33.82062],[-117.20566,33.8157],[-117.19118,33.81573],[-117.19117,33.77213],[-117.17998,33.77215],[-117.18039918314729,33.757668220316525],[-117.13647,33.75765],[-117.13683937730708,33.64169547508878],[-117.0905,33.6418],[-117.0828,33.6395],[-117.081,33.6372],[-117.0804,33.6381],[-117.075,33.6375],[-117.0694,33.6304],[-117.0618,33.6284],[-117.0515,33.6341],[-117.0473,33.6341],[-117.0445,33.6376],[-117.0398,33.6399],[-117.0355,33.6384],[-117.0236,33.639],[-117.0194,33.6378],[-117.0148,33.6413],[-117.0099,33.6413],[-117.0113,33.6442],[-117.0094,33.647],[-117.0044,33.65],[-117.0092,33.6557],[-117.0086,33.6616],[-117.007,33.6633],[-117.0089,33.6651],[-117.0115,33.6745],[-117.0169,33.6778],[-117.0063,33.6795],[-117.0059,33.6856],[-117.0222,33.6856],[-117.0329,33.6825],[-117.0375,33.6783],[-117.0618,33.6783],[-117.0642,33.6773],[-117.0699,33.6811],[-117.0719,33.6854],[-117.071,33.6901],[-117.0678,33.6921],[-117.0588,33.6952],[-117.0502,33.6957],[-117.0471,33.6985],[-117.04524526107942,33.69872827555945],[-117.04995,33.69861],[-117.0501,33.71215],[-117.04854,33.71296],[-117.0501,33.71421],[-117.05013,33.72917],[-117.04797,33.72915],[-117.04796,33.73279],[-117.04303,33.73282],[-117.03885,33.74388],[-117.05983,33.74384],[-117.06317,33.7427],[-117.06317,33.7438],[-117.06907,33.74377],[-117.06982,33.74597],[-117.06754,33.74601],[-117.0677,33.75833],[-117.05052,33.75827],[-117.05017,33.75107],[-117.03615,33.75111],[-117.03617023489933,33.752753523489936],[-117.0363,33.7547],[-117.03619990940857,33.75516375307364],[-117.03624,33.75842],[-117.033387734209,33.76819349816496],[-117.03337993887797,33.768229616532054],[-117.03335,33.77294],[-117.0333316211511,33.77294000298892],[-117.0333316212221,33.77294001273416],[-117.03341,33.77294],[-117.03342659525164,33.77431003021879],[-117.04215,33.77435],[-117.04217,33.77656],[-117.03782,33.77657],[-117.03784,33.78039],[-117.03795,33.78743],[-117.03998,33.79019],[-117.04221,33.79076],[-117.04433,33.79038],[-117.04432,33.78982],[-117.05092,33.78975],[-117.05102,33.79883],[-117.06046,33.81632],[-117.05976,33.81633],[-117.0599,33.83633],[-117.05850920482108,33.837638445464385],[-117.0599,33.8385],[-117.0686,33.8401],[-117.0681,33.8554],[-117.0441,33.8698],[-117.0672,33.888],[-117.077,33.8908],[-117.0804,33.8931],[-117.0833,33.8983],[-117.08837755179675,33.9041488254874],[-117.09468,33.90408],[-117.10228,33.89852],[-117.10233,33.90317],[-117.11975,33.90312],[-117.1211,33.90261],[-117.12108,33.89555],[-117.1298,33.89551],[-117.12973,33.88932],[-117.13494,33.88941],[-117.13849,33.89435],[-117.14639,33.89644],[-117.1467,33.90464],[-117.14989,33.9005],[-117.15633,33.89777],[-117.15767,33.89461],[-117.16643,33.8945],[-117.17465,33.89251],[-117.1856,33.88054],[-117.19022,33.88149],[-117.2024,33.87096],[-117.20436,33.86606],[-117.20706,33.86562],[-117.20877,33.86764],[-117.20458,33.8591],[-117.22934501826356,33.8590558443383]]],[[[-117.18917,33.75444],[-117.1874,33.75328],[-117.1873776490411,33.75344228739726],[-117.18917,33.75444]]],[[[-117.13904,33.93897],[-117.12686,33.93792],[-117.12449,33.9328],[-117.12430523269636,33.93280808356953],[-117.1268,33.9382],[-117.13903676216665,33.939374729168],[-117.13904,33.93897]]],[[[-117.12126157930877,33.928904261844814],[-117.12126,33.92868],[-117.12081572567114,33.928429643456376],[-117.12126157930877,33.928904261844814]]],[[[-117.11511997758612,33.9252178482678],[-117.11506,33.91946],[-117.10464079889931,33.91951522544753],[-117.11511997758612,33.9252178482678]]],[[[-117.09941916876046,33.91667368718593],[-117.09891,33.91628],[-117.09881395185556,33.91617050150451],[-117.0991,33.9165],[-117.09941916876046,33.91667368718593]]],[[[-117.04117650983146,33.69922904494382],[-117.0406,33.6993],[-117.04043057317074,33.699432020905924],[-117.04117650983146,33.69922904494382]]],[[[-117.03583636363636,33.82409343434343],[-117.03378,33.82349],[-117.03369992918188,33.82349028021284],[-117.0337,33.8235],[-117.03583636363636,33.82409343434343]]]]}},{"type":"Feature","properties":{"GEOID":"0606590590","NAME":"Corona","COUNTY":"065"},"geometry":{"type":"MultiPolygon","coordinates":[[[[-117.66248891137191,33.88486867664913],[-117.66227,33.88457],[-117.66107,33.88458],[-117.65675,33.8819],[-117.65473,33.88204],[-117.65332,33.88117],[-117.65545,33.8799],[-117.64707,33.88088],[-117.63584,33.88358],[-117.62732,33.88324],[-117.62081,33.88131],[-117.62132,33.88007],[-117.61605,33.87544],[-117.61746,33.87394],[-117.61198,33.867],[-117.61237,33.86472],[-117.61019,33.86678],[-117.61143,33.86771],[-117.61093,33.86826],[-117.61178,33.87007],[-117.61382,33.87191],[-117.61141,33.87416],[-117.60754,33.87143],[-117.61018,33.86897],[-117.60913,33.86775],[-117.59977,33.87705],[-117.60162,33.87782],[-117.60149,33.87837],[-117.60504,33.87838],[-117.60592,33.87904],[-117.6052,33.87969],[-117.62118,33.88188],[-117.62607,33.88339],[-117.61536,33.88527],[-117.61862,33.887],[-117.61785,33.88804],[-117.61678,33.8875],[-117.61448,33.88832],[-117.61633,33.88995],[-117.61499,33.89118],[-117.61374,33.89023],[-117.61234,33.8915],[-117.61686,33.89491],[-117.62351,33.8944],[-117.62486,33.90136],[-117.62148389937107,33.9024572327044],[-117.6256,33.9015],[-117.6296,33.8963],[-117.6364,33.8936],[-117.6423,33.893],[-117.6449,33.8908],[-117.6434,33.8865],[-117.645,33.8835],[-117.6488,33.8822],[-117.6519,33.8827],[-117.6589,33.8865],[-117.66248891137191,33.88486867664913]]],[[[-117.64960802130261,33.86955385731754],[-117.6496,33.8695],[-117.64715513432836,33.86907480597015],[-117.64960802130261,33.86955385731754]]],[[[-117.64499900455071,33.86865371160829],[-117.64490263736263,33.864172637362635],[-117.64498,33.86865],[-117.64499900455071,33.86865371160829]]],[[[-117.632,33.8567],[-117.62334,33.8567],[-117.632,33.85671995391705],[-117.632,33.8567]]],[[[-117.62334,33.8567],[-117.6233,33.8567],[-117.6233,33.85939985844287],[-117.62332,33.8594],[-117.62334,33.8567]]],[[[-117.62325317567567,33.85939952702703],[-117.61343488903103,33.85930035241446],[-117.61343,33.85933],[-117.62325317567567,33.85939952702703]]],[[[-117.62128162162162,33.902522972972974],[-117.62126,33.90253],[-117.62021,33.90047],[-117.61703,33.90146],[-117.61913478547855,33.905206518151815],[-117.62128162162162,33.902522972972974]]],[[[-117.61578067226891,33.906825714285716],[-117.61403,33.90398],[-117.60981,33.90566],[-117.60432661501511,33.909488749515766],[-117.60729,33.9112],[-117.60711,33.91218],[-117.60441,33.91157],[-117.59888,33.9166],[-117.60034,33.91776],[-117.59939,33.91878],[-117.59878,33.91772],[-117.59796,33.91975],[-117.59607,33.91829],[-117.59392,33.91958],[-117.59761609579954,33.9236834611968],[-117.59761624494037,33.92368330795118],[-117.59489,33.92062],[-117.59846,33.91992],[-117.6034,33.91496],[-117.60734,33.91241],[-117.60759,33.9095],[-117.60911,33.90768],[-117.61093,33.90999],[-117.61093415886833,33.91048421218716],[-117.6149,33.9072],[-117.61578067226891,33.906825714285716]]],[[[-117.59730564273397,33.83650073600878],[-117.5973,33.8365],[-117.59726273809524,33.838325833333336],[-117.59730564273397,33.83650073600878]]],[[[-117.59719067317776,33.841391364053486],[-117.5891,33.8339],[-117.5891,33.831372],[-117.58907,33.83394],[-117.59719,33.84142],[-117.59719067317776,33.841391364053486]]],[[[-117.58207291196388,33.82751611738149],[-117.5779,33.8236],[-117.57639309362993,33.82290084974722],[-117.57786,33.82365],[-117.58207291196388,33.82751611738149]]],[[[-117.53593745739605,33.83647689161554],[-117.5323,33.8418],[-117.53242505789889,33.84189940499655],[-117.53593745739605,33.83647689161554]]],[[[-117.53225,33.87901],[-117.5301,33.87638],[-117.53121,33.87572],[-117.52967,33.87363],[-117.52619,33.87493],[-117.52404,33.87238],[-117.52094,33.87469],[-117.5184,33.87247],[-117.5175,33.873],[-117.51525,33.87257],[-117.51419,33.86996],[-117.50862,33.86948],[-117.50728,33.86831],[-117.50545,33.86887],[-117.50126,33.87256],[-117.49333,33.8726],[-117.49331,33.86743],[-117.48592,33.86731],[-117.48694,33.86606],[-117.49028,33.86635],[-117.4914,33.86534],[-117.49062,33.86342],[-117.4911,33.86316],[-117.48892,33.86318],[-117.48908,33.8593],[-117.48998,33.85799],[-117.48628,33.85576],[-117.48556,33.85397],[-117.48357,33.85243],[-117.48463,33.85141],[-117.48454,33.8364],[-117.49211,33.8364],[-117.50194,33.83226],[-117.50035,33.83339],[-117.50113,33.83407],[-117.50124,33.83641],[-117.49662,33.83641],[-117.49657,33.84595],[-117.50179,33.84591],[-117.50176,33.85098],[-117.50606,33.85098],[-117.50602,33.85466],[-117.51459,33.85468],[-117.51455,33.85832],[-117.5216,33.8585],[-117.52158,33.8575],[-117.52290953481652,33.85743285177694],[-117.5206,33.8533],[-117.5116,33.8523],[-117.5112,33.848],[-117.5091,33.844],[-117.5102,33.8395],[-117.5072,33.8336],[-117.5085,33.8285],[-117.5026,33.8244],[-117.4931,33.8275],[-117.4879,33.8284],[-117.4852,33.8275],[-117.4784,33.8295],[-117.4723,33.8278],[-117.4693,33.8307],[-117.4665,33.8293],[-117.4603,33.8292],[-117.4619,33.8371],[-117.461,33.8405],[-117.4638,33.843],[-117.4637,33.8447],[-117.4586,33.8515],[-117.455,33.8528],[-117.4531,33.858],[-117.4385,33.8582],[-117.4392,33.866],[-117.4365,33.8711],[-117.4361,33.8765],[-117.4342,33.8791],[-117.4375,33.8823],[-117.439,33.887],[-117.44351421686747,33.887118795180726],[-117.45411,33.88736],[-117.4541,33.88855],[-117.46079,33.88469],[-117.463447132255,33.88788735299715],[-117.4671,33.8858],[-117.47131991218194,33.88469915334384],[-117.47106,33.88447],[-117.47191,33.88236],[-117.4739,33.88311],[-117.47598,33.88171],[-117.47747,33.88226],[-117.47732,33.88466],[-117.47932,33.88518],[-117.48121,33.8868],[-117.48701,33.88791],[-117.49175,33.88604],[-117.49253,33.88699],[-117.49297981366459,33.886936149068326],[-117.4944,33.8858],[-117.49442684260731,33.885832852146265],[-117.49509,33.88446],[-117.49759,33.88299],[-117.50131,33.88748],[-117.50069,33.88782],[-117.50171,33.8891],[-117.50045,33.88982],[-117.51142,33.88572],[-117.51025,33.88426],[-117.51427,33.88195],[-117.51602,33.88409],[-117.53225,33.87901]]],[[[-117.51058,33.90166],[-117.50777451884399,33.90214575468779],[-117.50781657320873,33.90219704049844],[-117.50944356164383,33.901906506849315],[-117.51058,33.90166]]]]}},{"type":"Feature","properties":{"GEOID":"0606591450","NAME":"Jurupa","COUNTY":"065"},"geometry":{"type":"MultiPolygon","coordinates":[[[[-117.6763,33.8886],[-117.6728,33.8867],[-117.669,33.8808],[-117.66910265463918,33.88066801546392],[-117.66896,33.88083],[-117.67041,33.88324],[-117.66942,33.88531],[-117.66621,33.88776],[-117.66474,33.88794],[-117.66247080591842,33.884843974066825],[-117.6589,33.8865],[-117.6519,33.8827],[-117.6488,33.8822],[-117.6448,33.8836],[-117.6434,33.8865],[-117.6449,33.8908],[-117.6423,33.893],[-117.6364,33.8936],[-117.6296,33.8963],[-117.6256,33.9015],[-117.62148389937107,33.9024572327044],[-117.62128162162162,33.902522972972974],[-117.61913478547855,33.905206518151815],[-117.62003,33.9068],[-117.61654,33.90806],[-117.61578067226891,33.906825714285716],[-117.6149,33.9072],[-117.61093718370245,33.91084366330715],[-117.61099,33.91712],[-117.6155,33.9172],[-117.61548,33.91875],[-117.61542,33.92423],[-117.61095,33.92415],[-117.61094444055944,33.95064629370629],[-117.611,33.9242],[-117.6552,33.9249],[-117.6548,33.8887],[-117.6763,33.8886]]],[[[-117.6732,33.8754],[-117.67162378378379,33.874677567567566],[-117.67318298432811,33.87542187729243],[-117.6732,33.8754]]],[[[-117.67309385574355,33.871008815672305],[-117.67231,33.8712],[-117.67077,33.87427],[-117.67080819968186,33.87428823523908],[-117.67309385574355,33.871008815672305]]],[[[-117.55839996964701,33.988413689196406],[-117.55838,33.98842],[-117.55833319465081,34.018529212481425],[-117.55839996964701,33.988413689196406]]],[[[-117.5583001108104,34.033450024508525],[-117.55024,34.03347],[-117.53791935637186,34.03354454785492],[-117.5583,34.0335],[-117.5583001108104,34.033450024508525]]],[[[-117.5538,33.94999],[-117.5493002352742,33.949616657075154],[-117.5492981573215,33.949619519160954],[-117.55234,33.94999],[-117.54969,33.95409],[-117.5490564638696,33.957228213855245],[-117.54956638307429,33.95722199532836],[-117.55101,33.95315],[-117.5538,33.94999]]],[[[-117.55032,33.99344],[-117.54887982761775,33.984938016833084],[-117.54888,33.98503],[-117.55032,33.99344]]],[[[-117.54890894546902,33.95795894453716],[-117.54883,33.95835],[-117.54887423398783,33.981953255908884],[-117.54890894546902,33.95795894453716]]],[[[-117.54188295531986,33.956713534098],[-117.53412,33.95735],[-117.54156,33.95696],[-117.54188295531986,33.956713534098]]],[[[-117.48850146971202,33.968538550148956],[-117.48526018201285,33.96753529443255],[-117.48761,33.96878],[-117.48849,33.96881],[-117.48850146971202,33.968538550148956]]],[[[-117.4536,33.9651],[-117.44914956043957,33.9651],[-117.44914,33.96597],[-117.44809061596958,33.965965186311784],[-117.447,33.9669],[-117.43614214723927,33.9669],[-117.43583,33.96849],[-117.43580393603627,33.9684790078066],[-117.4358,33.9685],[-117.43406333333333,33.96774492753623],[-117.43353,33.96752],[-117.43198819500535,33.967777388067844],[-117.44012,33.96933],[-117.44838,33.96903],[-117.45102,33.96765],[-117.45339,33.96791],[-117.4536,33.96689],[-117.4536,33.9651]]],[[[-117.43068346305564,33.9679951992935],[-117.42811709070165,33.968423628066176],[-117.4258392184064,33.96910437151073],[-117.42483205158265,33.96946395076202],[-117.43068346305564,33.9679951992935]]],[[[-117.41924633221458,33.97145816735147],[-117.41832778443116,33.971786107784425],[-117.41574,33.97308],[-117.41574,33.97314503078276],[-117.41924633221458,33.97145816735147]]],[[[-117.40746912223076,33.97594163253896],[-117.40277438974006,33.97633794112584],[-117.3993575,33.9814],[-117.39744,33.98426],[-117.39212,33.98958],[-117.39265011879219,33.98986818538367],[-117.40523,33.97658],[-117.40746912223076,33.97594163253896]]],[[[-117.37700845199304,34.033896265678706],[-117.37534,34.03388],[-117.37508,34.03109],[-117.37422363214837,34.03086659969088],[-117.3753,34.0339],[-117.37700845199304,34.033896265678706]]],[[[-117.37542,34.0194],[-117.37005318355938,34.019366953100736],[-117.3701,34.0194],[-117.3754,34.0194],[-117.3754,34.023406666666666],[-117.37542,34.0194]]]]}},{"type":"Feature","properties":{"GEOID":"0606591370","NAME":"Idyllwild","COUNTY":"065"},"geometry":{"type":"Polygon","coordinates":[[[-116.9396,33.6005],[-116.9391,33.5918],[-116.9377,33.589],[-116.9334,33.5853],[-116.9326,33.5818],[-116.9266,33.573],[-116.925,33.572],[-116.9217,33.5725],[-116.9219,33.569],[-116.92,33.5659],[-116.9089,33.5541],[-116.9086,33.5502],[-116.9061,33.5448],[-116.9079,33.5416],[-116.9074,33.5357],[-116.9094,33.5325],[-116.9069,33.5294],[-116.9006,33.53],[-116.8992,33.5289],[-116.9012,33.5197],[-116.8971,33.5098],[-116.8967,33.5031],[-116.9025,33.4957],[-116.9064,33.4947],[-116.9117,33.4857],[-116.9127,33.4832],[-116.9119,33.479],[-116.914,33.4747],[-116.9125,33.4686],[-116.9145,33.4639],[-116.9086,33.4602],[-116.9035,33.4594],[-116.8997,33.4571],[-116.8938,33.4489],[-116.882,33.4438],[-116.8702,33.4443],[-116.8532,33.4398],[-116.8495,33.4371],[-116.8489,33.4331],[-116.8428,33.4342],[-116.8381,33.4301],[-116.8367,33.4269],[-116.2985,33.4275],[-116.1977,33.4289],[-116.1126,33.4263],[-116.1128,33.4909],[-116.1193,33.4989],[-116.1301,33.4988],[-116.1298,33.5106],[-116.1388,33.5253],[-116.2156,33.5259],[-116.2157,33.5636],[-116.2503,33.5633],[-116.2503,33.5837],[-116.25031998617659,33.583700057763515],[-116.25032,33.58368],[-116.28494,33.58376],[-116.28502,33.59814],[-116.26800013738865,33.59812005874328],[-116.26809898236093,33.61255142469471],[-116.2681,33.61265],[-116.2948,33.61265],[-116.3215,33.6126],[-116.3215,33.642],[-116.3992,33.642],[-116.404,33.6338],[-116.4026,33.6313],[-116.4037,33.6254],[-116.4115,33.6218],[-116.4153,33.6152],[-116.4146,33.6129],[-116.4161,33.6094],[-116.4203,33.6075],[-116.4191,33.6033],[-116.4217,33.6008],[-116.4214,33.5982],[-116.4258,33.5982],[-116.4255,33.6272],[-116.46015490732485,33.627299870049924],[-116.46016,33.61247],[-116.47057207331042,33.612440045819014],[-116.4775,33.6124],[-116.4775,33.6124201150748],[-116.47754,33.61242],[-116.47753,33.62698],[-116.48894794230769,33.62693382692308],[-116.4948,33.6269],[-116.4948000698383,33.62691016147379],[-116.49484,33.62691],[-116.49493306636155,33.64626115560641],[-116.495,33.656],[-116.49986482816429,33.655971550712486],[-116.51212,33.65585],[-116.51214004797806,33.66751391363948],[-116.5122,33.6849],[-116.6144,33.6847],[-116.6143,33.7722],[-116.6157,33.7722],[-116.6144,33.7737],[-116.6144,33.7869],[-116.6157,33.7869],[-116.6156,33.8015],[-116.6144,33.8015],[-116.6145,33.816],[-116.6154,33.816],[-116.61470000108089,33.85919993329387],[-116.63266,33.85916],[-116.63265983584131,33.8592],[-116.6327,33.8592],[-116.63260013698658,33.873779999960014],[-116.66686,33.87377],[-116.66729,33.85909],[-116.67020332378223,33.859083314231135],[-116.6847,33.859],[-116.6847,33.859050045897874],[-116.68472,33.85905],[-116.6847,33.86269],[-116.6847,33.8881],[-116.6839,33.8883],[-116.6864,33.8907],[-116.6838,33.8921],[-116.6814,33.8972],[-116.6697,33.9115],[-116.6913,33.9178],[-116.6953,33.9214],[-116.7022,33.9168],[-116.7287,33.9166],[-116.7303,33.9154],[-116.7307,33.9099],[-116.737,33.9061],[-116.7369,33.9034],[-116.7199,33.9033],[-116.7199,33.8862],[-116.772,33.8861],[-116.7719,33.8787],[-116.7894,33.8787],[-116.7894,33.886],[-116.8243,33.8862],[-116.8244,33.8571],[-116.8424,33.857],[-116.8426,33.842],[-116.8597,33.842],[-116.8599,33.8021],[-116.8419,33.802],[-116.8411,33.7536],[-116.8413,33.6865],[-116.8585,33.6865],[-116.8584,33.6218],[-116.8608,33.6216],[-116.868,33.6261],[-116.8681,33.6313],[-116.8716,33.6339],[-116.8856,33.6318],[-116.8943,33.6324],[-116.8961,33.6315],[-116.8973,33.6278],[-116.9003,33.6262],[-116.9002,33.6194],[-116.9028,33.6161],[-116.9128,33.6167],[-116.9167,33.6159],[-116.9213,33.6132],[-116.929,33.6128],[-116.9324,33.6108],[-116.9348,33.6113],[-116.9396,33.6005]]]}},{"type":"Feature","properties":{"GEOID":"0606590670","NAME":"Desert Hot Springs","COUNTY":"065"},"geometry":{"type":"MultiPolygon","coordinates":[[[[-116.7374,33.9472],[-116.7372,33.9329],[-116.7197,33.9327],[-116.7197,33.9318],[-116.7198,33.9179],[-116.7373,33.918],[-116.737,33.9061],[-116.7307,33.9099],[-116.7303,33.9154],[-116.7287,33.9166],[-116.7022,33.9168],[-116.6953,33.9214],[-116.6913,33.9178],[-116.6697,33.9115],[-116.6676,33.9141],[-116.66752888613128,33.914083745401435],[-116.66753,33.91421],[-116.67206,33.9163],[-116.67817,33.92268],[-116.6559,33.92205],[-116.64059,33.92379],[-116.63255,33.92187],[-116.63254452091367,33.9034],[-116.6243,33.9034],[-116.6149165867706,33.902079720751644],[-116.61491,33.90238],[-116.60698925602267,33.90096431743033],[-116.6044,33.9006],[-116.58014023004807,33.90110859056503],[-116.58026,33.9212],[-116.58347,33.92117],[-116.5835,33.92464],[-116.5803,33.92484],[-116.58023,33.93207],[-116.57056,33.93192],[-116.57058,33.92483],[-116.55401,33.92485],[-116.55406,33.91758],[-116.54531,33.9176],[-116.53654,33.9177],[-116.53656,33.9249],[-116.52762,33.92492],[-116.52743,33.94057],[-116.53168,33.94678],[-116.52742,33.94674],[-116.52768,33.9615],[-116.53633,33.96149],[-116.53642,33.9541],[-116.54513,33.95413],[-116.54502,33.96146],[-116.59772,33.96102],[-116.59772,33.94645],[-116.63261,33.94735],[-116.63269,33.99065],[-116.61537,33.99069],[-116.61537,33.99002],[-116.61396,33.99001],[-116.58899,33.99052],[-116.58892,33.99233],[-116.58682,33.99244],[-116.58683,33.99425],[-116.58246,33.99448],[-116.58243,33.99268],[-116.58106,33.99257],[-116.58155,33.99092],[-116.53786,33.99056],[-116.53632,33.98847],[-116.53631,33.98714],[-116.53796,33.98725],[-116.5389,33.98578],[-116.54304,33.98313],[-116.5429,33.98073],[-116.53986,33.97753],[-116.54166,33.97882],[-116.54293,33.97802],[-116.54121,33.97613],[-116.52751,33.97608],[-116.52767,33.98619],[-116.52917,33.98624],[-116.52768,33.98726],[-116.52773,33.99054],[-116.51895,33.99046],[-116.51887,33.98327],[-116.50698,33.98327],[-116.50698,33.98189],[-116.50356,33.98032],[-116.50357,33.98327],[-116.49269,33.98325],[-116.49265,33.97602],[-116.4754,33.97532],[-116.47503,33.96142],[-116.4575,33.96139],[-116.45753,33.9468],[-116.47507,33.94686],[-116.47537,33.93953],[-116.49707,33.93948],[-116.49747,33.93222],[-116.50175,33.93223],[-116.50177,33.925],[-116.4932,33.925],[-116.49303,33.91768],[-116.50176,33.91776],[-116.5016664094667,33.88645396660723],[-116.50162,33.89138],[-116.48808,33.88853],[-116.44078,33.88858],[-116.44095416896235,33.8594],[-116.4233,33.8594],[-116.4235,33.8453],[-116.4057,33.8454],[-116.40614799915542,33.83093602726779],[-116.40583,33.83094],[-116.40637,33.82278],[-116.40523,33.8214],[-116.40523921688688,33.82137134386078],[-116.4012,33.8164],[-116.4058,33.8157],[-116.3233,33.7668],[-116.3018,33.7595],[-116.301,33.7614],[-116.3037,33.7618],[-116.3037,33.765],[-116.3011,33.7652],[-116.3037,33.7711],[-116.3011,33.776],[-116.3012,33.8039],[-116.3269,33.8162],[-116.3267,33.8193],[-116.3067,33.836],[-116.3101,33.842],[-116.3108,33.8492],[-116.3065,33.857],[-116.3018,33.8756],[-116.2809,33.8859],[-116.2768,33.8895],[-116.2719,33.891],[-116.2666,33.8893],[-116.2738,33.8943],[-116.2749,33.8988],[-116.2768,33.8988],[-116.277,33.894],[-116.3187,33.913],[-116.3188,33.915],[-116.3231,33.915],[-116.325,33.9158],[-116.3246,33.9167],[-116.3273,33.9166],[-116.3795,33.937],[-116.3794,33.9398],[-116.3839,33.9397],[-116.3839,33.9388],[-116.3967,33.9422],[-116.3967,33.9436],[-116.3995,33.9437],[-116.4413,33.9698],[-116.4413,33.9719],[-116.4446,33.9719],[-116.4446,33.9736],[-116.4469,33.9736],[-116.4469,33.9719],[-116.4585,33.9753],[-116.4578,34.0329],[-116.6156,34.0326],[-116.7197,34.0338],[-116.7197,33.9618],[-116.7284,33.9617],[-116.7285,33.9545],[-116.7197,33.9546],[-116.7197,33.9473],[-116.7374,33.9472]]],[[[-116.51455,33.97589],[-116.51451,33.96874],[-116.51016,33.96874],[-116.51019,33.97237],[-116.51116,33.97239],[-116.51115,33.97418],[-116.51233,33.97422],[-116.51234,33.97608],[-116.51455,33.97589]]],[[[-116.50445,33.87864],[-116.50369,33.87975],[-116.50327,33.88036],[-116.50169,33.88395],[-116.50168712774433,33.884254869422804],[-116.50445,33.87864]]]]}},{"type":"Feature","properties":{"GEOID":"0606591530","NAME":"Lake Mathews","COUNTY":"065"},"geometry":{"type":"Polygon","coordinates":[[[-117.505,33.8244],[-117.50461434849416,33.824031616472034],[-117.50441,33.82404],[-117.49847,33.81841],[-117.4983778698929,33.818074383181276],[-117.4983,33.818],[-117.49831456394035,33.817843768639854],[-117.49805,33.81688],[-117.49852445705024,33.815592188006484],[-117.49856496106567,33.81515769038641],[-117.49354,33.81462],[-117.49373,33.8038],[-117.49684,33.80382],[-117.49787,33.80464],[-117.49765,33.80745],[-117.49928375818799,33.80744695761976],[-117.4994,33.8062],[-117.4924,33.7984],[-117.4899,33.7884],[-117.4841,33.784],[-117.4754,33.7829],[-117.4731,33.7813],[-117.4727,33.7772],[-117.4699,33.7709],[-117.4721,33.7646],[-117.4707,33.7626],[-117.4724,33.762],[-117.4589,33.7554],[-117.4508,33.7475],[-117.4412,33.7432],[-117.4307,33.7405],[-117.4196,33.734],[-117.4057,33.733],[-117.3985679125466,33.73045980446865],[-117.39853,33.74208],[-117.38124,33.74221],[-117.38119,33.72878],[-117.37574,33.72762],[-117.36386,33.72757],[-117.36391,33.72028],[-117.3595,33.71292],[-117.34663,33.71283],[-117.34647836376226,33.70760216018465],[-117.3416,33.71],[-117.3353268118571,33.71749523778112],[-117.33535,33.71751],[-117.3339,33.71952666666667],[-117.3339,33.72051],[-117.33426,33.72123],[-117.3339,33.72461048780488],[-117.3339,33.725],[-117.33385084137082,33.7250720993228],[-117.33385,33.72508],[-117.3333,33.72588],[-117.3309,33.7294],[-117.3327,33.7348],[-117.341,33.7446],[-117.3399,33.7477],[-117.3458,33.7601],[-117.3438,33.7619],[-117.3423,33.7612],[-117.3375,33.7638],[-117.3366,33.7695],[-117.3386,33.7715],[-117.3364,33.779],[-117.3467,33.7806],[-117.3473,33.7828],[-117.3453,33.7859],[-117.3452,33.7919],[-117.3499,33.7932],[-117.3544,33.7913],[-117.3589,33.7912],[-117.3597,33.8024],[-117.3579,33.8096],[-117.3582,33.8173],[-117.3599,33.8196],[-117.3601,33.8241],[-117.3631,33.8274],[-117.3623,33.8324],[-117.3477,33.8362],[-117.2487,33.8377],[-117.2611,33.8662],[-117.3139,33.8657],[-117.3139,33.87300837439675],[-117.34008066509949,33.87274237830734],[-117.34,33.8579],[-117.3751,33.858],[-117.3786,33.8586],[-117.3852,33.8683],[-117.399,33.8771],[-117.408,33.8862],[-117.439,33.887],[-117.4375,33.8823],[-117.4342,33.8791],[-117.4361,33.8765],[-117.4365,33.8711],[-117.4392,33.866],[-117.4385,33.8582],[-117.4531,33.858],[-117.455,33.8528],[-117.4586,33.8515],[-117.4628,33.846],[-117.464,33.8437],[-117.461,33.8407],[-117.4619,33.8371],[-117.4603,33.8292],[-117.4665,33.8293],[-117.4693,33.8307],[-117.4727,33.8278],[-117.4784,33.8295],[-117.505,33.8244]]]}},{"type":"Feature","properties":{"GEOID":"0606592340","NAME":"Palm Springs","COUNTY":"065"},"geometry":{"type":"MultiPolygon","coordinates":[[[[-116.6864,33.8907],[-116.6839,33.8883],[-116.6847,33.8881],[-116.6847,33.86269],[-116.68469,33.88807],[-116.6673,33.88814],[-116.6675288746992,33.9140824496011],[-116.6676,33.9141],[-116.6814,33.8972],[-116.6838,33.8921],[-116.6864,33.8907]]],[[[-116.6847,33.859],[-116.67020332378223,33.859083314231135],[-116.6847,33.859050045897874],[-116.6847,33.859]]],[[[-116.6327,33.8592],[-116.63265983584131,33.8592],[-116.6326,33.87378],[-116.63260013698658,33.873779999960014],[-116.6327,33.8592]]],[[[-116.63254332350596,33.899363538595615],[-116.63254,33.88816],[-116.6152,33.88817],[-116.61526,33.87471],[-116.58279,33.87453],[-116.58938587168758,33.87924570432357],[-116.5899,33.8796],[-116.60549203438396,33.88898501432665],[-116.61508,33.89463],[-116.61507726966333,33.89475447123048],[-116.6213,33.8985],[-116.6285,33.8981],[-116.63254332350596,33.899363538595615]]],[[[-116.6157,33.7722],[-116.6143,33.7722],[-116.6144,33.6847],[-116.5122,33.6849],[-116.51214004797806,33.66751391363948],[-116.51217,33.68494],[-116.53019,33.68497],[-116.53025,33.714],[-116.51288,33.71399],[-116.51295,33.77228],[-116.52163,33.7723],[-116.52161,33.76152],[-116.52993,33.76144],[-116.52994,33.77232],[-116.56306,33.77228],[-116.56307,33.82312],[-116.57166,33.82316],[-116.57164,33.83038],[-116.61457,33.83017],[-116.61467,33.8592],[-116.61470000108089,33.85919993329387],[-116.6154,33.816],[-116.6145,33.816],[-116.6144,33.8015],[-116.6156,33.8015],[-116.6157,33.7869],[-116.6144,33.7869],[-116.6144,33.7737],[-116.6157,33.7722]]],[[[-116.49986482816429,33.655971550712486],[-116.495,33.656],[-116.49493306636155,33.64626115560641],[-116.49498,33.65602],[-116.49986482816429,33.655971550712486]]],[[[-116.4948000698383,33.62691016147379],[-116.4948,33.6269],[-116.48894794230769,33.62693382692308],[-116.4948000698383,33.62691016147379]]],[[[-116.48437,33.75887],[-116.48132,33.76059],[-116.47872,33.75974],[-116.47880571428571,33.75976857142857],[-116.48162,33.76069],[-116.48106018734389,33.763518840549544],[-116.48151,33.76245],[-116.48437,33.75887]]],[[[-116.4775,33.6124],[-116.47057207331042,33.612440045819014],[-116.4775,33.6124201150748],[-116.4775,33.6124]]],[[[-116.46015554750096,33.625435677222434],[-116.46010003426524,33.6415900288153],[-116.46015,33.64159],[-116.46015554750096,33.625435677222434]]],[[[-116.44283995820321,33.656099770355155],[-116.44281,33.6416],[-116.4428,33.6416],[-116.4428,33.6561],[-116.44283995820321,33.656099770355155]]]]}},{"type":"Feature","properties":{"GEOID":"0606592810","NAME":"San Gorgonio Pass","COUNTY":"065"},"geometry":{"type":"MultiPolygon","coordinates":[[[[-117.2123,34.0041],[-117.2018,33.9932],[-117.1972,33.9908],[-117.1502,33.9807],[-117.1371,33.9706],[-117.1171,33.9608],[-117.1069,33.9489],[-117.1011,33.944],[-117.0995,33.9386],[-117.0999,33.9371],[-117.1103,33.9351],[-117.1268,33.9382],[-117.12404566552652,33.932819439633214],[-117.12129,33.93294],[-117.12126303513287,33.92911098886787],[-117.10404169611112,33.919518400904],[-117.10374,33.91952],[-117.10182,33.91853],[-117.10066760510354,33.9176389730182],[-117.0997,33.9171],[-117.09913942722372,33.91645739218329],[-117.09891,33.91628],[-117.08827,33.90415],[-117.08840193463537,33.904148559216154],[-117.0833,33.8983],[-117.0804,33.8931],[-117.077,33.8908],[-117.0672,33.888],[-117.0473,33.8717],[-117.0395,33.8669],[-117.0335,33.8666],[-117.03,33.8651],[-117.02,33.8583],[-117.0092,33.8464],[-117.0041,33.8457],[-117.0095,33.857],[-117.0009,33.8573],[-116.99839406318061,33.85586018542395],[-116.99839,33.86035],[-116.99937,33.86035],[-116.99938,33.86915],[-116.99502,33.87138],[-116.99237,33.87476],[-116.98619,33.8748],[-116.9859,33.88214],[-116.98152,33.88215],[-116.98126,33.88948],[-116.95771,33.8894],[-116.95797,33.90372],[-116.96405,33.90338],[-116.96404,33.90948],[-116.96822,33.90939],[-116.96834,33.91317],[-116.97274,33.91326],[-116.97281,33.9187],[-116.98592,33.91881],[-116.9859,33.91516],[-116.99018,33.9152],[-116.99021,33.92249],[-116.99452,33.92234],[-116.99452,33.91843],[-116.9989,33.91798],[-116.99876,33.92635],[-117.00785,33.92621],[-117.00815,33.93315],[-117.01673,33.93336],[-117.01662,33.93029],[-117.02105,33.92984],[-117.02112,33.93395],[-117.0232,33.93349],[-117.02305,33.92603],[-117.03409,33.92514],[-117.03417,33.94347],[-117.04276,33.94353],[-117.05209,33.9474],[-117.07148,33.9643],[-117.07677,33.96869],[-117.08714,33.97454],[-117.09011,33.97506],[-117.09507,33.97453],[-117.09509,33.97564],[-117.08645,33.98274],[-117.08638,33.98991],[-117.11249,33.98994],[-117.11248,33.98633],[-117.12121,33.98622],[-117.12124,33.98976],[-117.12984,33.98994],[-117.1298,33.99697],[-117.12127,33.99687],[-117.12132,34.00348],[-117.12087252626043,34.0035031186203],[-117.1213,34.0035],[-117.2123,34.0041]]],[[[-117.03425,33.95416],[-117.0177,33.95374],[-117.01767696999359,33.953752629358355],[-117.03425,33.95416]]],[[[-117.03422,33.96832],[-117.02510838249667,33.961980232452945],[-117.02507,33.96863],[-117.014,33.96865],[-117.01406,33.96319],[-117.0165,33.96317],[-117.01653,33.9614],[-117.00793,33.96146],[-117.00789,33.96053],[-117.00551,33.96054],[-117.00529,33.95865],[-117.00114,33.96074],[-116.99894,33.95962],[-116.99889,33.96148],[-116.98595,33.96146],[-116.98585,33.96508],[-116.9815,33.96507],[-116.98139,33.96874],[-116.9773,33.96874],[-116.97727,33.96146],[-116.96856,33.96151],[-116.96861,33.95807],[-116.96642,33.95789],[-116.96647,33.95536],[-116.96539,33.95537],[-116.9654,33.95428],[-116.96428,33.95426],[-116.96421,33.96156],[-116.95409,33.96158],[-116.95409,33.95974],[-116.95267,33.95976],[-116.95268,33.95884],[-116.95117,33.95883],[-116.95118,33.95794],[-116.94681033734162,33.95788000463169],[-116.94678,33.9596],[-116.94244,33.95963],[-116.94243,33.96158],[-116.93809,33.96159],[-116.93816,33.96882],[-116.92943,33.96879],[-116.92942,33.95804],[-116.92504,33.95816],[-116.925,33.95425],[-116.92361,33.95207],[-116.92346,33.9483],[-116.92184,33.94809],[-116.92191,33.9471],[-116.92063,33.94711],[-116.92062,33.93982],[-116.91069,33.93983],[-116.9101,33.94413],[-116.91071,33.95338],[-116.90976,33.95502],[-116.91012,33.95561],[-116.90797,33.95556],[-116.90781,33.95863],[-116.90523,33.95878],[-116.90561,33.95983],[-116.90434,33.96016],[-116.90509,33.96297],[-116.9016,33.96261],[-116.89878,33.95896],[-116.89658,33.95964],[-116.89993,33.96308],[-116.8998,33.96455],[-116.90155,33.9681],[-116.90149,33.96876],[-116.90072,33.96822],[-116.90046,33.96939],[-116.90376,33.97213],[-116.90444,33.9748],[-116.91172,33.9826],[-116.9142,33.98166],[-116.91378,33.97991],[-116.92198,33.97917],[-116.92483,33.9762],[-116.92952,33.9762],[-116.92952,33.97994],[-116.93052,33.9799],[-116.93054,33.99069],[-116.9316,33.99067],[-116.93164,33.99792],[-116.93367,33.99788],[-116.933640174683,34.00486906594812],[-116.99480563849508,34.004422835362725],[-116.99463,34.00051],[-116.98932,34.00075],[-116.98976,33.99024],[-116.99864,33.98997],[-116.99857,33.98309],[-117.02548,33.98295],[-117.02547,33.97587],[-117.02926,33.97589],[-117.02914,33.96852],[-117.03422,33.96832]]],[[[-117.02306986869877,33.96056185601041],[-117.01522,33.9551],[-117.01889,33.95823],[-117.02306986869877,33.96056185601041]]],[[[-117.01140684332519,34.00430172183088],[-116.99898,34.00399],[-116.99562130334101,34.004416884707254],[-117.01140684332519,34.00430172183088]]],[[[-116.98039420279697,33.84551816037896],[-116.96347305075946,33.835795919515306],[-116.96354,33.84545],[-116.98039420279697,33.84551816037896]]],[[[-116.95522728780412,33.83105822237868],[-116.9325,33.818],[-116.9077,33.8171],[-116.896,33.8053],[-116.8856,33.8055],[-116.8857,33.8088],[-116.8758,33.8093],[-116.8757,33.8018],[-116.8599,33.8021],[-116.8597,33.842],[-116.8426,33.842],[-116.8424,33.857],[-116.8244,33.8571],[-116.8243,33.8862],[-116.7894,33.886],[-116.7894,33.8787],[-116.7719,33.8787],[-116.772,33.8861],[-116.7199,33.8862],[-116.7199,33.9033],[-116.7369,33.9034],[-116.7373,33.918],[-116.7198,33.9179],[-116.7197,33.9327],[-116.7372,33.9329],[-116.7374,33.9472],[-116.7197,33.9473],[-116.7197,33.9546],[-116.7285,33.9545],[-116.7284,33.9617],[-116.7197,33.9618],[-116.7197,34.0338],[-116.9296,34.0341],[-116.9294,34.0049],[-116.92954,34.00489897863471],[-116.92954,34.00147],[-116.92056,34.00145],[-116.92056,34.00521],[-116.91596,34.0052],[-116.91553,34.00438],[-116.91428,34.00439],[-116.91495,34.0028],[-116.91428,33.9997],[-116.91556,33.99799],[-116.91442,33.99511],[-116.91508,33.99465],[-116.91537,33.99045],[-116.9164,33.9884],[-116.91545,33.9872],[-116.91312,33.98731],[-116.9132,33.98822],[-116.91186,33.98823],[-116.91183,33.993],[-116.91039,33.9935],[-116.91008,33.99851],[-116.91118,34.00371],[-116.91069,34.0052],[-116.91182,34.0052],[-116.91182,34.01246],[-116.90748,34.01243],[-116.90748,34.01605],[-116.90312,34.01602],[-116.90295,34.01965],[-116.89883,34.01963],[-116.89885,34.02319],[-116.89445,34.02322],[-116.89456,34.03401],[-116.87713,34.03401],[-116.87701,34.01963],[-116.89442,34.0196],[-116.89442,34.01597],[-116.89877,34.01592],[-116.89877,34.01238],[-116.90312,34.0124],[-116.90312,33.99794],[-116.90095,33.99794],[-116.90088,33.99069],[-116.90313,33.99069],[-116.90315,33.98346],[-116.89446,33.98343],[-116.89448,33.96891],[-116.89007,33.96891],[-116.88995,33.96267],[-116.87964,33.95441],[-116.87701,33.9544],[-116.87693,33.94716],[-116.85964,33.94719],[-116.85948,33.93264],[-116.85787,33.93264],[-116.85787,33.93358],[-116.84189,33.93345],[-116.84205,33.93981],[-116.82447,33.93993],[-116.82463,33.93031],[-116.83129,33.93038],[-116.84183,33.92792],[-116.84185,33.9072],[-116.85064,33.90715],[-116.8506,33.91078],[-116.87668,33.91079],[-116.87628,33.90361],[-116.89412,33.90345],[-116.89419,33.91074],[-116.91158,33.91071],[-116.91161,33.91795],[-116.92926,33.91801],[-116.9292,33.90353],[-116.94063842712468,33.903617060628],[-116.94055,33.89277],[-116.92912,33.89269],[-116.92907,33.88595],[-116.91164,33.88607],[-116.91168,33.88149],[-116.91388,33.88152],[-116.91499,33.87974],[-116.91711,33.87977],[-116.91712,33.87888],[-116.92469,33.879],[-116.92468,33.86424],[-116.92033,33.86427],[-116.92028,33.85669],[-116.92455,33.8567],[-116.92444,33.85374],[-116.92896,33.85402],[-116.92896,33.85311],[-116.9407,33.8534],[-116.9407,33.84546],[-116.94579,33.84546],[-116.94598,33.83109],[-116.95522728780412,33.83105822237868]]]]}},{"type":"Feature","properties":{"GEOID":"0606590410","NAME":"Cathedral City-Palm Desert","COUNTY":"065"},"geometry":{"type":"MultiPolygon","coordinates":[[[[-116.63254452091367,33.9034],[-116.63254334849684,33.899447782832276],[-116.6285,33.8981],[-116.6213,33.8985],[-116.61507726966333,33.89475447123048],[-116.6149165867706,33.902079720751644],[-116.6243,33.9034],[-116.63254452091367,33.9034]]],[[[-116.60698925602267,33.90096431743033],[-116.60372,33.90038],[-116.58555957060281,33.90091141205615],[-116.6044,33.9006],[-116.60698925602267,33.90096431743033]]],[[[-116.60549203438396,33.88898501432665],[-116.5899,33.8796],[-116.58938587168758,33.87924570432357],[-116.59142,33.8807],[-116.60549203438396,33.88898501432665]]],[[[-116.47880571428571,33.75976857142857],[-116.47872,33.75974],[-116.47768,33.7594],[-116.47880571428571,33.75976857142857]]],[[[-116.47769211865679,33.75771247704258],[-116.47743591415046,33.75796260555271],[-116.47768,33.7594],[-116.47769211865679,33.75771247704258]]],[[[-116.47632,33.75609],[-116.476038575419,33.75615808659218],[-116.47517,33.75804],[-116.47632,33.75609]]],[[[-116.4760027324394,33.75616675828079],[-116.4757,33.75624],[-116.47203,33.7607],[-116.4760027324394,33.75616675828079]]],[[[-116.46066,33.74273],[-116.46018,33.65604],[-116.44284,33.65612],[-116.44283995820321,33.656099770355155],[-116.4428,33.6561],[-116.4428,33.6416],[-116.44281,33.6416],[-116.46010006972871,33.64159002879485],[-116.46015257854822,33.63408126760564],[-116.46015490732485,33.627299870049924],[-116.4255,33.6272],[-116.4258,33.5982],[-116.4214,33.5982],[-116.4217,33.6008],[-116.4191,33.6033],[-116.4203,33.6075],[-116.4161,33.6094],[-116.4146,33.6129],[-116.4153,33.6152],[-116.4115,33.6218],[-116.4037,33.6254],[-116.4026,33.6313],[-116.404,33.6338],[-116.3992,33.642],[-116.3215,33.642],[-116.3215,33.6126],[-116.2948,33.61265],[-116.32146,33.61265],[-116.32148,33.63738],[-116.32107,33.69938],[-116.32147,33.67068],[-116.37295,33.67072],[-116.37574,33.67071],[-116.37708,33.67794],[-116.38195,33.68489],[-116.39099,33.68495],[-116.39099,33.68421],[-116.38881,33.68371],[-116.388,33.68243],[-116.38781,33.68027],[-116.38902,33.67923],[-116.3885,33.67507],[-116.38954,33.6745],[-116.391,33.67567],[-116.39099,33.6779],[-116.40603,33.6779],[-116.406,33.6761],[-116.40785,33.67605],[-116.40815,33.6753],[-116.40806,33.67068],[-116.42539,33.67068],[-116.42543,33.68504],[-116.40807,33.68502],[-116.40801,33.69051],[-116.4103,33.69051],[-116.41031,33.6914],[-116.40802,33.69141],[-116.40802,33.69957],[-116.42544,33.69956],[-116.4255,33.71414],[-116.40813,33.71419],[-116.46005,33.71408],[-116.46066,33.74273]]],[[[-116.44104,33.84502],[-116.43597,33.84507],[-116.42349,33.83586],[-116.42344,33.83072],[-116.40614799915542,33.83093602726779],[-116.4057,33.8454],[-116.4235,33.8453],[-116.4233,33.8594],[-116.44095416896235,33.8594],[-116.44104,33.84502]]],[[[-116.44087,33.8305],[-116.44062,33.8015],[-116.44082,33.82686],[-116.43645,33.82694],[-116.4364,33.82328],[-116.43209,33.82332],[-116.43193,33.81611],[-116.42331,33.81622],[-116.42338,33.82563],[-116.39672,33.81],[-116.32344,33.76652],[-116.31839,33.76419],[-116.30196,33.7592],[-116.3030357827476,33.75647233226837],[-116.3018,33.7595],[-116.3233,33.7668],[-116.4058,33.8157],[-116.4012,33.8164],[-116.40523921688688,33.82137134386078],[-116.40578,33.81969],[-116.40718,33.81891],[-116.43882,33.83793],[-116.43869,33.8305],[-116.44087,33.8305]]],[[[-116.42334,33.81259],[-116.41714,33.81258],[-116.41534,33.8119],[-116.41045,33.80754],[-116.41028,33.80173],[-116.40596,33.80175],[-116.40594,33.80575],[-116.40683,33.80875],[-116.41005,33.81343],[-116.41051,33.81633],[-116.42331,33.81622],[-116.42334,33.81259]]],[[[-116.3737,33.68348],[-116.37338219211081,33.683508160192716],[-116.37355,33.6838],[-116.37353903632321,33.68387997034841],[-116.3737,33.68348]]],[[[-116.37365,33.71165],[-116.37308725719168,33.68717530048419],[-116.37304,33.68752],[-116.37365,33.71165]]],[[[-116.37295,33.67072],[-116.37286,33.6826],[-116.372912676194,33.68269161077219],[-116.37295,33.67072]]],[[[-116.34754,33.7435],[-116.33005,33.74358],[-116.33261,33.74357],[-116.34754,33.7435]]],[[[-116.30389,33.72901],[-116.30354564344725,33.72810681921692],[-116.30385497134084,33.73795982241556],[-116.30389,33.72901]]],[[[-116.3038543441389,33.73812007251104],[-116.30338961641961,33.738126030558725],[-116.30379122251752,33.75424764677458],[-116.3038543441389,33.73812007251104]]],[[[-116.30284718110563,33.72627488728584],[-116.30275,33.72602],[-116.29891363590522,33.72277241553205],[-116.30284718110563,33.72627488728584]]],[[[-116.29638210292359,33.72051831082237],[-116.29597753635771,33.7199231875407],[-116.29611775722233,33.72028293451304],[-116.29638210292359,33.72051831082237]]]]}},{"type":"Feature","properties":{"GEOID":"0606590520","NAME":"Coachella Valley","COUNTY":"065"},"geometry":{"type":"MultiPolygon","coordinates":[[[[-116.3267,33.8166],[-116.3012,33.8039],[-116.3011,33.776],[-116.3037,33.7711],[-116.3011,33.7652],[-116.3037,33.765],[-116.3037,33.7618],[-116.301,33.7614],[-116.3031889051095,33.75608408759124],[-116.30379,33.75456],[-116.30379165863067,33.754136219864996],[-116.30350367928443,33.7381245682143],[-116.3023,33.73814],[-116.30229,33.73702],[-116.29949,33.73703],[-116.29949,33.73633],[-116.29837,33.73632],[-116.29842,33.73271],[-116.28628,33.73281],[-116.28628,33.72912],[-116.2754,33.72914],[-116.27526,33.73647],[-116.26738,33.7365],[-116.26659,33.73832],[-116.26813,33.73831],[-116.26843,33.74375],[-116.26502,33.7439],[-116.26638,33.74589],[-116.27032,33.74781],[-116.28619,33.75427],[-116.29508,33.75702],[-116.29507,33.75829],[-116.29617,33.75953],[-116.29517,33.75993],[-116.29191,33.75837],[-116.28643,33.75836],[-116.28631,33.77292],[-116.28334,33.77294],[-116.28325,33.79518],[-116.28545,33.79625],[-116.28558,33.79837],[-116.30114,33.79833],[-116.30127,33.81647],[-116.29218,33.81654],[-116.29217,33.81283],[-116.28344,33.81289],[-116.28334,33.80197],[-116.26578,33.80203],[-116.26591,33.77777],[-116.2596,33.77744],[-116.25235,33.7746],[-116.24894,33.77046],[-116.24169,33.76504],[-116.23405,33.76134],[-116.23405,33.76072],[-116.23398,33.76142],[-116.2298,33.76176],[-116.22982,33.75847],[-116.21168,33.75846],[-116.20968,33.75653],[-116.20408,33.75472],[-116.20369,33.75121],[-116.19936,33.75117],[-116.19936,33.74972],[-116.19452,33.74606],[-116.18629,33.74707],[-116.18153,33.74548],[-116.18149,33.77322],[-116.19628,33.7732],[-116.19628,33.78045],[-116.17792069693428,33.780479234559024],[-116.1865,33.801],[-116.2424,33.8449],[-116.2486,33.8457],[-116.2487,33.8483],[-116.2904,33.8706],[-116.3018,33.8756],[-116.3065,33.857],[-116.3108,33.8492],[-116.3101,33.842],[-116.3067,33.836],[-116.3157,33.8277],[-116.326,33.8204],[-116.3267,33.8166]]],[[[-116.30307411717291,33.726870096795636],[-116.30291480662983,33.72645225598526],[-116.29771059433588,33.721754008775456],[-116.2970270999931,33.72117541259513],[-116.30307411717291,33.726870096795636]]],[[[-116.29647597729297,33.72065640138023],[-116.29644609989374,33.720612451292965],[-116.29613766123511,33.72033399972614],[-116.29614,33.72034],[-116.29647597729297,33.72065640138023]]],[[[-116.2960661697417,33.72015058302585],[-116.29603323493235,33.72000512095122],[-116.29597753635771,33.7199231875407],[-116.2960661697417,33.72015058302585]]],[[[-116.26802531228314,33.60541524982651],[-116.26800006940714,33.59812005866363],[-116.26795,33.59812],[-116.26802531228314,33.60541524982651]]],[[[-116.25031998617659,33.583700057763515],[-116.2503,33.5837],[-116.2503,33.5633],[-116.2157,33.5636],[-116.2156,33.5259],[-116.1388,33.5253],[-116.1298,33.5106],[-116.1301,33.4988],[-116.1193,33.4989],[-116.1128,33.4909],[-116.1126,33.4263],[-115.6775,33.4274],[-115.6808,33.429],[-115.6905,33.4385],[-115.7034,33.4446],[-115.7138,33.4548],[-115.7137,33.4535],[-115.7309,33.4581],[-115.7493,33.4682],[-115.7636,33.4881],[-115.7666,33.4967],[-115.7662,33.5057],[-115.768,33.5089],[-115.7786,33.5108],[-115.8061,33.5114],[-115.82,33.5149],[-115.8313,33.5213],[-115.848,33.5215],[-115.8611,33.52],[-115.9101,33.5277],[-115.9133,33.5333],[-115.918,33.536],[-115.9226,33.5444],[-115.9289,33.5485],[-115.9303,33.5511],[-115.9337,33.5535],[-115.9456,33.5557],[-115.9565,33.5657],[-115.9648,33.5665],[-115.9839,33.5649],[-115.9901,33.5661],[-115.9963,33.5696],[-115.9914,33.5696],[-115.9914,33.5842],[-116.0086,33.5842],[-116.0088,33.5989],[-116.0261,33.5989],[-116.0264,33.5864],[-116.0325,33.5876],[-116.0385,33.5926],[-116.0484,33.6052],[-116.0548,33.6092],[-116.0659,33.6203],[-116.0717,33.6284],[-116.0733,33.635],[-116.0782,33.6376],[-116.0851,33.6376],[-116.0902,33.6412],[-116.0939,33.6487],[-116.1032,33.6575],[-116.1056,33.6678],[-116.10928784279854,33.671385402720794],[-116.14672,33.67132],[-116.14671,33.66776],[-116.13804,33.66765],[-116.13805,33.66393],[-116.13367,33.66391],[-116.13368,33.66032],[-116.12933,33.66026],[-116.12931,33.65667],[-116.11636,33.65669],[-116.11628,33.65298],[-116.11183,33.65297],[-116.11177,33.64939],[-116.12488,33.6494],[-116.12487,33.64571],[-116.12714,33.64572],[-116.12714,33.64211],[-116.13802,33.64208],[-116.14094,33.64535],[-116.14218,33.64885],[-116.14689,33.64885],[-116.15366,33.65669],[-116.1598,33.65671],[-116.15981,33.65304],[-116.16414,33.65304],[-116.16422,33.65673],[-116.19928,33.65655],[-116.19907,33.66554],[-116.20343,33.66555],[-116.20342,33.66727],[-116.20554,33.66728],[-116.20554,33.66915],[-116.20776,33.66916],[-116.20774,33.67274],[-116.20336,33.67274],[-116.20349,33.68181],[-116.21211,33.68177],[-116.21127,33.6836],[-116.21321,33.68359],[-116.21324989431714,33.685494953643655],[-116.21653,33.68551],[-116.21644,33.67101],[-116.23388974928523,33.67101500566532],[-116.23337,33.6192],[-116.22469,33.62023],[-116.22472,33.6165],[-116.22905,33.6165],[-116.22902,33.60558],[-116.23338,33.60555],[-116.23336,33.59824],[-116.25031,33.59819],[-116.25031998617659,33.583700057763515]],[[-116.20324,33.64936],[-116.19897,33.64932],[-116.19863,33.64206],[-116.20295,33.64209],[-116.20324,33.64936]]],[[[-116.21645,33.70035],[-116.19467991096958,33.7003811892393],[-116.19467,33.70274],[-116.1962,33.70273],[-116.19635,33.70398],[-116.19905,33.70396],[-116.19906,33.70039],[-116.21645,33.70035]]],[[[-116.19905,33.70585],[-116.19675,33.70585],[-116.19902,33.70846],[-116.19905,33.70585]]],[[[-116.19542,33.7076],[-116.19406,33.70585],[-116.19029,33.70584],[-116.19028005016928,33.7003874927648],[-116.18155,33.7004],[-116.18595,33.7005],[-116.18594,33.70404],[-116.18156248713551,33.70404],[-116.18165,33.72955],[-116.18167,33.72225],[-116.19472,33.72223],[-116.19465,33.70768],[-116.19542,33.7076]]],[[[-116.16595015677836,33.751846996618504],[-116.16429921875672,33.747732813940466],[-116.1643,33.7479],[-116.16595015677836,33.751846996618504]]],[[[-116.16418005399773,33.7264827134647],[-116.16418,33.72647],[-116.1582,33.72128],[-116.15734,33.7183],[-116.15483637387388,33.71514936936937],[-116.1582,33.7213],[-116.16418005399773,33.7264827134647]]]]}}]}