{"type":"FeatureCollection","features":[{"type":"Feature","properties":{"GEOID":"0606791416","NAME":"Isleton","COUNTY":"067"},"geometry":{"type":"Polygon","coordinates":[[[-121.8625,38.066],[-121.8536,38.0648],[-121.8468,38.06],[-121.8417,38.052],[-121.8379,38.0389],[-121.8321,38.0311],[-121.8182,38.0222],[-121.8107,38.0203],[-121.8013,38.0216],[-121.7896,38.0185],[-121.7775,38.0189],[-121.7635,38.0235],[-121.7489,38.0244],[-121.7378,38.0266],[-121.7256,38.0338],[-121.7096,38.0399],[-121.6998,38.0452],[-121.6809,38.0621],[-121.6796,38.0695],[-121.6819,38.082],[-121.6793,38.0893],[-121.6731,38.0935],[-121.6619,38.0956],[-121.6452,38.0874],[-121.6381,38.0861],[-121.6326,38.0886],[-121.629,38.0973],[-121.6274,38.0984],[-121.6049,38.0999],[-121.5853,38.0964],[-121.5813,38.0939],[-121.5655,38.0985],[-121.564,38.1014],[-121.5658,38.1053],[-121.582,38.112],[-121.5835,38.1135],[-121.5841,38.1202],[-121.5763,38.1291],[-121.5624,38.136],[-121.5577,38.1368],[-121.5573,38.1391],[-121.5601,38.1421],[-121.5592,38.1439],[-121.5506,38.1456],[-121.5472,38.1481],[-121.5438,38.1473],[-121.5414,38.1519],[-121.5363,38.1516],[-121.5345,38.1557],[-121.5362,38.1582],[-121.5337,38.16],[-121.5335,38.1626],[-121.5312,38.1633],[-121.5293,38.169],[-121.5243,38.1727],[-121.5278,38.1817],[-121.5245,38.1855],[-121.5289,38.193],[-121.5289,38.1953],[-121.5256,38.1973],[-121.5207,38.2029],[-121.5136,38.2024],[-121.5116,38.2033],[-121.5083,38.2071],[-121.5078,38.2096],[-121.5047,38.2115],[-121.5075,38.2226],[-121.5064,38.2246],[-121.5112,38.229],[-121.4992,38.235],[-121.4968,38.2416],[-121.4992,38.2552],[-121.4939,38.2595],[-121.4952,38.2633],[-121.4985,38.2657],[-121.4969,38.2693],[-121.4983,38.2731],[-121.4985,38.2799],[-121.5041,38.2849],[-121.5057,38.2904],[-121.5105,38.2956],[-121.5112,38.3074],[-121.5175,38.3129],[-121.519,38.3198],[-121.5183,38.3217],[-121.5211,38.3283],[-121.521,38.3325],[-121.5248,38.3377],[-121.5368,38.3453],[-121.5369,38.3478],[-121.5594,38.3426],[-121.5756,38.327],[-121.5809,38.3311],[-121.5835,38.3319],[-121.5848,38.3308],[-121.5852,38.3255],[-121.5898,38.3227],[-121.5901,38.3182],[-121.5922,38.314],[-121.5987,38.3099],[-121.5976,38.3072],[-121.5997,38.3046],[-121.5999,38.3015],[-121.6052,38.2961],[-121.6039,38.2895],[-121.6054,38.2857],[-121.6014,38.2813],[-121.6007,38.2784],[-121.604,38.2701],[-121.6002,38.2578],[-121.6021,38.252],[-121.6018,38.2447],[-121.6032,38.2373],[-121.6021,38.2216],[-121.6104,38.2084],[-121.6121,38.2001],[-121.6145,38.1965],[-121.617,38.1951],[-121.6238,38.1932],[-121.6323,38.1943],[-121.6421,38.19],[-121.6466,38.186],[-121.6629,38.1819],[-121.678,38.1649],[-121.6856,38.1596],[-121.6877,38.1468],[-121.6921,38.1331],[-121.6984,38.1213],[-121.7052,38.1138],[-121.7072,38.1098],[-121.7084,38.0915],[-121.7109,38.0865],[-121.7139,38.0845],[-121.7293,38.0823],[-121.7432,38.0872],[-121.8001,38.0596],[-121.8108,38.0608],[-121.8279,38.0662],[-121.8376,38.0744],[-121.8424,38.0767],[-121.8596,38.0711],[-121.8625,38.0679],[-121.8625,38.066]],[[-121.61994,38.15656],[-121.61624,38.16401],[-121.60568,38.16447],[-121.59729,38.1676],[-121.59301,38.16553],[-121.61113,38.15728],[-121.61215,38.15997],[-121.61605,38.15881],[-121.61832,38.15651],[-121.61994,38.15656]],[[-121.59614,38.15678],[-121.59257,38.16065],[-121.58747,38.15782],[-121.59167,38.1576],[-121.59279,38.15491],[-121.59614,38.15678]]]}},{"type":"Feature","properties":{"GEOID":"0606791090","NAME":"Galt","COUNTY":"067"},"geometry":{"type":"MultiPolygon","coordinates":[[[[-121.4398,38.2558],[-121.4344,38.2543],[-121.4293,38.2548],[-121.4276,38.2516],[-121.4251,38.2504],[-121.4254,38.2468],[-121.4277,38.2457],[-121.4205,38.2372],[-121.4157,38.2356],[-121.4112,38.2319],[-121.4099,38.233],[-121.4052,38.23],[-121.4017,38.2307],[-121.3984,38.2274],[-121.396,38.2277],[-121.3952,38.2295],[-121.3891,38.2332],[-121.3852,38.2313],[-121.3825,38.2321],[-121.3786,38.2306],[-121.3732,38.2311],[-121.3709,38.2297],[-121.3663,38.2312],[-121.3632,38.2283],[-121.3624,38.2299],[-121.3547,38.231],[-121.3448,38.2282],[-121.3423,38.2296],[-121.3382,38.2291],[-121.3293,38.2328],[-121.322,38.2326],[-121.3177,38.2352],[-121.309,38.2358],[-121.30677518794029,38.23519869944332],[-121.30672,38.24023],[-121.31351,38.2402],[-121.31348,38.2474],[-121.31923,38.24738],[-121.31925,38.24847],[-121.32192,38.24856],[-121.32192,38.25613],[-121.32468,38.25624],[-121.32469,38.25826],[-121.32605,38.25831],[-121.32603,38.26193],[-121.32321,38.26194],[-121.32323,38.26502],[-121.31775,38.26503],[-121.31767,38.26195],[-121.31003,38.26201],[-121.31807,38.28374],[-121.30806,38.28378],[-121.3132,38.29105],[-121.28588,38.29126],[-121.28587,38.29528],[-121.27938,38.29529],[-121.2801,38.29133],[-121.26437,38.29173],[-121.26426,38.28418],[-121.26569,38.28418],[-121.27348,38.27986],[-121.27343,38.27701],[-121.28255,38.27671],[-121.28227,38.24984],[-121.28465,38.25035],[-121.28628,38.2472],[-121.2865258493353,38.246949837518464],[-121.283,38.2497],[-121.2774,38.2491],[-121.2684,38.2523],[-121.259,38.2503],[-121.2476,38.2454],[-121.2424,38.2454],[-121.2375,38.2475],[-121.2318,38.2467],[-121.2293,38.2475],[-121.223,38.2444],[-121.215,38.2488],[-121.2034,38.2488],[-121.192,38.2567],[-121.182,38.2568],[-121.1792,38.2551],[-121.1731,38.2552],[-121.1705,38.2576],[-121.1634,38.2604],[-121.157,38.2608],[-121.147,38.2639],[-121.1416,38.2692],[-121.1377,38.2716],[-121.1338,38.2719],[-121.1278,38.2774],[-121.1163,38.2774],[-121.1095,38.2811],[-121.1022,38.2832],[-121.0942,38.2819],[-121.0928,38.2838],[-121.0894,38.2841],[-121.0858,38.287],[-121.0838,38.2865],[-121.0793,38.2896],[-121.0784,38.2916],[-121.0741,38.2931],[-121.0667,38.2991],[-121.0617,38.2989],[-121.0534,38.2932],[-121.047,38.2913],[-121.0406,38.2977],[-121.0271,38.3003],[-121.0272,38.3977],[-121.0306,38.3994],[-121.0296,38.4018],[-121.0316,38.4043],[-121.037,38.4045],[-121.0438,38.4076],[-121.0443,38.409],[-121.0473,38.4084],[-121.0508,38.4114],[-121.058,38.4121],[-121.0616,38.4142],[-121.0652,38.4143],[-121.0704,38.4175],[-121.0805,38.4194],[-121.0899,38.4184],[-121.0919,38.4223],[-121.0957,38.4237],[-121.0989,38.4227],[-121.1018,38.4248],[-121.1042,38.4232],[-121.1074,38.424],[-121.1111,38.4228],[-121.1127,38.4191],[-121.1165,38.4165],[-121.1198,38.4173],[-121.1221,38.4154],[-121.1247,38.4154],[-121.1264,38.413],[-121.1247,38.4103],[-121.1288,38.4095],[-121.1315,38.4043],[-121.1491,38.4033],[-121.1509,38.4379],[-121.1602,38.4377],[-121.1601,38.4439],[-121.1816,38.4565],[-121.1836,38.4527],[-121.196,38.4597],[-121.1961,38.4581],[-121.2067,38.4608],[-121.2093,38.4586],[-121.2117,38.4537],[-121.211,38.4515],[-121.2145,38.4467],[-121.22,38.4473],[-121.2297,38.4408],[-121.237,38.44],[-121.2379,38.4312],[-121.2452,38.4255],[-121.2542,38.4256],[-121.2587,38.4217],[-121.2653,38.4189],[-121.2664,38.4168],[-121.2781,38.4178],[-121.2797,38.4169],[-121.2826,38.4101],[-121.2861,38.4054],[-121.2913,38.4053],[-121.2915,38.4006],[-121.2959,38.399],[-121.2977,38.3908],[-121.3001,38.3884],[-121.3002,38.3849],[-121.3058,38.3823],[-121.3137,38.3816],[-121.3192,38.3789],[-121.3247,38.3729],[-121.3239,38.369],[-121.3264,38.3652],[-121.3346,38.3642],[-121.3421,38.3602],[-121.3477,38.354],[-121.3516,38.3465],[-121.3514,38.3417],[-121.3529,38.3401],[-121.3529,38.3376],[-121.3591,38.3343],[-121.3659,38.3278],[-121.3674,38.3237],[-121.3709,38.3206],[-121.3708,38.3172],[-121.3743,38.3144],[-121.3824,38.3019],[-121.3829,38.2998],[-121.3797,38.2946],[-121.3822,38.2843],[-121.381,38.2806],[-121.39,38.2745],[-121.3887,38.2707],[-121.3988,38.2615],[-121.4018,38.2547],[-121.4068,38.2534],[-121.4225,38.2545],[-121.4261,38.2571],[-121.4299,38.2575],[-121.4373,38.2571],[-121.4398,38.2558]],[[-121.33764,38.29565],[-121.33754,38.30549],[-121.32602,38.30535],[-121.32246,38.29573],[-121.33764,38.29565]]],[[[-121.30598635366073,38.23498550098939],[-121.3053,38.2348],[-121.2955,38.2376],[-121.29350026954178,38.23853320754717],[-121.30598635366073,38.23498550098939]]],[[[-121.29734,38.24381],[-121.29669,38.24364],[-121.29723,38.24383],[-121.29734,38.24381]]],[[[-121.29314435426959,38.23869930134086],[-121.2925,38.239],[-121.29170765114262,38.24019732716228],[-121.29314435426959,38.23869930134086]]],[[[-121.28929509592585,38.2438429661565],[-121.28870947867298,38.244727898894155],[-121.28913,38.2443],[-121.28929509592585,38.2438429661565]]]]}},{"type":"Feature","properties":{"GEOID":"0606793030","NAME":"Sloughhouse","COUNTY":"067"},"geometry":{"type":"Polygon","coordinates":[[[-121.2612,38.528],[-121.2607,38.4723],[-121.2565,38.4723],[-121.2368,38.4618],[-121.234,38.4577],[-121.2299,38.4569],[-121.2277,38.4545],[-121.2252,38.4552],[-121.2221,38.459],[-121.2111,38.4547],[-121.2067,38.4608],[-121.1961,38.4581],[-121.196,38.4597],[-121.1836,38.4527],[-121.1816,38.4565],[-121.1624,38.4454],[-121.16,38.4437],[-121.1602,38.4377],[-121.1509,38.4379],[-121.1491,38.4033],[-121.1315,38.4043],[-121.1288,38.4095],[-121.1247,38.4103],[-121.1264,38.413],[-121.1247,38.4154],[-121.1221,38.4154],[-121.1198,38.4173],[-121.1165,38.4165],[-121.1127,38.4191],[-121.1111,38.4228],[-121.1074,38.424],[-121.1042,38.4232],[-121.1018,38.4248],[-121.0989,38.4227],[-121.0957,38.4237],[-121.0919,38.4223],[-121.0899,38.4184],[-121.0805,38.4194],[-121.0704,38.4175],[-121.0652,38.4143],[-121.0616,38.4142],[-121.058,38.4121],[-121.0508,38.4114],[-121.0473,38.4084],[-121.0443,38.409],[-121.0438,38.4076],[-121.037,38.4045],[-121.0316,38.4043],[-121.0296,38.4018],[-121.0306,38.3994],[-121.0272,38.3977],[-121.0274,38.5081],[-121.0705,38.6076],[-121.0793,38.6329],[-121.0793331780822,38.63286682191781],[-121.07909,38.63227],[-121.0838,38.62839],[-121.08389190346274,38.6283808772298],[-121.11437233428528,38.62203867578536],[-121.11601,38.62166],[-121.1225,38.61916],[-121.14117561552125,38.61725161224211],[-121.14217,38.617000505050505],[-121.14217,38.61613],[-121.1436,38.61612],[-121.1443,38.61176],[-121.14161,38.61173],[-121.14166,38.6102],[-121.14309,38.61151],[-121.1485,38.61181],[-121.14947,38.61391],[-121.15048,38.61389],[-121.15047433829318,38.61471268955181],[-121.1787,38.603],[-121.1753,38.598],[-121.18739000352096,38.581113962024446],[-121.1874,38.53558],[-121.18779625477654,38.53493631853199],[-121.1878,38.5345],[-121.18840930851064,38.53394046598741],[-121.18953,38.53212],[-121.22327,38.50191],[-121.22328568392523,38.50191314659261],[-121.2233,38.5019],[-121.22970833876221,38.50320169381107],[-121.24246,38.50576],[-121.2424603549678,38.505791947102836],[-121.2425,38.5058],[-121.2427,38.5256],[-121.2522,38.5256],[-121.2612,38.528]]]}},{"type":"Feature","properties":{"GEOID":"0606790870","NAME":"Elk Grove","COUNTY":"067"},"geometry":{"type":"MultiPolygon","coordinates":[[[[-121.41893215887089,38.47430065865174],[-121.40522389690425,38.44521443167746],[-121.40861,38.45261],[-121.3958,38.45291],[-121.27688,38.45253],[-121.28306,38.44656],[-121.28007,38.44464],[-121.28352,38.4425],[-121.2811,38.44092],[-121.2783,38.4435],[-121.2764,38.44227],[-121.28086,38.43819],[-121.26934,38.43075],[-121.2701,38.42895],[-121.27268,38.43049],[-121.27646,38.42715],[-121.28048,38.42984],[-121.28404,38.42663],[-121.28482,38.42717],[-121.28713,38.42512],[-121.28551,38.42365],[-121.2871,38.42224],[-121.28622,38.42105],[-121.29767,38.42891],[-121.30227,38.42481],[-121.29911,38.42257],[-121.30198,38.4199],[-121.2989,38.41781],[-121.30498,38.41238],[-121.31445,38.41867],[-121.31619,38.41713],[-121.34706,38.38802],[-121.33813,38.38204],[-121.34405,38.37648],[-121.34098,38.37408],[-121.34507,38.37103],[-121.34766,38.37138],[-121.34861,38.37037],[-121.3501,38.37022],[-121.34681,38.36137],[-121.3578671592068,38.372124999433424],[-121.3436,38.3576],[-121.3418,38.3604],[-121.3366,38.3635],[-121.3264,38.3652],[-121.3239,38.369],[-121.3247,38.3729],[-121.3192,38.3789],[-121.3137,38.3816],[-121.3058,38.3823],[-121.3002,38.3849],[-121.3001,38.3884],[-121.2977,38.3908],[-121.2959,38.399],[-121.2915,38.4006],[-121.2913,38.4053],[-121.2861,38.4054],[-121.2795,38.417],[-121.2781,38.4178],[-121.2664,38.4168],[-121.2653,38.4189],[-121.2587,38.4217],[-121.2542,38.4256],[-121.2455,38.4254],[-121.2379,38.4312],[-121.237,38.44],[-121.2297,38.4408],[-121.22,38.4473],[-121.2147,38.4466],[-121.2109,38.4518],[-121.2111,38.4547],[-121.2203,38.4592],[-121.2223,38.459],[-121.2252,38.4552],[-121.2277,38.4545],[-121.2299,38.4569],[-121.234,38.4577],[-121.2368,38.4618],[-121.2565,38.4723],[-121.2607,38.4723],[-121.2608,38.4851],[-121.2649,38.4851],[-121.2654,38.4833],[-121.268,38.483],[-121.2716,38.485],[-121.2789,38.4863],[-121.2794,38.4851],[-121.2845,38.4833],[-121.2829,38.4801],[-121.2852,38.4802],[-121.2861,38.4786],[-121.2912,38.4772],[-121.2917,38.4752],[-121.2976,38.4703],[-121.2977,38.4816],[-121.4088,38.4817],[-121.4087,38.4744],[-121.41893215887089,38.47430065865174]]],[[[-121.40388476656103,38.44228964478648],[-121.4032842525852,38.44064505537538],[-121.40194662472449,38.43778055326853],[-121.40182,38.43778],[-121.40388476656103,38.44228964478648]]]]}},{"type":"Feature","properties":{"GEOID":"0606792690","NAME":"Sacramento","COUNTY":"067"},"geometry":{"type":"MultiPolygon","coordinates":[[[[-121.6342,38.6898],[-121.6319,38.6806],[-121.6287,38.6754],[-121.6096,38.6611],[-121.5941,38.6441],[-121.5898,38.6424],[-121.5872,38.6427],[-121.5761,38.6486],[-121.5705,38.6476],[-121.5669,38.6451],[-121.5651,38.6423],[-121.5616,38.6186],[-121.5583,38.6082],[-121.55364337169608,38.60332162749114],[-121.55361,38.60333],[-121.54987,38.5994],[-121.54459112622588,38.5977067763366],[-121.54351546572934,38.59852818980668],[-121.54517,38.59971],[-121.54721,38.59974],[-121.53699,38.61423],[-121.52405,38.62174],[-121.52535,38.62311],[-121.53369,38.62756],[-121.54535,38.62726],[-121.54536,38.63091],[-121.53736,38.63093],[-121.53575,38.6365],[-121.53922,38.64196],[-121.54508,38.64353],[-121.54615,38.64257],[-121.54896,38.64304],[-121.54998,38.64208],[-121.55247,38.64336],[-121.55807,38.65497],[-121.55983,38.65634],[-121.55734,38.65555],[-121.55049,38.65562],[-121.54997,38.66201],[-121.55009,38.67106],[-121.5579,38.67106],[-121.55788,38.6856],[-121.48562,38.68519],[-121.48532,38.67504],[-121.47907,38.67176],[-121.47819,38.67015],[-121.45635,38.66912],[-121.41526,38.66898],[-121.41503,38.65832],[-121.41593,38.65832],[-121.41735,38.66005],[-121.41994,38.66004],[-121.42223,38.65803],[-121.42162,38.6573],[-121.42164,38.65272],[-121.4235,38.65109],[-121.4199,38.65097],[-121.41992,38.64997],[-121.41759,38.64995],[-121.4176,38.6472],[-121.41068,38.64713],[-121.41057,38.63989],[-121.40561,38.6398],[-121.40531,38.63862],[-121.40315,38.64061],[-121.3887,38.64368],[-121.38326,38.64219],[-121.3832,38.63989],[-121.38201,38.64102],[-121.37896,38.64076],[-121.37691,38.64259],[-121.37202,38.64469],[-121.37027,38.64361],[-121.36712,38.644],[-121.3663,38.64476],[-121.36516,38.64377],[-121.36417,38.64457],[-121.36287,38.644],[-121.36474,38.64194],[-121.36767,38.64227],[-121.37687,38.63945],[-121.41528,38.62454],[-121.41528,38.61817],[-121.41969,38.6201],[-121.41992,38.61785],[-121.41993,38.58059],[-121.42169,38.57744],[-121.41534,38.57487],[-121.41123,38.57432],[-121.41145,38.57368],[-121.40523,38.5707],[-121.4052,38.57205],[-121.39657,38.57068],[-121.39747,38.56799],[-121.39929,38.56839],[-121.40011,38.56751],[-121.39931,38.56709],[-121.40022,38.56354],[-121.39872,38.56387],[-121.39836,38.56281],[-121.38285,38.56676],[-121.38203,38.56255],[-121.38200222894558,38.56251198058252],[-121.3828,38.5668],[-121.3587,38.5711],[-121.343,38.5795],[-121.3295,38.5793],[-121.32912773687877,38.58035951811426],[-121.32914,38.58037],[-121.32694,38.58673],[-121.32846604651162,38.58838651162791],[-121.3308,38.5909],[-121.33080104672898,38.590924423676014],[-121.33164,38.59447],[-121.33109417562724,38.597764097968934],[-121.3311,38.5979],[-121.33100350641418,38.59798333536958],[-121.32796,38.60134],[-121.32474497706421,38.60338842889908],[-121.3245,38.6036],[-121.32329946902655,38.60409433628318],[-121.3228,38.60432],[-121.32262740597878,38.6042606364513],[-121.3171,38.603],[-121.31638390410959,38.60342825342466],[-121.30695,38.60915],[-121.3038855679702,38.61325502793296],[-121.30321865998712,38.614174279477204],[-121.30556327868852,38.618040327868854],[-121.3064,38.6194],[-121.30639477905073,38.61941139116203],[-121.3064,38.61942],[-121.305685,38.62096],[-121.3042,38.6242],[-121.30015217391305,38.62679913043478],[-121.29531,38.62994],[-121.29524892723721,38.6299475309319],[-121.2947,38.6303],[-121.2894,38.6307],[-121.2884,38.6288],[-121.29006164159581,38.62361958796599],[-121.29007,38.62351],[-121.28998147647377,38.623423618171984],[-121.2856,38.6206],[-121.2767661670089,38.62876892083048],[-121.27653,38.62902],[-121.2764256223176,38.62908383312566],[-121.2763,38.6292],[-121.27455289452166,38.63022911692559],[-121.26909,38.63357],[-121.2690446943401,38.63347367319693],[-121.2617,38.6378],[-121.256,38.6385],[-121.2436,38.6333],[-121.2346,38.6324],[-121.225,38.6361],[-121.2072296137339,38.640298497854076],[-121.20635476190476,38.64058333333333],[-121.19681618776671,38.64451098150782],[-121.19473421086145,38.645645994723914],[-121.1926,38.6501],[-121.1893,38.6655],[-121.19050280630961,38.67295739911959],[-121.19089,38.67396],[-121.1907421637744,38.674441415401304],[-121.1908,38.6748],[-121.1905867,38.67494766923077],[-121.1905,38.67523],[-121.18821945578232,38.67658653061225],[-121.1882,38.6766],[-121.18956181818182,38.678253636363635],[-121.19102097711901,38.679989267520504],[-121.19332598455598,38.67880996138996],[-121.20004,38.67533],[-121.19997934031588,38.67809868129676],[-121.2,38.6781],[-121.19990207407407,38.681625333333336],[-121.1999,38.68172],[-121.198968,38.6817],[-121.1976,38.6817],[-121.1975,38.6845],[-121.19621,38.68507638297872],[-121.19279944226366,38.68663653173046],[-121.19270018229167,38.69313805989583],[-121.19263,38.69966],[-121.19438,38.69969],[-121.19437948179272,38.6997],[-121.1944,38.6997],[-121.1937,38.7139],[-121.19364339739701,38.71390443941984],[-121.19364,38.71397],[-121.19288757827235,38.71396371935119],[-121.1886,38.7143],[-121.24301897337342,38.71802903784756],[-121.24444,38.71666],[-121.24437,38.69317],[-121.25297,38.69317],[-121.25301,38.69709],[-121.2537,38.69709],[-121.25367,38.6956],[-121.25805,38.69564],[-121.25805,38.69316],[-121.26228,38.69313],[-121.26217,38.66645],[-121.26319,38.66644],[-121.26304,38.66403],[-121.29768,38.66354],[-121.29924,38.66498],[-121.2994,38.67068],[-121.30874,38.67079],[-121.30915,38.67196],[-121.31109,38.67194],[-121.31135,38.67291],[-121.30976,38.67295],[-121.31004,38.67354],[-121.31255,38.67349],[-121.31263,38.67096],[-121.31553,38.67121],[-121.31522,38.6726],[-121.3179,38.67225],[-121.31984,38.67291],[-121.31982,38.67388],[-121.32427,38.6733],[-121.32466,38.67381],[-121.3275,38.67274],[-121.328,38.67322],[-121.32702,38.67478],[-121.32845,38.67514],[-121.32878,38.67692],[-121.32691,38.6781],[-121.32671,38.68798],[-121.32975,38.68518],[-121.33188,38.68626],[-121.3266,38.6911],[-121.32669,38.70644],[-121.31815,38.71455],[-121.31647,38.71462],[-121.31607,38.71606],[-121.30908177127051,38.72255596399854],[-121.4936,38.7352],[-121.5218,38.7364],[-121.6029,38.7358],[-121.6065,38.7171],[-121.6142,38.709],[-121.6304,38.6976],[-121.6342,38.6898]]],[[[-121.559,38.4996],[-121.55885481250513,38.499215253138594],[-121.55867474264707,38.50155154411754],[-121.559,38.4996]]],[[[-121.55705505780347,38.49444590317919],[-121.557,38.4943],[-121.55662147058824,38.49382617647059],[-121.55698,38.4943],[-121.55705505780347,38.49444590317919]]],[[[-121.55215862491252,38.513342752058996],[-121.54820475126103,38.514589314607846],[-121.55105947976146,38.51404197944423],[-121.55178,38.51386],[-121.5519250501002,38.51370569138277],[-121.55215862491252,38.513342752058996]]],[[[-121.54344455229823,38.47733199203764],[-121.5427,38.4764],[-121.54125868984416,38.475938041616715],[-121.54344455229823,38.47733199203764]]],[[[-121.54054971674597,38.6007929435758],[-121.5391,38.6019],[-121.52897959183673,38.60429693877551],[-121.5348,38.60295],[-121.53481,38.60513],[-121.54053,38.60239],[-121.54054971674597,38.6007929435758]]],[[[-121.5369,38.3478],[-121.5368,38.3453],[-121.5259,38.3386],[-121.521,38.3325],[-121.5211,38.3283],[-121.5183,38.3217],[-121.519,38.3198],[-121.5175,38.3129],[-121.5116,38.3082],[-121.5105,38.2956],[-121.5057,38.2904],[-121.5041,38.2849],[-121.4986,38.2801],[-121.4983,38.2731],[-121.4969,38.2693],[-121.4985,38.2657],[-121.4952,38.2633],[-121.4939,38.2595],[-121.4992,38.2552],[-121.4967,38.2432],[-121.4987,38.2357],[-121.5113,38.2285],[-121.5061,38.2244],[-121.4992,38.2275],[-121.4917,38.2277],[-121.4905,38.233],[-121.4868,38.2358],[-121.4871,38.2399],[-121.4786,38.2462],[-121.4785,38.2511],[-121.4801,38.2536],[-121.4762,38.2578],[-121.4717,38.2598],[-121.461,38.2591],[-121.4504,38.2546],[-121.4449,38.2568],[-121.4399,38.2555],[-121.4373,38.2571],[-121.4321,38.2576],[-121.4261,38.2571],[-121.4225,38.2545],[-121.4068,38.2534],[-121.4025,38.2542],[-121.3994,38.2582],[-121.3988,38.2615],[-121.3887,38.2707],[-121.39,38.2745],[-121.381,38.2806],[-121.3822,38.2843],[-121.3797,38.2946],[-121.3829,38.2998],[-121.3824,38.3019],[-121.3743,38.3144],[-121.3708,38.3172],[-121.3709,38.3206],[-121.3674,38.3237],[-121.3659,38.3278],[-121.3591,38.3343],[-121.3529,38.3376],[-121.3529,38.3401],[-121.3514,38.3417],[-121.3516,38.3465],[-121.3477,38.354],[-121.3437,38.3577],[-121.35788990123737,38.37214711999092],[-121.35852,38.37276],[-121.41758,38.37226],[-121.41738,38.3795],[-121.44532,38.3793],[-121.44529,38.37207],[-121.45012,38.37196],[-121.45044,38.3792],[-121.45116,38.37924],[-121.45462,38.40875],[-121.45981,38.40806],[-121.46518,38.4044],[-121.46282,38.40193],[-121.46981,38.395],[-121.46985,38.39361],[-121.47252,38.39211],[-121.47309,38.3948],[-121.47405,38.39519],[-121.48095,38.39424],[-121.48847,38.43052],[-121.45719,38.43058],[-121.45762,38.4342],[-121.4463,38.43417],[-121.44499,38.44148],[-121.44467,38.44946],[-121.44547,38.4551],[-121.4487,38.45531],[-121.44865,38.45239],[-121.45435,38.45231],[-121.4521,38.45729],[-121.44591,38.45731],[-121.44636,38.45964],[-121.45099,38.45969],[-121.45066,38.4604],[-121.45704,38.46218],[-121.46046,38.46141],[-121.46067,38.46334],[-121.46151,38.46357],[-121.46067,38.45882],[-121.46442,38.45978],[-121.47484,38.45981],[-121.47777,38.45841],[-121.47733,38.45635],[-121.47902,38.4563],[-121.48253,38.45622],[-121.48252,38.45782],[-121.49307,38.45643],[-121.49379,38.45866],[-121.49969,38.45772],[-121.50012,38.45932],[-121.50115,38.45914],[-121.50178,38.46152],[-121.50062,38.4617],[-121.50079,38.46234],[-121.50188,38.46225],[-121.5011,38.46451],[-121.50141,38.46578],[-121.50283,38.46555],[-121.50322,38.46974],[-121.50509,38.46956],[-121.50608904581296,38.470418967960875],[-121.5041,38.4666],[-121.5015,38.4539],[-121.5019,38.4429],[-121.5066,38.4373],[-121.5154,38.4345],[-121.5284,38.4345],[-121.5326,38.4315],[-121.5318,38.4282],[-121.5165,38.4072],[-121.5131,38.396],[-121.5148,38.3872],[-121.5243,38.379],[-121.521,38.3669],[-121.521,38.3612],[-121.5369,38.3478]]],[[[-121.53676910532279,38.51678186326518],[-121.53398270509977,38.517078928876],[-121.53641426514191,38.51684989653294],[-121.53676910532279,38.51678186326518]]],[[[-121.53550935456832,38.47409530595138],[-121.5349,38.4739],[-121.53470476512908,38.473903944138804],[-121.53550935456832,38.47409530595138]]],[[[-121.5306,38.5276],[-121.52445610047846,38.52164514354066],[-121.52456,38.52201],[-121.5306,38.5276]]],[[[-121.529095839571,38.517599930733994],[-121.52872,38.51764],[-121.52575,38.51862],[-121.52546659895559,38.51894888516265],[-121.52582663234512,38.51887985620451],[-121.529095839571,38.517599930733994]]],[[[-121.52768224790549,38.60459716563197],[-121.52768208031233,38.604597138873395],[-121.52767,38.6046],[-121.52768224790549,38.60459716563197]]],[[[-121.52480403341289,38.519717788385044],[-121.52413,38.5205],[-121.52424294856235,38.52089663332357],[-121.52480403341289,38.519717788385044]]],[[[-121.51477190358902,38.47418806122449],[-121.5076445568025,38.4717563782032],[-121.50887,38.47281],[-121.51477190358902,38.47418806122449]]],[[[-121.50272,38.64196],[-121.49323,38.64198],[-121.4932,38.63773],[-121.48832,38.63943],[-121.47781,38.64079],[-121.47756,38.64309],[-121.47555,38.64554],[-121.47501,38.64957],[-121.47639,38.65655],[-121.49327,38.65623],[-121.49314,38.64943],[-121.5027,38.64931],[-121.50272,38.64196]]],[[[-121.47755,38.51769],[-121.47223,38.50059],[-121.46778,38.5006],[-121.46589,38.5016],[-121.46584,38.50317],[-121.46452,38.50317],[-121.4645,38.50026],[-121.46155,38.50028],[-121.4541,38.48517],[-121.44723,38.48517],[-121.44721,38.48376],[-121.44073,38.48491],[-121.44071,38.48156],[-121.43076,38.48162],[-121.42643,38.47753],[-121.42044,38.4775],[-121.41893215887089,38.47430065865174],[-121.4087,38.4744],[-121.4088,38.4817],[-121.2977,38.4816],[-121.2976,38.4703],[-121.2917,38.4752],[-121.2912,38.4772],[-121.2861,38.4786],[-121.2852,38.4802],[-121.2829,38.4801],[-121.2845,38.4833],[-121.2794,38.4851],[-121.2789,38.4863],[-121.2716,38.485],[-121.268,38.483],[-121.2654,38.4833],[-121.2649,38.4851],[-121.2608,38.4851],[-121.261,38.5099],[-121.371,38.5388],[-121.3726,38.5503],[-121.38187451752488,38.562337139766335],[-121.37512,38.55309],[-121.37879,38.551],[-121.37886,38.54707],[-121.38635,38.54704],[-121.38631,38.5431],[-121.37095,38.53876],[-121.37029,38.52524],[-121.36842,38.52525],[-121.3684,38.52394],[-121.36742,38.52396],[-121.36736,38.5221],[-121.36986,38.52209],[-121.36989,38.51924],[-121.3679,38.51924],[-121.3679,38.51814],[-121.36277,38.51815],[-121.36274,38.51395],[-121.36994,38.51393],[-121.36993,38.5116],[-121.3687,38.51161],[-121.36848,38.51072],[-121.37012,38.51071],[-121.37203,38.50675],[-121.3722,38.50344],[-121.37548,38.50342],[-121.37548,38.50403],[-121.39055,38.50339],[-121.39055,38.5007],[-121.39515,38.50067],[-121.39521,38.50338],[-121.40904,38.50348],[-121.40898,38.49968],[-121.41535,38.49965],[-121.41595,38.50324],[-121.42281,38.50329],[-121.4229,38.50421],[-121.42528,38.50466],[-121.42971,38.504],[-121.43228,38.50489],[-121.4332,38.50478],[-121.43245,38.50324],[-121.43704,38.50321],[-121.43685,38.51049],[-121.44514,38.51046],[-121.4452,38.51209],[-121.44146,38.51214],[-121.44156,38.51768],[-121.43923,38.5177],[-121.44197,38.52363],[-121.44438,38.52362],[-121.4444,38.52496],[-121.45277,38.52492],[-121.4528,38.52896],[-121.45333,38.52976],[-121.45572,38.52976],[-121.45572,38.53059],[-121.45281,38.53056],[-121.45362,38.53218],[-121.45544,38.53219],[-121.45545,38.5337],[-121.45337,38.5337],[-121.45336,38.53218],[-121.44594,38.5322],[-121.44971,38.53942],[-121.46009,38.53945],[-121.46009,38.53403],[-121.46471,38.53346],[-121.4647,38.53214],[-121.46232,38.53214],[-121.46232,38.52569],[-121.46163,38.52569],[-121.46164,38.52491],[-121.46585,38.52494],[-121.46532,38.52395],[-121.4669,38.52326],[-121.4665,38.52251],[-121.46878,38.52248],[-121.46941,38.52467],[-121.47175,38.52489],[-121.47094,38.5215],[-121.46637,38.5215],[-121.46585,38.52053],[-121.46681,38.5196],[-121.46532,38.51871],[-121.46592,38.51764],[-121.47755,38.51769]]],[[[-121.43615,38.43793],[-121.40194662472449,38.43778055326853],[-121.4032842525852,38.44064505537538],[-121.40314,38.44025],[-121.40348,38.43789],[-121.43615,38.43793]]]]}},{"type":"Feature","properties":{"GEOID":"0606791010","NAME":"Folsom","COUNTY":"067"},"geometry":{"type":"MultiPolygon","coordinates":[[[[-121.20645085324232,38.64055204778157],[-121.20056,38.64247],[-121.19465705882352,38.645688055028465],[-121.20645085324232,38.64055204778157]]],[[[-121.2,38.6781],[-121.19997934031588,38.67809868129676],[-121.19990207407407,38.681625333333336],[-121.2,38.6781]]],[[[-121.198968,38.6817],[-121.19757,38.68167],[-121.19747,38.6845],[-121.19621,38.68507638297872],[-121.1975,38.6845],[-121.1976,38.6817],[-121.198968,38.6817]]],[[[-121.1968259049926,38.639951007939715],[-121.18233127046497,38.64178502292076],[-121.19675,38.64004],[-121.1968259049926,38.639951007939715]]],[[[-121.1944,38.6997],[-121.19437948179272,38.6997],[-121.1941216152019,38.70467612826603],[-121.1944,38.6997]]],[[[-121.19439150178262,38.64583282644754],[-121.19436,38.64585],[-121.19256,38.6501],[-121.18925,38.66552],[-121.18938,38.67005],[-121.19089,38.67396],[-121.19086836024844,38.6740304679089],[-121.1909,38.674],[-121.1893,38.6655],[-121.19439150178262,38.64583282644754]]],[[[-121.19360169620873,38.71396968026885],[-121.19295421203871,38.71396427555959],[-121.1936,38.714],[-121.19360169620873,38.71396968026885]]],[[[-121.19332598455598,38.67880996138996],[-121.19102097711901,38.679989267520504],[-121.19103,38.68],[-121.19332598455598,38.67880996138996]]],[[[-121.19279944226366,38.68663653173046],[-121.19277,38.68665],[-121.19270018229167,38.69313805989583],[-121.19279944226366,38.68663653173046]]],[[[-121.18956181818182,38.678253636363635],[-121.1882,38.6766],[-121.18820515177796,38.67659503902862],[-121.18818,38.67661],[-121.18956181818182,38.678253636363635]]],[[[-121.1748308130499,38.642692763791665],[-121.16201184929139,38.642348167991706],[-121.17411,38.64278],[-121.1748308130499,38.642692763791665]]],[[[-121.15648743054028,38.6421509791071],[-121.1558496969697,38.639663818181816],[-121.15646,38.64215],[-121.15648743054028,38.6421509791071]]],[[[-121.15305509090909,38.63566333333333],[-121.1504,38.6328],[-121.1505,38.6146],[-121.15047506589384,38.6146069635792],[-121.15035,38.63278],[-121.15305509090909,38.63566333333333]]],[[[-121.1473385292269,38.711440854808295],[-121.14662,38.71139],[-121.145945,38.71151182926829],[-121.1466,38.7114],[-121.1473385292269,38.711440854808295]]],[[[-121.14217,38.616926396396394],[-121.14090736771324,38.617279023431436],[-121.14217,38.61715],[-121.14217,38.616926396396394]]],[[[-121.13884957664602,38.70947012511058],[-121.13855,38.70847],[-121.13657666106536,38.707832648294406],[-121.13884957664602,38.70947012511058]]],[[[-121.13319469802458,38.705402939138544],[-121.13316,38.70537],[-121.13075,38.70638],[-121.13029915095183,38.70700807936366],[-121.13319469802458,38.705402939138544]]],[[[-121.1241127537342,38.71043749521256],[-121.12403,38.71047],[-121.12401447815114,38.71049197406839],[-121.1241127537342,38.71043749521256]]],[[[-121.1234870967742,38.71123858064516],[-121.12148,38.71408],[-121.11926,38.71498],[-121.11915952941176,38.71635788235294],[-121.1193,38.715],[-121.1215,38.7141],[-121.1234870967742,38.71123858064516]]],[[[-121.12248218469342,38.61916686259884],[-121.1221,38.6192],[-121.11746775384616,38.62109846153846],[-121.12248218469342,38.61916686259884]]],[[[-121.11901226838921,38.71778140557098],[-121.11651773200532,38.712585320414405],[-121.119,38.7179],[-121.11901226838921,38.71778140557098]]],[[[-121.11437233428528,38.62203867578536],[-121.08389190346274,38.6283808772298],[-121.08924,38.62785],[-121.11437233428528,38.62203867578536]]],[[[-121.07966591764766,38.63368345088289],[-121.0793331780822,38.63286682191781],[-121.0793,38.6329],[-121.07966591764766,38.63368345088289]]]]}},{"type":"Feature","properties":{"GEOID":"0606792555","NAME":"Rancho Cordova","COUNTY":"067"},"geometry":{"type":"MultiPolygon","coordinates":[[[[-121.3828,38.5668],[-121.38200222894558,38.56251198058252],[-121.38187451752488,38.562337139766335],[-121.3726,38.5503],[-121.371,38.5388],[-121.2611,38.5099],[-121.2612,38.528],[-121.2522,38.5256],[-121.2427,38.5256],[-121.2425,38.5058],[-121.2424603549678,38.505791947102836],[-121.24298,38.55256],[-121.24381,38.55254],[-121.24487,38.5542],[-121.24953,38.55758],[-121.2536,38.55876],[-121.25408,38.56052],[-121.25944,38.56793],[-121.27008,38.56786],[-121.27141,38.56924],[-121.27387,38.56782],[-121.28595,38.56724],[-121.28655,38.56663],[-121.29081,38.56698],[-121.29069,38.56563],[-121.29456,38.56542],[-121.29462,38.56603],[-121.30031,38.56571],[-121.30038,38.56648],[-121.30528,38.56643],[-121.30501,38.56763],[-121.31948,38.55994],[-121.32787,38.55739],[-121.3362,38.55675],[-121.33647,38.57247],[-121.32736,38.57701],[-121.32735,38.57884],[-121.32912773687877,38.58035951811426],[-121.3295,38.5793],[-121.343,38.5795],[-121.3587,38.5711],[-121.3828,38.5668]]],[[[-121.3311,38.5979],[-121.33109417562724,38.597764097968934],[-121.33107,38.59791],[-121.33100350641418,38.59798333536958],[-121.3311,38.5979]]],[[[-121.33080104672898,38.590924423676014],[-121.3308,38.5909],[-121.32846604651162,38.58838651162791],[-121.3308,38.59092],[-121.33080104672898,38.590924423676014]]],[[[-121.32474497706421,38.60338842889908],[-121.32446,38.60357],[-121.32329946902655,38.60409433628318],[-121.3245,38.6036],[-121.32474497706421,38.60338842889908]]],[[[-121.32262740597878,38.6042606364513],[-121.31809,38.6027],[-121.31709,38.603],[-121.31638390410959,38.60342825342466],[-121.3171,38.603],[-121.32262740597878,38.6042606364513]]],[[[-121.3064,38.6194],[-121.30556327868852,38.618040327868854],[-121.30639477905073,38.61941139116203],[-121.3064,38.6194]]],[[[-121.305685,38.62096],[-121.30419,38.62418],[-121.30015217391305,38.62679913043478],[-121.3042,38.6242],[-121.305685,38.62096]]],[[[-121.3038855679702,38.61325502793296],[-121.30321,38.61416],[-121.30321865998712,38.614174279477204],[-121.3038855679702,38.61325502793296]]],[[[-121.29524892723721,38.6299475309319],[-121.28939,38.63067],[-121.28845,38.6288],[-121.28989,38.62587],[-121.29006164159581,38.62361958796599],[-121.2884,38.6288],[-121.2894,38.6307],[-121.2947,38.6303],[-121.29524892723721,38.6299475309319]]],[[[-121.28998147647377,38.623423618171984],[-121.28759,38.62109],[-121.28557,38.62059],[-121.28334,38.62178],[-121.2767661670089,38.62876892083048],[-121.2856,38.6206],[-121.28998147647377,38.623423618171984]]],[[[-121.2764256223176,38.62908383312566],[-121.27455289452166,38.63022911692559],[-121.2763,38.6292],[-121.2764256223176,38.62908383312566]]],[[[-121.2690446943401,38.63347367319693],[-121.26584,38.62666],[-121.26815,38.61837],[-121.26639,38.61859],[-121.26456,38.61135],[-121.22841,38.625],[-121.21713,38.63093],[-121.20987,38.62066],[-121.21183,38.61991],[-121.21429,38.62265],[-121.21854,38.62182],[-121.21738,38.62069],[-121.22171,38.62004],[-121.22175,38.62118],[-121.23426,38.62061],[-121.23287,38.61799],[-121.23187,38.61052],[-121.23432,38.61047],[-121.23413,38.60443],[-121.23599,38.60441],[-121.23595,38.60294],[-121.23415,38.60295],[-121.2342,38.60017],[-121.23934,38.59989],[-121.24245,38.59865],[-121.24256,38.59274],[-121.2463,38.59192],[-121.20417,38.59328],[-121.2041,38.58257],[-121.20249,38.58257],[-121.20241,38.57845],[-121.20082,38.57846],[-121.19904,38.58263],[-121.18625,38.58273],[-121.18739,38.58113],[-121.18739000352096,38.581113962024446],[-121.1753,38.598],[-121.1787,38.603],[-121.1505,38.6146],[-121.15040036239971,38.63283368085241],[-121.15551,38.63828],[-121.1558496969697,38.639663818181816],[-121.15648743054028,38.6421509791071],[-121.17345827058422,38.642756737137],[-121.19684114080673,38.639933145261075],[-121.20052,38.63562],[-121.20335,38.63389],[-121.20873,38.63187],[-121.21014,38.6346],[-121.2066,38.6366],[-121.20756,38.63705],[-121.20744,38.64023],[-121.2072296137339,38.640298497854076],[-121.225,38.6361],[-121.2346,38.6324],[-121.2436,38.6333],[-121.256,38.6385],[-121.2617,38.6378],[-121.2690446943401,38.63347367319693]]],[[[-121.22970833876221,38.50320169381107],[-121.2233,38.5019],[-121.22328556834383,38.50191312340405],[-121.22970833876221,38.50320169381107]]],[[[-121.18884656970148,38.53323017316098],[-121.188,38.534],[-121.18799212556108,38.534618143454765],[-121.18884656970148,38.53323017316098]]]]}}]}