{"type":"FeatureCollection","features":[{"type":"Feature","geometry":{"type":"Polygon","coordinates":[[[-117.0831,35.2726],[-117.0823,35.2],[-117.0454,35.1989],[-116.9586,35.1993],[-116.9584,35.1848],[-116.9445,35.1845],[-116.9418,35.1778],[-116.9383,35.1579],[-116.9382,35.1531],[-116.9404,35.1474],[-116.9397,35.1458],[-116.9367,35.1474],[-116.9336,35.1451],[-116.9165,35.1433],[-116.8981,35.1363],[-116.8947,35.1381],[-116.8866,35.1378],[-116.8813,35.1358],[-116.8701,35.1357],[-116.8642,35.137],[-116.8616,35.1308],[-116.856,35.1226],[-116.8478,35.1154],[-116.8365,35.1118],[-116.8247,35.1038],[-116.8072,35.0966],[-116.7933,35.095],[-116.7916,35.0928],[-116.7917,35.0897],[-116.7894,35.089],[-116.7936,35.0841],[-116.8043,35.0774],[-116.8045,35.0733],[-116.7946,35.069],[-116.7891,35.0638],[-116.7877,35.0599],[-116.7738,35.0522],[-116.7679,35.0444],[-116.7633,35.0342],[-116.7656,35.0151],[-116.768,35.0063],[-116.7641,34.9748],[-116.7678,34.9652],[-116.7665,34.9626],[-116.7607,34.9589],[-116.749,34.9468],[-116.7474,34.9394],[-116.7508,34.9278],[-116.7628,34.9186],[-116.7628,34.9168],[-116.7604,34.9155],[-116.772,34.8961],[-116.7781,34.897],[-116.7861,34.8964],[-116.7908,34.8946],[-116.8018,34.8938],[-116.8163,34.8898],[-116.8201,34.885],[-116.8248,34.8819],[-116.8344,34.8787],[-116.864,34.8802],[-116.8793,34.8626],[-116.8663,34.8603],[-116.8663,34.8595],[-116.874,34.8533],[-116.8799,34.8524],[-116.8736,34.851],[-116.8479,34.8237],[-116.8426,34.8043],[-116.8419,34.7837],[-116.8285,34.7675],[-116.8181,34.7593],[-116.8187,34.755],[-116.821,34.7549],[-116.8225,34.7533],[-116.8247,34.7474],[-116.8219,34.7385],[-116.812,34.7315],[-116.7875,34.7217],[-116.7352,34.687],[-116.7336,34.6831],[-116.7306,34.68],[-116.7074,34.6725],[-116.7156,34.6535],[-116.7258,34.639],[-116.7317,34.6247],[-116.7423,34.6081],[-116.7478,34.6056],[-116.7067,34.6074],[-116.6838,34.6141],[-116.6178,34.6148],[-116.6041,34.6208],[-116.5634,34.6516],[-116.5062,34.6797],[-116.5059,34.6811],[-116.5033,34.68],[-116.5015,34.6821],[-116.5003,34.6818],[-116.4925,34.6898],[-116.4916,34.6889],[-116.4885,34.6915],[-116.4896,34.6925],[-116.4648,34.7134],[-116.4218,34.7343],[-116.3468,34.7343],[-116.3466,34.7199],[-116.3294,34.72],[-116.3289,34.6906],[-116.2064,34.6907],[-116.2063,34.6758],[-116.1892,34.6757],[-116.1892,34.6612],[-116.2063,34.6612],[-116.2062,34.6469],[-116.1892,34.6468],[-116.1891,34.6379],[-116.1891,34.6328],[-116.2062,34.6329],[-116.2061,34.6184],[-116.189,34.6184],[-116.1889,34.6047],[-115.9891,34.6036],[-115.9903,34.56],[-115.884,34.5604],[-115.884,34.5592],[-115.879,34.5594],[-115.8818,34.5705],[-115.8817,34.583],[-115.8773,34.5831],[-115.8792,34.5835],[-115.8777,34.586],[-115.6479,34.5308],[-115.4721,34.5179],[-115.4585,34.5229],[-115.4492,34.5287],[-115.4364,34.5389],[-115.4252,34.5449],[-115.4047,34.5639],[-115.3835,34.5808],[-115.3542,34.6248],[-115.34,34.6423],[-115.3227,34.6685],[-115.311,34.683],[-115.2998,34.6916],[-115.2814,34.7023],[-115.2405,34.7363],[-115.2269,34.7455],[-115.2176,34.758],[-115.2095,34.7752],[-115.1954,34.7994],[-115.1847,34.8121],[-115.1238,34.8575],[-115.099,34.8865],[-115.0917,34.8987],[-115.0731,34.9145],[-115.0631,34.9196],[-115.054,34.9216],[-114.9625,34.9178],[-114.9303,34.919],[-114.9144,34.9229],[-114.8908,34.932],[-114.8808,34.9332],[-114.8719,34.9359],[-114.8507,34.9377],[-114.8246,34.9429],[-114.8332,34.9682],[-114.8314,35.0256],[-114.8243,35.0374],[-114.8276,35.0467],[-114.83,35.1408],[-114.8464,35.1661],[-114.8493,35.1758],[-114.9947,35.2925],[-115.101,35.3757],[-115.2597,35.5035],[-115.6484,35.8092],[-115.7357,35.8091],[-115.7359,35.7936],[-116.2112,35.7933],[-116.6511,35.7954],[-116.9357,35.7954],[-116.9373,35.7325],[-116.9701,35.7323],[-116.9701,35.7237],[-116.9747,35.7237],[-116.9747,35.7166],[-116.9443,35.7165],[-116.9443,35.7099],[-116.9256,35.71],[-116.927,35.2725],[-117.0831,35.2726]]]},"properties":{"GEOID":"0607192102","NAME":"Newberry Springs-Baker","COUNTY":"071"}},{"type":"Feature","geometry":{"type":"Polygon","coordinates":[[[-116.8597,34.3739],[-116.8581,34.3644],[-116.8547,34.359],[-116.8478,34.3538],[-116.8466,34.3515],[-116.821,34.3515],[-116.8211,34.3555],[-116.7886,34.3558],[-116.7886,34.3412],[-116.7711,34.3412],[-116.7712,34.3228],[-116.7357,34.3228],[-116.7357,34.3083],[-116.7183,34.3083],[-116.7182,34.2936],[-116.6825,34.2934],[-116.6824,34.2794],[-116.6649,34.2793],[-116.6643,34.2356],[-116.6472,34.2356],[-116.6476,34.1781],[-116.6829,34.1771],[-116.6824,34.1487],[-116.6993,34.1485],[-116.6991,34.1343],[-116.7179,34.1341],[-116.7178,34.1196],[-116.7198,34.1195],[-116.7197,34.0338],[-116.6156,34.0326],[-116.3159,34.0325],[-116.3006,34.0325],[-116.3006,34.0344],[-116.1819,34.0336],[-115.9848,34.0351],[-115.5957,34.0354],[-115.3162,34.0341],[-115.3161,34.0778],[-115.1924,34.0778],[-115.1924,34.0794],[-115.1258,34.0798],[-114.8295,34.0796],[-114.9008,34.0976],[-114.934,34.1153],[-114.9214,34.1149],[-114.919,34.117],[-114.9291,34.13],[-114.9326,34.1376],[-114.9296,34.1471],[-114.9492,34.1807],[-114.9563,34.1774],[-114.9723,34.1731],[-114.9822,34.167],[-114.9867,34.1669],[-115.0111,34.1921],[-115.1266,34.2782],[-115.1322,34.2796],[-115.1634,34.2769],[-115.1748,34.2773],[-115.1846,34.2797],[-115.1949,34.2803],[-115.2349,34.3072],[-115.2603,34.3317],[-115.2789,34.3565],[-115.2922,34.3713],[-115.3173,34.3895],[-115.3315,34.4035],[-115.3606,34.4185],[-115.3967,34.4316],[-115.4154,34.441],[-115.4218,34.446],[-115.4307,34.4489],[-115.5074,34.5194],[-115.6479,34.5308],[-115.8777,34.586],[-115.8792,34.5835],[-115.8773,34.5831],[-115.8817,34.583],[-115.8818,34.5705],[-115.879,34.5594],[-115.884,34.5592],[-115.884,34.5604],[-115.9903,34.56],[-115.9891,34.6036],[-116.1889,34.6047],[-116.189,34.6184],[-116.2061,34.6184],[-116.2062,34.6329],[-116.1891,34.6328],[-116.1891,34.6379],[-116.1892,34.6468],[-116.2062,34.6469],[-116.2063,34.6612],[-116.1892,34.6612],[-116.1892,34.6757],[-116.2063,34.6758],[-116.2064,34.6907],[-116.3289,34.6906],[-116.3294,34.72],[-116.3466,34.7199],[-116.3468,34.7343],[-116.4218,34.7343],[-116.4648,34.7134],[-116.4896,34.6925],[-116.4885,34.6915],[-116.4916,34.6889],[-116.4925,34.6898],[-116.5003,34.6818],[-116.5015,34.6821],[-116.5033,34.68],[-116.5059,34.6811],[-116.5062,34.6797],[-116.5634,34.6516],[-116.6041,34.6208],[-116.6178,34.6148],[-116.6838,34.6141],[-116.7067,34.6074],[-116.7489,34.605],[-116.7734,34.5769],[-116.7792,34.5685],[-116.7818,34.5608],[-116.7832,34.5607],[-116.7866,34.5558],[-116.8019,34.545],[-116.8092,34.5425],[-116.8422,34.5137],[-116.858,34.5017],[-116.8584,34.3888],[-116.8597,34.3739]],[[-116.49279,34.11166],[-116.49279,34.11517],[-116.49264,34.13531],[-116.45764,34.13534],[-116.45767,34.16427],[-116.44017,34.1643],[-116.44005,34.1935],[-116.42255,34.19345],[-116.42249,34.17157],[-116.42029,34.17157],[-116.42029,34.16616],[-116.38705,34.16582],[-116.38705,34.16438],[-116.38116,34.16491],[-116.37834,34.16441],[-116.37832,34.1658],[-116.35205,34.16586],[-116.35218,34.14949],[-116.36958,34.14956],[-116.37042,34.12055],[-116.37043,34.07605],[-116.47517,34.07586],[-116.47529,34.10913],[-116.4779,34.10895],[-116.48114,34.10741],[-116.48114,34.11169],[-116.49279,34.11166]],[[-116.1946,34.13535],[-116.19448,34.14964],[-116.17695,34.14954],[-116.17707,34.1642],[-116.10702,34.16434],[-116.10711,34.17477],[-116.10623,34.1752],[-116.09812,34.17521],[-116.09817,34.17157],[-116.09157,34.17159],[-116.09158,34.1657],[-116.09376,34.16566],[-116.09376,34.16431],[-116.07167,34.16443],[-116.07143,34.20826],[-116.0583,34.20834],[-116.05839,34.2278],[-116.0672,34.23707],[-116.07611,34.23706],[-116.07603,34.24442],[-116.08038,34.24446],[-116.0804,34.24802],[-116.08258,34.24812],[-116.08256,34.24448],[-116.09826,34.24437],[-116.09828,34.25181],[-116.06302,34.25185],[-116.04359,34.22312],[-116.04111,34.22316],[-116.0365,34.21617],[-116.03642,34.19412],[-116.00132,34.19427],[-116.00152,34.15088],[-115.98391,34.1509],[-115.98389,34.12178],[-115.97428,34.12181],[-115.97427,34.11853],[-115.97865,34.11852],[-115.97867,34.1155],[-115.98178,34.1155],[-115.98178,34.1164],[-115.98396,34.1164],[-115.984,34.07786],[-116.03657,34.07826],[-116.03672,34.10696],[-116.05441,34.10715],[-116.05436,34.1211],[-116.08902,34.1204],[-116.1944,34.12045],[-116.1946,34.13535]]]},"properties":{"GEOID":"0607193482","NAME":"Twentynine Palms-Yucca Valley","COUNTY":"071"}},{"type":"Feature","geometry":{"type":"MultiPolygon","coordinates":[[[[-117.13896,34.04839],[-117.1389424763292,34.04786136926438],[-117.1386122190189,34.0447689599042],[-117.13665,34.04476],[-117.13665,34.04292],[-117.13841560665063,34.04292795318311],[-117.13802731863873,34.03929216543539],[-117.13797,34.03925],[-117.1380227484705,34.039249372042015],[-117.1379,34.0381],[-117.13818180429033,34.036597043784894],[-117.13456,34.03658],[-117.13453,34.03389],[-117.13761,34.03346],[-117.13719,34.03265],[-117.1264640108108,34.02824608108108],[-117.1257982422452,34.02808290251108],[-117.12475,34.02792],[-117.12323,34.0304],[-117.12323,34.03389],[-117.11279,34.03387],[-117.11277,34.04109],[-117.10662782608695,34.04109],[-117.1119,34.0425],[-117.1186,34.0482],[-117.1384406451613,34.04839451612903],[-117.13896,34.04839]],[[-117.12468,34.04562],[-117.12465,34.04645],[-117.12139,34.04642],[-117.12468,34.04562]]],[[[-117.0649620115067,34.00401002041511],[-117.0649,34.0039],[-117.01119312189653,34.00429636072401],[-117.03446,34.00488],[-117.0649620115067,34.00401002041511]]],[[[-117.0488,34.0784],[-117.04620618686297,34.07705256460414],[-117.00828,34.07721],[-117.00818,34.06288],[-116.9995,34.06309471369675],[-116.9995,34.0773],[-117.0349,34.0775],[-117.0347,34.092],[-117.0415,34.0872],[-117.0429,34.0828],[-117.0488,34.0784]]],[[[-116.9998,34.03351],[-116.99553,34.03347],[-116.99555,34.0298],[-116.99034,34.02966],[-116.99022,34.03321],[-116.98053,34.03285],[-116.98044,34.02584],[-116.99032,34.0261],[-116.99041,34.02242],[-116.98611,34.02228],[-116.98636,34.01868],[-116.98125,34.01852],[-116.98042,34.01007],[-116.97401,34.01012],[-116.97404,34.01188],[-116.96745,34.01192],[-116.96742,34.01905],[-116.96286,34.01916],[-116.96307,34.00481],[-116.97332488364361,34.00457583111702],[-116.9294,34.0049],[-116.9294,34.0497],[-116.9558,34.0496],[-116.9559,34.0569],[-116.9822,34.0563],[-116.9822,34.0637],[-116.98869929354682,34.06336188646288],[-116.98635,34.06342],[-116.98636,34.05627],[-116.99076,34.05601],[-116.99074,34.05275],[-116.9995,34.04894],[-116.9998,34.03351]]]]},"properties":{"GEOID":"0607193850","NAME":"Yucaipa","COUNTY":"071"}},{"type":"Feature","geometry":{"type":"MultiPolygon","coordinates":[[[[-115.5088,34.5199],[-115.5058,34.5184],[-115.4307,34.4489],[-115.4218,34.446],[-115.4154,34.441],[-115.3967,34.4316],[-115.3606,34.4185],[-115.3315,34.4035],[-115.3173,34.3895],[-115.2922,34.3713],[-115.2789,34.3565],[-115.2603,34.3317],[-115.2349,34.3072],[-115.1949,34.2803],[-115.1846,34.2797],[-115.1748,34.2773],[-115.1634,34.2769],[-115.1322,34.2796],[-115.1266,34.2782],[-115.0111,34.1921],[-114.9867,34.1669],[-114.9822,34.167],[-114.9723,34.1731],[-114.9563,34.1774],[-114.9492,34.1807],[-114.9296,34.1471],[-114.9326,34.1376],[-114.9291,34.13],[-114.919,34.117],[-114.9214,34.1149],[-114.934,34.1153],[-114.9019,34.0979],[-114.8354,34.0807],[-114.8295,34.0796],[-114.7513,34.0793],[-114.4354,34.0797],[-114.4334,34.0884],[-114.428,34.0928],[-114.4262,34.097],[-114.4205,34.1035],[-114.4117,34.11],[-114.4013,34.1116],[-114.3906,34.1101],[-114.3792,34.116],[-114.3665,34.1186],[-114.3604,34.1236],[-114.3564,34.1304],[-114.353,34.1331],[-114.3481,34.1345],[-114.3361,34.134],[-114.3208,34.1386],[-114.3122,34.1448],[-114.2928,34.1667],[-114.2873,34.1705],[-114.2753,34.1721],[-114.2685,34.1702],[-114.257,34.1728],[-114.2444,34.1794],[-114.2407,34.1832],[-114.2297,34.1869],[-114.227,34.1889],[-114.2249,34.1939],[-114.2252,34.2036],[-114.2118,34.2115],[-114.1909,34.2309],[-114.1781,34.24],[-114.1764,34.2415],[-114.1746,34.2473],[-114.1661,34.25],[-114.1639,34.2533],[-114.1653,34.2585],[-114.1646,34.2597],[-114.1533,34.2583],[-114.1448,34.2596],[-114.1355,34.2579],[-114.1315,34.2604],[-114.1312,34.2627],[-114.1367,34.2744],[-114.1361,34.2808],[-114.1395,34.2958],[-114.1383,34.3032],[-114.1572,34.3179],[-114.1688,34.3395],[-114.1769,34.3493],[-114.1995,34.3614],[-114.2138,34.3625],[-114.2261,34.3659],[-114.2297,34.3689],[-114.2343,34.3767],[-114.2453,34.3857],[-114.2527,34.3901],[-114.2643,34.4013],[-114.2801,34.4031],[-114.2887,34.4066],[-114.2918,34.4111],[-114.2922,34.4176],[-114.2948,34.4214],[-114.301,34.4268],[-114.3123,34.4327],[-114.3191,34.4358],[-114.3261,34.4373],[-114.3307,34.4453],[-114.3354,34.45],[-114.3426,34.4514],[-114.3737,34.4469],[-114.3867,34.4579],[-114.3872,34.462],[-114.3817,34.476],[-114.383,34.4889],[-114.3824,34.4958],[-114.3781,34.5073],[-114.3782,34.5165],[-114.3808,34.5297],[-114.4052,34.5696],[-114.4224,34.5807],[-114.4368,34.5961],[-114.4253,34.6008],[-114.4243,34.6023],[-114.4242,34.6105],[-114.4387,34.6215],[-114.4414,34.6302],[-114.4403,34.6382],[-114.4415,34.6425],[-114.4495,34.6514],[-114.458,34.6571],[-114.4577,34.6593],[-114.4518,34.6639],[-114.4505,34.6668],[-114.4543,34.6712],[-114.4555,34.6773],[-114.4652,34.6912],[-114.4686,34.7076],[-114.4705,34.7114],[-114.4737,34.714],[-114.4828,34.7145],[-114.4875,34.7166],[-114.492,34.7257],[-114.5166,34.7367],[-114.5296,34.7508],[-114.5403,34.7571],[-114.5527,34.7669],[-114.5587,34.7739],[-114.56164669745958,34.77878720554273],[-114.56154,34.77857],[-114.59162,34.77865],[-114.59143,34.74939],[-114.64404,34.74927],[-114.64456,34.85168],[-114.65235,34.85517],[-114.66224,34.8626],[-114.66229,34.86455],[-114.6621,34.89496],[-114.64503,34.89501],[-114.64456,34.92409],[-114.63325,34.92412],[-114.63324,34.92123],[-114.63070220097318,34.91238072309607],[-114.6333,34.9246],[-114.6298,34.9387],[-114.6298,34.943],[-114.635,34.9589],[-114.6352,34.9651],[-114.6291,34.9861],[-114.6294,34.9918],[-114.6334,35.0018],[-114.8493,35.1758],[-114.8464,35.1661],[-114.83,35.1408],[-114.8276,35.0467],[-114.8243,35.0374],[-114.8314,35.0256],[-114.8332,34.9682],[-114.8246,34.9429],[-114.8507,34.9377],[-114.8719,34.9359],[-114.8808,34.9332],[-114.8908,34.932],[-114.9144,34.9229],[-114.9303,34.919],[-114.9625,34.9178],[-115.054,34.9216],[-115.0629,34.9197],[-115.0719,34.9153],[-115.0917,34.8987],[-115.099,34.8865],[-115.1238,34.8575],[-115.1847,34.8121],[-115.1954,34.7994],[-115.2095,34.7752],[-115.2176,34.758],[-115.2269,34.7455],[-115.2405,34.7363],[-115.2814,34.7023],[-115.2998,34.6916],[-115.311,34.683],[-115.3227,34.6685],[-115.34,34.6423],[-115.3542,34.6248],[-115.3849,34.5796],[-115.4047,34.5639],[-115.4249,34.5451],[-115.4364,34.5389],[-115.4492,34.5287],[-115.4596,34.5224],[-115.4744,34.5176],[-115.5088,34.5199]]],[[[-114.63677,34.88571],[-114.63518,34.875],[-114.6344551109561,34.873288172821205],[-114.63649496001104,34.88765580529509],[-114.63677,34.88571]]],[[[-114.63596466858412,34.89140741927049],[-114.63109179318963,34.90669816619806],[-114.63543,34.89519],[-114.63596466858412,34.89140741927049]]],[[[-114.62306731119311,34.85925853136531],[-114.62192,34.85824],[-114.60065631823164,34.847363231892814],[-114.6007,34.8474],[-114.62306731119311,34.85925853136531]]],[[[-114.61834,34.85233],[-114.61821,34.85154],[-114.61395,34.85141],[-114.61392,34.85315],[-114.61834,34.85318],[-114.61834,34.85233]]]]},"properties":{"GEOID":"0607192080","NAME":"Needles","COUNTY":"071"}},{"type":"Feature","geometry":{"type":"Polygon","coordinates":[[[-117.2417,34.3413],[-117.23,34.3422],[-117.2285,34.3453],[-117.225,34.3391],[-117.2229,34.3429],[-117.2215,34.3434],[-117.2191,34.3413],[-117.2138,34.3426],[-117.2089,34.3406],[-117.1988,34.3437],[-117.1968,34.3428],[-117.1945,34.3453],[-117.1911,34.3423],[-117.1883,34.3431],[-117.186,34.3414],[-117.1812,34.3433],[-117.1799,34.34],[-117.1777,34.339],[-117.1777,34.3423],[-117.1755,34.3435],[-117.1733,34.3412],[-117.1706,34.3417],[-117.1687,34.3387],[-117.1659,34.3388],[-117.1593,34.3352],[-117.1591,34.3339],[-117.1615,34.3316],[-117.1569,34.3266],[-117.1526,34.3265],[-117.1513,34.324],[-117.1486,34.3267],[-117.1462,34.3267],[-117.1432,34.3237],[-117.1452,34.3232],[-117.144,34.3202],[-117.1378,34.3172],[-117.1392,34.3148],[-117.1371,34.3105],[-117.1389,34.3083],[-117.1356,34.3076],[-117.1339,34.3059],[-117.1312,34.3061],[-117.1284,34.3016],[-117.1243,34.3009],[-117.1244,34.2966],[-117.1262,34.2921],[-117.1284,34.2905],[-117.1263,34.2888],[-117.1283,34.2835],[-117.1257,34.2843],[-117.1245,34.282],[-117.1279,34.2813],[-117.1269,34.2747],[-117.1308,34.271],[-117.1274,34.2654],[-117.1256,34.2653],[-117.1257,34.2632],[-117.1272,34.2612],[-117.1354,34.2574],[-117.136,34.2546],[-117.1435,34.2479],[-117.1468,34.2384],[-117.1533,34.237],[-117.1518,34.2357],[-117.1482,34.2357],[-117.147,34.2334],[-117.1635,34.2333],[-117.1661,34.2301],[-117.1655,34.2273],[-117.1636,34.2262],[-117.1648,34.2253],[-117.1644,34.219],[-117.167,34.2151],[-117.1686,34.2093],[-117.171,34.2075],[-117.1709,34.198],[-117.176,34.1914],[-117.1747,34.1882],[-117.182,34.1842],[-117.1839,34.1815],[-117.1853,34.1766],[-117.1813,34.1718],[-117.1829,34.1677],[-117.1815,34.1657],[-117.1836,34.1623],[-117.183,34.1601],[-117.1848,34.1582],[-117.1839,34.156],[-117.1885,34.1523],[-117.18928870573745,34.150131059222005],[-117.17381946236559,34.14990279569893],[-117.1736,34.1499],[-117.1736,34.1428],[-117.1694,34.1426],[-117.16934975438596,34.144408842105264],[-117.16934,34.14615],[-117.16930143404808,34.146148374269],[-117.1693,34.1462],[-117.1651,34.146],[-117.1651,34.145971264637005],[-117.16507,34.14597],[-117.16508,34.14246],[-117.16508,34.13532],[-117.14741723237599,34.13502584856397],[-117.1393,34.1349],[-117.13929989569176,34.13489066441315],[-117.13926,34.13489],[-117.1392,34.12595],[-117.13910010366362,34.11700927789436],[-117.13472,34.11693],[-117.13471947840043,34.11690044269092],[-117.1347,34.1169],[-117.1347,34.11579666666667],[-117.13469,34.11523],[-117.13244,34.11431],[-117.13242,34.11345],[-117.13081285714286,34.1134],[-117.1302,34.1134],[-117.1301997350707,34.113380925091086],[-117.13017,34.11338],[-117.13028,34.11686],[-117.12586,34.11671],[-117.12575,34.10971],[-117.09945,34.10935],[-117.09932,34.10566],[-117.09496,34.1057],[-117.09483,34.09849],[-117.08612,34.09855],[-117.08612,34.09132833091437],[-117.0347,34.092],[-117.0349,34.0775],[-116.9995,34.0773],[-116.9995,34.06309471369675],[-116.98869929354682,34.06336188646288],[-116.9822,34.0637],[-116.9822,34.0563],[-116.9559,34.0569],[-116.9558,34.0496],[-116.9294,34.0497],[-116.9296,34.0341],[-116.7197,34.0338],[-116.7198,34.1195],[-116.7178,34.1196],[-116.7179,34.1341],[-116.6991,34.1343],[-116.6993,34.1485],[-116.6824,34.1487],[-116.6829,34.1771],[-116.6476,34.1781],[-116.6472,34.2356],[-116.6643,34.2356],[-116.6649,34.2793],[-116.6824,34.2794],[-116.6825,34.2934],[-116.7182,34.2936],[-116.7183,34.3083],[-116.7357,34.3083],[-116.7357,34.3228],[-116.7712,34.3228],[-116.7711,34.3412],[-116.7886,34.3412],[-116.7886,34.3558],[-116.8211,34.3555],[-116.821,34.3515],[-116.8317,34.3513],[-116.9075,34.3516],[-116.9452,34.3533],[-116.9612,34.3522],[-116.96,34.3664],[-117.104,34.3677],[-117.1041,34.3526],[-117.2415,34.3535],[-117.2417,34.3413]],[[-116.96229,34.23773],[-116.96227,34.23924],[-116.9612,34.23925],[-116.961,34.24234],[-116.95954,34.24203],[-116.95912,34.23995],[-116.95681,34.24055],[-116.95554,34.23915],[-116.95415,34.23894],[-116.95395,34.23785],[-116.95246,34.23874],[-116.95325,34.23768],[-116.95072,34.23791],[-116.95101,34.23837],[-116.94949,34.23889],[-116.9507,34.23971],[-116.95051,34.24051],[-116.95346,34.24195],[-116.95428,34.24353],[-116.95674,34.24511],[-116.95409,34.24578],[-116.95339,34.24503],[-116.95108,34.24553],[-116.95007,34.24478],[-116.94802,34.24715],[-116.94655,34.24745],[-116.94253,34.24564],[-116.94339,34.24404],[-116.94263,34.24368],[-116.94312,34.24232],[-116.94253,34.24202],[-116.94149,34.24331],[-116.9419,34.24086],[-116.94059,34.24069],[-116.94051,34.23986],[-116.93734,34.24062],[-116.93624,34.23985],[-116.93666,34.24135],[-116.93543,34.24189],[-116.9348,34.24345],[-116.93327,34.24343],[-116.93575,34.2447],[-116.93719,34.24426],[-116.93715,34.24576],[-116.93605,34.24677],[-116.93812,34.24684],[-116.94236,34.25018],[-116.94245,34.25094],[-116.94131,34.25084],[-116.94078,34.25238],[-116.93844,34.25179],[-116.93776,34.24998],[-116.9327,34.24987],[-116.93247,34.24837],[-116.93121,34.24972],[-116.92833,34.24763],[-116.92964,34.24947],[-116.9319,34.25068],[-116.92824,34.25074],[-116.92604,34.24971],[-116.92665,34.24845],[-116.92496,34.2475],[-116.92372,34.24531],[-116.92122,34.24698],[-116.92233,34.24445],[-116.92008,34.24424],[-116.91982,34.24326],[-116.91835,34.24346],[-116.91789,34.24439],[-116.91777,34.24341],[-116.91756,34.24438],[-116.91489,34.2448],[-116.91386,34.24409],[-116.91206,34.2448],[-116.912,34.24713],[-116.90777,34.24728],[-116.90625,34.24571],[-116.90359,34.24752],[-116.9013,34.24798],[-116.90269,34.2508],[-116.90529,34.25303],[-116.90382,34.25453],[-116.90243,34.25436],[-116.90138,34.25264],[-116.89946,34.25166],[-116.89513,34.25334],[-116.89435,34.25257],[-116.89055,34.25331],[-116.88847,34.256],[-116.88669,34.25592],[-116.88497,34.25731],[-116.88321,34.25708],[-116.88157,34.25804],[-116.88158,34.26104],[-116.87871,34.26337],[-116.87466,34.26294],[-116.87222,34.26478],[-116.86616,34.26482],[-116.86609,34.25389],[-116.86723,34.2539],[-116.86724,34.25168],[-116.86721,34.25041],[-116.86618,34.25028],[-116.86799,34.25032],[-116.86786,34.24935],[-116.86851,34.24938],[-116.86896,34.24312],[-116.86799,34.2423],[-116.86388,34.24202],[-116.8637,34.24097],[-116.86138,34.24127],[-116.85856,34.23866],[-116.85812,34.23734],[-116.8548,34.23718],[-116.85379,34.23591],[-116.85237,34.23602],[-116.84847,34.23332],[-116.84746,34.23371],[-116.84447,34.23149],[-116.8425,34.22848],[-116.8486,34.22849],[-116.84859,34.22484],[-116.86605,34.22496],[-116.86621,34.23578],[-116.90982,34.23631],[-116.90975,34.23269],[-116.91848,34.23279],[-116.91854,34.23637],[-116.93583,34.23647],[-116.93588,34.23408],[-116.94467,34.23399],[-116.94476,34.23657],[-116.96163,34.237],[-116.96229,34.23773]],[[-116.9532,34.23132],[-116.9532,34.23173],[-116.9527,34.23131],[-116.9532,34.23132]],[[-116.95165,34.23931],[-116.95151,34.23915],[-116.95162,34.23915],[-116.95165,34.23931]],[[-116.95139,34.23951],[-116.95103,34.23952],[-116.95114,34.23924],[-116.95139,34.23951]],[[-116.94054,34.2708],[-116.9402,34.27036],[-116.94029,34.27037],[-116.94054,34.2708]],[[-116.93859,34.26559],[-116.93859,34.26566],[-116.93843,34.26559],[-116.93859,34.26559]],[[-116.86651,34.24845],[-116.86636,34.24822],[-116.86628,34.24806],[-116.86651,34.24845]],[[-116.84937,34.23875],[-116.84891,34.23842],[-116.84914,34.23837],[-116.84937,34.23875]],[[-116.83892,34.24342],[-116.83882,34.24314],[-116.83891,34.24314],[-116.83892,34.24342]],[[-116.83599,34.23579],[-116.83599,34.23593],[-116.83568,34.23579],[-116.83599,34.23579]],[[-116.82513,34.24182],[-116.82513,34.24196],[-116.8247,34.24182],[-116.82513,34.24182]],[[-116.82318,34.2428],[-116.82318,34.24314],[-116.82283,34.2428],[-116.82318,34.2428]],[[-116.80807,34.24813],[-116.80717,34.2482],[-116.8074,34.24682],[-116.80806,34.24682],[-116.80807,34.24813]],[[-116.79056,34.24443],[-116.79016,34.24453],[-116.79036,34.24439],[-116.79056,34.24443]],[[-116.77884,34.23388],[-116.77884,34.23429],[-116.77852,34.23388],[-116.77884,34.23388]],[[-116.77312,34.22926],[-116.77285,34.22888],[-116.77308,34.22886],[-116.77312,34.22926]],[[-116.77078,34.23108],[-116.77078,34.23126],[-116.77024,34.23107],[-116.77078,34.23108]],[[-116.77065,34.23217],[-116.77022,34.23235],[-116.77022,34.23213],[-116.77065,34.23217]]]},"properties":{"GEOID":"0607190220","NAME":"Big Bear","COUNTY":"071"}},{"type":"Feature","geometry":{"type":"MultiPolygon","coordinates":[[[[-117.6673,34.7328],[-117.6671,34.5579],[-117.6604,34.5579],[-117.6598,34.4528],[-117.6552,34.397],[-117.6421,34.3973],[-117.642,34.39],[-117.6248,34.3899],[-117.6246,34.3828],[-117.4854,34.3834],[-117.4856,34.3686],[-117.4512,34.3685],[-117.4511,34.3542],[-117.43584666666666,34.3542],[-117.44062,34.35422],[-117.43783,34.35788],[-117.43783,34.36337],[-117.43564,34.36342],[-117.43564,34.36436],[-117.43343,34.36516],[-117.43344,34.36903],[-117.42817,34.36896],[-117.42714,34.37075],[-117.42761,34.37243],[-117.42914,34.37247],[-117.4292,34.37576],[-117.42497,34.37585],[-117.42519,34.38759],[-117.42016,34.38846],[-117.42022,34.39031],[-117.42243,34.39032],[-117.42246,34.39127],[-117.42529,34.3913],[-117.42535,34.39397],[-117.42105,34.39392],[-117.4211,34.39575],[-117.4254,34.39572],[-117.42549,34.39754],[-117.41697,34.39756],[-117.41708,34.40494],[-117.40817,34.40499],[-117.40811,34.42672],[-117.41776,34.4267],[-117.41212,34.43404],[-117.41038,34.43401],[-117.41083,34.43583],[-117.40413512314379,34.445278095445],[-117.41712,34.45117],[-117.41714,34.4558],[-117.40848,34.45583],[-117.40838,34.46303],[-117.43459,34.46324],[-117.43478,34.47755],[-117.46864,34.47767],[-117.46872,34.48413],[-117.46825,34.48507],[-117.45095,34.48478],[-117.45101,34.50649],[-117.39954,34.50668],[-117.48626,34.50698],[-117.48629,34.51788],[-117.47533,34.51774],[-117.47534,34.52138],[-117.45981,34.52113],[-117.45986,34.51757],[-117.43466,34.51755],[-117.43474,34.52848],[-117.40816,34.52852],[-117.40819,34.53585],[-117.4643,34.53584],[-117.46426,34.52855],[-117.50361,34.52876],[-117.50369,34.5575],[-117.50733,34.55751],[-117.50738,34.5795],[-117.48521,34.57959],[-117.48511,34.58686],[-117.47147,34.58714],[-117.47203,34.6164],[-117.4809,34.61639],[-117.48094,34.63108],[-117.48977,34.63114],[-117.48923,34.66038],[-117.43629,34.66033],[-117.43606,34.62333],[-117.41839,34.62297],[-117.40077,34.62311],[-117.40077,34.65992],[-117.36147,34.65981],[-117.35979,34.64931],[-117.36025,34.64776],[-117.35914,34.64519],[-117.36302208445358,34.64519826980864],[-117.35658,34.64516],[-117.35642,34.62654],[-117.35317,34.60844],[-117.35105,34.60847],[-117.34943,34.60115],[-117.33888,34.58637],[-117.33888992104833,34.58514971105557],[-117.33443,34.58506],[-117.33443,34.58431],[-117.34438,34.58397],[-117.33448,34.58388],[-117.33442,34.57643],[-117.33248,34.57469],[-117.32311,34.57427],[-117.32854,34.57703],[-117.33205,34.58227],[-117.33132,34.58743],[-117.33262,34.59331],[-117.33195,34.59364],[-117.32573,34.59363],[-117.32583,34.58632],[-117.26874,34.58632],[-117.26869365637629,34.58074949642977],[-117.26016,34.5904],[-117.22885,34.63013],[-117.21637,34.64744],[-117.21508,34.64545],[-117.1718,34.6452],[-117.17181,34.61582],[-117.15425,34.61584],[-117.15417,34.60487],[-117.15419,34.60105],[-117.16293,34.60103],[-117.16285,34.59367],[-117.17158,34.59365],[-117.17144,34.57161],[-117.15376,34.57156],[-117.1539,34.55681],[-117.1557,34.55682],[-117.15563,34.55319],[-117.15073,34.55317],[-117.15072,34.55164],[-117.15562,34.55158],[-117.15519,34.46461],[-117.17269,34.46444],[-117.17258,34.43544],[-117.18998,34.43527],[-117.18994,34.42805],[-117.20744,34.42803],[-117.20762,34.44255],[-117.22305,34.44246],[-117.23171,34.44232],[-117.23174,34.44051],[-117.22951,34.44052],[-117.22949,34.43689],[-117.23385,34.43685],[-117.23384,34.43503],[-117.24199,34.43494],[-117.23821,34.43498],[-117.23775,34.40591],[-117.2418,34.40585],[-117.24154,34.36961],[-117.26347,34.3692],[-117.26341,34.35834],[-117.25466,34.35845],[-117.25464,34.35473],[-117.25354,34.35478],[-117.25349,34.35042],[-117.248,34.35053],[-117.24803,34.3474],[-117.24899,34.34595],[-117.25012,34.34525],[-117.25088,34.3461],[-117.25307,34.34408],[-117.26327,34.34395],[-117.26328,34.34467],[-117.26492,34.34465],[-117.26492,34.34392],[-117.27199,34.34382],[-117.27197,34.34026],[-117.2851,34.34012],[-117.28507,34.33659],[-117.28945,34.33655],[-117.28942,34.33295],[-117.27627,34.33309],[-117.2762,34.3258],[-117.26803,34.32603],[-117.26754,34.32679],[-117.26641,34.3268],[-117.26641,34.32606],[-117.25929,34.32596],[-117.25879,34.32779],[-117.25352,34.32761],[-117.2524,34.33125],[-117.25028,34.33119],[-117.25039469026548,34.32589513274336],[-117.25,34.3404],[-117.2417,34.3405],[-117.2415,34.3535],[-117.1041,34.3526],[-117.104,34.3677],[-116.96,34.3664],[-116.9612,34.3522],[-116.9452,34.3533],[-116.9075,34.3516],[-116.8466,34.3515],[-116.8478,34.3538],[-116.8547,34.359],[-116.8579,34.3641],[-116.8597,34.3734],[-116.8584,34.3888],[-116.858,34.5017],[-116.8422,34.5137],[-116.8092,34.5425],[-116.8011,34.5455],[-116.7895,34.5534],[-116.7832,34.5607],[-116.7818,34.5608],[-116.7792,34.5685],[-116.7734,34.5769],[-116.7491,34.6049],[-116.7414,34.6092],[-116.7317,34.6247],[-116.725,34.6402],[-116.7156,34.6535],[-116.7074,34.6725],[-116.7307,34.68],[-116.7336,34.6831],[-116.7352,34.687],[-116.7794,34.7164],[-116.7893,34.7138],[-116.8005,34.7087],[-116.8293,34.7126],[-116.8468,34.7046],[-116.894,34.6964],[-116.9222,34.686],[-116.956,34.6858],[-116.9663,34.681],[-117.0094,34.7589],[-117.028,34.8194],[-117.0386,34.817],[-117.0429,34.8225],[-117.0468,34.8242],[-117.06951928584277,34.81744173142651],[-117.06952,34.81714],[-117.07759642611684,34.81503903780069],[-117.0784,34.8148],[-117.08269080939033,34.815498503854236],[-117.08290765957447,34.81509765957447],[-117.0843,34.8124],[-117.08780705882353,34.81064647058824],[-117.08855,34.81026],[-117.09247,34.8099],[-117.09634,34.81085],[-117.10164,34.80536],[-117.10164212895191,34.80536001442024],[-117.1017,34.8053],[-117.1664,34.753],[-117.1732,34.7566],[-117.1809,34.7642],[-117.1986,34.7765],[-117.2036,34.782],[-117.2146,34.7888],[-117.2195,34.7969],[-117.2197,34.7988],[-117.2082,34.8033],[-117.1898,34.8192],[-117.1845,34.8272],[-117.1803,34.8303],[-117.1867,34.8345],[-117.1921,34.8356],[-117.1944,34.8286],[-117.1984,34.8224],[-117.2047,34.8164],[-117.227,34.8022],[-117.2343,34.7992],[-117.2485,34.8021],[-117.2548,34.8012],[-117.2609,34.7985],[-117.277,34.7849],[-117.2893,34.7788],[-117.2992,34.7719],[-117.3174,34.7578],[-117.3226,34.7515],[-117.3357,34.7398],[-117.3428,34.7249],[-117.3536,34.7317],[-117.3611,34.7324],[-117.529,34.7236],[-117.54,34.7267],[-117.5899,34.7235],[-117.5915,34.7213],[-117.5972,34.7196],[-117.6139,34.7195],[-117.6142,34.7337],[-117.6165,34.7343],[-117.6672,34.7343],[-117.6673,34.7328]]],[[[-117.4334599764151,34.3542],[-117.4333,34.3542],[-117.4334,34.3398],[-117.4255,34.3398],[-117.4249,34.3255],[-117.4159,34.3255],[-117.4161,34.3182],[-117.3984,34.3181],[-117.3985,34.3108],[-117.38085,34.310825304659495],[-117.38085,34.31098],[-117.37854,34.31099],[-117.37856,34.31464],[-117.37662,34.31453],[-117.37658,34.31897],[-117.38093,34.31972],[-117.38086,34.32274],[-117.37658,34.32275],[-117.37659,34.32366],[-117.37551,34.32366],[-117.37552,34.32637],[-117.37336,34.32727],[-117.37337,34.32817],[-117.37229,34.32817],[-117.37228,34.32638],[-117.37115,34.32634],[-117.37121,34.32275],[-117.37009,34.32274],[-117.37009,34.32185],[-117.36137,34.32183],[-117.36139,34.32545],[-117.35489,34.3254],[-117.35491,34.32904],[-117.35047,34.32908],[-117.35052,34.33634],[-117.33298,34.33638],[-117.33297,34.34004],[-117.32876,34.34003],[-117.32888,34.34353],[-117.32449,34.34362],[-117.32454,34.34713],[-117.31581,34.3473],[-117.31582,34.35091],[-117.31152,34.35101],[-117.31152,34.35464],[-117.30175,34.35463],[-117.30176,34.35544],[-117.30273,34.35544],[-117.30277,34.36191],[-117.29844,34.36192],[-117.29843,34.36553],[-117.2897,34.36552],[-117.28968,34.36913],[-117.34633,34.36863],[-117.34629,34.36578],[-117.35241,34.36486],[-117.35496,34.36351],[-117.35497,34.36152],[-117.36367,34.36154],[-117.36371,34.36885],[-117.35502,34.36871],[-117.35527,34.40703],[-117.35692,34.41036],[-117.3619,34.41034],[-117.36193,34.41225],[-117.36411,34.41224],[-117.36411,34.40851],[-117.3716,34.40853],[-117.37156,34.40487],[-117.36508,34.40486],[-117.36513,34.40645],[-117.36408,34.40666],[-117.36398,34.40487],[-117.3597,34.40487],[-117.35957,34.3977],[-117.36387,34.39766],[-117.36393,34.40308],[-117.36723,34.40303],[-117.36722,34.40127],[-117.37266,34.40129],[-117.3727,34.40489],[-117.38147,34.40488],[-117.38156,34.41222],[-117.38815,34.41215],[-117.38817,34.4049],[-117.39443,34.40484],[-117.39741,34.40132],[-117.39683,34.39775],[-117.39909,34.39757],[-117.39896,34.39403],[-117.40289,34.39181],[-117.40371,34.39036],[-117.40716,34.39027],[-117.3998,34.38309],[-117.4086,34.38303],[-117.40975,34.37918],[-117.41769,34.37925],[-117.42036,34.37603],[-117.41637,34.37608],[-117.41626,34.36883],[-117.42485,34.36892],[-117.4248,34.36156],[-117.42864,34.36158],[-117.42861,34.35847],[-117.43345,34.35843],[-117.4334599764151,34.3542]]],[[[-117.40278588460076,34.44466587672275],[-117.38607,34.4355],[-117.39766,34.44234],[-117.40278588460076,34.44466587672275]]],[[[-117.38183,34.51105],[-117.38178,34.50723],[-117.36434,34.50772],[-117.36434,34.51401],[-117.38178,34.51397],[-117.38183,34.51105]]],[[[-117.36426,34.49947],[-117.36008,34.49945],[-117.36011,34.4922],[-117.34679,34.49222],[-117.34679,34.48616],[-117.34058,34.48639],[-117.33577,34.49054],[-117.3349,34.49236],[-117.3328,34.49239],[-117.3323,34.4935],[-117.33456,34.49366],[-117.3345,34.50509],[-117.34677,34.50492],[-117.34675,34.50311],[-117.35117,34.5031],[-117.35118,34.50672],[-117.35914,34.50671],[-117.36426,34.49947]]],[[[-117.36351,34.31669],[-117.36350552503548,34.31085017129027],[-117.35027285657371,34.31086914285796],[-117.35032,34.31425],[-117.36351,34.31669]]],[[[-117.32061864792671,34.31091165785244],[-117.30949686722981,34.310927603057735],[-117.30952,34.31112],[-117.31198,34.31114],[-117.31063,34.31273],[-117.31064,34.31471],[-117.31218,34.31473],[-117.31336,34.31291],[-117.31334,34.31115],[-117.32008,34.31116],[-117.32061864792671,34.31091165785244]]],[[[-117.28747,34.53315],[-117.28655,34.53232],[-117.28654,34.52913],[-117.285,34.52914],[-117.28423,34.52649],[-117.28359,34.52664],[-117.28014,34.51464],[-117.27755,34.51466],[-117.27732,34.4783],[-117.26844,34.47833],[-117.26842,34.4763],[-117.26765,34.47591],[-117.26524,34.47861],[-117.26222,34.47912],[-117.26285,34.48019],[-117.26035,34.48127],[-117.25982,34.48047],[-117.25889,34.4814],[-117.2542,34.48096],[-117.25399789647577,34.47907370044053],[-117.25422,34.48215],[-117.2521,34.48947],[-117.25368,34.49372],[-117.25912,34.50209],[-117.25996,34.51055],[-117.26455,34.51595],[-117.27211,34.51872],[-117.27922,34.52388],[-117.2821,34.52911],[-117.28717600126255,34.533411039237734],[-117.28747,34.53315]]],[[[-117.23126,34.60292],[-117.23019,34.60292],[-117.23019,34.60106],[-117.20697,34.60103],[-117.20717,34.63778],[-117.21605,34.63781],[-117.21593,34.62304],[-117.22476,34.6231],[-117.22481,34.60848],[-117.23126,34.60843],[-117.23126,34.60292]]]]},"properties":{"GEOID":"0607193555","NAME":"Victorville-Hesperia","COUNTY":"071"}},{"type":"Feature","geometry":{"type":"MultiPolygon","coordinates":[[[[-117.52409258493702,34.06741004429548],[-117.51573,34.06746],[-117.50526,34.06554],[-117.49573,34.06561],[-117.49574,34.0683],[-117.49755,34.06829],[-117.49752,34.07374],[-117.49315,34.07377],[-117.49316,34.07558],[-117.48886,34.07559],[-117.48883,34.07019],[-117.4756,34.07023],[-117.46466,34.07928],[-117.46461,34.08479],[-117.46241,34.08478],[-117.46238,34.09023],[-117.46076,34.09023],[-117.46075,34.09205],[-117.45802,34.09207],[-117.45811,34.09747],[-117.46029,34.09747],[-117.46026,34.10655],[-117.47571,34.10651],[-117.47572,34.10282],[-117.4867,34.10293],[-117.48667,34.102],[-117.48879,34.10204],[-117.48878,34.10474],[-117.49314,34.1047],[-117.49315,34.10381],[-117.49532,34.10378],[-117.49532,34.10469],[-117.49968,34.10465],[-117.49968,34.10375],[-117.50187,34.10373],[-117.50188,34.10465],[-117.5148349150891,34.1045603121263],[-117.5151,34.08937],[-117.52382,34.08985],[-117.52403,34.07718],[-117.52409258493702,34.06741004429548]]],[[[-117.4498,34.2008],[-117.4419,34.1855],[-117.44298355640218,34.18314444260394],[-117.44039,34.18374],[-117.43909,34.18592],[-117.43668705318798,34.18134079947142],[-117.43671,34.18147],[-117.43633846875916,34.181779966265765],[-117.4367,34.1815],[-117.4458,34.1986],[-117.4498,34.2008]]],[[[-117.42945201522863,34.1871127686949],[-117.41152,34.17881],[-117.41185,34.17842],[-117.40547,34.17514],[-117.40948,34.17093],[-117.40831,34.17101],[-117.40778,34.16817],[-117.40442,34.1664],[-117.40497,34.16302],[-117.40002,34.16264],[-117.40255,34.15984],[-117.39905,34.15783],[-117.39404,34.15821],[-117.39226,34.15915],[-117.38646,34.16893],[-117.38343,34.16487],[-117.36985,34.15357],[-117.37139,34.15314],[-117.37123,34.1515],[-117.37183,34.15301],[-117.37622,34.15184],[-117.36755,34.14871],[-117.36467,34.14618],[-117.36465,34.14283],[-117.36614,34.13917],[-117.3651,34.13773],[-117.36392,34.13776],[-117.36394,34.13611],[-117.34863,34.13601],[-117.34581,34.13604],[-117.3458,34.14288],[-117.33986,34.13789],[-117.33839,34.13788],[-117.3382,34.13697],[-117.33549,34.13696],[-117.33549,34.13613],[-117.33112,34.13616],[-117.33111,34.14149],[-117.33206,34.1415],[-117.3322,34.14548],[-117.33113,34.14549],[-117.3311,34.15355],[-117.34648,34.16972],[-117.34858,34.16838],[-117.35028,34.16843],[-117.35028,34.16763],[-117.35333,34.1677],[-117.35343,34.16611],[-117.35984,34.16614],[-117.35139,34.17402],[-117.35236,34.17506],[-117.35334,34.17445],[-117.36371,34.17446],[-117.36563,34.16817],[-117.36555,34.16622],[-117.36606,34.16681],[-117.36718,34.16647],[-117.37043,34.17451],[-117.3802,34.17453],[-117.38017,34.17937],[-117.39205,34.20368],[-117.40244,34.21324],[-117.40051,34.21904],[-117.38714,34.20866],[-117.38779,34.20806],[-117.3863,34.2069],[-117.38575,34.20724],[-117.38437,34.20492],[-117.38591,34.20528],[-117.38606,34.20384],[-117.39191,34.20654],[-117.39194,34.2059],[-117.3863,34.20328],[-117.38617,34.2019],[-117.38236,34.20191],[-117.37333,34.19555],[-117.37656,34.1922],[-117.37507,34.19128],[-117.37615,34.18766],[-117.37421,34.18357],[-117.36579,34.18912],[-117.36382,34.18704],[-117.36286,34.18867],[-117.36514,34.19152],[-117.36405,34.19162],[-117.36395,34.19275],[-117.40001,34.22048],[-117.39864,34.22414],[-117.39644,34.22255],[-117.39528,34.22859],[-117.393,34.22684],[-117.39053,34.22951],[-117.38881,34.22827],[-117.38640400233731,34.22926833927912],[-117.3973,34.2351],[-117.398,34.237],[-117.4052,34.2378],[-117.4153,34.2422],[-117.4164,34.2455],[-117.4199,34.247],[-117.4236,34.2427],[-117.4263,34.2346],[-117.4097,34.2253],[-117.4148,34.2036],[-117.4203,34.1942],[-117.42945201522863,34.1871127686949]]],[[[-117.42258,34.06315],[-117.42256,34.04851],[-117.40543,34.04864],[-117.40542,34.04666],[-117.40146,34.04663],[-117.40147,34.04456],[-117.40945,34.04456],[-117.40949,34.04073],[-117.40944,34.03779],[-117.40149,34.03801],[-117.4015,34.03385],[-117.40825910672854,34.03382795823666],[-117.3753,34.0339],[-117.3742,34.0308],[-117.3773,34.0267],[-117.3754,34.0254],[-117.3754,34.0194],[-117.23614398009434,34.01809941008761],[-117.27064,34.01852],[-117.27073161124488,34.018721918662195],[-117.29604,34.0194],[-117.33616,34.01938],[-117.37165,34.01937],[-117.36388,34.02664],[-117.36627,34.02455],[-117.37209,34.0266],[-117.36715,34.03109],[-117.36776,34.0335],[-117.37131,34.03481],[-117.37971,34.04052],[-117.37975,34.03862],[-117.38169,34.04052],[-117.38329,34.04075],[-117.38329,34.03389],[-117.39059,34.03387],[-117.39059,34.0378],[-117.38909,34.0378],[-117.38764,34.04009],[-117.38631,34.04051],[-117.38631,34.04261],[-117.38775,34.04225],[-117.37334,34.04676],[-117.37335,34.04825],[-117.37611,34.04758],[-117.37643,34.04991],[-117.38113,34.04981],[-117.38112,34.05049],[-117.37896,34.05049],[-117.37896,34.05104],[-117.38113,34.05103],[-117.38111,34.05776],[-117.38336,34.05772],[-117.38335,34.06849],[-117.3897,34.06839],[-117.3897,34.07049],[-117.38774,34.07049],[-117.38775,34.07409],[-117.39187,34.07408],[-117.39079,34.07522],[-117.39102,34.07955],[-117.39211,34.07955],[-117.39211,34.07863],[-117.39648,34.07863],[-117.39648,34.08364],[-117.3943,34.0836],[-117.39433,34.08499],[-117.40521,34.08497],[-117.41828,34.08495],[-117.41826,34.07863],[-117.41738,34.07862],[-117.41739,34.07766],[-117.41826,34.07765],[-117.41822,34.06697],[-117.4204,34.06692],[-117.42038,34.06315],[-117.42258,34.06315]]],[[[-117.40763,34.1395],[-117.4054,34.13949],[-117.4054,34.14139],[-117.40321,34.1414],[-117.40318,34.1404],[-117.40217,34.1404],[-117.40255,34.14252],[-117.40105,34.14252],[-117.40102,34.14041],[-117.3995,34.1404],[-117.39986,34.14127],[-117.39883,34.14126],[-117.39884,34.14222],[-117.39669,34.1422],[-117.39668,34.14316],[-117.40102,34.14316],[-117.40101,34.14456],[-117.40538,34.14457],[-117.40538,34.14373],[-117.4076,34.14371],[-117.40763,34.1395]]],[[[-117.39456,34.1532],[-117.38746,34.14889],[-117.38798,34.14831],[-117.38712,34.14778],[-117.3866,34.14835],[-117.37701,34.14244],[-117.37924,34.14042],[-117.37922,34.13941],[-117.38229,34.13941],[-117.38229,34.13857],[-117.37938,34.13858],[-117.37937,34.13594],[-117.38357,34.13592],[-117.38358,34.13374],[-117.38575,34.13448],[-117.38578,34.13049],[-117.38011,34.13069],[-117.38009,34.12981],[-117.37923,34.1296],[-117.37926,34.13594],[-117.37402,34.13598],[-117.37374,34.13702],[-117.37764,34.13945],[-117.37257,34.14423],[-117.37184,34.14377],[-117.3756,34.14739],[-117.37904,34.1488],[-117.37939,34.14829],[-117.37938,34.14894],[-117.38371,34.1512],[-117.38858,34.15232],[-117.38782,34.15318],[-117.39311,34.15473],[-117.39456,34.1532]]],[[[-117.38867,34.2222],[-117.38749,34.22092],[-117.38823,34.22027],[-117.38562,34.22234],[-117.37937,34.22366],[-117.37558,34.22192],[-117.37615,34.22094],[-117.3735,34.2197],[-117.37627,34.21588],[-117.37258,34.21336],[-117.37039,34.21317],[-117.3705,34.21431],[-117.36888,34.21366],[-117.36844,34.21569],[-117.3624258677686,34.215648016528924],[-117.3683,34.2157],[-117.3678,34.2251],[-117.3748,34.2288],[-117.3792,34.2264],[-117.3831,34.2275],[-117.38625873065016,34.22919058823529],[-117.38471,34.22832],[-117.38658,34.22558],[-117.38634,34.22482],[-117.38867,34.2222]]],[[[-117.38657,34.13952],[-117.38568,34.13952],[-117.38584,34.1375],[-117.38357,34.13751],[-117.38362,34.14126],[-117.38655,34.14113],[-117.38657,34.13952]]],[[[-117.35342,34.06701],[-117.35281,34.05589],[-117.34872,34.05587],[-117.34874,34.05454],[-117.34741,34.05495],[-117.34785,34.05211],[-117.33611,34.05392],[-117.33576,34.05653],[-117.33657,34.05838],[-117.33579,34.06801],[-117.33888,34.06874],[-117.33852,34.07316],[-117.33584,34.07358],[-117.33643,34.07404],[-117.3355,34.07536],[-117.33546,34.0794],[-117.33635,34.07946],[-117.3365,34.07771],[-117.33813,34.07781],[-117.3375,34.07867],[-117.33804,34.07869],[-117.33794,34.08143],[-117.34288,34.08141],[-117.34288,34.07985],[-117.34302,34.08071],[-117.34415,34.08057],[-117.34415,34.06873],[-117.35276,34.06954],[-117.35266,34.06694],[-117.35342,34.06701]]],[[[-117.31201,34.1755],[-117.312,34.17435],[-117.31148,34.17435],[-117.31141,34.16977],[-117.30928,34.16979],[-117.30923,34.16661],[-117.30574,34.16495],[-117.295,34.16467],[-117.29502,34.16646],[-117.29398,34.16647],[-117.29397,34.16541],[-117.28899,34.1656],[-117.28904,34.16695],[-117.29084,34.16649],[-117.29085,34.16831],[-117.29614,34.16828],[-117.29618,34.1719],[-117.3016,34.17143],[-117.30162,34.17246],[-117.30052,34.17294],[-117.30055,34.17404],[-117.30163,34.17404],[-117.30163,34.17473],[-117.30056,34.17475],[-117.30055,34.17556],[-117.30382,34.17554],[-117.306,34.17435],[-117.306,34.17553],[-117.31201,34.1755]]],[[[-117.30537907277187,34.045162726083404],[-117.29939,34.04477],[-117.30202,34.04508],[-117.30206,34.04753],[-117.3032,34.04753],[-117.30487,34.04523],[-117.30537907277187,34.045162726083404]]],[[[-117.28776,34.03355],[-117.28485,34.03342],[-117.28432,34.03473],[-117.28336,34.03331],[-117.27927,34.03311],[-117.27912,34.03705],[-117.28142,34.03817],[-117.28134,34.04082],[-117.27897,34.04037],[-117.28004,34.04141],[-117.27368905280709,34.04129533896743],[-117.27354,34.04843],[-117.27362,34.04481],[-117.28171,34.04486],[-117.281,34.04379],[-117.27977,34.04433],[-117.28089,34.04277],[-117.28319,34.04318],[-117.2831,34.04484],[-117.28676,34.04481],[-117.28623,34.04312],[-117.28746,34.04405],[-117.28755,34.04225],[-117.28615,34.04224],[-117.28615,34.04131],[-117.28763,34.04132],[-117.28718,34.03797],[-117.28776,34.03355]]],[[[-117.28507,34.02585],[-117.28345,34.02584],[-117.28341,34.02238],[-117.27689,34.02217],[-117.27877,34.02418],[-117.27834,34.02569],[-117.27929,34.02589],[-117.28017,34.02914],[-117.28315,34.02883],[-117.28282,34.02802],[-117.28493,34.02679],[-117.28507,34.02585]]],[[[-117.27881,34.11024],[-117.27879,34.10927],[-117.27796,34.10928],[-117.27879,34.10784],[-117.2773,34.1074],[-117.27731,34.10647],[-117.27879,34.10646],[-117.27879,34.1046],[-117.25974918763836,34.10461920727541],[-117.26106,34.10638],[-117.26101784638911,34.11297001450349],[-117.26642,34.11298],[-117.26643,34.11021],[-117.2673,34.11021],[-117.26683,34.1074],[-117.27075,34.1074],[-117.27076,34.10834],[-117.27368,34.10834],[-117.27269,34.11021],[-117.27061,34.11021],[-117.27056,34.11275],[-117.27334,34.11021],[-117.27881,34.11024]]],[[[-117.26568,34.12863],[-117.26553,34.12171],[-117.26331,34.12253],[-117.26332,34.12133],[-117.25895,34.12225],[-117.25854,34.12133],[-117.25454,34.12132],[-117.25455,34.122],[-117.25355,34.12199],[-117.25356,34.12132],[-117.25252986179808,34.12131776056913],[-117.2524,34.12861],[-117.24367001374885,34.12859002291476],[-117.24368,34.13587],[-117.24803,34.13586],[-117.24801,34.13314],[-117.24938,34.13245],[-117.24947,34.13435],[-117.25086,34.13436],[-117.25126,34.13227],[-117.25238,34.13227],[-117.25239,34.13348],[-117.25345,34.13263],[-117.25345,34.1334],[-117.25676,34.13342],[-117.25676,34.13498],[-117.25861,34.13506],[-117.25933,34.13385],[-117.25895,34.13314],[-117.25676,34.13314],[-117.25677,34.12983],[-117.25606,34.12983],[-117.25598,34.12802],[-117.25812,34.12863],[-117.25812,34.12959],[-117.25899,34.12959],[-117.25898,34.12863],[-117.26568,34.12863]]],[[[-117.26446,34.15398],[-117.26444,34.14787],[-117.26311,34.14773],[-117.26445,34.14744],[-117.26444,34.14675],[-117.25677,34.14675],[-117.25681,34.15104],[-117.2577,34.15116],[-117.25681,34.15126],[-117.25681,34.15196],[-117.25898,34.15195],[-117.25892,34.15447],[-117.26032,34.15455],[-117.26019,34.15615],[-117.25683,34.15626],[-117.25685,34.15992],[-117.25829,34.15992],[-117.25875,34.16132],[-117.26126,34.16134],[-117.26166,34.15407],[-117.26446,34.15398]]],[[[-117.26225,34.16501],[-117.25949,34.16497],[-117.2595195945946,34.16804783783784],[-117.2609,34.1686],[-117.262,34.1678],[-117.2619,34.169],[-117.26191960418492,34.16900816059372],[-117.26225,34.16501]]],[[[-117.25246,34.15218],[-117.25093,34.15218],[-117.25097,34.14946],[-117.25243,34.14947],[-117.25242,34.14409],[-117.24942,34.14407],[-117.24949,34.14674],[-117.24658,34.14673],[-117.24661,34.14916],[-117.24806,34.14946],[-117.24806,34.15012],[-117.24723,34.14945],[-117.2306,34.14942001802885],[-117.2306,34.15035],[-117.23061989247311,34.1522],[-117.232,34.1522],[-117.23200004448108,34.152200471499555],[-117.23931,34.15215],[-117.23881,34.15397],[-117.24359,34.15757],[-117.25243,34.15764],[-117.25246,34.15218]]],[[[-117.25055,34.13859],[-117.23931,34.13856],[-117.23932,34.14129],[-117.23496,34.14128],[-117.23496,34.1398],[-117.2364,34.14025],[-117.2364,34.13856],[-117.23496,34.13855],[-117.23496,34.13685],[-117.23057,34.13684],[-117.23037,34.13829],[-117.23132,34.13859],[-117.23059,34.14672],[-117.23348,34.14671],[-117.2335,34.1482],[-117.23498,34.1482],[-117.23497,34.14671],[-117.23641,34.14672],[-117.23687,34.14807],[-117.23928,34.14808],[-117.23933,34.14672],[-117.24376,34.14674],[-117.24371,34.14402],[-117.24223,34.14401],[-117.24223,34.14215],[-117.2437,34.14261],[-117.2437,34.1413],[-117.24704,34.14131],[-117.24703,34.14359],[-117.24803,34.14382],[-117.24807,34.14027],[-117.24949,34.14038],[-117.25055,34.13859]]],[[[-117.23486,34.03757],[-117.23478,34.03386],[-117.2326,34.03385],[-117.23258,34.03264],[-117.23025,34.0326],[-117.23015,34.02896],[-117.2258,34.02886],[-117.22553075092232,34.018000287200074],[-117.2255,34.018],[-117.22549978863755,34.017970831982446],[-117.2081,34.01845],[-117.20849,34.03167],[-117.21239,34.03434],[-117.21726,34.03587],[-117.21926,34.03745],[-117.23486,34.03757]]],[[[-117.22625,34.07686],[-117.22624,34.07397],[-117.22177,34.07396],[-117.22178,34.07032],[-117.20003,34.0702],[-117.1994,34.07739],[-117.20052,34.07738],[-117.19999,34.09192],[-117.20116,34.09195],[-117.20099,34.09079],[-117.20826,34.08897],[-117.21307,34.09027],[-117.21307,34.08837],[-117.21745,34.08845],[-117.21744,34.08484],[-117.22621,34.08484],[-117.22625,34.07686]]],[[[-117.22213268696034,34.00419389287282],[-117.13555797895553,34.0040320709887],[-117.14221,34.00429],[-117.22213268696034,34.00419389287282]]],[[[-117.13902,34.0555],[-117.13669,34.05546],[-117.13666,34.04841],[-117.1384406451613,34.04839451612903],[-117.1186,34.0482],[-117.1119,34.0425],[-117.10662782608695,34.04109],[-117.1041,34.04109],[-117.1042,34.048],[-117.09342256524752,34.04811615212873],[-117.0933,34.0483],[-117.0606,34.0485],[-117.0606,34.0556],[-117.05211022304833,34.05569758364312],[-117.05195,34.0557],[-117.05222,34.06978],[-117.05645,34.0698],[-117.05646,34.07701],[-117.05649,34.07536],[-117.06468,34.07508],[-117.06465,34.07647],[-117.06805,34.07647],[-117.06873,34.07482],[-117.07063,34.07533],[-117.07459,34.07404],[-117.07458,34.07331],[-117.07319,34.07335],[-117.07321,34.07272],[-117.07021,34.07335],[-117.07031,34.07416],[-117.06987,34.0734],[-117.06807,34.07341],[-117.0695,34.0626],[-117.08216,34.06253],[-117.08208,34.0661],[-117.07783,34.06608],[-117.07771,34.06887],[-117.07663,34.06903],[-117.07656,34.0721],[-117.07555,34.07249],[-117.07629,34.07294],[-117.07492,34.07331],[-117.07492,34.07409],[-117.07866,34.07428],[-117.07865,34.07485],[-117.08623,34.07478],[-117.08627,34.07328],[-117.09942,34.07317],[-117.10103,34.07222],[-117.10106,34.06953],[-117.10559,34.0696],[-117.10603,34.07328],[-117.11374,34.07343],[-117.11377,34.07189],[-117.11594,34.07161],[-117.11591,34.0734],[-117.12167,34.07349],[-117.12131,34.09109],[-117.13861,34.0913],[-117.13639,34.08456],[-117.13886,34.08459],[-117.13889,34.08102],[-117.13735,34.08099],[-117.13732,34.07916],[-117.13661,34.0789],[-117.13662,34.07735],[-117.13885,34.07739],[-117.13889,34.06958],[-117.1382,34.06893],[-117.13494,34.06889],[-117.13464,34.06811],[-117.13898,34.06286],[-117.13899,34.05917],[-117.1367,34.05924],[-117.13664,34.05756],[-117.139,34.05738],[-117.13902,34.0555]],[[-117.1255,34.07594],[-117.12547,34.07722],[-117.12434,34.07713],[-117.1255,34.07594]],[[-117.10303,34.06757],[-117.10303,34.06776],[-117.10282,34.06757],[-117.10303,34.06757]],[[-117.09974,34.07091],[-117.0995,34.07074],[-117.0996,34.07074],[-117.09974,34.07091]],[[-117.09503,34.07197],[-117.09501,34.07243],[-117.09438,34.07198],[-117.09503,34.07197]]],[[[-117.11346,34.0896],[-117.11256,34.08608],[-117.11124,34.0856],[-117.11081,34.08451],[-117.10363,34.08125],[-117.10367,34.07676],[-117.09498986733463,34.07680833484547],[-117.09476072252097,34.09120460683407],[-117.10358444043545,34.091100184136856],[-117.10506,34.0902],[-117.10508,34.089],[-117.10796,34.08892],[-117.11243920230427,34.08942990919089],[-117.11244,34.08926],[-117.11346,34.0896]]],[[[-117.11185657417084,34.00398776929752],[-117.07063909946355,34.00391072728872],[-117.1039,34.00438],[-117.10372613777452,34.00442401575329],[-117.11185657417084,34.00398776929752]]],[[[-117.09197229036774,34.076825138058275],[-117.06057,34.077],[-117.06035,34.08059],[-117.0524,34.08064],[-117.05240992633995,34.07702681226094],[-117.04620618686297,34.07705256460414],[-117.0488,34.0784],[-117.0429,34.0828],[-117.0416,34.0871],[-117.036,34.0919],[-117.0688600470891,34.091511123703086],[-117.06888,34.08775],[-117.06448,34.08778],[-117.06454,34.08416],[-117.06021,34.08418],[-117.06033,34.0821],[-117.06869,34.07823],[-117.06858,34.07702],[-117.09197229036774,34.076825138058275]]]]},"properties":{"GEOID":"0607192770","NAME":"San Bernardino","COUNTY":"071"}},{"type":"Feature","geometry":{"type":"Polygon","coordinates":[[[-117.4821,34.3302],[-117.4817,34.3222],[-117.4786,34.3156],[-117.4685,34.3063],[-117.4608,34.3023],[-117.4532,34.2929],[-117.4537,34.281],[-117.4511,34.2722],[-117.4553,34.268],[-117.4636,34.2659],[-117.467,34.2634],[-117.4675,34.2605],[-117.4646,34.2565],[-117.44022008945191,34.24255952895553],[-117.43971,34.24257],[-117.43980525847876,34.24232232795522],[-117.43678350879541,34.24059448675247],[-117.4365,34.24055],[-117.43649210676773,34.240427862616535],[-117.4263,34.2346],[-117.4236,34.2427],[-117.4199,34.247],[-117.4164,34.2455],[-117.4153,34.2422],[-117.4052,34.2378],[-117.398,34.237],[-117.3973,34.2351],[-117.38640400233731,34.22926833927912],[-117.3864,34.22927],[-117.38625873065016,34.22919058823529],[-117.3831,34.2275],[-117.3792,34.2264],[-117.3748,34.2288],[-117.3678,34.2251],[-117.3683,34.2157],[-117.3624258677686,34.215648016528924],[-117.35698,34.21561],[-117.35698977408465,34.21389953518567],[-117.35602134020618,34.21385551546392],[-117.35483,34.21385],[-117.35482917965756,34.21380132634807],[-117.3548,34.2138],[-117.3548,34.2121],[-117.35347394495413,34.21203972477064],[-117.35261,34.21202],[-117.35260989138672,34.21200044960849],[-117.3526,34.212],[-117.3526,34.21022],[-117.3482,34.2102],[-117.3482,34.208420015923565],[-117.33569910093394,34.208429968868685],[-117.33551874277457,34.21444190751445],[-117.33541,34.21907],[-117.33959,34.219],[-117.33949,34.2225],[-117.34824,34.22293],[-117.34823,34.2265],[-117.33984,34.22617],[-117.33924,34.23006],[-117.33439,34.23008],[-117.33513,34.22236],[-117.32164,34.22164],[-117.32205,34.21844],[-117.32673,34.21865],[-117.32681298034615,34.21509740393077],[-117.3268,34.2151],[-117.32685636942675,34.213239808917194],[-117.32689,34.2118],[-117.32689998867497,34.211800373725936],[-117.3269,34.2118],[-117.3298,34.2119],[-117.3316,34.2009],[-117.3252,34.1943],[-117.32233038330494,34.19420104770017],[-117.32235,34.19579],[-117.3223,34.19579423728813],[-117.3223,34.1958],[-117.32,34.196],[-117.31998324675325,34.196201038961036],[-117.31995,34.19724],[-117.3136,34.19721014106583],[-117.3136,34.2009],[-117.31358994532124,34.20089988442898],[-117.31359,34.20091],[-117.30486,34.20081],[-117.30475,34.19355],[-117.30480067425201,34.19354922039612],[-117.3048,34.1935],[-117.308,34.1935],[-117.3093,34.19348],[-117.30933294117646,34.193145882352944],[-117.3096989821883,34.18921094147583],[-117.305,34.18718571428571],[-117.29733310139164,34.18389990059642],[-117.29745,34.18465],[-117.29632,34.18455],[-117.29626,34.1908],[-117.27878,34.19097],[-117.27869,34.19345],[-117.27978,34.19367],[-117.28073,34.19739],[-117.28313,34.19734],[-117.28313,34.20106],[-117.28744,34.20099],[-117.28729,34.21038],[-117.28604,34.20792],[-117.279,34.20799],[-117.27882,34.20115],[-117.27444,34.20101],[-117.27411,34.19369],[-117.26968,34.1936],[-117.26978,34.19005],[-117.26121,34.19001],[-117.26118,34.19357],[-117.24819,34.19343],[-117.24817,34.18985],[-117.24383,34.18983],[-117.24375,34.19347],[-117.22623,34.19348],[-117.22645,34.17904],[-117.24379,34.17907],[-117.2438,34.18264],[-117.26128,34.18286],[-117.26132,34.17929],[-117.26573,34.17927],[-117.26574,34.1758],[-117.26136,34.17578],[-117.26191960418492,34.16900816059372],[-117.2619,34.169],[-117.262,34.1678],[-117.2609,34.1686],[-117.2595195945946,34.16804783783784],[-117.25952,34.16809],[-117.25764,34.16739],[-117.25768,34.16952],[-117.2525,34.16955],[-117.25247,34.17058],[-117.24384,34.17035],[-117.24376,34.16507],[-117.22820451612903,34.1648],[-117.2259,34.1648],[-117.22590054041379,34.16476000938008],[-117.2259,34.16476],[-117.22604,34.14835],[-117.22528051546392,34.148344536082476],[-117.22492044361304,34.149167557455904],[-117.22515,34.14987],[-117.22467252909502,34.149734219211396],[-117.2246,34.1499],[-117.22194868954759,34.14896424336973],[-117.22153,34.15032],[-117.20877,34.15023],[-117.20861,34.15731],[-117.19978,34.15738],[-117.19992760018425,34.15010062727691],[-117.1999,34.1501],[-117.19999916647994,34.14653000672194],[-117.19132,34.1466],[-117.19125,34.15016],[-117.19120113114185,34.15015927889313],[-117.1912,34.1502],[-117.19012443217666,34.15014339116719],[-117.18928870573745,34.150131059222005],[-117.1885,34.1523],[-117.1839,34.156],[-117.1848,34.1582],[-117.183,34.1601],[-117.1836,34.1623],[-117.1815,34.1657],[-117.1829,34.1677],[-117.1813,34.1718],[-117.1853,34.1766],[-117.1839,34.1815],[-117.182,34.1842],[-117.1747,34.1882],[-117.176,34.1914],[-117.1709,34.198],[-117.171,34.2075],[-117.1686,34.2093],[-117.167,34.2151],[-117.1644,34.219],[-117.1648,34.2253],[-117.1636,34.2262],[-117.1655,34.2273],[-117.1661,34.2301],[-117.1635,34.2333],[-117.147,34.2334],[-117.1482,34.2357],[-117.1518,34.2357],[-117.1533,34.237],[-117.1468,34.2384],[-117.1435,34.2479],[-117.136,34.2546],[-117.1354,34.2574],[-117.1272,34.2612],[-117.1257,34.2632],[-117.1256,34.2653],[-117.1274,34.2654],[-117.1308,34.271],[-117.1269,34.2747],[-117.1279,34.2813],[-117.1245,34.282],[-117.1257,34.2843],[-117.1283,34.2835],[-117.1263,34.2888],[-117.1284,34.2905],[-117.1262,34.2921],[-117.1244,34.2966],[-117.1244,34.3012],[-117.1283,34.3015],[-117.1312,34.3061],[-117.1339,34.3059],[-117.1356,34.3076],[-117.1389,34.3083],[-117.1371,34.3105],[-117.1392,34.3148],[-117.1378,34.3172],[-117.144,34.3202],[-117.1452,34.3232],[-117.1432,34.3237],[-117.1462,34.3267],[-117.1486,34.3267],[-117.1513,34.324],[-117.1526,34.3265],[-117.1569,34.3266],[-117.1615,34.3316],[-117.1591,34.3339],[-117.1593,34.3352],[-117.1659,34.3388],[-117.1687,34.3387],[-117.1706,34.3417],[-117.1733,34.3412],[-117.1755,34.3435],[-117.1777,34.3423],[-117.1777,34.339],[-117.1799,34.34],[-117.1812,34.3433],[-117.186,34.3414],[-117.1883,34.3431],[-117.1911,34.3423],[-117.1945,34.3453],[-117.1968,34.3428],[-117.1988,34.3437],[-117.2089,34.3406],[-117.2138,34.3426],[-117.2191,34.3413],[-117.2215,34.3434],[-117.2229,34.3429],[-117.225,34.3391],[-117.2285,34.3453],[-117.23,34.3422],[-117.25,34.3404],[-117.25039469026548,34.32589513274336],[-117.2504,34.32565],[-117.2588,34.32597],[-117.2588044295302,34.3256677852349],[-117.259,34.311],[-117.25901941413214,34.310999972166115],[-117.25902,34.31096],[-117.264153370906,34.31099261165461],[-117.29365064155961,34.31095032166085],[-117.29366,34.3076],[-117.30767,34.30753],[-117.30911,34.30771],[-117.30949686722981,34.310927603057735],[-117.32061864792671,34.31091165785244],[-117.32791,34.30755],[-117.33523,34.30749],[-117.33524915877301,34.310890682209646],[-117.34597024571747,34.31087531147568],[-117.34586,34.30924],[-117.35025,34.30923],[-117.35027285657371,34.31086914285796],[-117.36350552503548,34.31085017129027],[-117.3635,34.30364],[-117.38533,34.30357],[-117.38521,34.30732],[-117.38085,34.30732],[-117.38085,34.310825304659495],[-117.3985,34.3108],[-117.3984,34.3181],[-117.4161,34.3182],[-117.4159,34.3255],[-117.4249,34.3255],[-117.4255,34.3398],[-117.4334,34.3398],[-117.4333,34.3542],[-117.4334599764151,34.3542],[-117.43346,34.35419],[-117.43584666666666,34.3542],[-117.438,34.3542],[-117.4396,34.3498],[-117.4428,34.3466],[-117.4559,34.3415],[-117.4776,34.3391],[-117.4814,34.3353],[-117.4821,34.3302]]]},"properties":{"GEOID":"0607191513","NAME":"Lake Arrowhead","COUNTY":"071"}},{"type":"Feature","geometry":{"type":"Polygon","coordinates":[[[-117.6774,34.1661],[-117.6767,34.1652],[-117.63665521575604,34.16515548106254],[-117.63665,34.16877],[-117.63225,34.16875],[-117.63226,34.17239],[-117.62788,34.17241],[-117.62791,34.16515],[-117.62361858584774,34.16514098786642],[-117.57553121499522,34.1650875277543],[-117.5757,34.17169],[-117.5746,34.17957],[-117.55817,34.17954],[-117.55862,34.17239],[-117.55407,34.17234],[-117.55376,34.17934],[-117.54056,34.17931],[-117.52324,34.17748],[-117.50563,34.17924],[-117.4882,34.1793996336577],[-117.4882,34.1794],[-117.48818869815194,34.17939973716632],[-117.48816,34.1794],[-117.48394,34.17934],[-117.48393989085947,34.179300927694406],[-117.4839,34.1793],[-117.4839,34.1722],[-117.4818,34.1722],[-117.48179131806931,34.172182636138615],[-117.46777,34.1722],[-117.45569,34.17639],[-117.4546,34.17606],[-117.45348,34.17727],[-117.45349878059855,34.176257934411765],[-117.4531,34.1764],[-117.4491089260809,34.17959285913528],[-117.4491,34.17964],[-117.4475070790378,34.179892577319585],[-117.44432958445807,34.18047619877301],[-117.44309,34.18312],[-117.44298355640218,34.18314444260394],[-117.4419,34.1855],[-117.4498,34.2008],[-117.4458,34.1986],[-117.4367,34.1815],[-117.436395554371,34.18173234008529],[-117.42977,34.18726],[-117.4293856200388,34.18708202681249],[-117.4215,34.1931],[-117.4135,34.2066],[-117.4097,34.2253],[-117.4663,34.2581],[-117.4677,34.2615],[-117.4667,34.2637],[-117.4636,34.2659],[-117.4553,34.268],[-117.4511,34.2721],[-117.4537,34.281],[-117.4532,34.2929],[-117.4608,34.3023],[-117.4685,34.3063],[-117.4773,34.3141],[-117.4803,34.3184],[-117.4819,34.3234],[-117.4819,34.3338],[-117.4789,34.3382],[-117.4732,34.3403],[-117.4595,34.3405],[-117.4465,34.3448],[-117.4406,34.3486],[-117.438,34.3542],[-117.4511,34.3542],[-117.4512,34.3685],[-117.4856,34.3686],[-117.4854,34.3834],[-117.6246,34.3828],[-117.6248,34.3899],[-117.642,34.39],[-117.6421,34.3973],[-117.6552,34.397],[-117.6464,34.2892],[-117.6774,34.1661]],[[-117.44312,34.2425],[-117.43971,34.24257],[-117.44026,34.24114],[-117.4365,34.24055],[-117.43631,34.23761],[-117.43939,34.23737],[-117.44312,34.2425]],[[-117.42646,34.22889],[-117.42607,34.23085],[-117.42446,34.23087],[-117.41893,34.22678],[-117.42213,34.22639],[-117.41639,34.22333],[-117.41812,34.22334],[-117.42646,34.22889]]]},"properties":{"GEOID":"0607192040","NAME":"Mount Baldy-Wrightwood","COUNTY":"071"}},{"type":"Feature","geometry":{"type":"MultiPolygon","coordinates":[[[[-117.80240012639835,33.96830922707956],[-117.8024,33.9683],[-117.7937,33.9681],[-117.7936,33.9538],[-117.7381,33.9137],[-117.6793,33.8776],[-117.67915042735042,33.87746324786325],[-117.6793,33.87762],[-117.73809,33.91374],[-117.79355,33.95382],[-117.79367,33.96814],[-117.80240012639835,33.96830922707956]]],[[[-117.7677,34.0235],[-117.76750368461836,34.00504635412631],[-117.76705,34.01119],[-117.76765919452642,34.02349373207459],[-117.7677,34.0235]]],[[[-117.76210200298954,34.02264011958147],[-117.746,34.02012],[-117.73376,34.0115],[-117.71647,34.01165],[-117.71649,34.01255],[-117.71539,34.01256],[-117.71546,34.01892],[-117.7133,34.01891],[-117.71327,34.02075],[-117.71549,34.02208],[-117.71548,34.0214],[-117.71766,34.02138],[-117.71769,34.02336],[-117.71987,34.02463],[-117.71985,34.02616],[-117.72106,34.02614],[-117.72426,34.02513],[-117.72421,34.02245],[-117.72864,34.02243],[-117.73051,34.01885],[-117.73534,34.0188],[-117.73012,34.02137],[-117.73011620271338,34.021392040772376],[-117.7358,34.0186],[-117.76210200298954,34.02264011958147]]],[[[-117.7293919205298,34.025596026490064],[-117.72736,34.03739],[-117.72601,34.04113],[-117.72432,34.04063],[-117.72427,34.03336],[-117.71996,34.03339],[-117.7194,34.03122],[-117.71993,34.0312],[-117.71991,34.02796],[-117.71771,34.02818],[-117.71773,34.02977],[-117.71555,34.02976],[-117.71553,34.02797],[-117.71338,34.02799],[-117.7134,34.03031],[-117.71487,34.02994],[-117.71557,34.0316],[-117.71779,34.03158],[-117.71779,34.0334],[-117.71559,34.03342],[-117.71346,34.03182],[-117.71342,34.03343],[-117.71123,34.03347],[-117.71123,34.03521],[-117.71347,34.03522],[-117.71349,34.03886],[-117.71017,34.03889],[-117.71026,34.0407],[-117.7113,34.0407],[-117.71132,34.04251],[-117.70261,34.04257],[-117.7026,34.04075],[-117.6917,34.04082],[-117.69175982166078,34.04761972877578],[-117.69806,34.04725],[-117.69813,34.0522],[-117.70247,34.0522],[-117.70243,34.04857],[-117.7034,34.04857],[-117.70338,34.04697],[-117.70691,34.04667],[-117.70675,34.04859],[-117.71113,34.04857],[-117.71127,34.05042],[-117.71551,34.05074],[-117.71553,34.05221],[-117.71381,34.05222],[-117.71442,34.05598],[-117.7207,34.05586],[-117.71648,34.06758],[-117.70445,34.09505],[-117.68963,34.09672],[-117.70436,34.09529],[-117.68710614422822,34.1373732940037],[-117.7165,34.0676],[-117.7274,34.0374],[-117.7293919205298,34.025596026490064]]],[[[-117.69064,34.05979],[-117.69058,34.05594],[-117.68936,34.05592],[-117.68953921803461,34.047785492540044],[-117.68077189030953,34.04835987615807],[-117.68078,34.05315],[-117.68293,34.05314],[-117.68295,34.05489],[-117.6808,34.05489],[-117.68089,34.08737],[-117.68093,34.09391],[-117.68086,34.05986],[-117.68193,34.05985],[-117.68191,34.05786],[-117.68407,34.05785],[-117.68408,34.05984],[-117.69064,34.05979]]],[[[-117.68274011070545,34.150491120451065],[-117.67398,34.15051],[-117.674,34.15231],[-117.67044,34.15232],[-117.67041,34.1469],[-117.66359,34.1469],[-117.661,34.14694],[-117.66106,34.15055],[-117.63694,34.15058],[-117.63692484290527,34.15053870406644],[-117.63781,34.15459],[-117.63779,34.15908],[-117.63776,34.16181],[-117.63666,34.16184],[-117.63665521575604,34.16515548106254],[-117.6767,34.1652],[-117.6772,34.1674],[-117.68274011070545,34.150491120451065]]],[[[-117.65558,33.90985],[-117.6550005365809,33.906848560571376],[-117.65519371104816,33.92433084985836],[-117.65521,33.92408],[-117.65558,33.90985]]],[[[-117.45356960981283,34.17244102675267],[-117.4496,34.1778],[-117.44947733552631,34.17787359868421],[-117.44942,34.17795],[-117.4491089260809,34.17959285913528],[-117.4531,34.1764],[-117.45349878059855,34.176257934411765],[-117.45356960981283,34.17244102675267]]]]},"properties":{"GEOID":"0607192260","NAME":"Ontario","COUNTY":"071"}},{"type":"Feature","geometry":{"type":"Polygon","coordinates":[[[-117.6522,35.6817],[-117.652,35.6808],[-117.6165,35.6807],[-117.6165,35.6516],[-117.6343,35.6516],[-117.6346,35.5643],[-117.6301,35.5643],[-117.6297,35.4662],[-117.6302,35.4514],[-117.6337,35.4514],[-117.6337,35.4345],[-117.6313,35.4196],[-117.6325,35.4056],[-117.6311,35.3617],[-117.631,35.2474],[-117.5763,35.2646],[-117.5225,35.2864],[-117.4561,35.3102],[-117.4533,35.3135],[-117.4455,35.3134],[-117.4049,35.3298],[-117.3921,35.3368],[-117.3808,35.345],[-117.3537,35.3562],[-117.3461,35.3577],[-117.341,35.3649],[-117.3399,35.3689],[-117.3165,35.3852],[-117.3139,35.3888],[-117.2619,35.394],[-117.2618,35.2729],[-116.9914,35.2717],[-116.927,35.2725],[-116.9256,35.71],[-116.9443,35.7099],[-116.9443,35.7165],[-116.9747,35.7166],[-116.9747,35.7237],[-116.9701,35.7237],[-116.9701,35.7323],[-116.9373,35.7325],[-116.9357,35.7954],[-117.3759,35.7951],[-117.6343,35.7973],[-117.6343,35.7098],[-117.6521,35.7099],[-117.6522,35.6817]]]},"properties":{"GEOID":"0607192955","NAME":"Searles Valley","COUNTY":"071"}},{"type":"Feature","geometry":{"type":"Polygon","coordinates":[[[-117.6675,34.8225],[-117.6672,34.7343],[-117.6142,34.7337],[-117.6139,34.7195],[-117.5972,34.7196],[-117.5915,34.7213],[-117.5899,34.7235],[-117.54,34.7267],[-117.529,34.7236],[-117.3611,34.7324],[-117.3536,34.7317],[-117.3428,34.7249],[-117.3357,34.7398],[-117.3226,34.7515],[-117.3174,34.7578],[-117.2992,34.7719],[-117.2893,34.7788],[-117.277,34.7849],[-117.2609,34.7985],[-117.2548,34.8012],[-117.2485,34.8021],[-117.2343,34.7992],[-117.227,34.8022],[-117.2047,34.8164],[-117.1984,34.8224],[-117.1944,34.8286],[-117.1921,34.8356],[-117.1867,34.8345],[-117.1803,34.8303],[-117.1845,34.8272],[-117.1898,34.8192],[-117.2082,34.8033],[-117.2197,34.7988],[-117.2195,34.7969],[-117.2146,34.7888],[-117.2036,34.782],[-117.1986,34.7765],[-117.1809,34.7642],[-117.1732,34.7566],[-117.1664,34.753],[-117.1017,34.8053],[-117.10164212895191,34.80536001442024],[-117.11788,34.80547],[-117.11805,34.83457],[-117.14509,34.83486],[-117.1448,34.84927],[-117.13607,34.84945],[-117.13605,34.85308],[-117.13365,34.85304],[-117.13366,34.85668],[-117.13604,34.85672],[-117.1361,34.8661],[-117.14486,34.86259],[-117.14488,34.86388],[-117.15367,34.86378],[-117.15366,34.87299],[-117.15365,34.87832],[-117.1361,34.87846],[-117.13617,34.89287],[-117.11811,34.89272],[-117.11806,34.87841],[-117.10967,34.87847],[-117.11797,34.87469],[-117.11799,34.871],[-117.10019,34.87073],[-117.10042,34.89257],[-117.07835,34.89221],[-117.07836,34.89585],[-117.07397,34.8952],[-117.07394,34.89607],[-117.0475,34.9005],[-117.04746,34.9047],[-117.04009,34.90604],[-117.02984,34.90585],[-117.02983,34.90674],[-117.02413,34.90675],[-117.02484,34.91117],[-117.02395,34.91118],[-117.02386,34.91684],[-117.01813,34.91687],[-117.01769,34.91789],[-117.01377,34.91818],[-117.01377,34.9171],[-117.01244,34.91707],[-117.01626,34.91319],[-117.00619,34.91317],[-117.00622,34.90581],[-117.00664,34.90357],[-117.00742,34.90335],[-116.99748,34.90308],[-116.99747,34.89873],[-116.99099,34.89862],[-116.98618,34.90212],[-116.98637,34.90581],[-116.97977,34.90583],[-116.97967,34.91308],[-116.96194,34.91309],[-116.96205,34.89483],[-116.97537,34.89485],[-116.97535,34.89848],[-116.98421,34.89861],[-116.98423,34.89655],[-116.98145,34.8965],[-116.98147,34.89485],[-116.97977,34.89483],[-116.97983,34.89118],[-116.98872,34.89134],[-116.98873,34.89009],[-116.97985,34.8875],[-116.97099,34.8875],[-116.97106,34.88384],[-116.93561,34.88399],[-116.93581,34.86935],[-116.94248,34.86933],[-116.94256,34.86749],[-116.94477,34.86751],[-116.94491,34.86208],[-116.92666,34.86194],[-116.92666,34.85828],[-116.90909,34.85802],[-116.90928,34.84355],[-116.92672,34.84374],[-116.92672,34.84737],[-116.94464,34.84753],[-116.9447,34.84353],[-116.96251,34.84366],[-116.96228,34.86202],[-117.04749,34.86279],[-117.04753,34.87735],[-117.02987,34.87696],[-117.02981,34.88532],[-117.02983,34.88591],[-117.03296,34.88622],[-117.04756,34.88616],[-117.04757,34.88529],[-117.06106,34.88319],[-117.06499,34.88042],[-117.06506,34.83389],[-117.06948,34.83404],[-117.06951928584277,34.81744173142651],[-117.0468,34.8242],[-117.0429,34.8225],[-117.0386,34.817],[-117.028,34.8194],[-117.0094,34.7589],[-116.9663,34.681],[-116.956,34.6858],[-116.9222,34.686],[-116.894,34.6964],[-116.8468,34.7046],[-116.8293,34.7126],[-116.7996,34.7089],[-116.7893,34.7138],[-116.7794,34.7164],[-116.7941,34.7249],[-116.8124,34.7317],[-116.8222,34.7389],[-116.8247,34.7474],[-116.8225,34.7533],[-116.821,34.7549],[-116.8187,34.755],[-116.8181,34.7594],[-116.8285,34.7675],[-116.8419,34.7837],[-116.8426,34.8044],[-116.8489,34.8253],[-116.8737,34.851],[-116.8799,34.8524],[-116.874,34.8533],[-116.8663,34.8603],[-116.8793,34.8626],[-116.864,34.8802],[-116.8344,34.8787],[-116.8248,34.8819],[-116.8201,34.885],[-116.8163,34.8898],[-116.8018,34.8938],[-116.7908,34.8946],[-116.7861,34.8964],[-116.7781,34.897],[-116.772,34.8961],[-116.7604,34.9155],[-116.7626,34.9166],[-116.763,34.9183],[-116.7508,34.9278],[-116.7474,34.9394],[-116.7493,34.9474],[-116.7607,34.9589],[-116.7665,34.9626],[-116.7678,34.9652],[-116.7641,34.9748],[-116.768,35.0063],[-116.7656,35.0151],[-116.7633,35.0342],[-116.7679,35.0444],[-116.7738,35.0522],[-116.7877,35.0599],[-116.7891,35.0638],[-116.7946,35.069],[-116.8045,35.0733],[-116.8043,35.0774],[-116.7938,35.0839],[-116.7896,35.0881],[-116.7896,35.0894],[-116.7918,35.0898],[-116.7916,35.0928],[-116.7932,35.095],[-116.8072,35.0966],[-116.8247,35.1038],[-116.8365,35.1118],[-116.8478,35.1154],[-116.856,35.1226],[-116.8616,35.1308],[-116.8642,35.137],[-116.8701,35.1357],[-116.8813,35.1358],[-116.8866,35.1378],[-116.8947,35.1381],[-116.8981,35.1363],[-116.9165,35.1433],[-116.9336,35.1451],[-116.9367,35.1474],[-116.9397,35.1458],[-116.9404,35.1474],[-116.9382,35.1531],[-116.9383,35.1579],[-116.9418,35.1778],[-116.9445,35.1845],[-116.9584,35.1848],[-116.9586,35.1993],[-117.0454,35.1989],[-117.0823,35.2],[-117.0831,35.2726],[-117.2618,35.2729],[-117.2619,35.394],[-117.3112,35.3897],[-117.314,35.3887],[-117.3165,35.3852],[-117.3399,35.3689],[-117.341,35.3649],[-117.3461,35.3577],[-117.3537,35.3562],[-117.3808,35.345],[-117.3921,35.3368],[-117.4049,35.3298],[-117.4455,35.3134],[-117.4533,35.3135],[-117.4561,35.3102],[-117.5225,35.2864],[-117.5763,35.2646],[-117.631,35.2474],[-117.6309,35.0976],[-117.6333,35.0976],[-117.6322,34.8223],[-117.6675,34.8225]]]},"properties":{"GEOID":"0607190188","NAME":"Barstow","COUNTY":"071"}}]}