{"type":"FeatureCollection","features":[{"type":"Feature","geometry":{"type":"Polygon","coordinates":[[[-117.611,33.3341],[-117.5715,33.3123],[-117.5496,33.2944],[-117.521,33.2689],[-117.5009,33.2422],[-117.4679,33.2125],[-117.4374,33.1795],[-117.4024,33.2056],[-117.39776028423067,33.20965975129817],[-117.39836865006554,33.210664731323725],[-117.3984,33.2107],[-117.3956,33.214],[-117.39557479143633,33.21398275203538],[-117.39556,33.214],[-117.39374,33.21273],[-117.39374072928177,33.212727867403316],[-117.3937,33.2127],[-117.39389353535354,33.21066787878788],[-117.39371,33.21062],[-117.39406685942174,33.20846893070787],[-117.3925111627907,33.20701046511628],[-117.39043,33.20712],[-117.26982,33.29999],[-117.26931479169646,33.299988652777856],[-117.2693,33.3],[-117.2658,33.3292],[-117.2492,33.3289],[-117.2494,33.3396],[-117.2535,33.3398],[-117.2538,33.3582],[-117.2621,33.3583],[-117.2553,33.4065],[-117.2743,33.4074],[-117.2953,33.4178],[-117.3135,33.4079],[-117.3136,33.4129],[-117.318,33.413],[-117.318,33.4166],[-117.3231,33.4165],[-117.3231,33.4131],[-117.3247,33.4131],[-117.3245,33.4165],[-117.3265,33.4167],[-117.3264,33.4235],[-117.3306,33.4235],[-117.3307,33.42],[-117.3394,33.4201],[-117.3395,33.4269],[-117.335,33.427],[-117.335,33.4307],[-117.3634,33.4302],[-117.3635,33.4447],[-117.3974,33.4446],[-117.4005,33.4558],[-117.4078,33.4601],[-117.458,33.4757],[-117.4651,33.4773],[-117.4667,33.4737],[-117.4699,33.4712],[-117.4754,33.4702],[-117.4719,33.4879],[-117.4783,33.4948],[-117.4837,33.4975],[-117.4827,33.5001],[-117.4877,33.5033],[-117.5094,33.4841],[-117.5095,33.4703],[-117.5382,33.4549],[-117.5598,33.4514],[-117.5785,33.4538],[-117.5961,33.3859],[-117.611,33.3341]]]},"properties":{"GEOID":"0607390355","NAME":"Camp Pendleton","COUNTY":"073"}},{"type":"Feature","geometry":{"type":"Polygon","coordinates":[[[-116.8289,32.7929],[-116.8284,32.7905],[-116.8145,32.7911],[-116.8144,32.7802],[-116.824,32.7796],[-116.8238,32.7725],[-116.8257,32.7725],[-116.819,32.7718],[-116.8162,32.7703],[-116.8119,32.7706],[-116.8097,32.7725],[-116.8071,32.7725],[-116.8068,32.7744],[-116.8056,32.7745],[-116.7988,32.772],[-116.7935,32.7743],[-116.7915,32.7788],[-116.794,32.7827],[-116.7918,32.7847],[-116.7835,32.7866],[-116.7753,32.7855],[-116.7732,32.7873],[-116.7653,32.7862],[-116.7597,32.7949],[-116.7507,32.7919],[-116.7511,32.7976],[-116.7463,32.8015],[-116.7458,32.8061],[-116.7429,32.8064],[-116.7433,32.8125],[-116.7411,32.8142],[-116.7385,32.8145],[-116.7386,32.8125],[-116.7331,32.8102],[-116.7242,32.8129],[-116.7174,32.8111],[-116.7139,32.813],[-116.7105,32.8181],[-116.7038,32.8219],[-116.6948,32.8221],[-116.6891,32.8198],[-116.6777,32.8237],[-116.6763,32.8265],[-116.6714,32.8274],[-116.6766,32.8359],[-116.6766,32.8379],[-116.6811,32.8384],[-116.6815,32.8402],[-116.6838,32.8418],[-116.6876,32.8418],[-116.6874,32.8435],[-116.7015,32.842],[-116.7014,32.8383],[-116.7109,32.8382],[-116.7111,32.8491],[-116.7068,32.8491],[-116.7066,32.8565],[-116.7025,32.8565],[-116.7028,32.8665],[-116.6987,32.8665],[-116.6983,32.8635],[-116.6946,32.8642],[-116.6981,32.8738],[-116.7193,32.8742],[-116.7195,32.8891],[-116.7552,32.8882],[-116.7558,32.874],[-116.7725,32.874],[-116.7728,32.8818],[-116.7877,32.8809],[-116.7894,32.8762],[-116.7899,32.8884],[-116.7943,32.8834],[-116.793,32.8781],[-116.7952,32.8722],[-116.7949,32.8683],[-116.798,32.8652],[-116.799,32.8604],[-116.8039,32.855],[-116.8053,32.8484],[-116.8074,32.8478],[-116.8094,32.8443],[-116.8076,32.8417],[-116.8155,32.8312],[-116.811,32.8254],[-116.8064,32.8224],[-116.8068,32.819],[-116.81,32.8185],[-116.8093,32.8122],[-116.8123,32.8077],[-116.8238,32.8009],[-116.8281,32.7958],[-116.8289,32.7929]]]},"properties":{"GEOID":"0607390030","NAME":"Alpine","COUNTY":"073"}},{"type":"Feature","geometry":{"type":"Polygon","coordinates":[[[-116.6184,33.3772],[-116.618,33.3633],[-116.5674,33.3629],[-116.5676,33.3559],[-116.5803,33.3542],[-116.5803,33.3488],[-116.5715,33.3487],[-116.5714,33.3472],[-116.5676,33.3473],[-116.567,33.3416],[-116.5014,33.3411],[-116.5008,33.2491],[-116.4999,33.2468],[-116.4915,33.2466],[-116.4916,33.2319],[-116.4959,33.2321],[-116.4953,33.2105],[-116.5082,33.2104],[-116.5082,33.2029],[-116.4997,33.2029],[-116.4995,33.1917],[-116.495,33.1898],[-116.4926,33.1865],[-116.4974,33.1838],[-116.4993,33.1852],[-116.5003,33.1846],[-116.5014,33.1777],[-116.5124,33.1781],[-116.5125,33.1812],[-116.517,33.1816],[-116.5162,33.1675],[-116.5115,33.1623],[-116.5066,33.1623],[-116.4959,33.1577],[-116.4855,33.1572],[-116.4801,33.1553],[-116.4761,33.1521],[-116.4621,33.152],[-116.4498,33.1476],[-116.435,33.1397],[-116.422,33.1347],[-116.417,33.1345],[-116.4202,33.1295],[-116.4345,33.1286],[-116.4358,33.1245],[-116.4345,33.1195],[-116.4491,33.1106],[-116.451,33.1058],[-116.4542,33.103],[-116.4594,33.1006],[-116.4682,33.0996],[-116.5317,33.0784],[-116.5466,33.0689],[-116.5477,33.0675],[-116.5448,33.0672],[-116.5476,33.0635],[-116.5469,33.0605],[-116.5407,33.0506],[-116.5383,33.0501],[-116.5402,33.0449],[-116.5374,33.0409],[-116.5361,33.0349],[-116.5312,33.0282],[-116.53,33.0238],[-116.5276,33.0206],[-116.5266,33.0142],[-116.5291,33.0118],[-116.5302,33.013],[-116.5329,33.0126],[-116.5325,33.0138],[-116.5343,33.0146],[-116.5351,33.0125],[-116.5372,33.0135],[-116.538,33.0109],[-116.5403,33.0106],[-116.5441,33.0187],[-116.5504,33.0201],[-116.5586,33.0172],[-116.5613,33.0186],[-116.5625,33.0159],[-116.5612,33.0109],[-116.545,32.9953],[-116.5383,32.9939],[-116.5346,32.9917],[-116.5331,32.989],[-116.533,32.9845],[-116.5307,32.9811],[-116.5177,32.9749],[-116.5138,32.9704],[-116.5077,32.954],[-116.5045,32.9488],[-116.5014,32.9476],[-116.4995,32.9448],[-116.4937,32.9446],[-116.487,32.936],[-116.4826,32.9345],[-116.4808,32.9288],[-116.4824,32.9241],[-116.4773,32.9244],[-116.4613,32.9115],[-116.4533,32.8986],[-116.4497,32.8973],[-116.448,32.8932],[-116.4305,32.8842],[-116.4295,32.8858],[-116.428,32.8855],[-116.4266,32.8893],[-116.4276,32.8918],[-116.4242,32.8928],[-116.4215,32.891],[-116.4192,32.8879],[-116.4179,32.8823],[-116.4161,32.8831],[-116.4114,32.8735],[-116.4145,32.8724],[-116.4126,32.8716],[-116.416,32.8711],[-116.4158,32.8696],[-116.4139,32.8691],[-116.4141,32.8648],[-116.4129,32.8637],[-116.4123,32.8654],[-116.3778,32.8655],[-116.3775,32.8584],[-116.3598,32.8585],[-116.3597,32.8559],[-116.3573,32.8576],[-116.3432,32.8614],[-116.341,32.8636],[-116.3337,32.8643],[-116.3312,32.8657],[-116.3242,32.8647],[-116.3182,32.8717],[-116.3182,32.8585],[-116.3224,32.8586],[-116.3223,32.8549],[-116.3265,32.855],[-116.3265,32.8514],[-116.3349,32.8514],[-116.3346,32.8297],[-116.3263,32.8295],[-116.3262,32.8149],[-116.3095,32.8151],[-116.309,32.8294],[-116.2201,32.8288],[-116.2234,32.7263],[-116.2093,32.7266],[-116.208,32.7117],[-116.2094,32.6972],[-116.2087,32.6614],[-116.1954,32.6502],[-116.1762,32.6428],[-116.1647,32.6359],[-116.1473,32.6339],[-116.1134,32.637],[-116.11,32.6383],[-116.1058,32.6446],[-116.1056,32.7263],[-116.103,32.7264],[-116.1033,33.0748],[-116.0812,33.0749],[-116.0812,33.1908],[-116.0852,33.3392],[-116.0849,33.4263],[-116.1299,33.4261],[-116.1977,33.4289],[-116.2985,33.4275],[-116.6177,33.4274],[-116.6184,33.3772]]]},"properties":{"GEOID":"0607390258","NAME":"Borrego Springs","COUNTY":"073"}},{"type":"Feature","geometry":{"type":"Polygon","coordinates":[[[-116.7903,32.9122],[-116.7894,32.8762],[-116.7877,32.8809],[-116.7728,32.8818],[-116.7725,32.874],[-116.7552,32.874],[-116.7552,32.8882],[-116.7195,32.8891],[-116.7193,32.8742],[-116.6981,32.8738],[-116.6946,32.8642],[-116.6983,32.8635],[-116.6987,32.8665],[-116.7028,32.8665],[-116.7025,32.8565],[-116.7066,32.8565],[-116.7068,32.8491],[-116.7111,32.8491],[-116.7109,32.8382],[-116.7014,32.8383],[-116.7015,32.842],[-116.6874,32.8435],[-116.6876,32.8418],[-116.6838,32.8418],[-116.6815,32.8402],[-116.6811,32.8384],[-116.6766,32.8379],[-116.6766,32.8359],[-116.6713,32.8272],[-116.6763,32.8265],[-116.6777,32.8237],[-116.6891,32.8198],[-116.6948,32.8221],[-116.7038,32.8219],[-116.7105,32.8181],[-116.7139,32.813],[-116.7175,32.811],[-116.7242,32.8129],[-116.7331,32.8102],[-116.7386,32.8125],[-116.7384,32.8145],[-116.741,32.8142],[-116.7433,32.8128],[-116.7429,32.8064],[-116.7458,32.8061],[-116.7463,32.8015],[-116.7514,32.7966],[-116.7502,32.793],[-116.7451,32.7956],[-116.7355,32.7933],[-116.7318,32.7956],[-116.7224,32.7938],[-116.7187,32.7912],[-116.7105,32.7895],[-116.7084,32.7872],[-116.7083,32.7852],[-116.71,32.7828],[-116.7088,32.7801],[-116.7096,32.7775],[-116.7083,32.7759],[-116.7142,32.7779],[-116.7086,32.7748],[-116.7052,32.7712],[-116.699,32.7703],[-116.6887,32.7648],[-116.6752,32.7645],[-116.674,32.7595],[-116.6758,32.7558],[-116.6682,32.7486],[-116.6699,32.7439],[-116.6738,32.7432],[-116.6824,32.7275],[-116.6814,32.7244],[-116.6792,32.7241],[-116.6776,32.7216],[-116.6795,32.7185],[-116.673,32.7146],[-116.6724,32.709],[-116.667,32.7094],[-116.6642,32.7227],[-116.6586,32.7212],[-116.6577,32.7248],[-116.6511,32.7337],[-116.654,32.7385],[-116.6508,32.7385],[-116.6515,32.7408],[-116.6498,32.7431],[-116.6509,32.7454],[-116.6494,32.7484],[-116.6504,32.7513],[-116.648,32.7537],[-116.648,32.7579],[-116.6435,32.7597],[-116.6413,32.7626],[-116.6433,32.7643],[-116.6396,32.7685],[-116.6411,32.7721],[-116.6371,32.7728],[-116.6386,32.7757],[-116.6362,32.7743],[-116.6357,32.7775],[-116.6324,32.777],[-116.6333,32.7805],[-116.6303,32.7814],[-116.6302,32.7837],[-116.6264,32.7836],[-116.6258,32.7872],[-116.6233,32.7868],[-116.6218,32.7886],[-116.6194,32.7887],[-116.6086,32.7982],[-116.6012,32.7972],[-116.5988,32.7985],[-116.5948,32.7982],[-116.5939,32.7993],[-116.5894,32.798],[-116.582,32.8001],[-116.5745,32.8003],[-116.5733,32.8018],[-116.5746,32.8045],[-116.5712,32.8051],[-116.5709,32.807],[-116.568,32.8074],[-116.5674,32.8137],[-116.5653,32.8153],[-116.5658,32.8178],[-116.5622,32.8189],[-116.5601,32.8233],[-116.5533,32.8229],[-116.5436,32.8188],[-116.5322,32.8186],[-116.5105,32.8113],[-116.5086,32.8151],[-116.5102,32.8189],[-116.5082,32.8218],[-116.5053,32.8224],[-116.5038,32.8246],[-116.4999,32.8244],[-116.4962,32.8258],[-116.4952,32.8284],[-116.4967,32.8365],[-116.4951,32.8383],[-116.4957,32.8421],[-116.4942,32.845],[-116.4873,32.8461],[-116.4851,32.8496],[-116.4757,32.8549],[-116.4673,32.8556],[-116.4642,32.8574],[-116.4605,32.8622],[-116.4586,32.8615],[-116.4575,32.8578],[-116.4458,32.846],[-116.4408,32.8445],[-116.4361,32.8473],[-116.4297,32.8479],[-116.4305,32.8411],[-116.4248,32.8342],[-116.4238,32.8358],[-116.4217,32.8355],[-116.4207,32.8396],[-116.4181,32.8411],[-116.4194,32.8506],[-116.4212,32.8529],[-116.4205,32.855],[-116.4223,32.8565],[-116.4207,32.8587],[-116.4137,32.8592],[-116.4133,32.8673],[-116.416,32.8711],[-116.4126,32.8716],[-116.4145,32.8724],[-116.4114,32.8735],[-116.4161,32.8831],[-116.4179,32.8823],[-116.4192,32.8879],[-116.4227,32.892],[-116.4245,32.8928],[-116.4276,32.8918],[-116.4266,32.8893],[-116.428,32.8855],[-116.4295,32.8858],[-116.4305,32.8842],[-116.4432,32.8902],[-116.4481,32.8934],[-116.4499,32.8974],[-116.4532,32.8985],[-116.4613,32.9115],[-116.4773,32.9244],[-116.4824,32.9241],[-116.4808,32.9288],[-116.4824,32.9343],[-116.487,32.936],[-116.4937,32.9446],[-116.4995,32.9448],[-116.5014,32.9476],[-116.5045,32.9488],[-116.5077,32.954],[-116.5138,32.9704],[-116.5177,32.9749],[-116.5307,32.9811],[-116.533,32.9845],[-116.5331,32.989],[-116.5346,32.9917],[-116.5383,32.9939],[-116.5452,32.9954],[-116.5551,33.0041],[-116.5597,33.0103],[-116.5612,33.0109],[-116.5636,33.0081],[-116.5644,33.0025],[-116.5668,32.999],[-116.5723,32.993],[-116.5765,32.9907],[-116.5857,32.9917],[-116.5864,32.9945],[-116.5889,32.9944],[-116.5904,32.9963],[-116.5953,32.9975],[-116.5986,33.0012],[-116.6031,33.0033],[-116.604,33.0101],[-116.6069,33.0122],[-116.614,33.0082],[-116.6118,33.0118],[-116.6182,33.0097],[-116.6211,33.0048],[-116.6224,33.0091],[-116.6213,33.0098],[-116.6216,33.0122],[-116.6256,33.0114],[-116.6312,33.0175],[-116.6349,33.0168],[-116.6364,33.0235],[-116.6347,33.0258],[-116.6373,33.0251],[-116.6395,33.0272],[-116.638,33.0302],[-116.6353,33.0294],[-116.6341,33.0308],[-116.6356,33.0316],[-116.6335,33.0352],[-116.6362,33.0379],[-116.6356,33.0405],[-116.6371,33.0416],[-116.6354,33.0445],[-116.6361,33.0484],[-116.6389,33.047],[-116.6402,33.0435],[-116.6445,33.0424],[-116.6464,33.0435],[-116.6485,33.0382],[-116.6463,33.0358],[-116.6472,33.0345],[-116.65,33.0345],[-116.6517,33.0321],[-116.6542,33.0334],[-116.6654,33.0267],[-116.673,33.0254],[-116.6768,33.0213],[-116.6864,33.0204],[-116.6949,33.0269],[-116.7039,33.0241],[-116.7052,33.0219],[-116.7037,33.021],[-116.7083,33.0208],[-116.71,33.0193],[-116.7151,33.0023],[-116.7194,33.0031],[-116.7202,33.0021],[-116.7229,33.0033],[-116.7255,33.0024],[-116.7294,32.9972],[-116.7281,32.9939],[-116.7323,32.9935],[-116.7397,32.9889],[-116.7391,32.9881],[-116.7408,32.9875],[-116.7437,32.9817],[-116.7408,32.9777],[-116.7711,32.9782],[-116.7705,32.9633],[-116.773,32.9497],[-116.7893,32.9492],[-116.7903,32.9122]]]},"properties":{"GEOID":"0607391510","NAME":"Laguna-Pine Valley","COUNTY":"073"}},{"type":"Feature","geometry":{"type":"MultiPolygon","coordinates":[[[[-117.4372,33.1798],[-117.3759,33.0752],[-117.3149,33.0884],[-117.31320393675027,33.08708083969466],[-117.31328,33.08739],[-117.32764,33.12058],[-117.32998,33.12424],[-117.33603,33.1302],[-117.3416,33.14175],[-117.35887,33.16411],[-117.35734,33.16658],[-117.35891,33.16445],[-117.38488,33.1939],[-117.38906,33.19167],[-117.38499,33.19401],[-117.39231,33.20255],[-117.39394,33.20167],[-117.3927,33.20253],[-117.39781,33.20723],[-117.39658,33.20771],[-117.39776028423067,33.20965975129817],[-117.4024,33.2056],[-117.4372,33.1798]]],[[[-117.27986973618346,33.18225413380234],[-117.27737,33.18367],[-117.27737,33.18209],[-117.27886,33.1821],[-117.27838,33.18102],[-117.27627,33.1819],[-117.27518,33.18135],[-117.27378,33.18321],[-117.25316167605752,33.173753040021566],[-117.25461,33.17638],[-117.25609,33.17681],[-117.25605,33.17749],[-117.25495,33.17715],[-117.25391,33.17784],[-117.2539,33.17871],[-117.25498,33.17935],[-117.25349,33.18151],[-117.2562,33.1827],[-117.25608,33.18111],[-117.25916,33.18176],[-117.25931,33.18297],[-117.26009,33.18296],[-117.26008,33.18453],[-117.26086,33.18447],[-117.26086,33.18296],[-117.26144,33.18296],[-117.26144,33.18443],[-117.26423,33.18365],[-117.26315,33.18479],[-117.26422,33.18479],[-117.26348,33.18515],[-117.26355,33.18658],[-117.26531,33.1859],[-117.26513,33.18667],[-117.26641,33.18667],[-117.26643,33.18297],[-117.2693,33.18222],[-117.2696,33.18298],[-117.27133,33.183],[-117.27138,33.18628],[-117.27419,33.18627],[-117.27387,33.18527],[-117.27825,33.1837],[-117.27986973618346,33.18225413380234]]],[[[-117.26931479169646,33.299988652777856],[-117.26232,33.29997],[-117.2623,33.29793],[-117.26409,33.29721],[-117.26419,33.29497],[-117.26347,33.29464],[-117.26119,33.29549],[-117.26131,33.29633],[-117.25799,33.29635],[-117.25795,33.29272],[-117.26225,33.29274],[-117.26226,33.28552],[-117.2493,33.28537],[-117.24935,33.28172],[-117.25251,33.28223],[-117.25287,33.28122],[-117.25362,33.28152],[-117.25361,33.27815],[-117.2450083042621,33.278010297285],[-117.2475,33.2811],[-117.2461,33.2846],[-117.2425,33.2883],[-117.2415,33.2926],[-117.2432,33.2937],[-117.2424,33.3025],[-117.2448,33.3046],[-117.249,33.313],[-117.2492,33.3218],[-117.2601,33.3219],[-117.2601,33.3292],[-117.2658,33.3292],[-117.2693,33.3],[-117.26931479169646,33.299988652777856]]],[[[-117.26279,33.23743],[-117.26102,33.23646],[-117.26148,33.23585],[-117.25778,33.23525],[-117.25914,33.23551],[-117.25683,33.23848],[-117.25013,33.23418],[-117.24849,33.23512],[-117.24633,33.23509],[-117.24687,33.23539],[-117.24626,33.23582],[-117.2454,33.23507],[-117.24539,33.23354],[-117.24409,33.23429],[-117.24331,33.23152],[-117.24307,33.23249],[-117.24135,33.23247],[-117.24109,33.23158],[-117.2387,33.23096],[-117.23907,33.22916],[-117.23699,33.229],[-117.23701,33.23229],[-117.23502,33.23242],[-117.23444,33.23059],[-117.23601,33.2306],[-117.23591,33.22891],[-117.2309,33.2285],[-117.23045,33.22955],[-117.23019,33.22845],[-117.22941,33.22839],[-117.22892,33.23035],[-117.2273,33.23035],[-117.227,33.23172],[-117.22914,33.23179],[-117.22903,33.23083],[-117.23104,33.23108],[-117.23156,33.23229],[-117.22924,33.23231],[-117.22937,33.23483],[-117.2262,33.23442],[-117.22626,33.2367],[-117.22419,33.23669],[-117.22434,33.23574],[-117.22178,33.23586],[-117.2209,33.23604],[-117.22075,33.23725],[-117.21727,33.23768],[-117.21729,33.23539],[-117.22026,33.2356],[-117.2191,33.23403],[-117.22124,33.23326],[-117.2213,33.23201],[-117.22225,33.23218],[-117.22229,33.23033],[-117.21884,33.23007],[-117.21874,33.22926],[-117.21715,33.22903],[-117.21687,33.23125],[-117.21516,33.23158],[-117.21634,33.23042],[-117.21591,33.22973],[-117.21567,33.23042],[-117.21404,33.23047],[-117.21408,33.22922],[-117.21509,33.22826],[-117.21619,33.22911],[-117.21649,33.22866],[-117.21507,33.22802],[-117.21534,33.22486],[-117.20927,33.22726],[-117.20473,33.22665],[-117.20473,33.223],[-117.20654,33.22298],[-117.20744,33.22122],[-117.20723,33.22062],[-117.20527,33.22206],[-117.20364,33.22206],[-117.20363,33.22076],[-117.20495,33.22076],[-117.20582,33.21931],[-117.20667,33.21931],[-117.20664,33.21772],[-117.20805,33.21799],[-117.20805,33.21655],[-117.20574,33.21646],[-117.20572,33.21562],[-117.20805,33.21565],[-117.208,33.21114],[-117.20668,33.21112],[-117.20666,33.21203],[-117.20156,33.2118],[-117.20152,33.21115],[-117.20175,33.20977],[-117.20623,33.21022],[-117.20445,33.20836],[-117.20513,33.20838],[-117.20517,33.20631],[-117.20158,33.20652],[-117.20201,33.20559],[-117.19979,33.20608],[-117.20061,33.21005],[-117.19891,33.21003],[-117.19866,33.20825],[-117.19588,33.20822],[-117.19568,33.20726],[-117.19706,33.20712],[-117.1967,33.20616],[-117.19396,33.20616],[-117.19225,33.20712],[-117.19228,33.2011],[-117.19784,33.2011],[-117.19826,33.2028],[-117.19985,33.20216],[-117.20395,33.20245],[-117.20398,33.20114],[-117.20614,33.2008],[-117.20611,33.20179],[-117.20849,33.20242],[-117.20846,33.20479],[-117.21339,33.20477],[-117.21243,33.20349],[-117.21586,33.20414],[-117.21681,33.20109],[-117.2155,33.20108],[-117.21457,33.20263],[-117.21315,33.20219],[-117.21439,33.19884],[-117.21337,33.19751],[-117.21345,33.19568],[-117.21194,33.19487],[-117.21217,33.19389],[-117.21128,33.19388],[-117.21088,33.19476],[-117.20865,33.1947],[-117.20863,33.19392],[-117.21068,33.19392],[-117.21068,33.19251],[-117.20955,33.19249],[-117.20961,33.18664],[-117.21128,33.18663],[-117.21166,33.18741],[-117.21183,33.18667],[-117.21337,33.18657],[-117.21353,33.19028],[-117.21537,33.1903],[-117.21537,33.19137],[-117.21752,33.19065],[-117.2157,33.19031],[-117.21681,33.18854],[-117.21757,33.19064],[-117.22009,33.19069],[-117.22135,33.18756],[-117.22034,33.18667],[-117.22111,33.18598],[-117.21849,33.18526],[-117.21904,33.18293],[-117.21749,33.18194],[-117.21902,33.18074],[-117.21967,33.18186],[-117.22118,33.18179],[-117.22064,33.18117],[-117.22181,33.18113],[-117.2218,33.18002],[-117.22398,33.18126],[-117.22514,33.17999],[-117.22594,33.1802],[-117.22593,33.17953],[-117.22887,33.17946],[-117.22511,33.17357],[-117.22452,33.17421],[-117.22266,33.17399],[-117.22231,33.1733],[-117.21961,33.17406],[-117.21837,33.17335],[-117.21719,33.17361],[-117.21856,33.17422],[-117.21791,33.17589],[-117.21571,33.17553],[-117.21511,33.17389],[-117.21395,33.17386],[-117.21414,33.17067],[-117.21267,33.17055],[-117.21203,33.17125],[-117.21137,33.17087],[-117.2113,33.16868],[-117.20951,33.16822],[-117.21243,33.16753],[-117.21248,33.1666],[-117.21408,33.16723],[-117.21469,33.16656],[-117.21344,33.16512],[-117.21567,33.16583],[-117.21812,33.16291],[-117.21729,33.16194],[-117.21605,33.16238],[-117.21463,33.1599],[-117.21398,33.16023],[-117.213,33.15917],[-117.21467,33.15845],[-117.2158,33.16007],[-117.21652,33.15938],[-117.21738,33.1608],[-117.21856,33.16015],[-117.21854,33.15844],[-117.21589,33.15818],[-117.21871,33.15345],[-117.21622,33.15201],[-117.21443,33.15593],[-117.21245,33.15491],[-117.21463,33.15116],[-117.21318471394954,33.15064524058477],[-117.21125,33.15449],[-117.20916,33.15378],[-117.20345,33.16385],[-117.19553,33.16264],[-117.19559,33.16402],[-117.19134,33.16841],[-117.19139,33.17211],[-117.18716,33.17212],[-117.1872,33.17467],[-117.1837,33.17927],[-117.1849,33.17514],[-117.18164,33.17422],[-117.17861,33.17932],[-117.17792,33.18288],[-117.17842,33.17927],[-117.18085,33.1733],[-117.17791,33.17311],[-117.17541,33.17431],[-117.17364,33.17418],[-117.17484,33.17562],[-117.16806,33.17568],[-117.16605,33.17473],[-117.16609,33.17566],[-117.16393,33.17566],[-117.16392,33.17428],[-117.16197,33.17406],[-117.15794,33.18317],[-117.16191,33.18306],[-117.16196,33.18678],[-117.15648,33.18685],[-117.15636,33.18824],[-117.15256,33.18827],[-117.15046,33.18417],[-117.15242,33.17967],[-117.15119,33.17939],[-117.15052,33.18109],[-117.14744,33.18019],[-117.14823,33.17835],[-117.14543,33.1774],[-117.14265,33.17752],[-117.13966,33.17614],[-117.13994,33.17214],[-117.14649,33.17208],[-117.14781,33.17019],[-117.14569,33.16954],[-117.14573832306917,33.16831017788961],[-117.13998,33.16833],[-117.13984,33.17213],[-117.13625,33.17199],[-117.13613,33.17471],[-117.13469,33.17469],[-117.13446,33.18023],[-117.13587,33.18011],[-117.13576,33.18286],[-117.12876,33.18262],[-117.11785,33.1819],[-117.11582,33.17839],[-117.11871,33.17836],[-117.11892,33.16156],[-117.11303,33.16247],[-117.1135,33.15991],[-117.10964,33.16059],[-117.10942,33.16135],[-117.1084,33.16116],[-117.10918,33.16003],[-117.1058,33.16005],[-117.10579,33.16353],[-117.11025,33.16353],[-117.11018,33.16742],[-117.10148,33.1674],[-117.1015,33.16361],[-117.09277,33.16364],[-117.09287,33.1675],[-117.09708,33.16731],[-117.09711,33.171],[-117.09273,33.17102],[-117.09275,33.17461],[-117.09511,33.17467],[-117.09484,33.17644],[-117.09277,33.17643],[-117.09277,33.17539],[-117.0906,33.176],[-117.0898,33.17454],[-117.08859,33.17454],[-117.08894,33.17347],[-117.08757,33.17446],[-117.08734,33.17392],[-117.08574,33.17438],[-117.08649,33.17468],[-117.08561,33.17949],[-117.08418,33.17671],[-117.08471,33.17467],[-117.0835,33.17503],[-117.08103,33.16909],[-117.07984,33.16902],[-117.07921,33.16723],[-117.07721,33.16723],[-117.07718,33.166],[-117.07612,33.16598],[-117.07612,33.16415],[-117.07452,33.16482],[-117.0738,33.16347],[-117.05232,33.16328],[-117.0525,33.16694],[-117.05846,33.16708],[-117.05842,33.1707],[-117.06703,33.17089],[-117.06701,33.19261],[-117.07138,33.19265],[-117.07148,33.19616],[-117.07584,33.19626],[-117.07618,33.20344],[-117.08501,33.2038],[-117.08592566155566,33.21055890385422],[-117.089,33.212],[-117.0897,33.2087],[-117.1021,33.2096],[-117.0993,33.2127],[-117.1086,33.2116],[-117.1081,33.2107],[-117.1116,33.2049],[-117.1178,33.2023],[-117.1198,33.1993],[-117.1259,33.1972],[-117.1423,33.2212],[-117.1562,33.2529],[-117.1735,33.2514],[-117.1801,33.2536],[-117.1851,33.2525],[-117.2013,33.2528],[-117.2129,33.2569],[-117.2126,33.2587],[-117.2148,33.2605],[-117.2239,33.2635],[-117.2291,33.2668],[-117.2331,33.2673],[-117.2364,33.2597],[-117.23683799051315,33.26635745579991],[-117.23693,33.26551],[-117.24503,33.26574],[-117.24522,33.26349],[-117.24928,33.26355],[-117.24926,33.25888],[-117.245,33.25894],[-117.245,33.25979],[-117.24286,33.25979],[-117.24287,33.25531],[-117.24501,33.25479],[-117.24493,33.24061],[-117.25572,33.24656],[-117.25806,33.24352],[-117.25992,33.24452],[-117.26222,33.24148],[-117.26042,33.24046],[-117.26279,33.23743]],[[-117.16914,33.24184],[-117.16878,33.24195],[-117.1689,33.24181],[-117.16914,33.24184]]],[[[-117.25355,33.17672],[-117.2522,33.17507],[-117.25315876135245,33.17375170314039],[-117.24886,33.17178],[-117.24834,33.1702],[-117.2464,33.17022],[-117.24643,33.16833],[-117.24473,33.16833],[-117.24476,33.17337],[-117.24677,33.17363],[-117.24854,33.17905],[-117.24972,33.17733],[-117.25355,33.17672]]],[[[-117.24496009870225,33.2671159605191],[-117.24496,33.26708],[-117.23937,33.26712],[-117.23937,33.26794434782609],[-117.2415,33.2685],[-117.24496009870225,33.2671159605191]]],[[[-117.22979509187061,33.117720158650506],[-117.22977,33.11358],[-117.22819,33.11359],[-117.22735,33.11134],[-117.22793,33.1109],[-117.22722,33.10985],[-117.22572,33.10985],[-117.22653,33.10918],[-117.22575,33.10862],[-117.22565002234212,33.108244453671695],[-117.22549,33.10977],[-117.22713,33.11481],[-117.226,33.11702],[-117.22668,33.11774],[-117.22979509187061,33.117720158650506]]],[[[-117.22559,33.11937],[-117.2238,33.11846],[-117.22131,33.12063],[-117.22558,33.12013],[-117.22559,33.11937]]],[[[-117.22552,33.11669],[-117.22547,33.11336],[-117.21687,33.11338],[-117.21693,33.10965],[-117.20959,33.10957],[-117.20814,33.1088],[-117.20817,33.11489],[-117.19043,33.11501],[-117.19051,33.12029],[-117.19521,33.12066],[-117.19599,33.1269],[-117.2006,33.13061],[-117.20267,33.13041],[-117.20389,33.12938],[-117.20389,33.1278],[-117.20833,33.12778],[-117.2083,33.13135],[-117.21126,33.12875],[-117.21283,33.13],[-117.21728,33.12609],[-117.21572,33.12462],[-117.22123,33.11979],[-117.22123,33.11902],[-117.22552,33.11669]]],[[[-117.17855,33.09776],[-117.17838337917485,33.096502770137526],[-117.1724,33.0975],[-117.1703,33.0926],[-117.1665,33.0913],[-117.1648,33.0885],[-117.1658,33.0795],[-117.1633,33.0728],[-117.1653,33.0711],[-117.1697,33.0705],[-117.1702,33.0669],[-117.1724,33.0636],[-117.1666,33.0637],[-117.1634,33.0622],[-117.1625,33.0633],[-117.1604,33.0626],[-117.1575,33.0641],[-117.1546,33.0633],[-117.1439,33.0662],[-117.1391,33.0631],[-117.1372,33.0598],[-117.1348,33.0595],[-117.1266,33.0628],[-117.1232,33.0614],[-117.11951438931298,33.06236671755725],[-117.12013,33.06258],[-117.1193,33.06417],[-117.12019,33.06622],[-117.11813,33.0708],[-117.11813,33.07688],[-117.11459,33.08007],[-117.10685,33.07313],[-117.10589,33.07387],[-117.10543,33.07178],[-117.10377,33.07011],[-117.09878,33.06756],[-117.09849,33.06453],[-117.09661,33.06331],[-117.09474,33.06365],[-117.09557,33.06122],[-117.08996112573594,33.05855195897997],[-117.0892,33.07152],[-117.08804,33.07153],[-117.08719,33.07518],[-117.08741,33.07198],[-117.08615,33.07163],[-117.08346,33.07319],[-117.07889,33.07295],[-117.07917,33.07517],[-117.081,33.07585],[-117.07986,33.07712],[-117.07521,33.07628],[-117.07501,33.07874],[-117.073,33.07741],[-117.0734,33.07598],[-117.06955,33.07525],[-117.07279,33.0895],[-117.07414,33.08982],[-117.07312,33.09079],[-117.07638,33.09135],[-117.07675,33.09016],[-117.07832,33.08997],[-117.07759,33.08908],[-117.08434,33.09094],[-117.08518,33.08923],[-117.08095,33.08846],[-117.08053,33.0898],[-117.07883,33.08792],[-117.08109,33.08787],[-117.08231,33.08314],[-117.08362,33.08327],[-117.08493,33.08669],[-117.08462,33.08796],[-117.08587,33.08905],[-117.08543,33.0898],[-117.08725,33.09013],[-117.08647,33.09317],[-117.08551,33.09353],[-117.08762,33.09696],[-117.09206,33.09786],[-117.09417,33.09744],[-117.09399,33.09817],[-117.09823,33.09899],[-117.09866,33.09724],[-117.09771,33.09707],[-117.09793,33.09619],[-117.10038,33.09668],[-117.10023,33.09754],[-117.10094,33.09767],[-117.10132,33.09591],[-117.09828,33.09531],[-117.0964,33.09588],[-117.09745,33.0933],[-117.09531,33.09296],[-117.09486,33.0947],[-117.08851,33.09355],[-117.0897,33.09125],[-117.08947,33.09],[-117.08738,33.08963],[-117.08786,33.08777],[-117.08849,33.0891],[-117.08972,33.089],[-117.09084,33.08466],[-117.09285,33.08503],[-117.09354,33.08148],[-117.09174,33.08116],[-117.09228,33.07909],[-117.09637,33.08024],[-117.09722,33.07969],[-117.10137,33.08157],[-117.10329,33.08153],[-117.10345,33.08088],[-117.10416,33.08139],[-117.10505,33.08232],[-117.10258,33.09095],[-117.10838,33.09105],[-117.10837,33.09232],[-117.1105,33.09303],[-117.10955,33.09313],[-117.10933,33.09462],[-117.11063,33.09464],[-117.11062,33.0917],[-117.11204,33.09206],[-117.1117,33.0947],[-117.11408,33.09337],[-117.11469,33.09183],[-117.11435,33.08881],[-117.11512,33.08755],[-117.11894,33.08753],[-117.11888,33.08377],[-117.1203,33.08025],[-117.13627,33.08018],[-117.13631,33.08388],[-117.13957,33.08387],[-117.1396,33.08751],[-117.12308,33.08757],[-117.12308,33.09836],[-117.12104,33.09835],[-117.12105,33.09659],[-117.11885,33.09659],[-117.11879,33.10134],[-117.11762,33.10137],[-117.11765,33.10289],[-117.11903,33.10291],[-117.11778,33.10446],[-117.119,33.10626],[-117.12145,33.10749],[-117.12013,33.10939],[-117.12314,33.10935],[-117.12351,33.11209],[-117.1272,33.11604],[-117.12512,33.11606],[-117.12514,33.11665],[-117.12743,33.11916],[-117.12647,33.11923],[-117.12657,33.12027],[-117.1254,33.12028],[-117.12533,33.12144],[-117.12315,33.12155],[-117.12235,33.12396],[-117.12079,33.12398],[-117.12081,33.12576],[-117.12331,33.12712],[-117.12335,33.1279],[-117.12587,33.12762],[-117.12737,33.1266],[-117.1275,33.12401],[-117.13404,33.12393],[-117.13404,33.12565],[-117.13197,33.12564],[-117.13195031235023,33.127421732304285],[-117.13969,33.12736],[-117.13972,33.11296],[-117.15597,33.11322],[-117.1564,33.10226],[-117.16237,33.1023],[-117.16239,33.09999],[-117.16569,33.09997],[-117.16568,33.09859],[-117.17073,33.09866],[-117.17072,33.1025],[-117.17271,33.10245],[-117.17374,33.10072],[-117.17727,33.10064],[-117.17721,33.09802],[-117.17855,33.09776]]],[[[-117.14584589797052,33.16439393155552],[-117.14132,33.15864],[-117.13834,33.15918],[-117.13764,33.15734],[-117.13649,33.1576],[-117.13791,33.16066],[-117.13604,33.16055],[-117.13507,33.15798],[-117.12894,33.15949],[-117.12893,33.15699],[-117.12854,33.16107],[-117.13878,33.16073],[-117.14003,33.16216],[-117.14162,33.16236],[-117.14166,33.16334],[-117.14584589797052,33.16439393155552]]],[[[-117.12217,33.14708],[-117.11274,33.14139],[-117.11651,33.13842],[-117.11463,33.13726],[-117.11585,33.1372],[-117.11655,33.13603],[-117.11456,33.13488],[-117.11542,33.13349],[-117.11369,33.13276],[-117.11231,33.13488],[-117.11209,33.13396],[-117.11017,33.13458],[-117.11368,33.12859],[-117.11268,33.13015],[-117.10482,33.12679],[-117.10336,33.12857],[-117.1042,33.12906],[-117.10339,33.12977],[-117.10485,33.13156],[-117.10619,33.13162],[-117.10416,33.13346],[-117.10755,33.13646],[-117.10992,33.13651],[-117.10657,33.13908],[-117.10786,33.14022],[-117.10634,33.14163],[-117.10713,33.14233],[-117.10722,33.14453],[-117.1092,33.14539],[-117.10949,33.14626],[-117.10875,33.14616],[-117.10863,33.14732],[-117.11025,33.1483],[-117.11028,33.14901],[-117.10935,33.1492],[-117.11017,33.14974],[-117.11043,33.15266],[-117.11464,33.15262],[-117.1147,33.15073],[-117.1139,33.15044],[-117.11519,33.14888],[-117.1167,33.14978],[-117.11901,33.14794],[-117.12180938178231,33.14955925024663],[-117.12217,33.14708]]],[[[-117.10037,33.15653],[-117.09851,33.15445],[-117.09847,33.15506],[-117.09738,33.15507],[-117.09501,33.1544],[-117.09432,33.15655],[-117.10037,33.15653]]],[[[-117.09383,33.10487],[-117.09098,33.1012],[-117.09027,33.10119],[-117.09047,33.10511],[-117.09383,33.10487]]],[[[-117.08829,33.15892],[-117.08781,33.1563],[-117.08624,33.1567],[-117.08478,33.15532],[-117.08188,33.1556],[-117.0833,33.15741],[-117.08419,33.15585],[-117.0862,33.15835],[-117.08269,33.16037],[-117.08392,33.16207],[-117.08732,33.1604],[-117.08676,33.15916],[-117.08829,33.15892]]],[[[-117.0881,33.2131],[-117.08593896314355,33.21065708877097],[-117.08598,33.21096],[-117.07230519308894,33.211346737800405],[-117.0727,33.2149],[-117.0777,33.214],[-117.087,33.2158],[-117.0881,33.2131]]],[[[-117.08743,33.14627],[-117.08648,33.14504],[-117.08382,33.14655],[-117.0846,33.14763],[-117.08403,33.14925],[-117.08477,33.14962],[-117.08392,33.15108],[-117.07971,33.1535],[-117.07742,33.15394],[-117.07895,33.15719],[-117.08324,33.15473],[-117.08648,33.1544],[-117.08621,33.15277],[-117.08723,33.15263],[-117.08661,33.14889],[-117.08569,33.14898],[-117.08556,33.14821],[-117.08642,33.1481],[-117.08631,33.14674],[-117.08743,33.14627]]],[[[-117.06948,33.09744],[-117.06598,33.0967],[-117.06655,33.09446],[-117.06124,33.08601],[-117.0573,33.0861],[-117.05842,33.08863],[-117.0585,33.09066],[-117.05767,33.0909],[-117.05858,33.09142],[-117.05897,33.09544],[-117.05965,33.09595],[-117.05912,33.09595],[-117.0589,33.0986],[-117.05516,33.10237],[-117.05632,33.09511],[-117.05445,33.09462],[-117.05479,33.09326],[-117.05388,33.09268],[-117.0546,33.09147],[-117.05248,33.09016],[-117.05075,33.09224],[-117.05147,33.09242],[-117.05141,33.09692],[-117.04623,33.09697],[-117.04641,33.09589],[-117.04299,33.0952],[-117.04327,33.09418],[-117.04684,33.09482],[-117.0478,33.09175],[-117.04876,33.09103],[-117.04804,33.08947],[-117.05012,33.08983],[-117.05255,33.08742],[-117.05337,33.08762],[-117.05449,33.08574],[-117.05279,33.08587],[-117.04908,33.0844],[-117.05127,33.0844],[-117.05037,33.08166],[-117.05257,33.08057],[-117.05211,33.07953],[-117.05371,33.07769],[-117.05354,33.07544],[-117.05186,33.07546],[-117.05227,33.07326],[-117.04605,33.07151],[-117.03875,33.07362],[-117.03723,33.07607],[-117.03635,33.07561],[-117.03507,33.07813],[-117.03535,33.07902],[-117.03673,33.0795],[-117.036,33.08015],[-117.0361,33.08197],[-117.035,33.08338],[-117.03344,33.08294],[-117.03207,33.08375],[-117.03053,33.08597],[-117.03044,33.08769],[-117.02824,33.08563],[-117.02638,33.08541],[-117.02617,33.08384],[-117.02523,33.08505],[-117.02597,33.08286],[-117.02156,33.08744],[-117.02323,33.08757],[-117.02076,33.0904],[-117.02391,33.09062],[-117.02393,33.09243],[-117.02059,33.09237],[-117.02103,33.09752],[-117.02349,33.09704],[-117.02648,33.09815],[-117.02435,33.09823],[-117.02456,33.10524],[-117.02012,33.10546],[-117.02028,33.10923],[-117.01274,33.11357],[-117.01276,33.11417],[-117.01263976905499,33.114170713536765],[-117.01053,33.11638],[-117.01251,33.11922],[-117.01261,33.12096],[-117.01515,33.12286],[-117.01704,33.12914],[-117.01766,33.12843],[-117.02549,33.12819],[-117.02662,33.12733],[-117.02678,33.12557],[-117.02897,33.12427],[-117.0328,33.12618],[-117.03713,33.12638],[-117.03825,33.12591],[-117.03806,33.12457],[-117.03858,33.1251],[-117.03907,33.12343],[-117.04056,33.12304],[-117.0416,33.12111],[-117.0442,33.12199],[-117.04545,33.1194],[-117.04855,33.12049],[-117.04781,33.12231],[-117.04929,33.12358],[-117.05043,33.12099],[-117.05156,33.12129],[-117.05185,33.12045],[-117.05386,33.12245],[-117.0568,33.12155],[-117.05724,33.12059],[-117.05798,33.12149],[-117.05727,33.12181],[-117.05759,33.12238],[-117.06006,33.12174],[-117.06032,33.12096],[-117.062,33.12223],[-117.06172,33.12164],[-117.06479,33.1205],[-117.06505,33.11665],[-117.0664,33.11607],[-117.06382,33.11556],[-117.06409,33.11455],[-117.06237,33.11423],[-117.06244,33.11302],[-117.06106,33.11227],[-117.06136,33.11151],[-117.06006,33.11235],[-117.06036,33.11161],[-117.05849,33.10985],[-117.05984,33.10879],[-117.059,33.10583],[-117.05835,33.10594],[-117.06003,33.10503],[-117.06034,33.10396],[-117.06013,33.10264],[-117.05966,33.10367],[-117.05843,33.10265],[-117.06039,33.1002],[-117.05936,33.0974],[-117.06001,33.09714],[-117.0605,33.09807],[-117.06372,33.09744],[-117.06536,33.101],[-117.06688,33.1009],[-117.06721,33.09956],[-117.06842,33.09952],[-117.06948,33.09744]]],[[[-117.06739,33.10543],[-117.06658,33.10549],[-117.06599,33.10438],[-117.06408,33.10431],[-117.0637,33.10196],[-117.0649,33.10182],[-117.06481,33.10128],[-117.0615,33.10201],[-117.06217,33.1065],[-117.06739,33.10543]]],[[[-117.0638,33.20739],[-117.05872,33.20743],[-117.05845,33.20311],[-117.04952,33.20324],[-117.04175,33.19658],[-117.04558,33.19641],[-117.04513,33.18141],[-117.04092,33.18139],[-117.04108,33.18514],[-117.03367,33.18539],[-117.03188,33.17035],[-117.02276,33.17038],[-117.02278,33.16686],[-117.01592,33.16628],[-117.0148,33.16267],[-117.02308,33.16296],[-117.02388,33.14898],[-117.01934,33.14894],[-117.01923,33.15237],[-117.01468,33.15223],[-117.01513,33.13404],[-116.99847,33.13478],[-116.99918,33.12285],[-116.9987,33.11644],[-117.00296,33.1163],[-117.0029,33.11256],[-116.99396,33.11275],[-116.99386,33.10913],[-116.99828,33.10914],[-116.98097,33.10898],[-116.98095,33.1054],[-116.96336,33.10568],[-116.96371,33.09129],[-116.95954,33.09139],[-116.95934,33.09292],[-116.95512,33.09369],[-116.95506,33.09885],[-116.94151,33.09872],[-116.94169,33.09509],[-116.93229,33.09505],[-116.93227,33.09122],[-116.90558,33.09089],[-116.9055178304443,33.08987544576111],[-116.9025,33.0898],[-116.8979,33.0878],[-116.8973,33.0921],[-116.8926,33.0902],[-116.8931,33.1641],[-116.9022,33.163],[-116.9168,33.1522],[-116.9195,33.1567],[-116.9197,33.1604],[-116.9214,33.1614],[-116.9318,33.1583],[-116.9355,33.1594],[-116.9363,33.1613],[-116.9424,33.1604],[-116.9438,33.1649],[-116.9432,33.1685],[-116.9453,33.1698],[-116.9477,33.1699],[-116.9513,33.167],[-116.9558,33.1666],[-116.9608,33.1689],[-116.9645,33.1662],[-116.9673,33.1679],[-116.9677,33.1714],[-116.9715,33.1781],[-116.9712,33.1833],[-116.9848,33.1832],[-116.9848,33.1904],[-116.9803,33.1905],[-116.9803,33.1979],[-117.0198,33.2005],[-117.028,33.198],[-117.0291,33.1993],[-117.0309,33.1984],[-117.0336,33.21],[-117.0371,33.21],[-117.0373,33.2111],[-117.0498,33.2114],[-117.0551,33.2102],[-117.0633,33.2116],[-117.06335017878426,33.211598327373856],[-117.0638,33.20739]],[[-117.02372,33.1806],[-117.02199,33.18059],[-117.02186,33.18208],[-117.01693,33.18199],[-117.01692,33.17947],[-117.02364,33.1796],[-117.02372,33.1806]]],[[[-117.03004,33.06465],[-117.02871,33.06289],[-117.02746276264591,33.062608365758756],[-117.027,33.0636],[-117.0208,33.0628],[-117.0183506991058,33.064116042271515],[-117.01862,33.0647],[-117.01641781593905,33.065154606361105],[-117.0141,33.0664],[-117.01391289940828,33.06639724852071],[-117.01391,33.0664],[-117.01370609756097,33.066394207317074],[-117.0005,33.0662],[-116.9968,33.0683],[-116.9837,33.067],[-116.982,33.0637],[-116.9712,33.0567],[-116.971,33.0627],[-116.9726,33.0672],[-116.9777,33.0737],[-116.9746,33.0753],[-116.9744290364068,33.075797348634744],[-116.97826,33.07352],[-116.98016,33.07465],[-116.98001,33.06959],[-116.98839,33.06954],[-116.98854,33.07307],[-117.01871,33.07318],[-117.01877,33.06632],[-117.02976,33.06601],[-117.03004,33.06465]]],[[[-116.95081,33.09518],[-116.95064004463187,33.08775195067522],[-116.9467,33.0878],[-116.9466874989996,33.0878531292517],[-116.94644,33.09509],[-116.95081,33.09518]]]]},"properties":{"GEOID":"0607392240","NAME":"Oceanside-Escondido","COUNTY":"073"}},{"type":"Feature","geometry":{"type":"Polygon","coordinates":[[[-116.9777,33.0737],[-116.9726,33.0672],[-116.971,33.0627],[-116.9701,33.0514],[-116.9711,33.0474],[-116.9741,33.0444],[-116.9714,33.0428],[-116.9724,33.0404],[-116.971,33.0385],[-116.9714,33.0371],[-116.9736,33.0364],[-116.974,33.0318],[-116.9698,33.0298],[-116.9587,33.0331],[-116.9571,33.0264],[-116.9533,33.0188],[-116.9528,33.0123],[-116.9543,33.0111],[-116.9591,32.9991],[-116.96191972355051,32.998408369695156],[-116.96206,32.99247],[-116.95777,32.99241],[-116.95779,32.9887],[-116.96206,32.98868],[-116.96211,32.97745],[-116.95777,32.97766],[-116.95779,32.98136],[-116.95345,32.98144],[-116.95343,32.98872],[-116.94485,32.98869],[-116.94484,32.98515],[-116.9404,32.98519],[-116.94034,32.97066],[-116.95348,32.97045],[-116.95355,32.96325],[-116.9578,32.96306],[-116.95779,32.96669],[-116.96213,32.96657],[-116.96213,32.96295],[-116.97204114227463,32.96299503358853],[-116.9725,32.961],[-116.9675,32.9526],[-116.9623,32.9457],[-116.9558,32.9409],[-116.9509,32.944],[-116.945,32.9442],[-116.942,32.9425],[-116.9407,32.9389],[-116.9366,32.9379],[-116.9365,32.9361],[-116.9387,32.9344],[-116.9362,32.9278],[-116.9312,32.9206],[-116.9264,32.9164],[-116.9232,32.9186],[-116.9222,32.9255],[-116.9189,32.9298],[-116.9161,32.9305],[-116.9105,32.9285],[-116.9064,32.931],[-116.9099,32.94],[-116.9053,32.9439],[-116.9047,32.9465],[-116.9072,32.9532],[-116.8973,32.9632],[-116.8953,32.9629],[-116.891,32.9656],[-116.8872,32.9646],[-116.8793,32.9692],[-116.8792,32.9681],[-116.8718,32.9672],[-116.8665,32.9636],[-116.8613,32.9636],[-116.8598,32.962],[-116.8556,32.9624],[-116.8524,32.9569],[-116.8528,32.9553],[-116.8493,32.956],[-116.8483,32.9633],[-116.8404,32.9642],[-116.8413,32.9934],[-116.8163,32.9929],[-116.818,32.9829],[-116.8134,32.9784],[-116.8062,32.9784],[-116.8063,32.9633],[-116.8048,32.9596],[-116.8011,32.9644],[-116.7982,32.9657],[-116.7986,32.9675],[-116.797,32.9694],[-116.7946,32.969],[-116.7911,32.9721],[-116.7886,32.9704],[-116.787,32.9728],[-116.7805,32.9773],[-116.7743,32.9765],[-116.7739,32.9742],[-116.7716,32.974],[-116.7711,32.9724],[-116.7711,32.9782],[-116.7408,32.9777],[-116.7437,32.9814],[-116.7411,32.9855],[-116.7405,32.99],[-116.736,32.9917],[-116.7327,32.9957],[-116.7256,33.0081],[-116.7246,33.0121],[-116.7264,33.0129],[-116.7259,33.0169],[-116.73,33.0259],[-116.7301,33.0326],[-116.7266,33.0387],[-116.7258,33.0432],[-116.7235,33.0449],[-116.7212,33.0498],[-116.7217,33.0516],[-116.726,33.0525],[-116.7215,33.0524],[-116.7199,33.0544],[-116.7204,33.07],[-116.7173,33.0778],[-116.7125,33.0829],[-116.7162,33.0847],[-116.7217,33.0838],[-116.722,33.0866],[-116.7267,33.0864],[-116.7258,33.0866],[-116.7272,33.0887],[-116.7274,33.0941],[-116.7301,33.0945],[-116.7337,33.1022],[-116.739,33.1047],[-116.7394,33.1085],[-116.7418,33.1107],[-116.7525,33.1141],[-116.7545,33.1134],[-116.755,33.1117],[-116.7603,33.1097],[-116.7652,33.1035],[-116.7775,33.1018],[-116.7803,33.1029],[-116.7859,33.1154],[-116.7858,33.1204],[-116.7876,33.123],[-116.7899,33.1234],[-116.7915,33.122],[-116.7946,33.1249],[-116.8024,33.1236],[-116.8067,33.1259],[-116.8079,33.1218],[-116.8145,33.1229],[-116.8182,33.1201],[-116.8203,33.1246],[-116.8229,33.1252],[-116.836,33.1238],[-116.8454,33.1178],[-116.8529,33.1202],[-116.8548,33.1181],[-116.8555,33.1134],[-116.854,33.1092],[-116.8557,33.1066],[-116.8684,33.107],[-116.8714,33.1026],[-116.8786,33.1002],[-116.8835,33.0947],[-116.8924,33.0927],[-116.8934,33.0899],[-116.8973,33.0921],[-116.8979,33.0878],[-116.9025,33.0898],[-116.9055178304443,33.08987544576111],[-116.90511,33.08322],[-116.91386,33.08329],[-116.91381,33.07964],[-116.94626,33.08014],[-116.94633,33.08371],[-116.94527,33.08365],[-116.94531,33.08737],[-116.94669,33.08778],[-116.94668791021672,33.08784110526316],[-116.9467,33.0878],[-116.95064004463187,33.08775195067522],[-116.95064,33.08775],[-116.95083759312321,33.087749541547275],[-116.9549,33.0877],[-116.95492508250825,33.08763590025669],[-116.95405,33.08398],[-116.95479,33.08388],[-116.95478,33.08264],[-116.95773,33.08249],[-116.95765,33.08014],[-116.97157,33.08011],[-116.97145,33.07522],[-116.97429,33.07588],[-116.9744290364068,33.075797348634744],[-116.9746,33.0753],[-116.9777,33.0737]]]},"properties":{"GEOID":"0607392550","NAME":"Ramona","COUNTY":"073"}},{"type":"Feature","geometry":{"type":"Polygon","coordinates":[[[-116.7651,32.5673],[-116.7573,32.5655],[-116.1062,32.6184],[-116.1058,32.6446],[-116.1091,32.6392],[-116.1128,32.6371],[-116.1478,32.6339],[-116.1628,32.6356],[-116.1659,32.6362],[-116.1762,32.6428],[-116.1948,32.6499],[-116.2081,32.6603],[-116.2094,32.6972],[-116.208,32.7117],[-116.2093,32.7266],[-116.2234,32.7263],[-116.2201,32.8288],[-116.309,32.8294],[-116.3095,32.8151],[-116.3262,32.8149],[-116.3263,32.8295],[-116.3346,32.8297],[-116.3349,32.8514],[-116.3265,32.8514],[-116.3265,32.855],[-116.3223,32.8549],[-116.3224,32.8586],[-116.3182,32.8585],[-116.3182,32.8717],[-116.3242,32.8647],[-116.3312,32.8657],[-116.3337,32.8643],[-116.341,32.8636],[-116.3432,32.8614],[-116.3573,32.8576],[-116.3597,32.8559],[-116.3598,32.8585],[-116.3775,32.8584],[-116.3778,32.8655],[-116.4123,32.8654],[-116.4137,32.8592],[-116.4207,32.8587],[-116.4223,32.8565],[-116.4205,32.855],[-116.4212,32.8529],[-116.4194,32.8506],[-116.4181,32.8411],[-116.4207,32.8396],[-116.4217,32.8355],[-116.4238,32.8358],[-116.4249,32.8341],[-116.4305,32.8411],[-116.4297,32.8479],[-116.4361,32.8473],[-116.4408,32.8445],[-116.4458,32.846],[-116.4575,32.8578],[-116.4586,32.8615],[-116.4605,32.8622],[-116.4642,32.8574],[-116.4673,32.8556],[-116.4757,32.8549],[-116.4851,32.8496],[-116.4873,32.8461],[-116.4942,32.845],[-116.4957,32.8421],[-116.4951,32.8383],[-116.4967,32.8365],[-116.4952,32.8284],[-116.4962,32.8258],[-116.4999,32.8244],[-116.5038,32.8246],[-116.5053,32.8224],[-116.5082,32.8218],[-116.5102,32.8189],[-116.5086,32.8151],[-116.5105,32.8113],[-116.5322,32.8186],[-116.5436,32.8188],[-116.5533,32.8229],[-116.5601,32.8233],[-116.5622,32.8189],[-116.5658,32.8178],[-116.5653,32.8153],[-116.5674,32.8137],[-116.568,32.8074],[-116.5709,32.807],[-116.5712,32.8051],[-116.5746,32.8045],[-116.5733,32.8018],[-116.5745,32.8003],[-116.582,32.8001],[-116.5894,32.798],[-116.5939,32.7993],[-116.5948,32.7982],[-116.5988,32.7985],[-116.6012,32.7972],[-116.6076,32.7987],[-116.6194,32.7887],[-116.6218,32.7886],[-116.6233,32.7868],[-116.6258,32.7872],[-116.6264,32.7836],[-116.6302,32.7837],[-116.6303,32.7814],[-116.6333,32.7805],[-116.6324,32.777],[-116.6357,32.7775],[-116.6362,32.7743],[-116.6386,32.7757],[-116.6371,32.7728],[-116.6411,32.7721],[-116.6396,32.7685],[-116.6433,32.7643],[-116.6413,32.7626],[-116.6435,32.7597],[-116.648,32.7579],[-116.648,32.7537],[-116.6504,32.7513],[-116.6494,32.7484],[-116.6509,32.7454],[-116.6498,32.7431],[-116.6515,32.7408],[-116.6508,32.7385],[-116.654,32.7385],[-116.6511,32.7337],[-116.6577,32.7248],[-116.6586,32.7212],[-116.6642,32.7227],[-116.6661,32.7105],[-116.6687,32.709],[-116.6724,32.709],[-116.6734,32.7016],[-116.6767,32.699],[-116.6725,32.6932],[-116.6693,32.6806],[-116.6698,32.6789],[-116.6718,32.678],[-116.6731,32.6717],[-116.6764,32.6648],[-116.6805,32.6591],[-116.6806,32.6568],[-116.6783,32.6537],[-116.6812,32.6422],[-116.6863,32.6413],[-116.687,32.6396],[-116.687,32.6379],[-116.6827,32.6358],[-116.6834,32.6331],[-116.6879,32.6327],[-116.6857,32.6297],[-116.6862,32.6248],[-116.698,32.6162],[-116.6993,32.6137],[-116.6989,32.6097],[-116.6959,32.6081],[-116.6959,32.606],[-116.702,32.6064],[-116.708,32.6087],[-116.7132,32.6074],[-116.7151,32.6022],[-116.7204,32.5972],[-116.7223,32.5931],[-116.7369,32.5882],[-116.7464,32.5878],[-116.7472,32.5861],[-116.744,32.5826],[-116.7449,32.578],[-116.7569,32.5736],[-116.7651,32.5673]]]},"properties":{"GEOID":"0607392030","NAME":"Mountain Empire","COUNTY":"073"}},{"type":"Feature","geometry":{"type":"Polygon","coordinates":[[[-117.1584,33.3239],[-117.1515,33.3112],[-117.1502,33.3003],[-117.1431,33.2995],[-117.1416,33.301],[-117.1334,33.299],[-117.1243,33.2946],[-117.1207,33.2895],[-117.1208,33.2852],[-117.1144,33.281],[-117.1126,33.2771],[-117.1122,33.2686],[-117.1105,33.268],[-117.1088,33.2695],[-117.1025,33.2707],[-117.0954,33.2709],[-117.0917,33.2695],[-117.0849,33.2713],[-117.0835,33.2795],[-117.0836,33.2898],[-117.0814,33.2906],[-117.0827,33.296],[-117.0864,33.2962],[-117.0833,33.3067],[-117.0839,33.3107],[-117.0786,33.3133],[-117.0726,33.314],[-117.0725,33.3208],[-117.0692,33.3208],[-117.0692,33.3171],[-117.065,33.3171],[-117.0649,33.3137],[-117.0541,33.3109],[-117.0506,33.3084],[-117.0455,33.2971],[-117.028,33.2904],[-117.0239,33.2929],[-117.0215,33.2976],[-117.0114,33.3047],[-117.0125,33.3057],[-117.0186,33.3043],[-117.0199,33.3056],[-117.0193,33.3071],[-117.0113,33.3094],[-116.9929,33.3189],[-116.9784,33.3033],[-116.9734,33.3008],[-116.9669,33.2899],[-116.9587,33.2884],[-116.9553,33.2853],[-116.9485,33.2854],[-116.9411,33.2837],[-116.9279,33.2873],[-116.9271,33.2555],[-116.8706,33.2558],[-116.8706,33.2522],[-116.8584,33.2523],[-116.8585,33.2487],[-116.8498,33.2488],[-116.8499,33.2523],[-116.8412,33.2521],[-116.8411,33.2562],[-116.8152,33.256],[-116.8147,33.27],[-116.8241,33.2701],[-116.8239,33.2845],[-116.8412,33.2851],[-116.8405,33.2995],[-116.8958,33.2994],[-116.8957,33.3139],[-116.902,33.3139],[-116.9012,33.3151],[-116.9208,33.3238],[-116.9701,33.3427],[-116.9278,33.3429],[-116.9278,33.3865],[-117.0158,33.3865],[-117.0162,33.4007],[-117.0321,33.4007],[-117.033,33.4151],[-117.052,33.4153],[-117.0523,33.4301],[-117.0988,33.4303],[-117.1008,33.4261],[-117.1028,33.4261],[-117.1073,33.4224],[-117.109,33.4188],[-117.1116,33.4176],[-117.1152,33.4184],[-117.1154,33.4159],[-117.1179,33.4165],[-117.1226,33.4095],[-117.1283,33.4089],[-117.1268,33.4027],[-117.1302,33.3982],[-117.1296,33.3926],[-117.1309,33.388],[-117.134,33.387],[-117.1345,33.3847],[-117.1335,33.3836],[-117.125,33.3828],[-117.1249,33.3817],[-117.1227,33.3818],[-117.1206,33.3792],[-117.1213,33.3724],[-117.1268,33.3715],[-117.1276,33.3681],[-117.1304,33.3648],[-117.1364,33.3612],[-117.1346,33.3573],[-117.1354,33.3506],[-117.1328,33.3393],[-117.135,33.3368],[-117.1411,33.3399],[-117.1584,33.3239]]]},"properties":{"GEOID":"0607392430","NAME":"Pauma Valley","COUNTY":"073"}},{"type":"Feature","geometry":{"type":"MultiPolygon","coordinates":[[[[-117.3759,33.0752],[-117.3233,32.9031],[-117.3326,32.8822],[-117.3397,32.8592],[-117.342,32.8404],[-117.3303,32.8048],[-117.3256,32.7317],[-117.3209,32.6898],[-117.3092,32.6564],[-117.2975,32.6418],[-117.2769,32.6235],[-117.2673,32.6189],[-117.252,32.6149],[-117.2335,32.6167],[-117.2233,32.6212],[-117.2182,32.6103],[-117.2141,32.5948],[-117.21,32.5729],[-117.21,32.5546],[-117.2051,32.5295],[-117.1247232010579,32.534298614862216],[-117.1262,32.5475],[-117.12826,32.55326],[-117.13096,32.55787],[-117.13323,32.56731],[-117.13274,32.58563],[-117.13279,32.59554],[-117.13407,32.60517],[-117.13749,32.62035],[-117.14063,32.62904],[-117.1503,32.64562],[-117.15914,32.65872],[-117.17158,32.67349],[-117.17867,32.67866],[-117.17982,32.67865],[-117.18776,32.68366],[-117.19415308098378,32.685740488804996],[-117.20185,32.67426],[-117.23632,32.67186],[-117.23758,32.66985],[-117.23706,32.66811],[-117.23901,32.666],[-117.2427,32.66481],[-117.24459,32.66633],[-117.2447,32.66854],[-117.24551,32.66955],[-117.24543,32.67418],[-117.24662,32.67485],[-117.24692,32.67723],[-117.24856,32.67999],[-117.24835,32.68238],[-117.24996,32.6838],[-117.25016,32.68939],[-117.25309,32.69215],[-117.25283,32.69384],[-117.25398,32.69462],[-117.25399,32.6972],[-117.2555,32.69922],[-117.25528,32.70898],[-117.25656,32.71511],[-117.25578,32.71617],[-117.25727,32.71983],[-117.25756,32.7247],[-117.25835,32.72538],[-117.25568,32.7276],[-117.25628,32.72981],[-117.25729,32.73061],[-117.25673,32.73064],[-117.25704,32.73336],[-117.25528,32.73692],[-117.25484,32.74397],[-117.25546,32.74474],[-117.25503,32.74656],[-117.25358,32.7477],[-117.25373,32.75397],[-117.25286,32.75419],[-117.25412,32.75898],[-117.25336,32.75995],[-117.25283,32.76682],[-117.25361,32.78136],[-117.25484,32.78782],[-117.25787,32.79794],[-117.26086,32.80351],[-117.26453,32.80763],[-117.26736,32.80765],[-117.26851,32.80854],[-117.27153,32.81336],[-117.27345,32.81422],[-117.27407,32.81559],[-117.27308,32.8167],[-117.27389,32.81806],[-117.2748,32.81864],[-117.27566,32.81815],[-117.28069,32.82196],[-117.27957,32.82621],[-117.28227,32.83262],[-117.28129,32.83675],[-117.28218,32.84043],[-117.28126,32.84316],[-117.27912,32.84462],[-117.279,32.84755],[-117.27732,32.84792],[-117.27365,32.8512],[-117.27034,32.8496],[-117.27038,32.85039],[-117.26762,32.84861],[-117.26522,32.8489],[-117.26073,32.85264],[-117.2561,32.85977],[-117.25329,32.87133],[-117.25211,32.87255],[-117.2513,32.8754],[-117.25131,32.87857],[-117.25305,32.88478],[-117.25419,32.90155],[-117.25681,32.91099],[-117.25863,32.91396],[-117.25961,32.926],[-117.26246,32.93988],[-117.25945,32.93741],[-117.2623,32.93975],[-117.26696,32.95336],[-117.27013,32.97314],[-117.27257,32.98013],[-117.2758,32.99549],[-117.27818,32.99962],[-117.279,33.00764],[-117.28041,33.0125],[-117.29142,33.0336],[-117.29447,33.03518],[-117.29584,33.03715],[-117.30067,33.05358],[-117.31007,33.07547],[-117.31204,33.08235],[-117.31320393675027,33.08708083969466],[-117.3149,33.0884],[-117.3759,33.0752]]],[[[-117.24709,33.01278],[-117.24282,33.0128],[-117.24278,33.01103],[-117.24054,33.01103],[-117.2393,33.00942],[-117.2428,33.00937],[-117.24282,33.00746],[-117.24441,33.00745],[-117.24099,33.00747],[-117.24008,33.00509],[-117.23773,33.00468],[-117.23858,33.00318],[-117.23736,33.00313],[-117.23715,33.0019],[-117.23876,33.00045],[-117.23864,32.99258],[-117.23962,32.99289],[-117.23929,32.99212],[-117.24008,32.992],[-117.2397,32.99111],[-117.24083,32.98987],[-117.24084,32.98758],[-117.23869,32.98757],[-117.23869,32.98574],[-117.23827,32.98184],[-117.2331,32.98187],[-117.2287,32.98293],[-117.2265,32.98486],[-117.22152,32.98228],[-117.22151,32.98376],[-117.21859,32.98406],[-117.21713,32.98552],[-117.19662,32.98496],[-117.20448,32.97881],[-117.20321,32.97758],[-117.20026,32.9776],[-117.20016,32.97399],[-117.17851,32.97393],[-117.17851,32.9703],[-117.16987,32.97023],[-117.16986,33.00723],[-117.15245,33.00737],[-117.15248,33.02178],[-117.11934,33.02208],[-117.12473,33.00005],[-117.09962,32.99799],[-117.09586,33.01213],[-117.099,33.01235],[-117.0899,33.04925],[-117.09477,33.05499],[-117.1018,33.05912],[-117.11027,33.0592],[-117.1098,33.0612],[-117.11189,33.06196],[-117.11282,33.06348],[-117.11179,33.06675],[-117.11273,33.06796],[-117.11382,33.06804],[-117.11508,33.06637],[-117.11401,33.06256],[-117.11284,33.06121],[-117.11328,33.05739],[-117.11242,33.05612],[-117.11392,33.05487],[-117.11342,33.05422],[-117.11459,33.05343],[-117.11469,33.05151],[-117.11719,33.05001],[-117.11665,33.04918],[-117.11784,33.04832],[-117.11743,33.04621],[-117.1183,33.04715],[-117.11842,33.04382],[-117.13285,33.04382],[-117.12974,33.04667],[-117.12303,33.04997],[-117.12212,33.05482],[-117.11799,33.05482],[-117.11809,33.06032],[-117.11886,33.06214],[-117.11949717465754,33.062360753424656],[-117.1231,33.0614],[-117.1265,33.0628],[-117.1308,33.0604],[-117.1369,33.0597],[-117.1391,33.0631],[-117.1439,33.0662],[-117.1546,33.0633],[-117.1575,33.0641],[-117.1604,33.0626],[-117.1625,33.0633],[-117.1636,33.0622],[-117.1666,33.0637],[-117.1724,33.0639],[-117.1702,33.0669],[-117.1697,33.0705],[-117.1653,33.0711],[-117.1633,33.0728],[-117.1658,33.0795],[-117.1645,33.0859],[-117.1662,33.0909],[-117.1703,33.0926],[-117.1725,33.0976],[-117.17838968535136,33.0965503531057],[-117.17833,33.0961],[-117.1797,33.09508],[-117.18036,33.09577],[-117.1825878200371,33.095802170686454],[-117.1826,33.0958],[-117.18260217987805,33.09580237804878],[-117.18313,33.09581],[-117.18306,33.09493],[-117.19064,33.09494],[-117.19069,33.08399],[-117.1994,33.08398],[-117.19942,33.08146],[-117.20017,33.08069],[-117.19954,33.08044],[-117.20047,33.08044],[-117.20101,33.0795],[-117.20043,33.07904],[-117.19883,33.0795],[-117.19862,33.08043],[-117.19568,33.08041],[-117.19576,33.07296],[-117.19991,33.07304],[-117.19991,33.06923],[-117.19791,33.06924],[-117.19795,33.0674],[-117.19578,33.06741],[-117.19582,33.06554],[-117.20007,33.06556],[-117.20016,33.05382],[-117.20465,33.0547],[-117.20473,33.05037],[-117.20844,33.04903],[-117.20832,33.04829],[-117.21516,33.05091],[-117.22009,33.04647],[-117.22735,33.0485],[-117.22801,33.04632],[-117.22919,33.04662],[-117.22979,33.04245],[-117.2306,33.04245],[-117.23201,33.03818],[-117.2331,33.03834],[-117.23375,33.03631],[-117.23627,33.03696],[-117.23735,33.03373],[-117.23611,33.0334],[-117.2361,33.03226],[-117.24209,33.02682],[-117.2418,33.02177],[-117.24698,33.02181],[-117.24697,33.02043],[-117.24429,33.02171],[-117.24431,33.01798],[-117.24706,33.01673],[-117.24709,33.01278]]],[[[-117.22424,33.0757],[-117.2159,33.07589],[-117.214,33.07766],[-117.21077,33.0759],[-117.21078,33.07679],[-117.20395,33.07684],[-117.2013,33.07516],[-117.19899,33.07759],[-117.20272,33.08],[-117.20232,33.08044],[-117.20521,33.08268],[-117.20417,33.08474],[-117.20505,33.08601],[-117.20371,33.08762],[-117.20371,33.09262],[-117.20444,33.09352],[-117.20681440738112,33.09441545777147],[-117.208,33.0947],[-117.20844506206478,33.09503042486628],[-117.20855,33.09507],[-117.21127,33.09508],[-117.21019,33.09184],[-117.21179,33.09073],[-117.21541,33.09101],[-117.2167,33.09114],[-117.21669,33.09511],[-117.21674,33.08391],[-117.21619,33.08402],[-117.21591,33.07605],[-117.22424,33.0757]]],[[[-117.11675,32.893],[-117.10906,32.8945],[-117.10747,32.89579],[-117.10748,32.89816],[-117.11671,32.89818],[-117.11675,32.893]]],[[[-117.10388678547855,32.53606954455446],[-116.853,32.5574],[-116.855,32.5615],[-116.8594,32.5651],[-116.8613,32.5717],[-116.8701,32.572],[-116.8713,32.5693],[-116.8766,32.571],[-116.877,32.5745],[-116.8788,32.5746],[-116.879,32.5759],[-116.892,32.5744],[-116.8937,32.5753],[-116.8944,32.5786],[-116.9037,32.5812],[-116.9079,32.5818],[-116.9083,32.5786],[-116.9104,32.5823],[-116.9239,32.5821],[-116.9357,32.5939],[-116.937045302619,32.59617666597061],[-116.99947,32.57801],[-116.9839,32.58252],[-116.96666,32.58246],[-116.96666,32.58436],[-116.96222,32.58436],[-116.96222,32.58619],[-116.95157,32.58584],[-116.95154,32.57856],[-116.95367,32.5786],[-116.9537,32.56761],[-116.93644,32.56746],[-116.93661,32.5602],[-116.92783,32.56009],[-116.928,32.55108],[-117.10388678547855,32.53606954455446]]],[[[-117.08385,32.66316],[-117.08346,32.66214],[-117.0802,32.66316],[-117.08049,32.66154],[-117.07862,32.66123],[-117.07868,32.66309],[-117.07686,32.66166],[-117.07561,32.66208],[-117.07487,32.66058],[-117.07373,32.66063],[-117.07267,32.66093],[-117.0732,32.66231],[-117.07101,32.66291],[-117.06929,32.66128],[-117.06801,32.6616],[-117.06808,32.66271],[-117.06875,32.66207],[-117.0701,32.66335],[-117.06782,32.66375],[-117.0676,32.66548],[-117.06958,32.66969],[-117.07061,32.67007],[-117.07408,32.66908],[-117.07432,32.66967],[-117.07506,32.66947],[-117.07494,32.66869],[-117.07697,32.66893],[-117.07643,32.66754],[-117.07796,32.66666],[-117.07643,32.66571],[-117.07833,32.66351],[-117.07937,32.66636],[-117.07822,32.66643],[-117.07921,32.66671],[-117.07853,32.6681],[-117.07901,32.66834],[-117.08115,32.66773],[-117.08084,32.66652],[-117.08297,32.66622],[-117.08286,32.6637],[-117.08385,32.66316]]],[[[-117.06575,32.63983],[-117.06501,32.63974],[-117.06509,32.63811],[-117.06135,32.64021],[-117.06082,32.63899],[-117.05868,32.63959],[-117.05797,32.64053],[-117.05827,32.64359],[-117.05671,32.64015],[-117.05344,32.64099],[-117.05253,32.64133],[-117.05443,32.64171],[-117.05592,32.6441],[-117.052,32.6453],[-117.0509,32.64372],[-117.04932,32.64419],[-117.04998,32.6459],[-117.03749,32.64932],[-117.03941,32.65374],[-117.03677,32.65355],[-117.03503,32.65643],[-117.02974,32.6578],[-117.03092,32.65842],[-117.03114,32.65988],[-117.03341,32.65955],[-117.03498,32.66043],[-117.03689,32.65859],[-117.04072,32.65808],[-117.04304,32.65641],[-117.04381,32.65844],[-117.04168,32.65862],[-117.04384,32.66002],[-117.03992,32.66511],[-117.03422,32.66565],[-117.02292,32.66872],[-117.0237,32.66579],[-117.02806,32.66269],[-117.02722,32.66058],[-117.02613,32.66015],[-117.02648,32.66088],[-117.0246,32.66076],[-117.0249,32.66148],[-117.02274,32.66204],[-117.0211,32.66006],[-117.02191,32.65901],[-117.02062,32.65887],[-117.02107,32.6576],[-117.01903,32.65846],[-117.01804,32.6577],[-117.01751,32.65837],[-117.01799,32.65766],[-117.01266,32.65704],[-117.01118,32.65595],[-117.0086,32.65555],[-117.01194,32.66417],[-117.00373,32.66643],[-117.00109,32.65944],[-116.99312,32.6617],[-116.99256,32.66025],[-116.98162,32.66028],[-116.98001,32.66133],[-116.98004,32.66726],[-116.98438,32.66729],[-116.98441,32.66527],[-116.98519,32.66487],[-116.98587,32.66642],[-116.98822,32.6641],[-116.98954,32.66387],[-116.99318,32.66522],[-116.99508,32.66709],[-116.99725,32.67232],[-116.99726,32.67425],[-116.98868,32.67428],[-116.98858,32.67786],[-116.98339,32.67426],[-116.98161,32.67382],[-116.98001,32.67248],[-116.97999,32.67157],[-116.97783,32.67161],[-116.97782,32.6707],[-116.97565,32.67072],[-116.97565,32.67255],[-116.96258,32.67202],[-116.96239,32.67632],[-116.9606,32.67633],[-116.96063,32.67808],[-116.95838,32.67812],[-116.95812,32.68561],[-116.95562350154113,32.68555153399394],[-116.9538,32.6897],[-116.9619,32.6972],[-116.9648,32.7057],[-116.9613,32.7043],[-116.9594,32.7048],[-116.9572,32.713],[-116.9479,32.7212],[-116.9448,32.7298],[-116.9406,32.7334],[-116.943,32.7396],[-116.9293,32.7448],[-116.9235,32.7428],[-116.9192,32.7439],[-116.9122,32.7477],[-116.9031,32.7573],[-116.8907,32.7622],[-116.8834,32.7666],[-116.8825,32.7696],[-116.8865,32.7726],[-116.8881,32.7769],[-116.8878,32.7806],[-116.8896,32.7832],[-116.8882,32.7885],[-116.8693,32.7792],[-116.8568,32.782],[-116.8524,32.7814],[-116.8513,32.7749],[-116.8479,32.7737],[-116.8471,32.7723],[-116.8475,32.7684],[-116.85,32.7658],[-116.8466,32.7636],[-116.843,32.7636],[-116.8404,32.7656],[-116.8326,32.7658],[-116.8313,32.7673],[-116.8316,32.7704],[-116.8285,32.7724],[-116.8238,32.7725],[-116.824,32.7796],[-116.8144,32.7802],[-116.8145,32.7911],[-116.8284,32.7905],[-116.8289,32.7929],[-116.8281,32.7958],[-116.8238,32.8009],[-116.8123,32.8077],[-116.8093,32.8122],[-116.81,32.8185],[-116.8068,32.819],[-116.8067,32.8229],[-116.811,32.8254],[-116.8155,32.8312],[-116.8076,32.8417],[-116.8094,32.8443],[-116.8074,32.8478],[-116.8053,32.8484],[-116.8039,32.855],[-116.799,32.8604],[-116.798,32.8652],[-116.7949,32.8683],[-116.7952,32.8722],[-116.793,32.8781],[-116.7943,32.8834],[-116.7899,32.8884],[-116.7893,32.9492],[-116.773,32.9497],[-116.7705,32.9633],[-116.7716,32.974],[-116.7737,32.974],[-116.7742,32.9765],[-116.7779,32.9777],[-116.7821,32.9767],[-116.7886,32.9704],[-116.7911,32.9721],[-116.7946,32.969],[-116.797,32.9693],[-116.7986,32.9675],[-116.7982,32.9657],[-116.8011,32.9644],[-116.8048,32.9596],[-116.8063,32.9633],[-116.8062,32.9784],[-116.8134,32.9784],[-116.818,32.9829],[-116.8163,32.9929],[-116.8413,32.9934],[-116.8404,32.9642],[-116.8483,32.9633],[-116.8493,32.956],[-116.8528,32.9553],[-116.8524,32.9569],[-116.8556,32.9624],[-116.8598,32.962],[-116.8613,32.9636],[-116.8665,32.9636],[-116.8718,32.9672],[-116.8792,32.9681],[-116.8793,32.9692],[-116.8872,32.9646],[-116.891,32.9656],[-116.8953,32.9629],[-116.8973,32.9632],[-116.9072,32.9532],[-116.9047,32.9465],[-116.9053,32.9439],[-116.9099,32.94],[-116.9064,32.931],[-116.9105,32.9285],[-116.9161,32.9305],[-116.9189,32.9298],[-116.9222,32.9255],[-116.9232,32.9186],[-116.9264,32.9164],[-116.9312,32.9206],[-116.9362,32.9278],[-116.9387,32.9344],[-116.9365,32.9361],[-116.9366,32.9379],[-116.9407,32.9389],[-116.942,32.9425],[-116.945,32.9442],[-116.9509,32.944],[-116.9558,32.9409],[-116.9625,32.9459],[-116.9722,32.9599],[-116.97159296316985,32.96299299718214],[-116.98854,32.96307],[-116.98879,32.95952],[-116.99783,32.95957],[-116.99781018916084,32.94323596311118],[-116.99592,32.94231],[-116.98532,32.94286],[-116.98067,32.94185],[-116.98038,32.93991],[-116.98173,32.94006],[-116.98452,32.93792],[-116.98373,32.93398],[-116.98955,32.9339],[-116.98928,32.905],[-116.98429,32.9049],[-116.98429,32.90302071428572],[-116.98041,32.90309],[-116.98013,32.90014],[-116.9624,32.90337],[-116.96274,32.85878],[-116.95974,32.85878],[-116.95371,32.85698],[-116.95372,32.85339],[-116.94507,32.85339],[-116.94508,32.83551],[-116.94175,32.83178],[-116.93798,32.82414],[-116.94382,32.82423],[-116.94339,32.82478],[-116.94755,32.82764],[-116.94754,32.82963],[-116.96022,32.82962],[-116.95972,32.82498],[-116.96233,32.82494],[-116.96233,32.82449],[-116.96507,32.82441],[-116.96506,32.81854],[-116.96402,32.81882],[-116.96371,32.81686],[-116.96442,32.81491],[-116.96527,32.8149],[-116.96437,32.81295],[-116.96599,32.81247],[-116.96599,32.81107],[-116.96353,32.8111],[-116.96421,32.81234],[-116.96155,32.81233],[-116.96156,32.81152],[-116.95939,32.81152],[-116.95938,32.81034],[-116.95908,32.81152],[-116.95866,32.81049],[-116.95813,32.81152],[-116.95772,32.81051],[-116.95419,32.81051],[-116.95414,32.81178],[-116.95345,32.81179],[-116.95344,32.8105],[-116.95269,32.8105],[-116.95178,32.81332],[-116.95601,32.81334],[-116.956,32.81524],[-116.95381,32.81524],[-116.95378,32.81687],[-116.95004,32.81689],[-116.95006,32.81912],[-116.9518,32.81912],[-116.95179,32.82137],[-116.94933,32.82137],[-116.94922,32.82294],[-116.94733,32.82234],[-116.94732,32.82124],[-116.94613,32.82177],[-116.94611,32.82011],[-116.94748,32.81911],[-116.9475,32.81686],[-116.94518,32.81687],[-116.94462,32.81594],[-116.94854,32.81583],[-116.94925,32.81512],[-116.94926,32.80851],[-116.945,32.80834],[-116.94461,32.80898],[-116.94406,32.80834],[-116.93649,32.80921],[-116.93615,32.81394],[-116.94056,32.81392],[-116.94001,32.81685],[-116.93349,32.81706],[-116.93004,32.81545],[-116.93079,32.8136],[-116.92976,32.81313],[-116.92889,32.81454],[-116.92924,32.81585],[-116.92812,32.81695],[-116.92703,32.81669],[-116.92234,32.81862],[-116.92235,32.81804],[-116.91853,32.81801],[-116.91983,32.81993],[-116.91819,32.82255],[-116.91469,32.82144],[-116.9137,32.82292],[-116.91399,32.8213],[-116.90924,32.82055],[-116.91307,32.81596],[-116.91171,32.81556],[-116.91227,32.81467],[-116.91178,32.81419],[-116.90964,32.81398],[-116.90949,32.81223],[-116.91204,32.81271],[-116.91354,32.81133],[-116.91279,32.8107],[-116.91367,32.81099],[-116.91456,32.80956],[-116.91458,32.8106],[-116.91539,32.80974],[-116.91441,32.80888],[-116.91494,32.80888],[-116.91464,32.80809],[-116.91287,32.80784],[-116.91696,32.80736],[-116.91696,32.80892],[-116.91828,32.80926],[-116.91919,32.80771],[-116.91888,32.80559],[-116.92036,32.80559],[-116.92037,32.80395],[-116.92147,32.80395],[-116.92145,32.80178],[-116.91927,32.80236],[-116.91952,32.8002],[-116.91213,32.80022],[-116.91163,32.80099],[-116.91035,32.80021],[-116.90984,32.80221],[-116.90813,32.80222],[-116.90812,32.80106],[-116.90742,32.80158],[-116.90649,32.80048],[-116.90538,32.80202],[-116.90477,32.80089],[-116.90246,32.80284],[-116.9039,32.80372],[-116.90307,32.80475],[-116.9022,32.80455],[-116.90212,32.80306],[-116.90131,32.80325],[-116.90166,32.80496],[-116.90094,32.80586],[-116.902,32.8082],[-116.89644,32.80637],[-116.90034,32.80323],[-116.89849,32.8028],[-116.8988,32.80196],[-116.89591,32.80167],[-116.89574,32.79968],[-116.89692,32.79943],[-116.89741,32.7978],[-116.90044,32.79663],[-116.89975,32.79535],[-116.90103,32.79396],[-116.90334,32.79389],[-116.90544,32.79483],[-116.90393,32.79565],[-116.90603,32.79742],[-116.90784,32.79545],[-116.90822,32.79713],[-116.90917,32.79605],[-116.91169,32.79763],[-116.91375,32.79649],[-116.91581,32.79641],[-116.91581,32.7949],[-116.91666,32.7945],[-116.91796,32.79449],[-116.91797,32.79639],[-116.92467,32.79648],[-116.92469,32.79273],[-116.92283,32.79351],[-116.92275,32.79274],[-116.92151,32.79274],[-116.92155,32.78946],[-116.91634,32.78862],[-116.91634,32.78749],[-116.9178,32.78755],[-116.91877,32.78551],[-116.91785,32.78472],[-116.9181,32.78206],[-116.91666,32.78183],[-116.9206,32.77871],[-116.92168,32.77982],[-116.92411,32.77982],[-116.92414,32.77898],[-116.92515,32.77908],[-116.92537,32.78135],[-116.9275,32.77941],[-116.92737,32.77605],[-116.92804,32.77614],[-116.92805,32.77786],[-116.9287,32.77786],[-116.92804,32.77823],[-116.93214,32.77822],[-116.93215,32.78108],[-116.93641,32.78163],[-116.93649,32.78333],[-116.93456,32.78332],[-116.93455,32.78471],[-116.93598,32.78471],[-116.93598,32.78527],[-116.93783,32.78474],[-116.93842,32.78658],[-116.9395,32.78694],[-116.94057,32.78694],[-116.94057,32.78546],[-116.94143,32.78546],[-116.94143,32.78671],[-116.9469,32.78662],[-116.94719,32.78511],[-116.94501,32.78403],[-116.94525,32.78305],[-116.94263,32.78055],[-116.94447,32.77871],[-116.94518,32.77938],[-116.94629,32.77822],[-116.94689,32.77855],[-116.94657,32.77968],[-116.94832,32.78012],[-116.94819,32.77934],[-116.9499,32.7786],[-116.9499,32.7804],[-116.95096,32.7804],[-116.9509,32.77875],[-116.95265,32.77874],[-116.95261,32.77792],[-116.95583,32.77792],[-116.9559,32.77125],[-116.95648,32.77124],[-116.95647,32.77023],[-116.95734,32.77023],[-116.95651,32.76847],[-116.95752,32.76834],[-116.957,32.76771],[-116.95871,32.76751],[-116.96222,32.76804],[-116.96173,32.77119],[-116.95836,32.77121],[-116.95843,32.77222],[-116.95969,32.77222],[-116.95847,32.77253],[-116.95866,32.7731],[-116.96025,32.77313],[-116.95934,32.77339],[-116.95903,32.77568],[-116.96398,32.77316],[-116.96774,32.77319],[-116.96657,32.77471],[-116.96772,32.77565],[-116.96771,32.77429],[-116.96877,32.77453],[-116.96876,32.7732],[-116.97566,32.77325],[-116.97409,32.77551],[-116.9776,32.77783],[-116.97696,32.77982],[-116.97847,32.77914],[-116.97927,32.77986],[-116.98039,32.77949],[-116.98111,32.77786],[-116.98167,32.77943],[-116.98268,32.77855],[-116.98366,32.77906],[-116.98819,32.77845],[-116.98974,32.7786],[-116.98961,32.77803],[-116.99032,32.77863],[-116.99009,32.77775],[-116.99116,32.77708],[-116.9934,32.77833],[-117.00037,32.77815],[-117.00148,32.77578],[-117.00039,32.77568],[-116.99966,32.77728],[-116.99875,32.77677],[-116.99852,32.77485],[-117.00016,32.7747],[-117.00049,32.77279],[-116.99926,32.77221],[-116.99818,32.77481],[-116.99714,32.77441],[-116.99761,32.77186],[-116.99706,32.77029],[-116.99604,32.77092],[-116.99604,32.77035],[-116.99656,32.76952],[-116.99746,32.76968],[-116.99745,32.76896],[-117.00131,32.76898],[-117.0013,32.76823],[-116.99495,32.76821],[-116.99465,32.76766],[-116.99382,32.76904],[-116.99214,32.76901],[-116.99264,32.76981],[-116.986,32.77131],[-116.98675,32.77263],[-116.98504,32.77388],[-116.98357,32.77401],[-116.98355,32.77292],[-116.98195,32.77294],[-116.98184,32.77228],[-116.98538,32.77102],[-116.98563,32.76905],[-116.98757,32.76866],[-116.99062,32.76976],[-116.99079,32.76883],[-116.98914,32.76899],[-116.99024,32.76794],[-116.98921,32.76797],[-116.98876,32.76711],[-116.99129,32.76606],[-116.99104,32.76466],[-116.99148,32.76607],[-116.99261,32.76608],[-116.99204,32.76468],[-116.99261,32.76445],[-116.99564,32.76479],[-116.99573,32.76595],[-116.9992,32.76476],[-116.99735,32.76502],[-116.99455,32.76241],[-116.99695,32.76172],[-116.99834,32.76228],[-116.99837,32.76354],[-117.00135,32.76294],[-117.00239,32.76058],[-117.00064,32.7559],[-117.00142,32.75239],[-117.01017,32.75262],[-117.01021,32.75478],[-117.01222,32.75474],[-117.01216,32.75305],[-117.01970518702679,32.74747685049158],[-117.0182,32.74805],[-117.0152,32.75044],[-117.01444,32.74999],[-117.01451,32.74798],[-117.01859,32.7445],[-117.01443,32.74052],[-117.01449,32.73462],[-117.01625,32.73463],[-117.01576,32.72898],[-117.01434,32.72874],[-117.01414,32.72492],[-117.02316,32.72497],[-117.02299,32.71848],[-117.02316,32.71473],[-117.02044,32.71477],[-117.01816,32.70825],[-117.02069,32.70753],[-117.0201,32.70605],[-117.02116,32.70498],[-117.01998,32.70133],[-117.01881,32.70044],[-117.02523,32.69868],[-117.0246,32.69708],[-117.02239,32.6958],[-117.02208,32.6933],[-117.02296,32.69276],[-117.02144,32.68831],[-117.02591,32.68578],[-117.02635,32.68465],[-117.03277,32.68026],[-117.04175,32.67148],[-117.05133751480282,32.6665352241386],[-117.05019,32.66701],[-117.04988,32.66595],[-117.05153,32.66437],[-117.04928,32.66311],[-117.05405,32.6619],[-117.05474,32.66367],[-117.05659,32.66319],[-117.05527,32.6595],[-117.05623,32.6594],[-117.05575,32.65808],[-117.05679,32.65783],[-117.05647,32.65702],[-117.05968,32.65652],[-117.06173,32.65788],[-117.06383,32.65702],[-117.06369,32.6504],[-117.06395272362352,32.65037950383079],[-117.05814,32.6484],[-117.05789,32.64738],[-117.06127,32.64782],[-117.06163,32.64572],[-117.06284,32.64587],[-117.0624,32.64483],[-117.06404,32.64217],[-117.06302,32.64206],[-117.0625,32.64036],[-117.06521,32.64035],[-117.06575,32.63983]]],[[[-117.02746276264591,33.062608365758756],[-117.02313,33.06163],[-117.02315,33.05985],[-117.02317,33.05863],[-117.0188,33.05872],[-117.01863,33.06262],[-117.01767,33.06264],[-117.0183506991058,33.064116042271515],[-117.0208,33.0628],[-117.027,33.0636],[-117.02746276264591,33.062608365758756]]],[[[-117.02313,32.59851],[-117.0078,32.5983],[-116.99915,32.60254],[-116.99963,32.61062],[-117.01153,32.60777],[-117.01072,32.60585],[-117.02308,32.60598],[-117.02313,32.59851]]],[[[-117.01370609756097,33.066394207317074],[-117.01215,33.06635],[-117.0121,33.06253],[-117.01001,33.06257],[-117.00997,33.05899],[-117.00546,33.05923],[-117.00541,33.05182],[-116.99664,33.05207],[-116.99649,33.03016],[-117.00099,33.03005],[-117.00118,33.02273],[-116.99642,33.02223],[-116.99612,33.00767],[-116.99197,33.0076],[-116.99202,33.01125],[-116.98314,33.01101],[-116.98319,33.01499],[-116.97019,33.01495],[-116.97019,33.01121],[-116.9788,33.01117],[-116.97931,33.00017],[-116.96188,33.00009],[-116.96191118876081,32.99876967579251],[-116.9585,32.9997],[-116.9543,33.0111],[-116.9528,33.0123],[-116.9532,33.018],[-116.9587,33.0331],[-116.9698,33.0298],[-116.9738,33.0315],[-116.9736,33.0364],[-116.9714,33.0371],[-116.971,33.0385],[-116.9724,33.0404],[-116.9714,33.0428],[-116.9741,33.0444],[-116.9707,33.0487],[-116.9708,33.0561],[-116.9786,33.0624],[-116.982,33.0637],[-116.9838,33.067],[-116.9968,33.0683],[-117.0005,33.0662],[-117.01370609756097,33.066394207317074]]],[[[-116.94226,32.6483],[-116.93924,32.6478],[-116.93844,32.64855],[-116.93753,32.64775],[-116.9364,32.64856],[-116.93407,32.64789],[-116.93245,32.64889],[-116.93236,32.64772],[-116.93084,32.64728],[-116.93209,32.6462],[-116.93376,32.64624],[-116.93267,32.64518],[-116.93473,32.64317],[-116.93206,32.64282],[-116.93333,32.64178],[-116.93262,32.64079],[-116.93367,32.6388],[-116.93218,32.63765],[-116.93171,32.63399],[-116.93412,32.63353],[-116.93099,32.63153],[-116.93087,32.62894],[-116.93276,32.62857],[-116.9304,32.62772],[-116.93,32.62673],[-116.93168,32.6242],[-116.93452,32.6245],[-116.93268,32.62289],[-116.93355,32.62244],[-116.93298,32.62162],[-116.93371,32.62013],[-116.93521,32.62],[-116.93363,32.61764],[-116.93326,32.61277],[-116.93348,32.61193],[-116.93445,32.61192],[-116.93289392638037,32.60819],[-116.93219,32.60819],[-116.93212,32.6101],[-116.92915,32.61009],[-116.92916,32.61109],[-116.92778,32.61106],[-116.92778,32.61196],[-116.92660883257267,32.61196549843863],[-116.9276,32.614],[-116.9267,32.6279],[-116.9303,32.6391],[-116.9297,32.6468],[-116.93170989901606,32.649027185396164],[-116.93222,32.64869],[-116.93257,32.64918],[-116.9321205802552,32.649482264607116],[-116.9334,32.6509],[-116.9346,32.6556],[-116.93736563362995,32.65845782141761],[-116.93797,32.65861],[-116.93753,32.65767],[-116.93834,32.65765],[-116.93681,32.65604],[-116.94095,32.65557],[-116.93905,32.65482],[-116.9393,32.65418],[-116.93684,32.65405],[-116.93945,32.65199],[-116.93725,32.65163],[-116.93929,32.65],[-116.94051,32.65025],[-116.94054,32.64938],[-116.94226,32.6483]]],[[[-116.93146986530688,32.60477368966369],[-116.92992283406399,32.60104161794269],[-116.9273,32.6019],[-116.9267,32.6077],[-116.92742199032482,32.60819636834831],[-116.93084,32.60815],[-116.93082,32.6048],[-116.93146986530688,32.60477368966369]]]]},"properties":{"GEOID":"0607392780","NAME":"San Diego","COUNTY":"073"}},{"type":"Feature","geometry":{"type":"Polygon","coordinates":[[[-116.9648,32.7057],[-116.9619,32.6972],[-116.9538,32.6897],[-116.95562350154113,32.68555153399394],[-116.94958,32.68541],[-116.94954,32.67799],[-116.94082,32.67803],[-116.9408,32.68162],[-116.94509,32.68159],[-116.94497,32.68515],[-116.92781,32.68428],[-116.92772,32.66698],[-116.93436,32.66696],[-116.93435,32.66516],[-116.93663,32.66516],[-116.93658,32.65826],[-116.93736563362995,32.65845782141761],[-116.9346,32.6556],[-116.9334,32.6509],[-116.9321205802552,32.649482264607116],[-116.93144,32.64994],[-116.93104,32.64947],[-116.93170989901606,32.649027185396164],[-116.9297,32.6468],[-116.9303,32.6391],[-116.9267,32.6279],[-116.9277,32.6155],[-116.92639130359312,32.61196651970144],[-116.92565,32.61197],[-116.92568,32.60822],[-116.92742199032482,32.60819636834831],[-116.9267,32.6077],[-116.9265,32.6052],[-116.9273,32.6019],[-116.92989998322567,32.60098649238017],[-116.92889,32.59855],[-116.9370299458797,32.596181135047196],[-116.9326,32.5903],[-116.9239,32.5821],[-116.9104,32.5823],[-116.9083,32.5786],[-116.9079,32.5818],[-116.9037,32.5812],[-116.8944,32.5786],[-116.8937,32.5753],[-116.892,32.5744],[-116.879,32.5759],[-116.8788,32.5746],[-116.877,32.5745],[-116.8766,32.571],[-116.8713,32.5693],[-116.8701,32.572],[-116.8613,32.5717],[-116.8594,32.5651],[-116.855,32.5615],[-116.853,32.5574],[-116.7573,32.5655],[-116.7654,32.5671],[-116.7569,32.5736],[-116.7449,32.578],[-116.744,32.5826],[-116.7472,32.5861],[-116.7469,32.5875],[-116.7369,32.5882],[-116.7229,32.5928],[-116.7204,32.5972],[-116.7151,32.6022],[-116.7137,32.6069],[-116.7115,32.6082],[-116.708,32.6087],[-116.702,32.6064],[-116.696,32.6059],[-116.6959,32.6081],[-116.6989,32.6097],[-116.6987,32.615],[-116.6921,32.6197],[-116.6892,32.6235],[-116.6862,32.6248],[-116.6857,32.6297],[-116.6879,32.6327],[-116.6834,32.6331],[-116.6827,32.6358],[-116.687,32.6379],[-116.687,32.6396],[-116.6863,32.6413],[-116.6812,32.6422],[-116.6783,32.6537],[-116.6806,32.6568],[-116.6805,32.6591],[-116.6764,32.6648],[-116.6731,32.6717],[-116.6718,32.678],[-116.6698,32.6789],[-116.6693,32.6811],[-116.6725,32.6932],[-116.6768,32.6985],[-116.6731,32.7024],[-116.6721,32.7115],[-116.6733,32.715],[-116.6795,32.7185],[-116.6776,32.7216],[-116.6792,32.7241],[-116.6814,32.7244],[-116.6824,32.7284],[-116.6789,32.7323],[-116.6788,32.7346],[-116.6738,32.7432],[-116.6699,32.744],[-116.6682,32.7489],[-116.6758,32.7558],[-116.674,32.7595],[-116.6752,32.7645],[-116.6887,32.7648],[-116.699,32.7703],[-116.7051,32.7712],[-116.7086,32.7748],[-116.7142,32.7779],[-116.7083,32.7759],[-116.7096,32.7775],[-116.7088,32.7801],[-116.71,32.7828],[-116.7083,32.7852],[-116.709,32.7888],[-116.7295,32.7953],[-116.7324,32.7956],[-116.7357,32.7933],[-116.7451,32.7956],[-116.7509,32.7918],[-116.76,32.7949],[-116.7653,32.7862],[-116.7732,32.7873],[-116.7753,32.7855],[-116.7835,32.7866],[-116.7928,32.7843],[-116.794,32.7827],[-116.7915,32.7786],[-116.7933,32.7748],[-116.7988,32.772],[-116.8056,32.7745],[-116.8068,32.7744],[-116.8073,32.7724],[-116.8145,32.7704],[-116.8285,32.7724],[-116.832,32.77],[-116.8312,32.7676],[-116.8326,32.7658],[-116.8404,32.7656],[-116.8446,32.7635],[-116.8478,32.7638],[-116.85,32.7658],[-116.8475,32.7684],[-116.8471,32.7723],[-116.8479,32.7737],[-116.8513,32.7749],[-116.8524,32.7814],[-116.8568,32.782],[-116.8693,32.7792],[-116.8882,32.7885],[-116.8896,32.7832],[-116.8878,32.7806],[-116.8881,32.7769],[-116.8865,32.7726],[-116.8825,32.7696],[-116.8834,32.7666],[-116.8907,32.7622],[-116.9031,32.7573],[-116.9122,32.7477],[-116.9192,32.7439],[-116.9235,32.7428],[-116.9293,32.7448],[-116.943,32.7396],[-116.9406,32.7334],[-116.9448,32.7298],[-116.9479,32.7212],[-116.9572,32.713],[-116.9594,32.7048],[-116.9613,32.7043],[-116.9648,32.7057]]]},"properties":{"GEOID":"0607391440","NAME":"Jamul","COUNTY":"073"}},{"type":"Feature","geometry":{"type":"Polygon","coordinates":[[[-117.0523,33.4251],[-117.0519,33.4153],[-117.033,33.4151],[-117.0321,33.4007],[-117.0162,33.4007],[-117.0158,33.3865],[-116.9278,33.3865],[-116.9278,33.3429],[-116.9701,33.3427],[-116.9208,33.3238],[-116.9012,33.3151],[-116.902,33.3139],[-116.8957,33.3139],[-116.8958,33.2994],[-116.8405,33.2995],[-116.8412,33.2851],[-116.8239,33.2845],[-116.8241,33.2701],[-116.8147,33.27],[-116.8152,33.256],[-116.8411,33.2562],[-116.8418,33.2116],[-116.8503,33.2116],[-116.8502,33.2042],[-116.861,33.2044],[-116.8681,33.2012],[-116.8744,33.1932],[-116.8794,33.1808],[-116.8795,33.1774],[-116.888,33.1736],[-116.8931,33.1697],[-116.8926,33.0902],[-116.8924,33.0927],[-116.8833,33.0947],[-116.8786,33.1002],[-116.8714,33.1026],[-116.8684,33.107],[-116.8557,33.1066],[-116.854,33.1092],[-116.8555,33.1134],[-116.8542,33.1194],[-116.8516,33.1202],[-116.8454,33.1178],[-116.8363,33.1237],[-116.8325,33.1244],[-116.8208,33.1248],[-116.8184,33.1201],[-116.8145,33.1229],[-116.808,33.1218],[-116.8068,33.1259],[-116.8023,33.1236],[-116.7945,33.1249],[-116.7915,33.122],[-116.7882,33.1233],[-116.7858,33.1205],[-116.7859,33.1154],[-116.7803,33.1029],[-116.7775,33.1018],[-116.7652,33.1035],[-116.7603,33.1097],[-116.755,33.1117],[-116.7545,33.1134],[-116.7524,33.1141],[-116.7405,33.11],[-116.7386,33.1064],[-116.739,33.1047],[-116.7337,33.1022],[-116.7301,33.0945],[-116.7274,33.0941],[-116.7272,33.0887],[-116.7258,33.0866],[-116.7267,33.0864],[-116.722,33.0866],[-116.7217,33.0838],[-116.7162,33.0847],[-116.7125,33.0829],[-116.7173,33.0778],[-116.7204,33.07],[-116.7199,33.0544],[-116.7215,33.0524],[-116.726,33.0525],[-116.7217,33.0516],[-116.7212,33.0498],[-116.7235,33.0449],[-116.7258,33.0432],[-116.7266,33.0387],[-116.7301,33.0326],[-116.73,33.0259],[-116.7259,33.0169],[-116.7264,33.0129],[-116.7246,33.0121],[-116.7256,33.0081],[-116.7326,32.9958],[-116.736,32.9917],[-116.7401,32.9906],[-116.7408,32.9875],[-116.7392,32.9879],[-116.7398,32.9888],[-116.7384,32.9902],[-116.7325,32.9935],[-116.7281,32.9939],[-116.7294,32.9972],[-116.7255,33.0024],[-116.7229,33.0033],[-116.7202,33.0021],[-116.7194,33.0031],[-116.7151,33.0023],[-116.71,33.0193],[-116.7083,33.0208],[-116.7037,33.021],[-116.7052,33.0219],[-116.7039,33.0241],[-116.6949,33.0269],[-116.6864,33.0204],[-116.6768,33.0213],[-116.673,33.0254],[-116.6654,33.0267],[-116.6542,33.0334],[-116.6517,33.0321],[-116.65,33.0345],[-116.6472,33.0345],[-116.6463,33.0358],[-116.6485,33.0382],[-116.6464,33.0435],[-116.6445,33.0424],[-116.6402,33.0435],[-116.6389,33.047],[-116.6362,33.0484],[-116.6354,33.0445],[-116.6371,33.0416],[-116.6356,33.0405],[-116.6362,33.0379],[-116.6335,33.0352],[-116.6356,33.0316],[-116.6341,33.0308],[-116.6353,33.0294],[-116.638,33.0302],[-116.6396,33.0274],[-116.6373,33.0251],[-116.6347,33.0258],[-116.6364,33.0235],[-116.6349,33.0168],[-116.6312,33.0175],[-116.6256,33.0114],[-116.6217,33.0122],[-116.6213,33.0098],[-116.6224,33.009],[-116.6211,33.0048],[-116.6182,33.0097],[-116.6118,33.0118],[-116.614,33.0082],[-116.6069,33.0122],[-116.604,33.0101],[-116.6031,33.0033],[-116.5986,33.0012],[-116.5952,32.9975],[-116.5904,32.9963],[-116.5889,32.9944],[-116.5863,32.9944],[-116.5857,32.9917],[-116.5763,32.9908],[-116.5723,32.993],[-116.5668,32.999],[-116.5644,33.0025],[-116.5636,33.0079],[-116.5612,33.011],[-116.5625,33.0159],[-116.5613,33.0186],[-116.5588,33.0171],[-116.5504,33.0201],[-116.5447,33.019],[-116.5402,33.0106],[-116.538,33.0109],[-116.5372,33.0135],[-116.5351,33.0125],[-116.5342,33.0147],[-116.5325,33.0138],[-116.5329,33.0126],[-116.5281,33.0121],[-116.5266,33.0142],[-116.5276,33.0206],[-116.53,33.0238],[-116.5312,33.0282],[-116.5361,33.0349],[-116.5374,33.0409],[-116.5402,33.0449],[-116.5383,33.0501],[-116.5407,33.0506],[-116.5469,33.0605],[-116.5476,33.0635],[-116.5448,33.0672],[-116.547,33.0671],[-116.5473,33.0682],[-116.5317,33.0784],[-116.4682,33.0996],[-116.4594,33.1006],[-116.4542,33.103],[-116.451,33.1058],[-116.4491,33.1106],[-116.4345,33.1195],[-116.4358,33.1245],[-116.4344,33.1287],[-116.4202,33.1295],[-116.4174,33.1327],[-116.417,33.1345],[-116.422,33.1347],[-116.435,33.1397],[-116.4498,33.1476],[-116.4621,33.152],[-116.4761,33.1521],[-116.4801,33.1553],[-116.4855,33.1572],[-116.4961,33.1577],[-116.5066,33.1623],[-116.5115,33.1623],[-116.5162,33.1675],[-116.517,33.1816],[-116.5125,33.1812],[-116.5124,33.1781],[-116.5014,33.1777],[-116.5003,33.1846],[-116.4993,33.1852],[-116.4974,33.1838],[-116.4926,33.1865],[-116.495,33.1898],[-116.4995,33.1917],[-116.4997,33.2029],[-116.5082,33.2029],[-116.5082,33.2104],[-116.4953,33.2105],[-116.4959,33.2321],[-116.4916,33.2319],[-116.4915,33.2466],[-116.4999,33.2468],[-116.5008,33.2491],[-116.5014,33.3411],[-116.567,33.3416],[-116.5676,33.3473],[-116.5714,33.3472],[-116.5715,33.3487],[-116.5803,33.3488],[-116.5803,33.3542],[-116.5676,33.3559],[-116.5674,33.3629],[-116.618,33.3633],[-116.6177,33.4274],[-117.0309,33.4269],[-117.0309,33.4299],[-117.0523,33.4301],[-117.0523,33.4251]]]},"properties":{"GEOID":"0607392350","NAME":"Palomar-Julian","COUNTY":"073"}},{"type":"Feature","geometry":{"type":"Polygon","coordinates":[[[-117.1589,33.2628],[-117.1572,33.2553],[-117.143,33.2225],[-117.1259,33.1972],[-117.1198,33.1993],[-117.1178,33.2023],[-117.1116,33.2049],[-117.1081,33.2107],[-117.1086,33.2116],[-117.0993,33.2127],[-117.1021,33.2096],[-117.0897,33.2087],[-117.089,33.212],[-117.08592566155566,33.21055890385422],[-117.08593896314355,33.21065708877097],[-117.0881,33.2131],[-117.087,33.2158],[-117.0777,33.214],[-117.0727,33.2149],[-117.07230519308894,33.211346737800405],[-117.06335,33.2116],[-117.06335017878426,33.211598327373856],[-117.0633,33.2116],[-117.0551,33.2102],[-117.0498,33.2114],[-117.0373,33.2111],[-117.0371,33.21],[-117.0336,33.21],[-117.0309,33.1984],[-117.0291,33.1993],[-117.028,33.198],[-117.0198,33.2005],[-116.9803,33.1979],[-116.9803,33.1905],[-116.9848,33.1904],[-116.9848,33.1832],[-116.9712,33.1833],[-116.9716,33.1782],[-116.9677,33.1714],[-116.9669,33.1674],[-116.964,33.1662],[-116.9607,33.1689],[-116.9562,33.1666],[-116.9516,33.1669],[-116.9477,33.1699],[-116.9453,33.1698],[-116.9432,33.1685],[-116.9438,33.1649],[-116.9425,33.1605],[-116.9363,33.1613],[-116.9355,33.1594],[-116.9318,33.1583],[-116.9214,33.1614],[-116.9197,33.1604],[-116.9195,33.1567],[-116.9169,33.1522],[-116.9022,33.163],[-116.8931,33.1641],[-116.8931,33.1697],[-116.888,33.1736],[-116.8795,33.1774],[-116.8794,33.1808],[-116.8744,33.1932],[-116.8681,33.2012],[-116.861,33.2044],[-116.8502,33.2042],[-116.8503,33.2116],[-116.8418,33.2116],[-116.8412,33.2521],[-116.8499,33.2523],[-116.8498,33.2488],[-116.8585,33.2487],[-116.8584,33.2523],[-116.8706,33.2522],[-116.8706,33.2558],[-116.9271,33.2555],[-116.9279,33.2873],[-116.9411,33.2837],[-116.9485,33.2854],[-116.9553,33.2853],[-116.9587,33.2884],[-116.9669,33.2899],[-116.9734,33.3008],[-116.9784,33.3033],[-116.9929,33.3189],[-117.0113,33.3094],[-117.0193,33.3071],[-117.0199,33.3056],[-117.0186,33.3043],[-117.0125,33.3057],[-117.0114,33.3047],[-117.0215,33.2976],[-117.0239,33.2929],[-117.028,33.2904],[-117.0455,33.2971],[-117.0506,33.3084],[-117.0541,33.3109],[-117.0649,33.3137],[-117.065,33.3171],[-117.0692,33.3171],[-117.0692,33.3208],[-117.0725,33.3208],[-117.0726,33.314],[-117.0786,33.3133],[-117.0839,33.3107],[-117.0833,33.3067],[-117.0864,33.2962],[-117.0827,33.296],[-117.0814,33.2906],[-117.0836,33.2898],[-117.0845,33.2724],[-117.0849,33.2713],[-117.0917,33.2695],[-117.0954,33.2709],[-117.1024,33.2707],[-117.1088,33.2695],[-117.1099,33.268],[-117.1122,33.2686],[-117.1126,33.2771],[-117.1143,33.2809],[-117.1208,33.2852],[-117.1207,33.2895],[-117.1243,33.2946],[-117.1334,33.299],[-117.1416,33.301],[-117.1431,33.2995],[-117.1502,33.3003],[-117.1499,33.2852],[-117.1575,33.2702],[-117.1589,33.2628]]]},"properties":{"GEOID":"0607393540","NAME":"Valley Center","COUNTY":"073"}},{"type":"Feature","geometry":{"type":"Polygon","coordinates":[[[-117.5097,33.5052],[-117.5094,33.4841],[-117.4877,33.5033],[-117.4827,33.5001],[-117.4837,33.4975],[-117.4783,33.4948],[-117.4719,33.4879],[-117.4754,33.4702],[-117.4699,33.4712],[-117.4667,33.4737],[-117.4651,33.4773],[-117.458,33.4757],[-117.4078,33.4601],[-117.4005,33.4558],[-117.3974,33.4446],[-117.3635,33.4447],[-117.3634,33.4302],[-117.335,33.4307],[-117.335,33.427],[-117.3395,33.4269],[-117.3394,33.4201],[-117.3307,33.42],[-117.3306,33.4235],[-117.3264,33.4235],[-117.3265,33.4167],[-117.3245,33.4165],[-117.3247,33.4131],[-117.3231,33.4131],[-117.3231,33.4165],[-117.318,33.4166],[-117.318,33.413],[-117.3136,33.4129],[-117.3135,33.4079],[-117.2953,33.4178],[-117.2743,33.4074],[-117.2553,33.4065],[-117.2621,33.3583],[-117.2538,33.3582],[-117.2535,33.3398],[-117.2494,33.3396],[-117.2492,33.3289],[-117.2601,33.3292],[-117.2601,33.3219],[-117.2492,33.3218],[-117.249,33.313],[-117.2448,33.3046],[-117.2425,33.3026],[-117.2432,33.2937],[-117.2415,33.2926],[-117.2425,33.2883],[-117.2461,33.2846],[-117.2475,33.2811],[-117.2450083042621,33.278010297285],[-117.24499,33.27801],[-117.24496009870225,33.2671159605191],[-117.2415,33.2685],[-117.23937,33.26794434782609],[-117.23937,33.26806],[-117.23674,33.26726],[-117.23683799051315,33.26635745579991],[-117.2364,33.2597],[-117.2331,33.2673],[-117.2291,33.2668],[-117.2239,33.2635],[-117.2148,33.2605],[-117.2126,33.2587],[-117.2129,33.2569],[-117.2013,33.2528],[-117.1851,33.2525],[-117.1801,33.2536],[-117.1735,33.2514],[-117.1562,33.2529],[-117.1587,33.2605],[-117.1584,33.2672],[-117.1509,33.2823],[-117.1495,33.2887],[-117.151,33.3095],[-117.1584,33.3239],[-117.1411,33.3399],[-117.135,33.3368],[-117.1328,33.3393],[-117.1354,33.3506],[-117.1346,33.3573],[-117.1364,33.3612],[-117.1304,33.3648],[-117.1276,33.3681],[-117.1268,33.3715],[-117.1213,33.3724],[-117.1206,33.3792],[-117.1227,33.3818],[-117.1249,33.3817],[-117.125,33.3828],[-117.1335,33.3836],[-117.1345,33.3847],[-117.134,33.387],[-117.1309,33.388],[-117.1296,33.3926],[-117.1302,33.3982],[-117.1268,33.4027],[-117.1283,33.4088],[-117.1226,33.4095],[-117.1179,33.4165],[-117.1154,33.4159],[-117.1152,33.4184],[-117.1116,33.4176],[-117.109,33.4188],[-117.1073,33.4224],[-117.1028,33.4261],[-117.1008,33.4261],[-117.0988,33.4303],[-117.1388,33.4326],[-117.2414,33.4319],[-117.2415,33.4488],[-117.3708,33.4907],[-117.3643,33.5049],[-117.5097,33.5052]]]},"properties":{"GEOID":"0607390960","NAME":"Fallbrook","COUNTY":"073"}}]}