{"type":"FeatureCollection","features":[{"type":"Feature","geometry":{"type":"Polygon","coordinates":[[[-122.50603828600433,37.708096979476544],[-122.4368,37.7079],[-122.42444727272728,37.70818727272727],[-122.43678,37.70792],[-122.44034,37.7085],[-122.50438,37.70813],[-122.50603828600433,37.708096979476544]]]},"properties":{"GEOID":"0607591964","NAME":"Merced-McLaren","COUNTY":"075"}},{"type":"Feature","geometry":{"type":"Polygon","coordinates":[[[-122.60489490651844,37.81520946942901],[-122.53401637326957,37.81510853880138],[-122.5341,37.8153],[-122.60489490651844,37.81520946942901]]]},"properties":{"GEOID":"0607593267","NAME":"Sunset","COUNTY":"075"}}]}