{"type":"FeatureCollection","features":[{"type":"Feature","geometry":{"type":"Polygon","coordinates":[[[-121.1473,37.905],[-121.1448,37.8375],[-121.1197,37.8349],[-121.109,37.8362],[-121.1032,37.8325],[-121.0972,37.8321],[-121.0871,37.8273],[-121.0817,37.8273],[-121.0711,37.8201],[-121.0693,37.7581],[-121.0647,37.7581],[-121.0645,37.75],[-121.0669,37.7447],[-121.0634,37.7437],[-121.0647,37.7467],[-121.0614,37.7463],[-121.0605,37.7494],[-121.0583,37.7488],[-121.0567,37.7505],[-121.0517,37.7481],[-121.0536,37.7459],[-121.0507,37.7457],[-121.0514,37.742],[-121.0468,37.7429],[-121.044,37.7387],[-121.0428,37.7391],[-121.0438,37.7415],[-121.0426,37.7418],[-121.0379,37.7392],[-121.0365,37.743],[-121.033,37.7429],[-121.0288,37.7407],[-121.0257,37.7424],[-121.0241,37.7467],[-121.0206,37.7481],[-121.0213,37.7501],[-121.0177,37.7553],[-121.0147,37.7565],[-121.0112,37.7558],[-121.014,37.7545],[-121.0108,37.7516],[-121.0127,37.7497],[-121.008,37.7491],[-121.0063,37.7515],[-120.9993,37.7536],[-120.9978,37.7553],[-120.9989,37.7571],[-120.9934,37.7609],[-120.9873,37.7566],[-120.9818,37.7567],[-120.9814,37.7545],[-120.9772,37.7528],[-120.9732,37.748],[-120.954,37.7384],[-120.942,37.7423],[-120.9236,37.7376],[-120.9207,37.7382],[-120.9222,37.7484],[-120.9206,37.7493],[-120.9226,37.7503],[-120.9234,37.758],[-120.9233,37.7936],[-120.9263,37.8867],[-120.9999,37.8864],[-120.9999,37.8936],[-121.1121,37.8917],[-121.1215,37.8968],[-121.1473,37.905]],[[-121.01517,37.80577],[-121.00849,37.80575],[-121.00154,37.8005],[-121.00148,37.80252],[-120.99684,37.80158],[-120.99687,37.80258],[-121.00055,37.80463],[-120.99695,37.80468],[-120.99701,37.80691],[-120.99278,37.80692],[-120.99263,37.80372],[-120.99124,37.80333],[-120.99189,37.80063],[-120.9783,37.80074],[-120.97832,37.79765],[-120.98088,37.79763],[-120.98082,37.79592],[-120.97829,37.79587],[-120.97835,37.79422],[-120.98268,37.79418],[-120.98178,37.79364],[-120.98172,37.79117],[-120.97818,37.79116],[-120.97816,37.78934],[-120.98275,37.78934],[-120.98405,37.78752],[-120.98612,37.78909],[-120.99218,37.78891],[-120.99183,37.78572],[-120.99319,37.78572],[-120.99315,37.78246],[-120.99231,37.78206],[-120.99631,37.78207],[-120.99608,37.77307],[-120.99943,37.7731],[-120.99942,37.77486],[-121.0005,37.77487],[-121.00057,37.77848],[-121.00421,37.77946],[-121.00425,37.78035],[-121.00293,37.78035],[-121.00318,37.7875],[-121.00086,37.78748],[-121.00112,37.79171],[-121.00733,37.79164],[-121.00726,37.78824],[-121.01021,37.78973],[-121.01022,37.79227],[-121.0148,37.7923],[-121.01493,37.79713],[-121.00881,37.79714],[-121.00884,37.79844],[-121.01496,37.79849],[-121.01517,37.80577]],[[-121.00972,37.75276],[-121.00961,37.7572],[-121.00415,37.75733],[-121.00261,37.75906],[-121.00262,37.75846],[-121.00068,37.7583],[-121.00051,37.75745],[-121.0045,37.75268],[-121.00933,37.75066],[-121.00972,37.75276]]]},"properties":{"GEOID":"0607790900","NAME":"Escalon","COUNTY":"077"}},{"type":"Feature","geometry":{"type":"Polygon","coordinates":[[[-121.2153,38.1378],[-121.215,38.116],[-121.2133,38.116],[-121.215,38.1082],[-121.215,38.0826],[-121.2109,38.0711],[-121.2102,38.0638],[-121.2104,38.0373],[-121.2044,38.0398],[-121.2027,38.0446],[-121.1942,38.0466],[-121.1917,38.0486],[-121.1933,38.0511],[-121.1926,38.0523],[-121.1768,38.05],[-121.1705,38.0536],[-121.1664,38.0579],[-121.1632,38.0586],[-121.163,38.0607],[-121.1602,38.0612],[-121.1567,38.0652],[-121.1499,38.0657],[-121.1477,38.0681],[-121.1437,38.0683],[-121.1419,38.0654],[-121.1364,38.0641],[-121.126,38.0682],[-121.126,38.0703],[-121.1204,38.0692],[-121.1127,38.0649],[-121.1062,38.0634],[-121.1048,38.0609],[-121.1022,38.0597],[-121.1021,38.0578],[-121.0958,38.0551],[-121.0957,38.052],[-121.0924,38.0487],[-121.0897,38.0474],[-121.0827,38.0489],[-121.0799,38.0462],[-121.0764,38.0453],[-121.0727,38.047],[-121.0721,38.049],[-121.0686,38.051],[-121.0609,38.0481],[-121.0507,38.0522],[-121.0407,38.0505],[-121.0365,38.0527],[-121.0308,38.0537],[-121.0246,38.0573],[-121.0133,38.0532],[-121.003,38.0539],[-120.9987,38.0559],[-120.9991,38.057],[-120.9958,38.0603],[-120.9852,38.0657],[-120.9835,38.0677],[-120.9783,38.065],[-120.9735,38.0668],[-120.9658,38.0655],[-120.9588,38.0618],[-120.9561,38.0631],[-120.9509,38.0694],[-120.9445,38.071],[-120.945,38.073],[-120.9373,38.0722],[-120.9265,38.0731],[-120.9264,38.0774],[-120.9388,38.0883],[-120.9818,38.1941],[-121.0271,38.3003],[-121.0406,38.2977],[-121.0436,38.2937],[-121.0481,38.2911],[-121.0534,38.2932],[-121.0617,38.2989],[-121.0675,38.2989],[-121.0838,38.2865],[-121.0858,38.287],[-121.0894,38.2841],[-121.0928,38.2838],[-121.0942,38.2819],[-121.1022,38.2832],[-121.1095,38.2811],[-121.1163,38.2774],[-121.1278,38.2774],[-121.1338,38.2719],[-121.1377,38.2716],[-121.1416,38.2692],[-121.147,38.2639],[-121.157,38.2608],[-121.1634,38.2604],[-121.1705,38.2576],[-121.1731,38.2552],[-121.1792,38.2551],[-121.182,38.2568],[-121.192,38.2567],[-121.2032,38.2489],[-121.2079,38.2488],[-121.2073,38.1896],[-121.1797,38.19],[-121.1792,38.1775],[-121.1701,38.1777],[-121.1699,38.1793],[-121.1677,38.1794],[-121.1656,38.1779],[-121.1695,38.1747],[-121.1703,38.1717],[-121.1721,38.1706],[-121.1715,38.1688],[-121.1732,38.1678],[-121.1697,38.1642],[-121.1718,38.162],[-121.1796,38.159],[-121.1824,38.1547],[-121.1851,38.1536],[-121.1819,38.1536],[-121.1852,38.1534],[-121.1854,38.1516],[-121.1895,38.1495],[-121.1888,38.1483],[-121.1923,38.1504],[-121.1931,38.1482],[-121.1968,38.1509],[-121.1946,38.1562],[-121.203,38.1597],[-121.2043,38.1585],[-121.2062,38.1595],[-121.206,38.1379],[-121.2153,38.1378]]]},"properties":{"GEOID":"0607791690","NAME":"Lockeford","COUNTY":"077"}},{"type":"Feature","geometry":{"type":"MultiPolygon","coordinates":[[[[-121.411,38.232],[-121.4103,38.2261],[-121.4049,38.2245],[-121.4008,38.2216],[-121.3957,38.2211],[-121.3936,38.2194],[-121.3938,38.2136],[-121.3912,38.211],[-121.3805,38.2101],[-121.3809,38.2116],[-121.3794,38.2122],[-121.3766,38.21],[-121.3728,38.2093],[-121.3719,38.1748],[-121.3997,38.1749],[-121.3983,38.1219],[-121.3862,38.098],[-121.3738678097851,38.08947085048011],[-121.36351,38.08253],[-121.36383098888203,38.08252921686152],[-121.3528,38.0749],[-121.35181494573499,38.057957066641805],[-121.32866,38.05785],[-121.32863898509463,38.057612268882934],[-121.32570472674507,38.05760115426797],[-121.32584,38.05783],[-121.31063,38.05777],[-121.31507,38.04983],[-121.32109224807931,38.04991870741852],[-121.3171,38.0428],[-121.3022,38.0426],[-121.30076291366906,38.042933237410075],[-121.29903,38.04388],[-121.29533,38.04422],[-121.29532819066148,38.04419346303502],[-121.2953,38.0442],[-121.29528076335878,38.04349786259542],[-121.29485,38.03718],[-121.27853,38.0372],[-121.27742,38.05263],[-121.28238,38.05251],[-121.28731,38.04985],[-121.28982,38.04962],[-121.29274,38.04758],[-121.29534,38.04445],[-121.29623,38.05746],[-121.2594,38.05759],[-121.25939315287454,38.057400055667685],[-121.2102,38.0578],[-121.2109,38.0709],[-121.215,38.0826],[-121.215,38.1082],[-121.2133,38.116],[-121.215,38.116],[-121.2153,38.1378],[-121.206,38.1379],[-121.2062,38.1595],[-121.2043,38.1585],[-121.203,38.1597],[-121.1946,38.1562],[-121.1968,38.1509],[-121.1931,38.1482],[-121.1923,38.1504],[-121.1888,38.1483],[-121.1895,38.1495],[-121.1854,38.1516],[-121.1852,38.1534],[-121.1819,38.1536],[-121.1851,38.1536],[-121.1824,38.1547],[-121.1796,38.159],[-121.1718,38.162],[-121.1697,38.1642],[-121.1732,38.1678],[-121.1715,38.1688],[-121.1721,38.1706],[-121.1703,38.1717],[-121.1695,38.1747],[-121.1656,38.1779],[-121.1677,38.1794],[-121.1699,38.1793],[-121.1701,38.1777],[-121.1792,38.1775],[-121.1797,38.19],[-121.2073,38.1896],[-121.2079,38.2488],[-121.215,38.2488],[-121.2225,38.2444],[-121.2256,38.2449],[-121.2293,38.2475],[-121.2318,38.2467],[-121.2375,38.2475],[-121.2449,38.2452],[-121.2684,38.2523],[-121.2774,38.2491],[-121.283,38.2497],[-121.288,38.2458],[-121.2925,38.239],[-121.2955,38.2376],[-121.3053,38.2348],[-121.309,38.2358],[-121.3177,38.2352],[-121.322,38.2326],[-121.3293,38.2328],[-121.3382,38.2291],[-121.3423,38.2296],[-121.3448,38.2282],[-121.3547,38.231],[-121.3624,38.2299],[-121.3632,38.2283],[-121.3663,38.2312],[-121.3709,38.2297],[-121.3732,38.2311],[-121.3786,38.2306],[-121.3825,38.2321],[-121.3852,38.2313],[-121.3891,38.2332],[-121.3975,38.2273],[-121.4017,38.2307],[-121.4049,38.2299],[-121.4099,38.233],[-121.411,38.232]],[[-121.31597,38.14494],[-121.31365,38.14675],[-121.31365,38.14887],[-121.30845,38.14889],[-121.30745,38.15065],[-121.30413,38.1517],[-121.30432,38.15079],[-121.30249,38.15059],[-121.30177,38.14924],[-121.29968,38.14922],[-121.3004,38.15125],[-121.29806,38.14892],[-121.29688,38.15073],[-121.29597,38.15041],[-121.29544,38.14879],[-121.29422,38.14995],[-121.29179,38.14969],[-121.29127,38.15015],[-121.29212,38.15196],[-121.28993,38.15148],[-121.28957,38.15214],[-121.29035,38.153],[-121.28862,38.15328],[-121.28783,38.15494],[-121.28486,38.15175],[-121.28384,38.15159],[-121.2823,38.1528],[-121.28294,38.15072],[-121.28049,38.15069],[-121.27879,38.14834],[-121.2775,38.1486],[-121.27843,38.14968],[-121.27798,38.15042],[-121.27221,38.14863],[-121.27027,38.14998],[-121.26951,38.14859],[-121.26728,38.14908],[-121.26543,38.14756],[-121.2635,38.14899],[-121.26199,38.14902],[-121.25777,38.14653],[-121.25734,38.14802],[-121.25661,38.14635],[-121.2554,38.14611],[-121.25308,38.14882],[-121.25066,38.14847],[-121.24895,38.14988],[-121.24808,38.14922],[-121.24808,38.1477],[-121.24581,38.14868],[-121.24575,38.14692],[-121.24352,38.1467],[-121.24336,38.13971],[-121.24132,38.13972],[-121.24131,38.13748],[-121.24323,38.13749],[-121.24308,38.13033],[-121.24438,38.13039],[-121.24435,38.134],[-121.24764,38.13399],[-121.24765,38.13051],[-121.24435,38.13024],[-121.24323,38.12941],[-121.24318,38.11959],[-121.24919,38.11964],[-121.24906,38.11585],[-121.25737,38.11605],[-121.25935,38.10903],[-121.25883,38.108],[-121.25975,38.1061],[-121.25996,38.10148],[-121.26171,38.10138],[-121.26059,38.101],[-121.26045,38.09428],[-121.27362,38.09387],[-121.27321,38.1011],[-121.27867,38.10094],[-121.27863,38.09812],[-121.28327,38.09812],[-121.28332,38.10095],[-121.30403,38.10097],[-121.30436,38.1037],[-121.30556,38.1039],[-121.30634,38.10389],[-121.30636,38.10107],[-121.309,38.10107],[-121.309,38.10248],[-121.31175,38.10248],[-121.31175,38.10305],[-121.31234,38.10305],[-121.31234,38.10108],[-121.31593,38.10108],[-121.31593,38.11553],[-121.31102,38.11549],[-121.31101,38.11918],[-121.30654,38.11922],[-121.30656,38.12083],[-121.31106,38.12094],[-121.31102,38.12201],[-121.30657,38.12192],[-121.30659,38.12283],[-121.31587,38.12277],[-121.31597,38.14494]]],[[[-121.26376,38.05002],[-121.26345,38.0469],[-121.25908,38.04689],[-121.25902,38.04297],[-121.26142,38.04274],[-121.26146,38.04043],[-121.25903,38.04042],[-121.25857,38.03766],[-121.25857395975808,38.037297022176546],[-121.2583,38.0373],[-121.25937993243244,38.05703331081081],[-121.25913,38.0501],[-121.26376,38.05002]]]]},"properties":{"GEOID":"0607791700","NAME":"Lodi","COUNTY":"077"}},{"type":"Feature","geometry":{"type":"MultiPolygon","coordinates":[[[[-121.3244,37.8488],[-121.3242,37.8475],[-121.3214,37.8447],[-121.321,37.8424],[-121.3182,37.8412],[-121.3167,37.8363],[-121.31441318996416,37.83396347670251],[-121.31669,37.83632],[-121.31801,37.84087],[-121.28603,37.84104],[-121.28309,37.85565],[-121.2822,37.85565],[-121.28147,37.85852],[-121.2811987475149,37.85815456262426],[-121.2791,37.8658],[-121.323,37.8648],[-121.3178,37.8592],[-121.3205,37.8563],[-121.3203,37.854],[-121.3236,37.8539],[-121.3218,37.8507],[-121.3244,37.8488]]],[[[-121.3086,37.7615],[-121.3078,37.7601],[-121.305,37.7595],[-121.3029,37.7512],[-121.2931,37.752],[-121.2905,37.7476],[-121.291,37.7447],[-121.2965,37.7391],[-121.2954,37.7329],[-121.2982,37.7276],[-121.2923,37.7224],[-121.2903,37.7165],[-121.2829,37.7139],[-121.2784,37.7094],[-121.2769,37.7122],[-121.2786,37.7174],[-121.278,37.7197],[-121.264,37.7217],[-121.2592,37.7188],[-121.2679,37.7123],[-121.2748,37.7006],[-121.2701,37.694],[-121.2751,37.688],[-121.2583,37.6879],[-121.2562,37.6863],[-121.2575,37.6827],[-121.2653,37.6778],[-121.2634,37.6739],[-121.258,37.6723],[-121.2496,37.6642],[-121.2469,37.6658],[-121.2465,37.6719],[-121.2449,37.6732],[-121.2429,37.6716],[-121.241,37.6654],[-121.2316,37.6626],[-121.2291,37.6643],[-121.2292,37.6689],[-121.2223,37.67],[-121.2185,37.6736],[-121.2191,37.6765],[-121.2217,37.675],[-121.2228,37.6772],[-121.219,37.6779],[-121.2183,37.6794],[-121.2226,37.6804],[-121.2235,37.6836],[-121.221,37.683],[-121.2164,37.6879],[-121.212,37.6859],[-121.2087,37.6863],[-121.2052,37.6915],[-121.2064,37.6948],[-121.2042,37.6934],[-121.2028,37.6958],[-121.1995,37.6962],[-121.1992,37.6943],[-121.2014,37.6928],[-121.1988,37.6902],[-121.1963,37.6926],[-121.1964,37.6946],[-121.1941,37.6949],[-121.1919,37.6905],[-121.189,37.6916],[-121.1895,37.6897],[-121.1876,37.69],[-121.1874,37.6875],[-121.1857,37.6889],[-121.1812,37.6879],[-121.1831,37.69],[-121.1788,37.6918],[-121.1795,37.693],[-121.1822,37.6916],[-121.1839,37.6923],[-121.1828,37.6936],[-121.1806,37.6936],[-121.1802,37.6953],[-121.1824,37.6966],[-121.1826,37.6985],[-121.1759,37.6994],[-121.1769,37.7025],[-121.1789,37.7019],[-121.1802,37.7034],[-121.1784,37.7055],[-121.17905266380015,37.75373185483075],[-121.18036,37.7526],[-121.18274,37.75311],[-121.18275,37.75385],[-121.18803,37.75385],[-121.18821,37.76119],[-121.21562,37.76118],[-121.21561,37.75753],[-121.22006,37.7575],[-121.22019,37.76117],[-121.22247,37.76116],[-121.22246,37.75917],[-121.22471,37.75917],[-121.22473,37.76156],[-121.2293,37.76112],[-121.22933,37.76476],[-121.22475,37.76478],[-121.22478,37.7684],[-121.22024,37.76843],[-121.22029,37.77568],[-121.22598,37.77566],[-121.22599,37.77712],[-121.2294,37.77703],[-121.22935,37.77004],[-121.23393,37.77001],[-121.23392,37.77086],[-121.23627,37.77088],[-121.23626,37.76946],[-121.24084,37.7695],[-121.24084,37.77132],[-121.24312,37.77133],[-121.24311,37.76952],[-121.24539,37.76953],[-121.2454,37.77126],[-121.24997,37.77163],[-121.24998,37.77434],[-121.25212,37.77435],[-121.2521,37.76835],[-121.26127,37.7683],[-121.26124,37.75852],[-121.26462,37.76003],[-121.27035,37.75962],[-121.27036,37.76102],[-121.2834,37.76087],[-121.28508,37.7641],[-121.29282,37.76672],[-121.29298,37.76915],[-121.29201,37.77029],[-121.28913,37.76918],[-121.28882,37.77517],[-121.28332,37.77534],[-121.2834,37.78275],[-121.2787,37.78275],[-121.27871,37.78649],[-121.27932,37.78666],[-121.27739,37.78731],[-121.27009,37.7855],[-121.26595,37.78551],[-121.26594,37.7864],[-121.26941,37.78641],[-121.26941,37.78791],[-121.27054,37.78791],[-121.27054,37.79038],[-121.26506,37.79532],[-121.26407627525073,37.79730973452522],[-121.27054,37.7973],[-121.27054,37.79057],[-121.2735,37.78893],[-121.30043,37.7797],[-121.3018288607595,37.78198063291139],[-121.2994,37.778],[-121.3031,37.7737],[-121.3011,37.7712],[-121.3015,37.7692],[-121.3081,37.7662],[-121.3086,37.7615]]],[[[-121.26442944777911,37.8556],[-121.26167,37.80563],[-121.26284443561208,37.79980131955485],[-121.26197,37.80157],[-121.26151,37.80544],[-121.26238,37.82135],[-121.25329,37.81657],[-121.25381,37.82652],[-121.25852,37.82649],[-121.25879,37.83297],[-121.25786,37.83286],[-121.25766,37.83372],[-121.25785,37.83742],[-121.25907,37.83743],[-121.26007944444444,37.8556],[-121.26442944777911,37.8556]]],[[[-121.25778,37.8556],[-121.25548,37.85559],[-121.25429,37.83558],[-121.2454,37.83557],[-121.24567,37.84099],[-121.23829,37.84097],[-121.23761,37.83784],[-121.23638,37.83784],[-121.23628,37.83541],[-121.22713,37.83542],[-121.22678,37.82649],[-121.21857,37.82674],[-121.21753,37.8262],[-121.2167,37.82193],[-121.21285,37.82193],[-121.21275,37.8192],[-121.20256,37.81922],[-121.2025,37.81777],[-121.20129,37.81777],[-121.20105,37.81196],[-121.19877,37.81197],[-121.19881,37.81289],[-121.19767,37.8129],[-121.19774,37.81562],[-121.18763,37.81568],[-121.1873,37.81201],[-121.18505,37.81202],[-121.18492,37.8084],[-121.18035,37.8085],[-121.18009,37.80172],[-121.18117,37.80173],[-121.18104,37.79755],[-121.17685,37.79756],[-121.17686,37.79639],[-121.17979,37.7964],[-121.17948,37.7848],[-121.18555,37.78482],[-121.18467,37.78339],[-121.18463,37.77987],[-121.18113,37.77645],[-121.17935718137,37.77623570324253],[-121.1794,37.7794],[-121.1429,37.7794],[-121.1473,37.905],[-121.1744,37.9128],[-121.184,37.9118],[-121.18393355670104,37.90754762886598],[-121.18389,37.90541],[-121.18390015452162,37.905409889384295],[-121.1839,37.9054],[-121.1930695407623,37.905282139578894],[-121.19301,37.90167],[-121.19866,37.90154],[-121.19874,37.90392],[-121.20219,37.90384],[-121.20215,37.90163],[-121.21136,37.90159],[-121.21141681611097,37.9050463134176],[-121.22060152323023,37.90492825805617],[-121.2208,37.90042],[-121.22230535631113,37.90347542617606],[-121.2203,37.8977],[-121.2186,37.8599],[-121.2375,37.8654],[-121.24155277209263,37.86750237552305],[-121.24157,37.86748],[-121.2506,37.87175],[-121.25036319043286,37.87207278003705],[-121.2535,37.8737],[-121.2562,37.8681],[-121.2555,37.8556],[-121.25778,37.8556]]],[[[-121.25396,37.83009],[-121.25387,37.82853],[-121.25372,37.82652],[-121.2442,37.82648],[-121.24512,37.83008],[-121.25396,37.83009]]],[[[-121.22654,37.8168],[-121.22649,37.81556],[-121.21783,37.81556],[-121.21837,37.81693],[-121.22654,37.8168]]],[[[-121.207,37.78921],[-121.20683,37.78493],[-121.20145,37.78489],[-121.20063,37.78412],[-121.20069,37.7857],[-121.207,37.78921]]]]},"properties":{"GEOID":"0607791870","NAME":"Manteca","COUNTY":"077"}},{"type":"Feature","geometry":{"type":"Polygon","coordinates":[[[-121.1794,37.7794],[-121.17935718137,37.77623570324253],[-121.17931,37.77623],[-121.17924,37.77341],[-121.16077,37.76256],[-121.16067,37.75595],[-121.16385,37.75595],[-121.16382,37.75397],[-121.17432,37.75394],[-121.17439,37.75758],[-121.17893,37.7576],[-121.17891,37.75661],[-121.17909159685613,37.75660900766745],[-121.17905465235383,37.75387880894825],[-121.17887,37.75389],[-121.17905266380015,37.75373185483075],[-121.1784,37.7055],[-121.1765,37.7061],[-121.1763,37.704],[-121.1689,37.6991],[-121.1637,37.7004],[-121.1667,37.7018],[-121.1657,37.7043],[-121.1624,37.7038],[-121.1586,37.7054],[-121.1621,37.7081],[-121.1593,37.7085],[-121.1608,37.7111],[-121.1584,37.7118],[-121.1578,37.7134],[-121.1591,37.7166],[-121.1561,37.7168],[-121.1571,37.7178],[-121.1551,37.7203],[-121.1545,37.7191],[-121.15079173289902,37.7193648762215],[-121.15105,37.71948],[-121.15112,37.72497],[-121.15627,37.72499],[-121.15635,37.7297],[-121.15119,37.7297],[-121.15127,37.73529],[-121.14738,37.73531],[-121.14728,37.73965],[-121.14239,37.73966],[-121.14208,37.75142],[-121.15158,37.75696],[-121.15171,37.76494],[-121.14709,37.76505],[-121.14715,37.76399],[-121.13921,37.76403],[-121.13927,37.76671],[-121.13827,37.76671],[-121.13831,37.76853],[-121.13362,37.76851],[-121.13356,37.76304],[-121.12912,37.76303],[-121.12914,37.76665],[-121.12453,37.76666],[-121.1242,37.75025],[-121.11951,37.75136],[-121.11948,37.75032],[-121.11433,37.75034],[-121.11299,37.74915],[-121.10809,37.74881],[-121.10806,37.74665],[-121.11003,37.74665],[-121.1095,37.74473],[-121.10543,37.74576],[-121.10558,37.74667],[-121.09643,37.7468],[-121.09641,37.74371],[-121.08959,37.74411],[-121.08956,37.74309],[-121.0924,37.74221],[-121.09257,37.74136],[-121.10099,37.74424],[-121.10537,37.74486],[-121.10553252090033,37.740489993569135],[-121.1029,37.7413],[-121.0998,37.7402],[-121.101,37.7377],[-121.0992,37.7381],[-121.0958,37.7362],[-121.0968,37.7346],[-121.0954,37.7332],[-121.0944,37.7337],[-121.0951,37.7345],[-121.0905,37.7359],[-121.0877,37.7414],[-121.0831,37.7418],[-121.0821,37.7399],[-121.0798,37.7402],[-121.0794,37.7384],[-121.0775,37.7375],[-121.0751,37.7389],[-121.0712,37.738],[-121.0666,37.74],[-121.0674,37.743],[-121.0645,37.75],[-121.0647,37.7581],[-121.0693,37.7581],[-121.0711,37.8201],[-121.0817,37.8273],[-121.0871,37.8273],[-121.0972,37.8321],[-121.1067,37.8339],[-121.1091,37.8362],[-121.1197,37.8349],[-121.1448,37.8375],[-121.1429,37.7794],[-121.1794,37.7794]]]},"properties":{"GEOID":"0607792620","NAME":"Ripon","COUNTY":"077"}},{"type":"Feature","geometry":{"type":"MultiPolygon","coordinates":[[[[-121.5851,38.0403],[-121.5836,38.0344],[-121.5799,38.0321],[-121.5779,38.0338],[-121.5808,38.0388],[-121.5802,38.0413],[-121.5776,38.043],[-121.573,38.0422],[-121.5708,38.038],[-121.5714,38.0304],[-121.5642,38.0297],[-121.5638,38.0248],[-121.5575,38.0166],[-121.5611,38.0154],[-121.568,38.0185],[-121.5721,38.0184],[-121.5726,38.0164],[-121.567,38.0135],[-121.5671,38.012],[-121.577,38.0111],[-121.5799,38.0078],[-121.5782,38.0039],[-121.5688,38.0022],[-121.5706,37.999],[-121.5792,37.9981],[-121.5761,37.9949],[-121.581,37.9895],[-121.5824,37.9835],[-121.5724,37.979],[-121.5733,37.9777],[-121.5786,37.9776],[-121.5802,37.9764],[-121.5748,37.973],[-121.5737,37.9664],[-121.565,37.959],[-121.5656,37.9578],[-121.5745,37.9569],[-121.5752,37.955],[-121.5736,37.9538],[-121.5635,37.9547],[-121.5688,37.9485],[-121.5674,37.944],[-121.5607,37.9476],[-121.5578,37.947],[-121.5582,37.9454],[-121.5628,37.9447],[-121.5636,37.9434],[-121.5609,37.9399],[-121.5615,37.9359],[-121.5573,37.9322],[-121.5589,37.9279],[-121.5564,37.9236],[-121.5583,37.9214],[-121.5651,37.9192],[-121.566,37.9163],[-121.5633,37.9106],[-121.5728,37.9043],[-121.5718,37.9025],[-121.567,37.8999],[-121.5659,37.8977],[-121.5684,37.8917],[-121.5759,37.8883],[-121.5739,37.8834],[-121.5782,37.8755],[-121.5793,37.8706],[-121.5734,37.8658],[-121.5744,37.8638],[-121.5795,37.8611],[-121.579,37.8585],[-121.578,37.8578],[-121.5743,37.8598],[-121.569,37.8606],[-121.5683,37.86],[-121.5705,37.8576],[-121.5659,37.8579],[-121.562,37.8531],[-121.5612,37.8543],[-121.5623,37.8564],[-121.5603,37.8586],[-121.5553,37.858],[-121.5528,37.8612],[-121.5475,37.8552],[-121.5406,37.8576],[-121.542,37.8518],[-121.5407,37.8494],[-121.539,37.8489],[-121.5372,37.8508],[-121.5341,37.8495],[-121.5382,37.8426],[-121.5389,37.8395],[-121.5381,37.8378],[-121.5442,37.8325],[-121.5495,37.8336],[-121.5521,37.8297],[-121.5512,37.8251],[-121.5525,37.824],[-121.5533,37.8188],[-121.5569,37.8172],[-121.557,37.816],[-121.55334,37.815133157894735],[-121.55324,37.81511],[-121.55323878669276,37.81510918632197],[-121.5532,37.8151],[-121.54358529332563,37.81009642815926],[-121.54289,37.8099],[-121.5421209305173,37.80933436179981],[-121.5336,37.8049],[-121.527,37.7989],[-121.5227,37.7977],[-121.52084294642857,37.795925482142856],[-121.51514,37.79057],[-121.51518817915961,37.79052203786363],[-121.5137,37.7891],[-121.5123,37.7892],[-121.51300620437956,37.789827737226275],[-121.511,37.7907],[-121.5066,37.7901],[-121.5,37.7861],[-121.497,37.7818],[-121.4921,37.7838],[-121.4883,37.7817],[-121.4835,37.7828],[-121.4706,37.7945],[-121.4682,37.8013],[-121.4663,37.8025],[-121.4583,37.803],[-121.4611,37.802],[-121.4593,37.8015],[-121.4562,37.8028],[-121.4562,37.8051],[-121.4556030612245,37.803985714285716],[-121.4559,37.8026],[-121.4541,37.8015],[-121.4499,37.8048],[-121.4439,37.8052],[-121.4439,37.8041],[-121.4455,37.8048],[-121.4462,37.8038],[-121.4441,37.8024],[-121.4412,37.8019],[-121.4374,37.8036],[-121.4361,37.8019],[-121.438,37.803],[-121.4388,37.8023],[-121.4375,37.8012],[-121.4334,37.8009],[-121.4347,37.8007],[-121.4343,37.7977],[-121.4312,37.8022],[-121.4297,37.8016],[-121.4311,37.802],[-121.4311,37.8012],[-121.4268,37.7996],[-121.4287,37.8016],[-121.4266,37.804],[-121.4217,37.8025],[-121.4197,37.8053],[-121.4176,37.8057],[-121.41220917093867,37.80329337988333],[-121.41181545851528,37.80338454148472],[-121.4099537012987,37.8052462987013],[-121.41026,37.80583],[-121.4092474251497,37.8059525748503],[-121.4088,37.8064],[-121.40876362862011,37.80639792163544],[-121.40879,37.80642],[-121.40853617077003,37.806384924044],[-121.39842637362638,37.80580722135008],[-121.39829045643154,37.80581908713693],[-121.3976235193133,37.80715296137339],[-121.39771,37.80853],[-121.39640068322981,37.809598633540375],[-121.3964,37.8096],[-121.39639907056406,37.80959994976022],[-121.39635,37.80964],[-121.39442993377483,37.80949350993377],[-121.3927,37.8094],[-121.38394906750604,37.8116871755382],[-121.38388,37.8137],[-121.38316990291263,37.81418233009709],[-121.3824,37.8168],[-121.38237935379645,37.81680535271944],[-121.38238,37.81682],[-121.38123957446808,37.81710085106383],[-121.37970475142983,37.81749876814782],[-121.3803,37.81985],[-121.3802880546075,37.819852218430036],[-121.3803,37.8199],[-121.37787269728601,37.82132086012526],[-121.37777,37.82166],[-121.37630629629629,37.82223777777778],[-121.3762,37.8223],[-121.3695,37.8214],[-121.3665,37.8193],[-121.36108,37.81962],[-121.35867,37.81752],[-121.35388,37.81691],[-121.35323294117647,37.81713823529412],[-121.35111964660692,37.817892983354675],[-121.34802,37.82178],[-121.34801744476516,37.82177805335995],[-121.348,37.8218],[-121.3421,37.8173],[-121.34126348837209,37.82057],[-121.34101,37.82157],[-121.3410073809979,37.82157114700822],[-121.341,37.8216],[-121.3396,37.8222],[-121.33929105376345,37.822003397849464],[-121.33432,37.81963],[-121.33295,37.81805],[-121.33537,37.81211],[-121.33535510013351,37.81201728971963],[-121.3335504590164,37.80869295081967],[-121.33346,37.80862],[-121.33145722543352,37.80852832369942],[-121.3278,37.8084],[-121.32605777777778,37.809582222222225],[-121.32499,37.81034],[-121.31947930497925,37.81121851659751],[-121.31927008403362,37.81140571428571],[-121.31764,37.81292],[-121.31992,37.81447],[-121.31978536585366,37.815359756097564],[-121.3197,37.816],[-121.31896,37.81604],[-121.31604,37.81624],[-121.3152795,37.8171825],[-121.3149,37.8177],[-121.31895868217055,37.818788914728685],[-121.31897,37.81879],[-121.31897207353828,37.81879250753466],[-121.319,37.8188],[-121.32001105263159,37.82004894736842],[-121.32069,37.82087],[-121.32067952702702,37.820874709856916],[-121.3207,37.8209],[-121.31494869146609,37.82380252954048],[-121.31387,37.82509],[-121.31193480067142,37.82532355853966],[-121.31009137190854,37.826253887074195],[-121.31002,37.82632],[-121.31212,37.83159],[-121.31441318996416,37.83396347670251],[-121.3167,37.8363],[-121.3182,37.8412],[-121.321,37.8424],[-121.3214,37.8447],[-121.3242,37.8475],[-121.3244,37.8488],[-121.3218,37.8507],[-121.3236,37.8539],[-121.3203,37.854],[-121.3205,37.8563],[-121.3178,37.8592],[-121.323,37.8648],[-121.2791,37.8658],[-121.2811987475149,37.85815456262426],[-121.28075,37.85755],[-121.27491,37.85753],[-121.27491,37.8556],[-121.26443,37.85561],[-121.26442944777911,37.8556],[-121.26007944444444,37.8556],[-121.26008,37.85561],[-121.25778,37.8556],[-121.2555,37.8556],[-121.2562,37.8681],[-121.2535,37.8737],[-121.25036319043286,37.87207278003705],[-121.24757,37.87588],[-121.25047,37.87806],[-121.25179,37.87578],[-121.25337,37.87741],[-121.25563,37.88293],[-121.26311,37.88106],[-121.26267,37.87911],[-121.2648,37.88012],[-121.26408,37.88074],[-121.26659,37.88247],[-121.26736,37.88571],[-121.26532,37.88629],[-121.26424,37.88366],[-121.25672,37.88559],[-121.25766,37.88806],[-121.25696,37.8883],[-121.26041,37.88889],[-121.26495,37.88775],[-121.26757,37.8883],[-121.26863,37.89227],[-121.26897,37.88879],[-121.27136,37.89044],[-121.27127,37.89156],[-121.2722,37.89251],[-121.27437,37.89358],[-121.27417,37.89878],[-121.27059,37.89931],[-121.27024,37.89792],[-121.25579,37.90167],[-121.25747,37.90595],[-121.27147,37.90222],[-121.27577,37.91119],[-121.27581,37.89608],[-121.27724,37.89658],[-121.27957,37.89541],[-121.28137,37.8952],[-121.28295,37.89729],[-121.32729,37.89716],[-121.3259,37.90012],[-121.32582,37.90248],[-121.32331,37.90518],[-121.3248,37.90711],[-121.32487,37.91054],[-121.32102,37.91801],[-121.31865,37.92035],[-121.32266,37.92282],[-121.32594,37.92786],[-121.34142,37.92802],[-121.34228,37.92697],[-121.35798,37.92695],[-121.35876,37.94108],[-121.36664,37.94151],[-121.37178,37.94462],[-121.37194,37.94745],[-121.37757,37.94972],[-121.37663,37.95359],[-121.37781,37.95562],[-121.37779,37.95746],[-121.38011,37.95927],[-121.37778,37.96232],[-121.37412,37.96274],[-121.37277,37.9652],[-121.37032,37.96728],[-121.38664,37.98081],[-121.38517,37.9815],[-121.3809,37.97854],[-121.37541,37.97769],[-121.37275,37.97761],[-121.37024,37.97917],[-121.36921,37.97875],[-121.36844,37.99137],[-121.36958,37.99424],[-121.3691,37.99533],[-121.37304,37.99888],[-121.37059,38.00244],[-121.37051,38.01126],[-121.37387,38.00868],[-121.37894,38.01264],[-121.38048,38.0124],[-121.38316,38.01342],[-121.38701,38.01709],[-121.38692,38.02098],[-121.40354,38.02897],[-121.40438,38.03018],[-121.40467,38.04173],[-121.40606,38.04524],[-121.40709758745477,38.0448205066345],[-121.4071,38.0448],[-121.40848983050847,38.04425762711865],[-121.41118,38.04317],[-121.41237736263736,38.04368164835165],[-121.4134,38.0441],[-121.41724589534884,38.04316197674419],[-121.41731,38.04311],[-121.41736996522027,38.04313171579993],[-121.4175,38.0431],[-121.4208,38.0444],[-121.4277,38.0428],[-121.4306,38.0445],[-121.4432,38.044],[-121.4478,38.0474],[-121.4492,38.0527],[-121.4598,38.056],[-121.4603,38.0546],[-121.4638,38.0544],[-121.4707,38.0483],[-121.4758,38.0473],[-121.4827,38.0395],[-121.4881,38.0383],[-121.5018,38.0459],[-121.5067,38.0515],[-121.5116,38.0531],[-121.5463,38.0577],[-121.5562,38.0607],[-121.5606,38.0709],[-121.5729,38.0742],[-121.5748,38.0718],[-121.5822,38.0684],[-121.5839,38.0599],[-121.5823,38.0514],[-121.5851,38.0403]]],[[[-121.3691,37.96709],[-121.36001,37.9597],[-121.35436,37.95692],[-121.35352,37.95806],[-121.34951,37.95668],[-121.34206,37.95922],[-121.34206,37.96003],[-121.34382,37.96356],[-121.34427,37.96225],[-121.34492,37.96265],[-121.34516,37.96189],[-121.34652,37.96176],[-121.34776,37.95922],[-121.34876,37.95992],[-121.34899,37.96275],[-121.35138,37.96243],[-121.35155,37.96345],[-121.3504,37.96376],[-121.33995,37.96521],[-121.34029,37.96627],[-121.33617,37.96722],[-121.33542,37.9658],[-121.33218,37.9666],[-121.33121,37.96543],[-121.32876,37.96612],[-121.32736,37.96302],[-121.31386,37.96613],[-121.31629,37.97236],[-121.32574,37.96997],[-121.32585,37.97059],[-121.32718,37.9703],[-121.32693,37.96968],[-121.32812,37.9694],[-121.32873,37.97093],[-121.32508,37.97182],[-121.32781,37.97869],[-121.33076,37.97799],[-121.33169,37.98076],[-121.34066,37.97967],[-121.34824,37.97399],[-121.35069,37.97372],[-121.35173,37.9724],[-121.35038,37.97078],[-121.35063,37.96989],[-121.35286,37.96926],[-121.35244,37.96791],[-121.35335,37.96675],[-121.35494,37.96624],[-121.356,37.96906],[-121.35921,37.96761],[-121.36372,37.96838],[-121.36554,37.96739],[-121.3691,37.96709]]],[[[-121.35683,38.00111],[-121.35175,38.00102],[-121.35185,38.00191],[-121.35011,38.00201],[-121.34885,37.9988],[-121.34844,37.99924],[-121.34971,38.00112],[-121.35052,38.00486],[-121.3564,38.00512],[-121.35683,38.00111]]],[[[-121.34972,38.00456],[-121.34715,37.99941],[-121.33166,37.99926],[-121.33167,38.00123],[-121.33059,38.0015],[-121.33076,38.00234],[-121.33162,38.00213],[-121.33167,38.00361],[-121.32252,38.00644],[-121.32134,38.00784],[-121.32045,38.00681],[-121.31905,38.00716],[-121.32169,38.01374],[-121.3271,38.01375],[-121.32684,38.01625],[-121.32406,38.01634],[-121.32458,38.01804],[-121.32886,38.02018],[-121.32888,38.02108],[-121.32531,38.02117],[-121.32626,38.02289],[-121.32527,38.02299],[-121.32535,38.02216],[-121.32296,38.02275],[-121.32286,38.02494],[-121.32891,38.02513],[-121.33209,38.02842],[-121.34094,38.02841],[-121.34067,38.0221],[-121.33511,38.02213],[-121.33508,38.02109],[-121.33335,38.02104],[-121.3311,38.02203],[-121.33163,38.02008],[-121.33105,38.01621],[-121.33157,38.0156],[-121.33526,38.01562],[-121.33526,38.01507],[-121.3369,38.01562],[-121.3369,38.01367],[-121.33041,38.01376],[-121.33061,38.01523],[-121.32883,38.0163],[-121.32927,38.01375],[-121.32988,38.01375],[-121.32929,38.00855],[-121.33949,38.00543],[-121.34972,38.00456]]],[[[-121.34793,38.04291],[-121.34106,38.03718],[-121.34123,38.04288],[-121.34793,38.04291]]],[[[-121.34551,38.03111],[-121.34548,38.02992],[-121.3415,38.03083],[-121.34036,38.02892],[-121.33718,38.03028],[-121.3364,38.03094],[-121.33708,38.03187],[-121.33596,38.0324],[-121.33744,38.03249],[-121.33778,38.03419],[-121.34495,38.03194],[-121.34551,38.03111]]],[[[-121.33424,38.05306],[-121.33279,38.05187],[-121.33265,38.0502],[-121.32334,38.05021],[-121.32372,38.05334],[-121.32318,38.05333],[-121.32570472674507,38.05760115426797],[-121.32863898509463,38.057612268882934],[-121.32834,38.05423],[-121.33305,38.05424],[-121.33291,38.05306],[-121.33424,38.05306]]],[[[-121.33213,38.04623],[-121.33194,38.04284],[-121.32222,38.04278],[-121.32274,38.03631],[-121.30035,38.03542],[-121.30045,38.04276],[-121.30108,38.04276],[-121.30076291366906,38.042933237410075],[-121.3022,38.0426],[-121.3171,38.0428],[-121.32109224807931,38.04991870741852],[-121.32118,38.04992],[-121.31912,38.04632],[-121.32099,38.0446],[-121.32409,38.04662],[-121.32373,38.0438],[-121.32583,38.04379],[-121.32584,38.0458],[-121.33213,38.04623]]],[[[-121.319,37.94885],[-121.31886,37.94832],[-121.31855,37.94749],[-121.31761,37.94774],[-121.31717,37.94642],[-121.31833,37.94628],[-121.31769,37.94386],[-121.31636,37.94409],[-121.31614,37.94352],[-121.31743,37.94281],[-121.31675,37.94032],[-121.30715,37.94196],[-121.30783,37.94441],[-121.30929,37.94421],[-121.31181,37.94221],[-121.31239,37.94431],[-121.31405,37.94449],[-121.31528,37.94794],[-121.31737,37.94801],[-121.31757,37.94896],[-121.319,37.94885]]],[[[-121.2902,37.91665],[-121.28967,37.9157],[-121.28826,37.9161],[-121.28776,37.91482],[-121.28491,37.91518],[-121.2842,37.91386],[-121.28888,37.91272],[-121.28807,37.90967],[-121.28623,37.90933],[-121.28544,37.90787],[-121.28655,37.90724],[-121.28401,37.90494],[-121.27781,37.90696],[-121.27914,37.91043],[-121.28022,37.91015],[-121.28188,37.91422],[-121.27723,37.91518],[-121.28085,37.92409],[-121.28842,37.91739],[-121.2902,37.91665]]],[[[-121.28867,37.98604],[-121.28759,37.98317],[-121.28234,37.98433],[-121.28206,37.98822],[-121.28867,37.98604]]],[[[-121.28775,37.9911],[-121.28751,37.99044],[-121.28488,37.99124],[-121.28515,37.99203],[-121.28178,37.99222],[-121.28161,37.99445],[-121.28734,37.99325],[-121.28668,37.99137],[-121.28775,37.9911]]],[[[-121.28298,37.97435],[-121.2821,37.96951],[-121.27818,37.97017],[-121.28066,37.97521],[-121.28298,37.97435]]],[[[-121.27979,37.99451],[-121.27208,37.99123],[-121.27334,37.99094],[-121.27052,37.98974],[-121.27345,37.98873],[-121.27223,37.98577],[-121.27293,37.98557],[-121.27274,37.98488],[-121.27194,37.98508],[-121.27148,37.98388],[-121.27219,37.98362],[-121.2719,37.9829],[-121.27267,37.98309],[-121.27698,37.97594],[-121.2756,37.97557],[-121.27476,37.97709],[-121.27245,37.97674],[-121.27171,37.97497],[-121.26825,37.97586],[-121.26736,37.97407],[-121.26642,37.9753],[-121.26562,37.97454],[-121.2677,37.97325],[-121.26566,37.9696],[-121.26134,37.97068],[-121.25908,37.97226],[-121.25864,37.97122],[-121.2536,37.9726],[-121.25323,37.97163],[-121.25164,37.97249],[-121.25111,37.97146],[-121.25295,37.97099],[-121.2511,37.96769],[-121.25441,37.96626],[-121.25333,37.96393],[-121.24937,37.96435],[-121.2489,37.96317],[-121.24308,37.9647],[-121.2384,37.95272],[-121.24542,37.95053],[-121.25112,37.94645],[-121.25573,37.94492],[-121.25105,37.94243],[-121.25077,37.94041],[-121.24822,37.94098],[-121.24587,37.93977],[-121.24255,37.94061],[-121.24275,37.9411],[-121.2414,37.94149],[-121.24172,37.94228],[-121.24583,37.94118],[-121.2464,37.94266],[-121.24373,37.94336],[-121.2441,37.94457],[-121.23984,37.94572],[-121.23554,37.94365],[-121.23514,37.94043],[-121.23675,37.9399],[-121.23632,37.93875],[-121.23792,37.93831],[-121.23864,37.93778],[-121.2383,37.937],[-121.23955,37.93654],[-121.2341,37.93826],[-121.23361,37.94069],[-121.22133,37.94377],[-121.21867,37.93745],[-121.22314,37.9363],[-121.21414,37.93096],[-121.2204,37.92934],[-121.23116,37.93289],[-121.23133,37.93201],[-121.23314,37.93148],[-121.23357,37.93387],[-121.23497,37.93354],[-121.23941,37.93647],[-121.24234,37.93282],[-121.24553,37.932],[-121.24746,37.93557],[-121.25149,37.93455],[-121.254,37.94071],[-121.25776,37.9397],[-121.25741,37.93888],[-121.25825,37.93865],[-121.25749,37.93693],[-121.25671,37.93713],[-121.2556,37.9344],[-121.25945,37.93337],[-121.25721,37.92792],[-121.2549,37.92802],[-121.25469,37.92749],[-121.25678,37.92689],[-121.2562,37.92545],[-121.25281,37.92631],[-121.25197,37.9255],[-121.25281,37.9253],[-121.25254,37.92464],[-121.254,37.92491],[-121.25599,37.92375],[-121.25521,37.92181],[-121.25096,37.92287],[-121.24975,37.9199],[-121.24605,37.92097],[-121.24481,37.91769],[-121.22995,37.9216],[-121.22516,37.90964],[-121.22071,37.91074],[-121.22074,37.91241],[-121.21791,37.91241],[-121.21332,37.91496],[-121.21732,37.92482],[-121.21154,37.92643],[-121.20827,37.92496],[-121.20713,37.92151],[-121.20805,37.92113],[-121.20729,37.91937],[-121.20604,37.91962],[-121.2041,37.91505],[-121.19792,37.91586],[-121.19989,37.92119],[-121.18881,37.91567],[-121.18676,37.91264],[-121.18402,37.91179],[-121.18393355670104,37.90754762886598],[-121.184,37.9118],[-121.1744,37.9128],[-121.1473,37.905],[-121.1509,38.0657],[-121.1567,38.0652],[-121.1602,38.0612],[-121.163,38.0607],[-121.1632,38.0586],[-121.1664,38.0579],[-121.1705,38.0536],[-121.1768,38.05],[-121.1926,38.0523],[-121.1933,38.0511],[-121.1917,38.0486],[-121.1942,38.0466],[-121.2027,38.0446],[-121.2044,38.0398],[-121.2104,38.0373],[-121.2102,38.0578],[-121.25939315287454,38.057400055667685],[-121.25937993243244,38.05703331081081],[-121.2583,38.0373],[-121.25857416654534,38.03727806667637],[-121.25872,38.02391],[-121.26135,38.0239],[-121.2613,38.02093],[-121.26148,38.02027],[-121.26267,38.02026],[-121.26267,38.0183],[-121.27082,38.0163],[-121.27328,38.01316],[-121.26642,38.0147],[-121.26641,38.01172],[-121.27311,38.01011],[-121.271,38.00479],[-121.26252,38.0063],[-121.26173,38.00416],[-121.2659,38.00484],[-121.2673,38.00423],[-121.26806,38.00357],[-121.26857,38.00044],[-121.27157,37.99972],[-121.27579,37.99529],[-121.27979,37.99451]]],[[[-121.27203,37.96683],[-121.27147,37.96513],[-121.26817,37.96569],[-121.26891,37.96764],[-121.26521,37.96837],[-121.26569,37.96946],[-121.27179,37.96802],[-121.27136,37.96749],[-121.27203,37.96683]]],[[[-121.25476,37.90195],[-121.25024,37.89035],[-121.25466,37.8891],[-121.25066,37.88624],[-121.24875,37.88664],[-121.2479,37.88421],[-121.2326,37.88766],[-121.2308,37.88336],[-121.22518,37.88341],[-121.2199,37.88068],[-121.21985,37.88007],[-121.22391,37.87998],[-121.22387,37.87887],[-121.22951,37.8792],[-121.24072,37.87653],[-121.23742,37.87287],[-121.24155277209263,37.86750237552305],[-121.2375,37.8654],[-121.2186,37.8599],[-121.2203,37.8977],[-121.22230535631113,37.90347542617606],[-121.22282,37.90452],[-121.22804,37.90444],[-121.23334,37.90698],[-121.23621,37.90733],[-121.24914,37.9042],[-121.25476,37.90195]]]]},"properties":{"GEOID":"0607793240","NAME":"Stockton","COUNTY":"077"}},{"type":"Feature","geometry":{"type":"Polygon","coordinates":[[[-121.5844,38.1183],[-121.5835,38.1135],[-121.5808,38.111],[-121.5672,38.1062],[-121.5643,38.1029],[-121.5646,38.0993],[-121.5672,38.0973],[-121.58,38.0944],[-121.5778,38.0895],[-121.5767,38.0782],[-121.5729,38.0742],[-121.5606,38.0709],[-121.5562,38.0607],[-121.5463,38.0577],[-121.5116,38.0531],[-121.5067,38.0515],[-121.5018,38.0459],[-121.489,38.0384],[-121.4827,38.0395],[-121.4758,38.0473],[-121.4707,38.0483],[-121.4638,38.0544],[-121.4603,38.0546],[-121.4598,38.056],[-121.4492,38.0527],[-121.4478,38.0474],[-121.4432,38.044],[-121.4306,38.0445],[-121.4277,38.0428],[-121.4208,38.0444],[-121.4175,38.0431],[-121.41736996522027,38.04313171579993],[-121.41974,38.04399],[-121.41881,38.04418],[-121.41859,38.04544],[-121.41775,38.05876],[-121.37218,38.05809],[-121.36989,38.05068],[-121.36065,38.05039],[-121.3611,38.058],[-121.35153819690255,38.05795578697705],[-121.3528,38.0749],[-121.36383098888203,38.08252921686152],[-121.3963,38.08245],[-121.40527,38.09879],[-121.38838,38.09924],[-121.38843768295948,38.098167775576854],[-121.38809,38.09925],[-121.38668288781135,38.0964454133774],[-121.38482,38.09681],[-121.3738678097851,38.08947085048011],[-121.3862,38.098],[-121.3983,38.1219],[-121.3997,38.1749],[-121.3719,38.1748],[-121.3728,38.2093],[-121.3766,38.21],[-121.3794,38.2122],[-121.3809,38.2116],[-121.3805,38.2101],[-121.3906,38.2107],[-121.3938,38.2136],[-121.3931,38.2186],[-121.3954,38.2209],[-121.4008,38.2216],[-121.4049,38.2245],[-121.4103,38.2261],[-121.411,38.2319],[-121.4157,38.2356],[-121.4205,38.2372],[-121.4272,38.2448],[-121.4268,38.247],[-121.4254,38.2468],[-121.4251,38.2504],[-121.4276,38.2516],[-121.4295,38.2549],[-121.4348,38.2543],[-121.4449,38.2568],[-121.4504,38.2546],[-121.4555,38.2575],[-121.4583,38.2572],[-121.461,38.2591],[-121.4665,38.26],[-121.4717,38.2598],[-121.4762,38.2578],[-121.4801,38.2536],[-121.4785,38.2511],[-121.4786,38.2462],[-121.4871,38.2399],[-121.4868,38.2358],[-121.4905,38.233],[-121.4917,38.2277],[-121.4984,38.2277],[-121.5064,38.2246],[-121.5073,38.2215],[-121.5043,38.2121],[-121.5081,38.2092],[-121.5099,38.2046],[-121.5132,38.2024],[-121.5207,38.2029],[-121.5256,38.1973],[-121.5289,38.1953],[-121.5289,38.193],[-121.5245,38.1855],[-121.5278,38.1817],[-121.5243,38.1727],[-121.5293,38.169],[-121.5312,38.1633],[-121.5335,38.1626],[-121.5337,38.16],[-121.5362,38.1582],[-121.5345,38.1557],[-121.5363,38.1516],[-121.5414,38.1519],[-121.5438,38.1473],[-121.5472,38.1481],[-121.5506,38.1456],[-121.5592,38.1439],[-121.5601,38.1421],[-121.5573,38.1391],[-121.5577,38.1368],[-121.5624,38.136],[-121.5763,38.1291],[-121.581,38.1248],[-121.5844,38.1183]]]},"properties":{"GEOID":"0607793340","NAME":"Thornton","COUNTY":"077"}},{"type":"Feature","geometry":{"type":"MultiPolygon","coordinates":[[[[-121.5573,37.6167],[-121.5567,37.5427],[-121.5505,37.5393],[-121.5458,37.5325],[-121.5406,37.5298],[-121.5327,37.5287],[-121.5304,37.5271],[-121.5288,37.5281],[-121.5223,37.5247],[-121.5167,37.5255],[-121.5099,37.5246],[-121.5044,37.5259],[-121.5015,37.525],[-121.4983,37.5224],[-121.5024,37.5185],[-121.4972,37.5125],[-121.4954,37.5081],[-121.496,37.5049],[-121.4932,37.5024],[-121.4821,37.5014],[-121.4794,37.4965],[-121.476,37.4954],[-121.4693,37.4897],[-121.4719,37.4818],[-121.24,37.6649],[-121.2419,37.6668],[-121.2429,37.6716],[-121.2449,37.6732],[-121.2465,37.6719],[-121.2469,37.6658],[-121.2496,37.6642],[-121.258,37.6723],[-121.264,37.6745],[-121.2653,37.6778],[-121.2574,37.6829],[-121.256,37.685],[-121.2573,37.6877],[-121.2752,37.6881],[-121.2715,37.6911],[-121.2701,37.694],[-121.2747,37.701],[-121.2679,37.7123],[-121.2592,37.7188],[-121.264,37.7217],[-121.278,37.7197],[-121.2786,37.7174],[-121.2769,37.7122],[-121.2784,37.7094],[-121.2829,37.7139],[-121.2903,37.7165],[-121.2923,37.7224],[-121.2982,37.7276],[-121.2954,37.7329],[-121.2965,37.7391],[-121.291,37.7447],[-121.2905,37.7476],[-121.2931,37.752],[-121.3029,37.7512],[-121.305,37.7595],[-121.3078,37.7601],[-121.3086,37.7615],[-121.3081,37.7662],[-121.3015,37.7692],[-121.3011,37.7712],[-121.3031,37.7737],[-121.2994,37.778],[-121.3018288607595,37.78198063291139],[-121.303,37.78389],[-121.30535,37.78552],[-121.31142,37.78039],[-121.31393,37.77944],[-121.32125,37.77414],[-121.31274,37.77038],[-121.31348,37.76955],[-121.30801,37.76729],[-121.30671,37.76924],[-121.30562,37.76836],[-121.30947,37.76552],[-121.30897,37.75992],[-121.31266,37.76032],[-121.3153,37.76326],[-121.31842,37.76434],[-121.32027,37.7659],[-121.32569,37.77139],[-121.32958,37.77007],[-121.33021,37.77215],[-121.33336,37.7734],[-121.33872,37.77833],[-121.34004,37.78124],[-121.34656,37.78349],[-121.34834,37.78481],[-121.34948,37.78456],[-121.35138,37.78949],[-121.3533,37.79],[-121.36,37.78877],[-121.36206,37.78943],[-121.36582,37.79606],[-121.37062,37.80032],[-121.39132,37.80499],[-121.40576,37.80145],[-121.41269,37.80202],[-121.41434,37.8028],[-121.41220917093867,37.80329337988333],[-121.4176,37.8057],[-121.4197,37.8053],[-121.4217,37.8025],[-121.4266,37.804],[-121.4287,37.8016],[-121.4268,37.7996],[-121.4311,37.8012],[-121.4311,37.802],[-121.4297,37.8016],[-121.4312,37.8022],[-121.4343,37.7977],[-121.4347,37.8007],[-121.4334,37.8009],[-121.4375,37.8012],[-121.4388,37.8023],[-121.438,37.803],[-121.4361,37.8019],[-121.4374,37.8036],[-121.4412,37.8019],[-121.4441,37.8024],[-121.4462,37.8038],[-121.4455,37.8048],[-121.4439,37.8041],[-121.4439,37.8052],[-121.4499,37.8048],[-121.4541,37.8015],[-121.4559,37.8026],[-121.4556030612245,37.803985714285716],[-121.4562,37.8051],[-121.4562,37.8028],[-121.4593,37.8015],[-121.4611,37.802],[-121.4583,37.803],[-121.4663,37.8025],[-121.4682,37.8013],[-121.4707,37.7943],[-121.4726,37.7937],[-121.4835,37.7828],[-121.488,37.7817],[-121.4921,37.7838],[-121.4972,37.7819],[-121.5026,37.7878],[-121.5079,37.7905],[-121.5130282306163,37.789847316103376],[-121.5123,37.7892],[-121.5137,37.7891],[-121.51518817915961,37.79052203786363],[-121.51736,37.78836],[-121.51735,37.77695],[-121.522,37.77704],[-121.53154,37.78263],[-121.5315,37.75099],[-121.54063,37.75102],[-121.54068,37.74317],[-121.54610449185284,37.74328683520914],[-121.53516,37.74245],[-121.53287,37.74115],[-121.52569,37.74202],[-121.50089,37.74012],[-121.47699,37.73958],[-121.47664,37.74958],[-121.48447,37.75403],[-121.46956,37.75406],[-121.46966,37.76553],[-121.46224,37.76546],[-121.46237,37.76324],[-121.45519,37.76333],[-121.45516,37.75992],[-121.45329,37.7599],[-121.45302,37.75775],[-121.44876,37.75773],[-121.44876,37.75954],[-121.43961,37.75959],[-121.43962,37.76146],[-121.4387,37.76146],[-121.43871,37.76263],[-121.43962,37.76262],[-121.4396,37.76511],[-121.4353,37.76538],[-121.43529,37.76803],[-121.43867,37.76655],[-121.44633,37.7662],[-121.45333,37.76705],[-121.45336,37.77401],[-121.43509,37.77419],[-121.43512,37.77955],[-121.42695,37.77965],[-121.42686,37.77394],[-121.42606,37.77394],[-121.42603,37.77207],[-121.42397,37.77209],[-121.42343,37.76907],[-121.41933,37.76906],[-121.41946,37.77543],[-121.41726,37.77647],[-121.41471,37.77473],[-121.4147,37.76882],[-121.40785,37.76883],[-121.40784,37.76539],[-121.38778,37.76537],[-121.3894,37.76155],[-121.38917,37.75456],[-121.38498,37.75463],[-121.38498,37.74987],[-121.38008,37.75168],[-121.3801,37.75046],[-121.38919,37.74717],[-121.38919,37.73947],[-121.39663,37.73957],[-121.39663,37.74068],[-121.39822,37.7407],[-121.39836,37.74359],[-121.41189,37.7383],[-121.41412,37.73639],[-121.41426,37.73449],[-121.41653,37.73544],[-121.41643,37.72152],[-121.41172,37.72152],[-121.41167,37.71795],[-121.39812,37.71796],[-121.39806,37.71047],[-121.41638,37.71044],[-121.41638,37.69881],[-121.42117,37.69884],[-121.42116,37.69603],[-121.43459,37.69601],[-121.43439,37.67971],[-121.43671,37.68114],[-121.44025,37.68116],[-121.44069,37.68149],[-121.43943,37.6815],[-121.44356,37.68336],[-121.4436,37.68859],[-121.45273,37.68859],[-121.45264,37.67906],[-121.44823,37.67617],[-121.44668,37.67409],[-121.45261,37.67405],[-121.45261,37.67107],[-121.45401,37.66981],[-121.45803,37.67129],[-121.4674,37.66333],[-121.47073,37.66452],[-121.47245,37.66393],[-121.47437,37.66191],[-121.47582,37.66293],[-121.47498,37.66434],[-121.47053,37.66722],[-121.4665,37.67149],[-121.46684,37.67221],[-121.47259,37.66716],[-121.47455,37.66678],[-121.47478,37.6659],[-121.47662,37.66501],[-121.47664,37.66416],[-121.48182,37.66675],[-121.48346,37.66889],[-121.48413,37.6685],[-121.48699,37.67271],[-121.48686,37.67748],[-121.48873,37.67969],[-121.4897,37.68302],[-121.49299,37.68385],[-121.49369,37.6856],[-121.49365,37.6908],[-121.49165,37.69254],[-121.50623,37.7013],[-121.5025,37.70285],[-121.50052,37.70283],[-121.4898,37.69698],[-121.49105,37.69981],[-121.47895,37.69975],[-121.47161,37.69719],[-121.47371,37.69602],[-121.47127,37.69601],[-121.47099,37.69414],[-121.46116,37.69036],[-121.45279,37.6911],[-121.4528,37.69276],[-121.44904,37.69274],[-121.4491,37.69591],[-121.45299,37.69589],[-121.45301,37.69678],[-121.45464,37.69679],[-121.45467,37.69619],[-121.46998,37.69667],[-121.4703,37.69751],[-121.47493,37.69979],[-121.47648,37.69978],[-121.47649,37.70232],[-121.46199,37.70239],[-121.46201,37.7056],[-121.46461,37.70559],[-121.4645,37.71054],[-121.45828,37.71055],[-121.45824,37.70332],[-121.45285,37.70331],[-121.45318,37.71789],[-121.44381,37.71788],[-121.44383,37.72156],[-121.45369,37.72182],[-121.45369,37.7209],[-121.45664,37.72089],[-121.46909,37.71657],[-121.47657,37.71973],[-121.47666,37.72507],[-121.46802,37.72506],[-121.46799,37.73236],[-121.47148,37.73234],[-121.47144,37.73907],[-121.47653,37.73885],[-121.47661,37.73084],[-121.48563,37.7309],[-121.48562,37.72888],[-121.49386,37.72889],[-121.49485,37.72957],[-121.49467,37.72165],[-121.53108,37.72196],[-121.53176,37.72225],[-121.53129,37.73084],[-121.54325,37.73862],[-121.54421,37.74037],[-121.54837,37.7406],[-121.54925,37.74238],[-121.54858920723227,37.74334035215577],[-121.55368,37.74345],[-121.55710486666293,37.746333580265045],[-121.5573,37.6167]],[[-121.44028,37.67976],[-121.43683,37.6796],[-121.4351,37.67834],[-121.43734,37.67739],[-121.44028,37.67976]]],[[[-121.55710318557382,37.74745038378914],[-121.55691,37.75109],[-121.5539,37.75106],[-121.55344,37.7541],[-121.55168,37.75514],[-121.54829,37.75495],[-121.54798,37.75584],[-121.54824,37.7577],[-121.54981,37.75871],[-121.54982,37.75662],[-121.55666,37.75611],[-121.55703,37.79473],[-121.55356,37.79438],[-121.55148,37.7954],[-121.55696,37.79884],[-121.55700977002229,37.80950944852767],[-121.55710318557382,37.74745038378914]]],[[[-121.55323878669276,37.81510918632197],[-121.54735,37.81116],[-121.54358529332563,37.81009642815926],[-121.5532,37.8151],[-121.55323878669276,37.81510918632197]]],[[[-121.5421209305173,37.80933436179981],[-121.53824,37.80648],[-121.53363,37.80486],[-121.52703,37.79887],[-121.52269,37.79766],[-121.52084294642857,37.795925482142856],[-121.5227,37.7977],[-121.527,37.7989],[-121.5336,37.8049],[-121.5421209305173,37.80933436179981]]],[[[-121.53156,37.78358],[-121.52607,37.78031],[-121.52698,37.78152],[-121.52705,37.7875],[-121.53155,37.78748],[-121.53156,37.78358]]],[[[-121.42522,37.72051],[-121.4252,37.716],[-121.41637,37.71601],[-121.41643,37.72053],[-121.42522,37.72051]]]]},"properties":{"GEOID":"0607793400","NAME":"Tracy","COUNTY":"077"}},{"type":"Feature","geometry":{"type":"Polygon","coordinates":[[[-121.1509,38.0616],[-121.1473,37.905],[-121.1215,37.8968],[-121.1121,37.8917],[-120.9999,37.8936],[-120.9999,37.8864],[-120.9263,37.8867],[-120.9265,38.0731],[-120.9373,38.0722],[-120.945,38.073],[-120.9445,38.071],[-120.9509,38.0694],[-120.9561,38.0631],[-120.9588,38.0618],[-120.9658,38.0655],[-120.9735,38.0668],[-120.9783,38.065],[-120.9835,38.0677],[-120.9852,38.0657],[-120.9958,38.0603],[-120.9991,38.057],[-120.9987,38.0559],[-121.003,38.0539],[-121.0133,38.0532],[-121.0246,38.0573],[-121.0308,38.0537],[-121.0365,38.0527],[-121.0407,38.0505],[-121.0507,38.0522],[-121.0609,38.0481],[-121.0686,38.051],[-121.0721,38.049],[-121.0727,38.047],[-121.0764,38.0453],[-121.0799,38.0462],[-121.0827,38.0489],[-121.0897,38.0474],[-121.0924,38.0487],[-121.0957,38.052],[-121.0958,38.0551],[-121.1021,38.0578],[-121.1022,38.0597],[-121.1048,38.0609],[-121.1062,38.0634],[-121.1127,38.0649],[-121.1208,38.0693],[-121.126,38.0703],[-121.126,38.0682],[-121.1364,38.0641],[-121.1419,38.0654],[-121.1437,38.0683],[-121.1479,38.0681],[-121.1509,38.0657],[-121.1509,38.0616]]]},"properties":{"GEOID":"0607791630","NAME":"Linden-Farmington","COUNTY":"077"}}]}