{"type":"FeatureCollection","features":[{"type":"Feature","properties":{"GEOID":"0608191215","NAME":"Half Moon Bay","COUNTY":"081"},"geometry":{"type":"Polygon","coordinates":[[[-122.5882,37.5794],[-122.5865,37.5619],[-122.5796,37.5459],[-122.575,37.4999],[-122.571,37.4845],[-122.5681,37.4792],[-122.5595,37.4699],[-122.547,37.4579],[-122.5373,37.4507],[-122.5276,37.4461],[-122.5099,37.4416],[-122.5077,37.4227],[-122.5035,37.4119],[-122.4875,37.3883],[-122.467,37.3499],[-122.4659,37.3412],[-122.4818,37.2711],[-122.484,37.2499],[-122.4831,37.2347],[-122.4817,37.2291],[-122.4791,37.2217],[-122.4722,37.2122],[-122.4685,37.1958],[-122.4681,37.188],[-122.4641,37.1778],[-122.4554,37.1666],[-122.4515,37.1582],[-122.4456,37.15],[-122.4285,37.1378],[-122.4213,37.1351],[-122.4134,37.1218],[-122.4044,37.1139],[-122.3969,37.1099],[-122.3969,37.1028],[-122.3931,37.0872],[-122.3857,37.0759],[-122.3761,37.0656],[-122.36,37.0584],[-122.3482,37.0557],[-122.3364,37.0539],[-122.3139,37.0548],[-122.2994,37.0964],[-122.2894,37.1135],[-122.3118,37.1475],[-122.3177,37.1869],[-122.2886,37.1867],[-122.2689,37.1898],[-122.2427,37.19],[-122.2426,37.2151],[-122.1528,37.2154],[-122.153,37.2224],[-122.1515,37.23],[-122.1526,37.244],[-122.1529,37.2891],[-122.1562,37.2918],[-122.1668,37.2952],[-122.1627,37.3007],[-122.1636,37.3015],[-122.1621,37.3042],[-122.1666,37.3056],[-122.1708,37.312],[-122.1758,37.3127],[-122.1818,37.3096],[-122.1838,37.31],[-122.1856,37.3117],[-122.1866,37.3155],[-122.2049,37.3247],[-122.2152,37.3333],[-122.2172,37.3356],[-122.21762727272727,37.339445454545455],[-122.21807703927493,37.3402667673716],[-122.2281,37.3447],[-122.22815330722368,37.34475787641427],[-122.22825,37.3448],[-122.22918980582524,37.34588321775312],[-122.23150308123249,37.34839477390956],[-122.23651,37.34969],[-122.23969678450034,37.3516434575119],[-122.2401,37.3518],[-122.2473,37.3585],[-122.24772,37.36009],[-122.24739557670773,37.361303583426654],[-122.24749646627748,37.36426301080611],[-122.24789,37.36503],[-122.24765,37.3673],[-122.250540206186,37.370176288660225],[-122.2522,37.3718],[-122.2577,37.3669],[-122.2566,37.363],[-122.2521,37.3631],[-122.2545,37.361],[-122.2531,37.36],[-122.2544,37.3595],[-122.2589,37.3615],[-122.2605,37.3585],[-122.2634,37.3592],[-122.2661,37.3572],[-122.2638,37.3596],[-122.2607,37.3599],[-122.2603,37.3631],[-122.2644,37.3626],[-122.2666,37.3749],[-122.2652,37.381],[-122.2661,37.3837],[-122.2707,37.3874],[-122.2809,37.3877],[-122.2848,37.3901],[-122.2915,37.3919],[-122.2904,37.3922],[-122.292,37.3936],[-122.2919,37.3955],[-122.2939,37.3965],[-122.2928,37.3985],[-122.2937,37.3997],[-122.2973,37.4007],[-122.3072,37.4075],[-122.3065,37.4119],[-122.319,37.418],[-122.3193,37.4238],[-122.3151,37.4241],[-122.3112,37.4263],[-122.311,37.4281],[-122.3168,37.434],[-122.3207,37.4355],[-122.3255,37.4424],[-122.3343,37.4476],[-122.3196,37.4553],[-122.2992,37.4547],[-122.3007,37.4576],[-122.2975,37.4597],[-122.2992,37.4625],[-122.2924,37.4685],[-122.2993,37.4764],[-122.2986,37.4874],[-122.2995,37.4902],[-122.3036,37.4937],[-122.3184,37.4994],[-122.3304,37.5015],[-122.3472,37.5125],[-122.3539,37.519],[-122.3661,37.5398],[-122.37666687996999,37.55249354763691],[-122.37708,37.55289],[-122.37765447963801,37.553679909502264],[-122.382,37.5589],[-122.388,37.5648],[-122.3939,37.5675],[-122.3992,37.5726],[-122.4067,37.584],[-122.40699155254592,37.584262998430596],[-122.40773,37.58325],[-122.4082,37.58381],[-122.40729009118542,37.58453229874973],[-122.40738554832443,37.584618406993684],[-122.40885,37.58498],[-122.42078937936418,37.5967094916945],[-122.4261,37.6015],[-122.43670110497237,37.6126991160221],[-122.44571883628632,37.621997554925585],[-122.44651552325581,37.62131075581395],[-122.44921,37.61871],[-122.44978987607573,37.618488037865745],[-122.4514,37.6171],[-122.4511627184466,37.61682621359223],[-122.45008,37.61564],[-122.45013974285715,37.61564585714286],[-122.4501,37.6156],[-122.4439,37.5936],[-122.4544469005848,37.58865614035088],[-122.46305188497193,37.584598541968845],[-122.4598,37.5845],[-122.45979955365577,37.58447143396939],[-122.45976,37.58447],[-122.45965278188942,37.5780994572631],[-122.451,37.578],[-122.4509,37.5705],[-122.4594,37.5707],[-122.45949072436501,37.56643595484478],[-122.45949,37.56636],[-122.45949234064688,37.566359989597125],[-122.4595,37.566],[-122.4676,37.5663],[-122.4676,37.5635],[-122.4777,37.5635],[-122.4779,37.5621],[-122.4801,37.5621],[-122.4854,37.5655],[-122.4926,37.5666],[-122.4944,37.5703],[-122.5091,37.5741],[-122.5141,37.5791],[-122.5123,37.5816],[-122.5147,37.5846],[-122.5132,37.5853],[-122.5173,37.5868],[-122.5871,37.5875],[-122.5882,37.5794]],[[-122.4768,37.50103],[-122.4763,37.50222],[-122.47589,37.50305],[-122.4679,37.49995],[-122.46717,37.49867],[-122.45943,37.49312],[-122.4484,37.49613],[-122.44232,37.52075],[-122.43697,37.5176],[-122.43975,37.50733],[-122.43584,37.50795],[-122.43556,37.50672],[-122.43724,37.50214],[-122.43566,37.49826],[-122.43656,37.495],[-122.43489,37.49287],[-122.43718,37.48967],[-122.43704,37.48829],[-122.43253,37.4856],[-122.43512,37.48203],[-122.43459,37.48106],[-122.43069,37.48443],[-122.43092,37.48336],[-122.42812,37.48163],[-122.42548,37.47853],[-122.42179,37.47199],[-122.41957,37.47476],[-122.41749,37.47419],[-122.41928,37.47387],[-122.41949,37.47217],[-122.42082,37.4713],[-122.4201,37.47043],[-122.42177,37.46953],[-122.41652,37.46718],[-122.421,37.46426],[-122.42106,37.46124],[-122.42487,37.46109],[-122.42675,37.46237],[-122.42761,37.4616],[-122.42634,37.45914],[-122.42428,37.45881],[-122.42602,37.45826],[-122.42567,37.45538],[-122.42907,37.45498],[-122.42699,37.43974],[-122.42569,37.43986],[-122.42559,37.43928],[-122.42693,37.43915],[-122.42589,37.43139],[-122.42108,37.43254],[-122.42083,37.43134],[-122.42652,37.42786],[-122.42638,37.42492],[-122.43817,37.42519],[-122.43994,37.42753],[-122.44048,37.43097],[-122.44309,37.43297],[-122.44281,37.43494],[-122.44455,37.43766],[-122.44399,37.44167],[-122.44563,37.46145],[-122.44682,37.46486],[-122.44738,37.47047],[-122.44965,37.47672],[-122.45454,37.48579],[-122.45866,37.49126],[-122.47026,37.49994],[-122.47011,37.50059],[-122.47266,37.50088],[-122.47489,37.49963],[-122.4768,37.50103]]]}},{"type":"Feature","properties":{"GEOID":"0608192870","NAME":"San Mateo","COUNTY":"081"},"geometry":{"type":"MultiPolygon","coordinates":[[[[-122.39301302346841,37.56956353457712],[-122.39232,37.5688],[-122.39254434132395,37.56865499890037],[-122.3908,37.5662],[-122.382,37.5589],[-122.37790838709678,37.554029032258065],[-122.38228,37.56004],[-122.39301302346841,37.56956353457712]]],[[[-122.3913378343949,37.57127764331211],[-122.3912994656992,37.57129910949868],[-122.3913,37.5713],[-122.3913378343949,37.57127764331211]]],[[[-122.39128,37.56992],[-122.38982,37.56882],[-122.3898127065527,37.56882117758784],[-122.39128,37.571266666666666],[-122.39128,37.56992]]],[[[-122.38671480769231,37.57054856837607],[-122.38571,37.57086],[-122.3859170110701,37.57152365313653],[-122.38671480769231,37.57054856837607]]],[[[-122.38018086956522,37.57606347826087],[-122.38001,37.57628],[-122.38012642201836,37.57613467889906],[-122.38018086956522,37.57606347826087]]],[[[-122.3764177705113,37.55225448870392],[-122.3673,37.5414],[-122.3541,37.5194],[-122.3472,37.5125],[-122.3304,37.5015],[-122.3184,37.4994],[-122.3036,37.4937],[-122.2995,37.4902],[-122.2986,37.4874],[-122.2993,37.4764],[-122.2924,37.4685],[-122.2992,37.4625],[-122.2975,37.4597],[-122.3007,37.4576],[-122.2992,37.4547],[-122.3196,37.4553],[-122.3343,37.4476],[-122.3255,37.4424],[-122.3207,37.4355],[-122.3168,37.434],[-122.311,37.4281],[-122.3112,37.4263],[-122.3151,37.4241],[-122.3193,37.4238],[-122.319,37.418],[-122.3065,37.4119],[-122.3072,37.4075],[-122.2973,37.4007],[-122.2937,37.3997],[-122.2928,37.3985],[-122.2939,37.3965],[-122.2919,37.3955],[-122.292,37.3936],[-122.2904,37.3922],[-122.2915,37.3919],[-122.2848,37.3901],[-122.2809,37.3877],[-122.2707,37.3874],[-122.2661,37.3837],[-122.2652,37.381],[-122.2666,37.3749],[-122.2644,37.3626],[-122.2603,37.3631],[-122.2607,37.3599],[-122.2638,37.3596],[-122.2661,37.3572],[-122.2634,37.3592],[-122.2605,37.3585],[-122.2589,37.3615],[-122.2544,37.3595],[-122.2531,37.36],[-122.2545,37.361],[-122.2521,37.3631],[-122.2566,37.363],[-122.2577,37.3669],[-122.2524,37.3719],[-122.24895027223239,37.36859401088938],[-122.2526494194529,37.37227534520191],[-122.25273,37.37193],[-122.25714,37.37221],[-122.25953,37.37499],[-122.26036,37.37812],[-122.25764,37.37719],[-122.2587,37.37799],[-122.25851,37.37912],[-122.27159,37.39299],[-122.26808,37.39759],[-122.26306,37.39714],[-122.26077,37.39617],[-122.25827,37.39833],[-122.25654,37.39728],[-122.2543,37.39715],[-122.25611,37.39838],[-122.25585,37.39946],[-122.25681,37.40135],[-122.25938,37.40035],[-122.26152,37.39822],[-122.26041,37.40113],[-122.25763,37.40368],[-122.27289,37.41781],[-122.28087,37.41464],[-122.28484,37.41583],[-122.28896,37.41575],[-122.29081,37.41854],[-122.2921,37.4176],[-122.29442,37.41826],[-122.29628,37.42031],[-122.30031,37.42125],[-122.30339,37.42333],[-122.28292,37.43541],[-122.28684,37.43886],[-122.28725,37.44135],[-122.28936,37.4429],[-122.27829,37.45061],[-122.28042,37.45202],[-122.2783,37.45432],[-122.2783,37.45591],[-122.28003,37.45614],[-122.2805,37.4571],[-122.27957,37.45714],[-122.27877,37.45855],[-122.28125,37.45893],[-122.2791070991718,37.46045317689531],[-122.27942,37.46034],[-122.27705,37.46265],[-122.27963,37.46276],[-122.28151,37.46509],[-122.291,37.46958],[-122.28751,37.47056],[-122.2832,37.47434],[-122.28012,37.47455],[-122.28067,37.47262],[-122.27912,37.46931],[-122.27629,37.47063],[-122.27483,37.46735],[-122.27197,37.46622],[-122.27555,37.46251],[-122.27557,37.46003],[-122.2742,37.45955],[-122.27536,37.45896],[-122.27481,37.45817],[-122.27179,37.45729],[-122.26962,37.45812],[-122.26304,37.45414],[-122.25879,37.45695],[-122.25958,37.45745],[-122.25847,37.45883],[-122.25872,37.4603],[-122.26047,37.46143],[-122.26277,37.46124],[-122.26296,37.46263],[-122.2606,37.462],[-122.26046,37.46303],[-122.25852,37.46419],[-122.25786,37.46404],[-122.25772,37.4627],[-122.25584,37.46226],[-122.2554,37.46291],[-122.25691,37.46569],[-122.25784,37.46544],[-122.25874,37.46651],[-122.25775,37.46785],[-122.25854,37.46767],[-122.25915,37.46855],[-122.25856,37.46921],[-122.25948,37.47078],[-122.26065,37.47026],[-122.26025,37.47262],[-122.26144,37.47406],[-122.26028,37.47727],[-122.26177,37.47772],[-122.25818,37.48079],[-122.25696,37.47926],[-122.2538,37.48145],[-122.2556,37.48288],[-122.25715,37.48168],[-122.25869258593217,37.48313526974732],[-122.25873,37.48162],[-122.26063,37.48216],[-122.26107,37.48151],[-122.26297,37.48165],[-122.26286,37.48281],[-122.26492,37.48295],[-122.26529,37.48213],[-122.26439,37.48093],[-122.26526,37.48018],[-122.26636,37.48029],[-122.26629,37.48123],[-122.26741,37.4822],[-122.27137,37.48247],[-122.27302,37.48153],[-122.27423,37.4823],[-122.27894,37.47886],[-122.27917,37.47817],[-122.27785,37.47645],[-122.2769,37.47688],[-122.27671,37.47516],[-122.27902,37.47479],[-122.29102,37.48474],[-122.29166,37.48657],[-122.28994,37.48678],[-122.29288,37.48876],[-122.29045,37.49014],[-122.2964,37.4927],[-122.2987,37.49566],[-122.3026,37.49839],[-122.30801,37.50222],[-122.30955,37.50097],[-122.3105,37.50212],[-122.31395,37.503],[-122.32,37.50341],[-122.31999,37.50463],[-122.3245,37.5105],[-122.32888,37.51355],[-122.32488,37.51725],[-122.3302,37.51259],[-122.33426,37.51575],[-122.33792,37.51421],[-122.33879,37.51513],[-122.33615,37.51607],[-122.33534,37.51807],[-122.33295,37.5168],[-122.3326,37.51723],[-122.33269,37.51639],[-122.32998,37.51751],[-122.33426,37.52088],[-122.33803,37.51899],[-122.34047,37.52097],[-122.33867,37.52055],[-122.33517,37.52429],[-122.3327,37.52508],[-122.33575,37.52955],[-122.34158,37.53173],[-122.34341,37.53353],[-122.34572,37.5397],[-122.34992,37.54081],[-122.35001,37.53753],[-122.34897,37.53568],[-122.35092,37.53304],[-122.35522,37.53082],[-122.35921,37.53017],[-122.36116,37.53264],[-122.36174,37.53769],[-122.36276,37.5387],[-122.3627,37.54073],[-122.365,37.54492],[-122.37361,37.54956],[-122.3764177705113,37.55225448870392]],[[-122.26368,37.46375],[-122.26273,37.46435],[-122.26242,37.46323],[-122.26368,37.46375]]],[[[-122.355,37.56416],[-122.35294,37.56097],[-122.35280354505365,37.56103074278525],[-122.35490965453576,37.564199480233356],[-122.355,37.56416]]],[[[-122.33334864956818,37.53922301491756],[-122.33296,37.53892],[-122.33036507562173,37.54113083809846],[-122.33334864956818,37.53922301491756]]],[[[-122.33257,37.54417],[-122.33022571222308,37.541249573701634],[-122.33019,37.54128],[-122.33257,37.54417]]],[[[-122.32938,37.54188],[-122.3227,37.53736],[-122.31818,37.54154],[-122.31896,37.54275],[-122.32022,37.54271],[-122.32066,37.54354],[-122.31954,37.54399],[-122.32019,37.54449],[-122.32118,37.54377],[-122.32415,37.54614],[-122.32938,37.54188]]],[[[-122.29169,37.4972],[-122.28625,37.49296],[-122.28613,37.49508],[-122.28439,37.49532],[-122.28387,37.49463],[-122.28383,37.49592],[-122.28132,37.49337],[-122.28099,37.49203],[-122.27672,37.49517],[-122.27923,37.49756],[-122.28106,37.49681],[-122.28183,37.49741],[-122.28049,37.49845],[-122.28244,37.50001],[-122.28354,37.49856],[-122.28528,37.49857],[-122.28578,37.49716],[-122.28902,37.49817],[-122.28916,37.49888],[-122.29102,37.4985],[-122.28949,37.49683],[-122.29169,37.4972]]],[[[-122.28965,37.50047],[-122.28834,37.49875],[-122.28597,37.49928],[-122.28653,37.50057],[-122.2852,37.50116],[-122.28619,37.50167],[-122.28512,37.50157],[-122.28461,37.50235],[-122.28764,37.50488],[-122.28653,37.50661],[-122.28956,37.50201],[-122.28622,37.50094],[-122.28813,37.50073],[-122.28735,37.49953],[-122.28965,37.50047]]],[[[-122.27821454328073,37.46077601626016],[-122.27805702842377,37.46059134366925],[-122.27801,37.46085],[-122.27821454328073,37.46077601626016]]],[[[-122.27717002310993,37.459551406404756],[-122.2765693762442,37.45884719973457],[-122.2765,37.45919],[-122.27717002310993,37.459551406404756]]],[[[-122.27666,37.53422],[-122.2657,37.53408],[-122.26717,37.53326],[-122.265,37.53439],[-122.27666,37.53422]]],[[[-122.27432,37.45621],[-122.27143710324613,37.45643553273925],[-122.27148,37.45647],[-122.27432,37.45621]]],[[[-122.27266,37.5189],[-122.26734,37.51423],[-122.27021,37.51686],[-122.26498,37.52127],[-122.26257,37.5192],[-122.26792,37.5238],[-122.27094,37.52128],[-122.27016,37.52075],[-122.27118,37.52108],[-122.27216,37.52023],[-122.27254,37.51972],[-122.27166,37.51924],[-122.27266,37.5189]]],[[[-122.2714,37.45493],[-122.26964,37.45454],[-122.26926102231704,37.454687065966525],[-122.27072591115038,37.45586409454877],[-122.2714,37.45493]]],[[[-122.27,37.52963],[-122.26974869810381,37.52937109995017],[-122.26999,37.53065],[-122.27,37.52963]]],[[[-122.26840628093721,37.527988094582575],[-122.26513792964782,37.52462092416125],[-122.26569,37.52572],[-122.26840628093721,37.527988094582575]]],[[[-122.26233,37.48446],[-122.26228565982404,37.48444240469208],[-122.26229,37.48482],[-122.26196357716078,37.4858679891154],[-122.26218,37.48583],[-122.26233,37.48446]]],[[[-122.2620693838211,37.52145960035322],[-122.26107769885527,37.52043793163142],[-122.26095538979027,37.520539392560345],[-122.2620693838211,37.52145960035322]]],[[[-122.26151481492954,37.484136513860925],[-122.2609960008527,37.48393063525901],[-122.26068,37.48434],[-122.26151481492954,37.484136513860925]]],[[[-122.26106298567024,37.53369633557047],[-122.2608,37.53365],[-122.26022,37.53451],[-122.26106298567024,37.53369633557047]]],[[[-122.26088273464659,37.48605771147161],[-122.26016149434705,37.48607014664919],[-122.2603,37.48616],[-122.26088273464659,37.48605771147161]]],[[[-122.26073,37.53876],[-122.25846,37.54118],[-122.25963,37.54038],[-122.26073,37.53876]]],[[[-122.26068487264307,37.48380717168376],[-122.26044,37.48371],[-122.25714,37.48411],[-122.26068487264307,37.48380717168376]]],[[[-122.25936,37.47433],[-122.25774,37.47411],[-122.25793,37.47321],[-122.25707,37.47246],[-122.25587,37.47272],[-122.25508,37.47093],[-122.25267,37.4714],[-122.2522,37.47229],[-122.25265,37.4737],[-122.25437,37.47295],[-122.2548,37.47399],[-122.25171,37.47418],[-122.25108,37.47374],[-122.25311,37.4738],[-122.25202,37.4736],[-122.25191,37.47253],[-122.25064,37.47315],[-122.25163,37.47593],[-122.25374,37.47679],[-122.2549,37.47611],[-122.25408,37.47705],[-122.25469,37.47755],[-122.25593,37.47748],[-122.25936,37.47433]]],[[[-122.25869106592074,37.48319683021016],[-122.25371,37.48491],[-122.25869,37.48324],[-122.25869106592074,37.48319683021016]]],[[[-122.25395,37.37329],[-122.25330910202315,37.37293185113059],[-122.25388,37.3735],[-122.25334367882489,37.37512778181218],[-122.25342,37.37508],[-122.25395,37.37329]]],[[[-122.25032,37.47235],[-122.24746,37.47007],[-122.24619,37.4707],[-122.24928,37.47318],[-122.25032,37.47235]]],[[[-122.24731072358146,37.36390100208225],[-122.2471635385535,37.36217157800359],[-122.24691,37.36312],[-122.24731072358146,37.36390100208225]]],[[[-122.2468125041614,37.358046923896396],[-122.2468,37.3579],[-122.24397034099921,37.35540543219667],[-122.2468125041614,37.358046923896396]]],[[[-122.24541,37.40098],[-122.24441,37.39825],[-122.24237,37.39828],[-122.2424,37.39914],[-122.24071,37.39854],[-122.23828,37.39983],[-122.23751,37.39774],[-122.23784,37.39543],[-122.23561,37.39733],[-122.23317,37.39726],[-122.2344,37.39645],[-122.23365,37.39493],[-122.23417,37.39436],[-122.23343,37.3941],[-122.23394,37.39365],[-122.23374548052192,37.39339130914771],[-122.20665,37.40124],[-122.20434,37.39407],[-122.19186,37.39764],[-122.19184463276837,37.397590536723165],[-122.1926,37.4042],[-122.1945,37.4079],[-122.1923,37.4139],[-122.1876,37.4147],[-122.1872,37.4163],[-122.1903,37.4185],[-122.1879,37.4202],[-122.1884,37.4225],[-122.19111520930232,37.425027953488375],[-122.19071,37.42415],[-122.19169,37.42386],[-122.19047,37.42097],[-122.19169,37.41977],[-122.19698,37.42153],[-122.19793,37.42074],[-122.19873,37.42211],[-122.20643,37.42105],[-122.20783,37.42085],[-122.20901,37.41732],[-122.21218,37.41688],[-122.21623,37.41865],[-122.21622,37.42034],[-122.22018,37.42027],[-122.22374,37.4191],[-122.22381,37.42027],[-122.22923344318687,37.4247001385739],[-122.22925,37.42467],[-122.23592,37.42535],[-122.23982,37.42124],[-122.24112,37.42193],[-122.2438,37.4201],[-122.24046,37.41188],[-122.24538,37.40791],[-122.24451,37.4042],[-122.24541,37.40098]]],[[[-122.23971727191754,37.35165601603257],[-122.2392,37.3512],[-122.23866091499801,37.35100848295982],[-122.23971727191754,37.35165601603257]]],[[[-122.23451,37.44452],[-122.23122,37.44291],[-122.22832,37.44637],[-122.22497,37.44397],[-122.22833,37.43965],[-122.21722,37.45375],[-122.22198,37.45727],[-122.21911,37.46081],[-122.2209,37.45861],[-122.22224,37.45921],[-122.22347,37.45811],[-122.22612,37.45951],[-122.2275,37.45703],[-122.22699,37.45667],[-122.22769,37.45667],[-122.22885,37.45408],[-122.22819,37.45364],[-122.22898,37.4538],[-122.22913,37.45203],[-122.22969,37.45238],[-122.23042,37.45088],[-122.22985,37.45053],[-122.23097,37.4483],[-122.23161032384142,37.4487595265215],[-122.23451,37.44452]]],[[[-122.23150308123249,37.34839477390956],[-122.22918980582524,37.34588321775312],[-122.23133,37.34835],[-122.23150308123249,37.34839477390956]]],[[[-122.2314138888889,37.430940185185186],[-122.23054,37.43038],[-122.2291911001025,37.43054122309532],[-122.2314138888889,37.430940185185186]]],[[[-122.22815330722368,37.34475787641427],[-122.2281,37.3447],[-122.21807703927493,37.3402667673716],[-122.21815,37.3404],[-122.22815330722368,37.34475787641427]]],[[[-122.22653,37.38304],[-122.22345762688232,37.38161320133854],[-122.22327,37.38197],[-122.22653,37.38304]]],[[[-122.22557,37.3802],[-122.22388,37.38081],[-122.22358440632229,37.38137211256746],[-122.22557,37.3802]]],[[[-122.21897,37.42896],[-122.21751,37.42786],[-122.216178401222,37.42953224032586],[-122.21755,37.42796],[-122.21897,37.42896]]],[[[-122.21771,37.47699],[-122.21519,37.47541],[-122.21726,37.47326],[-122.21245,37.46968],[-122.20612,37.46514],[-122.20365,37.46825],[-122.20211,37.46727],[-122.19795,37.47264],[-122.19333,37.47087],[-122.1922,37.47272],[-122.1897,37.47172],[-122.18678,37.47676],[-122.18448,37.48046],[-122.18601,37.47801],[-122.18872,37.47783],[-122.1986,37.48161],[-122.19992,37.47951],[-122.2027,37.48062],[-122.20168,37.48227],[-122.20204,37.48292],[-122.21093,37.48482],[-122.21073,37.48413],[-122.21166,37.48375],[-122.21272,37.48423],[-122.21128,37.48488],[-122.21341,37.48522],[-122.21449,37.48367],[-122.2094,37.4826],[-122.21284,37.47765],[-122.2121,37.47715],[-122.21409,37.47698],[-122.21337,37.47801],[-122.21497,37.47907],[-122.21612,37.47745],[-122.21709,37.47779],[-122.21771,37.47699]]],[[[-122.21759629629629,37.33938888888889],[-122.217,37.3353],[-122.2049,37.3247],[-122.1925,37.3188],[-122.1865,37.322],[-122.183,37.3273],[-122.1785,37.3252],[-122.1751,37.3257],[-122.1828,37.333],[-122.186,37.3387],[-122.1942,37.3457],[-122.1959,37.3482],[-122.1961,37.3513],[-122.20177569573283,37.3592814471243],[-122.20149,37.35805],[-122.1967,37.35188],[-122.20317,37.3484],[-122.20215,37.347],[-122.2068,37.34402],[-122.20681,37.34524],[-122.20809,37.34346],[-122.2105,37.34323],[-122.2127,37.34008],[-122.21414,37.34074],[-122.21414,37.33833],[-122.217,37.3383],[-122.21759629629629,37.33938888888889]]],[[[-122.21399,37.43316],[-122.21340104301947,37.43275448863636],[-122.2117,37.433],[-122.20767,37.4325],[-122.20797,37.43132],[-122.20523,37.42984],[-122.20265,37.43044],[-122.2006,37.42936],[-122.19951,37.43067],[-122.19592,37.42887],[-122.1928,37.42616],[-122.19398,37.42579],[-122.19288,37.42519],[-122.19743,37.4223],[-122.19205,37.42376],[-122.19151,37.42453],[-122.19237,37.42584],[-122.19014,37.42846],[-122.19484,37.4309],[-122.19651,37.4305],[-122.19719,37.43261],[-122.19976,37.43339],[-122.19849,37.43484],[-122.1998,37.43553],[-122.19862,37.43667],[-122.20227,37.43831],[-122.201774254782,37.43890131462992],[-122.20656,37.44038],[-122.21012,37.43793],[-122.21092,37.43834],[-122.21332,37.43548],[-122.21217,37.43487],[-122.21399,37.43316]]],[[[-122.20265,37.36305],[-122.20230542264753,37.36156475279107],[-122.20175166320166,37.36516418918919],[-122.20265,37.36305]]],[[[-122.20072756756757,37.37182081081081],[-122.20070584103512,37.37196203327172],[-122.20071,37.37196],[-122.20072756756757,37.37182081081081]]],[[[-122.19923742004265,37.37390708955224],[-122.19773211414652,37.37586989037759],[-122.19916,37.37472],[-122.19923742004265,37.37390708955224]]],[[[-122.19790575675675,37.6064],[-122.15607,37.55463],[-122.13977,37.53434],[-122.1141157187154,37.50316410188261],[-122.1979,37.6064],[-122.19790575675675,37.6064]]],[[[-122.19605614747931,37.378055219463256],[-122.19061007194244,37.38515647482014],[-122.19372,37.38225],[-122.19605614747931,37.378055219463256]]],[[[-122.19532,37.46022],[-122.19524732430439,37.46017863220431],[-122.19342,37.46179],[-122.19532,37.46022]]],[[[-122.19272,37.48618],[-122.18994,37.48582],[-122.18935,37.48667],[-122.18215,37.48517],[-122.18929,37.48666],[-122.18935563297721,37.48773929784753],[-122.19222,37.48743],[-122.19272,37.48618]]],[[[-122.19167280858676,37.39703747763864],[-122.19122,37.39558],[-122.19002,37.39486],[-122.19000733224223,37.39475922094926],[-122.19,37.3949],[-122.19167280858676,37.39703747763864]]],[[[-122.19131,37.42545],[-122.19123238961039,37.42528184415585],[-122.1894,37.4275],[-122.1905,37.4313],[-122.19049201240524,37.43130379738112],[-122.19053,37.43129],[-122.18944,37.42746],[-122.19131,37.42545]]],[[[-122.19113,37.38815],[-122.19051617934754,37.38527890339978],[-122.1905,37.3853],[-122.19021368563686,37.39079723577236],[-122.19057,37.39053],[-122.19032,37.38912],[-122.19113,37.38815]]],[[[-122.18821022136137,37.432388583287214],[-122.1844,37.4342],[-122.183388,37.436638],[-122.18442,37.43423],[-122.18765,37.43331],[-122.18821022136137,37.432388583287214]]],[[[-122.18067857142857,37.439355102040814],[-122.1801,37.4393],[-122.18008928571429,37.43936071428571],[-122.18014,37.43931],[-122.18067857142857,37.439355102040814]]],[[[-122.17979,37.44102],[-122.17978385018215,37.44100354508197],[-122.17786374193548,37.44142503225807],[-122.17979,37.44102]]],[[[-122.17567925625423,37.44192553076403],[-122.1718,37.4467],[-122.1687,37.4474],[-122.16864623003195,37.44756619808307],[-122.16875,37.44743],[-122.16944,37.4478],[-122.17182,37.4467],[-122.17452,37.44447],[-122.17567925625423,37.44192553076403]]],[[[-122.17316982594937,37.46108034810126],[-122.17064,37.45987],[-122.16722,37.46368],[-122.16509,37.463],[-122.16157,37.47009],[-122.16786,37.4717],[-122.17316982594937,37.46108034810126]]],[[[-122.16762022615536,37.450737482792526],[-122.1676064967481,37.45077991914221],[-122.16762,37.45078],[-122.16762022615536,37.450737482792526]]],[[[-122.160807,37.454458],[-122.16043631684684,37.45467840619918],[-122.16044,37.45468],[-122.160807,37.454458]]],[[[-122.157065,37.45370052631579],[-122.1558,37.4541],[-122.15580185756241,37.45412600587372],[-122.157065,37.45370052631579]]],[[[-122.15652,37.46954],[-122.15056,37.46599],[-122.15642,37.4697],[-122.15369,37.4745],[-122.15652,37.46954]]],[[[-122.15591,37.45553],[-122.15586285714286,37.45498],[-122.1559,37.4555],[-122.15582151340996,37.455550785440614],[-122.15591,37.45553]]],[[[-122.1525589516129,37.45766185483871],[-122.15253331748548,37.457678441627046],[-122.15254,37.45768],[-122.1525589516129,37.45766185483871]]],[[[-122.14818604651163,37.45666465116279],[-122.1475,37.4565],[-122.14749426915243,37.456503327588905],[-122.14818604651163,37.45666465116279]]],[[[-122.14528449541284,37.45778642201835],[-122.14466456264775,37.458146382978725],[-122.14493,37.4582],[-122.14528449541284,37.45778642201835]]],[[[-122.14136731490622,37.457480355380056],[-122.14088731467778,37.45735062558859],[-122.14092,37.45739],[-122.14136731490622,37.457480355380056]]],[[[-122.13912517621145,37.45522786343612],[-122.1388,37.4548],[-122.13775683544304,37.45467544303798],[-122.13877,37.4548],[-122.13912517621145,37.45522786343612]]],[[[-122.1305875,37.4530925],[-122.1286,37.4519],[-122.1285834375,37.4519165625],[-122.1305875,37.4530925]]],[[[-122.12713285714285,37.45336714285714],[-122.1269,37.4536],[-122.12658733333333,37.453510666666666],[-122.12691,37.45362],[-122.12713285714285,37.45336714285714]]],[[[-122.12430918525703,37.452859767216296],[-122.1241,37.4528],[-122.12363654022236,37.4530821059516],[-122.12430918525703,37.452859767216296]]],[[[-122.12392,37.46114],[-122.1237896969697,37.46073757575758],[-122.1239,37.4611],[-122.12305948140902,37.46165582681017],[-122.12392,37.46114]]],[[[-122.12190110974862,37.454138454935624],[-122.1218,37.4542],[-122.12183595272207,37.45431813037249],[-122.12190110974862,37.454138454935624]]],[[[-122.11337851028341,37.46745896053367],[-122.1133,37.4675],[-122.11233590909093,37.46685727272728],[-122.11326432493607,37.46752740747265],[-122.11337851028341,37.46745896053367]]],[[[-122.099093626943,37.46613347150259],[-122.0966,37.4661],[-122.0968,37.4619],[-122.09675644349551,37.46194526460271],[-122.09643,37.4661],[-122.099093626943,37.46613347150259]]],[[[-122.08414723735409,37.47504894941634],[-122.0815,37.4778],[-122.08150499368553,37.47780351868233],[-122.08414723735409,37.47504894941634]]]]}},{"type":"Feature","properties":{"GEOID":"0608193170","NAME":"South San Francisco","COUNTY":"081"},"geometry":{"type":"MultiPolygon","coordinates":[[[[-122.5868,37.59],[-122.5867,37.5874],[-122.5147,37.5861],[-122.5132,37.5853],[-122.5147,37.5846],[-122.5123,37.5823],[-122.5141,37.579],[-122.5091,37.5741],[-122.4944,37.5703],[-122.4926,37.5666],[-122.4854,37.5655],[-122.4815,37.5626],[-122.4779,37.5621],[-122.4777,37.5635],[-122.4676,37.5635],[-122.4676,37.5663],[-122.4595,37.566],[-122.45949234064688,37.566359989597125],[-122.46399,37.56634],[-122.46404,37.5701],[-122.47279,37.57009],[-122.47294,37.57357],[-122.47606,37.57349],[-122.47641,37.57404],[-122.47157,37.57792],[-122.47281,37.57956],[-122.48236,37.57519],[-122.48718,37.5791],[-122.48696,37.57617],[-122.48906,37.57528],[-122.49182,37.57739],[-122.49332,37.57569],[-122.50055,37.57968],[-122.49651,37.57955],[-122.49423,37.5824],[-122.4966,37.58219],[-122.49648,37.58285],[-122.49846,37.58353],[-122.49979,37.58108],[-122.50208,37.58241],[-122.49959,37.58426],[-122.49939,37.58828],[-122.50458,37.59101],[-122.50771,37.58749],[-122.51243,37.59012],[-122.51096,37.59221],[-122.51522,37.59559],[-122.51398,37.59763],[-122.51493,37.59862],[-122.50715,37.59608],[-122.50345,37.59782],[-122.50058,37.60126],[-122.49995,37.60416],[-122.50172,37.60543],[-122.50204,37.60665],[-122.50158,37.60767],[-122.49857,37.6081],[-122.49726,37.61053],[-122.49688,37.61218],[-122.49819,37.6142],[-122.49724,37.61836],[-122.49897,37.6202],[-122.49692,37.62112],[-122.49611,37.62284],[-122.49486,37.63163],[-122.49408,37.65208],[-122.49428,37.66102],[-122.49509,37.66437],[-122.49638,37.66634],[-122.49563,37.67198],[-122.4965,37.68309],[-122.50086,37.70111],[-122.49607,37.70117],[-122.49664,37.70266],[-122.49241,37.70266],[-122.4924,37.70353],[-122.48784,37.70321],[-122.48625,37.70415],[-122.48635764095543,37.70747030947148],[-122.5752,37.7067],[-122.5675,37.6392],[-122.5796,37.6115],[-122.5868,37.59]]],[[[-122.48902,37.69594],[-122.48875,37.68966],[-122.48433,37.68965],[-122.48388,37.68686],[-122.48171,37.68675],[-122.48123,37.68603],[-122.47914,37.68674],[-122.47851,37.68604],[-122.47533,37.68606],[-122.47599,37.6902],[-122.47537,37.69181],[-122.47756,37.69251],[-122.47756,37.69323],[-122.473,37.69254],[-122.47181,37.69326],[-122.47183,37.69482],[-122.4798,37.69479],[-122.48015,37.69582],[-122.48484,37.69565],[-122.48485,37.69625],[-122.48902,37.69594]]],[[[-122.48487,37.66637],[-122.4826843962183,37.666579453695746],[-122.48312,37.66676],[-122.48487,37.66637]]],[[[-122.48221751062296,37.66638594190294],[-122.47653043547426,37.6615644935772],[-122.47679,37.66198],[-122.4816,37.66613],[-122.48221751062296,37.66638594190294]]],[[[-122.47536,37.68968],[-122.47535,37.68898],[-122.47379,37.68838],[-122.4744,37.68971],[-122.47536,37.68968]]],[[[-122.47448756455466,37.658294300989645],[-122.47168698268385,37.65361922607383],[-122.47168,37.6538],[-122.47448756455466,37.658294300989645]]],[[[-122.47263,37.63179],[-122.46278,37.61934],[-122.45095,37.61754],[-122.45144,37.61713],[-122.4511627184466,37.61682621359223],[-122.4514,37.6171],[-122.44978987607573,37.618488037865745],[-122.4513,37.61791],[-122.45501,37.62078],[-122.45373,37.6224],[-122.45619,37.62537],[-122.45574,37.62781],[-122.45773,37.62694],[-122.46,37.62932],[-122.46148,37.62948],[-122.46634,37.62897],[-122.46741,37.6272],[-122.46886,37.62723],[-122.47263,37.63179]]],[[[-122.47225,37.68902],[-122.47123,37.68902],[-122.47124,37.68971],[-122.47219,37.6897],[-122.47225,37.68902]]],[[[-122.47186,37.64914],[-122.46851,37.64366],[-122.47173,37.64916],[-122.46858,37.65048],[-122.47186,37.64914]]],[[[-122.47171,37.63518],[-122.46878,37.63852],[-122.46969,37.63779],[-122.47171,37.63518]]],[[[-122.4707,37.68247],[-122.47048,37.67831],[-122.47022659308116,37.677987126319636],[-122.4707,37.68247]]],[[[-122.4707,37.68247],[-122.46352,37.68252],[-122.46535,37.68392],[-122.46356,37.68397],[-122.46431,37.68573],[-122.45992,37.68575],[-122.45892,37.68456],[-122.45522,37.68884],[-122.45869,37.68493],[-122.45972,37.68619],[-122.4621,37.68608],[-122.46262,37.68703],[-122.46476,37.68613],[-122.46662,37.68893],[-122.46898,37.68706],[-122.46866,37.68458],[-122.46645,37.68252],[-122.4707,37.68247]]],[[[-122.46307,37.58459],[-122.45979955365577,37.58447143396939],[-122.4598,37.5845],[-122.46305188497193,37.584598541968845],[-122.46307,37.58459]]],[[[-122.46181,37.6657],[-122.46008284650853,37.6667478201754],[-122.46013499314019,37.666797418287466],[-122.46181,37.6657]]],[[[-122.46135,37.5737],[-122.45956,37.5737],[-122.45949072436501,37.56643595484478],[-122.4594,37.5707],[-122.4509,37.5705],[-122.451,37.578],[-122.45965278188942,37.5780994572631],[-122.45964,37.57734],[-122.46134,37.57734],[-122.46135,37.5737]]],[[[-122.4611,37.68823],[-122.45976,37.68625],[-122.45877,37.6874],[-122.4611,37.68959],[-122.4611,37.68823]]],[[[-122.4558,37.69347],[-122.44554,37.6869],[-122.44547149675051,37.68536356997569],[-122.44528,37.68548],[-122.44193,37.68412],[-122.4411,37.68338],[-122.44215,37.68296],[-122.44383,37.67831],[-122.44054,37.67587],[-122.43876,37.6776],[-122.43262,37.67488],[-122.43311,37.67164],[-122.43379,37.6704],[-122.43663,37.67149],[-122.42931,37.66772],[-122.4259,37.66706],[-122.42514,37.66765],[-122.4263,37.66875],[-122.42382,37.67213],[-122.41995,37.6717],[-122.41885,37.67333],[-122.41505,37.67293],[-122.41513,37.6718],[-122.4142,37.67095],[-122.41346,37.672],[-122.41266,37.67168],[-122.41317,37.67061],[-122.41165,37.66899],[-122.41061,37.66934],[-122.41004,37.67065],[-122.40847,37.67001],[-122.40757,37.66724],[-122.40669,37.66702],[-122.40547,37.66804],[-122.40374,37.66712],[-122.40431,37.66619],[-122.40017,37.66697],[-122.40005,37.66786],[-122.39782,37.6672],[-122.39777,37.66814],[-122.39635,37.669],[-122.39723,37.67],[-122.39601,37.67119],[-122.39468,37.6711],[-122.39425,37.67223],[-122.39292,37.67169],[-122.37072,37.67172],[-122.25231795145275,37.672427979235884],[-122.25231828206547,37.67242838038457],[-122.39192,37.67176],[-122.39105,37.6732],[-122.3966,37.67388],[-122.39658,37.67558],[-122.40799,37.67554],[-122.40808,37.6848],[-122.40954,37.68481],[-122.40954,37.68601],[-122.41319,37.68543],[-122.41649,37.68654],[-122.42005,37.6894],[-122.4264,37.69283],[-122.42616,37.69515],[-122.4247,37.69486],[-122.42473,37.69572],[-122.42065,37.69928],[-122.41342,37.69783],[-122.4245,37.70039],[-122.42721,37.70349],[-122.4284,37.70332],[-122.42924,37.70504],[-122.43191,37.70403],[-122.43697,37.70439],[-122.44097,37.7037],[-122.44071,37.70112],[-122.44173,37.70061],[-122.44237,37.7017],[-122.44686,37.70283],[-122.45112,37.70053],[-122.45158,37.69847],[-122.45317,37.69684],[-122.4522,37.696],[-122.4558,37.69347]]],[[[-122.45522,37.68884],[-122.44815,37.68505],[-122.44653,37.68472],[-122.45522,37.68884]]],[[[-122.4544469005848,37.58865614035088],[-122.4439,37.5936],[-122.4501,37.6156],[-122.45013974285715,37.61564585714286],[-122.45059,37.61569],[-122.44392,37.59362],[-122.4544469005848,37.58865614035088]]],[[[-122.45005,37.6479],[-122.44716,37.64466],[-122.44471,37.64317],[-122.44081,37.64488],[-122.43992,37.64322],[-122.43455,37.64606],[-122.43329,37.64522],[-122.43124,37.64692],[-122.43168,37.64761],[-122.4341,37.6463],[-122.43592,37.64809],[-122.43743,37.65098],[-122.43656,37.65157],[-122.43719,37.65234],[-122.4363,37.65276],[-122.43616,37.65425],[-122.43796,37.65435],[-122.44042,37.65351],[-122.44297,37.649],[-122.44714,37.64708],[-122.44856,37.64739],[-122.44915,37.64843],[-122.45005,37.6479]]],[[[-122.44659837641063,37.666240418638516],[-122.4457,37.66537],[-122.44482065897859,37.66556611202636],[-122.44659837641063,37.666240418638516]]],[[[-122.44651552325581,37.62131075581395],[-122.44571883628632,37.621997554925585],[-122.44576,37.62204],[-122.44651552325581,37.62131075581395]]],[[[-122.44439105626716,37.66566192270301],[-122.44431,37.66568],[-122.43663,37.67149],[-122.44439105626716,37.66566192270301]]],[[[-122.43670110497237,37.6126991160221],[-122.4261,37.6015],[-122.42078937936418,37.5967094916945],[-122.42364,37.59951],[-122.41984,37.60182],[-122.42473912520269,37.60592181659128],[-122.42588,37.6051],[-122.42812,37.60468],[-122.43034,37.60614],[-122.43670110497237,37.6126991160221]]],[[[-122.43536,37.64091],[-122.43483,37.6402],[-122.43417,37.63953],[-122.43417,37.64051],[-122.43343,37.64086],[-122.4329,37.64013],[-122.42657,37.6431],[-122.42863,37.64401],[-122.42977,37.64552],[-122.43256,37.6442],[-122.43253,37.64325],[-122.43437,37.64335],[-122.43381,37.64241],[-122.43416,37.64111],[-122.43536,37.64091]]],[[[-122.42444727272728,37.70818727272727],[-122.42386,37.7082],[-122.42355894736842,37.7088252631579],[-122.4239,37.7082],[-122.42444727272728,37.70818727272727]]],[[[-122.4234424115577,37.60685588997963],[-122.42056,37.60833],[-122.42065584892936,37.60886315966953],[-122.4234424115577,37.60685588997963]]],[[[-122.42331478194338,37.70927289977047],[-122.42049106382979,37.708477872340424],[-122.4233,37.7093],[-122.42331478194338,37.70927289977047]]],[[[-122.41131,37.63554],[-122.40550571263036,37.635402271147164],[-122.40565,37.63554],[-122.41131,37.63554]]],[[[-122.40738554832443,37.584618406993684],[-122.40729009118542,37.58453229874973],[-122.40723,37.58458],[-122.40738554832443,37.584618406993684]]],[[[-122.40699155254592,37.584262998430596],[-122.4067,37.584],[-122.3992,37.5726],[-122.3939,37.5675],[-122.3908,37.5662],[-122.39254434132395,37.56865499890037],[-122.39314,37.56827],[-122.39807,37.5735],[-122.39709,37.57418],[-122.39941,37.57756],[-122.40362,37.58161],[-122.40607,37.58404],[-122.40695,37.58432],[-122.40699155254592,37.584262998430596]]],[[[-122.40539650822404,37.635298030577495],[-122.40351,37.62104],[-122.40497,37.61936],[-122.4,37.61269],[-122.40009438072717,37.61259019509311],[-122.39937,37.61193],[-122.39788,37.61271],[-122.39179,37.6098],[-122.38851,37.60622],[-122.38729,37.6069],[-122.38353,37.60448],[-122.37886,37.60724],[-122.37356884262985,37.60506030938525],[-122.36978,37.60753],[-122.35168,37.60753],[-122.35168,37.60174],[-122.33368,37.60163],[-122.28840672017758,37.60212849460276],[-122.2884,37.60642],[-122.19793,37.60643],[-122.19790575675675,37.6064],[-122.1979,37.6064],[-122.22058103869179,37.63392002072497],[-122.29441,37.63395],[-122.40304,37.63554],[-122.40499,37.63491],[-122.40539650822404,37.635298030577495]]],[[[-122.40174,37.61085],[-122.40048,37.6115],[-122.40079149003148,37.611853022035675],[-122.40174,37.61085]]],[[[-122.39576,37.57259],[-122.39348068608784,37.5700787791491],[-122.3913378343949,37.57127764331211],[-122.3913,37.5713],[-122.3912994656992,37.57129910949868],[-122.39128,37.57131],[-122.39128,37.571266666666666],[-122.3898127065527,37.56882117758784],[-122.3879,37.56913],[-122.38742,37.57033],[-122.38671480769231,37.57054856837607],[-122.3859170110701,37.57152365313653],[-122.38605,37.57195],[-122.38659,37.57305],[-122.38748,37.57294],[-122.38581,37.57448],[-122.38839,37.57362],[-122.38738,37.57553],[-122.3843,37.57735],[-122.38277,37.57753],[-122.38276,37.5765],[-122.3813,37.57753],[-122.3824,37.57781],[-122.38148,37.57871],[-122.38018,37.57886],[-122.38141,37.57955],[-122.38182,37.57877],[-122.38386,37.57886],[-122.38431,37.57985],[-122.38282,37.58034],[-122.3849,37.58156],[-122.38636,37.58004],[-122.38526,37.5818],[-122.38677,37.58264],[-122.38875,37.58081],[-122.38772,37.57965],[-122.39216,37.57691],[-122.3935,37.57362],[-122.39576,37.57259]]],[[[-122.38328491549976,37.57463853693868],[-122.38225423728814,37.57462881355932],[-122.38326,37.57476],[-122.38328491549976,37.57463853693868]]],[[[-122.3813397371921,37.57462018619992],[-122.38132,37.57462],[-122.38018086956522,37.57606347826087],[-122.38012642201836,37.57613467889906],[-122.3813397371921,37.57462018619992]]],[[[-122.35196570729872,37.570004446952595],[-122.35193491201085,37.56994411332738],[-122.35191342590863,37.56995334839939],[-122.35196570729872,37.570004446952595]]]]}}]}