{"type":"FeatureCollection","features":[{"type":"Feature","properties":{"GEOID":"0608391708","NAME":"Lompoc","COUNTY":"083"},"geometry":{"type":"Polygon","coordinates":[[[-120.7343,34.9007],[-120.7307,34.8864],[-120.7241,34.8737],[-120.7203,34.8692],[-120.713,34.8629],[-120.7049,34.8581],[-120.6956,34.8546],[-120.6841,34.8445],[-120.6733,34.8386],[-120.6844,34.8037],[-120.6929,34.7827],[-120.6998,34.7709],[-120.7022,34.7602],[-120.7021,34.7483],[-120.6983,34.7378],[-120.6932,34.73],[-120.6847,34.7211],[-120.6773,34.7097],[-120.6658,34.6994],[-120.6647,34.6963],[-120.6865,34.645],[-120.7013,34.63],[-120.7053,34.6214],[-120.7084,34.6099],[-120.7071,34.5975],[-120.7121,34.5842],[-120.7133,34.575],[-120.7128,34.5683],[-120.7065,34.5519],[-120.6988,34.5431],[-120.695,34.5406],[-120.6907,34.5336],[-120.6845,34.5271],[-120.6561,34.5086],[-120.6424,34.5038],[-120.6095,34.5019],[-120.5943,34.5041],[-120.5815,34.4966],[-120.5594,34.4885],[-120.5583,34.4826],[-120.5531,34.471],[-120.5446,34.4602],[-120.5357,34.4527],[-120.5356,34.4395],[-120.5329,34.4332],[-120.5236,34.4195],[-120.501,34.4031],[-120.4881,34.3983],[-120.4752,34.3967],[-120.4687,34.3939],[-120.451,34.3912],[-120.4362,34.3932],[-120.426,34.3967],[-120.4085,34.3987],[-120.3906,34.4033],[-120.3869,34.4057],[-120.3673,34.4085],[-120.3489,34.4073],[-120.34,34.4094],[-120.3245,34.4097],[-120.2871,34.4176],[-120.2802,34.4163],[-120.2255,34.419],[-120.2255,34.4706],[-120.2195,34.4708],[-120.2187,34.4734],[-120.2245,34.4736],[-120.2273,34.4755],[-120.2304,34.4829],[-120.2262,34.4881],[-120.226,34.4917],[-120.2302,34.4952],[-120.2308,34.4982],[-120.2266,34.5034],[-120.2254,34.5098],[-120.2169,34.5182],[-120.2099,34.5233],[-120.2004,34.5248],[-120.1967,34.5286],[-120.1968,34.54],[-120.1917,34.5494],[-120.1921,34.5577],[-120.1897,34.5633],[-120.1899,34.567],[-120.1933,34.5728],[-120.1938,34.5766],[-120.1938,34.5825],[-120.1911,34.5882],[-120.1943,34.5938],[-120.191,34.6066],[-120.19352343283582,34.60637059701492],[-120.19348,34.60611],[-120.19484,34.60616],[-120.19508515453117,34.60622862231535],[-120.1976,34.606],[-120.2056,34.6079],[-120.212,34.6135],[-120.2138,34.6176],[-120.2157,34.6184],[-120.2193,34.6174],[-120.2225,34.6184],[-120.2388,34.6147],[-120.2464,34.615],[-120.2511,34.6062],[-120.2471,34.5994],[-120.2508,34.5961],[-120.2726,34.6006],[-120.2826,34.6096],[-120.2908,34.6074],[-120.2923,34.6082],[-120.2921,34.6094],[-120.2887,34.61],[-120.2851,34.617],[-120.289,34.6324],[-120.2858,34.637],[-120.2855,34.6422],[-120.2888,34.6566],[-120.2887,34.6655],[-120.2871,34.6706],[-120.2882,34.6739],[-120.2877,34.69],[-120.2856,34.7007],[-120.2816,34.7051],[-120.284,34.7051],[-120.2853,34.7071],[-120.2823,34.7099],[-120.2826,34.7085],[-120.2815,34.7107],[-120.2802,34.7101],[-120.2766,34.7124],[-120.2763,34.7173],[-120.274,34.7151],[-120.2734,34.7172],[-120.2809,34.7247],[-120.279,34.7372],[-120.2798,34.7404],[-120.2833,34.7413],[-120.2831,34.7443],[-120.3138,34.7493],[-120.3187,34.7522],[-120.3381,34.7565],[-120.3654,34.7546],[-120.3921,34.7588],[-120.4056,34.7592],[-120.4261,34.7675],[-120.4287,34.7727],[-120.4328,34.7672],[-120.4405,34.7637],[-120.4525,34.7608],[-120.4552,34.7613],[-120.4551,34.7721],[-120.4398,34.7745],[-120.4444,34.8032],[-120.4483,34.8115],[-120.4725,34.8118],[-120.4722,34.8306],[-120.5246,34.8315],[-120.5245,34.8377],[-120.5324,34.8362],[-120.5459,34.8288],[-120.5513,34.8276],[-120.55,34.829],[-120.5611,34.848],[-120.5936,34.8898],[-120.5978,34.8934],[-120.6068,34.8962],[-120.6081,34.8983],[-120.6158,34.8991],[-120.6212,34.9027],[-120.6257,34.9017],[-120.6345,34.9026],[-120.6453,34.907],[-120.6453,34.9001],[-120.642,34.9006],[-120.6421,34.8978],[-120.6392,34.8937],[-120.64,34.8895],[-120.6423,34.891],[-120.6425,34.8938],[-120.6452,34.8985],[-120.6493,34.9012],[-120.6525,34.8997],[-120.6577,34.901],[-120.6642,34.9003],[-120.6668,34.8972],[-120.668,34.8979],[-120.6668,34.9003],[-120.6721,34.9021],[-120.7343,34.9007]],[[-120.51905,34.67954],[-120.51886,34.69193],[-120.50374,34.69178],[-120.50376,34.68904],[-120.44902,34.68869],[-120.45455,34.68016],[-120.45337,34.67962],[-120.45339,34.67752],[-120.45145,34.67729],[-120.45098,34.67457],[-120.45457,34.67251],[-120.45738,34.67311],[-120.45766,34.66995],[-120.45394,34.66992],[-120.45395,34.66923],[-120.45312,34.66923],[-120.45318,34.66395],[-120.4488,34.66384],[-120.44848,34.66534],[-120.44658,34.66599],[-120.44445,34.66063],[-120.44326,34.66064],[-120.44087,34.65701],[-120.44007,34.657],[-120.43326,34.64292],[-120.43229,34.63424],[-120.43379,34.63558],[-120.43536,34.63502],[-120.44025,34.63277],[-120.44027,34.63066],[-120.44122,34.63067],[-120.44123,34.6295],[-120.44464,34.62878],[-120.44563,34.6289],[-120.44501,34.6307],[-120.45154,34.63099],[-120.44944,34.62828],[-120.44994,34.62811],[-120.45422,34.62854],[-120.45698,34.63103],[-120.46685,34.63103],[-120.46688,34.62824],[-120.46791,34.62825],[-120.4679,34.62941],[-120.46694,34.6294],[-120.46692,34.63101],[-120.47994,34.63067],[-120.48022,34.62081],[-120.48782,34.62247],[-120.48724,34.6252],[-120.48526,34.62545],[-120.48444,34.62942],[-120.48222,34.62955],[-120.48217,34.63054],[-120.48443,34.63056],[-120.48438,34.63434],[-120.47556,34.63429],[-120.47552,34.63897],[-120.4799,34.639],[-120.47991,34.64082],[-120.4798,34.6484],[-120.47552,34.64832],[-120.4755,34.65005],[-120.47976,34.65012],[-120.47972,34.65362],[-120.48413,34.65369],[-120.484,34.6611],[-120.48564,34.66116],[-120.48561,34.66366],[-120.48471,34.66365],[-120.48835,34.66543],[-120.48909,34.66771],[-120.49009,34.66836],[-120.49267,34.66842],[-120.49306,34.67174],[-120.49841,34.669],[-120.50498,34.66864],[-120.50675,34.67105],[-120.50719,34.67352],[-120.51147,34.67514],[-120.51693,34.6759],[-120.51898,34.67735],[-120.51905,34.67954]],[[-120.49713,34.58691],[-120.49659,34.58708],[-120.49635,34.58844],[-120.49327,34.58804],[-120.49438,34.58683],[-120.49443,34.5853],[-120.49713,34.58691]],[[-120.46581,34.61635],[-120.46542,34.61718],[-120.46472,34.61676],[-120.46503,34.6161],[-120.46581,34.61635]],[[-120.44429,34.66673],[-120.44428,34.66788],[-120.44294,34.66787],[-120.44264,34.66712],[-120.44429,34.66673]]]}},{"type":"Feature","properties":{"GEOID":"0608393065","NAME":"Solvang-Santa Ynez","COUNTY":"083"},"geometry":{"type":"Polygon","coordinates":[[[-120.2951,34.7553],[-120.2886,34.7467],[-120.2831,34.7443],[-120.2833,34.7413],[-120.2798,34.7404],[-120.279,34.7371],[-120.2809,34.7247],[-120.2734,34.7172],[-120.274,34.7151],[-120.2763,34.7173],[-120.2766,34.7124],[-120.2802,34.7101],[-120.2815,34.7107],[-120.2826,34.7085],[-120.2823,34.7099],[-120.2853,34.7071],[-120.284,34.7051],[-120.2816,34.7051],[-120.2856,34.7007],[-120.2877,34.69],[-120.2882,34.6739],[-120.2871,34.6706],[-120.2887,34.6655],[-120.2888,34.6566],[-120.2855,34.6422],[-120.2858,34.637],[-120.289,34.6324],[-120.2851,34.617],[-120.2887,34.61],[-120.2921,34.6094],[-120.2923,34.6082],[-120.2908,34.6074],[-120.2826,34.6096],[-120.2726,34.6006],[-120.2508,34.5961],[-120.2471,34.5994],[-120.2511,34.6062],[-120.2464,34.615],[-120.2388,34.6147],[-120.2225,34.6184],[-120.2193,34.6174],[-120.2157,34.6184],[-120.2138,34.6176],[-120.212,34.6135],[-120.2056,34.6079],[-120.1976,34.606],[-120.19508515453117,34.60622862231535],[-120.2042,34.60878],[-120.2104,34.61717],[-120.20659,34.62419],[-120.19354,34.61939],[-120.19254,34.62189],[-120.19137,34.62125],[-120.19098,34.62174],[-120.18964,34.62903],[-120.18864,34.62905],[-120.18833,34.62834],[-120.18271,34.62662],[-120.1843,34.62537],[-120.18398,34.62331],[-120.18627,34.62196],[-120.18648,34.6207],[-120.18554,34.62065],[-120.18778,34.61587],[-120.18304,34.61362],[-120.17639,34.61213],[-120.18014,34.60657],[-120.18535,34.60727],[-120.19106,34.60624],[-120.19011,34.6095],[-120.1908,34.60981],[-120.19127,34.60796],[-120.19377,34.60785],[-120.19352343283582,34.60637059701492],[-120.191,34.6066],[-120.1943,34.5938],[-120.1911,34.5882],[-120.1938,34.5825],[-120.1938,34.5766],[-120.1933,34.5728],[-120.1899,34.567],[-120.1897,34.5633],[-120.1921,34.5577],[-120.1917,34.5494],[-120.1968,34.54],[-120.1967,34.5286],[-120.2004,34.5248],[-120.2099,34.5233],[-120.2166,34.5185],[-120.2254,34.5098],[-120.2263,34.5047],[-120.2182,34.5078],[-120.2122,34.5075],[-120.2052,34.5046],[-120.1981,34.505],[-120.1959,34.5065],[-120.1775,34.5099],[-120.1712,34.5137],[-120.1708,34.5126],[-120.1678,34.5138],[-120.1667,34.5131],[-120.1634,34.5153],[-120.1542,34.5171],[-120.1525,34.5192],[-120.148,34.5173],[-120.1406,34.5185],[-120.1334,34.5201],[-120.1299,34.5229],[-120.1277,34.5204],[-120.1136,34.5196],[-120.1048,34.5232],[-120.0948,34.5298],[-120.0906,34.5282],[-120.0824,34.5301],[-120.0682,34.5281],[-120.0657,34.5315],[-120.0629,34.5321],[-120.0621,34.5336],[-120.0594,34.5326],[-120.0576,34.5354],[-120.0541,34.5334],[-120.0503,34.5372],[-120.0436,34.5355],[-120.0338,34.5295],[-120.034,34.5339],[-120.027,34.5329],[-120.0232,34.5341],[-120.0206,34.5321],[-120.0159,34.5325],[-120.0066,34.5278],[-119.9935,34.5312],[-119.985,34.5294],[-119.9791,34.5248],[-119.9738,34.5263],[-119.9664,34.5259],[-119.9596,34.5229],[-119.9536,34.5262],[-119.9473,34.5269],[-119.9464,34.5277],[-119.9469,34.5306],[-119.9456,34.5309],[-119.9448,34.5276],[-119.9432,34.5269],[-119.9325,34.5274],[-119.9299,34.5261],[-119.9285,34.5234],[-119.9209,34.5253],[-119.9147,34.5204],[-119.8987,34.5208],[-119.8961,34.5178],[-119.8891,34.5153],[-119.887,34.5123],[-119.8792,34.5107],[-119.8786,34.5091],[-119.8729,34.5076],[-119.8711,34.5052],[-119.8714,34.5072],[-119.8672,34.5081],[-119.8652,34.5065],[-119.8656,34.5031],[-119.8636,34.5013],[-119.8602,34.5007],[-119.8526,34.5026],[-119.8442,34.4998],[-119.8322,34.5005],[-119.8297,34.5028],[-119.8243,34.5038],[-119.8202,34.5032],[-119.8185,34.5042],[-119.8193,34.5053],[-119.8179,34.5043],[-119.8138,34.5048],[-119.8229,34.5097],[-119.8228,34.5112],[-119.8104,34.5109],[-119.8099,34.5122],[-119.8059,34.5108],[-119.8031,34.5143],[-119.7972,34.5136],[-119.7959,34.5161],[-119.7935,34.514],[-119.7921,34.5152],[-119.794,34.5181],[-119.7879,34.5195],[-119.7801,34.5171],[-119.7719,34.5084],[-119.7689,34.5088],[-119.7676,34.506],[-119.7629,34.5074],[-119.7561,34.507],[-119.754,34.5046],[-119.7528,34.5054],[-119.7548,34.5083],[-119.754,34.5099],[-119.7517,34.5105],[-119.7523,34.5127],[-119.7495,34.5152],[-119.753,34.5158],[-119.7492,34.5196],[-119.7513,34.5187],[-119.7496,34.521],[-119.7504,34.5218],[-119.7529,34.519],[-119.7552,34.5199],[-119.7539,34.5207],[-119.7541,34.5225],[-119.7486,34.5245],[-119.7499,34.5256],[-119.7532,34.5252],[-119.7552,34.5269],[-119.751,34.5289],[-119.7546,34.5319],[-119.7547,34.5294],[-119.7573,34.5298],[-119.7583,34.5369],[-119.7625,34.5376],[-119.7614,34.5401],[-119.7649,34.54],[-119.7682,34.5426],[-119.7755,34.5447],[-119.7789,34.5481],[-119.7808,34.5474],[-119.7821,34.5439],[-119.7836,34.5433],[-119.7952,34.5471],[-119.7987,34.5429],[-119.8052,34.5449],[-119.8142,34.5436],[-119.816,34.547],[-119.819,34.5489],[-119.8267,34.544],[-119.833,34.5465],[-119.8434,34.5451],[-119.8539,34.5475],[-119.8571,34.5472],[-119.8598,34.5441],[-119.8635,34.5431],[-119.8665,34.5488],[-119.8712,34.5486],[-119.8755,34.5505],[-119.8831,34.5602],[-119.888,34.5595],[-119.8916,34.5518],[-119.894,34.5512],[-119.8985,34.5554],[-119.899,34.5621],[-119.9026,34.5683],[-119.9047,34.5698],[-119.9193,34.5675],[-119.9274,34.5694],[-119.9344,34.573],[-119.9485,34.5833],[-119.959,34.5882],[-119.9684,34.5868],[-119.9795,34.5824],[-119.9845,34.5867],[-119.9957,34.5901],[-120.0008,34.5905],[-120.0064,34.5948],[-120.0258,34.5896],[-120.032,34.5897],[-120.0286,34.5985],[-120.03,34.6001],[-120.0289,34.6044],[-120.0301,34.6075],[-120.0281,34.607],[-120.0254,34.609],[-120.0223,34.62],[-120.014,34.6201],[-120.0028,34.6232],[-119.9858,34.6233],[-119.9722,34.6297],[-119.9634,34.6401],[-119.9533,34.6467],[-119.9438,34.6637],[-119.9408,34.6656],[-119.938,34.665],[-119.9381,34.6659],[-119.935,34.666],[-119.9345,34.6684],[-119.9323,34.6681],[-119.9322,34.6697],[-119.9237,34.6716],[-119.9234,34.6737],[-119.9192,34.675],[-119.918,34.677],[-119.9191,34.6787],[-119.918,34.6829],[-119.9154,34.684],[-119.9145,34.6874],[-119.9079,34.6895],[-119.9104,34.6953],[-119.9166,34.7002],[-119.9164,34.7058],[-119.9146,34.7102],[-119.9157,34.7187],[-119.9199,34.7271],[-119.9205,34.7316],[-119.927,34.7411],[-119.9249,34.7435],[-119.9256,34.7457],[-119.9238,34.7478],[-119.9303,34.75],[-119.933,34.7531],[-119.9439,34.7539],[-119.9483,34.7553],[-119.9507,34.7578],[-119.9548,34.7586],[-119.9535,34.7625],[-119.9499,34.7638],[-119.9481,34.7655],[-119.9487,34.767],[-119.945,34.7696],[-119.9443,34.7717],[-119.9459,34.7738],[-119.9509,34.7748],[-119.9556,34.7778],[-119.9548,34.7793],[-119.9604,34.7802],[-119.9723,34.7878],[-119.9763,34.7875],[-119.9782,34.79],[-119.9818,34.7893],[-119.9807,34.7955],[-119.9821,34.799],[-119.9843,34.8009],[-119.9838,34.8021],[-119.9818,34.8021],[-119.9841,34.8049],[-119.9867,34.8029],[-119.9879,34.8033],[-119.9879,34.8046],[-119.9897,34.8041],[-119.9908,34.8012],[-119.9932,34.8001],[-119.9907,34.7983],[-119.9929,34.7964],[-119.9964,34.8004],[-120.0054,34.8025],[-120.004,34.8046],[-120.0073,34.8085],[-120.0028,34.814],[-119.9975,34.813],[-119.9997,34.8175],[-119.9983,34.8196],[-119.9993,34.8233],[-119.995,34.8231],[-119.9937,34.8255],[-119.995,34.8274],[-120.002,34.8266],[-120.0054,34.8285],[-120.0087,34.8332],[-120.0137,34.8326],[-120.0212,34.8348],[-120.0198,34.835],[-120.0221,34.8369],[-120.0241,34.8362],[-120.0255,34.8399],[-120.0314,34.8439],[-120.0368,34.8426],[-120.0443,34.8471],[-120.0505,34.8475],[-120.056,34.8454],[-120.0558,34.8486],[-120.0613,34.8505],[-120.0631,34.8534],[-120.0652,34.8505],[-120.0687,34.8501],[-120.069,34.8458],[-120.0797,34.8462],[-120.0853,34.8433],[-120.0883,34.8435],[-120.0894,34.8415],[-120.0938,34.8399],[-120.1015,34.8333],[-120.1044,34.8341],[-120.1068,34.8329],[-120.1161,34.8327],[-120.1205,34.8369],[-120.1275,34.8372],[-120.1413,34.8309],[-120.1481,34.8298],[-120.1492,34.8304],[-120.1481,34.8317],[-120.1494,34.8352],[-120.1506,34.8353],[-120.1515,34.8334],[-120.1541,34.8333],[-120.1568,34.8362],[-120.1597,34.8367],[-120.16,34.8396],[-120.1641,34.8435],[-120.1664,34.8431],[-120.1662,34.841],[-120.17,34.8386],[-120.1723,34.8344],[-120.175,34.8338],[-120.1807,34.8361],[-120.1897,34.8442],[-120.1943,34.8444],[-120.2049,34.8492],[-120.2097,34.8493],[-120.2178,34.8471],[-120.2301,34.8503],[-120.2381,34.8557],[-120.2546,34.8616],[-120.2581,34.8614],[-120.2597,34.8598],[-120.2597,34.8533],[-120.2639,34.8536],[-120.2728,34.8579],[-120.2773,34.8586],[-120.2765,34.8422],[-120.2727,34.8352],[-120.2669,34.8288],[-120.2662,34.8252],[-120.2679,34.824],[-120.2797,34.8248],[-120.2875,34.8193],[-120.2832,34.8172],[-120.2817,34.8144],[-120.2798,34.8136],[-120.2764,34.8136],[-120.2701,34.811],[-120.2654,34.8117],[-120.2641,34.81],[-120.2589,34.8095],[-120.2583,34.8071],[-120.2601,34.7992],[-120.2633,34.7967],[-120.2623,34.7959],[-120.2635,34.7943],[-120.2624,34.7932],[-120.2622,34.7789],[-120.2666,34.7719],[-120.2771,34.7649],[-120.2862,34.766],[-120.2925,34.7642],[-120.2951,34.7553]],[[-120.15484,34.58993],[-120.15479,34.59066],[-120.15425,34.59714],[-120.15152,34.60399],[-120.14674,34.60247],[-120.14598,34.60588],[-120.14124,34.60498],[-120.13912,34.60867],[-120.13561,34.60929],[-120.13528,34.61054],[-120.13383,34.61017],[-120.13425,34.60897],[-120.13282,34.60861],[-120.13207,34.61044],[-120.12878,34.61049],[-120.12847,34.60682],[-120.12494,34.60685],[-120.12185,34.60978],[-120.12185,34.60685],[-120.11992,34.60689],[-120.12163,34.60274],[-120.12619,34.59978],[-120.12664,34.59782],[-120.12772,34.59805],[-120.12779,34.5952],[-120.1336,34.59523],[-120.13492,34.59205],[-120.13392,34.59201],[-120.13407,34.58885],[-120.13507,34.58882],[-120.13532,34.58697],[-120.13901,34.58688],[-120.14134,34.58879],[-120.14206,34.58741],[-120.14322,34.58443],[-120.14141,34.58326],[-120.14148,34.58232],[-120.14056,34.58223],[-120.1407,34.58075],[-120.14579,34.57807],[-120.14359,34.57554],[-120.14184,34.57553],[-120.14182,34.57353],[-120.14302,34.57241],[-120.14069,34.57068],[-120.1416,34.56853],[-120.13936,34.56256],[-120.141,34.55897],[-120.14269,34.55917],[-120.14294,34.56343],[-120.14528,34.56632],[-120.14888,34.57691],[-120.14854,34.57856],[-120.14429,34.58492],[-120.15484,34.58993]]]}},{"type":"Feature","properties":{"GEOID":"0608390378","NAME":"Carpinteria","COUNTY":"083"},"geometry":{"type":"Polygon","coordinates":[[[-119.6125,34.4222],[-119.6123,34.3674],[-119.6021,34.3637],[-119.5903,34.3612],[-119.5848,34.3617],[-119.5745,34.3538],[-119.5558,34.345],[-119.5478,34.3444],[-119.5327,34.3388],[-119.5279,34.3388],[-119.5229,34.3359],[-119.5195,34.3361],[-119.5108,34.3309],[-119.501,34.3269],[-119.4767,34.3732],[-119.476,34.3751],[-119.4782,34.3765],[-119.4777,34.3796],[-119.473,34.3795],[-119.4727,34.3837],[-119.4684,34.3866],[-119.4687,34.3884],[-119.4648,34.389],[-119.4518,34.397],[-119.451,34.3995],[-119.449,34.4018],[-119.447,34.4019],[-119.4469,34.4038],[-119.4456,34.4043],[-119.4454,34.4089],[-119.4544,34.4183],[-119.4537,34.4195],[-119.4546,34.4216],[-119.453,34.423],[-119.4531,34.4289],[-119.4447,34.4295],[-119.4445,34.4336],[-119.4431,34.4343],[-119.4437,34.4367],[-119.4404,34.4418],[-119.4415,34.4479],[-119.4433,34.4495],[-119.4416,34.4519],[-119.4424,34.4909],[-119.461,34.4905],[-119.4702,34.4922],[-119.4759,34.489],[-119.4777,34.4903],[-119.483,34.4887],[-119.4913,34.489],[-119.4933,34.4877],[-119.5024,34.4887],[-119.508,34.4925],[-119.5093,34.4913],[-119.5079,34.4893],[-119.5092,34.4889],[-119.5111,34.4907],[-119.5131,34.4907],[-119.5122,34.4921],[-119.5146,34.4944],[-119.5185,34.4936],[-119.5166,34.4913],[-119.5169,34.4893],[-119.5279,34.4867],[-119.5341,34.4885],[-119.543,34.4865],[-119.5461,34.4886],[-119.547,34.4869],[-119.5492,34.4886],[-119.5511,34.488],[-119.5516,34.4859],[-119.5594,34.4866],[-119.566,34.4857],[-119.5652,34.4829],[-119.5665,34.4822],[-119.5638,34.4799],[-119.5655,34.4797],[-119.5673,34.477],[-119.5678,34.4806],[-119.5694,34.482],[-119.5727,34.4797],[-119.5745,34.4813],[-119.5894,34.4801],[-119.5912,34.4783],[-119.5954,34.4774],[-119.596,34.4754],[-119.6028,34.47],[-119.6016,34.4679],[-119.6044,34.4672],[-119.6017,34.4633],[-119.5994,34.4657],[-119.5965,34.4646],[-119.5941,34.4694],[-119.5964,34.4711],[-119.5929,34.4715],[-119.5928,34.4734],[-119.5866,34.4701],[-119.5891,34.4692],[-119.5897,34.4669],[-119.5888,34.4638],[-119.5867,34.4628],[-119.5876,34.4612],[-119.5852,34.4596],[-119.5838,34.4604],[-119.5831,34.4586],[-119.5757,34.453],[-119.5773,34.451],[-119.5783,34.4433],[-119.5768,34.4362],[-119.5842,34.4363],[-119.5849,34.4345],[-119.5983,34.4324],[-119.6043,34.4295],[-119.6086,34.4239],[-119.6109,34.4239],[-119.6125,34.4222]],[[-119.54422,34.36313],[-119.52748,34.39927],[-119.5262,34.3996],[-119.53778,34.40502],[-119.5427,34.40561],[-119.54269,34.41141],[-119.54095,34.4114],[-119.54094,34.41042],[-119.53891,34.41045],[-119.53912,34.40933],[-119.53607,34.40816],[-119.53693,34.40682],[-119.53462,34.40598],[-119.53362,34.4069],[-119.52994,34.40518],[-119.52899,34.40734],[-119.52734,34.40738],[-119.52651,34.40959],[-119.51776,34.40693],[-119.51715,34.40929],[-119.51922,34.40995],[-119.51946,34.41111],[-119.51807,34.41361],[-119.51426,34.41259],[-119.51555,34.40999],[-119.51452,34.4097],[-119.515,34.40862],[-119.51338,34.40877],[-119.51372,34.40764],[-119.50995,34.40692],[-119.5098,34.40568],[-119.50546,34.40526],[-119.50866,34.39825],[-119.50677,34.39566],[-119.5029,34.39713],[-119.50324,34.39038],[-119.50048,34.38954],[-119.50024,34.39128],[-119.49674,34.39143],[-119.49673,34.39238],[-119.49502,34.39239],[-119.495,34.39127],[-119.49079,34.39095],[-119.48531,34.38884],[-119.48451,34.39057],[-119.48194,34.38997],[-119.48204,34.38471],[-119.48009,34.38487],[-119.48018,34.3842],[-119.48305,34.38406],[-119.48229,34.38286],[-119.48354,34.38146],[-119.48928,34.38316],[-119.48966,34.38231],[-119.48939,34.34929],[-119.49678,34.34983],[-119.50498,34.35184],[-119.52223,34.35415],[-119.53356,34.35757],[-119.54422,34.36313]]]}},{"type":"Feature","properties":{"GEOID":"0608390630","NAME":"Cuyama","COUNTY":"083"},"geometry":{"type":"Polygon","coordinates":[[[-120.258,34.8614],[-120.2477,34.8594],[-120.2381,34.8557],[-120.2301,34.8503],[-120.2178,34.8471],[-120.2097,34.8493],[-120.2049,34.8492],[-120.1943,34.8444],[-120.1897,34.8442],[-120.1771,34.8341],[-120.1731,34.8338],[-120.17,34.8386],[-120.1662,34.841],[-120.1664,34.8431],[-120.1641,34.8435],[-120.16,34.8396],[-120.1597,34.8367],[-120.1568,34.8362],[-120.1541,34.8333],[-120.1515,34.8334],[-120.1506,34.8353],[-120.1494,34.8352],[-120.1481,34.8317],[-120.1492,34.8304],[-120.1481,34.8298],[-120.1413,34.8309],[-120.1275,34.8372],[-120.1205,34.8369],[-120.1161,34.8327],[-120.1068,34.8329],[-120.1044,34.8341],[-120.1015,34.8333],[-120.0938,34.8399],[-120.0894,34.8415],[-120.0883,34.8435],[-120.0853,34.8433],[-120.0797,34.8462],[-120.069,34.8458],[-120.0687,34.8501],[-120.0652,34.8505],[-120.0633,34.8534],[-120.0613,34.8505],[-120.0558,34.8486],[-120.056,34.8454],[-120.0505,34.8475],[-120.0443,34.8471],[-120.0368,34.8426],[-120.0313,34.8439],[-120.0255,34.8399],[-120.0241,34.8362],[-120.0221,34.8369],[-120.0198,34.835],[-120.0212,34.8348],[-120.0137,34.8326],[-120.0087,34.8332],[-120.0054,34.8285],[-120.002,34.8266],[-119.9945,34.8271],[-119.9937,34.8254],[-119.995,34.8231],[-119.9993,34.8233],[-119.9983,34.8196],[-119.9997,34.8175],[-119.9975,34.813],[-120.0028,34.814],[-120.0073,34.8085],[-120.004,34.8046],[-120.0054,34.8025],[-119.9964,34.8004],[-119.9929,34.7964],[-119.9907,34.7983],[-119.9932,34.8001],[-119.9908,34.8012],[-119.9897,34.8041],[-119.9879,34.8046],[-119.9879,34.8033],[-119.9867,34.8029],[-119.9841,34.8049],[-119.9818,34.8021],[-119.9838,34.8021],[-119.9843,34.8009],[-119.9821,34.799],[-119.9807,34.7955],[-119.9818,34.7893],[-119.9782,34.79],[-119.9763,34.7875],[-119.9723,34.7878],[-119.9604,34.7802],[-119.9548,34.7793],[-119.9555,34.7777],[-119.9509,34.7748],[-119.9463,34.7742],[-119.9443,34.7717],[-119.945,34.7695],[-119.9488,34.767],[-119.9485,34.7649],[-119.9535,34.7625],[-119.9548,34.7585],[-119.9507,34.7578],[-119.9483,34.7553],[-119.9439,34.7539],[-119.933,34.7531],[-119.9303,34.75],[-119.9238,34.7478],[-119.9256,34.7457],[-119.9249,34.7435],[-119.927,34.7411],[-119.9205,34.7316],[-119.9199,34.7271],[-119.9157,34.7187],[-119.9146,34.7102],[-119.9164,34.7058],[-119.9166,34.7002],[-119.9103,34.6951],[-119.9079,34.6894],[-119.9145,34.6874],[-119.9154,34.684],[-119.918,34.6829],[-119.9191,34.6787],[-119.918,34.677],[-119.9192,34.675],[-119.9234,34.6737],[-119.9237,34.6716],[-119.9322,34.6697],[-119.9323,34.6681],[-119.9345,34.6684],[-119.935,34.666],[-119.9381,34.6659],[-119.938,34.665],[-119.9408,34.6656],[-119.9438,34.6637],[-119.9533,34.6467],[-119.9634,34.6401],[-119.9722,34.6297],[-119.9858,34.6233],[-120.0028,34.6232],[-120.014,34.6201],[-120.0223,34.62],[-120.0254,34.609],[-120.0281,34.607],[-120.0301,34.6075],[-120.0289,34.6044],[-120.03,34.6001],[-120.0286,34.5985],[-120.032,34.5897],[-120.0306,34.589],[-120.0064,34.5948],[-120.0008,34.5905],[-119.9957,34.5901],[-119.9845,34.5867],[-119.9795,34.5824],[-119.9684,34.5868],[-119.959,34.5882],[-119.9485,34.5833],[-119.9344,34.573],[-119.9274,34.5694],[-119.9193,34.5675],[-119.9047,34.5698],[-119.9026,34.5683],[-119.899,34.5621],[-119.8985,34.5554],[-119.894,34.5512],[-119.8916,34.5518],[-119.888,34.5595],[-119.8831,34.5602],[-119.8755,34.5505],[-119.8712,34.5486],[-119.8665,34.5488],[-119.8635,34.5431],[-119.8598,34.5441],[-119.8571,34.5472],[-119.8539,34.5475],[-119.8434,34.5451],[-119.833,34.5465],[-119.8267,34.544],[-119.819,34.5489],[-119.816,34.547],[-119.8142,34.5436],[-119.8052,34.5449],[-119.7987,34.5429],[-119.7952,34.5471],[-119.7836,34.5433],[-119.7821,34.5439],[-119.7808,34.5474],[-119.7789,34.5481],[-119.7755,34.5447],[-119.7682,34.5426],[-119.7649,34.54],[-119.7614,34.5401],[-119.7625,34.5376],[-119.7583,34.5369],[-119.7573,34.5298],[-119.7547,34.5294],[-119.7546,34.5319],[-119.751,34.5289],[-119.7552,34.5269],[-119.7532,34.5252],[-119.7499,34.5256],[-119.7486,34.5245],[-119.7541,34.5225],[-119.7539,34.5207],[-119.7552,34.5199],[-119.7529,34.519],[-119.7504,34.5218],[-119.7496,34.521],[-119.7513,34.5187],[-119.7492,34.5196],[-119.753,34.5158],[-119.7495,34.5152],[-119.7523,34.5127],[-119.7517,34.5105],[-119.754,34.5099],[-119.7548,34.5083],[-119.7528,34.5054],[-119.7452,34.5048],[-119.7421,34.5065],[-119.7411,34.5054],[-119.7335,34.5053],[-119.7329,34.5007],[-119.7227,34.5016],[-119.7194,34.5004],[-119.714,34.4954],[-119.7079,34.4954],[-119.7014,34.4933],[-119.7005,34.4941],[-119.7013,34.4956],[-119.6993,34.4963],[-119.6874,34.4907],[-119.6852,34.4922],[-119.6816,34.4912],[-119.68,34.4925],[-119.6707,34.4885],[-119.6646,34.4901],[-119.6547,34.4884],[-119.6505,34.4891],[-119.6485,34.4874],[-119.6444,34.4879],[-119.6412,34.4858],[-119.6392,34.4862],[-119.6389,34.4843],[-119.6341,34.4832],[-119.6286,34.4852],[-119.6216,34.4821],[-119.6186,34.4821],[-119.6143,34.4788],[-119.6099,34.4778],[-119.6041,34.4793],[-119.601,34.4776],[-119.6016,34.4761],[-119.5979,34.4753],[-119.5893,34.4801],[-119.5854,34.4797],[-119.5815,34.4813],[-119.5745,34.4813],[-119.5727,34.4797],[-119.5693,34.482],[-119.5678,34.4806],[-119.5672,34.477],[-119.5655,34.4797],[-119.5638,34.4799],[-119.5665,34.4822],[-119.5652,34.4829],[-119.566,34.4857],[-119.5594,34.4866],[-119.5516,34.4859],[-119.5511,34.488],[-119.5492,34.4886],[-119.547,34.4869],[-119.5461,34.4886],[-119.543,34.4865],[-119.5341,34.4885],[-119.5279,34.4867],[-119.5169,34.4893],[-119.5166,34.4913],[-119.5185,34.4936],[-119.5146,34.4944],[-119.5122,34.4921],[-119.5131,34.4907],[-119.5111,34.4907],[-119.5092,34.4889],[-119.5079,34.4893],[-119.5093,34.4913],[-119.508,34.4925],[-119.5024,34.4887],[-119.4933,34.4877],[-119.4913,34.489],[-119.483,34.4887],[-119.4777,34.4903],[-119.4759,34.489],[-119.4702,34.4922],[-119.461,34.4905],[-119.4424,34.4909],[-119.4437,34.9012],[-119.4904,34.9012],[-119.4905,34.8975],[-119.5358,34.8976],[-119.563,34.9148],[-119.5799,34.9228],[-119.5861,34.9273],[-119.5925,34.9351],[-119.6131,34.9495],[-119.6169,34.9506],[-119.6248,34.9492],[-119.6349,34.9539],[-119.6443,34.9536],[-119.6467,34.9569],[-119.6525,34.9599],[-119.6553,34.9638],[-119.6643,34.9699],[-119.6732,34.9735],[-119.6786,34.9718],[-119.6846,34.9721],[-119.6932,34.9737],[-119.7006,34.9767],[-119.7085,34.9755],[-119.7186,34.9715],[-119.7247,34.9736],[-119.727,34.9761],[-119.7293,34.9746],[-119.7401,34.9731],[-119.7456,34.9737],[-119.755,34.98],[-119.7639,34.9821],[-119.7804,34.9907],[-119.7872,34.9882],[-119.7973,34.9923],[-119.8004,34.9953],[-119.801,34.9989],[-119.8039,34.9976],[-119.8099,35.0021],[-119.8111,35.0007],[-119.8132,35.0007],[-119.8244,35.005],[-119.8308,35.0058],[-119.8412,35.015],[-119.8442,35.0155],[-119.848,35.0254],[-119.8515,35.0276],[-119.8515,35.0307],[-119.8545,35.0321],[-119.8633,35.0314],[-119.866,35.0351],[-119.8751,35.0357],[-119.8783,35.0397],[-119.883,35.0393],[-119.8897,35.0406],[-119.902,35.0358],[-119.9019,35.039],[-119.9071,35.0379],[-119.9069,35.0392],[-119.9103,35.0396],[-119.9083,35.0436],[-119.9121,35.0447],[-119.9094,35.046],[-119.9173,35.049],[-119.9184,35.0531],[-119.9218,35.0525],[-119.9262,35.0562],[-119.926,35.0583],[-119.9284,35.0598],[-119.9316,35.0563],[-119.939,35.055],[-119.9379,35.0571],[-119.9399,35.058],[-119.9427,35.0544],[-119.9451,35.0546],[-119.9456,35.0561],[-119.9492,35.0559],[-119.9488,35.0572],[-119.9522,35.0573],[-119.9543,35.0546],[-119.9559,35.0549],[-119.9558,35.0572],[-119.9607,35.0557],[-119.9619,35.0583],[-119.965,35.0588],[-119.9669,35.0563],[-119.9709,35.0588],[-119.9757,35.0583],[-119.9779,35.0595],[-119.9801,35.0576],[-119.9813,35.0583],[-119.9796,35.0591],[-119.9797,35.0619],[-119.9825,35.0612],[-119.9886,35.0649],[-119.9895,35.0635],[-119.9926,35.0629],[-120.002,35.0732],[-120.0056,35.0718],[-120.0098,35.0753],[-120.0136,35.0756],[-120.014,35.0814],[-120.0183,35.0824],[-120.0233,35.0803],[-120.0249,35.081],[-120.0241,35.084],[-120.0258,35.0848],[-120.0293,35.0836],[-120.0328,35.0878],[-120.0396,35.0892],[-120.0419,35.0859],[-120.044,35.086],[-120.0485,35.0899],[-120.0599,35.093],[-120.0612,35.0954],[-120.0673,35.0968],[-120.072,35.1018],[-120.0724,35.1047],[-120.0807,35.1049],[-120.0838,35.1065],[-120.0858,35.1092],[-120.0793,35.1127],[-120.081,35.1145],[-120.0883,35.113],[-120.0932,35.1142],[-120.0957,35.1127],[-120.097,35.1096],[-120.0992,35.1098],[-120.0994,35.1126],[-120.1022,35.1134],[-120.1023,35.1084],[-120.1083,35.1089],[-120.1074,35.1047],[-120.1096,35.1035],[-120.1127,35.1035],[-120.1158,35.1067],[-120.117,35.1066],[-120.1167,35.1044],[-120.1197,35.1029],[-120.1184,35.101],[-120.1193,35.0984],[-120.1222,35.0978],[-120.1227,35.0995],[-120.1244,35.0997],[-120.1276,35.0909],[-120.1305,35.0915],[-120.13,35.0961],[-120.1322,35.0954],[-120.136,35.0979],[-120.1383,35.0942],[-120.1432,35.0957],[-120.1434,35.0936],[-120.1415,35.0911],[-120.1443,35.0905],[-120.1453,35.0882],[-120.1442,35.0868],[-120.1409,35.0868],[-120.1429,35.0822],[-120.149,35.0845],[-120.1494,35.0815],[-120.1553,35.082],[-120.1556,35.0781],[-120.1676,35.0753],[-120.1717,35.0703],[-120.1746,35.0702],[-120.1746,35.0689],[-120.1728,35.0685],[-120.1739,35.0657],[-120.1729,35.0643],[-120.1801,35.0616],[-120.1806,35.0547],[-120.1849,35.0491],[-120.1819,35.0435],[-120.1832,35.0422],[-120.1803,35.0393],[-120.1805,35.038],[-120.1864,35.0366],[-120.1882,35.0339],[-120.1884,35.0304],[-120.2031,35.0287],[-120.2048,35.0255],[-120.2103,35.0238],[-120.2096,35.0215],[-120.2079,35.0223],[-120.2058,35.0193],[-120.2067,35.0107],[-120.2056,35.0055],[-120.1988,34.994],[-120.1968,34.9927],[-120.1968,34.9913],[-120.1962,34.9924],[-120.1953,34.9918],[-120.1965,34.9884],[-120.1981,34.9878],[-120.1968,34.987],[-120.1976,34.9849],[-120.1958,34.9833],[-120.1931,34.9845],[-120.1962,34.9802],[-120.1986,34.9812],[-120.2027,34.9861],[-120.2055,34.9876],[-120.2066,34.9866],[-120.2055,34.9818],[-120.2068,34.9798],[-120.2085,34.9805],[-120.2086,34.9781],[-120.2115,34.9757],[-120.2168,34.9571],[-120.2197,34.9537],[-120.2259,34.9504],[-120.23,34.9443],[-120.2279,34.9419],[-120.2273,34.938],[-120.2217,34.9319],[-120.2201,34.9226],[-120.2266,34.9105],[-120.2283,34.8998],[-120.2328,34.8916],[-120.2333,34.8879],[-120.2415,34.8745],[-120.2448,34.8731],[-120.2487,34.8681],[-120.258,34.8614]]]}},{"type":"Feature","properties":{"GEOID":"0608392890","NAME":"Santa Barbara","COUNTY":"083"},"geometry":{"type":"MultiPolygon","coordinates":[[[[-120.5823,34.1075],[-120.5815,34.0915],[-120.5738,34.076],[-120.567,34.0686],[-120.5594,34.0624],[-120.5501,34.0573],[-120.5311,34.0517],[-120.5234,34.0511],[-120.5265,34.0415],[-120.5259,34.033],[-120.5231,34.0228],[-120.5188,34.0141],[-120.5062,34],[-120.501,33.9963],[-120.4977,33.9912],[-120.4882,33.9843],[-120.4808,33.9803],[-120.4668,33.9761],[-120.4462,33.9774],[-120.4322,33.9747],[-120.4226,33.9749],[-120.4118,33.977],[-120.3956,33.9674],[-120.3671,33.961],[-120.3469,33.9635],[-120.3323,33.9684],[-120.327,33.9667],[-120.3174,33.9664],[-120.3082,33.9664],[-120.299,33.9685],[-120.28,33.9539],[-120.2794,33.9487],[-120.2731,33.9296],[-120.2645,33.9189],[-120.251,33.9084],[-120.2387,33.9041],[-120.2296,33.8923],[-120.2211,33.8842],[-120.1995,33.875],[-120.1934,33.8685],[-120.1882,33.8664],[-120.183,33.8663],[-120.1703,33.8574],[-120.1571,33.8534],[-120.1496,33.848],[-120.1399,33.8448],[-120.1173,33.8416],[-120.1041,33.8424],[-120.0801,33.8505],[-120.0706,33.8565],[-120.0479,33.8636],[-120.0345,33.8645],[-120.0278,33.8665],[-120.0193,33.8706],[-120.0154,33.8751],[-120.0086,33.8788],[-120.001,33.8852],[-119.9808,33.8923],[-119.9724,33.8914],[-119.9627,33.8924],[-119.9503,33.8944],[-119.9392,33.8986],[-119.9288,33.9055],[-119.9189,33.9144],[-119.911,33.9239],[-119.9067,33.9324],[-119.9048,33.9397],[-119.8962,33.9357],[-119.8841,33.926],[-119.862,33.9108],[-119.8552,33.9075],[-119.8344,33.9008],[-119.8232,33.8994],[-119.8102,33.9013],[-119.7894,33.9101],[-119.7783,33.9106],[-119.7728,33.9124],[-119.7586,33.9108],[-119.7413,33.9126],[-119.7314,33.9103],[-119.7075,33.9104],[-119.6876,33.9156],[-119.6806,33.9195],[-119.6691,33.9231],[-119.6612,33.9283],[-119.6536,33.9301],[-119.6367,33.9383],[-119.626,33.936],[-119.6021,33.9368],[-119.5907,33.9396],[-119.5724,33.9411],[-119.5633,33.945],[-119.5505,33.945],[-119.5389,33.9477],[-119.5233,33.9549],[-119.5122,33.9622],[-119.501,33.9715],[-119.4923,33.9832],[-119.4681,34.0631],[-119.4773,34.0718],[-119.4888,34.0792],[-119.4975,34.0828],[-119.5121,34.0935],[-119.5384,34.1054],[-119.5483,34.1078],[-119.5655,34.1088],[-119.5741,34.1081],[-119.582,34.1057],[-119.5999,34.104],[-119.6143,34.0994],[-119.6452,34.0801],[-119.6549,34.0712],[-119.693,34.0949],[-119.7095,34.1007],[-119.726,34.1021],[-119.751,34.1126],[-119.751,34.1117],[-119.769,34.1119],[-119.7926,34.1064],[-119.8292,34.1187],[-119.8521,34.121],[-119.876,34.1262],[-119.8942,34.1258],[-119.9056,34.1294],[-119.9134,34.1301],[-119.9288,34.1299],[-119.9478,34.125],[-119.9655,34.1126],[-119.9724,34.1033],[-119.9744,34.0967],[-119.9819,34.0894],[-119.9916,34.0649],[-120.001,34.0768],[-120.001,34.0787],[-120.0102,34.084],[-120.0195,34.0877],[-120.0452,34.0906],[-120.0633,34.0897],[-120.0803,34.0864],[-120.1029,34.0745],[-120.1201,34.0789],[-120.135,34.0788],[-120.1711,34.0733],[-120.1855,34.0662],[-120.1941,34.0587],[-120.1976,34.0581],[-120.2104,34.0609],[-120.2249,34.0613],[-120.2528,34.058],[-120.2624,34.0651],[-120.2716,34.0741],[-120.2743,34.0818],[-120.2847,34.0948],[-120.2978,34.1041],[-120.3117,34.1095],[-120.3211,34.1105],[-120.3243,34.1138],[-120.3386,34.1217],[-120.3427,34.1315],[-120.3505,34.1415],[-120.3552,34.145],[-120.3687,34.151],[-120.4012,34.1587],[-120.4188,34.1606],[-120.4327,34.1575],[-120.4491,34.1506],[-120.4717,34.1341],[-120.4814,34.1422],[-120.4974,34.1499],[-120.516,34.1528],[-120.5381,34.1503],[-120.561,34.1407],[-120.5678,34.1356],[-120.5751,34.1265],[-120.5791,34.1186],[-120.5823,34.1075]]],[[[-120.2309,34.4973],[-120.2302,34.4952],[-120.226,34.4917],[-120.2262,34.4881],[-120.2304,34.4829],[-120.2273,34.4755],[-120.2245,34.4736],[-120.2187,34.4734],[-120.2195,34.4708],[-120.2255,34.4706],[-120.2255,34.419],[-120.2055,34.4221],[-120.1842,34.42],[-120.1764,34.4209],[-120.1636,34.4204],[-120.1473,34.4229],[-120.1351,34.4221],[-120.1083,34.4129],[-120.0907,34.4093],[-120.0831,34.4094],[-120.0764,34.4111],[-120.0703,34.4098],[-120.0568,34.4099],[-120.0448,34.4125],[-120.0361,34.4099],[-120.0244,34.4093],[-120.0094,34.4015],[-119.9234,34.3735],[-119.9165,34.3726],[-119.9054,34.3644],[-119.8915,34.3575],[-119.876,34.3556],[-119.8659,34.3572],[-119.8553,34.3543],[-119.8379,34.3543],[-119.8231,34.357],[-119.8058,34.3653],[-119.7971,34.3653],[-119.7855,34.3599],[-119.7636,34.3529],[-119.732,34.3397],[-119.7161,34.3361],[-119.7076,34.3373],[-119.6978,34.3409],[-119.6661,34.3545],[-119.6514,34.3667],[-119.626,34.3662],[-119.6175,34.3687],[-119.6123,34.3674],[-119.6125,34.4222],[-119.6109,34.4239],[-119.6086,34.4239],[-119.6043,34.4295],[-119.5983,34.4324],[-119.5849,34.4345],[-119.5842,34.4363],[-119.5768,34.4362],[-119.5783,34.4433],[-119.5759,34.4534],[-119.5831,34.4586],[-119.5838,34.4604],[-119.5851,34.4596],[-119.5871,34.4605],[-119.5867,34.4628],[-119.5888,34.4638],[-119.5897,34.4669],[-119.5891,34.4692],[-119.5866,34.4701],[-119.5925,34.4734],[-119.5936,34.4727],[-119.5929,34.4715],[-119.5964,34.4711],[-119.5941,34.4694],[-119.5965,34.4646],[-119.5994,34.4657],[-119.602,34.4633],[-119.6044,34.4674],[-119.6016,34.4679],[-119.6028,34.47],[-119.596,34.4756],[-119.6016,34.4761],[-119.6009,34.4775],[-119.602,34.4786],[-119.6045,34.4794],[-119.6101,34.4778],[-119.6143,34.4788],[-119.6186,34.4821],[-119.6216,34.4821],[-119.6286,34.4852],[-119.6331,34.4833],[-119.6369,34.4836],[-119.639,34.4844],[-119.6392,34.4862],[-119.6412,34.4858],[-119.6444,34.4879],[-119.6485,34.4874],[-119.6505,34.4891],[-119.6547,34.4884],[-119.6646,34.4901],[-119.6707,34.4885],[-119.6799,34.4925],[-119.6816,34.4912],[-119.685,34.4923],[-119.6873,34.4907],[-119.69,34.4912],[-119.6993,34.4963],[-119.7013,34.4956],[-119.7005,34.4941],[-119.7014,34.4933],[-119.7079,34.4954],[-119.7129,34.4952],[-119.7194,34.5004],[-119.7227,34.5016],[-119.7332,34.5008],[-119.7335,34.5053],[-119.7411,34.5054],[-119.7421,34.5065],[-119.7451,34.5048],[-119.7515,34.5059],[-119.754,34.5046],[-119.7561,34.507],[-119.763,34.5074],[-119.7676,34.506],[-119.7689,34.5088],[-119.7719,34.5084],[-119.78,34.517],[-119.7879,34.5195],[-119.794,34.5181],[-119.7921,34.5152],[-119.7935,34.514],[-119.7959,34.5161],[-119.7972,34.5136],[-119.8031,34.5143],[-119.8059,34.5108],[-119.8099,34.5122],[-119.8104,34.5109],[-119.8228,34.5112],[-119.8229,34.5097],[-119.8138,34.5048],[-119.8179,34.5043],[-119.8193,34.5053],[-119.8185,34.5042],[-119.8202,34.5032],[-119.8243,34.5038],[-119.8297,34.5028],[-119.8322,34.5005],[-119.8442,34.4998],[-119.8526,34.5026],[-119.8602,34.5007],[-119.8636,34.5013],[-119.8656,34.5031],[-119.8652,34.5065],[-119.8672,34.5081],[-119.8714,34.5072],[-119.8711,34.5052],[-119.8729,34.5076],[-119.8786,34.5091],[-119.8792,34.5107],[-119.887,34.5123],[-119.8891,34.5153],[-119.8961,34.5178],[-119.8987,34.5208],[-119.9147,34.5204],[-119.9209,34.5253],[-119.9285,34.5234],[-119.9299,34.5261],[-119.9325,34.5274],[-119.9432,34.5269],[-119.9448,34.5276],[-119.9456,34.5309],[-119.9469,34.5306],[-119.9464,34.5277],[-119.9473,34.5269],[-119.9536,34.5262],[-119.9596,34.5229],[-119.9664,34.5259],[-119.9738,34.5263],[-119.9791,34.5248],[-119.985,34.5294],[-119.9935,34.5312],[-120.0066,34.5278],[-120.0159,34.5325],[-120.0206,34.5321],[-120.0232,34.5341],[-120.027,34.5329],[-120.034,34.5339],[-120.0338,34.5295],[-120.0436,34.5355],[-120.0506,34.5372],[-120.0541,34.5334],[-120.0576,34.5354],[-120.0594,34.5326],[-120.0621,34.5336],[-120.0629,34.5321],[-120.0657,34.5315],[-120.0682,34.5281],[-120.0824,34.5301],[-120.0906,34.5282],[-120.0948,34.5298],[-120.1048,34.5232],[-120.1136,34.5196],[-120.1277,34.5204],[-120.1299,34.5229],[-120.1334,34.5201],[-120.1406,34.5185],[-120.148,34.5173],[-120.1525,34.5192],[-120.1542,34.5171],[-120.1634,34.5153],[-120.1667,34.5131],[-120.1678,34.5138],[-120.1708,34.5126],[-120.1712,34.5137],[-120.1775,34.5099],[-120.1959,34.5065],[-120.1981,34.505],[-120.2052,34.5046],[-120.2122,34.5075],[-120.2186,34.5078],[-120.2263,34.5047],[-120.2309,34.4973]],[[-119.92188,34.43587],[-119.91989,34.43555],[-119.92183,34.43689],[-119.9114,34.4331],[-119.90557,34.43271],[-119.90472,34.43518],[-119.90107,34.43719],[-119.90613,34.43866],[-119.90449,34.44123],[-119.90044,34.44129],[-119.89865,34.44215],[-119.89743,34.44211],[-119.89723,34.44139],[-119.89574,34.44341],[-119.89565,34.4426],[-119.88954,34.44276],[-119.88862,34.44371],[-119.88768,34.44172],[-119.88629,34.44485],[-119.8853,34.44485],[-119.88526,34.44186],[-119.88123,34.44099],[-119.86127,34.44223],[-119.8471,34.45083],[-119.84133,34.45117],[-119.84132,34.45218],[-119.83871,34.45231],[-119.83871,34.45505],[-119.83712,34.4539],[-119.83346,34.45366],[-119.83206,34.45426],[-119.83053,34.45369],[-119.82755,34.45553],[-119.82396,34.45436],[-119.82319,34.45851],[-119.82052,34.45877],[-119.81972,34.45597],[-119.8203,34.45491],[-119.81992,34.44914],[-119.81541,34.44868],[-119.81621,34.4436],[-119.80528,34.44196],[-119.80538,34.44045],[-119.80649,34.43933],[-119.80587,34.43725],[-119.80782,34.43351],[-119.80753,34.42951],[-119.81131,34.42952],[-119.81129,34.43059],[-119.81373,34.43065],[-119.81408,34.43501],[-119.81666,34.43515],[-119.8182,34.43392],[-119.81829,34.42938],[-119.82179,34.42954],[-119.82194,34.42339],[-119.82562,34.42248],[-119.83044292554936,34.42619648968804],[-119.83521,34.42537],[-119.83523,34.41727],[-119.83669,34.41608],[-119.83609,34.41534],[-119.8351,34.3953],[-119.74534,34.39661],[-119.74333,34.40249],[-119.7522,34.40408],[-119.75576,34.40546],[-119.7559,34.42696],[-119.75324,34.4273],[-119.75035,34.42645],[-119.75136,34.42915],[-119.75061,34.42946],[-119.74947,34.43406],[-119.75243,34.43624],[-119.75501,34.43952],[-119.75977,34.44049],[-119.75947,34.44166],[-119.76449,34.44123],[-119.76244,34.44804],[-119.7597,34.44811],[-119.75982,34.44876],[-119.75807,34.44904],[-119.75825,34.44963],[-119.76001,34.44913],[-119.76148,34.45136],[-119.75555,34.45243],[-119.75555,34.45148],[-119.7536,34.45148],[-119.75357,34.44813],[-119.75103,34.44813],[-119.7518,34.44746],[-119.74929,34.44716],[-119.74918,34.44858],[-119.75103,34.44852],[-119.75101,34.45038],[-119.74661,34.45012],[-119.74657,34.45294],[-119.74404,34.45253],[-119.74548,34.4547],[-119.74378,34.45383],[-119.74278,34.45514],[-119.74239,34.4601],[-119.74116,34.46278],[-119.73948,34.46248],[-119.74051,34.46383],[-119.73807,34.46263],[-119.7378,34.46116],[-119.7232,34.46126],[-119.72322,34.45744],[-119.72763,34.45751],[-119.72761,34.4557],[-119.72918,34.45555],[-119.72853,34.45444],[-119.72933,34.45273],[-119.72775,34.45265],[-119.72771,34.45403],[-119.72324,34.45395],[-119.72336,34.45584],[-119.71891,34.45583],[-119.71894,34.45023],[-119.72332,34.45025],[-119.72334,34.44628],[-119.7199,34.44515],[-119.72021,34.44292],[-119.719,34.43991],[-119.71835,34.44017],[-119.7188,34.44149],[-119.7172,34.4412],[-119.7172,34.44193],[-119.71533,34.44154],[-119.71345,34.44228],[-119.7132,34.44114],[-119.71391,34.44082],[-119.71211,34.44042],[-119.70909,34.44354],[-119.70848,34.4467],[-119.70407,34.44588],[-119.7041,34.45017],[-119.70134,34.45022],[-119.70128,34.45387],[-119.70399,34.45386],[-119.70407,34.45747],[-119.70315,34.45811],[-119.70183,34.45816],[-119.70189,34.45749],[-119.69688,34.45754],[-119.69691,34.45911],[-119.69404,34.46155],[-119.69225,34.4609],[-119.69311,34.46023],[-119.69199,34.45914],[-119.69217,34.45752],[-119.68462,34.45754],[-119.68477,34.45819],[-119.68312,34.4585],[-119.68219,34.4582],[-119.68277,34.45754],[-119.6753,34.45751],[-119.67523,34.45384],[-119.66983,34.45387],[-119.67008,34.45026],[-119.67211,34.45027],[-119.67211,34.44665],[-119.66846,34.44662],[-119.66735,34.45025],[-119.66366,34.45024],[-119.66762,34.44381],[-119.6687,34.44314],[-119.6704,34.44395],[-119.67309,34.44389],[-119.67324,34.4424],[-119.67541,34.44079],[-119.67531,34.43588],[-119.67315,34.43586],[-119.67316,34.43921],[-119.67103,34.43921],[-119.67102,34.43586],[-119.65296,34.43597],[-119.65304,34.42727],[-119.64866,34.42685],[-119.65086,34.42376],[-119.65077,34.42233],[-119.64241,34.42152],[-119.63995,34.42209],[-119.63992,34.42156],[-119.63995,34.42071],[-119.64146,34.41964],[-119.64432,34.41965],[-119.65311,34.42188],[-119.65914,34.42013],[-119.65886,34.37312],[-119.66526,34.36762],[-119.67765,34.35969],[-119.69673,34.3527],[-119.72612,34.35208],[-119.74412,34.35377],[-119.75801,34.35942],[-119.74562,34.39579],[-119.83604,34.39441],[-119.83675,34.41509],[-119.8386,34.41447],[-119.83861,34.41589],[-119.84934,34.41987],[-119.85244,34.42204],[-119.85139,34.42427],[-119.85979,34.42431],[-119.86507,34.42429],[-119.86501,34.41919],[-119.86981,34.41915],[-119.86983,34.42229],[-119.87354,34.42288],[-119.87355,34.42189],[-119.87639,34.42067],[-119.8788,34.42326],[-119.88214,34.42281],[-119.88273,34.42432],[-119.88323,34.42408],[-119.88493,34.42275],[-119.88482,34.41385],[-119.88787,34.41704],[-119.89148,34.41936],[-119.90134,34.42159],[-119.92186,34.43298],[-119.92188,34.43587]]],[[[-119.84059,34.43759],[-119.83166,34.43881],[-119.8371,34.43824],[-119.84059,34.43759]]],[[[-119.82902,34.42933],[-119.82875,34.42649],[-119.82875,34.42707],[-119.82902,34.42933]]],[[[-119.75115,34.41628],[-119.75071,34.41583],[-119.74695,34.41266],[-119.74681,34.4104],[-119.74233,34.41001],[-119.74238,34.41212],[-119.74362,34.41297],[-119.74165,34.41405],[-119.74308,34.41467],[-119.74337,34.41563],[-119.74639,34.41743],[-119.74907,34.41774],[-119.75115,34.41628]]],[[[-119.75106,34.44419],[-119.74665,34.44494],[-119.74664,34.44586],[-119.75104,34.44599],[-119.75106,34.44419]]],[[[-119.75104,34.44659],[-119.75052,34.44693],[-119.75098,34.44696],[-119.75104,34.44659]]],[[[-119.75013,34.41098],[-119.74736,34.41001],[-119.74852,34.41214],[-119.7486,34.41132],[-119.75013,34.41098]]],[[[-119.74697,34.40937],[-119.74582,34.40885],[-119.7466,34.40815],[-119.74533,34.40697],[-119.74223,34.40596],[-119.74161,34.40678],[-119.74501,34.40823],[-119.74612,34.40971],[-119.74697,34.40937]]],[[[-119.74642,34.4195],[-119.74267,34.41732],[-119.74053,34.41361],[-119.74012,34.41463],[-119.74122,34.41809],[-119.74288,34.41824],[-119.74191,34.41848],[-119.74225,34.41946],[-119.74042,34.42183],[-119.73811,34.42318],[-119.73586,34.42613],[-119.74189,34.42914],[-119.74382,34.42688],[-119.74283,34.42688],[-119.74377,34.42544],[-119.74292,34.42391],[-119.74495,34.42216],[-119.74506,34.42071],[-119.74642,34.4195]]],[[[-119.74552,34.44878],[-119.74431,34.44916],[-119.74537,34.44919],[-119.74552,34.44878]]],[[[-119.74372,34.43114],[-119.74081,34.42965],[-119.74173,34.43046],[-119.7407,34.4325],[-119.74164,34.43295],[-119.74187,34.43468],[-119.74291,34.43436],[-119.74372,34.43114]]],[[[-119.73889,34.42896],[-119.7337,34.4286],[-119.73365,34.43142],[-119.73889,34.43138],[-119.73889,34.42896]]],[[[-119.73732,34.42775],[-119.73676,34.42743],[-119.73435,34.42619],[-119.73372,34.42687],[-119.73732,34.42775]]],[[[-119.73234,34.45024],[-119.73233,34.4494],[-119.73057,34.44882],[-119.73019,34.45022],[-119.73234,34.45024]]],[[[-119.1189,33.5],[-119.1072,33.5],[-119.1097,33.4623],[-119.1089,33.4512],[-119.1062,33.445],[-119.1008,33.4352],[-119.0941,33.4269],[-119.0865,33.4214],[-119.0719,33.4138],[-119.0531,33.411],[-119.027,33.4129],[-119.0095,33.4168],[-119.0009,33.4213],[-119.0009,33.4185],[-118.9887,33.4234],[-118.9785,33.4311],[-118.9638,33.4668],[-118.9628,33.4852],[-118.966,33.5],[-118.971,33.5107],[-118.9821,33.5243],[-118.99,33.5303],[-119.0009,33.5359],[-119.0174,33.5392],[-119.0307,33.5401],[-119.0566,33.536],[-119.0662,33.5367],[-119.0765,33.5351],[-119.0905,33.5303],[-119.1042,33.5229],[-119.1117,33.5155],[-119.1172,33.5056],[-119.1189,33.5]]]]}},{"type":"Feature","properties":{"GEOID":"0608391200","NAME":"Guadalupe","COUNTY":"083"},"geometry":{"type":"Polygon","coordinates":[[[-120.7343,34.9007],[-120.6721,34.9021],[-120.6668,34.9003],[-120.668,34.8979],[-120.6668,34.8972],[-120.6642,34.9003],[-120.6577,34.901],[-120.6525,34.8997],[-120.6493,34.9012],[-120.6452,34.8985],[-120.6425,34.8938],[-120.6423,34.891],[-120.64,34.8895],[-120.6392,34.8937],[-120.6421,34.8978],[-120.642,34.9006],[-120.6453,34.9001],[-120.6453,34.907],[-120.6345,34.9026],[-120.6257,34.9017],[-120.6212,34.9027],[-120.6158,34.8991],[-120.6081,34.8983],[-120.6068,34.8962],[-120.5955,34.8921],[-120.5611,34.848],[-120.55,34.829],[-120.5513,34.8276],[-120.549,34.8278],[-120.5331,34.836],[-120.5277,34.8371],[-120.5253,34.8425],[-120.5223,34.8685],[-120.5118,34.8776],[-120.5039,34.8774],[-120.5003,34.8786],[-120.491,34.8884],[-120.49016313753138,34.90077360935747],[-120.49041,34.9008],[-120.49028,34.90724],[-120.4896324086774,34.90862081455563],[-120.4896,34.9091],[-120.4896,34.92083130622304],[-120.49013,34.92083],[-120.48975,34.94583],[-120.4997,34.94591],[-120.4994,34.94836],[-120.50832,34.94853],[-120.50481,34.95325],[-120.50117,34.95324],[-120.50116,34.95238],[-120.49807,34.95276],[-120.49369,34.95003],[-120.48968,34.94981],[-120.48971,34.94701],[-120.4896,34.94700061433447],[-120.4896,34.9554],[-120.5084,34.957],[-120.5139,34.9893],[-120.5386,34.9838],[-120.5439,34.9794],[-120.5471,34.9788],[-120.5549,34.9739],[-120.5655,34.9773],[-120.5752,34.9783],[-120.5823,34.9723],[-120.5855,34.9672],[-120.5955,34.9665],[-120.6022,34.9727],[-120.6131,34.9713],[-120.6163,34.9659],[-120.6289,34.9629],[-120.6341,34.9596],[-120.6491,34.9746],[-120.7028,35],[-120.7144,34.9635],[-120.7203,34.9563],[-120.7268,34.9438],[-120.7285,34.9316],[-120.7272,34.9233],[-120.7319,34.9143],[-120.7343,34.9048],[-120.7343,34.9007]],[[-120.59131,34.95768],[-120.5913,34.95893],[-120.59118,34.96261],[-120.58918,34.96325],[-120.58776,34.96251],[-120.58408,34.96267],[-120.58199,34.96164],[-120.58008,34.96286],[-120.5794,34.96469],[-120.57625,34.96601],[-120.57507,34.96773],[-120.57561,34.96991],[-120.57284,34.97324],[-120.57381,34.97366],[-120.57316,34.97487],[-120.56851,34.97343],[-120.56823,34.97418],[-120.55788,34.97337],[-120.55787,34.97252],[-120.55939,34.97324],[-120.5655,34.97314],[-120.56676,34.97065],[-120.55847,34.96693],[-120.56488,34.96691],[-120.56704,34.96783],[-120.56726,34.95746],[-120.56535,34.95747],[-120.56521,34.94697],[-120.57387,34.9471],[-120.57364,34.95752],[-120.57719,34.95749],[-120.57722,34.95536],[-120.57909,34.955],[-120.57905,34.95759],[-120.59131,34.95768]]]}},{"type":"Feature","properties":{"GEOID":"0608392908","NAME":"Santa Maria","COUNTY":"083"},"geometry":{"type":"MultiPolygon","coordinates":[[[[-120.5273,34.8377],[-120.5245,34.8377],[-120.5246,34.8315],[-120.4722,34.8306],[-120.4725,34.8118],[-120.4483,34.8115],[-120.4444,34.8032],[-120.4398,34.7745],[-120.4551,34.7721],[-120.4552,34.7613],[-120.4525,34.7608],[-120.4405,34.7637],[-120.4328,34.7672],[-120.4287,34.7727],[-120.4261,34.7675],[-120.4056,34.7592],[-120.3921,34.7588],[-120.3654,34.7546],[-120.3381,34.7565],[-120.3187,34.7522],[-120.3138,34.7493],[-120.2863,34.7451],[-120.2953,34.7552],[-120.2937,34.7625],[-120.2923,34.7644],[-120.2883,34.7658],[-120.2774,34.7648],[-120.2661,34.7725],[-120.2622,34.7789],[-120.2624,34.7932],[-120.2635,34.7943],[-120.2623,34.7959],[-120.2632,34.797],[-120.2601,34.7992],[-120.2583,34.8072],[-120.2594,34.8099],[-120.2641,34.81],[-120.2662,34.8118],[-120.2702,34.811],[-120.2764,34.8136],[-120.2814,34.8142],[-120.2832,34.8172],[-120.2875,34.8193],[-120.2797,34.8248],[-120.2679,34.824],[-120.2662,34.8252],[-120.2669,34.8288],[-120.2727,34.8352],[-120.2765,34.8422],[-120.2773,34.8586],[-120.2728,34.8579],[-120.2639,34.8536],[-120.2597,34.8533],[-120.2597,34.8598],[-120.2487,34.8681],[-120.2448,34.8731],[-120.2415,34.8745],[-120.2333,34.8879],[-120.2328,34.8916],[-120.2283,34.8998],[-120.2266,34.9105],[-120.2199,34.9232],[-120.2217,34.932],[-120.2273,34.938],[-120.2279,34.9419],[-120.23,34.9443],[-120.2259,34.9504],[-120.2197,34.9537],[-120.2168,34.9571],[-120.2115,34.9757],[-120.2086,34.9781],[-120.2085,34.9805],[-120.2068,34.9798],[-120.2055,34.9818],[-120.2066,34.9866],[-120.2055,34.9876],[-120.2027,34.9861],[-120.1986,34.9812],[-120.1962,34.9802],[-120.1931,34.9845],[-120.1958,34.9833],[-120.1976,34.9849],[-120.1968,34.987],[-120.1981,34.9878],[-120.1964,34.9885],[-120.1954,34.992],[-120.1968,34.9913],[-120.2063,35.0071],[-120.2059,35.0194],[-120.2079,35.0223],[-120.2112,35.0205],[-120.2158,35.0226],[-120.2209,35.0211],[-120.2246,35.0227],[-120.2318,35.0205],[-120.233,35.0236],[-120.2407,35.0224],[-120.2477,35.0265],[-120.25,35.0301],[-120.2527,35.0281],[-120.2548,35.021],[-120.2575,35.0176],[-120.2588,35.0177],[-120.2613,35.0214],[-120.2599,35.0259],[-120.2614,35.0266],[-120.2666,35.0213],[-120.2737,35.0208],[-120.2771,35.0176],[-120.2786,35.0116],[-120.2902,35.0154],[-120.3099,35.0092],[-120.3238,35.0173],[-120.3345,35.0063],[-120.3354,35.0035],[-120.3334,34.9948],[-120.3263,34.9857],[-120.319,34.986],[-120.316,34.984],[-120.3144,34.98],[-120.3161,34.9766],[-120.3156,34.9749],[-120.3083,34.9703],[-120.3019,34.9634],[-120.304,34.9589],[-120.3038,34.9561],[-120.3022,34.9537],[-120.2959,34.9497],[-120.2945,34.9466],[-120.2922,34.9303],[-120.2935,34.9248],[-120.3002,34.9154],[-120.2988,34.9094],[-120.2994,34.9071],[-120.3109,34.9038],[-120.3183,34.907],[-120.3245,34.9193],[-120.3244,34.9222],[-120.3359,34.9311],[-120.3402,34.9338],[-120.3459,34.9352],[-120.3548,34.9405],[-120.35555280119686,34.94120575112206],[-120.36107,34.93954],[-120.36548,34.93954],[-120.37047,34.94411],[-120.38153,34.94916],[-120.38345,34.95258],[-120.38269,34.95446],[-120.39993,34.96444],[-120.40008,34.95623],[-120.39651,34.95602],[-120.39646,34.95273],[-120.40909,34.95283],[-120.40909,34.9456],[-120.41741,34.94572],[-120.41743,34.94095],[-120.41624,34.93981],[-120.41615,34.93831],[-120.41755,34.93697],[-120.41701,34.92358],[-120.41764,34.92191],[-120.41754,34.90177],[-120.4216,34.90173],[-120.42069,34.89767],[-120.42119,34.89619],[-120.41834,34.89618],[-120.41846,34.89165],[-120.42533,34.89889],[-120.42351,34.89887],[-120.42351,34.90164],[-120.42771,34.90168],[-120.43196,34.9066],[-120.43585,34.90659],[-120.43622,34.90538],[-120.44531,34.90545],[-120.4453,34.90414],[-120.44409,34.90396],[-120.4423,34.90217],[-120.44517,34.89916],[-120.43936,34.8947],[-120.43914,34.89717],[-120.4363,34.89717],[-120.43654,34.87577],[-120.43878,34.87923],[-120.45341,34.8795],[-120.45345,34.8789],[-120.45406,34.87957],[-120.46482,34.87978],[-120.46501,34.88558],[-120.47027,34.88558],[-120.47027,34.88808],[-120.47468,34.88828],[-120.47443,34.89545],[-120.47964,34.89522],[-120.48019,34.89798],[-120.48574,34.89932],[-120.48592,34.90032],[-120.49041,34.9008],[-120.49028,34.90724],[-120.48907,34.90982],[-120.47867,34.91853],[-120.4758,34.91849],[-120.47393,34.91948],[-120.4739,34.92087],[-120.49013,34.92083],[-120.49003282442749,34.927223129770994],[-120.4906,34.8903],[-120.4918,34.8873],[-120.5003,34.8786],[-120.5039,34.8774],[-120.5118,34.8776],[-120.5223,34.8685],[-120.5253,34.8425],[-120.5273,34.8377]],[[-120.40923,34.91243],[-120.409,34.91643],[-120.40899011064711,34.91242481208147],[-120.40923,34.91243]],[[-120.40899011064711,34.91242481208147],[-120.40673714587737,34.91237608879493],[-120.40899,34.91238],[-120.40899011064711,34.91242481208147]],[[-120.40673714587737,34.91237608879493],[-120.39747,34.91236],[-120.39747,34.90998],[-120.39982,34.90998],[-120.39984,34.9115],[-120.39767,34.9115],[-120.39767,34.91218],[-120.40673714587737,34.91237608879493]]],[[[-120.5139,34.9893],[-120.5084,34.957],[-120.4896,34.9554],[-120.48968586295456,34.949810321658354],[-120.48968,34.94981],[-120.48971,34.94701],[-120.48092,34.94626],[-120.48097,34.9454],[-120.48188,34.94539],[-120.4819,34.9394],[-120.47479,34.93942],[-120.47473,34.94266],[-120.47363,34.94312],[-120.47392,34.93834],[-120.46169,34.93873],[-120.46063,34.94084],[-120.46018,34.95196],[-120.45683,34.95188],[-120.45791,34.95275],[-120.45979,34.95278],[-120.46006,34.95441],[-120.45808,34.95518],[-120.4578,34.95663],[-120.45357,34.9566],[-120.45323,34.97879],[-120.45531,34.97883],[-120.45525,34.97998],[-120.45356,34.98003],[-120.45348,34.98147],[-120.45285,34.98145],[-120.45281,34.98921],[-120.44512674445207,34.988878416838254],[-120.4962,34.9932],[-120.5139,34.9893]]],[[[-120.44455418540548,34.98882996953431],[-120.43596,34.98706],[-120.42585,34.98108],[-120.40981873733963,34.972889314652264],[-120.436,34.9871],[-120.4442,34.9888],[-120.44455418540548,34.98882996953431]]],[[[-120.36361263014939,34.947809529198736],[-120.36124,34.94647],[-120.36003773584906,34.94541037735849],[-120.3612,34.9465],[-120.36361263014939,34.947809529198736]]]]}}]}