{"type":"FeatureCollection","features":[{"type":"Feature","properties":{"GEOID":"0608592830","NAME":"San Jose","COUNTY":"085"},"geometry":{"type":"MultiPolygon","coordinates":[[[[-122.1942,37.4091],[-122.189,37.4064],[-122.1756,37.3933],[-122.16988669278867,37.391602177573986],[-122.16784,37.4002],[-122.16449,37.39873],[-122.16173,37.39631],[-122.15203,37.39432],[-122.15348,37.39796],[-122.15247,37.39816],[-122.15221,37.40015],[-122.15303,37.40194],[-122.15198,37.40516],[-122.15597,37.40632],[-122.14971,37.41392],[-122.15727,37.41803],[-122.14924,37.42769],[-122.16014,37.43723],[-122.16116,37.43734],[-122.16066,37.43769],[-122.16397,37.44069],[-122.16604,37.44148],[-122.16763,37.44363],[-122.16887,37.4425],[-122.16713,37.44128],[-122.16813,37.43967],[-122.17054,37.4409],[-122.17091,37.44003],[-122.17034,37.43983],[-122.17118,37.43941],[-122.17456,37.43204],[-122.18229,37.4345],[-122.18980189087488,37.42888835029505],[-122.1894,37.4275],[-122.1913,37.4252],[-122.1884,37.4225],[-122.1879,37.4202],[-122.1903,37.4185],[-122.1872,37.4163],[-122.1876,37.4147],[-122.1923,37.4139],[-122.1942,37.4091]]],[[[-122.1905,37.4313],[-122.19008228448276,37.42985698275862],[-122.19037794458323,37.43135802634567],[-122.1905,37.4313]]],[[[-122.18971559392266,37.43167291436464],[-122.18841,37.43206],[-122.18821022136137,37.432388583287214],[-122.18971559392266,37.43167291436464]]],[[[-122.183388,37.436638],[-122.18217,37.43948],[-122.18067857142857,37.439355102040814],[-122.1822,37.4395],[-122.183388,37.436638]]],[[[-122.18008928571429,37.43936071428571],[-122.17942,37.44003],[-122.17978385018215,37.44100354508197],[-122.1798,37.441],[-122.18008928571429,37.43936071428571]]],[[[-122.17786374193548,37.44142503225807],[-122.1757,37.44188],[-122.17567925625423,37.44192553076403],[-122.1757,37.4419],[-122.17786374193548,37.44142503225807]]],[[[-122.16911110229722,37.39137169549399],[-122.16910273139537,37.391369207914664],[-122.16725,37.39924],[-122.16911110229722,37.39137169549399]]],[[[-122.16864623003195,37.44756619808307],[-122.16763,37.4489],[-122.16762022615536,37.450737482792526],[-122.16864623003195,37.44756619808307]]],[[[-122.1676064967481,37.45077991914221],[-122.16595,37.45077],[-122.16516,37.45298],[-122.16411,37.45246],[-122.160807,37.454458],[-122.1641,37.4525],[-122.1652,37.453],[-122.166,37.4508],[-122.1676,37.4508],[-122.1676064967481,37.45077991914221]]],[[[-122.16725,37.39924],[-122.16239,37.39424],[-122.16346126673106,37.38969273492479],[-122.15462367790795,37.387066470321706],[-122.15358,37.38726],[-122.15164,37.38819],[-122.15001263819772,37.39190693287383],[-122.1502,37.39183],[-122.15131,37.39346],[-122.16196,37.39541],[-122.16725,37.39924]]],[[[-122.16043631684684,37.45467840619918],[-122.15769,37.45349],[-122.157065,37.45370052631579],[-122.1577,37.4535],[-122.1604,37.4547],[-122.16043631684684,37.45467840619918]]],[[[-122.15586285714286,37.45498],[-122.15580185756241,37.45412600587372],[-122.15579,37.45413],[-122.15586285714286,37.45498]]],[[[-122.15582151340996,37.455550785440614],[-122.15442,37.45588],[-122.1525589516129,37.45766185483871],[-122.15582151340996,37.455550785440614]]],[[[-122.15253331748548,37.457678441627046],[-122.14818604651163,37.45666465116279],[-122.1525,37.4577],[-122.15253331748548,37.457678441627046]]],[[[-122.14749426915243,37.456503327588905],[-122.14748,37.4565],[-122.14738671096346,37.4565657807309],[-122.14749426915243,37.456503327588905]]],[[[-122.14467862092391,37.458138220108694],[-122.14370990131579,37.4581134868421],[-122.1444,37.4583],[-122.14467862092391,37.458138220108694]]],[[[-122.14094575211864,37.45736641949153],[-122.1407,37.45727],[-122.1398665909091,37.45620340909091],[-122.1407,37.4573],[-122.14094575211864,37.45736641949153]]],[[[-122.1383321886958,37.38945065587755],[-122.13825,37.38918],[-122.13723118036039,37.388978158373284],[-122.1383321886958,37.38945065587755]]],[[[-122.13775683544304,37.45467544303798],[-122.1321,37.45398],[-122.13127777777778,37.45350666666667],[-122.1321,37.454],[-122.13775683544304,37.45467544303798]]],[[[-122.12965,37.39511],[-122.12757,37.3945],[-122.12962273624824,37.39528721438646],[-122.12965,37.39511]]],[[[-122.12855866209263,37.45194133790738],[-122.1284,37.45185],[-122.12706964285714,37.45343035714286],[-122.12855866209263,37.45194133790738]]],[[[-122.12837,37.39208],[-122.12829753870795,37.39204934329952],[-122.12757,37.3945],[-122.12837,37.39208]]],[[[-122.12658733333333,37.453510666666666],[-122.12449,37.4528],[-122.12430918525703,37.452859767216296],[-122.12658733333333,37.453510666666666]]],[[[-122.12651677594985,37.388295084945135],[-122.12622,37.38941],[-122.12651677594985,37.38829508494514],[-122.12651677594985,37.388295084945135]]],[[[-122.12537186500195,37.38197283763447],[-122.12535,37.3818],[-122.12323,37.38138],[-122.12537186500195,37.38197283763447]]],[[[-122.1237896969697,37.46073757575758],[-122.12183595272207,37.45431813037249],[-122.12177,37.4545],[-122.1237896969697,37.46073757575758]]],[[[-122.12363654022236,37.4530821059516],[-122.1221,37.45359],[-122.12190110974862,37.454138454935624],[-122.12363654022236,37.4530821059516]]],[[[-122.12304351472791,37.461666385421864],[-122.1135311086718,37.46737919319429],[-122.1177,37.4652],[-122.12304351472791,37.461666385421864]]],[[[-122.12085,37.36616],[-122.11858864479423,37.36628509624543],[-122.11864,37.36632],[-122.12085,37.36616]]],[[[-122.12038,37.37731],[-122.12003,37.37858],[-122.12007341865782,37.37859566369301],[-122.12038,37.37731]]],[[[-122.12011,37.37466],[-122.11962257911392,37.3742205221519],[-122.11945,37.37434],[-122.12011,37.37466]]],[[[-122.12011,37.37466],[-122.11954,37.37576],[-122.11958,37.37705],[-122.12011,37.37466]]],[[[-122.11729,37.41065],[-122.11559337412734,37.412672531407516],[-122.11564,37.4127],[-122.11729,37.41065]]],[[[-122.11680776824035,37.403727682403435],[-122.11484,37.40203],[-122.11307292069358,37.40118798607163],[-122.11680776824035,37.403727682403435]]],[[[-122.11329035736249,37.3647000526136],[-122.11144,37.36253],[-122.10769,37.36047],[-122.10243,37.35609],[-122.10757331750327,37.35286367143958],[-122.1031,37.3482],[-122.08972818580948,37.34041804256125],[-122.08970152745421,37.34050091078187],[-122.09162,37.34159],[-122.09019,37.34482],[-122.08564,37.34854],[-122.08554,37.35107],[-122.09702,37.35994],[-122.09965,37.35837],[-122.1014,37.35996],[-122.09908,37.36151],[-122.10468,37.36584],[-122.10589,37.36633],[-122.10866,37.36382],[-122.11071,37.36445],[-122.11144,37.36392],[-122.11329035736249,37.3647000526136]]],[[[-122.112415,37.46691],[-122.11155,37.46629],[-122.099093626943,37.46613347150259],[-122.1115,37.4663],[-122.112415,37.46691]]],[[[-122.09761,37.43587],[-122.0887,37.43591],[-122.0852,37.43497],[-122.07423,37.43601],[-122.06793,37.43448],[-122.06832,37.42993],[-122.06546,37.42902],[-122.06606,37.42788],[-122.05967,37.4268],[-122.05977,37.42484],[-122.05855,37.42471],[-122.06051,37.41903],[-122.06406,37.41906],[-122.06398,37.41659],[-122.06857,37.41681],[-122.06863,37.41006],[-122.06372,37.41021],[-122.0646,37.40715],[-122.05136,37.40401],[-122.05159,37.4047],[-122.05061,37.40546],[-122.04999,37.4037],[-122.04687,37.40301],[-122.03736,37.40091],[-122.03709,37.41874],[-122.03679,37.42149],[-122.03467,37.42644],[-122.04357,37.42724],[-122.04917,37.42614],[-122.05977,37.42684],[-122.05967,37.46409],[-122.05124,37.45901],[-122.05121611702128,37.45901],[-122.07588258426966,37.47431460674157],[-122.06887,37.46989],[-122.06826,37.46951],[-122.08507,37.45054],[-122.08848,37.44796],[-122.08762,37.44732],[-122.08872,37.44308],[-122.09096,37.43939],[-122.09761,37.43587]]],[[[-122.09676,37.4619],[-122.08414723735409,37.47504894941634],[-122.09675644349551,37.46194526460271],[-122.09676,37.4619]]],[[[-122.0962,37.3009],[-122.0899,37.3006],[-122.0872,37.2973],[-122.0806,37.2944],[-122.0799,37.2882],[-122.0779,37.2879],[-122.0773,37.2844],[-122.0753,37.2838],[-122.0751,37.2817],[-122.071,37.279],[-122.0718,37.2775],[-122.0709,37.2782],[-122.0696,37.2753],[-122.0678,37.2751],[-122.06783242531831,37.271954744123406],[-122.06436,37.27193],[-122.06384,37.27599],[-122.06448,37.27897],[-122.06396503244336,37.27914023720881],[-122.06855,37.27916],[-122.06847,37.29373],[-122.06687,37.2937],[-122.06686,37.29497],[-122.06766,37.29498],[-122.06845,37.29657],[-122.06841,37.30032],[-122.09231,37.30082],[-122.09199389458553,37.308011398179204],[-122.0936,37.3061],[-122.0962,37.3009]]],[[[-122.09191956765625,37.30809985336778],[-122.07758,37.30807],[-122.07759,37.30865],[-122.08736,37.30866],[-122.08752048920385,37.31333512028632],[-122.09191956765625,37.30809985336778]]],[[[-122.08582347644058,37.3153547057236],[-122.07758,37.31533],[-122.07758,37.31718],[-122.08148200459067,37.320514621270085],[-122.0815,37.3205],[-122.08582347644058,37.3153547057236]]],[[[-122.0838,37.2586],[-122.0753,37.261],[-122.0681,37.2578],[-122.0643,37.2521],[-122.05928128234646,37.25232812352971],[-122.05931,37.26102],[-122.06755,37.26219],[-122.06789866341643,37.26552964860638],[-122.0679,37.2654],[-122.0791,37.2654],[-122.0835,37.2619],[-122.0838,37.2586]]],[[[-122.08330390548147,37.33667932204249],[-122.0787,37.334],[-122.07742701846966,37.33402496042216],[-122.07936,37.33464],[-122.07884,37.33517],[-122.08239,37.33726],[-122.08246,37.33639],[-122.08321527901664,37.33681876101382],[-122.08330390548147,37.33667932204249]]],[[[-122.08046968152867,37.321337133757964],[-122.07820212270133,37.323113500317056],[-122.0783,37.3231],[-122.08046968152867,37.321337133757964]]],[[[-122.07469,37.40224],[-122.07311,37.40037],[-122.06994,37.40274],[-122.07343,37.40398],[-122.07469,37.40224]]],[[[-122.06888,37.3314],[-122.06361,37.33043],[-122.06226,37.32985],[-122.06227,37.32869],[-122.06029,37.32854],[-122.05965,37.32935],[-122.06081,37.33073],[-122.06151,37.33044],[-122.06096,37.33117],[-122.06169,37.3307],[-122.06118,37.33145],[-122.06339,37.33267],[-122.06394,37.3323],[-122.06384,37.33324],[-122.06857,37.33349],[-122.06804168504004,37.33540758763242],[-122.06818,37.33545],[-122.06851384210526,37.33419972858617],[-122.0685,37.3342],[-122.0685168776278,37.33418836025669],[-122.0688073570702,37.33310048626653],[-122.06804,37.33313],[-122.06888,37.3314]]],[[[-122.06756,37.33747],[-122.05958,37.33753],[-122.0624,37.33754],[-122.06241501875577,37.33804062519254],[-122.06756,37.33747]]],[[[-122.06519,37.34315],[-122.06493007160257,37.342728965822694],[-122.06502250094233,37.34354542499057],[-122.06519,37.34315]]],[[[-122.06497,37.34778],[-122.06289,37.35193],[-122.0647,37.34895],[-122.06497,37.34778]]],[[[-122.06416577728103,37.34556794350742],[-122.06365,37.34667],[-122.06368609668434,37.34670035403001],[-122.06416577728103,37.34556794350742]]],[[[-122.06408,37.29009],[-122.064,37.28272],[-122.05953,37.28274],[-122.0595206492752,37.27934568689688],[-122.05817,37.27912],[-122.05822,37.28547],[-122.05645,37.28598],[-122.05494,37.28537],[-122.05421,37.28864],[-122.05464,37.2906],[-122.05123,37.29054],[-122.04949,37.29297],[-122.05034,37.29741],[-122.05801,37.29736],[-122.05838,37.29634],[-122.05956,37.29618],[-122.05957,37.2901],[-122.06408,37.29009]]],[[[-122.064,37.28112],[-122.06391082531458,37.2791581569208],[-122.06206,37.27977],[-122.06035667325602,37.279485382420674],[-122.064,37.28112]]],[[[-122.06354564450773,37.34048645931443],[-122.06243439336446,37.33868644548171],[-122.06246,37.33954],[-122.06354564450773,37.34048645931443]]],[[[-122.06346,37.35292],[-122.06344506054411,37.35289405252398],[-122.06158724862694,37.35417298101768],[-122.06301,37.35955],[-122.06175,37.35444],[-122.06346,37.35292]]],[[[-122.06167,37.35572],[-122.06082061396776,37.35470073676132],[-122.06072,37.35477],[-122.06167,37.35572]]],[[[-122.05855,37.33609],[-122.05796,37.33777],[-122.05810764258555,37.337820108998734],[-122.05855,37.33609]]],[[[-122.0551,37.2456],[-122.0482,37.2396],[-122.0485,37.2371],[-122.0459,37.2317],[-122.0409,37.2332],[-122.0377,37.2314],[-122.039,37.2304],[-122.0399,37.2265],[-122.0368,37.2242],[-122.0372,37.2232],[-122.0334,37.2196],[-122.0333,37.2178],[-122.0285,37.2174],[-122.0252,37.215],[-122.0247,37.2158],[-122.0123,37.2144],[-122.0077,37.2123],[-122.0054,37.2081],[-122.0008,37.2044],[-121.9949,37.202],[-121.992,37.2035],[-121.993,37.198],[-121.9914,37.1982],[-121.9917,37.2004],[-121.9901,37.2014],[-121.9853,37.2008],[-121.9833,37.1989],[-121.9806,37.201],[-121.97781536043068,37.20176246083445],[-121.98588,37.20141],[-121.9858,37.20533],[-121.98859,37.20533],[-121.98843,37.20656],[-121.98933,37.20784],[-121.98939,37.21086],[-121.98741,37.21267],[-121.98737,37.21412],[-121.99026,37.21409],[-121.99053,37.22073],[-121.99231,37.2197],[-121.9933,37.21996],[-121.99149,37.22152],[-121.99708,37.22633],[-121.99650516282033,37.227654624805325],[-121.99908,37.22655],[-121.99918,37.22778],[-122.00428,37.23182],[-122.00273,37.23356],[-121.99914,37.23535],[-122.00013,37.23612],[-122.00205,37.23468],[-122.00451,37.23778],[-122.00517,37.24045],[-122.00408,37.24057],[-122.00228,37.23701],[-121.99995,37.23732],[-122.00095,37.2358],[-121.99931,37.23704],[-121.997,37.23597],[-121.99554,37.23653],[-121.99453,37.23808],[-121.99518,37.23861],[-121.99272,37.24032],[-121.99174,37.24241],[-121.99542,37.24332],[-121.99707,37.24184],[-121.99838,37.24243],[-121.99701,37.23994],[-122.0009,37.24119],[-122.00086,37.23994],[-122.0023,37.24003],[-122.00243719623839,37.241383669552064],[-122.00593,37.24025],[-122.00888,37.2373],[-122.01265,37.23847],[-122.01158,37.23879],[-122.01234,37.24044],[-122.01154,37.24094],[-122.01101,37.2397],[-122.00997,37.24071],[-122.01358,37.24249],[-122.01357,37.2438],[-122.01853,37.24298],[-122.0185,37.24208],[-122.02122,37.24302],[-122.02121,37.24236],[-122.02458,37.24122],[-122.02605,37.2398],[-122.02719,37.23994],[-122.02723,37.24289],[-122.04828,37.2436],[-122.04748,37.24441],[-122.04659,37.24375],[-122.04615,37.24426],[-122.04647,37.24539],[-122.04524,37.2473],[-122.04529,37.24906],[-122.04686,37.24885],[-122.0502,37.24623],[-122.05029179649974,37.25156337663422],[-122.05280229147571,37.25082859761687],[-122.05315,37.25011],[-122.05318722188179,37.25012111191577],[-122.0551,37.2456]]],[[[-122.05265996705107,37.25112273476112],[-122.05029346945138,37.25166057512469],[-122.0503,37.25204],[-122.05255,37.25135],[-122.05265996705107,37.25112273476112]]],[[[-122.04743,37.29375],[-122.00785,37.29334],[-122.03226,37.29396],[-122.04743,37.29375]]],[[[-122.04676049295774,37.459537676056335],[-122.04527,37.46028],[-122.03618,37.46497],[-122.03066538782319,37.46530825688073],[-122.0362,37.465],[-122.04676049295774,37.459537676056335]]],[[[-122.0252616059529,37.46560922701022],[-122.02115,37.46507],[-121.99783333594903,37.46713687749145],[-122.0252616059529,37.46560922701022]]],[[[-122.01643,37.33773],[-122.00239,37.3378],[-121.99554,37.33787],[-122.01643,37.33773]]],[[[-122.00471,37.32309],[-122.00337,37.32308],[-121.94667,37.32337],[-122.00471,37.32309]]],[[[-122.00398,37.37705],[-121.98697,37.37778],[-122.00283,37.37738],[-122.00398,37.37705]]],[[[-121.99832,37.24272],[-121.99696,37.24408],[-121.99667403422983,37.244814865525676],[-121.99832,37.24272]]],[[[-121.99592,37.37031],[-121.97781,37.37058],[-121.9824,37.37058],[-121.99592,37.37031]]],[[[-121.99544,37.25092],[-121.99543736017726,37.2508635077934],[-121.99312,37.25334],[-121.99544,37.25092]]],[[[-121.99543667877137,37.250848925707366],[-121.99538432084309,37.24972846604215],[-121.99515916262075,37.25082654537264],[-121.99543667877137,37.250848925707366]]],[[[-121.99524679142506,37.246785336496224],[-121.99524299342781,37.2467040593551],[-121.99521,37.24672],[-121.99524679142506,37.246785336496224]]],[[[-121.99366,37.27049],[-121.99065,37.26911],[-121.98496,37.26651],[-121.99366,37.27049]]],[[[-121.99253,37.22936],[-121.99097,37.22912],[-121.99065844079516,37.22946570267934],[-121.99253,37.22936]]],[[[-121.99208,37.26332],[-121.99188,37.25927],[-121.99194,37.26289],[-121.98148,37.26515],[-121.99208,37.26332]]],[[[-121.9897,37.28064],[-121.9895,37.27623],[-121.98948,37.277],[-121.9897,37.28064]]],[[[-121.98708,37.20659],[-121.9869,37.20592],[-121.98648,37.2065],[-121.9857,37.20582],[-121.98302,37.2069],[-121.98064,37.20585],[-121.98066,37.20733],[-121.97971,37.2085],[-121.97835,37.20828],[-121.97632,37.20955],[-121.97635,37.21418],[-121.98574,37.21403],[-121.98606,37.20794],[-121.98708,37.20659]]],[[[-121.98697,37.37778],[-121.98632,37.41223],[-121.98637,37.41753],[-121.98697,37.37778]]],[[[-121.986,37.22973],[-121.98411,37.23114],[-121.98186,37.23445],[-121.986,37.22973]]],[[[-121.98266164750957,37.46167544061303],[-121.98001,37.46089],[-121.97901046692607,37.46083941634241],[-121.98,37.4609],[-121.98266164750957,37.46167544061303]]],[[[-121.97998,37.25432],[-121.97933,37.24955],[-121.97958,37.25243],[-121.97726743733956,37.25114413541726],[-121.97809,37.25387],[-121.97998,37.25432]]],[[[-121.97951,37.3391],[-121.97884,37.33814],[-121.97904,37.33858],[-121.97951,37.3391]]],[[[-121.97632,37.20336],[-121.97628151769878,37.20218244158248],[-121.9722,37.2033],[-121.9555,37.1978],[-121.9282,37.1947],[-121.9279,37.1971],[-121.9236,37.2008],[-121.922,37.2047],[-121.9136,37.2109],[-121.91350360028349,37.21111689936215],[-121.92183,37.21192],[-121.92185,37.21342],[-121.921,37.21341],[-121.92175,37.21476],[-121.92362,37.21473],[-121.92575,37.21334],[-121.93089,37.21319],[-121.93097,37.19926],[-121.94762,37.19929],[-121.94731,37.20683],[-121.95494,37.20706],[-121.95444,37.21028],[-121.94947,37.21054],[-121.94943,37.21136],[-121.95366,37.21113],[-121.95395,37.21219],[-121.95479,37.21222],[-121.95481,37.21115],[-121.95552,37.21101],[-121.95554,37.2121],[-121.9563,37.21209],[-121.95657,37.2071],[-121.9589,37.20713],[-121.95873,37.20918],[-121.95953,37.20945],[-121.95852,37.21057],[-121.95966,37.2106],[-121.96002,37.21253],[-121.9615,37.21196],[-121.96239,37.21411],[-121.96392,37.21351],[-121.96735,37.21423],[-121.96775,37.21167],[-121.97005,37.21201],[-121.97051,37.21421],[-121.97189,37.2142],[-121.97185,37.20973],[-121.97076,37.20856],[-121.97084,37.20721],[-121.97341,37.2068],[-121.97336,37.20523],[-121.97188,37.20526],[-121.97195,37.2036],[-121.97632,37.20336]]],[[[-121.97377162802313,37.2651694655858],[-121.97199,37.26388],[-121.97356,37.26517],[-121.97377162802313,37.2651694655858]]],[[[-121.96186,37.23785],[-121.95789,37.2373],[-121.95793,37.23632],[-121.95686,37.23624],[-121.9554,37.2369],[-121.95635,37.23712],[-121.95548,37.23791],[-121.95499,37.23618],[-121.95163,37.23618],[-121.95068,37.23748],[-121.95015,37.23646],[-121.94902,37.2367],[-121.94982,37.23666],[-121.95011,37.23769],[-121.94885,37.23838],[-121.94817,37.23756],[-121.94841,37.23844],[-121.94688,37.23908],[-121.94822,37.23935],[-121.94706,37.23975],[-121.94793,37.243],[-121.94852,37.24288],[-121.94801,37.24328],[-121.94932,37.24332],[-121.95402,37.24246],[-121.95374,37.24161],[-121.955,37.24123],[-121.95544,37.24217],[-121.95684,37.24183],[-121.95669,37.24027],[-121.95716,37.24175],[-121.95921,37.2411],[-121.95883,37.24014],[-121.96039,37.23985],[-121.96186,37.23785]]],[[[-121.95999,37.21421],[-121.95899,37.21211],[-121.95625,37.21319],[-121.9562,37.21424],[-121.95999,37.21421]]],[[[-121.95642,37.32722],[-121.95633623163873,37.32721667585868],[-121.95641,37.3299],[-121.95642,37.32722]]],[[[-121.95527,37.24221],[-121.95491,37.2415],[-121.95406,37.24169],[-121.95429,37.24241],[-121.95527,37.24221]]],[[[-121.95408,37.21434],[-121.95308,37.21154],[-121.95016,37.21198],[-121.95231,37.21226],[-121.95229,37.21431],[-121.95408,37.21434]]],[[[-121.95224,37.25317],[-121.94401,37.26289],[-121.9515,37.25441],[-121.95224,37.25317]]],[[[-121.95127,37.23584],[-121.95085,37.23603],[-121.95113,37.23601],[-121.95127,37.23584]]],[[[-121.95027,37.23629],[-121.94903,37.23548],[-121.94812,37.23638],[-121.95027,37.23629]]],[[[-121.94887085714285,37.46185571428571],[-121.94641,37.46336],[-121.94641511705686,37.46339055183947],[-121.94887085714285,37.46185571428571]]],[[[-121.94744,37.40154],[-121.94172170971373,37.400107958391175],[-121.94176,37.40028],[-121.94744,37.40154]]],[[[-121.9471,37.4674],[-121.94678901639344,37.46562295081967],[-121.94708825915716,37.46740960614415],[-121.9471,37.4674]]],[[[-121.94498101449275,37.46913371541502],[-121.94491,37.46916],[-121.94488474074075,37.46912588359788],[-121.9449,37.4692],[-121.94498101449275,37.46913371541502]]],[[[-121.94423,37.46582],[-121.94420255190225,37.46581239495381],[-121.94422586638831,37.465925636743215],[-121.94423,37.46582]]],[[[-121.94168,37.39779],[-121.94085037369342,37.39619296935983],[-121.94165374865146,37.399802603387904],[-121.94168,37.39779]]],[[[-121.94044,37.25631],[-121.93108,37.25613],[-121.93116,37.24924],[-121.92676,37.24928],[-121.92677,37.25086],[-121.91777,37.25091],[-121.91777,37.25443],[-121.92347,37.25481],[-121.92348,37.25581],[-121.92226,37.25615],[-121.92232,37.26175],[-121.92491,37.26088],[-121.92534,37.26174],[-121.92745,37.26133],[-121.92698,37.26022],[-121.9313,37.25841],[-121.93134,37.25929],[-121.93401,37.26103],[-121.93402,37.26187],[-121.93763,37.2635],[-121.93761,37.26016],[-121.94037,37.26009],[-121.94044,37.25631]]],[[[-121.94014918803418,37.46369897435898],[-121.93924,37.46249],[-121.93882580645162,37.46254677419355],[-121.9392,37.4625],[-121.94014918803418,37.46369897435898]]],[[[-121.94005,37.26065],[-121.93991,37.26032],[-121.9396,37.26031],[-121.94005,37.26065]]],[[[-121.93978,37.30878],[-121.93944,37.30521],[-121.93715,37.30521],[-121.93718,37.30758],[-121.93222,37.30783],[-121.93184,37.31618],[-121.92543,37.31637],[-121.92543,37.31965],[-121.9239,37.31961],[-121.92391,37.32056],[-121.92328,37.32056],[-121.92374,37.31965],[-121.92218,37.31967],[-121.92221,37.32292],[-121.9302,37.32328],[-121.9319,37.32282],[-121.93189,37.32217],[-121.93063,37.32217],[-121.93172,37.32166],[-121.93342,37.32298],[-121.93825,37.32292],[-121.9397,37.32197],[-121.93865,37.31838],[-121.93185,37.31783],[-121.93184,37.31652],[-121.93864,37.31684],[-121.93868,37.31084],[-121.93978,37.31003],[-121.93978,37.30878]]],[[[-121.93779,37.22142],[-121.93555,37.22076],[-121.93557,37.2194],[-121.93298,37.21962],[-121.93208,37.21895],[-121.93206,37.22025],[-121.92981,37.21925],[-121.93384,37.2184],[-121.93412,37.21428],[-121.92738,37.21438],[-121.92241,37.21584],[-121.92182,37.21803],[-121.91621,37.21734],[-121.91581,37.21798],[-121.92095,37.21916],[-121.91994,37.22167],[-121.92193,37.22166],[-121.92188,37.21931],[-121.92344,37.21978],[-121.92543,37.21906],[-121.92544,37.21967],[-121.92397,37.22005],[-121.92419,37.22092],[-121.92583,37.22258],[-121.93107,37.22521],[-121.9315,37.2267],[-121.92705,37.22466],[-121.92591,37.22532],[-121.92645,37.22602],[-121.92752,37.22565],[-121.92758,37.22703],[-121.92911,37.22702],[-121.92914,37.22888],[-121.9328,37.22886],[-121.93419,37.22606],[-121.93522,37.22521],[-121.93663,37.22549],[-121.93765,37.22442],[-121.93655,37.22263],[-121.93504,37.22265],[-121.93501,37.22156],[-121.93779,37.22142]]],[[[-121.9348,37.32532],[-121.93478,37.32424],[-121.93418,37.32466],[-121.93448,37.32337],[-121.93359,37.32339],[-121.93355,37.32425],[-121.93195,37.32426],[-121.93251,37.3246],[-121.93196,37.32506],[-121.9309,37.32339],[-121.92884,37.32427],[-121.92585,37.32342],[-121.92559,37.32533],[-121.92731,37.32552],[-121.92694,37.32695],[-121.93145,37.32692],[-121.93198,37.3266],[-121.93144,37.32548],[-121.9348,37.32532]]],[[[-121.93473630136987,37.46056701791359],[-121.93473,37.46052],[-121.93471117987946,37.46052063977747],[-121.93473630136987,37.46056701791359]]],[[[-121.93271,37.45684],[-121.93263,37.45515],[-121.93260376616306,37.45516402477202],[-121.9327,37.4568],[-121.9311,37.4574],[-121.93119722772278,37.46051128712871],[-121.93113,37.45739],[-121.93271,37.45684]]],[[[-121.93108,37.41985],[-121.93025741519966,37.41947187634178],[-121.9309897251795,37.41991349839069],[-121.93108,37.41985]]],[[[-121.93026,37.41797],[-121.93011818058297,37.417809711077496],[-121.92979,37.41919],[-121.9298560789101,37.41922984911373],[-121.93026,37.41797]]],[[[-121.92843048913043,37.457383303571426],[-121.92838635036496,37.45735222627737],[-121.9284,37.4574],[-121.92843048913043,37.457383303571426]]],[[[-121.92823,37.45261],[-121.92723,37.45081],[-121.92816059347608,37.45262465727834],[-121.92823,37.45261]]],[[[-121.92785,37.45526],[-121.92503509140768,37.45404274223035],[-121.92504,37.45419],[-121.92501170393001,37.454204597972506],[-121.9278,37.4553],[-121.92782010695187,37.45537037433155],[-121.92785,37.45526]]],[[[-121.91918616438356,37.45721],[-121.91089,37.46149],[-121.911055,37.46177125],[-121.9109,37.4615],[-121.91918616438356,37.45721]]],[[[-121.91331,37.2161],[-121.91320511372157,37.21576899525119],[-121.91266,37.21707],[-121.91331,37.2161]]],[[[-121.91261357045268,37.21390217688314],[-121.91254,37.21367],[-121.91259165217392,37.2131687826087],[-121.91241690954774,37.21356195351759],[-121.91261357045268,37.21390217688314]]],[[[-121.9119473015873,37.21346419047619],[-121.9094,37.2127],[-121.90763333333334,37.211216],[-121.90966,37.21304],[-121.9119473015873,37.21346419047619]]],[[[-121.91070916426513,37.46240853025937],[-121.90131,37.46496],[-121.89831,37.46666],[-121.89689,37.46363],[-121.89768,37.4631],[-121.89661,37.46127],[-121.89711,37.45945],[-121.89604,37.45916],[-121.89274,37.45496],[-121.88503,37.45775],[-121.88769,37.46169],[-121.87979,37.46388],[-121.87752,37.46394],[-121.87213,37.4586],[-121.87227,37.45797],[-121.8753,37.45796],[-121.87065,37.45457],[-121.87289,37.45323],[-121.8782,37.45261],[-121.87835,37.45132],[-121.87724,37.44912],[-121.87774,37.44794],[-121.87627,37.44697],[-121.87668,37.44496],[-121.87614,37.4441],[-121.87438,37.44445],[-121.87392,37.44317],[-121.87536,37.44274],[-121.87274,37.43822],[-121.86809607427055,37.439403925729444],[-121.86422268817205,37.443277311827956],[-121.8641,37.44347],[-121.86396,37.44354],[-121.8638,37.4437],[-121.86314933333334,37.44394533333333],[-121.86232,37.44436],[-121.86306,37.44705],[-121.86184,37.44735],[-121.86389,37.44979],[-121.86646,37.44947],[-121.86666,37.45084],[-121.86367,37.45166],[-121.86675,37.45427],[-121.8664,37.4578],[-121.8645873469043,37.45767507390827],[-121.8635,37.4582],[-121.8696,37.4614],[-121.8687,37.4626],[-121.8702,37.464],[-121.8694,37.4655],[-121.8716,37.4665],[-121.8697,37.4689],[-121.8651,37.4697],[-121.8666,37.4739],[-121.8602,37.4727],[-121.8625,37.4756],[-121.8623,37.482],[-121.8638,37.4831],[-121.8634,37.4846],[-121.8699,37.4817],[-121.8746,37.4758],[-121.8775,37.4752],[-121.8812,37.4711],[-121.8877,37.4709],[-121.8909,37.468],[-121.8977,37.467],[-121.91070916426513,37.46240853025937]]],[[[-121.90691844299438,37.21061549211528],[-121.9069,37.2106],[-121.9047,37.2109],[-121.90296666666667,37.20943333333334],[-121.90469,37.21091],[-121.90691844299438,37.21061549211528]]],[[[-121.8994941880944,37.20650023247622],[-121.897,37.2066],[-121.8965,37.2043],[-121.884,37.2019],[-121.8801,37.1985],[-121.8783,37.1986],[-121.8727,37.1949],[-121.8733,37.1926],[-121.8713,37.1845],[-121.8735,37.1811],[-121.8696,37.1827],[-121.8634,37.1798],[-121.8662,37.1781],[-121.8644,37.1776],[-121.8607,37.1696],[-121.8584,37.1673],[-121.8428,37.1609],[-121.8401,37.1628],[-121.8314,37.1624],[-121.8293,37.1584],[-121.8211,37.1503],[-121.8235,37.1464],[-121.8208,37.144],[-121.8238,37.1386],[-121.8172,37.1427],[-121.8148,37.1517],[-121.8131,37.1538],[-121.808,37.1527],[-121.805,37.1531],[-121.8019,37.1564],[-121.7992,37.1554],[-121.7997,37.1569],[-121.7987,37.1571],[-121.8034,37.166],[-121.7998,37.1682],[-121.7986,37.171],[-121.7965,37.1723],[-121.79600813289402,37.17227712246019],[-121.79625,37.17236],[-121.80549,37.17173],[-121.80874,37.17029],[-121.81523,37.16962],[-121.81833,37.17235],[-121.81801,37.17171],[-121.82033,37.17105],[-121.8207,37.17184],[-121.81897,37.17268],[-121.81879,37.17431],[-121.8143,37.17626],[-121.81565,37.17606],[-121.81502,37.17649],[-121.81588,37.1775],[-121.81493,37.17743],[-121.81431,37.17984],[-121.81276,37.18136],[-121.81475,37.18578],[-121.8074,37.18951],[-121.80434,37.18902],[-121.80373,37.18987],[-121.79937,37.18862],[-121.7997,37.18716],[-121.79724,37.18672],[-121.79623,37.18322],[-121.79472,37.18271],[-121.79555,37.18594],[-121.79364,37.1867],[-121.78905,37.18557],[-121.78849,37.18359],[-121.78638,37.18313],[-121.7854,37.18502],[-121.77981,37.18825],[-121.77447,37.18829],[-121.77073,37.18607],[-121.76778,37.18541],[-121.76604,37.18742],[-121.76597,37.18993],[-121.77706,37.19865],[-121.7788,37.20178],[-121.7734,37.20892],[-121.75801,37.21709],[-121.75917,37.21768],[-121.76346,37.2154],[-121.76508,37.21539],[-121.76479,37.21592],[-121.76813,37.21878],[-121.77164,37.2203],[-121.7719,37.22158],[-121.77899,37.22458],[-121.78333,37.22065],[-121.7904,37.22316],[-121.79187,37.22473],[-121.79168,37.22594],[-121.80081,37.22598],[-121.80545,37.2241],[-121.80638,37.22518],[-121.80818,37.22491],[-121.80785,37.226],[-121.80904,37.22681],[-121.81332,37.22664],[-121.81447,37.22777],[-121.81616,37.22742],[-121.81675,37.22828],[-121.81785,37.22765],[-121.82094,37.22972],[-121.82171,37.22809],[-121.82346,37.22871],[-121.82498,37.22801],[-121.82607,37.22867],[-121.82794,37.22773],[-121.82742,37.22583],[-121.82975,37.22617],[-121.83036,37.22702],[-121.83179,37.2261],[-121.83508,37.22664],[-121.83517,37.22819],[-121.84015,37.22956],[-121.84078,37.22512],[-121.84182,37.22455],[-121.84363,37.22654],[-121.84824,37.2282],[-121.84718,37.2244],[-121.84366,37.22463],[-121.84346,37.22335],[-121.84752,37.22085],[-121.84414,37.21999],[-121.84187,37.21714],[-121.83887,37.21563],[-121.83695,37.21755],[-121.83999,37.21894],[-121.84013,37.22009],[-121.83833,37.2207],[-121.8347,37.2202],[-121.83474,37.21748],[-121.83787,37.21517],[-121.82989,37.21278],[-121.82497,37.20876],[-121.82371,37.20721],[-121.82681,37.20516],[-121.82865,37.2016],[-121.82677,37.20049],[-121.82601,37.20242],[-121.82445,37.20195],[-121.82468,37.19988],[-121.8222,37.19925],[-121.82301,37.19729],[-121.82692,37.19945],[-121.83047,37.1964],[-121.83322,37.19798],[-121.8366,37.1948],[-121.83976,37.19506],[-121.83978,37.19317],[-121.84867,37.19309],[-121.8487,37.19658],[-121.85781,37.19658],[-121.85784,37.20037],[-121.86255,37.20041],[-121.86252,37.20396],[-121.87617,37.20386],[-121.87623,37.21238],[-121.88141,37.21485],[-121.88327,37.21415],[-121.88394,37.2168],[-121.88641,37.21763],[-121.88719,37.21953],[-121.88807,37.21985],[-121.89116,37.21915],[-121.89387,37.21631],[-121.8929,37.21587],[-121.89221,37.21367],[-121.89036,37.21366],[-121.8994941880944,37.20650023247622]],[[-121.82371,37.20721],[-121.82268,37.209],[-121.8211,37.20871],[-121.82257,37.20943],[-121.81713,37.22032],[-121.81252,37.21924],[-121.81154,37.21754],[-121.80536,37.21615],[-121.80465,37.21394],[-121.8001,37.21087],[-121.80561,37.2032],[-121.81149,37.20348],[-121.81568,37.205],[-121.81673,37.20334],[-121.82371,37.20721]]],[[[-121.87348,37.3953],[-121.87106,37.39307],[-121.86918,37.39436],[-121.87191,37.39637],[-121.87348,37.3953]]],[[[-121.8707,37.28989],[-121.86938,37.29053],[-121.86778,37.28886],[-121.86732,37.28921],[-121.86993,37.29186],[-121.87067,37.2914],[-121.87004,37.29127],[-121.8707,37.28989]]],[[[-121.87028,37.23714],[-121.86979,37.23565],[-121.86858,37.23496],[-121.8632,37.23475],[-121.86345,37.23324],[-121.86874,37.23196],[-121.86394,37.22936],[-121.86009,37.22829],[-121.85587,37.22908],[-121.85665,37.23517],[-121.85592,37.23698],[-121.86234,37.23931],[-121.86313,37.23733],[-121.87028,37.23714]]],[[[-121.86806942819149,37.435513125],[-121.86792,37.4351],[-121.8670159463807,37.43469026809652],[-121.86707,37.43442],[-121.86626684340659,37.43435076236264],[-121.86535038363174,37.433935407786315],[-121.86806942819149,37.435513125]]],[[[-121.8674,37.28698],[-121.86431,37.28651],[-121.86528,37.28722],[-121.86388,37.2883],[-121.86492,37.28915],[-121.8674,37.28698]]],[[[-121.86214,37.42375],[-121.86168,37.42328],[-121.86151750212404,37.42337179269329],[-121.86166710113146,37.423863332289095],[-121.86214,37.42375]]],[[[-121.85767,37.30112],[-121.85435,37.29653],[-121.85304,37.29723],[-121.85132,37.29548],[-121.84531,37.29955],[-121.84844,37.3038],[-121.85057,37.30229],[-121.85278,37.30451],[-121.85767,37.30112]]],[[[-121.85507886075949,37.418373987341774],[-121.85246,37.41537],[-121.84719,37.41464],[-121.84432,37.4154],[-121.84298,37.41335],[-121.84322,37.41564],[-121.8412,37.41596],[-121.84183,37.41887],[-121.84397,37.41977],[-121.84527776987719,37.419343083387204],[-121.8472,37.4185],[-121.84929471478463,37.42033287543656],[-121.84974,37.42034],[-121.85038909090909,37.421290454545456],[-121.8506592513369,37.42152684491979],[-121.85482636986302,37.41925770547945],[-121.85507886075949,37.418373987341774]]],[[[-121.8485,37.28793],[-121.84447,37.28512],[-121.84486,37.28361],[-121.84611,37.28273],[-121.84438,37.28095],[-121.8434,37.28155],[-121.84301,37.2822],[-121.84443,37.28361],[-121.84345,37.28578],[-121.84527,37.28745],[-121.8485,37.28793]]],[[[-121.84653,37.41121],[-121.84562,37.40983],[-121.84098,37.41023],[-121.84296,37.41332],[-121.84589,37.41265],[-121.84565,37.41157],[-121.84653,37.41121]]],[[[-121.84171,37.40583],[-121.83924,37.40331],[-121.84013,37.40291],[-121.83873,37.40093],[-121.83302,37.40355],[-121.83392,37.40551],[-121.83625,37.40447],[-121.83629,37.40527],[-121.83811,37.40495],[-121.83865,37.40555],[-121.83558,37.40597],[-121.83587,37.40691],[-121.83934,37.40835],[-121.84016,37.40838],[-121.83943,37.40687],[-121.84171,37.40583]]],[[[-121.83904664562728,37.421524017438834],[-121.839,37.42107],[-121.83007,37.40781],[-121.82734,37.40823],[-121.82653,37.40956],[-121.82738,37.41093],[-121.82614,37.41232],[-121.82648,37.41332],[-121.82469,37.41371],[-121.82506,37.41432],[-121.82104,37.4112],[-121.81781,37.4066],[-121.81506,37.4042],[-121.8127,37.40888],[-121.80974,37.40727],[-121.80118,37.40748],[-121.80032,37.40815],[-121.80171,37.41367],[-121.80085,37.41512],[-121.79609,37.41368],[-121.79196,37.41372],[-121.79052,37.41115],[-121.79094,37.40955],[-121.78962,37.40576],[-121.78652,37.4045],[-121.78636274914089,37.4040544558992],[-121.7851,37.4037],[-121.7819,37.4046],[-121.8083,37.4344],[-121.813,37.4334],[-121.8199,37.4355],[-121.8245,37.4327],[-121.8235,37.4319],[-121.8308,37.4319],[-121.833,37.4294],[-121.8302,37.4252],[-121.8312,37.4232],[-121.83904664562728,37.421524017438834]]],[[[-121.83871,37.37917],[-121.83716,37.37713],[-121.83545,37.37796],[-121.83485,37.37716],[-121.83614,37.3758],[-121.83561,37.37511],[-121.83468,37.37506],[-121.83329,37.37665],[-121.83289,37.37627],[-121.83415,37.37531],[-121.83131,37.37296],[-121.83336,37.37227],[-121.83253,37.37122],[-121.8287,37.37312],[-121.82418,37.37129],[-121.82369,37.37184],[-121.8224,37.37133],[-121.82363,37.37155],[-121.82417,37.37066],[-121.82903,37.37229],[-121.83222,37.37083],[-121.83172,37.37013],[-121.83128,37.37073],[-121.83164,37.37004],[-121.82862,37.36649],[-121.82711,37.36752],[-121.82585,37.36663],[-121.82735,37.3651],[-121.82594,37.36359],[-121.82294,37.36498],[-121.82247,37.3645],[-121.82536,37.36296],[-121.82423,37.36185],[-121.82187,37.36284],[-121.82155,37.36174],[-121.82323,37.36063],[-121.82134,37.35858],[-121.81896,37.35953],[-121.81709,37.35754],[-121.81606,37.35824],[-121.81783,37.35987],[-121.81607,37.36109],[-121.81446,37.35931],[-121.81219,37.36148],[-121.8145,37.36383],[-121.81277,37.365],[-121.81429,37.36663],[-121.81489,37.36623],[-121.81647,37.36793],[-121.81577,37.36839],[-121.81812,37.37055],[-121.81638,37.37112],[-121.81686,37.37203],[-121.81863,37.37144],[-121.81792,37.37256],[-121.81911,37.37303],[-121.81824,37.37445],[-121.81637,37.37371],[-121.81592,37.37493],[-121.81555,37.37432],[-121.81402,37.37452],[-121.81442,37.37299],[-121.81555,37.37338],[-121.81589,37.37235],[-121.8148,37.37218],[-121.81295,37.36892],[-121.80955,37.37001],[-121.80969,37.37075],[-121.80839,37.36975],[-121.80998,37.36836],[-121.80891,37.368],[-121.80708,37.36958],[-121.80768,37.37073],[-121.80564,37.371],[-121.80602,37.37153],[-121.80118,37.37391],[-121.79803,37.37107],[-121.80155,37.36861],[-121.79912,37.36755],[-121.79373,37.37121],[-121.79028,37.36731],[-121.79511,37.36336],[-121.7944,37.36174],[-121.79165,37.36102],[-121.79174,37.36042],[-121.79812,37.36045],[-121.79649,37.35832],[-121.79918,37.35778],[-121.79834,37.35563],[-121.79504,37.35425],[-121.79003,37.35431],[-121.7899,37.35155],[-121.78676,37.34941],[-121.78861,37.34759],[-121.7875,37.34625],[-121.78871,37.34505],[-121.78124,37.33999],[-121.78168,37.3394],[-121.78004,37.3391],[-121.77326,37.33446],[-121.77179,37.33186],[-121.76988,37.33241],[-121.76865,37.3308],[-121.76765,37.33132],[-121.76829,37.33492],[-121.76346,37.33635],[-121.76281,37.33565],[-121.76461,37.33533],[-121.76662,37.33362],[-121.76618,37.33213],[-121.76495,37.33235],[-121.76634,37.33037],[-121.7661,37.32873],[-121.76278,37.32942],[-121.76107,37.32443],[-121.75961,37.32448],[-121.75788,37.31971],[-121.75841,37.31899],[-121.75713,37.31657],[-121.75628,37.31682],[-121.75245,37.3144],[-121.74878,37.31353],[-121.75005,37.31259],[-121.74907,37.30924],[-121.74597,37.30847],[-121.74417,37.30611],[-121.74382,37.30255],[-121.75186,37.30094],[-121.74991,37.2945],[-121.74621,37.29443],[-121.74198,37.29252],[-121.73925,37.29258],[-121.73556,37.29134],[-121.71094793584012,37.29516258217197],[-121.7114,37.2971],[-121.7106,37.3015],[-121.741,37.3538],[-121.7459,37.3607],[-121.7539,37.3638],[-121.7541,37.3655],[-121.7602,37.3688],[-121.7598,37.3699],[-121.762,37.3701],[-121.7625,37.3721],[-121.7667,37.3753],[-121.772,37.383],[-121.7752,37.385],[-121.7793,37.3844],[-121.7829,37.3868],[-121.78381251637045,37.39333970065482],[-121.78377,37.39152],[-121.7856,37.39101],[-121.78913,37.39914],[-121.79264,37.40062],[-121.79416,37.39831],[-121.79499,37.39394],[-121.80039,37.3915],[-121.80161,37.39141],[-121.80314,37.39456],[-121.80598,37.39493],[-121.80514,37.3934],[-121.80581,37.39316],[-121.80368,37.39059],[-121.80563,37.3896],[-121.80644,37.3896],[-121.80861,37.39193],[-121.8097,37.39137],[-121.81197,37.3918],[-121.81374,37.39064],[-121.81436,37.39192],[-121.819,37.39228],[-121.81947,37.39348],[-121.82356,37.39476],[-121.82522,37.39455],[-121.82641,37.39655],[-121.82593,37.39546],[-121.82793,37.39514],[-121.82681,37.39284],[-121.82572,37.39333],[-121.8254,37.39273],[-121.82775,37.39162],[-121.82943,37.39389],[-121.8322,37.39363],[-121.83307,37.39297],[-121.83268,37.39257],[-121.834,37.39243],[-121.82844,37.38432],[-121.82643,37.38516],[-121.82526,37.38231],[-121.82451,37.38216],[-121.82426,37.38149],[-121.82888,37.37963],[-121.8261,37.37645],[-121.82719,37.37535],[-121.83055,37.3785],[-121.83254,37.37781],[-121.83428,37.37943],[-121.83313,37.38],[-121.83415,37.38135],[-121.83871,37.37917]],[[-121.82651,37.37987],[-121.82594,37.38018],[-121.82589,37.38013],[-121.82651,37.37987]],[[-121.8261,37.37835],[-121.82405,37.37939],[-121.82247,37.37852],[-121.82492,37.37593],[-121.8255,37.37616],[-121.82451,37.37717],[-121.82574,37.37722],[-121.8261,37.37835]],[[-121.82185,37.36628],[-121.82051,37.36842],[-121.81892,37.36693],[-121.8202,37.36539],[-121.82185,37.36628]]],[[[-121.83558,37.4071],[-121.83495,37.40668],[-121.83451,37.40728],[-121.83558,37.4071]]],[[[-121.8193,37.28893],[-121.81864,37.28797],[-121.81309,37.28751],[-121.8142,37.28247],[-121.81225,37.27871],[-121.80751,37.27827],[-121.80301,37.27592],[-121.80044,37.27544],[-121.80027,37.27802],[-121.80243,37.27868],[-121.8084,37.28279],[-121.80928,37.28957],[-121.80808,37.29006],[-121.80869,37.29134],[-121.80928,37.29035],[-121.81506,37.28864],[-121.81745,37.28941],[-121.81889,37.29088],[-121.8193,37.28893]]],[[[-121.80482,37.34062],[-121.80086,37.33602],[-121.79476,37.33714],[-121.79856,37.34144],[-121.79516,37.34264],[-121.79731,37.34405],[-121.80482,37.34062]]],[[[-121.79345028698148,37.17215815288286],[-121.7879,37.1719],[-121.78608285714286,37.17341428571429],[-121.7879,37.17191],[-121.79135,37.1726],[-121.79345028698148,37.17215815288286]]],[[[-121.78662,37.26748],[-121.78637,37.26504],[-121.78039,37.26196],[-121.78013,37.26108],[-121.779,37.26089],[-121.7793,37.25953],[-121.77615,37.25708],[-121.7715,37.25498],[-121.76898,37.25207],[-121.76717,37.25372],[-121.76496,37.2526],[-121.76547,37.25217],[-121.76489,37.25184],[-121.76393,37.25254],[-121.76764,37.25456],[-121.76284,37.25841],[-121.74504,37.25852],[-121.73964,37.26158],[-121.7334,37.25721],[-121.73856,37.25284],[-121.72530024529844,37.242374194603435],[-121.7334,37.2488],[-121.7276,37.2641],[-121.717,37.2855],[-121.71696,37.285532],[-121.71696,37.28554],[-121.72216,37.28434],[-121.72758,37.28578],[-121.73636,37.28664],[-121.73903,37.28416],[-121.73836,37.28191],[-121.73954,37.28156],[-121.73852,37.28122],[-121.73891,37.27871],[-121.73716,37.27906],[-121.7352,37.27735],[-121.73618,37.2748],[-121.73399,37.27377],[-121.7345,37.27206],[-121.73319,37.27219],[-121.73102,37.27062],[-121.73417,37.26696],[-121.73834,37.2686],[-121.74435,37.27298],[-121.74956,37.27238],[-121.75092,37.27046],[-121.75264,37.26995],[-121.75555,37.27046],[-121.75753,37.26858],[-121.78408,37.26931],[-121.78662,37.26748]],[[-121.78258,37.2654],[-121.7819,37.26542],[-121.78238,37.265],[-121.78258,37.2654]]],[[[-121.78534,37.17884],[-121.78522,37.17548],[-121.78446363636364,37.17545090909091],[-121.7852,37.1755],[-121.7853,37.1788],[-121.7796,37.179],[-121.77969234042553,37.1790164893617],[-121.78534,37.17884]]],[[[-121.78533,37.39685],[-121.78502063197026,37.39662750929368],[-121.78532095993322,37.39702794657763],[-121.78533,37.39685]]],[[[-121.78425,37.18054],[-121.78269955316938,37.18119746795982],[-121.7827,37.1812],[-121.78418374760994,37.18064359464627],[-121.78425,37.18054]]],[[[-121.78408641686183,37.18079578454333],[-121.7831076029567,37.18169303062302],[-121.7837,37.1814],[-121.78408641686183,37.18079578454333]]],[[[-121.78257645669291,37.180499921259845],[-121.78245,37.17954],[-121.78240564048275,37.17953196273555],[-121.78257645669291,37.180499921259845]]],[[[-121.78096726290921,37.182751754978064],[-121.7761,37.1825],[-121.7764,37.1839],[-121.77635605363984,37.183891494252876],[-121.77641,37.18392],[-121.77729,37.18364],[-121.77613,37.18252],[-121.77996,37.18325],[-121.78096726290921,37.182751754978064]]],[[[-121.7738,37.1814],[-121.77010361294072,37.17958024021697],[-121.77001,37.18021],[-121.77342,37.18233],[-121.77269,37.18261],[-121.77309,37.18325],[-121.7733233944954,37.18321110091743],[-121.7738,37.1814]]],[[[-121.76966511073732,37.17936436220914],[-121.76801396766875,37.17855149177538],[-121.76801,37.17898],[-121.76966511073732,37.17936436220914]]],[[[-121.76438398058252,37.17808398058252],[-121.7638,37.1775],[-121.76403821782178,37.1779102640264],[-121.76438398058252,37.17808398058252]]],[[[-121.75917134487351,37.1734089747004],[-121.7589,37.1723],[-121.75670244094488,37.16936992125984],[-121.75666,37.16964],[-121.7588,37.17218],[-121.75917134487351,37.1734089747004]]],[[[-121.75807,37.21774],[-121.75082,37.21386],[-121.74741,37.21434],[-121.74483,37.217],[-121.7477,37.22044],[-121.74621,37.22198],[-121.74891,37.22443],[-121.75106,37.22464],[-121.75154,37.22636],[-121.75807,37.21774]]],[[[-121.75109754060699,37.16107851356253],[-121.7495,37.1599],[-121.74906330642202,37.154222983486235],[-121.74527,37.15583],[-121.74722,37.15933],[-121.75074,37.16129],[-121.75109754060699,37.16107851356253]]],[[[-121.75027,37.22704],[-121.74642,37.2242],[-121.74061,37.21819],[-121.73849,37.21954],[-121.73511,37.21826],[-121.73779,37.21725],[-121.73594,37.21558],[-121.73663,37.21509],[-121.73297,37.21159],[-121.73345,37.21091],[-121.73254,37.21119],[-121.73004,37.20874],[-121.72722,37.21047],[-121.72593,37.20861],[-121.72324,37.20772],[-121.72465,37.20683],[-121.72123,37.20455],[-121.72045,37.20505],[-121.71959,37.20338],[-121.72296,37.20087],[-121.72129,37.19922],[-121.7221,37.19863],[-121.72079,37.19872],[-121.71884,37.19686],[-121.71941,37.196],[-121.71759,37.19655],[-121.71571,37.19474],[-121.71368,37.19608],[-121.71162,37.1951],[-121.71061,37.19407],[-121.71326,37.19238],[-121.71158,37.18974],[-121.71173,37.19046],[-121.70864,37.19258],[-121.70742,37.19315],[-121.70625,37.19199],[-121.70215,37.19494],[-121.70896,37.19929],[-121.70773477861084,37.200317605036076],[-121.7219,37.2085],[-121.7308,37.2171],[-121.74675253886011,37.22894499891409],[-121.75027,37.22704]]],[[[-121.74898094810769,37.15315232539992],[-121.7489,37.1521],[-121.7408,37.1483],[-121.7381,37.145],[-121.7357,37.1399],[-121.7365,37.1358],[-121.7333,37.1265],[-121.7206,37.1272],[-121.7128,37.1234],[-121.7082,37.1243],[-121.7012,37.1314],[-121.7002,37.1366],[-121.6981,37.1393],[-121.6976,37.1435],[-121.6991,37.1454],[-121.6959,37.1452],[-121.6902,37.1516],[-121.67674388176825,37.160728820298196],[-121.67198,37.16406],[-121.67687,37.1686],[-121.68471,37.16348],[-121.68367,37.16239],[-121.68968,37.15846],[-121.69224,37.16097],[-121.68653,37.16479],[-121.6891,37.16727],[-121.6899,37.16674],[-121.69101,37.16774],[-121.69283,37.16656],[-121.69383,37.16754],[-121.6918,37.16887],[-121.70299,37.17952],[-121.70476,37.18152],[-121.70415,37.18191],[-121.70775,37.18555],[-121.70837,37.18517],[-121.71118,37.18778],[-121.71056,37.18833],[-121.71189,37.18872],[-121.71824,37.19556],[-121.71952,37.1952],[-121.72384,37.20036],[-121.74491,37.18548],[-121.74206,37.18375],[-121.74076,37.18466],[-121.73249,37.17722],[-121.74226,37.17029],[-121.73613,37.15835],[-121.74044,37.15695],[-121.73936,37.15325],[-121.74898094810769,37.15315232539992]]],[[[-121.74232,37.21812],[-121.73827,37.21466],[-121.73696,37.21562],[-121.73985,37.21784],[-121.74232,37.21812]]],[[[-121.73557235872237,37.235],[-121.7294,37.235],[-121.72932586100434,37.23507139310693],[-121.73524,37.23518],[-121.73557235872237,37.235]]],[[[-121.72699772321428,37.237313303571426],[-121.72673260071753,37.237568606716465],[-121.72674,37.23757],[-121.72699772321428,37.237313303571426]]],[[[-121.7184863713733,37.23690728433269],[-121.7184,37.2369],[-121.71842018913239,37.236916016711696],[-121.7184863713733,37.23690728433269]]],[[[-121.70996,37.18806],[-121.70619,37.18554],[-121.70524,37.18616],[-121.70299,37.18539],[-121.70189,37.18374],[-121.70345,37.18175],[-121.69109,37.16962],[-121.67832,37.17758],[-121.68271211631664,37.181893537964456],[-121.6866,37.1857],[-121.68943043609022,37.18769015037594],[-121.69101,37.18666],[-121.69552,37.18788],[-121.69705,37.18742],[-121.69721,37.18813],[-121.69748,37.18767],[-121.70752,37.19106],[-121.70873,37.19017],[-121.70747,37.1891],[-121.70996,37.18806]]],[[[-121.70788,37.1921],[-121.70786,37.19213],[-121.7078,37.19229],[-121.70788,37.1921]]],[[[-121.67371,37.17047],[-121.66997073505885,37.16941899191626],[-121.67214489114211,37.17154761593494],[-121.67371,37.17047]]],[[[-121.66881,37.16642],[-121.66858993544624,37.16626057242854],[-121.6675,37.167],[-121.66784193653885,37.16733477556421],[-121.66881,37.16642]]]]}},{"type":"Feature","properties":{"GEOID":"0608590680","NAME":"Diablo Range","COUNTY":"085"},"geometry":{"type":"MultiPolygon","coordinates":[[[[-121.8716,37.4665],[-121.8694,37.4655],[-121.8702,37.464],[-121.8687,37.4626],[-121.8696,37.4614],[-121.8635,37.4582],[-121.8645873469043,37.45767507390827],[-121.859,37.45729],[-121.85651,37.45625],[-121.85389,37.45683],[-121.85165,37.45235],[-121.84964,37.45225],[-121.84815,37.45033],[-121.84664,37.45066],[-121.84402,37.44697],[-121.85073,37.44304],[-121.84399,37.44155],[-121.8445,37.43974],[-121.84344,37.43835],[-121.84258,37.43938],[-121.84126,37.4395],[-121.83971,37.43825],[-121.84009,37.43544],[-121.84359,37.43374],[-121.84015,37.42902],[-121.86205364852209,37.42377069451062],[-121.86201319492503,37.423620438292964],[-121.86168,37.42328],[-121.86037,37.42402],[-121.85767,37.42274],[-121.83849,37.42695],[-121.83766,37.42591],[-121.837,37.42509],[-121.8393,37.42399],[-121.83904664562728,37.421524017438834],[-121.8312,37.4232],[-121.8302,37.4252],[-121.833,37.4294],[-121.8305,37.432],[-121.8235,37.4319],[-121.8245,37.4327],[-121.8199,37.4355],[-121.813,37.4334],[-121.8083,37.4344],[-121.7819,37.4046],[-121.7851,37.4037],[-121.78636274914089,37.4040544558992],[-121.78514,37.40059],[-121.78532095993322,37.39702794657763],[-121.78502063197026,37.39662750929368],[-121.78387,37.3958],[-121.78381251637045,37.39333970065482],[-121.7829,37.3868],[-121.7793,37.3844],[-121.7752,37.385],[-121.772,37.383],[-121.7667,37.3753],[-121.7625,37.3721],[-121.762,37.3701],[-121.7598,37.3699],[-121.7602,37.3688],[-121.7541,37.3655],[-121.7539,37.3638],[-121.7459,37.3607],[-121.741,37.3538],[-121.7106,37.3015],[-121.7114,37.2971],[-121.71094793584012,37.29516258217197],[-121.70987,37.29533],[-121.70688,37.29158],[-121.70747,37.28961],[-121.70655,37.28803],[-121.71696,37.28474],[-121.71696,37.285532],[-121.717,37.2855],[-121.7276,37.2641],[-121.7334,37.2488],[-121.72530024529844,37.242374194603435],[-121.71839,37.23692],[-121.71842018913239,37.236916016711696],[-121.7184,37.2369],[-121.7184863713733,37.23690728433269],[-121.72127,37.23654],[-121.72673260071753,37.237568606716465],[-121.72699772321428,37.237313303571426],[-121.72925,37.23507],[-121.72932586100434,37.23507139310693],[-121.7294,37.235],[-121.73557235872237,37.235],[-121.74675253886011,37.22894499891409],[-121.7308,37.2171],[-121.7219,37.2085],[-121.70773477861084,37.200317605036076],[-121.70772,37.20033],[-121.7102,37.20176],[-121.71574,37.20895],[-121.70883,37.209],[-121.70294,37.20347],[-121.69233,37.20067],[-121.67912,37.20067],[-121.67909,37.20238],[-121.67336,37.20337],[-121.6679,37.20616],[-121.66553,37.20616],[-121.66366,37.20969],[-121.66239,37.20993],[-121.66123,37.21204],[-121.65764,37.21348],[-121.65595,37.21672],[-121.63146,37.21683],[-121.63118,37.20231],[-121.60435,37.20232],[-121.60428,37.19525],[-121.58594,37.19512],[-121.58587,37.18819],[-121.59013,37.18816],[-121.60211,37.17977],[-121.60749,37.17749],[-121.60865,37.17916],[-121.6105,37.17844],[-121.60936,37.1767],[-121.61838,37.17237],[-121.62473,37.16794],[-121.6247713265306,37.16757150510204],[-121.6214,37.1701],[-121.6195,37.1693],[-121.613,37.162],[-121.6039,37.1598],[-121.5952,37.1537],[-121.5899,37.1533],[-121.585,37.1546],[-121.5796,37.1535],[-121.5748,37.1458],[-121.5586,37.1317],[-121.5579,37.1285],[-121.5542,37.126],[-121.5529,37.1211],[-121.5493,37.119],[-121.5485,37.1128],[-121.5457,37.1086],[-121.5446,37.0984],[-121.5347,37.0868],[-121.5292,37.0835],[-121.5308,37.0827],[-121.5296,37.0827],[-121.527,37.0783],[-121.5114,37.0765],[-121.5023,37.0728],[-121.4999,37.0738],[-121.4971,37.0772],[-121.4913,37.0774],[-121.4887,37.0767],[-121.4898,37.0739],[-121.4884,37.0722],[-121.4834,37.0741],[-121.4778,37.0725],[-121.47,37.0601],[-121.465,37.0492],[-121.4576,37.0415],[-121.4557,37.034],[-121.4579,37.0332],[-121.4557,37.0275],[-121.4562,37.0245],[-121.4585,37.02],[-121.465,37.0154],[-121.4679,37.0072],[-121.4748,37.0076],[-121.4749,37.0041],[-121.478,37.0048],[-121.4839,37.0131],[-121.49,37.0153],[-121.4902,37.0167],[-121.4947,37.0165],[-121.488,37.0016],[-121.4861,37.0012],[-121.4712,36.978],[-121.4679,36.9768],[-121.4636,36.9783],[-121.4659,36.9821],[-121.4637,36.9849],[-121.4506,36.9889],[-121.4491,36.9882],[-121.4497,36.9861],[-121.4473,36.983],[-121.4377,36.9785],[-121.4346,36.974],[-121.4182,36.9605],[-121.2154,36.9612],[-121.2208,36.9636],[-121.2248,36.9674],[-121.2321,36.9689],[-121.2439,36.9801],[-121.2466,36.9852],[-121.2451,36.9929],[-121.2429,36.9943],[-121.2415,36.9974],[-121.2331,36.9993],[-121.2355,37.0058],[-121.237,37.0066],[-121.2363,37.0083],[-121.2382,37.0093],[-121.2333,37.0117],[-121.246,37.0256],[-121.2486,37.0337],[-121.2406,37.0318],[-121.2361,37.0369],[-121.2245,37.0397],[-121.2258,37.0521],[-121.2232,37.0552],[-121.2245,37.0562],[-121.2234,37.0575],[-121.2187,37.0571],[-121.2126,37.0551],[-121.209,37.0587],[-121.2082,37.0613],[-121.2103,37.066],[-121.2096,37.0682],[-121.2158,37.0692],[-121.2224,37.0734],[-121.2246,37.0789],[-121.2355,37.0862],[-121.242,37.0851],[-121.2455,37.0891],[-121.2426,37.0931],[-121.2384,37.0934],[-121.2304,37.0969],[-121.2305,37.1048],[-121.2255,37.1068],[-121.2263,37.1097],[-121.2238,37.1151],[-121.2213,37.1164],[-121.2173,37.123],[-121.2207,37.1247],[-121.2231,37.1286],[-121.2229,37.1313],[-121.2323,37.1399],[-121.236,37.1491],[-121.2355,37.1529],[-121.2366,37.1567],[-121.2438,37.1586],[-121.2488,37.1577],[-121.2621,37.1593],[-121.2695,37.1712],[-121.2731,37.1733],[-121.2754,37.1787],[-121.2778,37.1796],[-121.2811,37.1836],[-121.2834,37.1832],[-121.2843,37.1809],[-121.2861,37.1811],[-121.2877,37.1774],[-121.291,37.1754],[-121.2915,37.1703],[-121.2956,37.1689],[-121.2986,37.166],[-121.3026,37.1682],[-121.306,37.1666],[-121.3129,37.1701],[-121.314,37.1679],[-121.3284,37.1659],[-121.3325,37.1713],[-121.3343,37.1708],[-121.3383,37.1735],[-121.3431,37.1747],[-121.3437,37.1769],[-121.3475,37.1804],[-121.3546,37.1839],[-121.3596,37.1845],[-121.3632,37.1835],[-121.365,37.18],[-121.3722,37.177],[-121.3734,37.1737],[-121.3763,37.1725],[-121.3797,37.168],[-121.3829,37.1679],[-121.3843,37.1662],[-121.3832,37.163],[-121.384,37.1602],[-121.3816,37.1571],[-121.3836,37.1515],[-121.3911,37.1507],[-121.393,37.1482],[-121.3975,37.1506],[-121.399,37.1501],[-121.4011,37.1549],[-121.4046,37.156],[-121.4065,37.1588],[-121.4077,37.169],[-121.4134,37.1723],[-121.4104,37.1745],[-121.4111,37.1779],[-121.4088,37.1825],[-121.4115,37.1854],[-121.4105,37.192],[-121.4157,37.1996],[-121.4169,37.2113],[-121.4211,37.2148],[-121.4218,37.2213],[-121.4308,37.2275],[-121.4339,37.2263],[-121.4361,37.2294],[-121.4417,37.2311],[-121.4487,37.2373],[-121.4481,37.2395],[-121.4557,37.2494],[-121.455,37.2555],[-121.4573,37.2609],[-121.4548,37.2631],[-121.454,37.2772],[-121.4591,37.2823],[-121.4581,37.2841],[-121.454,37.2841],[-121.453,37.2867],[-121.4487,37.2903],[-121.4496,37.2939],[-121.4436,37.2966],[-121.4411,37.2939],[-121.4368,37.292],[-121.4314,37.295],[-121.4258,37.2963],[-121.4235,37.2953],[-121.4227,37.2991],[-121.4184,37.3033],[-121.4058,37.311],[-121.4075,37.3131],[-121.4094,37.3215],[-121.4119,37.3244],[-121.4102,37.3251],[-121.4111,37.3275],[-121.4091,37.3306],[-121.4207,37.3447],[-121.4194,37.352],[-121.4237,37.3588],[-121.4225,37.3631],[-121.4193,37.3644],[-121.4158,37.3759],[-121.4091,37.3807],[-121.4125,37.3894],[-121.4195,37.3907],[-121.4241,37.3936],[-121.4315,37.3942],[-121.4361,37.3961],[-121.4427,37.3928],[-121.4452,37.3933],[-121.4482,37.3917],[-121.4504,37.3925],[-121.4516,37.3946],[-121.4567,37.3955],[-121.4583,37.3981],[-121.4557,37.401],[-121.4564,37.4067],[-121.4636,37.4159],[-121.4663,37.415],[-121.4726,37.4233],[-121.4689,37.425],[-121.4703,37.4301],[-121.465,37.437],[-121.4619,37.4388],[-121.4635,37.4457],[-121.4629,37.4515],[-121.4647,37.4545],[-121.4672,37.4533],[-121.4689,37.4539],[-121.4696,37.4557],[-121.4727,37.4564],[-121.475,37.4621],[-121.4843,37.466],[-121.4868,37.4757],[-121.4834,37.4754],[-121.4777,37.4803],[-121.4745,37.4793],[-121.4726,37.4822],[-121.8634,37.4846],[-121.8638,37.4831],[-121.8623,37.482],[-121.8625,37.4756],[-121.8602,37.4727],[-121.8666,37.4739],[-121.8651,37.4697],[-121.8697,37.4689],[-121.8716,37.4665]],[[-121.75976,37.39603],[-121.75912,37.39799],[-121.75572,37.39902],[-121.75731,37.40053],[-121.75628,37.40129],[-121.75209,37.40037],[-121.74924,37.40101],[-121.74866,37.3998],[-121.75581,37.39645],[-121.75631,37.39557],[-121.75976,37.39603]]],[[[-121.86842,37.43661],[-121.86826,37.43604],[-121.8680805238415,37.435543801208865],[-121.8650337334934,37.43379189675871],[-121.8645,37.43355],[-121.8468,37.438],[-121.84888,37.44086],[-121.85198,37.44018],[-121.85718,37.4408],[-121.86247,37.44414],[-121.86549352783726,37.44128139186296],[-121.86422268817205,37.443277311827956],[-121.86809607427055,37.439403925729444],[-121.86768,37.43951],[-121.86637973360656,37.440443524590165],[-121.86797,37.43894],[-121.8663,37.43922],[-121.86541,37.43641],[-121.86842,37.43661]]],[[[-121.86396,37.44354],[-121.86314933333334,37.44394533333333],[-121.8638,37.4437],[-121.86396,37.44354]]],[[[-121.85552,37.41888],[-121.8550656681351,37.41835885462555],[-121.8544086526576,37.41948516687268],[-121.85552,37.41888]]],[[[-121.85062334333873,37.42154639806049],[-121.85046434782609,37.421400652173915],[-121.85058,37.42157],[-121.85062334333873,37.42154639806049]]],[[[-121.84929958549223,37.420332953367875],[-121.8473,37.4185],[-121.84555091280654,37.41925391689373],[-121.84639,37.41898],[-121.84735,37.41939],[-121.84724,37.4203],[-121.84929958549223,37.420332953367875]]],[[[-121.68943043609022,37.18769015037594],[-121.6866,37.1857],[-121.67841856246984,37.17751856246985],[-121.67832,37.17758],[-121.68894,37.18801],[-121.68943043609022,37.18769015037594]]],[[[-121.67232417475728,37.171424174757284],[-121.67045514734774,37.169555147347744],[-121.66663,37.16848],[-121.66804391509434,37.16714391509434],[-121.6633,37.1624],[-121.659,37.1656],[-121.6554,37.1649],[-121.6518,37.1689],[-121.6499,37.1687],[-121.64963372235489,37.16846632778083],[-121.6489,37.16972],[-121.64258,37.16787],[-121.65801,37.17266],[-121.66316,37.17276],[-121.66425,37.17051],[-121.67005,37.17299],[-121.67232417475728,37.171424174757284]]],[[[-121.64146,37.16754],[-121.63322,37.16493],[-121.63324691471571,37.16475830267559],[-121.631,37.1649],[-121.63198016109199,37.16537192941466],[-121.63356,37.16504],[-121.64146,37.16754]]]]}},{"type":"Feature","properties":{"GEOID":"0608591680","NAME":"Llagas-Uvas","COUNTY":"085"},"geometry":{"type":"Polygon","coordinates":[[[-121.8482,37.1056],[-121.843,37.1012],[-121.844,37.0976],[-121.8463,37.097],[-121.8446,37.0967],[-121.8441,37.0947],[-121.841,37.0944],[-121.838,37.0916],[-121.8342,37.0912],[-121.8304,37.0881],[-121.8242,37.0878],[-121.8236,37.086],[-121.8182,37.0837],[-121.8165,37.0804],[-121.8172,37.0779],[-121.8127,37.0754],[-121.8091,37.0693],[-121.8021,37.0679],[-121.8003,37.0655],[-121.7968,37.0638],[-121.7935,37.0643],[-121.786,37.062],[-121.7815,37.057],[-121.7761,37.0549],[-121.7753,37.053],[-121.7672,37.0533],[-121.7634,37.052],[-121.7649,37.0495],[-121.762,37.0478],[-121.7576,37.0496],[-121.7555,37.049],[-121.7464,37.0347],[-121.7398,37.0277],[-121.7266,37.0219],[-121.7258,37.0206],[-121.7283,37.0209],[-121.7287,37.0199],[-121.7308,37.0203],[-121.7304,37.0222],[-121.7313,37.0224],[-121.7362,37.0153],[-121.7278,37.0099],[-121.7266,37.0121],[-121.7188,37.0076],[-121.7296,36.9979],[-121.7283,36.9968],[-121.7298,36.9936],[-121.7342,36.9928],[-121.7349,36.9911],[-121.7387,36.99],[-121.7323,36.9897],[-121.7179,36.9956],[-121.7147,36.9931],[-121.7109,36.9931],[-121.7107,36.9897],[-121.7098,36.9906],[-121.7055,36.9894],[-121.7052,36.9862],[-121.6954,36.9851],[-121.6984,36.975],[-121.6978,36.9721],[-121.6933,36.9682],[-121.6902,36.9674],[-121.6783,36.9679],[-121.6772,36.9655],[-121.6727,36.9655],[-121.6699,36.9636],[-121.6648,36.9637],[-121.6629,36.9592],[-121.6643,36.9551],[-121.6633,36.9519],[-121.654,36.9506],[-121.6537,36.9477],[-121.6523,36.9476],[-121.6541,36.9448],[-121.6531,36.9418],[-121.6458,36.9323],[-121.641,36.9322],[-121.6423,36.9364],[-121.6371,36.9391],[-121.6319,36.9393],[-121.6305,36.9405],[-121.624,36.9385],[-121.6248,36.9405],[-121.6072,36.9261],[-121.5904,36.9262],[-121.5902,36.9193],[-121.5812,36.9193],[-121.5814,36.8992],[-121.5767,36.8936],[-121.5754,36.893],[-121.5714,36.8971],[-121.5629,36.8963],[-121.5603,36.8971],[-121.5586,36.9103],[-121.5535,36.9152],[-121.548,36.9174],[-121.5475,36.9191],[-121.5469,36.9279],[-121.5521,36.9353],[-121.5526,36.9429],[-121.5654,36.9458],[-121.5685,36.9483],[-121.5724,36.9477],[-121.5803,36.9529],[-121.5828,36.9585],[-121.5852,36.9569],[-121.5927,36.9591],[-121.5932,36.9622],[-121.6008,36.9665],[-121.6043,36.9705],[-121.6216,36.9768],[-121.6163,36.982],[-121.61638601687991,36.988537282873565],[-121.62408,36.99274],[-121.6398,36.99257],[-121.63964,36.99339],[-121.64352,36.99828],[-121.63934,37.00017],[-121.63793,37.00364],[-121.63273,37.00412],[-121.63117,37.00809],[-121.6293,37.00794],[-121.6299,37.01197],[-121.63163,37.01276],[-121.63117,37.01346],[-121.62917,37.01358],[-121.6266,37.01217],[-121.62662743034676,37.01232831228703],[-121.63,37.0188],[-121.6374,37.0217],[-121.6374,37.0279],[-121.6441,37.028],[-121.6451,37.0297],[-121.6562,37.03],[-121.6574,37.0335],[-121.6532,37.0459],[-121.6541,37.0482],[-121.6606,37.0544],[-121.6629,37.0598],[-121.6534,37.085],[-121.6566,37.0853],[-121.6595,37.0888],[-121.6714,37.0949],[-121.6723,37.1018],[-121.6768,37.1071],[-121.6791,37.1074],[-121.6833,37.1108],[-121.6843,37.1133],[-121.6884,37.1147],[-121.6877,37.1162],[-121.7014,37.1193],[-121.7053,37.126],[-121.7126,37.1234],[-121.7206,37.1272],[-121.7333,37.1265],[-121.7365,37.1358],[-121.7357,37.1399],[-121.7381,37.145],[-121.7408,37.1483],[-121.7489,37.1521],[-121.74898094810769,37.15315232539992],[-121.74921,37.15315],[-121.74933,37.15411],[-121.74906330642202,37.154222983486235],[-121.7495,37.1599],[-121.75109754060699,37.16107851356253],[-121.7538,37.15948],[-121.75691,37.15576],[-121.75516,37.15294],[-121.76054,37.15257],[-121.76131,37.14966],[-121.76538,37.14739],[-121.77257,37.14814],[-121.77344,37.14731],[-121.76345,37.13978],[-121.76651,37.1376],[-121.76215,37.13435],[-121.77565,37.12314],[-121.80295,37.13671],[-121.79284,37.14422],[-121.79216,37.14379],[-121.78132,37.14978],[-121.78327,37.15056],[-121.78599,37.1502],[-121.78589,37.15847],[-121.78165,37.15795],[-121.77263,37.16905],[-121.76966,37.16618],[-121.76487,37.1636],[-121.76019,37.16263],[-121.75754,37.16404],[-121.75670244094488,37.16936992125984],[-121.7589,37.1723],[-121.75917134487351,37.1734089747004],[-121.76048,37.17774],[-121.76149,37.17663],[-121.76403821782178,37.1779102640264],[-121.7638,37.1775],[-121.76438398058252,37.17808398058252],[-121.76563,37.17871],[-121.76636,37.17842],[-121.76611,37.17768],[-121.76802,37.1779],[-121.76801396766875,37.17855149177538],[-121.76966511073732,37.17936436220914],[-121.77012,37.17947],[-121.77010361294072,37.17958024021697],[-121.7738,37.1814],[-121.7733233944954,37.18321110091743],[-121.77465,37.18299],[-121.77635605363984,37.183891494252876],[-121.7764,37.1839],[-121.7761,37.1825],[-121.7809591925945,37.18275574697866],[-121.78299414376909,37.18174915348321],[-121.78409787234042,37.18077787234043],[-121.78418374760994,37.18064359464627],[-121.7827,37.1812],[-121.78269955316938,37.18119746795982],[-121.78267,37.18121],[-121.78257645669291,37.180499921259845],[-121.78240564048275,37.17953196273555],[-121.77958,37.17902],[-121.77969234042553,37.1790164893617],[-121.7796,37.179],[-121.7853,37.1788],[-121.7852,37.1755],[-121.78446363636364,37.17545090909091],[-121.78366,37.17542],[-121.78608285714286,37.17341428571429],[-121.7879,37.1719],[-121.79345028698148,37.17215815288286],[-121.79482,37.17187],[-121.79600813289402,37.17227712246019],[-121.7965,37.1723],[-121.7986,37.171],[-121.7998,37.1682],[-121.8035,37.1656],[-121.7987,37.1571],[-121.7997,37.1569],[-121.7992,37.1554],[-121.8019,37.1564],[-121.8053,37.153],[-121.8132,37.1537],[-121.8148,37.1517],[-121.8172,37.1427],[-121.8238,37.1386],[-121.8265,37.1275],[-121.8293,37.1251],[-121.8295,37.1173],[-121.8327,37.1122],[-121.8443,37.111],[-121.8456,37.1084],[-121.8419,37.1096],[-121.8444,37.1067],[-121.8482,37.1056]]]}},{"type":"Feature","properties":{"GEOID":"0608593175","NAME":"South Santa Clara Valley","COUNTY":"085"},"geometry":{"type":"MultiPolygon","coordinates":[[[[-121.7062,37.1261],[-121.7048,37.1255],[-121.7012,37.1192],[-121.6877,37.1162],[-121.6884,37.1147],[-121.6843,37.1133],[-121.6831,37.1107],[-121.6743,37.1046],[-121.6722,37.1017],[-121.6714,37.0949],[-121.6595,37.0888],[-121.6566,37.0853],[-121.6534,37.085],[-121.6629,37.0598],[-121.6606,37.0544],[-121.6541,37.0482],[-121.6532,37.0459],[-121.6574,37.0335],[-121.6562,37.03],[-121.6451,37.0297],[-121.6441,37.028],[-121.6374,37.0279],[-121.6374,37.0217],[-121.63,37.0188],[-121.62662743034676,37.01232831228703],[-121.62695,37.01419],[-121.62842,37.01619],[-121.62815,37.02066],[-121.62365,37.02075],[-121.62385,37.02774],[-121.61639,37.02793],[-121.61655,37.03507],[-121.60458,37.0354],[-121.60485,37.03984],[-121.59763,37.03772],[-121.59801,37.02886],[-121.59443,37.02882],[-121.59442,37.0278],[-121.5916,37.02721],[-121.58998,37.02721],[-121.58999,37.02794],[-121.58673,37.02781],[-121.58849,37.03224],[-121.5905,37.0323],[-121.59072,37.0345],[-121.58309,37.03537],[-121.58455,37.03823],[-121.58752,37.03758],[-121.58909,37.04079],[-121.58619,37.04143],[-121.58882,37.04656],[-121.59614,37.04501],[-121.59696,37.04658],[-121.5893,37.04823],[-121.58148,37.03301],[-121.57726,37.03447],[-121.5768,37.03356],[-121.57471,37.0343],[-121.5779,37.04048],[-121.57723,37.04156],[-121.5781,37.04362],[-121.57736,37.04382],[-121.57428,37.03737],[-121.57202,37.0381],[-121.57248,37.03891],[-121.57136,37.03929],[-121.56711,37.03215],[-121.56965,37.0312],[-121.56883,37.02981],[-121.56849,37.02922],[-121.56598,37.03017],[-121.56267,37.02458],[-121.55827,37.02627],[-121.55953,37.02842],[-121.55585,37.02977],[-121.55422,37.02696],[-121.56205,37.024],[-121.55456,37.01432],[-121.55745,37.01285],[-121.55629,37.01105],[-121.5544,37.0115],[-121.553,37.00969],[-121.54182,37.0068],[-121.53792,37.0032],[-121.53452,37.00273],[-121.53572,37.00043],[-121.53512,36.99831],[-121.53888,36.9986],[-121.53642,36.99373],[-121.53998,36.99697],[-121.54626,36.99402],[-121.54573,36.99334],[-121.55107,36.99067],[-121.54664,36.985],[-121.54011,36.98623],[-121.5318,36.99041],[-121.53119,36.99078],[-121.53311,36.9942],[-121.53034,36.99507],[-121.52455,36.98882],[-121.52733,36.98711],[-121.52442,36.98506],[-121.51869,36.97863],[-121.52315,36.97614],[-121.52498,36.97831],[-121.52849,36.9751],[-121.53188,36.97805],[-121.53055,36.97904],[-121.53346,36.98237],[-121.54794,36.97351],[-121.55202,36.9764],[-121.55573,36.9763],[-121.55861,36.98182],[-121.56145,36.99043],[-121.56836,36.98964],[-121.57001,36.99182],[-121.57143,36.99198],[-121.57344,36.99114],[-121.57341,36.98279],[-121.57121,36.98078],[-121.56866,36.97631],[-121.57287,36.97695],[-121.57471,36.97845],[-121.57634,36.97787],[-121.57926,36.9795],[-121.58677,36.97236],[-121.61638601687991,36.988537282873565],[-121.6163,36.982],[-121.6216,36.9768],[-121.6043,36.9705],[-121.6008,36.9665],[-121.5932,36.9622],[-121.5927,36.9591],[-121.5852,36.9569],[-121.5828,36.9585],[-121.5803,36.9529],[-121.5724,36.9477],[-121.5685,36.9483],[-121.5654,36.9458],[-121.5526,36.9429],[-121.5521,36.9353],[-121.5469,36.9279],[-121.548,36.9174],[-121.5401,36.9207],[-121.5391,36.9229],[-121.5409,36.9252],[-121.5392,36.9273],[-121.5236,36.9371],[-121.5216,36.9402],[-121.5138,36.9452],[-121.5117,36.9493],[-121.5121,36.9526],[-121.5102,36.9541],[-121.5103,36.9565],[-121.5124,36.9588],[-121.5094,36.96],[-121.5081,36.9636],[-121.5054,36.9641],[-121.5046,36.9678],[-121.5018,36.9716],[-121.4889,36.9831],[-121.4712,36.978],[-121.4861,37.0012],[-121.488,37.0016],[-121.4947,37.0165],[-121.4902,37.0167],[-121.49,37.0153],[-121.4839,37.0131],[-121.4767,37.0039],[-121.4745,37.0043],[-121.4748,37.0076],[-121.4681,37.0071],[-121.465,37.0154],[-121.4585,37.02],[-121.4562,37.0245],[-121.4557,37.0275],[-121.4579,37.0332],[-121.4557,37.034],[-121.4585,37.0431],[-121.465,37.0492],[-121.47,37.0601],[-121.478,37.0726],[-121.4834,37.0741],[-121.4884,37.0722],[-121.4898,37.0739],[-121.4887,37.0767],[-121.4913,37.0774],[-121.4971,37.0772],[-121.4999,37.0738],[-121.5023,37.0728],[-121.5114,37.0765],[-121.5281,37.0791],[-121.5296,37.0827],[-121.5308,37.0827],[-121.5292,37.0835],[-121.5347,37.0868],[-121.5446,37.0984],[-121.5457,37.1086],[-121.5485,37.1128],[-121.5493,37.119],[-121.5529,37.1211],[-121.5542,37.126],[-121.5579,37.1285],[-121.5586,37.1317],[-121.5748,37.1458],[-121.5796,37.1535],[-121.585,37.1546],[-121.5899,37.1533],[-121.5952,37.1537],[-121.6039,37.1598],[-121.613,37.162],[-121.6195,37.1693],[-121.6214,37.1701],[-121.6247713265306,37.16757150510204],[-121.62485,37.16687],[-121.63198016109199,37.16537192941466],[-121.631,37.1649],[-121.63324691471571,37.16475830267559],[-121.63351,37.16308],[-121.6301,37.16175],[-121.62914,37.15789],[-121.63294,37.15523],[-121.63733,37.15688],[-121.64237,37.15127],[-121.64046,37.14921],[-121.64936,37.14222],[-121.64694,37.14022],[-121.64577,37.14111],[-121.64338,37.13904],[-121.64296,37.13937],[-121.64233,37.1399],[-121.64425,37.14146],[-121.64325,37.14219],[-121.64162,37.14072],[-121.63617,37.14489],[-121.63683,37.14542],[-121.63577,37.14626],[-121.63993,37.14963],[-121.6357,37.153],[-121.63491,37.15237],[-121.63666,37.15029],[-121.63303,37.14727],[-121.64064,37.14129],[-121.63634,37.1368],[-121.63445,37.13832],[-121.63196,37.13544],[-121.62992,37.13623],[-121.63058,37.13733],[-121.62852,37.13811],[-121.63144,37.14067],[-121.62385,37.14665],[-121.61439,37.13888],[-121.61191,37.14045],[-121.61384,37.14203],[-121.60378,37.14991],[-121.61716,37.15794],[-121.6168,37.16243],[-121.61178,37.15919],[-121.61187,37.15816],[-121.6073,37.15674],[-121.60502,37.15411],[-121.60327,37.15451],[-121.60374,37.15395],[-121.60294,37.15279],[-121.60022,37.15129],[-121.59849,37.14899],[-121.59675,37.14832],[-121.59342,37.14988],[-121.59358,37.14817],[-121.59473,37.14783],[-121.59366,37.14754],[-121.59429,37.14426],[-121.59149,37.14899],[-121.59275,37.14953],[-121.59124,37.14933],[-121.59054,37.15117],[-121.58518,37.1527],[-121.58417,37.13908],[-121.58329,37.1375],[-121.58507,37.13862],[-121.58564,37.138],[-121.58672,37.13834],[-121.58739,37.13809],[-121.58665,37.13677],[-121.59007,37.13548],[-121.58999,37.1349],[-121.59755,37.13272],[-121.59833,37.13367],[-121.60029,37.13299],[-121.59305,37.12088],[-121.58878,37.12248],[-121.58325,37.11183],[-121.58462,37.11123],[-121.58389,37.10983],[-121.58928,37.10789],[-121.59541,37.12001],[-121.5937,37.12047],[-121.60096,37.13275],[-121.6025,37.13217],[-121.6031,37.13319],[-121.61053,37.13034],[-121.61416,37.13648],[-121.62726,37.13147],[-121.62351,37.12518],[-121.62508,37.12458],[-121.62395,37.12271],[-121.62555,37.12205],[-121.62288,37.12058],[-121.62917,37.11814],[-121.62538,37.11715],[-121.63411,37.11382],[-121.63228,37.11201],[-121.6303,37.11275],[-121.62897,37.11072],[-121.63039,37.11017],[-121.62976,37.10956],[-121.63517,37.10763],[-121.63176,37.10563],[-121.63125,37.10623],[-121.63258,37.10687],[-121.62861,37.1082],[-121.6278,37.10742],[-121.6306,37.10489],[-121.62906,37.10484],[-121.62716,37.10679],[-121.62104,37.10085],[-121.62321,37.10005],[-121.63065,37.10469],[-121.63384,37.10208],[-121.63778,37.10512],[-121.6417,37.10012],[-121.63438,37.09552],[-121.63298,37.09695],[-121.62956,37.09474],[-121.62429,37.09698],[-121.62078,37.09589],[-121.61835,37.097],[-121.61645,37.09527],[-121.61953,37.09526],[-121.62808,37.09269],[-121.62957,37.09201],[-121.62885,37.09057],[-121.63022,37.08906],[-121.63596,37.08893],[-121.63889,37.09131],[-121.64394,37.09108],[-121.64511,37.08982],[-121.64807,37.09195],[-121.64631,37.0942],[-121.6493,37.09837],[-121.65054,37.09753],[-121.65149,37.09847],[-121.65323,37.09733],[-121.65739,37.10139],[-121.65697,37.10171],[-121.65831,37.10395],[-121.65632,37.10494],[-121.65311,37.10262],[-121.65116,37.10456],[-121.65233,37.10526],[-121.64712,37.10929],[-121.64806,37.11131],[-121.64914,37.11071],[-121.65231,37.11631],[-121.65123,37.1167],[-121.65237,37.11868],[-121.6584,37.1168],[-121.65906,37.11806],[-121.66182,37.11708],[-121.66847,37.11721],[-121.66592,37.11599],[-121.66424,37.11644],[-121.66413,37.11456],[-121.66977,37.11713],[-121.67205,37.11701],[-121.67276,37.11832],[-121.67108,37.11884],[-121.67312,37.1208],[-121.67035,37.12918],[-121.66879,37.13133],[-121.67282,37.13514],[-121.67622,37.13281],[-121.67494,37.13158],[-121.67662,37.13015],[-121.67454,37.12809],[-121.6775,37.12714],[-121.68084,37.12465],[-121.67685,37.12305],[-121.67993,37.12077],[-121.68242,37.12005],[-121.69,37.12037],[-121.69732,37.12303],[-121.69805,37.12401],[-121.69702,37.12915],[-121.69066,37.12516],[-121.68712,37.12464],[-121.68652,37.12587],[-121.69313,37.1318],[-121.69312,37.13377],[-121.67251,37.14412],[-121.67038,37.14211],[-121.66898,37.14281],[-121.67053,37.1457],[-121.67857,37.15027],[-121.68145,37.15088],[-121.67914,37.15295],[-121.6811,37.15493],[-121.67839669514295,37.156765454220285],[-121.68006,37.15841],[-121.67674388176825,37.160728820298196],[-121.6902,37.1516],[-121.6959,37.1452],[-121.6991,37.1454],[-121.6976,37.1434],[-121.6981,37.1392],[-121.7002,37.1366],[-121.7002,37.1332],[-121.7062,37.1261]]],[[[-121.67602420246982,37.156746084560105],[-121.67388,37.15469],[-121.67225,37.15579],[-121.67440898481925,37.15788028984773],[-121.67602420246982,37.156746084560105]]],[[[-121.67077,37.15647],[-121.66523,37.15162],[-121.65465,37.15862],[-121.65422,37.16063],[-121.64963372235489,37.16846632778083],[-121.6499,37.1687],[-121.6518,37.1689],[-121.6554,37.1649],[-121.659,37.1656],[-121.6633,37.1624],[-121.6675,37.167],[-121.66858993544624,37.16626057242854],[-121.66558,37.16408],[-121.6690967589578,37.16161053304993],[-121.66684,37.15961],[-121.67077,37.15647]]]]}},{"type":"Feature","properties":{"GEOID":"0608593660","NAME":"West Santa Clara","COUNTY":"085"},"geometry":{"type":"MultiPolygon","coordinates":[[[[-122.2026,37.3632],[-122.2024,37.36],[-122.20238017779215,37.359972626474864],[-122.20259896930095,37.363204773764025],[-122.2026,37.3632]]],[[[-122.20259139885808,37.36323983686786],[-122.20149,37.36578],[-122.20064,37.37207],[-122.19832,37.37258],[-122.19778,37.37358],[-122.19584,37.37297],[-122.19288,37.37986],[-122.1885,37.37848],[-122.18632,37.37988],[-122.18758,37.38063],[-122.18688,37.38155],[-122.18801,37.38211],[-122.1878,37.3827],[-122.18898,37.38354],[-122.18828,37.38384],[-122.18936,37.38475],[-122.18664,37.38391],[-122.18342,37.38459],[-122.18549,37.38774],[-122.17237,37.39049],[-122.17023,37.39016],[-122.16988669278867,37.391602177573986],[-122.1756,37.3933],[-122.189,37.4064],[-122.1943,37.4089],[-122.1918,37.3972],[-122.19,37.3949],[-122.1905,37.3853],[-122.2007,37.372],[-122.20259139885808,37.36323983686786]]],[[[-122.19633098901099,37.3516189848247],[-122.1961,37.3513],[-122.19527903553299,37.3473776142132],[-122.19606,37.35131],[-122.19633098901099,37.3516189848247]]],[[[-122.19520541598342,37.34702587636521],[-122.1952,37.347],[-122.186,37.3387],[-122.18449458128079,37.3360184729064],[-122.18595,37.3387],[-122.19520541598342,37.34702587636521]]],[[[-122.1931,37.3183],[-122.1866,37.3155],[-122.1856,37.3117],[-122.1838,37.31],[-122.1818,37.3096],[-122.1758,37.3127],[-122.17300783216783,37.312335804195804],[-122.17674,37.31294],[-122.17891,37.31254],[-122.17933,37.3135],[-122.1787,37.31402],[-122.17967,37.31595],[-122.1793,37.31775],[-122.18167,37.32214],[-122.18366,37.32364],[-122.18535480283114,37.32373415571284],[-122.1865,37.322],[-122.1931,37.3183]]],[[[-122.18518379415055,37.32399311171488],[-122.18247,37.32648],[-122.18095857694429,37.326347335907336],[-122.183,37.3273],[-122.18518379415055,37.32399311171488]]],[[[-122.1789698,37.32936877142857],[-122.17513139805826,37.32572976699029],[-122.17507,37.32574],[-122.1789698,37.32936877142857]]],[[[-122.1786161105815,37.32525418493804],[-122.17855,37.32516],[-122.176885,37.3254375],[-122.1785,37.3252],[-122.1786161105815,37.32525418493804]]],[[[-122.17559,37.35877],[-122.17264,37.35792],[-122.17213,37.35961],[-122.1676,37.35883],[-122.16903,37.35687],[-122.16578,37.3553],[-122.16528,37.35353],[-122.17221,37.35274],[-122.1725,37.33847],[-122.16804,37.33825],[-122.16847,37.33085],[-122.16012,37.33085],[-122.16005,37.32346],[-122.15049,37.3236],[-122.1505,37.32777],[-122.14616,37.3279],[-122.14622,37.33105],[-122.13222,37.3311],[-122.13274,37.30953],[-122.13498,37.30164],[-122.13517,37.29365],[-122.15195,37.29438],[-122.15257,37.28822],[-122.15301168479391,37.28865323727052],[-122.1511,37.2835],[-122.1487,37.281],[-122.1505,37.2759],[-122.1484,37.2755],[-122.1442,37.2702],[-122.1358,37.2657],[-122.1317,37.2609],[-122.1284,37.2592],[-122.1239,37.2597],[-122.1216,37.2586],[-122.1056,37.2407],[-122.1042,37.2343],[-122.0995,37.2332],[-122.0934,37.2292],[-122.0927,37.2254],[-122.0898,37.2233],[-122.0788,37.223],[-122.0766,37.2202],[-122.07,37.2167],[-122.0659,37.2104],[-122.0628,37.2104],[-122.0594,37.213],[-122.0551,37.2125],[-122.0546,37.21],[-122.0475,37.2049],[-122.0441,37.2005],[-122.0319,37.2041],[-122.0286,37.2074],[-122.0303,37.2091],[-122.0288,37.2175],[-122.0333,37.2178],[-122.0334,37.2196],[-122.0372,37.2232],[-122.0368,37.2242],[-122.0399,37.2265],[-122.039,37.2304],[-122.0377,37.2314],[-122.0409,37.2332],[-122.0459,37.2317],[-122.0485,37.2371],[-122.0482,37.2396],[-122.0551,37.2456],[-122.05318722188179,37.25012111191577],[-122.05928,37.25194],[-122.05928128234646,37.25232812352971],[-122.0643,37.2521],[-122.0681,37.2578],[-122.0753,37.261],[-122.0838,37.2586],[-122.0835,37.2619],[-122.0791,37.2654],[-122.0679,37.2654],[-122.06789866341643,37.26552964860638],[-122.06857,37.27196],[-122.06783242531831,37.271954744123406],[-122.0678,37.2751],[-122.0696,37.2753],[-122.0709,37.2782],[-122.0718,37.2775],[-122.071,37.279],[-122.0751,37.2817],[-122.0753,37.2838],[-122.0773,37.2844],[-122.0779,37.2879],[-122.0799,37.2882],[-122.0806,37.2944],[-122.0872,37.2973],[-122.0899,37.3006],[-122.0962,37.3009],[-122.0936,37.3061],[-122.09199389458553,37.308011398179204],[-122.09199,37.3081],[-122.09191956765625,37.30809985336778],[-122.08752048920385,37.31333512028632],[-122.08759,37.31536],[-122.08582347644058,37.3153547057236],[-122.0815,37.3205],[-122.08148200459067,37.320514621270085],[-122.0815,37.32053],[-122.08046968152867,37.321337133757964],[-122.0783,37.3231],[-122.07820212270133,37.323113500317056],[-122.07813,37.32317],[-122.08256,37.32371],[-122.08942,37.32671],[-122.08283,37.33112],[-122.08398,37.3314],[-122.08464,37.33407],[-122.0874,37.33369],[-122.08731,37.33296],[-122.09095,37.33662],[-122.08972818580948,37.34041804256125],[-122.1031,37.3482],[-122.10757331750327,37.35286367143958],[-122.10954,37.35163],[-122.11072,37.35004],[-122.11018,37.34967],[-122.10928,37.35082],[-122.10259,37.34547],[-122.10099,37.34683],[-122.10018,37.34645],[-122.0998,37.34514],[-122.0983,37.3446],[-122.1007,37.34184],[-122.09982,37.34105],[-122.09814,37.34108],[-122.09683,37.34202],[-122.09459,37.34007],[-122.09558,37.33937],[-122.09494,37.33901],[-122.09556,37.33865],[-122.09665,37.33905],[-122.09624,37.33997],[-122.09852,37.34015],[-122.09964,37.33969],[-122.09991,37.33884],[-122.09928,37.33867],[-122.09993,37.33783],[-122.10412215036136,37.338269121895394],[-122.10297,37.33946],[-122.10497,37.3394],[-122.10503,37.33869],[-122.10426162243004,37.3382837313998],[-122.10709,37.33858],[-122.10633,37.33661],[-122.10934,37.33781],[-122.11398,37.33755],[-122.11401,37.34013],[-122.12572,37.34263],[-122.12411,37.34686],[-122.12607,37.34749],[-122.12781,37.3468],[-122.12885,37.3489],[-122.13444,37.34899],[-122.13585,37.34624],[-122.13722,37.34896],[-122.14163,37.34891],[-122.14153,37.34608],[-122.15069,37.34601],[-122.15081,37.35243],[-122.15424,37.35444],[-122.15987,37.35417],[-122.16632,37.35798],[-122.16452,37.35802],[-122.16567,37.3592],[-122.17009,37.36075],[-122.17009087146492,37.36087026215969],[-122.17297,37.36108],[-122.17559,37.35877]]],[[[-122.17222,37.36442],[-122.16879422974912,37.36317517069372],[-122.167,37.36589],[-122.16877,37.36699],[-122.17134,37.36699],[-122.16782,37.3775],[-122.17222,37.36442]]],[[[-122.17186,37.37975],[-122.17144,37.38144],[-122.16910273139537,37.391369207914664],[-122.16911110229722,37.39137169549399],[-122.17186,37.37975]]],[[[-122.17172,37.36291],[-122.17123233430596,37.36267519799917],[-122.16891,37.363],[-122.1687987425,37.3631683425],[-122.17172,37.36291]]],[[[-122.1711545512614,37.312035778956314],[-122.1666,37.3056],[-122.1621,37.3042],[-122.16271551724138,37.30309206896552],[-122.16207,37.30423],[-122.16658,37.30562],[-122.17081,37.31198],[-122.1711545512614,37.312035778956314]]],[[[-122.1668,37.2952],[-122.1656919556541,37.29486886031042],[-122.16678373995416,37.29522181225662],[-122.1668,37.2952]]],[[[-122.16670406226463,37.29532869696209],[-122.16543,37.29616],[-122.1652533395396,37.29727478842248],[-122.16670406226463,37.29532869696209]]],[[[-122.16382,37.38817],[-122.15962,37.38832],[-122.15509,37.38698],[-122.15462367790795,37.387066470321706],[-122.16346126673106,37.38969273492479],[-122.16382,37.38817]]],[[[-122.16279,37.30078],[-122.16273164542558,37.300728129267185],[-122.16273,37.30073],[-122.16279,37.30078]]],[[[-122.15746860595303,37.292210416439104],[-122.15523006390798,37.29082918836875],[-122.15623,37.29181],[-122.15746860595303,37.292210416439104]]],[[[-122.1036,37.33981],[-122.10257,37.3399],[-122.10316,37.34006],[-122.1036,37.33981]]],[[[-122.09763,37.34055],[-122.09636,37.34019],[-122.09686,37.34079],[-122.09763,37.34055]]],[[[-122.08392,37.33571],[-122.08314,37.3331],[-122.08197,37.33199],[-122.08076,37.33191],[-122.0793,37.3334],[-122.0797,37.33409],[-122.07545862258898,37.332828024170766],[-122.07628,37.33366],[-122.07742701846966,37.33402496042216],[-122.0787,37.334],[-122.08330390548147,37.33667932204249],[-122.08392,37.33571]]],[[[-122.0685168776278,37.33418836025669],[-122.0685,37.3342],[-122.06851384210526,37.33419972858617],[-122.0685168776278,37.33418836025669]]],[[[-122.05280229147571,37.25082859761687],[-122.05029179649974,37.25156337663422],[-122.05029346945138,37.25166057512469],[-122.05265996705107,37.25112273476112],[-122.05280229147571,37.25082859761687]]]]}},{"type":"Feature","properties":{"GEOID":"0608591602","NAME":"Lexington Hills","COUNTY":"085"},"geometry":{"type":"Polygon","coordinates":[[[-122.0441,37.2005],[-122.0408,37.1952],[-122.0307,37.19],[-122.0326,37.1861],[-122.0319,37.1823],[-122.0294,37.1795],[-122.0289,37.1769],[-122.0265,37.1761],[-122.0276,37.1741],[-122.0256,37.1738],[-122.0277,37.1708],[-122.0256,37.1691],[-122.0262,37.1669],[-122.0159,37.1657],[-122.0138,37.1628],[-122.009,37.1598],[-122.0025,37.1583],[-122,37.1545],[-121.9942,37.1498],[-121.9911,37.1443],[-121.9886,37.1438],[-121.9872,37.1448],[-121.9808,37.1423],[-121.9727,37.1417],[-121.9637,37.1335],[-121.9574,37.1306],[-121.942,37.1264],[-121.932,37.122],[-121.929,37.1234],[-121.9107,37.1133],[-121.9057,37.1132],[-121.9038,37.111],[-121.9011,37.1115],[-121.8948,37.1098],[-121.8948,37.1086],[-121.8923,37.1085],[-121.892,37.1071],[-121.8901,37.1066],[-121.8909,37.1053],[-121.8873,37.1049],[-121.8848,37.1078],[-121.8701,37.1022],[-121.86,37.1042],[-121.8619,37.0993],[-121.8538,37.0984],[-121.8496,37.0991],[-121.8469,37.097],[-121.8441,37.0975],[-121.843,37.1012],[-121.8481,37.1059],[-121.8444,37.1067],[-121.8419,37.1096],[-121.8456,37.1084],[-121.8443,37.111],[-121.8327,37.1122],[-121.8295,37.1173],[-121.8293,37.1251],[-121.8265,37.1275],[-121.8238,37.1386],[-121.8208,37.144],[-121.8235,37.1464],[-121.8211,37.1503],[-121.8293,37.1584],[-121.8314,37.1624],[-121.8401,37.1628],[-121.8428,37.1609],[-121.8509,37.165],[-121.8555,37.1657],[-121.8606,37.1694],[-121.8634,37.1762],[-121.8662,37.1781],[-121.8634,37.1798],[-121.8696,37.1827],[-121.8735,37.1811],[-121.8713,37.1845],[-121.873,37.1951],[-121.8783,37.1986],[-121.8801,37.1985],[-121.884,37.2019],[-121.8965,37.2043],[-121.897,37.2066],[-121.8994941880944,37.20650023247622],[-121.89952,37.20648],[-121.90296666666667,37.20943333333334],[-121.9047,37.2109],[-121.9069,37.2106],[-121.90692645981088,37.21061443262411],[-121.90696,37.21061],[-121.90702410256411,37.210667692307695],[-121.91225595959595,37.21352143250689],[-121.91241,37.21355],[-121.91241690954774,37.21356195351759],[-121.91259165217392,37.2131687826087],[-121.91281,37.21105],[-121.91350360028349,37.21111689936215],[-121.9136,37.2109],[-121.922,37.2047],[-121.9236,37.2008],[-121.9279,37.1971],[-121.9282,37.1947],[-121.9555,37.1978],[-121.9722,37.2033],[-121.97628151769878,37.20218244158248],[-121.97627,37.20183],[-121.97781536043068,37.20176246083445],[-121.9806,37.201],[-121.9833,37.1989],[-121.9853,37.2008],[-121.9901,37.2014],[-121.9917,37.2004],[-121.9914,37.1982],[-121.993,37.198],[-121.992,37.2035],[-121.9949,37.202],[-122.0008,37.2044],[-122.0054,37.2081],[-122.0074,37.2122],[-122.0123,37.2144],[-122.0247,37.2158],[-122.0252,37.215],[-122.0287,37.2175],[-122.0303,37.2091],[-122.0286,37.2074],[-122.0319,37.2041],[-122.0441,37.2005]]]}}]}