{"type":"FeatureCollection","features":[{"type":"Feature","properties":{"GEOID":"0608793265","NAME":"Summit Road","COUNTY":"087"},"geometry":{"type":"Polygon","coordinates":[[[-121.9853,37.142],[-121.9841,37.1357],[-121.9738,37.1261],[-121.9729,37.1234],[-121.9761,37.1203],[-121.9746,37.114],[-121.9772,37.1081],[-121.9749,37.1051],[-121.9777,37.1017],[-121.9751,37.0974],[-121.9785,37.0927],[-121.9775,37.0895],[-121.9788,37.086],[-121.9767,37.0823],[-121.9729,37.0855],[-121.9686,37.0852],[-121.9662,37.0834],[-121.9649,37.0803],[-121.9608,37.0782],[-121.9586,37.0713],[-121.9593,37.0706],[-121.9556,37.0693],[-121.9534,37.0705],[-121.9532,37.0694],[-121.9504,37.0687],[-121.9488,37.0656],[-121.946,37.0644],[-121.9418,37.0561],[-121.9397,37.0548],[-121.938,37.0504],[-121.938,37.0445],[-121.9313,37.0474],[-121.9173,37.0609],[-121.9137,37.063],[-121.9109,37.0607],[-121.909,37.0602],[-121.9074,37.0613],[-121.9041,37.0596],[-121.8986,37.0548],[-121.8959,37.0562],[-121.8924,37.0544],[-121.8892,37.0556],[-121.8876,37.0546],[-121.8861,37.0551],[-121.8872,37.0561],[-121.887,37.0594],[-121.885,37.0584],[-121.8799,37.0598],[-121.8775,37.059],[-121.8753,37.0604],[-121.8757,37.0649],[-121.8734,37.066],[-121.8734,37.0685],[-121.871,37.0705],[-121.8711,37.072],[-121.8689,37.0727],[-121.8684,37.0765],[-121.86,37.076],[-121.8559,37.0708],[-121.8548,37.0716],[-121.8523,37.0703],[-121.8498,37.0706],[-121.8506,37.0691],[-121.8498,37.0675],[-121.8442,37.0684],[-121.841,37.0651],[-121.8421,37.0675],[-121.8412,37.0679],[-121.8416,37.0707],[-121.8301,37.0651],[-121.83,37.067],[-121.8254,37.0678],[-121.817,37.0648],[-121.813,37.065],[-121.8092,37.069],[-121.8127,37.0754],[-121.8172,37.0779],[-121.8165,37.0804],[-121.8182,37.0837],[-121.8236,37.086],[-121.8242,37.0878],[-121.8304,37.0881],[-121.8342,37.0912],[-121.8382,37.0917],[-121.8386,37.0932],[-121.8441,37.0947],[-121.8446,37.0967],[-121.8491,37.099],[-121.8619,37.0993],[-121.86,37.1042],[-121.8701,37.1022],[-121.8848,37.1078],[-121.8873,37.1049],[-121.8909,37.1053],[-121.8901,37.1066],[-121.892,37.1071],[-121.8923,37.1085],[-121.8948,37.1086],[-121.8948,37.1098],[-121.9011,37.1115],[-121.9038,37.111],[-121.9057,37.1132],[-121.9107,37.1133],[-121.929,37.1234],[-121.932,37.122],[-121.942,37.1264],[-121.9574,37.1306],[-121.9637,37.1335],[-121.9727,37.1417],[-121.9808,37.1423],[-121.9841,37.1437],[-121.9853,37.142]]]}},{"type":"Feature","properties":{"GEOID":"0608792900","NAME":"Santa Cruz","COUNTY":"087"},"geometry":{"type":"MultiPolygon","coordinates":[[[[-122.1059,36.9172],[-122.0764,36.9102],[-122.0683,36.875],[-122.0519,36.8196],[-121.9683,36.8502],[-121.9388,36.8735],[-121.8659,36.9374],[-121.8668,36.9407],[-121.8636,36.9442],[-121.8643,36.9564],[-121.8627,36.9606],[-121.8733,36.9703],[-121.8625,36.9848],[-121.8592,36.9866],[-121.8326,36.9872],[-121.8313,36.9898],[-121.8264,36.9898],[-121.8159,36.9943],[-121.8165,36.999],[-121.8191,37.0011],[-121.816,37.0049],[-121.8191,37.0065],[-121.8188,37.0081],[-121.8205,37.0103],[-121.8291,37.0128],[-121.8306,37.0143],[-121.833,37.0137],[-121.834,37.0172],[-121.8378,37.019],[-121.8368,37.0208],[-121.8433,37.022],[-121.8435,37.0237],[-121.8421,37.0244],[-121.8445,37.0274],[-121.8442,37.0292],[-121.8408,37.0298],[-121.8414,37.0282],[-121.8398,37.0269],[-121.8391,37.0288],[-121.8368,37.0241],[-121.8324,37.0227],[-121.828,37.0188],[-121.8191,37.0166],[-121.8274,37.0224],[-121.8268,37.0237],[-121.8308,37.0318],[-121.8301,37.0336],[-121.8404,37.0378],[-121.8441,37.0413],[-121.8434,37.0424],[-121.8443,37.0442],[-121.8417,37.0466],[-121.8412,37.0496],[-121.8384,37.0509],[-121.8364,37.054],[-121.8386,37.0583],[-121.8403,37.0591],[-121.8402,37.0632],[-121.8413,37.0656],[-121.8442,37.0684],[-121.8498,37.0675],[-121.8506,37.0691],[-121.8498,37.0706],[-121.8523,37.0703],[-121.8548,37.0716],[-121.8559,37.0708],[-121.861,37.0764],[-121.869,37.0763],[-121.8689,37.0727],[-121.8711,37.072],[-121.871,37.0705],[-121.8734,37.0685],[-121.8734,37.066],[-121.8757,37.0649],[-121.8754,37.0601],[-121.885,37.0584],[-121.887,37.0594],[-121.8872,37.0561],[-121.8861,37.0551],[-121.8892,37.0556],[-121.8921,37.0543],[-121.8959,37.0562],[-121.8986,37.0548],[-121.9041,37.0596],[-121.9074,37.0613],[-121.909,37.0602],[-121.9109,37.0607],[-121.9137,37.063],[-121.9173,37.0609],[-121.9313,37.0474],[-121.9373,37.0444],[-121.9388,37.0458],[-121.938,37.0504],[-121.9397,37.0549],[-121.9418,37.0561],[-121.946,37.0644],[-121.9489,37.0656],[-121.9504,37.0687],[-121.9536,37.0705],[-121.9556,37.0693],[-121.9593,37.0706],[-121.9586,37.0713],[-121.9608,37.0782],[-121.9649,37.0803],[-121.9662,37.0834],[-121.969,37.0854],[-121.9729,37.0855],[-121.9767,37.0823],[-121.979,37.0867],[-121.9775,37.0895],[-121.9784,37.0929],[-121.9751,37.0974],[-121.9766,37.0999],[-121.9875,37.103],[-121.9909,37.098],[-122.002,37.0971],[-122.0067,37.0924],[-122.0106,37.0914],[-122.013,37.0931],[-122.0133,37.0918],[-122.016,37.0915],[-122.0184,37.0933],[-122.0177,37.0941],[-122.019,37.0962],[-122.0207,37.0957],[-122.0209,37.0936],[-122.0234,37.0957],[-122.0288,37.0954],[-122.0307,37.0966],[-122.0331,37.0953],[-122.0379,37.0856],[-122.0408,37.0848],[-122.0429,37.0826],[-122.0434,37.0762],[-122.0461,37.071],[-122.0438,37.0616],[-122.0457,37.0563],[-122.054,37.0548],[-122.0605,37.0558],[-122.0643,37.0481],[-122.0683,37.0513],[-122.0733,37.0531],[-122.073,37.0441],[-122.0754,37.0439],[-122.0821,37.0391],[-122.0836,37.0358],[-122.0915,37.0345],[-122.0942,37.0357],[-122.0972,37.0335],[-122.1019,37.0367],[-122.1003,37.0339],[-122.1023,37.0334],[-122.1033,37.0309],[-122.0988,37.0264],[-122.0896,37.0241],[-122.076,37.0152],[-122.0749,37.0068],[-122.07224378764597,37.003258383527964],[-122.05694,37.00341],[-122.05101,37.00157],[-122.05246,37.00982],[-122.04967,37.01085],[-122.04858,37.00874],[-122.04592,37.00714],[-122.04563,37.00581],[-122.04342,37.00592],[-122.03788,36.99757],[-122.03647,36.99813],[-122.03647,36.99675],[-122.0339,36.99542],[-122.03173,36.9911],[-122.02812,36.9922],[-122.02724,36.99107],[-122.01761,36.99136],[-122.01753,36.99453],[-122.0157,36.99215],[-122.01492,36.9929],[-122.01519,36.99615],[-122.01782,36.99574],[-122.01868,36.99737],[-122.01696,36.99922],[-122.01722,37.00009],[-122.02071,37.00132],[-122.02013,37.0031],[-122.01863,37.00339],[-122.01854,37.00242],[-122.01003,37.00246],[-122.01095,37.00134],[-122.00981,37.0001],[-122.00972,36.99817],[-122.00562,36.99837],[-122.00216,37.00243],[-122.00187,37.00708],[-121.99762,37.00696],[-121.99686,37.00975],[-121.99406,37.00959],[-121.99612,37.00622],[-121.99228,37.00625],[-121.99105,36.99697],[-121.98871,36.99531],[-121.98744,36.9953],[-121.98828,36.99509],[-121.98675,36.99175],[-121.98981,36.9865],[-121.99483,36.98346],[-121.99442,36.98278],[-121.99613,36.98124],[-121.99433,36.97941],[-122.00027,36.96917],[-122.00174,36.96815],[-122.00012,36.96442],[-122.00059,36.95457],[-122.04086,36.94093],[-122.08524298946604,36.94124994946225],[-122.1059,36.9172]],[[-122.04167,37.03805],[-122.03786,37.04149],[-122.03694,37.04359],[-122.03842,37.04417],[-122.03943,37.04186],[-122.04019,37.04247],[-122.03791,37.04823],[-122.03715,37.04806],[-122.03653,37.04958],[-122.03779,37.05064],[-122.03692,37.05095],[-122.03731,37.05263],[-122.0367,37.05401],[-122.03058,37.05448],[-122.0306,37.05358],[-122.02928,37.05355],[-122.02872,37.05569],[-122.02701,37.05561],[-122.02777,37.05682],[-122.02722,37.05719],[-122.02855,37.05757],[-122.02745,37.0581],[-122.0269,37.0568],[-122.02541,37.05718],[-122.02458,37.05655],[-122.02426,37.05739],[-122.02089,37.0566],[-122.02175,37.0573],[-122.021,37.05904],[-122.0181,37.06191],[-122.01381,37.06279],[-122.01354,37.06427],[-122.01141,37.06496],[-122.01205,37.06519],[-122.01084,37.06767],[-122.01227,37.06817],[-122.01193,37.0688],[-122.01024,37.06875],[-122.00498,37.08063],[-122.00345,37.07918],[-122.00086,37.07949],[-122.00005,37.0771],[-121.99925,37.07697],[-121.99737,37.07714],[-121.99506,37.0786],[-121.99043,37.07746],[-121.99046,37.07677],[-121.98769,37.07855],[-121.98836,37.07987],[-121.98575,37.0799],[-121.98389,37.07655],[-121.98781,37.07515],[-121.98521,37.07413],[-121.98548,37.07178],[-121.98606,37.07187],[-121.98758,37.06897],[-121.9858,37.06862],[-121.9891,37.06499],[-121.9874,37.065],[-121.98763,37.06105],[-121.99263,37.061],[-121.99323,37.0603],[-121.99248,37.05998],[-121.99358,37.05989],[-121.99516,37.0583],[-121.99532,37.05725],[-121.99229,37.05781],[-121.99212,37.05605],[-121.99144,37.05608],[-121.99203,37.05139],[-121.99373,37.05136],[-121.9937,37.05014],[-121.99803,37.05018],[-121.99736,37.05101],[-121.9979,37.05196],[-121.99858,37.05127],[-122.00043,37.05249],[-122.00369,37.05035],[-122.00491,37.04863],[-122.00455,37.04759],[-122.00863,37.04863],[-122.01088,37.04785],[-122.01231,37.04836],[-122.01471,37.04496],[-122.00874,37.04284],[-122.01022,37.042],[-122.01143,37.03991],[-122.01246,37.03613],[-122.01951,37.03549],[-122.01955,37.03398],[-122.02081,37.03395],[-122.02087,37.03316],[-122.02548,37.03286],[-122.03279,37.02918],[-122.03502,37.03123],[-122.03246,37.03369],[-122.02324,37.03712],[-122.02378,37.03883],[-122.02597,37.03959],[-122.02877,37.03845],[-122.0304,37.03939],[-122.03347,37.0362],[-122.03644,37.03748],[-122.03981,37.03568],[-122.04167,37.03805]],[[-122.03537,36.99867],[-122.03364,36.99971],[-122.03485,37.00172],[-122.0329,37.00241],[-122.03177,37.00045],[-122.03104,37.00063],[-122.03537,36.99867]],[[-121.97323,36.9732],[-121.97297,36.97487],[-121.97185,36.97488],[-121.97207,36.97381],[-121.96992,36.97462],[-121.96962,36.97603],[-121.97062,36.97612],[-121.97118,36.9781],[-121.97078,36.97988],[-121.96804,36.98041],[-121.96802,36.97958],[-121.96557,36.97961],[-121.96512,36.98417],[-121.96247,36.98297],[-121.9601,36.98296],[-121.95717,36.98403],[-121.95294,36.98355],[-121.93686,36.98449],[-121.93185,36.98378],[-121.93249,36.98184],[-121.92981,36.98149],[-121.93124,36.97905],[-121.93298,36.97906],[-121.93323,36.97808],[-121.93924,36.97824],[-121.94809,36.97238],[-121.94752,36.97156],[-121.95241,36.96805],[-121.95704,36.96746],[-121.95823,36.96874],[-121.96343,36.96827],[-121.9635,36.96714],[-121.9649,36.96725],[-121.9649,36.96785],[-121.96864,36.96711],[-121.96829,36.96576],[-121.96946,36.96523],[-121.96913,36.9671],[-121.97073,36.96754],[-121.96564,36.96807],[-121.96541,36.96885],[-121.96739,36.96884],[-121.96739,36.96993],[-121.96825,36.96997],[-121.96857,36.97314],[-121.97047,36.97263],[-121.97047,36.97316],[-121.97323,36.9732]]],[[[-122.0843,36.9628],[-122.0813,36.96],[-122.0826,36.9576],[-122.0779,36.9556],[-122.0772,36.9537],[-122.07763083626612,36.9530322037875],[-122.07634,36.95258],[-122.07571,36.95034],[-122.07419,36.95042],[-122.07355,36.94956],[-122.07243,36.95032],[-122.06982,36.94882],[-122.06773,36.94886],[-122.06767,36.95153],[-122.06994,36.95344],[-122.06873,36.95463],[-122.06887,36.95379],[-122.0676,36.95274],[-122.06527,36.9558],[-122.06532,36.95887],[-122.06262,36.95924],[-122.06267,36.96108],[-122.06545,36.96157],[-122.06634,36.965],[-122.0683,36.96498],[-122.07084,36.97247],[-122.07032,36.97757],[-122.06075,36.97799],[-122.06119,36.98065],[-122.05997,36.98065],[-122.06608,36.9845],[-122.0683,36.98693],[-122.07007,36.99331],[-122.06892,36.99568],[-122.06879257142857,36.997893233082706],[-122.0705,36.9934],[-122.0701,36.9862],[-122.0722,36.9843],[-122.0733,36.9767],[-122.0816,36.9675],[-122.0843,36.9628]]],[[[-122.07083785195937,37.00138380261248],[-122.06875174484053,36.998602326454034],[-122.06873,36.99898],[-122.06986,37.00122],[-122.07083785195937,37.00138380261248]]],[[[-122.01492,36.9929],[-122.01428,36.99146],[-122.01169,36.99149],[-122.01169103740185,36.99184479142931],[-122.01392,36.99288],[-122.01309,36.99334],[-122.01169129335464,36.9919323272864],[-122.0117,36.99491],[-122.00999,36.99702],[-122.01205,36.996],[-122.01277,36.9948],[-122.01227,36.99412],[-122.01492,36.9929]]]]}},{"type":"Feature","properties":{"GEOID":"0608793665","NAME":"West Santa Cruz","COUNTY":"087"},"geometry":{"type":"Polygon","coordinates":[[[-122.3177,37.1869],[-122.3118,37.1475],[-122.2894,37.1135],[-122.2994,37.0964],[-122.3139,37.0548],[-122.2903,37.0321],[-122.2764,37.0248],[-122.2657,37.0001],[-122.261,36.9935],[-122.2511,36.9858],[-122.2093,36.9616],[-122.172,36.9427],[-122.1306,36.9253],[-122.1059,36.9172],[-122.08524298946604,36.94124994946225],[-122.08525,36.94125],[-122.08378,36.94363],[-122.07791,36.95313],[-122.07763083626612,36.9530322037875],[-122.0772,36.9537],[-122.0779,36.9556],[-122.0826,36.9576],[-122.0813,36.96],[-122.0843,36.9628],[-122.0816,36.9675],[-122.0733,36.9767],[-122.0722,36.9843],[-122.0701,36.9862],[-122.0705,36.9934],[-122.06875553618488,36.99853647678897],[-122.06874118151072,36.998785794813976],[-122.0699,37.0012],[-122.07002298561152,37.001247302158276],[-122.07183,37.00155],[-122.07223670886076,37.00209873417722],[-122.0725,37.0022],[-122.07294755244756,37.00305780885781],[-122.07309,37.00325],[-122.07304804296007,37.00325041567346],[-122.0749,37.0068],[-122.0752,37.0131],[-122.0773,37.0165],[-122.0896,37.0241],[-122.0953,37.0264],[-122.0987,37.0263],[-122.1033,37.0309],[-122.1072,37.0292],[-122.1087,37.0299],[-122.1101,37.0329],[-122.106,37.0373],[-122.1076,37.0387],[-122.1064,37.0422],[-122.1094,37.0454],[-122.1149,37.0485],[-122.1154,37.0533],[-122.1214,37.0559],[-122.1244,37.059],[-122.1214,37.0615],[-122.1232,37.0639],[-122.1227,37.0673],[-122.1246,37.0706],[-122.1296,37.0733],[-122.1316,37.0775],[-122.1335,37.0786],[-122.1365,37.0877],[-122.1397,37.0909],[-122.138,37.091],[-122.139,37.099],[-122.1417,37.0998],[-122.1428,37.0985],[-122.1437,37.0995],[-122.1409,37.1039],[-122.1432,37.1072],[-122.1542,37.1146],[-122.1594,37.1235],[-122.1669,37.1299],[-122.1734,37.139],[-122.1782,37.1385],[-122.1794,37.1399],[-122.1834,37.14],[-122.187,37.1419],[-122.1851,37.1429],[-122.1815,37.142],[-122.1826,37.1433],[-122.1803,37.1432],[-122.18,37.1468],[-122.1743,37.148],[-122.1752,37.1492],[-122.1774,37.1489],[-122.1778,37.1511],[-122.1703,37.1492],[-122.1645,37.1498],[-122.1578,37.1462],[-122.1572,37.1489],[-122.1618,37.1547],[-122.1632,37.1695],[-122.1662,37.1726],[-122.1696,37.1732],[-122.1723,37.1752],[-122.1724,37.177],[-122.1769,37.1782],[-122.1805,37.1835],[-122.1883,37.1863],[-122.1909,37.1885],[-122.1898,37.1899],[-122.1918,37.1932],[-122.1935,37.1929],[-122.1943,37.196],[-122.2015,37.1998],[-122.2009,37.2023],[-122.2167,37.2152],[-122.2426,37.2151],[-122.2427,37.19],[-122.2689,37.1898],[-122.2886,37.1867],[-122.3177,37.1869]],[[-122.10908,36.97724],[-122.10771,36.9789],[-122.10739,36.98181],[-122.1043,36.98154],[-122.10482,36.98009],[-122.104,36.97883],[-122.10363,36.97501],[-122.10436,36.96521],[-122.10423,36.97203],[-122.10853,36.9724],[-122.10803,36.97618],[-122.10908,36.97724]]]}},{"type":"Feature","properties":{"GEOID":"0608793590","NAME":"Watsonville","COUNTY":"087"},"geometry":{"type":"MultiPolygon","coordinates":[[[[-122.0519,36.8196],[-122.0011,36.8242],[-121.8761,36.839],[-121.81,36.8508],[-121.8007,36.8579],[-121.8032,36.8688],[-121.7974,36.8737],[-121.7938,36.8795],[-121.78780461413486,36.88437125101544],[-121.78856,36.88591],[-121.78646,36.88665],[-121.78805,36.89003],[-121.78654,36.88719],[-121.78456,36.88768],[-121.78353557050742,36.88578996729277],[-121.7835,36.8858],[-121.7775,36.8832],[-121.7695,36.8851],[-121.7651,36.8883],[-121.7641,36.8916],[-121.7605,36.8945],[-121.75747332588038,36.89998584684181],[-121.75748,36.89998],[-121.76108,36.90305],[-121.76828,36.89786],[-121.77083,36.90279],[-121.77842,36.89715],[-121.77727,36.895],[-121.77873,36.89451],[-121.78129,36.89791],[-121.77947,36.89912],[-121.78079,36.90167],[-121.78432,36.8998],[-121.78522,36.90161],[-121.78368,36.90252],[-121.78355,36.90388],[-121.78172,36.90344],[-121.78022,36.90447],[-121.78111,36.90586],[-121.78058,36.90801],[-121.77954,36.90874],[-121.78001,36.90996],[-121.78182,36.90695],[-121.7857,36.91425],[-121.78679,36.91444],[-121.79393,36.91119],[-121.79559,36.91187],[-121.79539,36.92197],[-121.79326,36.92179],[-121.7944,36.92273],[-121.7979,36.92276],[-121.79747,36.92357],[-121.80165,36.92361],[-121.80153,36.9259],[-121.79905,36.92643],[-121.79695,36.92997],[-121.79777,36.93037],[-121.79584,36.93992],[-121.78919,36.93962],[-121.78774,36.94101],[-121.7852,36.94156],[-121.78584,36.94064],[-121.78462,36.9391],[-121.78132,36.93814],[-121.78029,36.93963],[-121.78125,36.94029],[-121.77849,36.94148],[-121.77671,36.94101],[-121.77469,36.94168],[-121.77348,36.94143],[-121.77536,36.94075],[-121.77455,36.93995],[-121.77155,36.93955],[-121.77258,36.93819],[-121.77413,36.93885],[-121.77525,36.93714],[-121.7745,36.93654],[-121.77404,36.93754],[-121.77221,36.93664],[-121.76941,36.94106],[-121.76666,36.94042],[-121.76797,36.93797],[-121.76657,36.93636],[-121.76329,36.93599],[-121.76177,36.9345],[-121.76424,36.93178],[-121.76329,36.93091],[-121.7647,36.93057],[-121.76437,36.93002],[-121.7613,36.93077],[-121.76027,36.92849],[-121.75662,36.92953],[-121.75644,36.9289],[-121.74556,36.92668],[-121.74424,36.93078],[-121.74054,36.93017],[-121.74131,36.92789],[-121.73827,36.92739],[-121.73896,36.92454],[-121.73836,36.92362],[-121.7334,36.92236],[-121.73421,36.9207],[-121.73241,36.92007],[-121.73347,36.91823],[-121.73523,36.91734],[-121.74268,36.91615],[-121.74571,36.91108],[-121.74436,36.90952],[-121.74477475628217,36.90926998607327],[-121.7348,36.9087],[-121.7284,36.9114],[-121.7264,36.9143],[-121.7218,36.913],[-121.7147,36.9088],[-121.71,36.9153],[-121.7068,36.9151],[-121.7,36.9197],[-121.6985,36.9185],[-121.6985,36.9167],[-121.701,36.9137],[-121.7068,36.9112],[-121.7055,36.9095],[-121.7023,36.9082],[-121.6974,36.9116],[-121.6863,36.9079],[-121.6806,36.9033],[-121.6673,36.9122],[-121.6618,36.9141],[-121.6577,36.9138],[-121.6543,36.9122],[-121.6523,36.9095],[-121.6537,36.9038],[-121.6529,36.9017],[-121.65,36.9002],[-121.6479,36.9027],[-121.6462,36.9026],[-121.646,36.8957],[-121.6444,36.8939],[-121.6381,36.8983],[-121.6331,36.9067],[-121.6284,36.9118],[-121.6198,36.9089],[-121.6074,36.8995],[-121.5889,36.9013],[-121.5814,36.8992],[-121.5812,36.9193],[-121.5902,36.9193],[-121.5904,36.9262],[-121.6072,36.9261],[-121.6248,36.9405],[-121.624,36.9385],[-121.6305,36.9405],[-121.6319,36.9393],[-121.6371,36.9391],[-121.6423,36.9364],[-121.641,36.9322],[-121.6458,36.9323],[-121.6531,36.9418],[-121.6541,36.9448],[-121.6523,36.9476],[-121.6537,36.9477],[-121.654,36.9506],[-121.6633,36.9519],[-121.6643,36.9551],[-121.6629,36.9592],[-121.6648,36.9637],[-121.6699,36.9636],[-121.6727,36.9655],[-121.6772,36.9655],[-121.6783,36.9679],[-121.6902,36.9674],[-121.6933,36.9682],[-121.6978,36.9721],[-121.6984,36.975],[-121.6954,36.9851],[-121.7052,36.9862],[-121.7055,36.9894],[-121.7098,36.9906],[-121.7107,36.9897],[-121.7109,36.9931],[-121.7147,36.9931],[-121.7179,36.9956],[-121.7323,36.9897],[-121.7387,36.99],[-121.7349,36.9911],[-121.7342,36.9928],[-121.7298,36.9936],[-121.7283,36.9968],[-121.7296,36.9979],[-121.7188,37.0076],[-121.7266,37.0121],[-121.7278,37.0099],[-121.7362,37.0153],[-121.7313,37.0224],[-121.7304,37.0222],[-121.7308,37.0203],[-121.7287,37.0199],[-121.7261,37.0213],[-121.7398,37.0277],[-121.7464,37.0347],[-121.7555,37.049],[-121.7576,37.0496],[-121.762,37.0478],[-121.7649,37.0495],[-121.7633,37.0507],[-121.7645,37.0524],[-121.7753,37.053],[-121.7761,37.0549],[-121.7815,37.057],[-121.786,37.062],[-121.7935,37.0643],[-121.7968,37.0638],[-121.804,37.0685],[-121.8091,37.0693],[-121.8132,37.0649],[-121.817,37.0648],[-121.8254,37.0678],[-121.83,37.067],[-121.8301,37.0651],[-121.8418,37.0707],[-121.8403,37.0591],[-121.8386,37.0583],[-121.8364,37.054],[-121.8384,37.0509],[-121.8412,37.0496],[-121.8417,37.0466],[-121.8443,37.0442],[-121.8434,37.0424],[-121.8441,37.0413],[-121.8404,37.0378],[-121.8301,37.0336],[-121.8308,37.0318],[-121.8268,37.0237],[-121.8274,37.0224],[-121.8191,37.0166],[-121.828,37.0188],[-121.8324,37.0227],[-121.8368,37.0241],[-121.8391,37.0288],[-121.8398,37.0269],[-121.8414,37.0282],[-121.8409,37.0299],[-121.8443,37.0291],[-121.8435,37.0253],[-121.8421,37.0244],[-121.8438,37.0224],[-121.8365,37.0205],[-121.8378,37.019],[-121.834,37.0172],[-121.833,37.0137],[-121.8306,37.0143],[-121.8291,37.0128],[-121.8205,37.0103],[-121.8188,37.0081],[-121.8191,37.0065],[-121.816,37.0048],[-121.8191,37.0011],[-121.8165,36.999],[-121.8159,36.9943],[-121.8264,36.9898],[-121.8313,36.9898],[-121.8326,36.9872],[-121.8592,36.9866],[-121.8625,36.9848],[-121.8733,36.9703],[-121.8627,36.9606],[-121.8643,36.9564],[-121.8636,36.9442],[-121.8668,36.9407],[-121.8659,36.9374],[-121.9388,36.8735],[-121.9683,36.8502],[-122.0462,36.8217],[-122.0519,36.8196]],[[-121.82731,36.91532],[-121.82672,36.91599],[-121.82519,36.91681],[-121.8216,36.91528],[-121.81934,36.91329],[-121.82213,36.91181],[-121.8229,36.91264],[-121.82507,36.91262],[-121.82731,36.91532]],[[-121.80702,36.98902],[-121.80658,36.99056],[-121.80441,36.99027],[-121.80421,36.99124],[-121.80267,36.98905],[-121.80702,36.98902]],[[-121.79098,37.01525],[-121.7884,37.01684],[-121.78745,37.01918],[-121.78433,37.01909],[-121.7862,37.01536],[-121.78944,37.0143],[-121.79098,37.01525]],[[-121.77396,36.95656],[-121.76993,36.95751],[-121.76773,36.95407],[-121.76707,36.95069],[-121.76487,36.95007],[-121.76547,36.94811],[-121.76829,36.9505],[-121.76997,36.95046],[-121.77063,36.9521],[-121.77239,36.9533],[-121.77183,36.95388],[-121.77391,36.95532],[-121.77396,36.95656]]],[[[-121.78637860621956,36.884988085425256],[-121.78434630330415,36.88556129906806],[-121.785,36.88572],[-121.78637860621956,36.884988085425256]]],[[[-121.75210092506939,36.904692321924145],[-121.7515,36.9052],[-121.75122598534516,36.90538120323949],[-121.75151,36.90521],[-121.75210092506939,36.904692321924145]]]]}},{"type":"Feature","properties":{"GEOID":"0608792850","NAME":"San Lorenzo Valley","COUNTY":"087"},"geometry":{"type":"Polygon","coordinates":[[[-122.2167,37.2152],[-122.2009,37.2023],[-122.2015,37.1998],[-122.1943,37.196],[-122.1935,37.1929],[-122.1918,37.1932],[-122.1898,37.1899],[-122.1909,37.1885],[-122.1883,37.1863],[-122.1805,37.1835],[-122.1769,37.1782],[-122.1724,37.177],[-122.1723,37.1752],[-122.1696,37.1732],[-122.1662,37.1726],[-122.1632,37.1695],[-122.1618,37.1547],[-122.1572,37.1489],[-122.1578,37.1462],[-122.1645,37.1498],[-122.1703,37.1492],[-122.1778,37.1511],[-122.1774,37.1489],[-122.1752,37.1492],[-122.1743,37.148],[-122.18,37.1468],[-122.1803,37.1432],[-122.1826,37.1433],[-122.1815,37.142],[-122.1851,37.1429],[-122.187,37.1419],[-122.1834,37.14],[-122.1794,37.1399],[-122.1782,37.1385],[-122.1734,37.139],[-122.1669,37.1299],[-122.1594,37.1235],[-122.1544,37.1148],[-122.1443,37.1082],[-122.1411,37.1043],[-122.1437,37.0996],[-122.1428,37.0985],[-122.1417,37.0998],[-122.139,37.099],[-122.138,37.091],[-122.1397,37.0909],[-122.1365,37.0877],[-122.1333,37.0783],[-122.1316,37.0775],[-122.1296,37.0733],[-122.1246,37.0706],[-122.1227,37.0672],[-122.1232,37.0639],[-122.1214,37.0615],[-122.1244,37.059],[-122.1214,37.0559],[-122.1154,37.0533],[-122.1149,37.0485],[-122.1094,37.0454],[-122.1064,37.0422],[-122.1076,37.0387],[-122.106,37.0373],[-122.1101,37.0326],[-122.1079,37.0293],[-122.1052,37.0297],[-122.1023,37.0334],[-122.1003,37.0338],[-122.1017,37.037],[-122.0972,37.0335],[-122.0942,37.0357],[-122.0915,37.0345],[-122.0835,37.0359],[-122.0821,37.0391],[-122.0754,37.0439],[-122.073,37.0441],[-122.0733,37.0531],[-122.0683,37.0513],[-122.0643,37.0481],[-122.0605,37.0558],[-122.054,37.0548],[-122.0457,37.0563],[-122.0438,37.0616],[-122.0461,37.071],[-122.0434,37.0762],[-122.0429,37.0826],[-122.0408,37.0848],[-122.0379,37.0856],[-122.0331,37.0953],[-122.0307,37.0966],[-122.0288,37.0954],[-122.0234,37.0957],[-122.0209,37.0936],[-122.0207,37.0957],[-122.019,37.0962],[-122.0177,37.0941],[-122.0184,37.0933],[-122.016,37.0915],[-122.0133,37.0918],[-122.013,37.0931],[-122.0106,37.0914],[-122.0067,37.0924],[-122.002,37.0971],[-121.9909,37.098],[-121.9875,37.103],[-121.9766,37.0999],[-121.9776,37.1024],[-121.9749,37.1052],[-121.9772,37.1083],[-121.9746,37.1142],[-121.9761,37.1203],[-121.9729,37.1236],[-121.9738,37.1261],[-121.9842,37.1359],[-121.9859,37.1446],[-121.9911,37.1443],[-121.9942,37.1498],[-122,37.1545],[-122.0025,37.1583],[-122.009,37.1598],[-122.0138,37.1628],[-122.0159,37.1657],[-122.0262,37.1669],[-122.0256,37.1691],[-122.0277,37.1708],[-122.0256,37.1738],[-122.0276,37.1741],[-122.0265,37.1761],[-122.0289,37.1769],[-122.0294,37.1795],[-122.0319,37.1823],[-122.0326,37.1861],[-122.0307,37.19],[-122.0408,37.1952],[-122.044,37.2011],[-122.0546,37.21],[-122.0551,37.2125],[-122.0594,37.213],[-122.0628,37.2104],[-122.0659,37.2104],[-122.07,37.2167],[-122.0766,37.2202],[-122.0788,37.223],[-122.0898,37.2233],[-122.0927,37.2254],[-122.0934,37.2292],[-122.0995,37.2332],[-122.1042,37.2343],[-122.1056,37.2407],[-122.1216,37.2586],[-122.1239,37.2597],[-122.1284,37.2592],[-122.1317,37.2609],[-122.1358,37.2657],[-122.1442,37.2702],[-122.1484,37.2755],[-122.1505,37.2759],[-122.1487,37.281],[-122.1523,37.2861],[-122.1526,37.244],[-122.1515,37.23],[-122.153,37.2224],[-122.1528,37.2154],[-122.2167,37.2152]]]}}]}