{"type":"FeatureCollection","features":[{"type":"Feature","geometry":{"type":"Polygon","coordinates":[[[-120.6556,39.6936],[-120.6427,39.6908],[-120.6411,39.6793],[-120.6338,39.6737],[-120.6263,39.6709],[-120.6241,39.6656],[-120.6265,39.6596],[-120.6312,39.6555],[-120.6315,39.6532],[-120.6284,39.6503],[-120.6278,39.6469],[-120.6252,39.6445],[-120.6249,39.6395],[-120.6225,39.6346],[-120.6147,39.628],[-120.6102,39.62],[-120.6026,39.6144],[-120.5978,39.6145],[-120.5892,39.6185],[-120.585,39.6185],[-120.5812,39.6242],[-120.5739,39.6267],[-120.5704,39.6292],[-120.5505,39.6332],[-120.5453,39.6302],[-120.5442,39.6258],[-120.5345,39.6202],[-120.5307,39.6221],[-120.5249,39.6221],[-120.5213,39.6189],[-120.5171,39.619],[-120.5131,39.6163],[-120.5064,39.6172],[-120.5038,39.6157],[-120.4978,39.6192],[-120.4948,39.6175],[-120.4898,39.6173],[-120.4896,39.6137],[-120.4826,39.611],[-120.4804,39.6079],[-120.4874,39.6032],[-120.4864,39.5991],[-120.4833,39.5995],[-120.4825,39.5956],[-120.4765,39.5913],[-120.4713,39.5911],[-120.4702,39.5894],[-120.4719,39.5863],[-120.4688,39.5841],[-120.4702,39.5819],[-120.4683,39.5762],[-120.4724,39.5741],[-120.471,39.5712],[-120.4716,39.5702],[-120.4774,39.5707],[-120.479,39.5689],[-120.4819,39.5684],[-120.4852,39.5686],[-120.4896,39.573],[-120.4936,39.5735],[-120.4918,39.5683],[-120.4942,39.5634],[-120.4904,39.5625],[-120.4893,39.5591],[-120.4857,39.5568],[-120.487,39.5553],[-120.4919,39.5539],[-120.4913,39.5517],[-120.4785,39.5475],[-120.4796,39.5456],[-120.4862,39.5426],[-120.4766,39.5406],[-120.4755,39.539],[-120.4681,39.5365],[-120.4635,39.5376],[-120.4613,39.5355],[-120.4559,39.5336],[-120.4579,39.5294],[-120.4535,39.5263],[-120.4436,39.5224],[-120.4319,39.521],[-120.4308,39.5199],[-120.4362,39.5153],[-120.4333,39.5134],[-120.4275,39.5153],[-120.4202,39.5124],[-120.4156,39.5122],[-120.4194,39.5099],[-120.4086,39.5111],[-120.4102,39.5093],[-120.4121,39.4975],[-120.4144,39.4993],[-120.4184,39.4999],[-120.4288,39.4968],[-120.4467,39.5033],[-120.4559,39.5035],[-120.4649,39.5064],[-120.4693,39.5067],[-120.4833,39.5037],[-120.5018,39.5034],[-120.5354,39.507],[-120.5418,39.5056],[-120.5463,39.5087],[-120.5537,39.5096],[-120.5559,39.5087],[-120.5564,39.5064],[-120.5505,39.5032],[-120.5512,39.4992],[-120.5491,39.4945],[-120.5413,39.4909],[-120.5396,39.4867],[-120.5342,39.4837],[-120.5345,39.4644],[-120.5246,39.4587],[-120.522,39.459],[-120.5217,39.4569],[-120.5183,39.4572],[-120.5177,39.455],[-120.5101,39.4552],[-120.5077,39.4534],[-120.5054,39.4461],[-120.0038,39.4451],[-120.0008,39.6068],[-120.0011,39.7224],[-120.0158,39.7224],[-120.0157,39.7087],[-120.126,39.7089],[-120.1471,39.7077],[-120.4463,39.7086],[-120.4654,39.7065],[-120.6542,39.7066],[-120.6556,39.6936]],[[-120.25097,39.67896],[-120.25026,39.67898],[-120.25026,39.68151],[-120.24573,39.68156],[-120.24575,39.68055],[-120.24074,39.6806],[-120.24067,39.67916],[-120.23801,39.67911],[-120.23807,39.67312],[-120.25091,39.67311],[-120.25097,39.67896]]]},"properties":{"GEOID":"0609190830","NAME":"East Sierra","COUNTY":"091"}},{"type":"Feature","geometry":{"type":"Polygon","coordinates":[[[-121.0582,39.537],[-121.0555,39.53],[-121.0512,39.5245],[-121.0537,39.5222],[-121.0497,39.5211],[-121.0487,39.517],[-121.0448,39.5142],[-121.0344,39.5145],[-121.0221,39.3916],[-121.018,39.3955],[-121.0075,39.3991],[-121.0077,39.4003],[-121.0153,39.4026],[-121.0152,39.4054],[-121.007,39.4047],[-120.9926,39.4144],[-120.986,39.4115],[-120.9817,39.4142],[-120.9798,39.4116],[-120.9789,39.4129],[-120.98,39.4166],[-120.9786,39.4178],[-120.9737,39.4174],[-120.9717,39.4189],[-120.958,39.4156],[-120.9561,39.417],[-120.9523,39.4168],[-120.9509,39.4189],[-120.9462,39.4184],[-120.9435,39.4198],[-120.9395,39.4177],[-120.9318,39.4171],[-120.9298,39.418],[-120.9301,39.4202],[-120.9289,39.421],[-120.9263,39.4201],[-120.9207,39.4224],[-120.9184,39.4207],[-120.9142,39.4201],[-120.9134,39.424],[-120.9106,39.426],[-120.9028,39.4241],[-120.8939,39.4241],[-120.8845,39.4294],[-120.8784,39.4289],[-120.8783,39.4312],[-120.8767,39.4296],[-120.8749,39.4312],[-120.8705,39.4294],[-120.8691,39.4314],[-120.8645,39.4303],[-120.8618,39.4334],[-120.8575,39.4353],[-120.8551,39.4337],[-120.8543,39.4363],[-120.8433,39.4351],[-120.8424,39.4375],[-120.8369,39.4405],[-120.8322,39.4396],[-120.8336,39.4373],[-120.8281,39.4365],[-120.8264,39.435],[-120.8231,39.4374],[-120.8178,39.4365],[-120.8166,39.4408],[-120.8135,39.4399],[-120.811,39.4361],[-120.8056,39.4387],[-120.8009,39.4375],[-120.7994,39.438],[-120.7973,39.4417],[-120.7917,39.4413],[-120.7904,39.4432],[-120.7861,39.4442],[-120.7866,39.4466],[-120.7847,39.4481],[-120.7808,39.4465],[-120.7758,39.4508],[-120.7736,39.4486],[-120.7729,39.4499],[-120.7654,39.4509],[-120.7648,39.4531],[-120.761,39.4539],[-120.7562,39.4525],[-120.7529,39.4583],[-120.7499,39.4575],[-120.7496,39.4594],[-120.7464,39.4592],[-120.7425,39.4613],[-120.7421,39.4645],[-120.7436,39.4668],[-120.7376,39.4702],[-120.7322,39.4698],[-120.7267,39.4722],[-120.7201,39.4784],[-120.7146,39.4816],[-120.7137,39.4831],[-120.717,39.4892],[-120.7126,39.4891],[-120.7066,39.4931],[-120.7065,39.496],[-120.7032,39.4986],[-120.7009,39.5025],[-120.6867,39.5067],[-120.6859,39.5098],[-120.6831,39.5108],[-120.6829,39.5125],[-120.6793,39.5131],[-120.6772,39.5183],[-120.6727,39.5207],[-120.6592,39.5237],[-120.6575,39.526],[-120.6548,39.5269],[-120.6509,39.5234],[-120.6441,39.5239],[-120.6411,39.523],[-120.6372,39.5246],[-120.6337,39.5235],[-120.6301,39.5249],[-120.6276,39.5228],[-120.627,39.5203],[-120.6246,39.5195],[-120.6223,39.5215],[-120.6138,39.5206],[-120.5994,39.5221],[-120.5971,39.5206],[-120.5896,39.5235],[-120.5838,39.5215],[-120.5819,39.5229],[-120.5777,39.5233],[-120.5745,39.5218],[-120.5761,39.5214],[-120.5709,39.5194],[-120.5681,39.5159],[-120.5607,39.5162],[-120.5566,39.5141],[-120.5559,39.5087],[-120.5537,39.5096],[-120.5463,39.5087],[-120.5419,39.5056],[-120.5354,39.507],[-120.5244,39.505],[-120.4907,39.5034],[-120.483,39.5037],[-120.469,39.5068],[-120.4559,39.5035],[-120.4467,39.5033],[-120.4291,39.4968],[-120.4184,39.4999],[-120.4144,39.4993],[-120.4121,39.4975],[-120.4102,39.5093],[-120.4085,39.5107],[-120.4098,39.5116],[-120.4194,39.5099],[-120.4156,39.5122],[-120.4202,39.5124],[-120.4275,39.5153],[-120.4333,39.5134],[-120.4362,39.5153],[-120.4308,39.5199],[-120.4319,39.521],[-120.4436,39.5224],[-120.4535,39.5263],[-120.4579,39.5294],[-120.4559,39.5336],[-120.4613,39.5355],[-120.4635,39.5376],[-120.4681,39.5365],[-120.4755,39.539],[-120.4766,39.5406],[-120.4862,39.5426],[-120.4796,39.5456],[-120.4785,39.5475],[-120.4913,39.5517],[-120.4919,39.5539],[-120.487,39.5553],[-120.4857,39.5568],[-120.4893,39.5591],[-120.4904,39.5625],[-120.4942,39.5634],[-120.4918,39.5683],[-120.4936,39.5735],[-120.4896,39.573],[-120.4852,39.5686],[-120.4819,39.5684],[-120.479,39.5689],[-120.4774,39.5707],[-120.4716,39.5702],[-120.471,39.5712],[-120.4724,39.5741],[-120.4683,39.5762],[-120.4702,39.5819],[-120.4688,39.5841],[-120.4719,39.5863],[-120.4702,39.5894],[-120.4713,39.5911],[-120.4765,39.5913],[-120.4825,39.5956],[-120.4833,39.5995],[-120.4864,39.5991],[-120.4874,39.6032],[-120.4804,39.6079],[-120.4826,39.611],[-120.4896,39.6137],[-120.4898,39.6173],[-120.4948,39.6175],[-120.4978,39.6192],[-120.5038,39.6157],[-120.5064,39.6172],[-120.5131,39.6163],[-120.5171,39.619],[-120.5213,39.6189],[-120.5249,39.6221],[-120.5307,39.6221],[-120.5345,39.6202],[-120.5442,39.6258],[-120.5453,39.6302],[-120.5505,39.6332],[-120.5704,39.6292],[-120.5739,39.6267],[-120.5812,39.6242],[-120.585,39.6185],[-120.5892,39.6185],[-120.5978,39.6145],[-120.6026,39.6144],[-120.6102,39.62],[-120.6147,39.628],[-120.6228,39.635],[-120.6249,39.6395],[-120.6251,39.6443],[-120.6317,39.6539],[-120.6265,39.6596],[-120.6242,39.6666],[-120.6268,39.6715],[-120.6338,39.6737],[-120.6411,39.6793],[-120.643,39.6909],[-120.6556,39.6936],[-120.66,39.6862],[-120.6666,39.6827],[-120.6713,39.6824],[-120.6739,39.6809],[-120.6738,39.6797],[-120.6766,39.6797],[-120.6799,39.6766],[-120.6835,39.681],[-120.6888,39.684],[-120.695,39.6917],[-120.6987,39.6925],[-120.7016,39.6912],[-120.7035,39.6923],[-120.7076,39.699],[-120.7108,39.6995],[-120.7129,39.7035],[-120.7162,39.7063],[-120.7205,39.7078],[-120.7268,39.707],[-120.7346,39.7083],[-120.7351,39.7107],[-120.7425,39.7125],[-120.748,39.7166],[-120.7495,39.7196],[-120.7559,39.7194],[-120.7597,39.7176],[-120.7697,39.718],[-120.7723,39.7132],[-120.781,39.7123],[-120.783,39.7098],[-120.79,39.7106],[-120.7924,39.7097],[-120.7916,39.715],[-120.7948,39.7184],[-120.804,39.7209],[-120.8083,39.7199],[-120.8093,39.7208],[-120.8092,39.7232],[-120.812,39.726],[-120.8128,39.7338],[-120.8145,39.7368],[-120.813,39.7423],[-120.8156,39.747],[-120.8194,39.7438],[-120.8263,39.742],[-120.8287,39.7468],[-120.8369,39.7455],[-120.8394,39.7463],[-120.8419,39.7505],[-120.8443,39.7517],[-120.8443,39.7561],[-120.8544,39.7599],[-120.8584,39.7663],[-120.8595,39.7705],[-120.8636,39.7713],[-120.8708,39.7769],[-120.8734,39.7761],[-120.8758,39.7721],[-120.8808,39.771],[-120.8877,39.7672],[-120.8952,39.7598],[-120.9018,39.7602],[-120.906,39.7573],[-120.9139,39.7572],[-120.9168,39.7532],[-120.923,39.7508],[-120.9256,39.7443],[-120.9344,39.7388],[-120.9341,39.7016],[-120.9377,39.6998],[-120.9356,39.6978],[-120.9376,39.695],[-120.9365,39.6931],[-120.94,39.6927],[-120.9384,39.6911],[-120.9399,39.6905],[-120.939,39.6891],[-120.9406,39.6883],[-120.94,39.6868],[-120.9422,39.6855],[-120.9418,39.684],[-120.9445,39.6809],[-120.9521,39.6764],[-120.9494,39.6729],[-120.9499,39.6721],[-120.9541,39.669],[-120.9577,39.6691],[-120.9581,39.6671],[-120.9638,39.6652],[-120.9648,39.6614],[-120.9683,39.6572],[-120.973,39.655],[-120.9786,39.6488],[-120.9834,39.649],[-120.9839,39.6468],[-120.9864,39.6447],[-120.9905,39.6442],[-120.9952,39.6404],[-120.9982,39.6404],[-121.0007,39.6387],[-121.0039,39.638],[-121.006,39.6395],[-121.0095,39.6395],[-121.0244,39.559],[-121.0282,39.5578],[-121.0318,39.5582],[-121.0321,39.5557],[-121.0337,39.5557],[-121.039,39.5504],[-121.0483,39.5483],[-121.0513,39.5421],[-121.057,39.5404],[-121.0582,39.537]]]},"properties":{"GEOID":"0609193680","NAME":"West Sierra","COUNTY":"091"}}]}