{"type":"FeatureCollection","features":[{"type":"Feature","properties":{"GEOID":"0609593520","NAME":"Vacaville","COUNTY":"095"},"geometry":{"type":"MultiPolygon","coordinates":[[[[-122.1266,38.4355],[-122.1251,38.4241],[-122.1199,38.4184],[-122.1177,38.414],[-122.1146,38.4139],[-122.1151,38.4123],[-122.1097,38.4074],[-122.1095,38.4045],[-122.0891,38.3846],[-122.0777,38.3638],[-122.0761,38.3638],[-122.0735,38.3614],[-122.0733,38.3569],[-122.0696,38.3509],[-122.0709,38.3484],[-122.0698,38.3428],[-122.0657,38.3343],[-122.0633,38.3335],[-122.0615,38.3296],[-122.0617,38.3257],[-122.0652,38.3235],[-122.068,38.3186],[-122.0619,38.3133],[-122.0538,38.3155],[-122.0419,38.315],[-122.0372,38.3131],[-122.0392,38.3101],[-122.0333,38.3097],[-122.03202570632288,38.31412254864412],[-122.03291,38.31429],[-122.03267,38.31481],[-122.02559,38.32347],[-122.02507,38.32605],[-122.02271,38.32783],[-122.01856,38.3344],[-122.01899,38.33654],[-122.02057,38.33721],[-122.01821,38.33773],[-122.01671,38.34],[-122.01548,38.3392],[-122.00964,38.34228],[-122.00932,38.34322],[-122.00704,38.3432],[-122.00711,38.34483],[-122.005,38.34427],[-122.00393,38.34524],[-122.00384,38.34624],[-122.00669,38.34811],[-122.00666,38.34942],[-122.00869,38.35122],[-122.01604,38.34775],[-122.01722,38.35034],[-122.01352,38.35211],[-122.01652,38.3548],[-122.01776,38.35763],[-122.01893,38.35849],[-122.01795,38.3603],[-122.01912,38.3604],[-122.01908,38.36725],[-122.02019,38.36985],[-122.01937,38.37016],[-122.01181,38.36716],[-122.0118,38.36798],[-122.014,38.36867],[-122.01171,38.36908],[-122.01171,38.3719],[-122.00938,38.3719],[-122.00907,38.37944],[-122.00126,38.37919],[-122.00131,38.37631],[-121.99988,38.37631],[-121.99991,38.37271],[-121.99835,38.37268],[-121.99838,38.36963],[-121.99911,38.36897],[-121.99256,38.36846],[-121.9917,38.36898],[-121.99321,38.36998],[-121.99041,38.37024],[-121.99051,38.36908],[-121.98785,38.36954],[-121.98844,38.37155],[-121.9942,38.37224],[-121.99452,38.3729],[-121.9924,38.37393],[-121.99184,38.37299],[-121.99188,38.37384],[-121.99041,38.37411],[-121.98942,38.37281],[-121.98726,38.37379],[-121.98871,38.37526],[-121.99084,38.37473],[-121.98927,38.37521],[-121.98973,38.37636],[-121.99415,38.37812],[-121.99633,38.38419],[-121.99308,38.3844],[-121.9954,38.38776],[-121.99539,38.39523],[-121.9923,38.39562],[-121.99094,38.39673],[-121.9911,38.40118],[-121.98705,38.40118],[-121.98901,38.40451],[-121.98648,38.40517],[-121.97394,38.40485],[-121.97397,38.40412],[-121.97095,38.40409],[-121.97099,38.4027],[-121.96851,38.40265],[-121.96852,38.40068],[-121.96156,38.40066],[-121.95928,38.40968],[-121.95899,38.41581],[-121.95809,38.41583],[-121.95808,38.4171],[-121.93369,38.41701],[-121.93376,38.4096],[-121.92471,38.40956],[-121.92479,38.40244],[-121.93377,38.40231],[-121.93376,38.39514],[-121.9287,38.39518],[-121.92707,38.3939],[-121.9157,38.40292],[-121.91562,38.40491],[-121.91473,38.4042],[-121.90754,38.40976],[-121.91558,38.40976],[-121.91559,38.41699],[-121.89875,38.41685],[-121.89865775251585,38.41689332836377],[-121.8992,38.417],[-121.9156,38.417],[-121.9156,38.4675],[-121.9237,38.4678],[-121.9239,38.5006],[-121.926,38.5],[-121.9281,38.5033],[-121.9323,38.5019],[-121.9465,38.5273],[-121.9636,38.5228],[-121.968,38.52],[-121.9707,38.5158],[-121.9747,38.5137],[-121.9781,38.5083],[-121.9854,38.5057],[-121.9866,38.503],[-121.9959,38.5004],[-122.0031,38.4939],[-122.0052,38.4938],[-122.0134,38.4887],[-122.0189,38.4893],[-122.0356,38.4961],[-122.0384,38.4991],[-122.0416,38.5057],[-122.0574,38.5174],[-122.0714,38.5138],[-122.0869,38.5145],[-122.0908,38.516],[-122.095,38.5131],[-122.1041,38.5134],[-122.1038,38.5102],[-122.1063,38.5083],[-122.1056,38.5012],[-122.1072,38.4945],[-122.1047,38.4909],[-122.1083,38.4863],[-122.109,38.482],[-122.1191,38.4607],[-122.1266,38.4355]],[[-121.9967,38.37701],[-121.99285,38.3773],[-121.99286,38.3767],[-121.99158,38.37657],[-121.99229,38.37576],[-121.99128,38.37588],[-121.99295,38.37511],[-121.99346,38.37643],[-121.9947,38.37633],[-121.99468,38.3756],[-121.99344,38.37548],[-121.99549,38.3748],[-121.9967,38.37701]]],[[[-121.99903,38.31575],[-121.99728,38.31458],[-121.99732699626865,38.31204220149254],[-121.9942,38.3116],[-121.9888,38.3144],[-121.9823,38.313],[-121.9767,38.3157],[-121.9651,38.3157],[-121.95410485705587,38.309141493682446],[-121.95138,38.30915],[-121.94288,38.31328],[-121.9432,38.31569],[-121.99903,38.31575]]],[[[-121.95649,38.39903],[-121.95448,38.39903],[-121.95448,38.39962],[-121.95649,38.39903]]],[[[-121.94528,38.30852],[-121.93983,38.30846],[-121.93796,38.31071],[-121.93383,38.31271],[-121.93371246499495,38.308498564999915],[-121.9155,38.3082],[-121.9155,38.3155],[-121.8971,38.3154],[-121.8966,38.4142],[-121.8931,38.4158],[-121.89702063165834,38.416571271801644],[-121.89656,38.41556],[-121.90241,38.41198],[-121.90363,38.4088],[-121.90365,38.40247],[-121.90578,38.40247],[-121.90581,38.40949],[-121.91368,38.40337],[-121.91263,38.40251],[-121.90985,38.40249],[-121.90981,38.39541],[-121.92288,38.39525],[-121.92552,38.39348],[-121.9247,38.39284],[-121.92471,38.39051],[-121.92771,38.39048],[-121.9277,38.39173],[-121.93262,38.3878],[-121.93079,38.38768],[-121.93072,38.37977],[-121.93133,38.38046],[-121.9338,38.37977],[-121.93386,38.37559],[-121.93075,38.37564],[-121.93077,38.37322],[-121.93387,38.37314],[-121.93403,38.35876],[-121.92479,38.35892],[-121.92459,38.35533],[-121.92034,38.35535],[-121.92038,38.35057],[-121.91334,38.34966],[-121.91225,38.34881],[-121.91569,38.34388],[-121.94041,38.31564],[-121.9429,38.31564],[-121.94288,38.31328],[-121.94528,38.30852]],[[-121.90616,38.34079],[-121.90606,38.34723],[-121.90154,38.3466],[-121.90153,38.34356],[-121.89696,38.34353],[-121.89699,38.33717],[-121.90615,38.33722],[-121.90616,38.34079]]]]}},{"type":"Feature","properties":{"GEOID":"0609593530","NAME":"Vallejo","COUNTY":"095"},"geometry":{"type":"MultiPolygon","coordinates":[[[[-122.407,38.1556],[-122.3911,38.1326],[-122.3878,38.1249],[-122.3475,38.0733],[-122.34747849872417,38.07329649492584],[-122.38669,38.12351],[-122.3442,38.12865],[-122.32548,38.12035],[-122.31309,38.11333],[-122.29301,38.11317],[-122.29315,38.1175],[-122.295,38.11742],[-122.29492,38.12203],[-122.28954,38.12053],[-122.28845,38.11845],[-122.28476,38.11957],[-122.28283,38.11854],[-122.27974,38.11315],[-122.27106,38.11354],[-122.276,38.12029],[-122.2764,38.12135],[-122.27522,38.12413],[-122.26887,38.12618],[-122.26769,38.12721],[-122.26418,38.1258],[-122.26221,38.12869],[-122.25579,38.12854],[-122.25606,38.13175],[-122.26112,38.13065],[-122.26319,38.13125],[-122.26228,38.13221],[-122.26545,38.13316],[-122.2666,38.13462],[-122.2666,38.13738],[-122.2684,38.13732],[-122.26807,38.13907],[-122.25949,38.13907],[-122.25601,38.1409],[-122.26669,38.1409],[-122.26634,38.14271],[-122.27176,38.14801],[-122.27691,38.15059],[-122.2893,38.15324],[-122.29009,38.15437],[-122.28921,38.15522],[-122.21363,38.15498],[-122.21378,38.15311],[-122.20945,38.14997],[-122.20596,38.14592],[-122.19995,38.14373],[-122.19853,38.14245],[-122.19777,38.14325],[-122.197,38.1426],[-122.19322,38.14449],[-122.19287,38.14558],[-122.19338,38.15028],[-122.19567,38.15316],[-122.19549747408828,38.155000276391554],[-122.407,38.1556]]],[[[-122.26559738255818,38.059948478421894],[-122.2653,38.0599],[-122.26394887940235,38.06017697972252],[-122.26535,38.05992],[-122.26559738255818,38.059948478421894]]],[[[-122.24404371041747,38.0638277895179],[-122.2008,38.0579],[-122.1839,38.054],[-122.1761,38.0478],[-122.1676,38.0367],[-122.1646,38.0347],[-122.1486,38.0317],[-122.1394,38.0322],[-122.124,38.0357],[-122.121,38.038],[-122.0987,38.0475],[-122.0774,38.054],[-122.0673,38.0601],[-122.0613,38.0621],[-122.0504,38.0602],[-122.0538,38.1023],[-122.0558,38.1065],[-122.0646,38.1202],[-122.0788,38.1235],[-122.0823,38.1269],[-122.0824,38.1363],[-122.0866,38.1352],[-122.0955,38.1379],[-122.0953,38.1392],[-122.0849,38.1492],[-122.0846,38.1509],[-122.0858,38.1519],[-122.0895,38.1527],[-122.0998,38.1332],[-122.1011,38.1257],[-122.107,38.1249],[-122.1105,38.1362],[-122.1099,38.1449],[-122.1111,38.1467],[-122.1144,38.1471],[-122.1233,38.1415],[-122.1243,38.1374],[-122.1216,38.1297],[-122.1278,38.125],[-122.1324,38.1262],[-122.138,38.1242],[-122.1415,38.1215],[-122.1402,38.1177],[-122.1474,38.1212],[-122.1482,38.1243],[-122.149,38.1205],[-122.1508,38.1213],[-122.1547,38.1201],[-122.1578,38.122],[-122.1623,38.121],[-122.1636,38.1186],[-122.1647,38.1208],[-122.1658,38.1207],[-122.1665,38.131],[-122.16739934299139,38.131995701169046],[-122.18795,38.12255],[-122.18767,38.11627],[-122.18913,38.11669],[-122.18966,38.11506],[-122.18738,38.11444],[-122.18587,38.10564],[-122.17672,38.10569],[-122.18113529079216,38.09926985078301],[-122.17226,38.09527],[-122.17263,38.09114],[-122.17156,38.09068],[-122.16663,38.10051],[-122.1527,38.0984],[-122.14556,38.09579],[-122.13977,38.10231],[-122.14154,38.10364],[-122.13984,38.10534],[-122.13991,38.10938],[-122.13327,38.10449],[-122.13667,38.10047],[-122.13087,38.09619],[-122.12872,38.09298],[-122.12947,38.09131],[-122.12212,38.09004],[-122.11692,38.08755],[-122.11664,38.08973],[-122.11342,38.09025],[-122.1142,38.08694],[-122.11181,38.08576],[-122.10699,38.09237],[-122.10376,38.09389],[-122.10678,38.0842],[-122.12166,38.06783],[-122.11943,38.06388],[-122.11637,38.06116],[-122.11714,38.05928],[-122.12784,38.04522],[-122.13871,38.03973],[-122.14883,38.03913],[-122.14736,38.04137],[-122.14851,38.04084],[-122.15527,38.04261],[-122.15588,38.04178],[-122.16061,38.04276],[-122.16121,38.04194],[-122.16357,38.04301],[-122.16421,38.04214],[-122.16592,38.04295],[-122.16656,38.04212],[-122.16878,38.04315],[-122.16602,38.04681],[-122.16801,38.04779],[-122.16745,38.04857],[-122.16948,38.04953],[-122.16892,38.05027],[-122.17097,38.0512],[-122.17035,38.05204],[-122.17257,38.05294],[-122.17132,38.05465],[-122.17541,38.05649],[-122.17483,38.05728],[-122.1768,38.05817],[-122.17621,38.05902],[-122.1804,38.06089],[-122.17982,38.06169],[-122.18384,38.0635],[-122.18323,38.06433],[-122.18717,38.06612],[-122.19307,38.05844],[-122.19593,38.05974],[-122.19356,38.06171],[-122.19518,38.0604],[-122.20049,38.06145],[-122.20134,38.06265],[-122.20118,38.06449],[-122.20333,38.06406],[-122.20334,38.06528],[-122.20647,38.06795],[-122.20908,38.067],[-122.20978,38.06567],[-122.21447,38.06605],[-122.2249,38.06487],[-122.22942,38.06591],[-122.23141,38.06838],[-122.23507,38.06963],[-122.23878,38.07301],[-122.23976,38.07309],[-122.23906,38.07513],[-122.24121,38.07787],[-122.24355,38.07906],[-122.24365,38.0639],[-122.24404371041747,38.0638277895179]]],[[[-122.24118,38.09527],[-122.24011,38.0941],[-122.2349,38.09337],[-122.23459,38.09231],[-122.23623,38.09193],[-122.23522,38.09121],[-122.23299,38.09165],[-122.23202,38.08928],[-122.22881,38.09017],[-122.22141,38.08893],[-122.22262,38.08728],[-122.22026,38.08605],[-122.22065,38.08177],[-122.22164,38.08008],[-122.21562,38.0793],[-122.2104,38.0854],[-122.21214,38.08575],[-122.21162,38.08691],[-122.21376,38.08791],[-122.21171,38.09063],[-122.21164,38.0948],[-122.21337,38.09489],[-122.21336,38.09669],[-122.2188,38.09672],[-122.21879,38.09442],[-122.21638,38.09384],[-122.21754,38.09265],[-122.21882,38.09369],[-122.21892,38.09222],[-122.22122,38.08909],[-122.23015,38.09154],[-122.22956,38.09435],[-122.22786,38.0943],[-122.23043,38.09529],[-122.23807,38.09699],[-122.24118,38.09527]]],[[[-122.21112,38.10605],[-122.21011,38.10607],[-122.21009,38.10812],[-122.211,38.10814],[-122.21112,38.10605]]],[[[-122.19957,38.08299],[-122.19824,38.08382],[-122.195,38.08247],[-122.1941964451613,38.083556712258066],[-122.19822,38.08391],[-122.19957,38.08299]]],[[[-122.1960635900217,38.155839246203904],[-122.19548716516023,38.15511023829088],[-122.19546,38.1554],[-122.1960635900217,38.155839246203904]]],[[[-122.1937832192441,38.083520429006796],[-122.19307,38.08194],[-122.1920888811569,38.083371657857676],[-122.1937832192441,38.083520429006796]]]]}},{"type":"Feature","properties":{"GEOID":"0609590700","NAME":"Dixon","COUNTY":"095"},"geometry":{"type":"Polygon","coordinates":[[[-121.9475,38.5271],[-121.9461,38.5268],[-121.9323,38.5019],[-121.9281,38.5033],[-121.926,38.5],[-121.9239,38.5006],[-121.9237,38.4678],[-121.9156,38.4675],[-121.9156,38.417],[-121.8992,38.417],[-121.89865775251585,38.41689332836377],[-121.89743,38.41747],[-121.89702063165834,38.416571271801644],[-121.8931,38.4158],[-121.8966,38.4142],[-121.8971,38.3154],[-121.8234,38.315],[-121.8235,38.3078],[-121.8215,38.3075],[-121.7597,38.3068],[-121.7582,38.3042],[-121.757,38.3051],[-121.7564,38.3022],[-121.7538,38.2995],[-121.7501,38.299],[-121.7483,38.297],[-121.7389,38.2928],[-121.727,38.2907],[-121.7219,38.2868],[-121.7172,38.2873],[-121.716,38.2917],[-121.7124,38.2922],[-121.7122,38.3145],[-121.694,38.3145],[-121.6936,38.4876],[-121.6958,38.4876],[-121.6947,38.5271],[-121.7007,38.5274],[-121.7044,38.5304],[-121.7047,38.5322],[-121.7061,38.532],[-121.7074,38.5349],[-121.7098,38.5354],[-121.712,38.538],[-121.7222,38.5349],[-121.7387,38.5376],[-121.7466,38.5318],[-121.7572,38.5295],[-121.7651,38.5259],[-121.7677,38.5266],[-121.7685,38.5308],[-121.7717,38.5323],[-121.7797,38.5299],[-121.783,38.527],[-121.7836,38.5233],[-121.7858,38.5231],[-121.7948,38.5269],[-121.8133,38.526],[-121.8251,38.5293],[-121.8326,38.5298],[-121.8441,38.5352],[-121.8573,38.5381],[-121.8667,38.5374],[-121.8836,38.539],[-121.8884,38.5378],[-121.8938,38.5334],[-121.909,38.5296],[-121.9253,38.5297],[-121.9411,38.5333],[-121.9475,38.5271]],[[-121.8682,38.43862],[-121.84092,38.45981],[-121.84092,38.46129],[-121.8372,38.4627],[-121.82525,38.47202],[-121.82233,38.47518],[-121.82231,38.47929],[-121.8202,38.47964],[-121.82023,38.4818],[-121.81415,38.48106],[-121.80386,38.48901],[-121.79829,38.48879],[-121.79829,38.48426],[-121.80387,38.48428],[-121.80396,38.46918],[-121.81218,38.46002],[-121.81019,38.45967],[-121.81014,38.45575],[-121.81174,38.45567],[-121.81213,38.45674],[-121.81504,38.45648],[-121.81841,38.4527],[-121.81317,38.45271],[-121.8132,38.44643],[-121.81028,38.44637],[-121.81036,38.44545],[-121.81149,38.44545],[-121.81146,38.44358],[-121.8133,38.44359],[-121.81334,38.43914],[-121.81319,38.43836],[-121.80871,38.4383],[-121.80873,38.43095],[-121.83176,38.43138],[-121.83194,38.42388],[-121.83636,38.4239],[-121.83638,38.426],[-121.84117,38.42604],[-121.84116,38.42774],[-121.83666,38.43292],[-121.84111,38.43298],[-121.84108,38.43616],[-121.85022,38.43627],[-121.85024,38.43855],[-121.8682,38.43862]],[[-121.81363,38.39836],[-121.80445,38.39841],[-121.80448,38.39105],[-121.81353,38.39121],[-121.81363,38.39836]],[[-121.8045,38.38754],[-121.80448,38.39105],[-121.79567,38.39099],[-121.79544,38.38742],[-121.78622,38.38735],[-121.78624,38.38006],[-121.79534,38.3801],[-121.79532,38.38369],[-121.7998,38.38374],[-121.79987,38.38747],[-121.8045,38.38754]]]}},{"type":"Feature","properties":{"GEOID":"0609590950","NAME":"Fairfield-Suisun City","COUNTY":"095"},"geometry":{"type":"MultiPolygon","coordinates":[[[[-122.2167,38.2627],[-122.2131,38.2592],[-122.2043,38.2588],[-122.2033,38.2598],[-122.1973,38.2589],[-122.1933,38.2564],[-122.1948,38.2552],[-122.1946,38.2518],[-122.1996,38.2512],[-122.2015,38.2489],[-122.2113,38.2528],[-122.2119,38.2508],[-122.2122,38.2488],[-122.209,38.2446],[-122.2051,38.2441],[-122.2041,38.2411],[-122.2015,38.2401],[-122.193,38.2231],[-122.1932,38.2213],[-122.1959,38.2196],[-122.1963,38.2181],[-122.1939,38.2137],[-122.1995,38.2107],[-122.2045,38.2054],[-122.2057,38.1963],[-122.2116,38.192],[-122.2093,38.1901],[-122.2152,38.1888],[-122.213,38.1843],[-122.215,38.1795],[-122.209,38.1729],[-122.2033,38.1726],[-122.2034,38.1688],[-122.20200874018082,38.16874749962947],[-122.2015,38.16979],[-122.20247,38.16883],[-122.20146,38.17027],[-122.20036,38.17025],[-122.19557,38.17323],[-122.19467,38.17249],[-122.19858990686052,38.16861848705134],[-122.1981,38.1686],[-122.1953,38.1673],[-122.194,38.1651],[-122.19608314997406,38.16282747275558],[-122.19419,38.16142],[-122.17348,38.16939],[-122.16858,38.14246],[-122.16948,38.14209],[-122.16578,38.13274],[-122.16739934299139,38.131995701169046],[-122.1665,38.131],[-122.1658,38.1207],[-122.1647,38.1208],[-122.1636,38.1186],[-122.1623,38.121],[-122.1578,38.122],[-122.1547,38.1201],[-122.1508,38.1213],[-122.149,38.1205],[-122.1482,38.1243],[-122.1474,38.1212],[-122.1402,38.1177],[-122.1415,38.1215],[-122.138,38.1242],[-122.1324,38.1262],[-122.1278,38.125],[-122.1216,38.1297],[-122.1243,38.1374],[-122.1233,38.1415],[-122.1141,38.1471],[-122.1111,38.1467],[-122.1099,38.1449],[-122.1105,38.1362],[-122.107,38.1249],[-122.1011,38.1257],[-122.0998,38.1332],[-122.0895,38.1527],[-122.0857,38.1518],[-122.0846,38.1496],[-122.0953,38.1392],[-122.0955,38.1378],[-122.0866,38.1352],[-122.0824,38.1363],[-122.0823,38.1269],[-122.0788,38.1235],[-122.0646,38.1202],[-122.0542,38.1035],[-122.0504,38.0602],[-122.0284,38.0592],[-122.0152,38.0635],[-121.9832,38.0673],[-121.9774,38.0668],[-121.9622,38.0614],[-121.9509,38.055],[-121.9509,38.0539],[-121.9354,38.0488],[-121.9221,38.0459],[-121.9101,38.045],[-121.8896,38.0467],[-121.8761,38.0501],[-121.8695,38.0545],[-121.8636,38.0624],[-121.8616,38.0699],[-121.8755,38.0722],[-121.8808,38.0744],[-121.8854,38.0797],[-121.8825,38.0851],[-121.8835,38.0889],[-121.8886,38.0946],[-121.8957,38.0969],[-121.8952,38.0996],[-121.8895,38.1049],[-121.8909,38.1133],[-121.8886,38.121],[-121.8901,38.1251],[-121.8957,38.1264],[-121.8985,38.1251],[-121.9033,38.1196],[-121.9062,38.1189],[-121.9129,38.1206],[-121.9151,38.1246],[-121.9153,38.1315],[-121.914,38.1345],[-121.9087,38.1399],[-121.9089,38.1439],[-121.9112,38.1472],[-121.9166,38.15],[-121.9283,38.1598],[-121.9343,38.1672],[-121.929,38.1725],[-121.9208,38.1763],[-121.9186,38.1786],[-121.929,38.185],[-121.9303,38.1898],[-121.9275,38.195],[-121.9207,38.1994],[-121.9229,38.2062],[-121.921,38.2088],[-121.9213,38.2128],[-121.9188,38.2142],[-121.9172,38.2177],[-121.9194,38.2189],[-121.9176,38.2204],[-121.9197,38.2219],[-121.9194,38.2251],[-121.9213,38.2281],[-121.9036,38.2284],[-121.9119,38.2416],[-121.9154,38.2429],[-121.9145,38.2611],[-121.91545956284153,38.26138786885246],[-121.91546,38.26137],[-121.91459,38.26097],[-121.91631,38.26144],[-121.92184,38.25749],[-121.92392,38.25747],[-121.92409,38.25024],[-121.9353,38.25028],[-121.94012,38.24746],[-121.94011,38.24671],[-121.94241,38.24671],[-121.94245,38.24302],[-121.95157,38.24306],[-121.95938,38.23759],[-121.96088,38.2374],[-121.96083,38.24062],[-121.96403,38.24321],[-121.96995,38.2433],[-121.96988,38.25414],[-121.97449,38.25418],[-121.97447,38.25805],[-121.97562,38.25805],[-121.9753,38.27236],[-121.98477,38.27226],[-121.98796,38.27149],[-121.98806,38.26847],[-121.98327,38.26796],[-121.98328,38.26517],[-121.98808,38.26488],[-121.98017,38.26513],[-121.98193,38.2618],[-121.98185,38.25346],[-121.98247,38.25304],[-121.97911,38.24979],[-121.97909,38.24336],[-121.98809,38.24346],[-121.98827,38.23618],[-121.99129,38.2363],[-121.99217,38.23703],[-121.99837,38.23646],[-122.00371,38.23881],[-122.00676,38.23793],[-122.00667,38.24074],[-122.02028,38.24114],[-122.02028,38.2419],[-122.02479,38.24171],[-122.02484,38.2427],[-122.02965,38.24322],[-122.02958,38.23558],[-122.03201,38.23386],[-122.03712,38.23539],[-122.03671,38.23268],[-122.03848,38.23221],[-122.03807,38.23048],[-122.04219,38.23007],[-122.0428,38.23472],[-122.04573,38.23503],[-122.04526,38.23586],[-122.05449,38.23627],[-122.04651,38.23661],[-122.04427,38.23896],[-122.04422,38.24289],[-122.04426,38.24168],[-122.04601,38.24206],[-122.06069,38.24046],[-122.06075,38.23964],[-122.05822,38.23812],[-122.05748,38.23528],[-122.05831,38.23341],[-122.06131,38.23211],[-122.0613,38.22965],[-122.06475,38.22955],[-122.06459,38.22542],[-122.07098,38.22552],[-122.07103,38.21617],[-122.08359,38.21507],[-122.08366,38.22603],[-122.11295,38.21329],[-122.11573,38.21391],[-122.12779,38.21173],[-122.12824,38.21],[-122.12704,38.20944],[-122.12986,38.20943],[-122.12926,38.21012],[-122.12971,38.21133],[-122.13085,38.21123],[-122.13026,38.212],[-122.13102,38.21357],[-122.12918,38.21406],[-122.13001,38.21586],[-122.13198,38.21491],[-122.13282,38.21589],[-122.1347,38.21506],[-122.13432,38.21456],[-122.13754,38.21397],[-122.13697,38.18852],[-122.13509,38.18517],[-122.13217,38.18368],[-122.13252,38.18054],[-122.13145,38.17864],[-122.12147,38.17857],[-122.12162,38.17669],[-122.1176,38.17324],[-122.11879,38.16211],[-122.11791,38.16116],[-122.11861,38.16083],[-122.12657,38.16326],[-122.13407,38.16076],[-122.1336,38.15844],[-122.13885,38.16021],[-122.1415,38.16418],[-122.14305,38.16489],[-122.15341,38.16502],[-122.15266,38.17589],[-122.15149,38.1759],[-122.15087,38.17755],[-122.14689,38.1776],[-122.14671,38.18548],[-122.14819,38.18121],[-122.152,38.17944],[-122.1522,38.17753],[-122.15859,38.1773],[-122.15969,38.1804],[-122.16245,38.18413],[-122.15679,38.18604],[-122.15737,38.18794],[-122.16126,38.19021],[-122.16193,38.19197],[-122.16391,38.19109],[-122.16427,38.19165],[-122.17066,38.18851],[-122.17018,38.18889],[-122.16389,38.19538],[-122.1562,38.2015],[-122.15744,38.20233],[-122.16296,38.19709],[-122.16289,38.20639],[-122.14308,38.20903],[-122.14451,38.21041],[-122.14619,38.20939],[-122.14742,38.21031],[-122.15094,38.20848],[-122.1513,38.20962],[-122.1495,38.21062],[-122.14946,38.2132],[-122.15292,38.21496],[-122.1544,38.21674],[-122.15735,38.2169],[-122.15791,38.21862],[-122.15706,38.21927],[-122.15746,38.22169],[-122.15936,38.22082],[-122.15967,38.22194],[-122.14881,38.22905],[-122.14957,38.23192],[-122.15181,38.23503],[-122.15061,38.23563],[-122.14824,38.23526],[-122.14834,38.23883],[-122.14601,38.24044],[-122.14017,38.24236],[-122.13972,38.24138],[-122.135,38.2422],[-122.13525,38.2356],[-122.13378,38.23559],[-122.13352,38.23704],[-122.12449,38.2381],[-122.12702,38.23295],[-122.12565,38.23219],[-122.1215,38.23131],[-122.12025,38.23246],[-122.11309,38.2334],[-122.11315,38.23102],[-122.11828,38.22929],[-122.12311,38.22595],[-122.12192,38.22547],[-122.12376,38.22203],[-122.12243,38.22186],[-122.12207,38.2173],[-122.12097,38.2171],[-122.11896,38.2148],[-122.11683,38.21419],[-122.11325,38.2162],[-122.11178,38.22187],[-122.11015,38.22234],[-122.10781,38.2172],[-122.0938,38.22306],[-122.09501,38.22776],[-122.09609,38.23841],[-122.08711,38.24306],[-122.08299,38.24414],[-122.07048,38.24984],[-122.07258,38.24988],[-122.07275,38.25331],[-122.07529,38.25433],[-122.07836,38.25787],[-122.07833,38.26117],[-122.08023,38.26302],[-122.08002,38.26987],[-122.08298,38.27036],[-122.0831,38.27335],[-122.08189,38.2739],[-122.0826,38.27391],[-122.08254,38.27758],[-122.0909,38.2786],[-122.088,38.28544],[-122.09185,38.28657],[-122.09229,38.29394],[-122.08343,38.2955],[-122.08106,38.29793],[-122.06673,38.29794],[-122.06348,38.29512],[-122.0619,38.2918],[-122.06249,38.30124],[-122.06051,38.30124],[-122.0605,38.30259],[-122.05154,38.30074],[-122.04376,38.30263],[-122.03375,38.30146],[-122.03342,38.30889],[-122.02483,38.30887],[-122.02476,38.30814],[-122.01994,38.3068],[-122.01664,38.30384],[-122.0141,38.30289],[-122.01495,38.30167],[-122.01273,38.30103],[-122.01397,38.29998],[-122.01445,38.29697],[-122.0122,38.2972],[-122.01076,38.29465],[-122.00727,38.29389],[-122.00787,38.29175],[-122.00633,38.29006],[-122.00201,38.29047],[-122.00164,38.28844],[-121.99713,38.28756],[-121.99391,38.28922],[-121.99396,38.29055],[-121.99095,38.29137],[-121.99034,38.29256],[-121.9883,38.2935],[-121.98786,38.29573],[-121.99016,38.29698],[-121.9896,38.29798],[-121.98795,38.29764],[-121.98443,38.29849],[-121.98376,38.29952],[-121.98457,38.30038],[-121.98152,38.30151],[-121.98129,38.30235],[-121.97949,38.30236],[-121.9797,38.30358],[-121.97681,38.30509],[-121.97117,38.30509],[-121.9706,38.30909],[-121.9540486375138,38.3091416691857],[-121.9625,38.315],[-121.9767,38.3157],[-121.9823,38.313],[-121.9888,38.3144],[-121.9942,38.3116],[-121.99732699626865,38.31204220149254],[-121.99739,38.30864],[-122.00026,38.30828],[-122.01858,38.30883],[-122.02451,38.31189],[-122.02538,38.3136],[-122.02821,38.3134],[-122.03202570632288,38.31412254864412],[-122.0333,38.3097],[-122.0392,38.3101],[-122.0371,38.313],[-122.0411,38.3149],[-122.0538,38.3155],[-122.0619,38.3133],[-122.0648,38.3159],[-122.2061,38.3158],[-122.2045,38.3116],[-122.2008,38.3096],[-122.2026,38.3042],[-122.1988,38.3012],[-122.2034,38.2934],[-122.2013,38.2928],[-122.2013,38.2899],[-122.1981,38.2849],[-122.1901,38.2775],[-122.1911,38.2759],[-122.1882,38.2717],[-122.1943,38.2709],[-122.1974,38.273],[-122.2098,38.2717],[-122.2121,38.2731],[-122.2161,38.2662],[-122.2167,38.2627]],[[-121.96995,38.2433],[-121.97453,38.24334],[-121.97442,38.25016],[-121.96991,38.25052],[-121.96995,38.2433]]],[[[-122.15659,38.19774],[-122.15586,38.19611],[-122.1538,38.19693],[-122.15445,38.19834],[-122.15659,38.19774]]],[[[-122.13907,38.21056],[-122.13906,38.21042],[-122.13846,38.21057],[-122.13907,38.21056]]],[[[-122.07296,38.24308],[-122.07237,38.24316],[-122.07293,38.24317],[-122.07296,38.24308]]],[[[-122.07294,38.24337],[-122.07293,38.24354],[-122.07293,38.24371],[-122.07294,38.24337]]],[[[-122.07207,38.24524],[-122.07168,38.24451],[-122.07168,38.24523],[-122.07207,38.24524]]],[[[-122.07081,38.26736],[-122.06984,38.26703],[-122.06943,38.26779],[-122.07041,38.26811],[-122.07081,38.26736]]],[[[-122.06882,38.2691],[-122.06824,38.26916],[-122.06824,38.26947],[-122.06882,38.2691]]],[[[-122.01998,38.25807],[-122.01996062745934,38.25694639264211],[-122.0178157549164,38.258128230809426],[-122.01998,38.25807]]],[[[-122.01989,38.26205],[-122.01739,38.26201],[-122.01738,38.26285],[-122.01988,38.2629],[-122.01989,38.26205]]],[[[-122.00673,38.26264],[-122.00664,38.25332],[-121.98823,38.25301],[-121.98808,38.26488],[-121.9881,38.26365],[-121.98978,38.26364],[-121.98978,38.26243],[-121.9915,38.26243],[-121.99149,38.26491],[-122.00529,38.26503],[-122.00326,38.26501],[-122.0033,38.26238],[-122.00673,38.26264]]],[[[-121.96611,38.27424],[-121.96445,38.27421],[-121.96442,38.27596],[-121.96605,38.27599],[-121.96611,38.27424]]],[[[-121.93370503597919,38.30823237351932],[-121.933,38.28297],[-121.93067,38.28294],[-121.93063,38.27928],[-121.91508349314758,38.27921112307091],[-121.9155,38.3082],[-121.9337,38.3086],[-121.93370503597919,38.30823237351932]]],[[[-121.915380618889,38.264614702911786],[-121.89235174418604,38.28208488372093],[-121.9061,38.2723],[-121.91538,38.26464],[-121.915380618889,38.264614702911786]]],[[[-121.91501,38.2734],[-121.91500009986949,38.27340695091597],[-121.91500316828444,38.27362051259679],[-121.91501,38.2734]]]]}},{"type":"Feature","properties":{"GEOID":"0609592610","NAME":"Rio Vista","COUNTY":"095"},"geometry":{"type":"MultiPolygon","coordinates":[[[[-121.9344,38.1679],[-121.9283,38.1598],[-121.9166,38.15],[-121.9112,38.1472],[-121.9089,38.1439],[-121.9087,38.1399],[-121.914,38.1345],[-121.9153,38.1315],[-121.9151,38.1246],[-121.9129,38.1206],[-121.91,38.119],[-121.9034,38.1195],[-121.8985,38.1251],[-121.8957,38.1264],[-121.8914,38.126],[-121.8891,38.1236],[-121.8886,38.1201],[-121.8909,38.1124],[-121.8895,38.1049],[-121.8959,38.0976],[-121.8863,38.093],[-121.8824,38.0863],[-121.8854,38.0804],[-121.8851,38.0788],[-121.8783,38.0732],[-121.8616,38.0699],[-121.8424,38.0767],[-121.8376,38.0744],[-121.8279,38.0662],[-121.8108,38.0608],[-121.8016,38.0595],[-121.7964,38.0608],[-121.7432,38.0872],[-121.7293,38.0823],[-121.7139,38.0845],[-121.7109,38.0865],[-121.7084,38.0915],[-121.7065,38.1119],[-121.6984,38.1213],[-121.6921,38.1331],[-121.6877,38.1468],[-121.68675763841567,38.15254391822828],[-121.68705,38.15187],[-121.6877,38.14683],[-121.68972,38.14256],[-121.69587,38.144],[-121.6942,38.14931],[-121.69457,38.14854],[-121.69629,38.15041],[-121.70332,38.1496],[-121.72125,38.16377],[-121.71091,38.17182],[-121.72448,38.18243],[-121.73247,38.18328],[-121.73225,38.19789],[-121.72301,38.19782],[-121.72298,38.20501],[-121.71373,38.20507],[-121.71371,38.1948],[-121.70848,38.19505],[-121.70962,38.19848],[-121.70725,38.19896],[-121.70467,38.19789],[-121.70454,38.19471],[-121.69742,38.19502],[-121.69334,38.19666],[-121.68311,38.19703],[-121.68212,38.18052],[-121.68505,38.18289],[-121.68622,38.18152],[-121.6862,38.1777],[-121.68943,38.17532],[-121.68414,38.17109],[-121.67103,38.17684],[-121.66875763825438,38.175305307925534],[-121.6629,38.1819],[-121.6466,38.186],[-121.6421,38.19],[-121.6323,38.1943],[-121.6214,38.1936],[-121.6154,38.1957],[-121.6127,38.1989],[-121.6104,38.2084],[-121.6021,38.2216],[-121.6032,38.2373],[-121.6018,38.2447],[-121.6021,38.252],[-121.6002,38.2578],[-121.604,38.2701],[-121.6007,38.2784],[-121.6014,38.2813],[-121.6054,38.2857],[-121.6039,38.2895],[-121.6052,38.2961],[-121.5999,38.3015],[-121.5997,38.3046],[-121.5976,38.3072],[-121.5987,38.3099],[-121.5933,38.3131],[-121.7122,38.3145],[-121.7124,38.2922],[-121.716,38.2917],[-121.7172,38.2873],[-121.7201,38.2866],[-121.7224,38.287],[-121.7273,38.2908],[-121.7389,38.2928],[-121.7483,38.297],[-121.7501,38.299],[-121.754,38.2996],[-121.7567,38.3027],[-121.757,38.3051],[-121.7582,38.3042],[-121.7597,38.3068],[-121.8215,38.3075],[-121.8235,38.3078],[-121.8234,38.315],[-121.9155,38.3155],[-121.91506901495163,38.279211058927004],[-121.91483,38.27921],[-121.9150027711533,38.273633331107504],[-121.91500008269566,38.27340696297377],[-121.89742,38.28575],[-121.8963,38.28575],[-121.89219,38.2822],[-121.89235174418604,38.28208488372093],[-121.915380618889,38.264614702911786],[-121.91545956284153,38.26138786885246],[-121.9145,38.2611],[-121.9154,38.2429],[-121.9119,38.2416],[-121.9036,38.2284],[-121.9213,38.2281],[-121.9194,38.2251],[-121.9197,38.2219],[-121.9176,38.2204],[-121.9194,38.2189],[-121.9172,38.2177],[-121.9188,38.2142],[-121.9213,38.2128],[-121.921,38.2088],[-121.9229,38.2062],[-121.9207,38.1994],[-121.9275,38.195],[-121.9303,38.1898],[-121.929,38.185],[-121.9186,38.1786],[-121.9344,38.1679]]],[[[-121.68567044935165,38.15917059442804],[-121.6856,38.1596],[-121.68414286878566,38.160616157294214],[-121.68565,38.15964],[-121.68567044935165,38.15917059442804]]],[[[-121.67859912171615,38.164482191434786],[-121.678,38.1649],[-121.67045752593451,38.1733915270936],[-121.67163,38.17248],[-121.67859912171615,38.164482191434786]]]]}}]}