{"type":"FeatureCollection","features":[{"type":"Feature","geometry":{"type":"Polygon","coordinates":[[[-123.0802,38.6696],[-123.0754,38.6624],[-123.0746,38.6587],[-123.068,38.6534],[-123.0685,38.6513],[-123.0659,38.649],[-123.0561,38.6458],[-123.053,38.646],[-123.0517,38.6481],[-123.0499,38.6473],[-123.0522,38.6391],[-123.0481,38.6376],[-123.0442,38.6321],[-123.0431,38.6323],[-123.0449,38.6309],[-123.0448,38.629],[-123.0436,38.6308],[-123.0395,38.6286],[-123.0386,38.6261],[-123.0365,38.6258],[-123.0366,38.6244],[-123.0385,38.6234],[-123.0322,38.6226],[-123.0279,38.6184],[-123.0249,38.6175],[-123.0235,38.6162],[-123.0244,38.6139],[-123.0189,38.6108],[-123.0187,38.6085],[-123.0174,38.6094],[-123.0117,38.6084],[-122.9979,38.5974],[-123.0043,38.5926],[-123.0006,38.5902],[-123.0047,38.5911],[-123.0094,38.5893],[-123.0126,38.5896],[-123.0195,38.5951],[-123.0388,38.5913],[-123.0443,38.5862],[-123.0611,38.5897],[-123.0657,38.585],[-123.0663,38.5822],[-123.0652,38.5795],[-123.0628,38.5779],[-123.0589,38.578],[-123.0511,38.5733],[-123.0497,38.5707],[-123.0478,38.5707],[-123.0466,38.5686],[-123.0442,38.5692],[-123.0399,38.5661],[-123.0395,38.5675],[-123.0382,38.5661],[-123.0377,38.567],[-123.0362,38.5652],[-123.0318,38.5653],[-123.0303,38.5671],[-123.0268,38.5665],[-123.0264,38.5646],[-123.0176,38.5656],[-123.0123,38.5622],[-123.0114,38.5644],[-123.0091,38.5629],[-123.0049,38.5651],[-123.0029,38.5636],[-122.9997,38.5661],[-122.9889,38.5622],[-122.9866,38.563],[-122.9782,38.5621],[-122.9782,38.5602],[-122.9697,38.5561],[-122.9688,38.5527],[-122.9661,38.5503],[-122.9638,38.5512],[-122.963,38.5493],[-122.9586,38.5487],[-122.9551,38.5498],[-122.9437,38.5457],[-122.9281,38.5429],[-122.9199,38.5386],[-122.9134,38.5399],[-122.9027,38.5374],[-122.888,38.5394],[-122.88,38.5342],[-122.8741,38.5341],[-122.8703,38.536],[-122.8682,38.5357],[-122.8683,38.5295],[-122.8661,38.5245],[-122.8669,38.5186],[-122.8763,38.5215],[-122.8899,38.52],[-122.8902,38.5179],[-122.883,38.515],[-122.8844,38.5117],[-122.883,38.5079],[-122.8862,38.4978],[-122.8896,38.4944],[-122.893,38.4938],[-122.8896,38.4934],[-122.8879,38.4918],[-122.8838,38.492],[-122.8813,38.4942],[-122.8786,38.4939],[-122.8778,38.4969],[-122.8682,38.4967],[-122.8655,38.5013],[-122.861,38.5032],[-122.8576,38.502],[-122.857,38.4979],[-122.85302043568464,38.494218903008296],[-122.85371,38.49578],[-122.8511,38.497],[-122.85404,38.49706],[-122.85406,38.4981],[-122.85112,38.49821],[-122.85423,38.4984],[-122.85422,38.49903],[-122.8488,38.49844],[-122.84882,38.50095],[-122.84447,38.5009],[-122.84426,38.4923],[-122.84440829948618,38.49244881983525],[-122.845,38.4888],[-122.8417,38.4857],[-122.8424,38.4846],[-122.8358,38.4818],[-122.8256,38.4832],[-122.8257,38.495],[-122.827,38.4963],[-122.8258,38.4988],[-122.826,38.5108],[-122.8213,38.5109],[-122.8213,38.5214],[-122.8169,38.5218],[-122.8168,38.5248],[-122.80208852649154,38.52505511225737],[-122.80196,38.52574],[-122.81681,38.5248],[-122.81674,38.53632],[-122.82599,38.53633],[-122.82605,38.54371],[-122.82832,38.54371],[-122.82832,38.54733],[-122.83413,38.54738],[-122.83426,38.55098],[-122.83165,38.55105],[-122.83179,38.55471],[-122.83534,38.55472],[-122.83502,38.56009],[-122.8359,38.5642],[-122.83671,38.56482],[-122.83311,38.56547],[-122.83364,38.56605],[-122.83216,38.56691],[-122.8339,38.56929],[-122.83108,38.57017],[-122.82318,38.56182],[-122.82227,38.5618],[-122.82593,38.56532],[-122.81782,38.57027],[-122.81793,38.56177],[-122.80285,38.56225],[-122.80269,38.56563],[-122.80204,38.56593],[-122.78381,38.56598],[-122.78385,38.5631],[-122.7847,38.56213],[-122.78256,38.56205],[-122.78259,38.55883],[-122.78683,38.55888],[-122.7869,38.5569],[-122.78582,38.55691],[-122.78586,38.55494],[-122.78842,38.55494],[-122.78847,38.55136],[-122.7957,38.5514],[-122.79573,38.54957],[-122.79454,38.54953],[-122.7945,38.54768],[-122.78654,38.54754],[-122.78648,38.54033],[-122.78857,38.54033],[-122.78843,38.53713],[-122.78367,38.53711],[-122.7836,38.53305],[-122.77233,38.53297],[-122.7723,38.53028],[-122.77448,38.53026],[-122.77443,38.5257],[-122.77931,38.52571],[-122.7791307413793,38.525453224137934],[-122.7649,38.5257],[-122.7652,38.5318],[-122.7668,38.5351],[-122.7721,38.5402],[-122.7745,38.5403],[-122.7747,38.5449],[-122.7722,38.5468],[-122.7674,38.5451],[-122.7625,38.5477],[-122.7622,38.5496],[-122.7585,38.5519],[-122.758,38.5534],[-122.74,38.5583],[-122.7408,38.557],[-122.7361,38.5549],[-122.731,38.5577],[-122.7221,38.5495],[-122.7137,38.5499],[-122.7093,38.5487],[-122.6971,38.5547],[-122.6912,38.5602],[-122.6921,38.5629],[-122.6898,38.5641],[-122.6843,38.5637],[-122.6841,38.5673],[-122.6818,38.5696],[-122.6801,38.5705],[-122.6777,38.5696],[-122.6738,38.572],[-122.6756,38.5746],[-122.674,38.5766],[-122.6755,38.5767],[-122.6749,38.5787],[-122.6802,38.5846],[-122.683,38.5948],[-122.6857,38.5968],[-122.688,38.6034],[-122.6915,38.6073],[-122.6967,38.6084],[-122.7011,38.6113],[-122.7051,38.6113],[-122.7099,38.614],[-122.7151,38.6149],[-122.7231,38.6129],[-122.7342,38.6133],[-122.7382,38.6113],[-122.7445,38.6174],[-122.7476,38.6185],[-122.751,38.6181],[-122.7503,38.6145],[-122.7534,38.6121],[-122.7561,38.6118],[-122.7568,38.6136],[-122.7584,38.6139],[-122.7678,38.6095],[-122.7723,38.6104],[-122.7727,38.6122],[-122.774,38.6112],[-122.7844,38.6133],[-122.7854,38.6215],[-122.7887,38.6257],[-122.789,38.6321],[-122.7947,38.6379],[-122.7971,38.6464],[-122.8214,38.6534],[-122.8282,38.6585],[-122.8376,38.6593],[-122.8496,38.6627],[-122.8537,38.6668],[-122.8604,38.6662],[-122.8633,38.665],[-122.8633,38.6638],[-122.8723,38.6623],[-122.8718,38.6594],[-122.8826,38.6614],[-122.891,38.657],[-122.9072,38.6576],[-122.9115,38.6518],[-122.9104,38.6488],[-122.9173,38.6507],[-122.9221,38.6548],[-122.9265,38.6531],[-122.9304,38.6586],[-122.9372,38.6602],[-122.9405,38.6627],[-122.9425,38.6665],[-122.9422,38.6779],[-122.9445,38.6805],[-122.95,38.6822],[-122.9535,38.687],[-122.9564,38.6886],[-122.9546,38.6907],[-122.9559,38.6957],[-122.9667,38.7062],[-122.9753,38.708],[-122.9761,38.712],[-122.9804,38.7134],[-122.9868,38.7194],[-122.9986,38.7202],[-123.0002,38.7162],[-122.995,38.7145],[-122.9947,38.7126],[-122.9997,38.7117],[-123.0038,38.7083],[-123.0053,38.71],[-123.0034,38.7124],[-123.0054,38.7132],[-123.0072,38.7069],[-123.0133,38.7049],[-123.0133,38.6939],[-123.0068,38.6886],[-123.0068,38.6871],[-123.0091,38.6856],[-123.0109,38.6868],[-123.0144,38.6865],[-123.0157,38.6816],[-123.0181,38.6793],[-123.0213,38.6795],[-123.0243,38.6769],[-123.026,38.6727],[-123.0224,38.6735],[-123.0216,38.6727],[-123.0268,38.6691],[-123.0264,38.6663],[-123.0323,38.6698],[-123.0373,38.668],[-123.0479,38.673],[-123.052,38.6731],[-123.0597,38.678],[-123.0642,38.6757],[-123.0669,38.678],[-123.0735,38.6752],[-123.0759,38.6753],[-123.0802,38.6696]],[[-122.90286,38.65683],[-122.90013,38.65692],[-122.9002,38.65555],[-122.89496,38.64956],[-122.89629,38.64887],[-122.89872,38.65169],[-122.90046,38.65161],[-122.90052,38.65317],[-122.90192,38.65317],[-122.90159,38.6547],[-122.90286,38.65683]],[[-122.88594,38.6392],[-122.88186,38.6409],[-122.88186,38.64254],[-122.87511,38.64245],[-122.87292,38.64764],[-122.86855,38.64754],[-122.86899,38.6497],[-122.85411,38.64968],[-122.85407,38.64232],[-122.85778,38.64229],[-122.86064,38.64091],[-122.86065,38.63866],[-122.86455,38.63868],[-122.86454,38.63958],[-122.86652,38.63961],[-122.8665,38.63773],[-122.86456,38.63772],[-122.86458,38.63495],[-122.86618,38.63499],[-122.86518,38.63137],[-122.86384,38.63143],[-122.86226,38.62952],[-122.86348,38.62866],[-122.86227,38.62866],[-122.86227,38.62795],[-122.85422,38.62785],[-122.85345,38.62328],[-122.85144,38.62281],[-122.84998,38.62382],[-122.84918,38.62341],[-122.84916,38.62419],[-122.84719,38.62385],[-122.84713,38.62057],[-122.84617,38.62056],[-122.84649,38.61493],[-122.84856,38.61505],[-122.84877,38.61321],[-122.84561,38.6132],[-122.8451,38.61458],[-122.84358,38.61454],[-122.84408,38.61123],[-122.84249,38.61191],[-122.84494,38.60911],[-122.84499,38.61003],[-122.85186,38.60845],[-122.85614,38.60836],[-122.85192,38.60769],[-122.85332,38.60683],[-122.85289,38.60457],[-122.85567,38.60418],[-122.85582,38.60345],[-122.85214,38.60061],[-122.84895,38.59289],[-122.86501,38.6021],[-122.86671,38.60212],[-122.86671,38.60044],[-122.87256,38.60038],[-122.87252,38.60234],[-122.86854,38.60229],[-122.86781,38.60344],[-122.87361,38.60773],[-122.87861,38.61424],[-122.87764,38.63577],[-122.87923,38.637],[-122.88283,38.63756],[-122.88519,38.63595],[-122.88594,38.6392]],[[-122.88239,38.60448],[-122.88108,38.60487],[-122.87863,38.60131],[-122.87935,38.60088],[-122.88182,38.60289],[-122.88239,38.60448]],[[-122.88187,38.61097],[-122.88114,38.6092],[-122.88161,38.60992],[-122.88187,38.61097]],[[-122.86611,38.58283],[-122.86557,38.58292],[-122.86581,38.58439],[-122.86167,38.58497],[-122.86088,38.58196],[-122.86586,38.58152],[-122.86611,38.58283]],[[-122.86572,38.59128],[-122.86415,38.59124],[-122.86456,38.58965],[-122.8657,38.58966],[-122.86572,38.59128]],[[-122.86115,38.50391],[-122.85805,38.51328],[-122.85562,38.51593],[-122.85372,38.51594],[-122.85354,38.50383],[-122.85864,38.50239],[-122.86102,38.50323],[-122.86115,38.50391]],[[-122.86071,38.63176],[-122.8602,38.63213],[-122.859,38.63073],[-122.85958,38.63037],[-122.86071,38.63176]],[[-122.85752,38.55489],[-122.85218,38.56239],[-122.84867,38.56277],[-122.85412,38.55876],[-122.85661,38.55482],[-122.85752,38.55489]],[[-122.85679,38.63248],[-122.85663,38.63241],[-122.85676,38.63237],[-122.85679,38.63248]],[[-122.83169,38.52242],[-122.8307,38.52649],[-122.82743,38.52646],[-122.82742,38.52916],[-122.82605,38.52918],[-122.82605,38.52159],[-122.82913,38.52152],[-122.83169,38.52242]]]},"properties":{"GEOID":"0609791270","NAME":"Healdsburg","COUNTY":"097"}},{"type":"Feature","geometry":{"type":"MultiPolygon","coordinates":[[[[-122.846,38.4833],[-122.8453,38.4806],[-122.8427,38.4786],[-122.8411,38.4684],[-122.8375,38.4631],[-122.8338,38.4611],[-122.8354,38.4558],[-122.8344,38.4514],[-122.836,38.4474],[-122.8387,38.4449],[-122.8389,38.4349],[-122.8349,38.4338],[-122.8339,38.4307],[-122.83026327054795,38.430336327054796],[-122.8303,38.43056],[-122.82303,38.43057],[-122.82066,38.42814],[-122.82056,38.42378],[-122.8294671171863,38.425798018737524],[-122.8294,38.4251],[-122.8239,38.4204],[-122.8247,38.4166],[-122.8203,38.416],[-122.8151,38.4124],[-122.81721558050523,38.410218307603984],[-122.81641,38.41022],[-122.81712,38.40932],[-122.8126,38.40934],[-122.81259948846098,38.409320348375715],[-122.81258,38.41962],[-122.81018,38.41729],[-122.81228,38.4196],[-122.81123,38.41962],[-122.81052,38.42325],[-122.80963,38.42326],[-122.80963,38.4206],[-122.80887,38.42058],[-122.80856,38.42326],[-122.79501,38.42332],[-122.795,38.41966],[-122.80348,38.41962],[-122.80331,38.40815],[-122.80706,38.40681],[-122.80711,38.40801],[-122.80757,38.40646],[-122.80814,38.40787],[-122.81025,38.40711],[-122.81026,38.40569],[-122.81241,38.40484],[-122.8124949519474,38.405304403979095],[-122.81248,38.40473],[-122.81587,38.4036],[-122.81561,38.40119],[-122.8158679419525,38.40115527704486],[-122.8156363099631,38.40039861254613],[-122.81557,38.40138],[-122.80095,38.40785],[-122.79379,38.40112],[-122.81056038230717,38.397201026450325],[-122.8083,38.3962],[-122.8004,38.3958],[-122.7971363508855,38.3906572801832],[-122.78479,38.39508],[-122.78595,38.39608],[-122.78277,38.39719],[-122.7814,38.39613],[-122.77933,38.3976],[-122.7781,38.39654],[-122.78018,38.39508],[-122.77236,38.38861],[-122.77865,38.3885],[-122.77985,38.38779],[-122.78498,38.39288],[-122.77998,38.3877],[-122.78111,38.38697],[-122.78767,38.38686],[-122.78757,38.38312],[-122.79395215358932,38.38255893155259],[-122.7887,38.3811],[-122.77764411698188,38.374432711767696],[-122.77764,38.37544],[-122.76874,38.3735],[-122.76884723312165,38.36630563238372],[-122.7662,38.3654],[-122.7612,38.3618],[-122.7561,38.3601],[-122.7526,38.3555],[-122.7461,38.3524],[-122.7413,38.3521],[-122.7413,38.3633],[-122.72124,38.363229614035085],[-122.72124,38.36327],[-122.72524,38.36326],[-122.72524,38.36538],[-122.71925,38.36537],[-122.71927,38.36952],[-122.71497,38.36958],[-122.71259841815527,38.36577016852039],[-122.7124,38.3683],[-122.7144,38.3718],[-122.7134,38.3732],[-122.7135,38.3793],[-122.6859,38.3795],[-122.6856,38.382],[-122.6788,38.3774],[-122.6675,38.3724],[-122.667,38.3552],[-122.6584,38.3566],[-122.6463,38.3483],[-122.6436,38.3473],[-122.6388,38.3484],[-122.6363,38.3591],[-122.6318,38.3641],[-122.6262,38.3663],[-122.6237,38.369],[-122.6239,38.3736],[-122.6267,38.3793],[-122.6292,38.3811],[-122.6305,38.387],[-122.6245,38.398],[-122.6212,38.3992],[-122.6104,38.397],[-122.5992,38.3851],[-122.5957,38.3847],[-122.5917,38.3878],[-122.574,38.3886],[-122.5702,38.3869],[-122.562,38.3866],[-122.5521,38.3808],[-122.5526,38.3849],[-122.5507,38.3867],[-122.5525,38.39],[-122.551,38.3939],[-122.5536,38.4021],[-122.5512,38.4052],[-122.5542,38.4073],[-122.5538,38.4123],[-122.5554,38.4147],[-122.5644,38.4195],[-122.5648,38.4208],[-122.5594,38.4243],[-122.5595,38.4291],[-122.5447,38.4387],[-122.542,38.4424],[-122.5369,38.4415],[-122.5301,38.4427],[-122.5237,38.44],[-122.5218,38.438],[-122.5145,38.4375],[-122.5103,38.4353],[-122.5002,38.4372],[-122.4966,38.4406],[-122.496,38.443],[-122.497,38.444],[-122.4966,38.4465],[-122.5002,38.4493],[-122.5002,38.4528],[-122.506,38.4557],[-122.4967,38.4548],[-122.4969,38.4557],[-122.5096,38.4575],[-122.5085,38.4603],[-122.5097,38.4622],[-122.5079,38.4645],[-122.5061,38.4641],[-122.5068,38.4655],[-122.516,38.4709],[-122.5201,38.4714],[-122.5297,38.4697],[-122.5313,38.4785],[-122.5364,38.4827],[-122.538,38.4867],[-122.5404,38.4887],[-122.541,38.4921],[-122.5449,38.4963],[-122.5426,38.4991],[-122.5378,38.4982],[-122.5353,38.5017],[-122.5407,38.5031],[-122.5427,38.5072],[-122.5455,38.5068],[-122.5472,38.5103],[-122.55,38.5112],[-122.5417,38.5133],[-122.5453,38.5167],[-122.5432,38.518],[-122.5439,38.52],[-122.5468,38.5212],[-122.5471,38.5226],[-122.5505,38.522],[-122.5512,38.5242],[-122.5542,38.5262],[-122.5577,38.5257],[-122.5624,38.5271],[-122.5638,38.5254],[-122.5666,38.5256],[-122.5662,38.5281],[-122.5703,38.53],[-122.5696,38.5331],[-122.5725,38.536],[-122.574,38.5404],[-122.5772,38.5423],[-122.5821,38.5494],[-122.5859,38.5494],[-122.5873,38.5526],[-122.601,38.5559],[-122.6032,38.5588],[-122.6081,38.5599],[-122.6111,38.5584],[-122.6143,38.5587],[-122.6208,38.5603],[-122.6204,38.5657],[-122.6227,38.5677],[-122.6267,38.5702],[-122.6318,38.5694],[-122.6326,38.5718],[-122.6309,38.5751],[-122.6319,38.5765],[-122.6302,38.5785],[-122.6334,38.5801],[-122.6351,38.583],[-122.651,38.581],[-122.6631,38.5851],[-122.6719,38.5837],[-122.6733,38.5821],[-122.6772,38.5822],[-122.6748,38.5785],[-122.6755,38.5767],[-122.674,38.5767],[-122.6756,38.5746],[-122.674,38.5717],[-122.6777,38.5696],[-122.6801,38.5705],[-122.6818,38.5696],[-122.6841,38.5673],[-122.6843,38.5637],[-122.6898,38.5641],[-122.6921,38.5629],[-122.6912,38.5602],[-122.6971,38.5547],[-122.709,38.5488],[-122.7137,38.5499],[-122.7221,38.5495],[-122.731,38.5577],[-122.7361,38.5549],[-122.7408,38.557],[-122.74,38.5583],[-122.758,38.5534],[-122.7585,38.5519],[-122.7622,38.5496],[-122.7625,38.5477],[-122.7674,38.5451],[-122.7722,38.5468],[-122.7747,38.5449],[-122.7745,38.5403],[-122.7721,38.5402],[-122.7668,38.5351],[-122.7652,38.5318],[-122.7648,38.5257],[-122.779129874879,38.52545198293479],[-122.77894,38.52518],[-122.77982,38.52515],[-122.77995126196693,38.5254377666198],[-122.78375350515653,38.5253719585646],[-122.78378,38.52259],[-122.78631,38.52293],[-122.78658,38.52366],[-122.78776,38.52313],[-122.78303,38.51774],[-122.78825,38.51768],[-122.78822,38.51479],[-122.79139,38.51845],[-122.7992,38.5183],[-122.80024,38.52194],[-122.80269,38.52185],[-122.80208861885797,38.52505462005823],[-122.8168,38.5248],[-122.8169,38.5218],[-122.8213,38.5214],[-122.8213,38.5109],[-122.826,38.5108],[-122.8258,38.4988],[-122.827,38.4963],[-122.8257,38.495],[-122.8256,38.4832],[-122.8353,38.4818],[-122.8418,38.4845],[-122.846,38.4833]],[[-122.83444,38.45085],[-122.83272,38.44963],[-122.82006,38.44694],[-122.816,38.44513],[-122.83442,38.44517],[-122.83444,38.45085]],[[-122.82271,38.43059],[-122.82051,38.43056],[-122.82054,38.42831],[-122.82271,38.43059]],[[-122.81578,38.40347],[-122.79828,38.40957],[-122.81556,38.40157],[-122.81578,38.40347]],[[-122.80393,38.51853],[-122.80386,38.52182],[-122.80268,38.52168],[-122.80269,38.51825],[-122.80393,38.51853]],[[-122.80058,38.40801],[-122.79433,38.41086],[-122.78763,38.40115],[-122.79241,38.40005],[-122.80058,38.40801]],[[-122.79055,38.44522],[-122.78818,38.44524],[-122.78808,38.44365],[-122.79053,38.44273],[-122.79055,38.44522]],[[-122.77885,38.45981],[-122.77295,38.45981],[-122.77299,38.46286],[-122.76968,38.46286],[-122.76974,38.46951],[-122.76516,38.46985],[-122.7656,38.47305],[-122.76976,38.47305],[-122.76983,38.48164],[-122.76049,38.48131],[-122.7605,38.48365],[-122.75127,38.48373],[-122.75126,38.4828],[-122.73826,38.48369],[-122.73955,38.48464],[-122.73497,38.48466],[-122.73447,38.48267],[-122.7334,38.48282],[-122.73435,38.48222],[-122.73337,38.48189],[-122.73399,38.48121],[-122.73275,38.47968],[-122.72921,38.4817],[-122.72329,38.48235],[-122.72297,38.4926],[-122.72427,38.4964],[-122.73253,38.4964],[-122.73344,38.50173],[-122.73446,38.50183],[-122.73534,38.50311],[-122.7337,38.50187],[-122.73293,38.5038],[-122.72342,38.50384],[-122.7235,38.50697],[-122.7193,38.50818],[-122.71843,38.5065],[-122.71447,38.50429],[-122.71339,38.49657],[-122.70499,38.49663],[-122.70491,38.49294],[-122.6976,38.49342],[-122.69762,38.49539],[-122.69861,38.4955],[-122.69707,38.49557],[-122.69734,38.49664],[-122.69559,38.49664],[-122.69553,38.49302],[-122.68635,38.49302],[-122.68621,38.48217],[-122.68208,38.48211],[-122.6824,38.47828],[-122.67896,38.47846],[-122.67933,38.47926],[-122.67848,38.4793],[-122.68011,38.4801],[-122.68104,38.48322],[-122.6802,38.48344],[-122.68056,38.48414],[-122.67819,38.48387],[-122.67779,38.48511],[-122.67709,38.48512],[-122.67708,38.48426],[-122.67265,38.4844],[-122.67306,38.48224],[-122.66787,38.48225],[-122.6677,38.48723],[-122.66325,38.48734],[-122.66342,38.48486],[-122.6596,38.48516],[-122.6581,38.48298],[-122.65854,38.48248],[-122.65325,38.48384],[-122.65188,38.48317],[-122.64922,38.48595],[-122.64465,38.48589],[-122.64462,38.48251],[-122.63409,38.48256],[-122.63414,38.46977],[-122.62615,38.4694],[-122.62658,38.46841],[-122.62951,38.46776],[-122.62979,38.46682],[-122.6255,38.46587],[-122.62602,38.46456],[-122.62841,38.46287],[-122.62775,38.46248],[-122.63154,38.45995],[-122.62901,38.45846],[-122.63089,38.45732],[-122.5972,38.44162],[-122.58699,38.43918],[-122.5795,38.45037],[-122.57004,38.4464],[-122.57189,38.44274],[-122.5757,38.44337],[-122.57819,38.43547],[-122.57567,38.43439],[-122.5763,38.43248],[-122.57387,38.43145],[-122.57553,38.42898],[-122.57338,38.42811],[-122.58181,38.41586],[-122.59067,38.42115],[-122.60017,38.42143],[-122.60022,38.42623],[-122.60196,38.43054],[-122.60578,38.43206],[-122.61255,38.4371],[-122.61484,38.44224],[-122.61336,38.44381],[-122.61577,38.4451],[-122.62001,38.44515],[-122.62729,38.4487],[-122.62875,38.44757],[-122.63451,38.4513],[-122.63513,38.45084],[-122.63658,38.45164],[-122.63881,38.45459],[-122.64136,38.4555],[-122.64178,38.45656],[-122.64352,38.45134],[-122.64453,38.45143],[-122.6481,38.44908],[-122.64776,38.44588],[-122.65108,38.4456],[-122.65135,38.4427],[-122.64886,38.44138],[-122.648,38.43807],[-122.64854,38.43742],[-122.64834,38.41988],[-122.65564,38.41989],[-122.65759,38.41741],[-122.65729,38.4169],[-122.66162,38.41691],[-122.66276,38.41793],[-122.66277,38.41661],[-122.66705,38.41584],[-122.67049,38.41621],[-122.66766,38.41981],[-122.67295,38.42298],[-122.67483,38.42685],[-122.67789,38.43046],[-122.68411,38.43225],[-122.68467,38.42939],[-122.6875,38.42994],[-122.6857,38.4281],[-122.68574,38.42374],[-122.68984,38.42373],[-122.69046,38.42174],[-122.69049,38.42017],[-122.68605,38.42008],[-122.68599,38.41654],[-122.69014,38.41605],[-122.69267,38.41735],[-122.69475,38.41731],[-122.6978,38.41648],[-122.69779,38.4142],[-122.69501,38.41421],[-122.69501,38.41165],[-122.7043,38.41252],[-122.70408,38.41074],[-122.70252,38.40909],[-122.71331,38.40911],[-122.71331,38.40733],[-122.70877,38.40734],[-122.70875,38.40452],[-122.7133,38.4045],[-122.7133,38.40319],[-122.70875,38.40319],[-122.70874,38.40186],[-122.71042,38.40186],[-122.71049,38.39899],[-122.7132,38.4018],[-122.71344,38.40082],[-122.71597,38.40083],[-122.71621,38.40185],[-122.72101,38.40183],[-122.72096,38.39694],[-122.72678,38.39693],[-122.72678,38.40182],[-122.74145,38.40182],[-122.74144,38.40802],[-122.74388,38.40807],[-122.74388,38.40894],[-122.75072,38.40896],[-122.75538,38.40842],[-122.75528,38.40756],[-122.7565,38.40758],[-122.75645,38.40662],[-122.75073,38.40673],[-122.75073,38.40349],[-122.76877,38.40351],[-122.76892,38.42366],[-122.77133,38.42326],[-122.77196,38.42463],[-122.77302,38.42459],[-122.77128,38.42624],[-122.77143,38.43056],[-122.77447,38.43053],[-122.77439,38.43789],[-122.7753,38.43799],[-122.77532,38.44409],[-122.77647,38.44522],[-122.77323,38.44528],[-122.77283,38.45254],[-122.77448,38.45254],[-122.77457,38.45609],[-122.77883,38.45629],[-122.77885,38.45981]],[[-122.76865,38.36719],[-122.76863,38.37182],[-122.76362,38.37192],[-122.76357,38.36429],[-122.76558,38.36576],[-122.76852,38.36628],[-122.76865,38.36719]],[[-122.76361,38.37409],[-122.75871,38.37418],[-122.75867,38.3721],[-122.76062,38.37207],[-122.76062,38.37293],[-122.76358,38.37285],[-122.76361,38.37409]],[[-122.76346,38.37118],[-122.75863,38.37126],[-122.7586,38.37038],[-122.76303,38.37031],[-122.76346,38.37118]],[[-122.76238,38.36948],[-122.75859,38.36953],[-122.75857,38.36868],[-122.76176,38.36864],[-122.76238,38.36948]],[[-122.76047,38.53283],[-122.76046,38.53374],[-122.75968,38.53374],[-122.75969,38.53309],[-122.76047,38.53283]]],[[[-122.76459,38.45982],[-122.76454,38.45689],[-122.76043,38.45736],[-122.76045,38.45985],[-122.76459,38.45982]]],[[[-122.76038,38.46417],[-122.75833,38.46389],[-122.75885,38.4629],[-122.75685,38.46136],[-122.75615,38.46304],[-122.75576,38.46236],[-122.75126,38.46235],[-122.75126,38.46322],[-122.75259,38.46323],[-122.75259,38.46457],[-122.75655,38.46456],[-122.75651,38.46581],[-122.7585,38.46628],[-122.75866,38.46458],[-122.76038,38.46417]]],[[[-122.75978,38.46164],[-122.75976,38.46114],[-122.75972,38.45984],[-122.75655,38.45984],[-122.75734,38.4613],[-122.75978,38.46164]]],[[[-122.74367,38.44511],[-122.74337,38.4427],[-122.73479,38.44306],[-122.73402,38.44374],[-122.73419,38.44563],[-122.73599,38.44557],[-122.7359,38.44489],[-122.73711,38.44485],[-122.73717,38.44552],[-122.73853,38.44536],[-122.73849,38.44477],[-122.73899,38.44543],[-122.74367,38.44511]]],[[[-122.70611,38.42343],[-122.70575,38.42278],[-122.70502,38.42161],[-122.69957,38.42167],[-122.69955,38.42579],[-122.70611,38.42343]]],[[[-122.70114,38.45747],[-122.69732,38.45717],[-122.69649,38.45827],[-122.69745,38.45937],[-122.69582,38.46165],[-122.69736,38.46258],[-122.69938,38.46032],[-122.69801,38.4591],[-122.69938,38.45966],[-122.69931,38.45881],[-122.70072,38.45859],[-122.70114,38.45747]]],[[[-122.6992,38.47431],[-122.69869,38.47126],[-122.69477,38.4728],[-122.69482,38.47475],[-122.6992,38.47431]]],[[[-122.69756,38.42645],[-122.69283,38.42542],[-122.69295,38.42623],[-122.69424,38.42628],[-122.69352,38.42671],[-122.69431,38.4275],[-122.69756,38.42645]]],[[[-122.69565,38.46157],[-122.6934,38.46196],[-122.69323,38.46321],[-122.69424,38.46393],[-122.6915,38.46361],[-122.69203,38.46455],[-122.6915,38.46581],[-122.69447,38.46721],[-122.69528,38.46595],[-122.69386,38.46538],[-122.69565,38.46157]]],[[[-122.69386,38.46815],[-122.69337,38.46795],[-122.69246,38.46757],[-122.69135,38.4691],[-122.68817,38.46879],[-122.68776,38.47021],[-122.69018,38.47114],[-122.69065,38.47039],[-122.69241,38.47041],[-122.69386,38.46815]]],[[[-122.6845,38.46922],[-122.68344,38.46918],[-122.6839,38.46481],[-122.6809,38.46529],[-122.6808,38.46648],[-122.68234,38.4666],[-122.68225,38.46736],[-122.68071,38.46725],[-122.68048,38.46905],[-122.68196,38.46914],[-122.68184,38.47031],[-122.68419,38.47132],[-122.6845,38.46922]]],[[[-122.68174,38.47242],[-122.68044,38.47207],[-122.6782,38.47344],[-122.67862,38.47437],[-122.67744,38.47667],[-122.67843,38.4753],[-122.67902,38.4759],[-122.68158,38.47568],[-122.68174,38.47242]]],[[[-122.67618,38.47528],[-122.67435,38.47584],[-122.67546,38.47622],[-122.6725,38.47793],[-122.67307,38.47878],[-122.67253,38.47887],[-122.67344,38.479],[-122.67256,38.48209],[-122.67355,38.48207],[-122.67359,38.48021],[-122.6755,38.48016],[-122.67454,38.47716],[-122.67587,38.47658],[-122.67618,38.47528]]],[[[-122.67117,38.47389],[-122.67091,38.47329],[-122.66857,38.47375],[-122.66868,38.47271],[-122.66799,38.47275],[-122.67012,38.47192],[-122.66974,38.47148],[-122.66584,38.47312],[-122.66616,38.47366],[-122.66831,38.4733],[-122.6673,38.47363],[-122.66725,38.47475],[-122.66515,38.4755],[-122.66563,38.47631],[-122.66792,38.47574],[-122.66779,38.4765],[-122.66877,38.47565],[-122.66911,38.47624],[-122.67117,38.47389]]],[[[-122.66727,38.47016],[-122.66673,38.46876],[-122.6637,38.47066],[-122.66418,38.47224],[-122.6666,38.47181],[-122.66727,38.47016]]],[[[-122.63928,38.46075],[-122.63588,38.45884],[-122.63316,38.46085],[-122.63713,38.4632],[-122.63928,38.46075]]],[[[-122.63732,38.45567],[-122.6355,38.45341],[-122.63,38.45031],[-122.62929,38.45081],[-122.63164,38.45225],[-122.63015,38.45381],[-122.63452,38.45442],[-122.63628,38.45591],[-122.63732,38.45567]]]]},"properties":{"GEOID":"0609792940","NAME":"Santa Rosa","COUNTY":"097"}},{"type":"Feature","geometry":{"type":"Polygon","coordinates":[[[-122.6305,38.3871],[-122.6292,38.3811],[-122.6267,38.3793],[-122.6239,38.3736],[-122.6232,38.3682],[-122.6202,38.367],[-122.6156,38.3678],[-122.6021,38.363],[-122.5973,38.3527],[-122.593,38.3507],[-122.5892,38.3501],[-122.5866,38.3514],[-122.5811,38.3499],[-122.5802,38.347],[-122.5736,38.3403],[-122.5732,38.3345],[-122.5718,38.3348],[-122.5665,38.3283],[-122.5694,38.3271],[-122.5735,38.3276],[-122.5747,38.3227],[-122.5734,38.3168],[-122.5676,38.3129],[-122.5536,38.2938],[-122.5553,38.2885],[-122.5598,38.2877],[-122.5632,38.2852],[-122.5462,38.2727],[-122.5455,38.2708],[-122.535,38.265],[-122.5332,38.2626],[-122.5249,38.2612],[-122.5128,38.2552],[-122.5069,38.247],[-122.5002,38.2477],[-122.5052,38.243],[-122.5057,38.2393],[-122.508,38.2368],[-122.5266,38.2362],[-122.5312,38.2314],[-122.5283,38.2229],[-122.5212,38.2173],[-122.5198,38.214],[-122.5208,38.2126],[-122.5171,38.2045],[-122.508,38.1971],[-122.5039,38.1946],[-122.5006,38.1945],[-122.4937,38.1896],[-122.4865,38.1884],[-122.4808,38.1858],[-122.4703,38.1871],[-122.4654,38.185],[-122.4637,38.1857],[-122.461,38.1809],[-122.4561,38.1803],[-122.4497,38.1764],[-122.4532,38.1755],[-122.4574,38.17],[-122.4515,38.17],[-122.4448,38.1655],[-122.4482,38.1607],[-122.4469,38.1517],[-122.4457,38.1522],[-122.4409,38.1492],[-122.4388,38.1499],[-122.4301,38.1433],[-122.4321,38.1412],[-122.4403,38.1386],[-122.441,38.1367],[-122.4356,38.1286],[-122.4364,38.126],[-122.4344,38.122],[-122.4292,38.1247],[-122.4438,38.116],[-122.4488,38.1173],[-122.4512,38.1165],[-122.4514,38.119],[-122.4534,38.1202],[-122.4558,38.1192],[-122.4594,38.1006],[-122.3475,38.0733],[-122.3878,38.1249],[-122.3911,38.1326],[-122.4075,38.1578],[-122.404,38.1604],[-122.3968,38.1615],[-122.3848,38.161],[-122.3726,38.1577],[-122.3676,38.1588],[-122.3656,38.166],[-122.3695,38.1745],[-122.3687,38.1827],[-122.3661,38.1838],[-122.3596,38.1818],[-122.3579,38.1826],[-122.3571,38.1906],[-122.3605,38.1951],[-122.3603,38.1971],[-122.3551,38.1969],[-122.3506,38.1927],[-122.3496,38.194],[-122.3509,38.1969],[-122.3507,38.2018],[-122.3575,38.2089],[-122.3615,38.21],[-122.361,38.2114],[-122.3631,38.2132],[-122.3627,38.2148],[-122.3642,38.2153],[-122.3636,38.2195],[-122.3654,38.2229],[-122.3645,38.2236],[-122.3654,38.2262],[-122.3636,38.2276],[-122.3637,38.2312],[-122.3656,38.2357],[-122.3634,38.239],[-122.3653,38.246],[-122.3692,38.2474],[-122.3707,38.2443],[-122.3739,38.2439],[-122.373,38.2472],[-122.3768,38.2485],[-122.3809,38.2529],[-122.3843,38.2545],[-122.3898,38.2608],[-122.3876,38.2738],[-122.3934,38.2737],[-122.3964,38.2712],[-122.4004,38.2745],[-122.4047,38.2817],[-122.4023,38.2843],[-122.4017,38.2883],[-122.4002,38.2897],[-122.4017,38.2907],[-122.4017,38.2953],[-122.4038,38.2998],[-122.4003,38.3032],[-122.3946,38.3047],[-122.3963,38.3091],[-122.4016,38.3138],[-122.4054,38.322],[-122.4084,38.3199],[-122.4095,38.3211],[-122.4096,38.3257],[-122.4139,38.3308],[-122.412,38.3343],[-122.4176,38.3376],[-122.4175,38.3398],[-122.4199,38.3383],[-122.421,38.3391],[-122.4252,38.3456],[-122.4276,38.3457],[-122.4268,38.349],[-122.4293,38.3495],[-122.4293,38.351],[-122.4367,38.3551],[-122.4375,38.357],[-122.4423,38.359],[-122.447,38.3591],[-122.4531,38.3628],[-122.4545,38.3658],[-122.4573,38.3677],[-122.4569,38.3707],[-122.452,38.3752],[-122.4492,38.3749],[-122.4481,38.3795],[-122.4541,38.3822],[-122.4544,38.385],[-122.457,38.3867],[-122.4658,38.3902],[-122.4703,38.3967],[-122.468,38.4001],[-122.471,38.4025],[-122.4706,38.4049],[-122.4747,38.4059],[-122.4761,38.4079],[-122.4755,38.4093],[-122.4979,38.4246],[-122.4934,38.4293],[-122.4939,38.4307],[-122.4917,38.4346],[-122.4859,38.4382],[-122.4858,38.4414],[-122.4832,38.444],[-122.4823,38.4477],[-122.48,38.4492],[-122.4798,38.4513],[-122.4881,38.4544],[-122.4922,38.4546],[-122.4936,38.4568],[-122.4969,38.4557],[-122.4967,38.4548],[-122.5052,38.4561],[-122.506,38.4557],[-122.5002,38.4528],[-122.5002,38.4493],[-122.4966,38.4465],[-122.4966,38.4406],[-122.5003,38.4372],[-122.5105,38.4353],[-122.5144,38.4375],[-122.5218,38.438],[-122.5237,38.44],[-122.5301,38.4427],[-122.5369,38.4415],[-122.5416,38.4425],[-122.5466,38.4373],[-122.5595,38.4291],[-122.5594,38.4243],[-122.5648,38.4208],[-122.5644,38.4195],[-122.5554,38.4147],[-122.5538,38.4123],[-122.5542,38.4073],[-122.5512,38.4052],[-122.5536,38.4021],[-122.551,38.3939],[-122.5525,38.39],[-122.5507,38.3867],[-122.5526,38.3849],[-122.5521,38.3808],[-122.562,38.3866],[-122.5702,38.3869],[-122.574,38.3886],[-122.5917,38.3878],[-122.5957,38.3847],[-122.5992,38.3851],[-122.6102,38.3969],[-122.6212,38.3992],[-122.6245,38.398],[-122.6305,38.3871]],[[-122.48189,38.29838],[-122.47691,38.29885],[-122.47763,38.30082],[-122.47492,38.30055],[-122.47472,38.30158],[-122.47218,38.3009],[-122.47194,38.3024],[-122.46981,38.30161],[-122.46971,38.30218],[-122.46798,38.30201],[-122.46782,38.30311],[-122.46657,38.30293],[-122.46669,38.30196],[-122.4576,38.30092],[-122.45667,38.30774],[-122.45208,38.30624],[-122.45294,38.30039],[-122.44636,38.29978],[-122.44714,38.29449],[-122.44267,38.29399],[-122.44288,38.2928],[-122.4461,38.29313],[-122.44652,38.29175],[-122.44546,38.29164],[-122.44553,38.29073],[-122.44211,38.29041],[-122.44249,38.28799],[-122.44395,38.28799],[-122.44413,38.28681],[-122.4425,38.28669],[-122.44255,38.28314],[-122.44586,38.28346],[-122.4462,38.28121],[-122.44915,38.28117],[-122.44867,38.28011],[-122.45091,38.28033],[-122.45076,38.28122],[-122.45149,38.28129],[-122.45167,38.2804],[-122.45275,38.2805],[-122.45303,38.27865],[-122.45198,38.27855],[-122.45189,38.27933],[-122.44947,38.27909],[-122.45,38.2757],[-122.45155,38.27583],[-122.45169,38.27495],[-122.45318,38.2751],[-122.45333,38.27605],[-122.45349,38.27513],[-122.45741,38.27551],[-122.4576,38.27444],[-122.4605,38.27473],[-122.46033,38.27581],[-122.46609,38.27639],[-122.4654,38.28091],[-122.46886,38.28154],[-122.46885,38.28091],[-122.46992,38.28103],[-122.46971,38.2822],[-122.47481,38.28278],[-122.47323,38.28502],[-122.47446,38.28924],[-122.47759,38.29181],[-122.4764,38.296],[-122.47776,38.2977],[-122.48064,38.29698],[-122.48189,38.29838]],[[-122.44114,38.28042],[-122.441,38.28135],[-122.43853,38.28113],[-122.43868,38.28008],[-122.44114,38.28042]],[[-122.43509,38.28465],[-122.43498,38.28538],[-122.43369,38.28579],[-122.43392,38.28454],[-122.43509,38.28465]],[[-122.42168,38.28475],[-122.42133,38.2853],[-122.42003,38.28485],[-122.42168,38.28475]],[[-122.41652,38.29568],[-122.41642,38.29593],[-122.41617,38.29561],[-122.41652,38.29568]]]},"properties":{"GEOID":"0609793070","NAME":"Sonoma","COUNTY":"097"}},{"type":"Feature","geometry":{"type":"MultiPolygon","coordinates":[[[[-122.8418,38.2762],[-122.7399,38.207],[-122.723,38.2071],[-122.715,38.2034],[-122.7143,38.2012],[-122.7044,38.1985],[-122.7014,38.1961],[-122.6879,38.1947],[-122.6806,38.1896],[-122.6672,38.1897],[-122.6639,38.1864],[-122.6586,38.1868],[-122.6537,38.1848],[-122.6492,38.1811],[-122.6379,38.1802],[-122.6358,38.1786],[-122.6282,38.1789],[-122.6257,38.1823],[-122.6226,38.1826],[-122.6151,38.1824],[-122.6125,38.1806],[-122.6041,38.1806],[-122.6009,38.1853],[-122.5928,38.1888],[-122.5909,38.1859],[-122.5866,38.1878],[-122.5833,38.187],[-122.5821,38.188],[-122.582,38.1862],[-122.5782,38.1836],[-122.5707,38.1835],[-122.5732,38.1863],[-122.5706,38.1871],[-122.5689,38.1845],[-122.5653,38.1827],[-122.5685,38.177],[-122.5645,38.1751],[-122.5632,38.1693],[-122.5592,38.1686],[-122.5543,38.1701],[-122.552,38.169],[-122.558,38.1635],[-122.5579,38.1602],[-122.5496,38.1573],[-122.5445,38.1587],[-122.5348,38.1492],[-122.5201,38.1407],[-122.5131,38.1322],[-122.5079,38.1181],[-122.5,38.1115],[-122.4594,38.1006],[-122.4558,38.1192],[-122.4534,38.1202],[-122.4514,38.119],[-122.4512,38.1165],[-122.4488,38.1173],[-122.4438,38.116],[-122.4292,38.1247],[-122.4344,38.122],[-122.4364,38.126],[-122.4356,38.1286],[-122.441,38.1367],[-122.4403,38.1386],[-122.4321,38.1412],[-122.4301,38.1433],[-122.4388,38.1499],[-122.4409,38.1492],[-122.4457,38.1522],[-122.4469,38.1517],[-122.4482,38.1607],[-122.4448,38.1655],[-122.4515,38.17],[-122.4574,38.17],[-122.4536,38.1752],[-122.4498,38.1765],[-122.4561,38.1803],[-122.461,38.1809],[-122.4637,38.1857],[-122.4654,38.185],[-122.4703,38.1871],[-122.4808,38.1858],[-122.4865,38.1884],[-122.4937,38.1896],[-122.5006,38.1945],[-122.5039,38.1946],[-122.508,38.1971],[-122.5171,38.2045],[-122.5208,38.2126],[-122.5198,38.214],[-122.5212,38.2173],[-122.5283,38.2229],[-122.5312,38.2314],[-122.5266,38.2362],[-122.508,38.2368],[-122.5057,38.2393],[-122.5052,38.243],[-122.5002,38.2477],[-122.5069,38.247],[-122.5128,38.2552],[-122.5249,38.2612],[-122.5332,38.2626],[-122.535,38.265],[-122.5455,38.2708],[-122.5462,38.2727],[-122.5632,38.2852],[-122.5598,38.2877],[-122.5553,38.2885],[-122.5536,38.2938],[-122.5676,38.3129],[-122.5734,38.3168],[-122.5743,38.326],[-122.5735,38.3276],[-122.5672,38.3275],[-122.5672,38.3303],[-122.5718,38.3348],[-122.5732,38.3345],[-122.5733,38.3398],[-122.5802,38.347],[-122.5811,38.3499],[-122.5866,38.3514],[-122.5892,38.3501],[-122.5968,38.3524],[-122.5995,38.3559],[-122.6004,38.3607],[-122.605,38.3645],[-122.616,38.3679],[-122.6216,38.3672],[-122.6238,38.369],[-122.6262,38.3663],[-122.6318,38.3641],[-122.6363,38.3591],[-122.6386,38.3485],[-122.6437,38.3473],[-122.6584,38.3566],[-122.667,38.3552],[-122.6675,38.3724],[-122.6788,38.3774],[-122.6856,38.382],[-122.6859,38.3795],[-122.7135,38.3793],[-122.7134,38.3732],[-122.7144,38.3718],[-122.7124,38.3683],[-122.71259841815527,38.36577016852039],[-122.71187,38.3646],[-122.71201,38.36938],[-122.6996,38.36943],[-122.69947,38.37212],[-122.67651,38.37242],[-122.67638,38.36509],[-122.68579,38.365],[-122.68571,38.354],[-122.6673,38.35425],[-122.66718,38.34562],[-122.67483,38.34586],[-122.67476,38.34321],[-122.67987,38.34315],[-122.67978,38.33629],[-122.67609,38.33618],[-122.67606,38.32519],[-122.66669,38.32519],[-122.66681,38.32145],[-122.67578,38.32147],[-122.67597,38.31663],[-122.68093,38.31643],[-122.68118,38.31431],[-122.68338,38.31879],[-122.688,38.31879],[-122.68841,38.31983],[-122.69067,38.31983],[-122.6957,38.31982],[-122.69495,38.31804],[-122.69911,38.31832],[-122.70361,38.31495],[-122.70604,38.31659],[-122.71315,38.315],[-122.71279,38.31564],[-122.71433,38.31658],[-122.71286,38.32109],[-122.71536,38.32149],[-122.71453,38.32355],[-122.72092,38.32547],[-122.72188,38.32701],[-122.72054,38.32801],[-122.72686,38.32966],[-122.72838,38.32929],[-122.72642,38.333],[-122.7296,38.33349],[-122.729,38.33448],[-122.72693,38.33354],[-122.72694,38.33592],[-122.7246,38.3359],[-122.72458,38.3346],[-122.71982,38.33452],[-122.71723,38.33367],[-122.71569,38.33535],[-122.72242,38.33922],[-122.72224,38.3423],[-122.72331,38.34305],[-122.71333,38.3431],[-122.72292,38.34306],[-122.72617,38.34808],[-122.73197,38.34978],[-122.72568,38.35774],[-122.71915,38.35771],[-122.71925,38.36118],[-122.72124,38.3612],[-122.72124,38.363229614035085],[-122.7413,38.3633],[-122.7413,38.3424],[-122.7383,38.3382],[-122.7386,38.3308],[-122.7353,38.3242],[-122.7355,38.3141],[-122.7467,38.3142],[-122.7562,38.3212],[-122.789,38.3215],[-122.8005,38.3233],[-122.8043,38.3212],[-122.81,38.3154],[-122.8143,38.3087],[-122.8183,38.3065],[-122.8417,38.3063],[-122.8327,38.3022],[-122.833,38.2935],[-122.8418,38.2762]],[[-122.6824,38.27367],[-122.68239,38.27544],[-122.68236,38.27644],[-122.6782,38.27933],[-122.67282,38.27929],[-122.66977,38.28291],[-122.66786,38.28218],[-122.66851,38.27911],[-122.66498,38.27706],[-122.66361,38.27481],[-122.65602,38.26776],[-122.65356,38.27035],[-122.65113,38.2689],[-122.65019,38.26996],[-122.6514,38.27067],[-122.65073,38.27139],[-122.652,38.27206],[-122.65047,38.27376],[-122.64984,38.27336],[-122.6502,38.27406],[-122.64746,38.27712],[-122.64369,38.27506],[-122.64237,38.27654],[-122.62345,38.26597],[-122.6204,38.26933],[-122.61209,38.26465],[-122.61109,38.26576],[-122.60492,38.2623],[-122.6057,38.26132],[-122.59951,38.25786],[-122.59998,38.25736],[-122.59504,38.25391],[-122.59727,38.25161],[-122.58492,38.24428],[-122.5891,38.2397],[-122.58608,38.23802],[-122.58953,38.23426],[-122.56767,38.22207],[-122.57878,38.2095],[-122.58151,38.20942],[-122.58395,38.21116],[-122.58222,38.21614],[-122.58386,38.21843],[-122.58735,38.2193],[-122.59173,38.21783],[-122.59486,38.22102],[-122.60381,38.22122],[-122.60692,38.22478],[-122.61296,38.22797],[-122.61592,38.22838],[-122.61302,38.22337],[-122.61823,38.22335],[-122.61822,38.21884],[-122.61741,38.21671],[-122.62321,38.21672],[-122.62579,38.21986],[-122.62773,38.2197],[-122.62777,38.21482],[-122.6292,38.21424],[-122.62446,38.20747],[-122.62786,38.20745],[-122.62788,38.20531],[-122.63721,38.20527],[-122.63717,38.2125],[-122.63561,38.21252],[-122.63571,38.2143],[-122.63723,38.2143],[-122.63744,38.21533],[-122.63948,38.21505],[-122.6418,38.21665],[-122.65114,38.21536],[-122.65112,38.21616],[-122.65564,38.21616],[-122.6557,38.21981],[-122.66488,38.2199],[-122.66481,38.22661],[-122.66356,38.22736],[-122.65508,38.22739],[-122.65515,38.22979],[-122.6585,38.23077],[-122.65884,38.23453],[-122.66036,38.23513],[-122.65972,38.23866],[-122.66326,38.23957],[-122.66303,38.24034],[-122.66023,38.23949],[-122.65928,38.24311],[-122.66033,38.24311],[-122.66034,38.24589],[-122.66151,38.24575],[-122.66178,38.24707],[-122.65866,38.24616],[-122.65809,38.24913],[-122.65983,38.24932],[-122.65953,38.25006],[-122.65418,38.24941],[-122.65464,38.2457],[-122.64806,38.2449],[-122.64804,38.24591],[-122.64624,38.24679],[-122.65072,38.2477],[-122.64985,38.25017],[-122.64827,38.2518],[-122.656,38.25773],[-122.65326,38.25991],[-122.65926,38.26333],[-122.65994,38.26142],[-122.66174,38.26128],[-122.66609,38.26408],[-122.6668,38.26361],[-122.67154,38.26773],[-122.67566,38.2728],[-122.68044,38.27065],[-122.68011,38.27221],[-122.6824,38.27367]],[[-122.66219,38.24053],[-122.66218,38.24055],[-122.66181,38.24041],[-122.66219,38.24053]],[[-122.6065,38.27006],[-122.6056,38.27],[-122.60641,38.26938],[-122.6065,38.27006]]],[[[-122.65116,38.25516],[-122.64821,38.2522],[-122.64677,38.25333],[-122.64846,38.2551],[-122.65116,38.25516]]]]},"properties":{"GEOID":"0609792460","NAME":"Petaluma","COUNTY":"097"}},{"type":"Feature","geometry":{"type":"Polygon","coordinates":[[[-122.9368,38.311],[-122.9351,38.3096],[-122.9324,38.3117],[-122.9259,38.3128],[-122.9215,38.3086],[-122.918,38.3103],[-122.9165,38.3128],[-122.921,38.3168],[-122.9158,38.3204],[-122.9077,38.3206],[-122.9066,38.3199],[-122.9073,38.3186],[-122.9109,38.3171],[-122.9095,38.3144],[-122.8999,38.3168],[-122.8984,38.3145],[-122.8418,38.2762],[-122.833,38.2935],[-122.8327,38.3022],[-122.8417,38.3063],[-122.8183,38.3065],[-122.8143,38.3087],[-122.81,38.3154],[-122.8043,38.3212],[-122.7989,38.3236],[-122.789,38.3215],[-122.756,38.3212],[-122.746,38.3141],[-122.7355,38.3141],[-122.735,38.3207],[-122.7355,38.3247],[-122.7386,38.3312],[-122.7383,38.3381],[-122.7413,38.3422],[-122.7413,38.3521],[-122.7466,38.3525],[-122.7513,38.3547],[-122.7561,38.3601],[-122.7612,38.3618],[-122.7665,38.3655],[-122.76884724597488,38.36630477004853],[-122.76885,38.36612],[-122.77000615384615,38.36669807692308],[-122.77136,38.366275],[-122.77325,38.36568],[-122.7758,38.36595],[-122.77603011049723,38.36621456554495],[-122.7765,38.3663],[-122.7767254971277,38.36701407423774],[-122.77767,38.3681],[-122.77764411698188,38.374432711767696],[-122.7887,38.3811],[-122.79395215358932,38.38255893155259],[-122.79485,38.38248],[-122.7953591995553,38.382949777654254],[-122.7959,38.3831],[-122.7981,38.3852],[-122.79749127272727,38.38606236363636],[-122.79708,38.38671],[-122.79738,38.39057],[-122.7971363508855,38.3906572801832],[-122.8004,38.3958],[-122.8083,38.3962],[-122.81056038230717,38.397201026450325],[-122.81279,38.39668],[-122.81502405230678,38.39917779459301],[-122.8153,38.3993],[-122.81538671622495,38.39958327300151],[-122.81567,38.3999],[-122.8156363099631,38.40039861254613],[-122.8158679419525,38.40115527704486],[-122.81821,38.40084],[-122.81803,38.39918],[-122.81638,38.39749],[-122.81639,38.39667],[-122.81774,38.39598],[-122.81666,38.39398],[-122.81753,38.39397],[-122.8174,38.39299],[-122.81655,38.39301],[-122.81649,38.39195],[-122.80629,38.39195],[-122.80629,38.39036],[-122.81159,38.3903],[-122.81162,38.38945],[-122.81272,38.38942],[-122.81273,38.3884],[-122.8139,38.38803],[-122.81575,38.38828],[-122.81726,38.39035],[-122.82433,38.39032],[-122.82478,38.38795],[-122.82194,38.3868],[-122.82757,38.385],[-122.82754,38.39025],[-122.83039,38.39026],[-122.82987,38.39296],[-122.83161,38.39286],[-122.83125,38.39423],[-122.8298,38.39423],[-122.82975,38.39587],[-122.83124,38.39586],[-122.83124,38.39503],[-122.83484,38.39511],[-122.83625,38.39375],[-122.83861,38.39705],[-122.84761,38.39622],[-122.84816,38.39745],[-122.8438,38.39785],[-122.84411,38.39874],[-122.84306,38.39895],[-122.84537,38.40523],[-122.84314,38.40533],[-122.84367,38.40695],[-122.84061,38.40706],[-122.84087,38.40838],[-122.83991,38.4088],[-122.84064,38.40854],[-122.8417,38.4096],[-122.84248,38.4109],[-122.84178,38.41123],[-122.84296,38.41272],[-122.84076,38.41273],[-122.84017,38.41154],[-122.83857,38.41173],[-122.8398,38.41037],[-122.83904,38.40919],[-122.83859,38.40949],[-122.83851,38.40779],[-122.83672,38.40784],[-122.83663,38.40688],[-122.83267,38.40681],[-122.83259,38.40839],[-122.83055,38.40843],[-122.83055,38.40938],[-122.82527,38.40942],[-122.82546,38.40852],[-122.82124,38.40855],[-122.82117,38.41021],[-122.81721558050523,38.410218307603984],[-122.8151,38.4124],[-122.8203,38.416],[-122.8247,38.4166],[-122.8239,38.4204],[-122.8294,38.4251],[-122.8294671171863,38.425798018737524],[-122.82952,38.42581],[-122.83026327054795,38.430336327054796],[-122.8339,38.4307],[-122.8349,38.4338],[-122.8389,38.4349],[-122.8387,38.4449],[-122.836,38.4474],[-122.8346,38.4522],[-122.8614,38.4505],[-122.8614,38.4465],[-122.8868,38.4425],[-122.8892,38.4446],[-122.9091,38.4443],[-122.9102,38.4452],[-122.9166,38.4439],[-122.92,38.4444],[-122.922,38.4467],[-122.9273,38.4471],[-122.9301,38.441],[-122.9278,38.4394],[-122.9295,38.4332],[-122.9314,38.4316],[-122.931,38.419],[-122.9344,38.4188],[-122.934,38.4157],[-122.9362,38.4156],[-122.9345,38.4136],[-122.9355,38.4089],[-122.9338,38.4073],[-122.928,38.4065],[-122.9249,38.4033],[-122.921,38.4019],[-122.9203,38.3997],[-122.9166,38.4006],[-122.9124,38.3928],[-122.9034,38.3882],[-122.9033,38.3821],[-122.8998,38.3781],[-122.912,38.373],[-122.9105,38.3693],[-122.9115,38.3666],[-122.9162,38.3599],[-122.9214,38.3552],[-122.9165,38.3504],[-122.9165,38.3412],[-122.9244,38.3328],[-122.9279,38.3238],[-122.9354,38.3201],[-122.9361,38.3156],[-122.9338,38.3133],[-122.9368,38.311]],[[-122.83407,38.38435],[-122.83225,38.38446],[-122.83192,38.38344],[-122.83407,38.38435]]]},"properties":{"GEOID":"0609792980","NAME":"Sebastopol","COUNTY":"097"}},{"type":"Feature","geometry":{"type":"Polygon","coordinates":[[[-123.6325,38.7581],[-123.6152,38.7499],[-123.6071,38.7486],[-123.592,38.7402],[-123.5869,38.7281],[-123.578,38.7176],[-123.5661,38.709],[-123.5495,38.7001],[-123.5319,38.6934],[-123.5106,38.6809],[-123.5039,38.6729],[-123.4987,38.6689],[-123.4951,38.6607],[-123.4885,38.6515],[-123.4774,38.6422],[-123.4705,38.6386],[-123.4656,38.6288],[-123.4604,38.6227],[-123.4562,38.6148],[-123.4484,38.6063],[-123.4305,38.5917],[-123.4254,38.5828],[-123.405,38.5628],[-123.3942,38.5539],[-123.3846,38.537],[-123.3609,38.5102],[-123.3485,38.5042],[-123.3309,38.5024],[-123.3307,38.4999],[-123.3238,38.4986],[-123.3173,38.4886],[-123.3067,38.4787],[-123.2897,38.4676],[-123.2813,38.4645],[-123.2692,38.4576],[-123.2511,38.4521],[-123.2364,38.4504],[-123.228,38.4442],[-123.2202,38.442],[-123.2114,38.4308],[-123.2041,38.4239],[-123.1962,38.4101],[-123.1885,38.4029],[-123.18,38.3975],[-123.1717,38.3941],[-123.1648,38.3883],[-123.1598,38.3749],[-123.1557,38.3684],[-123.1505,38.3617],[-123.1427,38.3553],[-123.14,38.3506],[-123.1343,38.3458],[-123.1383,38.3372],[-123.141,38.3275],[-123.1413,38.3113],[-123.1345,38.2963],[-123.0027,38.2957],[-123.0011,38.2974],[-122.9936,38.3001],[-122.9948,38.3062],[-122.9911,38.3056],[-122.9877,38.3081],[-122.9847,38.3079],[-122.9816,38.3111],[-122.9743,38.3115],[-122.97,38.3101],[-122.9661,38.317],[-122.9616,38.3167],[-122.9479,38.3114],[-122.9458,38.3112],[-122.944,38.3127],[-122.9393,38.311],[-122.9351,38.314],[-122.9361,38.3158],[-122.9354,38.3201],[-122.9279,38.3238],[-122.9244,38.3328],[-122.9165,38.3412],[-122.9165,38.3504],[-122.9214,38.3552],[-122.9162,38.3599],[-122.9115,38.3666],[-122.9105,38.3693],[-122.912,38.373],[-122.8998,38.3781],[-122.9033,38.3821],[-122.9034,38.3882],[-122.9124,38.3928],[-122.9166,38.4006],[-122.9203,38.3997],[-122.921,38.4019],[-122.9249,38.4033],[-122.928,38.4065],[-122.9338,38.4073],[-122.9355,38.4089],[-122.9345,38.4136],[-122.9362,38.4156],[-122.934,38.4157],[-122.9344,38.4188],[-122.931,38.419],[-122.9314,38.4316],[-122.9295,38.4332],[-122.9278,38.4394],[-122.9301,38.441],[-122.9273,38.4471],[-122.922,38.4467],[-122.92,38.4444],[-122.9166,38.4439],[-122.9102,38.4452],[-122.9091,38.4443],[-122.8892,38.4446],[-122.8868,38.4425],[-122.8614,38.4465],[-122.8614,38.4505],[-122.8346,38.4522],[-122.8354,38.456],[-122.8338,38.4614],[-122.8375,38.4631],[-122.8414,38.469],[-122.8427,38.4786],[-122.8453,38.4806],[-122.846,38.483],[-122.8426,38.4842],[-122.8417,38.4857],[-122.8448,38.4882],[-122.84430636567164,38.49234652835821],[-122.84711,38.49516],[-122.84790662650603,38.49551024096385],[-122.84951781172211,38.49612992758543],[-122.85299,38.49415],[-122.85302043568464,38.494218903008296],[-122.857,38.4979],[-122.8576,38.502],[-122.861,38.5032],[-122.8655,38.5013],[-122.8669,38.4976],[-122.8686,38.4965],[-122.8778,38.4969],[-122.8785,38.494],[-122.8813,38.4942],[-122.8853,38.4916],[-122.893,38.4936],[-122.8896,38.4944],[-122.8862,38.4978],[-122.883,38.5079],[-122.8844,38.5117],[-122.8832,38.5152],[-122.8902,38.5179],[-122.8899,38.52],[-122.8763,38.5215],[-122.8669,38.5186],[-122.8661,38.5245],[-122.8683,38.5295],[-122.8682,38.5357],[-122.8703,38.536],[-122.8741,38.5341],[-122.88,38.5342],[-122.888,38.5394],[-122.9027,38.5374],[-122.9134,38.5399],[-122.9199,38.5386],[-122.9281,38.5429],[-122.9437,38.5457],[-122.9551,38.5498],[-122.9586,38.5487],[-122.963,38.5493],[-122.9638,38.5512],[-122.9661,38.5503],[-122.9688,38.5527],[-122.9697,38.5561],[-122.9782,38.5602],[-122.9782,38.5621],[-122.9866,38.563],[-122.9889,38.5622],[-122.9997,38.5661],[-123.0029,38.5636],[-123.0049,38.5651],[-123.0091,38.5629],[-123.0114,38.5644],[-123.0123,38.5622],[-123.0176,38.5656],[-123.0264,38.5646],[-123.0268,38.5665],[-123.0303,38.5671],[-123.0318,38.5653],[-123.0362,38.5652],[-123.0377,38.567],[-123.0382,38.5661],[-123.0395,38.5675],[-123.0399,38.5661],[-123.0442,38.5692],[-123.0466,38.5686],[-123.0478,38.5707],[-123.0497,38.5707],[-123.0511,38.5733],[-123.0589,38.578],[-123.0629,38.5779],[-123.0654,38.5798],[-123.0657,38.5851],[-123.061,38.5897],[-123.0443,38.5862],[-123.0388,38.5913],[-123.0195,38.5951],[-123.0126,38.5896],[-123.0094,38.5893],[-123.0047,38.5911],[-123.0005,38.5903],[-123.0043,38.5925],[-122.9981,38.5972],[-122.9993,38.5991],[-123.0117,38.6084],[-123.0174,38.6094],[-123.0187,38.6085],[-123.0189,38.6108],[-123.0244,38.6139],[-123.0236,38.6164],[-123.0279,38.6184],[-123.0322,38.6226],[-123.0385,38.6234],[-123.0366,38.6244],[-123.0365,38.6258],[-123.0386,38.6261],[-123.039,38.6281],[-123.0431,38.6307],[-123.0448,38.629],[-123.0449,38.6309],[-123.0431,38.6323],[-123.0442,38.6321],[-123.0481,38.6376],[-123.0522,38.6391],[-123.0499,38.6473],[-123.0517,38.6481],[-123.053,38.646],[-123.0561,38.6458],[-123.0659,38.649],[-123.0685,38.6513],[-123.068,38.6534],[-123.0746,38.6587],[-123.0754,38.6624],[-123.0802,38.6695],[-123.0759,38.6753],[-123.0735,38.6752],[-123.0669,38.678],[-123.0642,38.6757],[-123.0597,38.678],[-123.0538,38.6738],[-123.0479,38.673],[-123.0403,38.6702],[-123.0377,38.6681],[-123.0323,38.6698],[-123.0262,38.6664],[-123.0268,38.6691],[-123.0216,38.6727],[-123.0224,38.6735],[-123.026,38.6727],[-123.0243,38.6769],[-123.0213,38.6795],[-123.0181,38.6793],[-123.0157,38.6816],[-123.0144,38.6865],[-123.0109,38.6868],[-123.0092,38.6856],[-123.0069,38.6868],[-123.0068,38.6886],[-123.0133,38.6939],[-123.0135,38.7045],[-123.0072,38.7069],[-123.0054,38.7132],[-123.0116,38.7137],[-123.019,38.7162],[-123.0285,38.7119],[-123.0379,38.7152],[-123.0452,38.7141],[-123.0472,38.7162],[-123.0596,38.7196],[-123.0649,38.7191],[-123.0731,38.7275],[-123.0892,38.7333],[-123.0918,38.7354],[-123.0994,38.7374],[-123.1029,38.7402],[-123.1088,38.7414],[-123.1156,38.7459],[-123.1322,38.7516],[-123.1361,38.755],[-123.1418,38.7574],[-123.155,38.7586],[-123.162,38.762],[-123.1657,38.762],[-123.1729,38.7654],[-123.174,38.7679],[-123.1772,38.7694],[-123.1799,38.7692],[-123.1818,38.7708],[-123.1879,38.7708],[-123.1976,38.7684],[-123.2094,38.7708],[-123.2152,38.7741],[-123.2201,38.7719],[-123.2254,38.7715],[-123.2318,38.7738],[-123.2403,38.7725],[-123.2409,38.7744],[-123.2442,38.7762],[-123.2475,38.7763],[-123.2474,38.7774],[-123.2507,38.7773],[-123.2548,38.7794],[-123.2557,38.7816],[-123.2586,38.7824],[-123.2598,38.7849],[-123.2617,38.785],[-123.2621,38.7866],[-123.2652,38.7884],[-123.2633,38.7892],[-123.2694,38.7937],[-123.2711,38.7976],[-123.2726,38.7977],[-123.2673,38.803],[-123.2687,38.8084],[-123.3684,38.8066],[-123.3682,38.7771],[-123.4311,38.7766],[-123.497,38.7786],[-123.4992,38.7783],[-123.4999,38.7738],[-123.507,38.7735],[-123.5099,38.7674],[-123.5163,38.7678],[-123.5189,38.7594],[-123.5202,38.7586],[-123.5332,38.7684],[-123.6325,38.7581]]]},"properties":{"GEOID":"0609792682","NAME":"Russian River-Sonoma Coast","COUNTY":"097"}},{"type":"Feature","geometry":{"type":"Polygon","coordinates":[[[-123.2727,38.7984],[-123.2711,38.7976],[-123.2694,38.7937],[-123.2633,38.7892],[-123.2652,38.7884],[-123.2621,38.7866],[-123.2617,38.785],[-123.2598,38.7849],[-123.2586,38.7824],[-123.2557,38.7816],[-123.2548,38.7794],[-123.2511,38.7774],[-123.2442,38.7762],[-123.2409,38.7744],[-123.2403,38.7725],[-123.2318,38.7738],[-123.2254,38.7715],[-123.2201,38.7719],[-123.2152,38.7741],[-123.2096,38.7709],[-123.1994,38.7685],[-123.1939,38.7686],[-123.1856,38.7711],[-123.1817,38.7708],[-123.1799,38.7691],[-123.1771,38.7694],[-123.1739,38.7678],[-123.1729,38.7654],[-123.166,38.7621],[-123.162,38.762],[-123.155,38.7586],[-123.1418,38.7574],[-123.1361,38.755],[-123.1322,38.7516],[-123.1156,38.7459],[-123.1088,38.7414],[-123.1029,38.7402],[-123.0994,38.7374],[-123.0918,38.7354],[-123.0892,38.7333],[-123.0731,38.7275],[-123.0649,38.7191],[-123.0596,38.7196],[-123.0472,38.7162],[-123.0452,38.7141],[-123.0379,38.7152],[-123.0285,38.7119],[-123.0185,38.7161],[-123.0116,38.7137],[-123.004,38.7131],[-123.0034,38.7118],[-123.0052,38.7094],[-123.0035,38.7083],[-122.9997,38.7117],[-122.9944,38.7129],[-122.9952,38.7146],[-123.0002,38.716],[-122.9986,38.7202],[-122.9864,38.7193],[-122.9804,38.7134],[-122.976,38.7119],[-122.9753,38.708],[-122.9667,38.7062],[-122.9559,38.6957],[-122.9546,38.6907],[-122.9564,38.6886],[-122.9535,38.687],[-122.95,38.6822],[-122.9445,38.6805],[-122.9422,38.6779],[-122.9425,38.6665],[-122.9405,38.6627],[-122.9372,38.6602],[-122.9304,38.6586],[-122.9264,38.653],[-122.9221,38.6548],[-122.9173,38.6507],[-122.9104,38.6488],[-122.9115,38.6518],[-122.9072,38.6576],[-122.891,38.657],[-122.8826,38.6614],[-122.8718,38.6594],[-122.8723,38.6623],[-122.8633,38.6638],[-122.8633,38.665],[-122.8604,38.6662],[-122.8537,38.6668],[-122.8496,38.6627],[-122.8376,38.6593],[-122.8282,38.6585],[-122.8214,38.6534],[-122.7971,38.6464],[-122.7947,38.6379],[-122.789,38.6321],[-122.7887,38.6257],[-122.7854,38.6215],[-122.7844,38.6133],[-122.774,38.6112],[-122.7727,38.6122],[-122.7723,38.6104],[-122.7678,38.6095],[-122.7584,38.6139],[-122.7568,38.6136],[-122.7561,38.6118],[-122.7534,38.6121],[-122.7503,38.6145],[-122.751,38.6181],[-122.7476,38.6185],[-122.7445,38.6174],[-122.7382,38.6113],[-122.7342,38.6133],[-122.7231,38.6129],[-122.7151,38.6149],[-122.7102,38.6141],[-122.7077,38.6122],[-122.7011,38.6113],[-122.6895,38.6057],[-122.6857,38.5968],[-122.683,38.5947],[-122.6802,38.5846],[-122.6772,38.5822],[-122.6733,38.5821],[-122.6719,38.5837],[-122.6631,38.5851],[-122.651,38.581],[-122.6351,38.583],[-122.635,38.5864],[-122.6399,38.59],[-122.6466,38.5991],[-122.6391,38.6092],[-122.6397,38.6117],[-122.6335,38.6162],[-122.6338,38.6199],[-122.6284,38.6227],[-122.6293,38.6272],[-122.6325,38.628],[-122.6319,38.632],[-122.6341,38.6376],[-122.6332,38.6401],[-122.6273,38.6446],[-122.6269,38.6476],[-122.6242,38.6498],[-122.6231,38.6535],[-122.6244,38.658],[-122.6232,38.6625],[-122.6234,38.6646],[-122.6276,38.6686],[-122.6335,38.6692],[-122.6268,38.6708],[-122.6255,38.6744],[-122.6316,38.6802],[-122.6339,38.6853],[-122.6395,38.6891],[-122.637,38.6937],[-122.6399,38.695],[-122.6406,38.6973],[-122.6443,38.6996],[-122.6439,38.7026],[-122.6475,38.7069],[-122.6622,38.7059],[-122.6694,38.7084],[-122.6723,38.7063],[-122.6742,38.7064],[-122.6768,38.708],[-122.6824,38.7079],[-122.6839,38.7095],[-122.6918,38.7109],[-122.6936,38.713],[-122.6955,38.7131],[-122.6974,38.7189],[-122.6963,38.7201],[-122.7007,38.7263],[-122.7007,38.7286],[-122.7104,38.7321],[-122.712,38.7376],[-122.7111,38.7402],[-122.7123,38.7422],[-122.7088,38.7464],[-122.7093,38.749],[-122.7201,38.7535],[-122.7215,38.7566],[-122.7242,38.7566],[-122.7227,38.763],[-122.7283,38.7662],[-122.7295,38.7707],[-122.7327,38.7709],[-122.7346,38.7726],[-122.7364,38.7768],[-122.7353,38.7779],[-122.738,38.781],[-122.7424,38.7824],[-122.7482,38.7878],[-122.7462,38.7992],[-122.7482,38.8038],[-122.7588,38.8078],[-122.7614,38.8112],[-122.7676,38.8139],[-122.7666,38.8158],[-122.7802,38.8268],[-122.7861,38.8273],[-122.7894,38.8303],[-122.7914,38.8304],[-122.7954,38.8358],[-122.796,38.839],[-122.7983,38.8393],[-122.7998,38.837],[-122.8062,38.8362],[-122.8121,38.8384],[-122.8111,38.8413],[-122.8121,38.8429],[-122.8183,38.8446],[-122.8167,38.8476],[-122.8177,38.8498],[-122.8197,38.849],[-122.8249,38.8502],[-123.0069,38.8512],[-123.0277,38.8529],[-123.081,38.8524],[-123.0812,38.8384],[-123.1366,38.8394],[-123.1363,38.8091],[-123.2687,38.8084],[-123.2677,38.8019],[-123.2727,38.7984]],[[-123.03512,38.78701],[-123.03502,38.79041],[-123.03068,38.7903],[-123.02552,38.79165],[-123.02911,38.79389],[-123.02587,38.79385],[-123.02468,38.79478],[-123.02504,38.79705],[-123.02627,38.79682],[-123.02854,38.79861],[-123.02561,38.80045],[-123.02714,38.80626],[-123.02993,38.80655],[-123.03025,38.81006],[-123.02847,38.81029],[-123.03045,38.81659],[-123.0269,38.81586],[-123.02503,38.81379],[-123.02514,38.81516],[-123.02306,38.81616],[-123.02285,38.81731],[-123.02412,38.81788],[-123.02187,38.81953],[-123.02169,38.81801],[-123.01932,38.81788],[-123.01941,38.81706],[-123.01107,38.81656],[-123.01064,38.81469],[-123.00861,38.81354],[-123.00928,38.81334],[-123.00819,38.80851],[-123.00868,38.80763],[-123.00662,38.80479],[-123.00752,38.80279],[-123.00849,38.80244],[-123.00667,38.80095],[-123.00613,38.79797],[-123.00891,38.79828],[-123.00941,38.79605],[-123.00538,38.79657],[-123.00521,38.79742],[-123.0046,38.79635],[-123.00487,38.79554],[-123.01202,38.79248],[-123.0118,38.79162],[-123.01675,38.78908],[-123.01306,38.78473],[-123.01092,38.78612],[-123.0091,38.78596],[-123.00491,38.78893],[-123.00605,38.78947],[-123.00554,38.78986],[-123.0043,38.78928],[-123.00147,38.79124],[-122.99542,38.78681],[-122.99528,38.78497],[-122.99384,38.78497],[-122.99319,38.7784],[-122.99074,38.77671],[-122.98814,38.77196],[-122.99343,38.77275],[-122.99265,38.77325],[-122.99411,38.77548],[-122.99352,38.77586],[-122.99652,38.78036],[-123.00294,38.77944],[-123.00599,38.77804],[-123.00377,38.77625],[-123.00909,38.77149],[-123.01255,38.77457],[-123.01315,38.77387],[-123.0131,38.7749],[-123.01843,38.77848],[-123.0184,38.77923],[-123.02493,38.78153],[-123.02168,38.78683],[-123.02178,38.7878],[-123.02563,38.78653],[-123.03512,38.78701]]]},"properties":{"GEOID":"0609790510","NAME":"Cloverdale-Geyserville","COUNTY":"097"}}]}