{"type":"FeatureCollection","features":[{"type":"Feature","geometry":{"type":"MultiPolygon","coordinates":[[[[-121.0681,37.6817],[-121.0673,37.6382],[-121.0536,37.6384],[-121.0531,37.6064],[-121.046,37.6119],[-121.0379,37.6128],[-121.0305,37.6087],[-121.0303,37.595],[-121.0118402584523,37.594949700976706],[-121.01184022220797,37.594959559432866],[-121.03027,37.59505],[-121.03045,37.6087],[-121.03496,37.61147],[-121.03498,37.61394],[-121.03043,37.61332],[-121.03047,37.61203],[-121.02802,37.61207],[-121.02802,37.61129],[-121.02358,37.61058],[-121.02355,37.6096],[-121.02211,37.60917],[-121.02178,37.60972],[-121.0163,37.6098],[-121.01636,37.61253],[-121.01541,37.61252],[-121.01541,37.61331],[-121.02558,37.61325],[-121.02555,37.61684],[-121.0272,37.61749],[-121.02541,37.6186],[-121.02637,37.61949],[-121.02427,37.6209],[-121.02334,37.62],[-121.02206,37.62086],[-121.02291,37.62162],[-121.02289,37.62227],[-121.02141,37.62207],[-121.02235,37.62494],[-121.02088,37.62492],[-121.02089,37.62049],[-121.01953,37.6205],[-121.01991,37.62229],[-121.01353,37.62663],[-121.01512,37.62734],[-121.01509,37.626],[-121.02088,37.62596],[-121.02092,37.62733],[-121.0196,37.62733],[-121.01963,37.62872],[-121.01692,37.62874],[-121.01645,37.63142],[-121.02185,37.6314],[-121.02185,37.63059],[-121.02036,37.63037],[-121.02136,37.6285],[-121.02324,37.62885],[-121.02323,37.62775],[-121.02682,37.62773],[-121.0265,37.62488],[-121.03044,37.62434],[-121.03044,37.62518],[-121.03166,37.62516],[-121.03167,37.62593],[-121.03045,37.62595],[-121.03026,37.64554],[-121.04913,37.64581],[-121.04948,37.66276],[-121.04493,37.66403],[-121.04494,37.66757],[-121.03605,37.66784],[-121.054017199082,37.68289853624834],[-121.0681,37.6817]],[[-121.0442,37.62154],[-121.0442,37.62161],[-121.04399,37.62161],[-121.0442,37.62154]],[[-121.03431,37.642],[-121.03387,37.64228],[-121.0339,37.64216],[-121.03431,37.642]]],[[[-121.04468,37.6512],[-121.04467,37.65051],[-121.04464,37.64914],[-121.04337,37.64807],[-121.03941,37.64881],[-121.03672,37.64803],[-121.03494,37.64878],[-121.03496,37.64949],[-121.03895,37.6499],[-121.03898,37.65124],[-121.03785,37.65126],[-121.03789,37.65313],[-121.0435,37.65307],[-121.04365,37.65121],[-121.04468,37.6512]]],[[[-121.04332780194302,37.71126319457578],[-121.04317,37.70406],[-121.01284,37.70381],[-121.01273,37.70055],[-121.00092,37.70038],[-121.00093,37.6997],[-121.00019,37.69969],[-121.00006,37.69643],[-120.99442,37.69636],[-120.99454,37.69996],[-120.97625,37.69978],[-120.97632,37.70153],[-120.97179,37.70157],[-120.97175,37.69985],[-120.93992,37.69985],[-120.93984,37.69443],[-120.92986,37.69446],[-120.92976,37.68902],[-120.92155,37.68904],[-120.92163,37.6925],[-120.91724946308724,37.6818],[-120.8939,37.6818],[-120.8949,37.7474],[-120.898,37.7542],[-120.9127,37.7467],[-120.9213,37.7373],[-120.93682943829226,37.74105107205127],[-120.93301,37.7395],[-120.92681,37.73858],[-120.92627,37.73602],[-120.92683,37.73503],[-120.92217,37.73505],[-120.92223,37.736],[-120.91327,37.73597],[-120.91302,37.72906],[-120.91752,37.72904],[-120.91749,37.72542],[-120.92201,37.7254],[-120.92196,37.72278],[-120.91697,37.72275],[-120.91693,37.71091],[-120.92185,37.71089],[-120.92194,37.72096],[-120.92767,37.72073],[-120.92764,37.71906],[-120.93108,37.71907],[-120.93449,37.72749],[-120.93641,37.72702],[-120.93269,37.71817],[-120.93786,37.71818],[-120.93783,37.71633],[-120.93903,37.71633],[-120.93885,37.71414],[-120.93628,37.71188],[-120.93265,37.71091],[-120.94737,37.71038],[-120.96752,37.71099],[-120.96764,37.73223],[-120.96872,37.73271],[-120.96232,37.73268],[-120.96237,37.73482],[-120.96329,37.73514],[-120.96333,37.738],[-120.95999,37.73834],[-120.95674,37.73706],[-120.9558,37.73745],[-120.9557905370844,37.7392952685422],[-120.9732,37.748],[-120.9772,37.7528],[-120.9814,37.7545],[-120.9818,37.7567],[-120.9873,37.7566],[-120.992,37.759],[-120.9928,37.7608],[-120.9946,37.7607],[-120.9957,37.76],[-120.9949,37.711],[-121.04332780194302,37.71126319457578]]],[[[-121.04029,37.66001],[-121.04026,37.6578],[-121.03798,37.65807],[-121.03802,37.66047],[-121.04029,37.66001]]],[[[-121.03566,37.65649],[-121.03517,37.65317],[-121.03103,37.65323],[-121.03106,37.65687],[-121.03566,37.65649]]],[[[-121.03109,37.65863],[-121.03108,37.65791],[-121.02867,37.65792],[-121.02794,37.6495],[-121.02341,37.64955],[-121.02225,37.64865],[-121.02281,37.64599],[-121.02104,37.64599],[-121.02105,37.65029],[-121.02236,37.65138],[-121.02229,37.6532],[-121.02322,37.6532],[-121.02285,37.65682],[-121.02649,37.65991],[-121.02648,37.65867],[-121.03109,37.65863]]],[[[-121.02113,37.64185],[-121.01188,37.64251],[-121.01521,37.64427],[-121.02107,37.64461],[-121.02113,37.64185]]],[[[-121.01806,37.63684],[-121.01805,37.63352],[-121.01644,37.63353],[-121.01644,37.63152],[-121.01413,37.63151],[-121.01416,37.63414],[-121.01186,37.63411],[-121.01185,37.63501],[-121.01416,37.63505],[-121.01413,37.63865],[-121.01643,37.63864],[-121.01806,37.63684]]],[[[-121.01693,37.60108],[-121.01683,37.59516],[-121.01184,37.59516],[-121.01161,37.59866],[-121.0006,37.59856],[-121.00062,37.60034],[-120.99777,37.60082],[-120.9946,37.60005],[-120.9946,37.60079],[-120.99352,37.60071],[-120.99352,37.60761],[-121.00014,37.60779],[-121.0005,37.60856],[-121.00589,37.60789],[-121.00591,37.60421],[-121.0027,37.60743],[-121.00271,37.60223],[-121.00618,37.60169],[-121.0155,37.60217],[-121.01693,37.60108]]],[[[-121.01507,37.62874],[-121.01177,37.62875],[-121.01186,37.63143],[-121.01358,37.63143],[-121.01355,37.62952],[-121.01506,37.62958],[-121.01507,37.62874]]],[[[-121.01177,37.61333],[-121.00722,37.61333],[-121.00719,37.61882],[-121.00629,37.61879],[-121.00628,37.62057],[-121.00562,37.62057],[-121.00605,37.62242],[-121.00491,37.62242],[-121.00491,37.62057],[-121.00373,37.61972],[-121.00375,37.62056],[-121.00263,37.62055],[-121.00277,37.62423],[-121.00833,37.62333],[-121.00775,37.62424],[-121.01174,37.62423],[-121.01175,37.61857],[-121.01085,37.61857],[-121.01085,37.61794],[-121.01175,37.61725],[-121.01177,37.61333]]],[[[-121.00078,37.609],[-120.9972,37.60911],[-120.9972,37.60777],[-120.99341,37.60771],[-120.99224,37.60698],[-120.98576,37.60699],[-120.98577,37.60817],[-120.98449,37.60815],[-120.98445,37.60509],[-120.97534,37.60509],[-120.97524,37.59484],[-120.97529,37.60286],[-120.9716,37.60428],[-120.97655,37.60909],[-120.97534,37.60929],[-120.97534,37.61304],[-120.96619,37.61293],[-120.96617,37.61534],[-120.97078,37.61476],[-120.97077,37.61841],[-120.97532,37.61842],[-120.97532,37.62022],[-120.96763,37.62046],[-120.96763,37.61915],[-120.96614,37.61913],[-120.96614,37.61844],[-120.96242,37.61833],[-120.96246,37.62092],[-120.957,37.62132],[-120.95701,37.61839],[-120.953,37.61834],[-120.95299,37.61948],[-120.95183,37.61947],[-120.95186,37.61805],[-120.94882,37.61844],[-120.94884,37.61658],[-120.94038,37.6161],[-120.93853,37.61424],[-120.93852,37.61555],[-120.93327,37.61347],[-120.92843,37.61584],[-120.92465,37.61451],[-120.9205,37.61433],[-120.92046,37.5948],[-120.92499,37.59478],[-120.92495,37.59113],[-120.93612,37.59116],[-120.93605,37.57619],[-120.93678,37.57468],[-120.93878,37.57746],[-120.94026,37.57758],[-120.94492,37.58114],[-120.94439,37.58259],[-120.94557,37.58259],[-120.9456,37.58385],[-120.94775,37.58361],[-120.94776,37.5816],[-120.94828,37.58295],[-120.9502,37.58294],[-120.95054,37.58563],[-120.95689,37.58562],[-120.95689,37.58428],[-120.95493,37.58428],[-120.95495,37.58296],[-120.95358,37.58295],[-120.95358,37.58164],[-120.9569,37.58164],[-120.9569,37.58031],[-120.96611,37.5803],[-120.96618,37.57158],[-120.97533,37.57158],[-120.98444,37.57306],[-120.99365022921197,37.5730000635843],[-120.9937,37.5513],[-120.9204,37.5512],[-120.9135,37.5477],[-120.9093,37.5472],[-120.903,37.5484],[-120.8974,37.5512],[-120.9019,37.5512],[-120.9018,37.5947],[-120.8972,37.5947],[-120.8973,37.6093],[-120.8848,37.6093],[-120.8978,37.6198],[-120.9005,37.628],[-120.8931,37.6312],[-120.8936,37.653],[-120.8753,37.653],[-120.8754,37.66],[-120.8805,37.6602],[-120.8908,37.6639],[-120.8936,37.6634],[-120.8997,37.6669],[-120.9029,37.6671],[-120.90302838453914,37.66704335976214],[-120.90281,37.66704],[-120.90627,37.66559],[-120.906015,37.66458214285714],[-120.9056,37.6631],[-120.90660666666666,37.662261111111114],[-120.90738,37.66159],[-120.91402,37.66107],[-120.91548,37.65847],[-120.91747,37.65732],[-120.91748231156174,37.65731920459011],[-120.9175,37.6573],[-120.91921158273381,37.657207482014385],[-120.92103,37.65709],[-120.92099,37.65252],[-120.91694,37.65266],[-120.91661,37.64214],[-120.92088,37.64184],[-120.92076,37.63802],[-120.96778,37.63764],[-120.96783,37.63416],[-120.96628,37.63466],[-120.96219,37.63228],[-120.95744,37.63227],[-120.95746,37.63057],[-120.94817,37.62545],[-120.94469,37.62369],[-120.94096,37.62369],[-120.94095,37.62176],[-120.93915,37.62],[-120.93873,37.61716],[-120.94226,37.61858],[-120.9474,37.61766],[-120.9481,37.62092],[-120.95035,37.62178],[-120.96235,37.62264],[-120.97087,37.62172],[-120.97538,37.62414],[-120.97532,37.62104],[-120.97872,37.6219],[-120.97835,37.62572],[-120.97604,37.62449],[-120.97632,37.62588],[-120.97472,37.62592],[-120.97473,37.63104],[-120.9678,37.63084],[-120.9663,37.63166],[-120.96628,37.63399],[-120.96801,37.63397],[-120.9681,37.63743],[-120.97114,37.6368],[-120.97113,37.63617],[-120.96964,37.63618],[-120.96965,37.63545],[-120.97146,37.63545],[-120.97147,37.6368],[-120.97648,37.63681],[-120.97649,37.63783],[-120.98432,37.63646],[-120.98692,37.63317],[-120.98691,37.63212],[-120.98645,37.6305],[-120.98495,37.62993],[-120.98356,37.62742],[-120.99152,37.62697],[-120.99813,37.62539],[-120.99828,37.62259],[-120.99594,37.62261],[-120.99569,37.62153],[-120.99355,37.62149],[-120.99357,37.61718],[-120.98649,37.61642],[-120.9847,37.60939],[-120.99361,37.60943],[-120.99362,37.61389],[-120.99844,37.61345],[-120.99845,37.61414],[-120.99941,37.61325],[-120.99939,37.6109],[-121.00073,37.61091],[-121.00078,37.609]],[[-120.91102,37.64009],[-120.91067,37.63982],[-120.91101,37.63982],[-120.91102,37.64009]],[[-120.90561,37.6388],[-120.90559,37.63855],[-120.9056,37.63855],[-120.90561,37.6388]],[[-120.90173,37.63686],[-120.90124,37.63659],[-120.90172,37.63658],[-120.90173,37.63686]]],[[[-120.99358922052777,37.594930242068166],[-120.98905007021922,37.59490791837813],[-120.98906,37.60027],[-120.99352,37.60028],[-120.99358922052777,37.594930242068166]]],[[[-120.97602,37.68621],[-120.97601,37.68537],[-120.97598,37.68387],[-120.96739,37.68389],[-120.96695,37.68524],[-120.96247,37.68523],[-120.96242,37.689],[-120.96698,37.68899],[-120.96697,37.68621],[-120.97602,37.68621]]],[[[-120.95823,37.61282],[-120.95822,37.61199],[-120.95821,37.61113],[-120.95704,37.61107],[-120.95704,37.61006],[-120.95587,37.61006],[-120.95587,37.60924],[-120.9521,37.60927],[-120.95249,37.61284],[-120.95524,37.61282],[-120.95463,37.6142],[-120.95703,37.61416],[-120.95704,37.61282],[-120.95823,37.61282]]],[[[-120.92985,37.65569],[-120.92833,37.65361],[-120.92947,37.65269],[-120.92131,37.65274],[-120.92166,37.65708],[-120.92813,37.65716],[-120.92985,37.65569]]]]},"properties":{"GEOID":"0609991980","NAME":"Modesto","COUNTY":"099"}},{"type":"Feature","geometry":{"type":"Polygon","coordinates":[[[-120.9019,37.5512],[-120.8985,37.551],[-120.5991,37.5511],[-120.3873,37.6335],[-120.4419,37.6742],[-120.4441,37.6732],[-120.4453,37.6705],[-120.4425,37.6675],[-120.4425,37.6659],[-120.4512,37.663],[-120.4636,37.6665],[-120.4755,37.6671],[-120.4793,37.6662],[-120.482,37.6628],[-120.4872,37.6598],[-120.4879,37.6551],[-120.4935,37.6525],[-120.4968,37.644],[-120.5016,37.6381],[-120.5177,37.6312],[-120.5256,37.6262],[-120.5286,37.628],[-120.5362,37.6293],[-120.5486,37.6272],[-120.5622,37.6327],[-120.5675,37.6295],[-120.5749,37.63],[-120.5797,37.6319],[-120.589,37.6319],[-120.6048,37.6387],[-120.6104,37.6386],[-120.6199,37.6354],[-120.6346,37.6345],[-120.639,37.6379],[-120.6448,37.6399],[-120.6581,37.6409],[-120.6622,37.6424],[-120.6653,37.6405],[-120.6684,37.6407],[-120.6717,37.642],[-120.6731,37.6447],[-120.6755,37.6455],[-120.6916,37.6438],[-120.6998,37.6442],[-120.7063,37.6389],[-120.7099,37.6376],[-120.7147,37.6372],[-120.7194,37.6394],[-120.7374,37.6353],[-120.7451072705602,37.63501097735399],[-120.74537,37.63496],[-120.74699,37.63533125],[-120.75246731076454,37.63647235640928],[-120.7541378967742,37.63634996129032],[-120.76019559795873,37.635758966052805],[-120.76758,37.63188],[-120.77146,37.63155],[-120.77173575596817,37.63121689655173],[-120.7731,37.629],[-120.7824,37.6247],[-120.7874,37.6197],[-120.7986,37.6147],[-120.8178,37.6157],[-120.8239,37.6193],[-120.8301,37.62],[-120.8381,37.6232],[-120.8463,37.6177],[-120.8518,37.6188],[-120.8536,37.6181],[-120.8538,37.6165],[-120.8573,37.6163],[-120.8592,37.619],[-120.8582,37.623],[-120.864,37.6323],[-120.8664,37.6306],[-120.8674,37.628],[-120.8706,37.6274],[-120.87245812796209,37.62842686018957],[-120.87125,37.62697],[-120.87034,37.62695],[-120.87023,37.62467],[-120.86809,37.62468],[-120.86804,37.62245],[-120.86895,37.62243],[-120.86897,37.62091],[-120.87329,37.62229],[-120.87331,37.6235],[-120.87478,37.62345],[-120.8748,37.62847],[-120.87332805020921,37.62890760669456],[-120.8744,37.6295],[-120.8759,37.626],[-120.8782,37.625],[-120.8833,37.6272],[-120.8847,37.6254],[-120.8841,37.6231],[-120.8864,37.6215],[-120.8915,37.6208],[-120.8932,37.6218],[-120.8939,37.6245],[-120.8992,37.623],[-120.8973,37.6193],[-120.8848,37.6093],[-120.8973,37.6093],[-120.8972,37.5947],[-120.9018,37.5947],[-120.9019,37.5583],[-120.9019,37.5512]],[[-120.88475,37.60926],[-120.87014,37.6093],[-120.87012,37.60746],[-120.86737,37.6075],[-120.86737,37.6096],[-120.85164,37.60935],[-120.85177,37.59469],[-120.86032,37.59428],[-120.86003,37.5884],[-120.8631,37.59107],[-120.86539,37.59105],[-120.86538,37.5876],[-120.8699,37.58756],[-120.86993,37.59115],[-120.87761,37.59095],[-120.8776,37.59538],[-120.87622,37.59594],[-120.87598,37.60236],[-120.88475,37.60926]]]},"properties":{"GEOID":"0609991350","NAME":"Hughson","COUNTY":"099"}},{"type":"Feature","geometry":{"type":"MultiPolygon","coordinates":[[[[-121.0148,37.4271],[-121.0104,37.4256],[-121.0049,37.4294],[-121.0008,37.4289],[-121.0002,37.4262],[-121.0026,37.4246],[-121.0033,37.4225],[-120.9984,37.4183],[-121.0014,37.4167],[-121.0033,37.4125],[-121.0009,37.4107],[-120.9956,37.4113],[-120.9929,37.4098],[-120.9932,37.4084],[-120.9965,37.4065],[-120.9971,37.4044],[-120.9959,37.4022],[-120.9934,37.4014],[-120.9916,37.4029],[-120.9867,37.4032],[-120.9838,37.3996],[-120.9406,37.4167],[-120.934,37.4207],[-120.8864,37.4402],[-120.8309,37.4602],[-120.8083,37.47],[-120.5991,37.5511],[-120.8974,37.5512],[-120.903,37.5484],[-120.9093,37.5472],[-120.9135,37.5477],[-120.9204,37.5512],[-120.9937,37.5513],[-120.9945,37.4805],[-121.0034,37.4494],[-121.0039,37.4411],[-121.0134,37.4315],[-121.0148,37.4271]],[[-120.90364,37.47811],[-120.90358,37.50724],[-120.88543,37.50723],[-120.88553,37.51816],[-120.89011,37.51816],[-120.88986,37.52871],[-120.89112,37.53307],[-120.89545,37.5368],[-120.82565,37.53664],[-120.82607,37.51814],[-120.81208,37.518],[-120.81212,37.50708],[-120.81683,37.50712],[-120.81689,37.49264],[-120.82146,37.49265],[-120.82146,37.49642],[-120.82611,37.49643],[-120.82672,37.49369],[-120.82842,37.49368],[-120.82834,37.48261],[-120.83067,37.48259],[-120.8307,37.48473],[-120.8315,37.48418],[-120.83803,37.49002],[-120.83938,37.48905],[-120.83691,37.48671],[-120.83736,37.48638],[-120.84002,37.48859],[-120.84223,37.487],[-120.83438,37.4801],[-120.83287,37.48117],[-120.83205,37.48046],[-120.83348,37.47943],[-120.83272,37.47908],[-120.83296,37.4745],[-120.83068,37.47449],[-120.83078,37.46633],[-120.84674,37.47251],[-120.84674,37.47094],[-120.85353,37.47097],[-120.85354,37.47455],[-120.86951,37.47448],[-120.86952,37.47816],[-120.90364,37.47811]]],[[[-120.86337,37.4816],[-120.86262,37.48086],[-120.86263,37.47817],[-120.85898,37.47818],[-120.86035,37.479],[-120.86035,37.48002],[-120.85809,37.48002],[-120.85807,37.4818],[-120.8558,37.48241],[-120.8558,37.4818],[-120.8527,37.48179],[-120.85267,37.48355],[-120.85586,37.48353],[-120.85586,37.48484],[-120.85863,37.48543],[-120.85982,37.48362],[-120.86265,37.48362],[-120.86267,37.48176],[-120.86337,37.4816]]],[[[-120.84795,37.48082],[-120.84611,37.47887],[-120.84355,37.48191],[-120.84615,37.48417],[-120.84759,37.48311],[-120.84682,37.48164],[-120.84795,37.48082]]],[[[-120.84356,37.5011],[-120.84042,37.50129],[-120.84042,37.5038],[-120.84216,37.5042],[-120.84217,37.50237],[-120.84356,37.50237],[-120.84356,37.5011]]],[[[-120.83293,37.48958],[-120.83174,37.48814],[-120.83067,37.48803],[-120.83073,37.49166],[-120.8318,37.49195],[-120.83177,37.48981],[-120.83293,37.48958]]]]},"properties":{"GEOID":"0609993460","NAME":"Turlock","COUNTY":"099"}},{"type":"Feature","geometry":{"type":"MultiPolygon","coordinates":[[[[-121.4591,37.2827],[-121.454,37.2772],[-121.4548,37.2631],[-121.4573,37.2609],[-121.455,37.2555],[-121.4557,37.2494],[-121.4481,37.2395],[-121.4487,37.2373],[-121.4417,37.2311],[-121.4361,37.2294],[-121.4339,37.2263],[-121.4308,37.2275],[-121.4218,37.2213],[-121.4211,37.2148],[-121.4169,37.2113],[-121.4157,37.1996],[-121.4105,37.192],[-121.4115,37.1854],[-121.4088,37.1825],[-121.4111,37.1779],[-121.4104,37.1745],[-121.4134,37.1723],[-121.4077,37.169],[-121.4065,37.1588],[-121.4046,37.156],[-121.4011,37.1549],[-121.3995,37.1504],[-121.3975,37.1506],[-121.393,37.1482],[-121.3911,37.1507],[-121.3836,37.1515],[-121.3816,37.1571],[-121.384,37.1602],[-121.3832,37.163],[-121.3843,37.1662],[-121.3829,37.1679],[-121.3797,37.168],[-121.3763,37.1725],[-121.3734,37.1737],[-121.3722,37.177],[-121.3645,37.1803],[-121.3632,37.1835],[-121.3609,37.1843],[-121.3546,37.1839],[-121.3487,37.1811],[-121.3437,37.1769],[-121.3424,37.1742],[-121.3383,37.1735],[-121.3343,37.1708],[-121.3321,37.171],[-121.3284,37.1659],[-121.314,37.1679],[-121.3129,37.1701],[-121.306,37.1666],[-121.3026,37.1682],[-121.2986,37.166],[-121.2956,37.1689],[-121.2915,37.1703],[-121.291,37.1754],[-121.2877,37.1774],[-121.2861,37.1811],[-121.2843,37.1809],[-121.2834,37.1832],[-121.2811,37.1836],[-121.2778,37.1796],[-121.2754,37.1787],[-121.2731,37.1733],[-121.2695,37.1712],[-121.2621,37.1593],[-121.2371,37.1572],[-121.2355,37.1529],[-121.236,37.1491],[-121.2323,37.1399],[-121.2268,37.1348],[-121.01647107648375,37.30378289558549],[-121.02205,37.30367],[-121.02208,37.3057],[-121.02648,37.3057],[-121.02649,37.30374],[-121.03793,37.30371],[-121.03794,37.30557],[-121.03566,37.30557],[-121.03569,37.3085],[-121.03266,37.30827],[-121.03098,37.3072],[-121.03099,37.31117],[-121.03621,37.31122],[-121.03615,37.31477],[-121.03096,37.31482],[-121.03102,37.31729],[-121.03219,37.31729],[-121.0322,37.31835],[-121.03479,37.31838],[-121.03478,37.31976],[-121.03557,37.31976],[-121.03553,37.32353],[-121.03099,37.32356],[-121.03098,37.32474],[-121.02928,37.3251],[-121.03104,37.32985],[-121.03104,37.333],[-121.02865,37.33196],[-121.02866,37.32808],[-121.0278,37.32747],[-121.02549,37.32804],[-121.02503,37.32707],[-121.02501,37.32763],[-121.02046,37.3276],[-121.01662,37.32583],[-121.00551,37.32556],[-121.0048,37.32417],[-121.00187,37.3231],[-121.00916,37.31655],[-121.00834,37.311],[-121.01283,37.31104],[-121.01284,37.30931],[-121.01398,37.30932],[-121.01393,37.30741],[-121.01193236748229,37.30742939449046],[-120.9638,37.3461],[-120.9684,37.346],[-120.9706,37.3489],[-120.9765,37.3496],[-120.9771,37.3549],[-120.979,37.3575],[-120.9781,37.3617],[-120.9818,37.3656],[-120.981,37.3669],[-120.9742,37.3686],[-120.9743,37.3698],[-120.9784,37.3702],[-120.9789,37.372],[-120.9771,37.3741],[-120.9734,37.3742],[-120.9731,37.3761],[-120.9779,37.3777],[-120.9828,37.3748],[-120.9844,37.3751],[-120.9856,37.3784],[-120.982,37.3851],[-120.9831,37.3866],[-120.9885,37.3866],[-120.9936,37.3842],[-120.9943,37.3853],[-120.9942,37.3887],[-120.99,37.3897],[-120.9913,37.3921],[-120.99,37.3957],[-120.9838,37.3996],[-120.9867,37.4032],[-120.9916,37.4029],[-120.9934,37.4014],[-120.9959,37.4022],[-120.9971,37.4044],[-120.9965,37.4065],[-120.9932,37.4084],[-120.9929,37.4098],[-120.9956,37.4113],[-121.0009,37.4107],[-121.0033,37.4125],[-121.0014,37.4167],[-120.9984,37.4183],[-121.0033,37.4225],[-121.0026,37.4246],[-121.0002,37.4262],[-121.0003,37.4283],[-121.0041,37.4296],[-121.0097,37.4258],[-121.0119,37.4257],[-121.0148,37.4269],[-121.0134,37.4315],[-121.0166,37.4256],[-121.0216,37.4205],[-121.0373,37.4352],[-121.1413,37.4354],[-121.1415,37.4226],[-121.1632,37.4195],[-121.1715,37.4212],[-121.1876,37.4218],[-121.2031,37.4271],[-121.21,37.4254],[-121.2105,37.4242],[-121.2141,37.4244],[-121.2156,37.4263],[-121.2197,37.4262],[-121.2214,37.4254],[-121.2213,37.4237],[-121.2251,37.4255],[-121.228,37.4247],[-121.2358,37.4278],[-121.2379,37.4272],[-121.2432,37.4195],[-121.2502,37.4032],[-121.2583,37.3938],[-121.2632,37.3904],[-121.2703,37.3821],[-121.2792,37.3819],[-121.2835,37.3788],[-121.2884,37.3818],[-121.2944,37.3933],[-121.297,37.3967],[-121.2996,37.3976],[-121.3151,37.396],[-121.3171,37.3966],[-121.3185,37.3991],[-121.3259,37.4017],[-121.3264,37.3957],[-121.3295,37.3934],[-121.3398,37.3926],[-121.3515,37.3871],[-121.3537,37.3847],[-121.358,37.3844],[-121.3603,37.3855],[-121.3627,37.3891],[-121.3711,37.3914],[-121.3744,37.3939],[-121.3757,37.3968],[-121.3778,37.3969],[-121.3839,37.401],[-121.3861,37.4007],[-121.3905,37.4032],[-121.3971,37.4026],[-121.401,37.4036],[-121.4052,37.4049],[-121.4091,37.409],[-121.4278,37.4104],[-121.4315,37.4048],[-121.436,37.4044],[-121.438,37.4019],[-121.4444,37.3995],[-121.446,37.3967],[-121.4491,37.3947],[-121.4498,37.3923],[-121.4427,37.3928],[-121.4361,37.3961],[-121.4315,37.3942],[-121.4241,37.3936],[-121.4195,37.3907],[-121.4125,37.3894],[-121.4106,37.3861],[-121.4091,37.3807],[-121.4158,37.3759],[-121.4193,37.3644],[-121.4225,37.3631],[-121.4237,37.3588],[-121.4194,37.352],[-121.4207,37.3447],[-121.4091,37.3306],[-121.4111,37.3275],[-121.4102,37.3251],[-121.4119,37.3244],[-121.4094,37.3215],[-121.4075,37.3131],[-121.4058,37.311],[-121.4184,37.3033],[-121.4227,37.2991],[-121.4235,37.2953],[-121.4258,37.2963],[-121.4314,37.295],[-121.4368,37.292],[-121.4411,37.2939],[-121.4436,37.2966],[-121.4496,37.2939],[-121.4487,37.2903],[-121.453,37.2867],[-121.454,37.2841],[-121.4581,37.2841],[-121.4591,37.2827]]],[[[-121.02738,37.32654],[-121.02672,37.32482],[-121.02574,37.3222],[-121.02392,37.32263],[-121.02512,37.32708],[-121.02738,37.32654]]]]},"properties":{"GEOID":"0609992120","NAME":"Newman","COUNTY":"099"}},{"type":"Feature","geometry":{"type":"Polygon","coordinates":[[[-120.9265,38.0172],[-120.9263,37.8867],[-120.9233,37.7936],[-120.9234,37.758],[-120.9226,37.7503],[-120.9206,37.7493],[-120.9222,37.7484],[-120.9206,37.7385],[-120.9222,37.7371],[-120.9195,37.7386],[-120.9127,37.7467],[-120.898,37.7542],[-120.895,37.7486],[-120.894,37.711],[-120.7571,37.711],[-120.7487,37.7088],[-120.7473,37.7088],[-120.7474,37.711],[-120.6917,37.7109],[-120.6919,37.7172],[-120.6828,37.7181],[-120.6832,37.7326],[-120.6746,37.7319],[-120.6661,37.7341],[-120.6549,37.7324],[-120.6329,37.7323],[-120.6285,37.7255],[-120.6252,37.7239],[-120.6116,37.7322],[-120.5963,37.7324],[-120.5962,37.7359],[-120.5917,37.7359],[-120.5924,37.7443],[-120.5726,37.7526],[-120.5601,37.7606],[-120.5586,37.763],[-120.5597,37.7639],[-120.6552,37.8333],[-120.7287,37.8977],[-120.7445,37.9124],[-120.7527,37.9233],[-120.7613,37.9311],[-120.8338,37.9947],[-120.876,38.0289],[-120.9264,38.0774],[-120.9265,38.0172]],[[-120.88381,37.75467],[-120.88321,37.75468],[-120.88377,37.76066],[-120.88171,37.76078],[-120.88173,37.76188],[-120.8728,37.76183],[-120.87214,37.76335],[-120.8674,37.76332],[-120.86724,37.76544],[-120.86255,37.76685],[-120.8628,37.76916],[-120.86516,37.76915],[-120.86515,37.77079],[-120.86694,37.77085],[-120.86726,37.78062],[-120.86432,37.78163],[-120.8623,37.78119],[-120.86223,37.77464],[-120.8599,37.77488],[-120.85711,37.77666],[-120.84976,37.77844],[-120.84712,37.77981],[-120.83878,37.78013],[-120.83467,37.78309],[-120.83011,37.77657],[-120.82555,37.77778],[-120.82602,37.77984],[-120.81707,37.78113],[-120.81703,37.7761],[-120.82432,37.77204],[-120.82419,37.76182],[-120.83559,37.7618],[-120.8357,37.75737],[-120.83054,37.75789],[-120.82852,37.75735],[-120.82852,37.75602],[-120.82952,37.75604],[-120.82949,37.75359],[-120.83055,37.75359],[-120.82539,37.75162],[-120.82986,37.75041],[-120.83008,37.74786],[-120.83088,37.74736],[-120.83068,37.74039],[-120.83984,37.74025],[-120.8397,37.73711],[-120.84185,37.74023],[-120.84892,37.74019],[-120.84904,37.74646],[-120.85258,37.74471],[-120.8527,37.75245],[-120.85681,37.75101],[-120.85998,37.75253],[-120.86214,37.75225],[-120.86769,37.7488],[-120.87001,37.74939],[-120.87299,37.74756],[-120.87629,37.74681],[-120.87894,37.74439],[-120.88149,37.7443],[-120.88135,37.74774],[-120.87606,37.75139],[-120.87037,37.75366],[-120.87066,37.75432],[-120.87888,37.75094],[-120.87892,37.75184],[-120.8816,37.75181],[-120.88162,37.75272],[-120.88377,37.75271],[-120.88381,37.75467]],[[-120.82229,37.78821],[-120.81846,37.79075],[-120.81776,37.78564],[-120.82161,37.78556],[-120.82229,37.78821]],[[-120.80709,37.75827],[-120.79777,37.75779],[-120.79728,37.75653],[-120.79242,37.75511],[-120.79133,37.75353],[-120.78897,37.75316],[-120.78995,37.75116],[-120.79596,37.75294],[-120.79841,37.75221],[-120.80021,37.75459],[-120.80245,37.75467],[-120.80242,37.75642],[-120.80708,37.75647],[-120.80709,37.75827]]]},"properties":{"GEOID":"0609992210","NAME":"Oakdale","COUNTY":"099"}},{"type":"Feature","geometry":{"type":"Polygon","coordinates":[[[-121.2412,37.6643],[-121.2403,37.6567],[-121.2389,37.6542],[-121.223,37.6489],[-121.2237,37.6469],[-121.2279,37.6436],[-121.2287,37.6401],[-121.2261,37.6375],[-121.2182,37.6383],[-121.2146,37.6338],[-121.2136,37.6276],[-121.2109,37.6275],[-121.2094,37.6295],[-121.2108,37.6325],[-121.2054,37.637],[-121.1938,37.6375],[-121.1919,37.6346],[-121.1924,37.6326],[-121.1897,37.6309],[-121.1918,37.6295],[-121.1912,37.6273],[-121.1852,37.6262],[-121.1836,37.6215],[-121.1842,37.6174],[-121.1833,37.6144],[-121.1807,37.6129],[-121.1744,37.6134],[-121.172,37.6115],[-121.1737,37.605],[-121.1677,37.6087],[-121.1674,37.6097],[-121.1693,37.6107],[-121.1671,37.6138],[-121.1573,37.6154],[-121.1552,37.6132],[-121.156,37.6093],[-121.149,37.6065],[-121.1437,37.6072],[-121.1406,37.6014],[-121.1309,37.6028],[-121.1305,37.6016],[-121.1332,37.5984],[-121.1283,37.5965],[-121.127,37.5941],[-121.1297,37.5887],[-121.1299,37.5852],[-121.1253,37.5861],[-121.1174,37.5839],[-121.1168,37.5783],[-121.1144,37.5757],[-121.1139,37.5785],[-121.1092,37.5821],[-121.0947,37.584],[-121.0924,37.5892],[-121.0888,37.5919],[-121.0833,37.5914],[-121.0817,37.5869],[-121.0793,37.5856],[-121.0722,37.5851],[-121.0667,37.5868],[-121.0583,37.5951],[-121.0531,37.6064],[-121.0536,37.6384],[-121.0673,37.6382],[-121.0681,37.6817],[-121.054017199082,37.68289853624834],[-121.07441,37.69999],[-121.07438832369942,37.69999021251275],[-121.0744,37.7],[-121.06829043341048,37.70007542674802],[-121.06835,37.70357],[-121.05451,37.70362],[-121.05454,37.70748],[-121.05585,37.70748],[-121.0559,37.7117],[-121.04334,37.71182],[-121.04332780194302,37.71126319457578],[-120.9949,37.711],[-120.9957,37.7602],[-120.9989,37.7571],[-120.9978,37.7553],[-120.9993,37.7536],[-121.0063,37.7515],[-121.008,37.7491],[-121.0127,37.7497],[-121.0108,37.7516],[-121.014,37.7545],[-121.0112,37.7558],[-121.0147,37.7565],[-121.0177,37.7553],[-121.0213,37.7501],[-121.0206,37.7481],[-121.0241,37.7467],[-121.0257,37.7424],[-121.0288,37.7407],[-121.033,37.7429],[-121.0365,37.743],[-121.0379,37.7392],[-121.0426,37.7418],[-121.0438,37.7415],[-121.0428,37.7391],[-121.044,37.7387],[-121.0468,37.7429],[-121.051,37.7418],[-121.0519,37.7432],[-121.0507,37.7457],[-121.0536,37.7459],[-121.0517,37.7481],[-121.0567,37.7505],[-121.0583,37.7488],[-121.0605,37.7494],[-121.0614,37.7463],[-121.0647,37.7467],[-121.0634,37.7437],[-121.0669,37.7447],[-121.067,37.7396],[-121.0715,37.7379],[-121.0751,37.7389],[-121.0775,37.7375],[-121.0794,37.7384],[-121.0798,37.7402],[-121.0821,37.7399],[-121.0831,37.7418],[-121.0877,37.7414],[-121.0905,37.7359],[-121.0951,37.7345],[-121.0944,37.7337],[-121.0954,37.7332],[-121.0968,37.7346],[-121.0958,37.7362],[-121.0992,37.7381],[-121.101,37.7377],[-121.0998,37.7402],[-121.1029,37.7413],[-121.1068,37.7401],[-121.11,37.7421],[-121.1113,37.74],[-121.1076,37.7323],[-121.1129,37.7277],[-121.1168,37.7265],[-121.1168,37.7241],[-121.1214,37.7245],[-121.1214,37.7219],[-121.1236,37.7228],[-121.1227,37.7241],[-121.1259,37.7226],[-121.1287,37.7243],[-121.1318,37.7221],[-121.1338,37.7238],[-121.1353,37.723],[-121.1365,37.7247],[-121.138,37.7223],[-121.1428,37.7221],[-121.1419,37.7208],[-121.1454,37.72],[-121.1461,37.7175],[-121.1503,37.7194],[-121.1545,37.7191],[-121.1551,37.7203],[-121.1571,37.7178],[-121.1561,37.7168],[-121.1591,37.7166],[-121.1578,37.7134],[-121.1584,37.7118],[-121.1608,37.7111],[-121.1593,37.7085],[-121.1621,37.7081],[-121.1586,37.7054],[-121.1624,37.7038],[-121.1657,37.7043],[-121.1668,37.7022],[-121.1637,37.7004],[-121.1689,37.6991],[-121.1763,37.704],[-121.1772,37.7063],[-121.1799,37.7041],[-121.1792,37.702],[-121.1769,37.7025],[-121.1759,37.6994],[-121.1826,37.6985],[-121.1824,37.6966],[-121.1802,37.6953],[-121.1806,37.6936],[-121.1828,37.6936],[-121.1839,37.6923],[-121.1822,37.6916],[-121.1795,37.693],[-121.1788,37.6918],[-121.1831,37.69],[-121.1812,37.6879],[-121.1857,37.6889],[-121.1874,37.6875],[-121.1876,37.69],[-121.1895,37.6897],[-121.189,37.6916],[-121.1919,37.6905],[-121.1941,37.6949],[-121.1964,37.6946],[-121.1963,37.6926],[-121.1988,37.6902],[-121.2014,37.6928],[-121.1992,37.6943],[-121.1995,37.6962],[-121.2028,37.6958],[-121.2042,37.6934],[-121.2064,37.6948],[-121.2052,37.6915],[-121.2087,37.6863],[-121.212,37.6859],[-121.2164,37.6879],[-121.221,37.683],[-121.2235,37.6836],[-121.2226,37.6804],[-121.2183,37.6792],[-121.2193,37.6778],[-121.2227,37.6775],[-121.222,37.6751],[-121.2199,37.6766],[-121.2188,37.6759],[-121.2185,37.6736],[-121.2206,37.6708],[-121.2292,37.6689],[-121.2291,37.6643],[-121.2307,37.6628],[-121.2412,37.6643]]]},"properties":{"GEOID":"0609992720","NAME":"Salida","COUNTY":"099"}},{"type":"Feature","geometry":{"type":"Polygon","coordinates":[[[-121.4868,37.4757],[-121.4843,37.466],[-121.475,37.4621],[-121.4727,37.4564],[-121.4696,37.4557],[-121.4689,37.4539],[-121.4672,37.4533],[-121.4647,37.4545],[-121.4629,37.4515],[-121.4635,37.4457],[-121.4619,37.4388],[-121.465,37.437],[-121.4703,37.4301],[-121.4689,37.425],[-121.4726,37.4233],[-121.4663,37.415],[-121.4636,37.4159],[-121.4564,37.4067],[-121.4557,37.401],[-121.4583,37.3981],[-121.4567,37.3955],[-121.4516,37.3946],[-121.4498,37.3923],[-121.4491,37.3947],[-121.446,37.3967],[-121.4444,37.3995],[-121.438,37.4019],[-121.436,37.4044],[-121.4315,37.4048],[-121.4283,37.4103],[-121.4249,37.4103],[-121.4091,37.409],[-121.4052,37.4049],[-121.401,37.4036],[-121.3971,37.4026],[-121.3905,37.4032],[-121.3861,37.4007],[-121.3839,37.401],[-121.3778,37.3969],[-121.3757,37.3968],[-121.3744,37.3939],[-121.3711,37.3914],[-121.3627,37.3891],[-121.3603,37.3855],[-121.358,37.3844],[-121.3537,37.3847],[-121.3515,37.3871],[-121.3398,37.3926],[-121.3295,37.3934],[-121.3264,37.3957],[-121.3259,37.4017],[-121.3185,37.3991],[-121.3171,37.3966],[-121.3151,37.396],[-121.2996,37.3976],[-121.297,37.3967],[-121.2944,37.3933],[-121.2884,37.3818],[-121.2835,37.3788],[-121.2792,37.3819],[-121.2703,37.3821],[-121.2632,37.3904],[-121.2583,37.3938],[-121.2502,37.4032],[-121.2432,37.4195],[-121.2379,37.4272],[-121.2357,37.4278],[-121.228,37.4247],[-121.2251,37.4255],[-121.2213,37.4237],[-121.2214,37.4254],[-121.2197,37.4262],[-121.2156,37.4263],[-121.2141,37.4244],[-121.2105,37.4242],[-121.21,37.4254],[-121.2031,37.4271],[-121.1876,37.4218],[-121.1715,37.4212],[-121.1632,37.4195],[-121.1415,37.4226],[-121.1413,37.4354],[-121.0373,37.4352],[-121.0216,37.4205],[-121.0166,37.4256],[-121.0134,37.4315],[-121.0163,37.4333],[-121.0224,37.4335],[-121.0233,37.4362],[-121.0214,37.4406],[-121.0289,37.4439],[-121.0286,37.4456],[-121.0262,37.4465],[-121.0278,37.449],[-121.0325,37.4506],[-121.0367,37.4492],[-121.0387,37.4512],[-121.0385,37.4542],[-121.0427,37.4559],[-121.0427,37.4594],[-121.0332,37.462],[-121.0337,37.4642],[-121.0394,37.4653],[-121.0415,37.4684],[-121.0497,37.4708],[-121.0501,37.4723],[-121.0484,37.4746],[-121.0517,37.4779],[-121.0558,37.4781],[-121.0569,37.481],[-121.05841649625935,37.48142718204489],[-121.06049,37.4819],[-121.06046877257094,37.48200528804815],[-121.0636845117119,37.48291113005969],[-121.06515086606244,37.48175259818731],[-121.0646,37.4801],[-121.07,37.4805],[-121.06989621420936,37.48070342014963],[-121.06996,37.4807],[-121.06971,37.48185],[-121.06912623993465,37.48221256972809],[-121.06750244196373,37.48539521375111],[-121.06750396907216,37.48540368556701],[-121.0682911195446,37.486134611005696],[-121.06935,37.48667],[-121.07090064516129,37.48855774193549],[-121.0717,37.4893],[-121.0804,37.4933],[-121.0841,37.5003],[-121.0843,37.5049],[-121.088,37.507],[-121.0896,37.5119],[-121.0948,37.5129],[-121.0977,37.516],[-121.0976,37.5181],[-121.0999,37.5186],[-121.1002,37.5203],[-121.0977,37.5245],[-121.1017,37.5249],[-121.1037,37.5268],[-121.1077,37.5254],[-121.10882982998454,37.52580673879444],[-121.10982,37.52604],[-121.10985230986483,37.526174831551344],[-121.1102,37.5263],[-121.1104,37.5285],[-121.1077,37.532],[-121.10932679245283,37.53239163522012],[-121.11205,37.53289],[-121.11220110122358,37.533083598442715],[-121.1131,37.5333],[-121.11280366336634,37.53385563118812],[-121.11301,37.53412],[-121.11247626625065,37.534469500780034],[-121.1107,37.5378],[-121.1145,37.5378],[-121.1159,37.5406],[-121.1148,37.5426],[-121.1227,37.5467],[-121.123,37.5544],[-121.1274,37.5541],[-121.1281,37.5581],[-121.1326,37.5594],[-121.1351,37.5588],[-121.1383,37.5611],[-121.1435,37.5593],[-121.1484,37.5607],[-121.1497,37.5584],[-121.1481,37.5555],[-121.1489,37.5546],[-121.1533,37.5578],[-121.1528,37.5674],[-121.1555,37.5694],[-121.1592,37.5757],[-121.1569,37.5827],[-121.1618,37.5832],[-121.1641,37.5808],[-121.1661,37.5809],[-121.1677,37.5826],[-121.1667,37.5849],[-121.1678,37.5864],[-121.1719,37.5874],[-121.1724,37.5932],[-121.1768,37.5936],[-121.1766,37.5969],[-121.1697,37.5979],[-121.1722,37.6],[-121.1782,37.5976],[-121.1794,37.5992],[-121.1762,37.6024],[-121.1782,37.6062],[-121.1743,37.6057],[-121.1722,37.608],[-121.1718,37.611],[-121.1744,37.6134],[-121.1807,37.6129],[-121.1833,37.6144],[-121.1842,37.6174],[-121.1836,37.6215],[-121.1852,37.6262],[-121.1912,37.6273],[-121.1918,37.6295],[-121.1897,37.6309],[-121.1924,37.6326],[-121.1919,37.6346],[-121.1934,37.6372],[-121.2054,37.637],[-121.2108,37.6325],[-121.2099,37.6287],[-121.2131,37.6273],[-121.2144,37.6286],[-121.2146,37.6338],[-121.2182,37.6383],[-121.2261,37.6375],[-121.2287,37.6401],[-121.2279,37.6436],[-121.2237,37.6469],[-121.223,37.6489],[-121.2389,37.6542],[-121.2403,37.6567],[-121.2409,37.6643],[-121.4726,37.4822],[-121.4745,37.4793],[-121.4777,37.4803],[-121.4834,37.4754],[-121.4868,37.4757]],[[-121.20681,37.4935],[-121.19089,37.49336],[-121.19087,37.49622],[-121.18634,37.49611],[-121.18641,37.49337],[-121.16808,37.49341],[-121.16811,37.49731],[-121.16477,37.49734],[-121.16477,37.49341],[-121.14338,37.49327],[-121.14193,37.49125],[-121.1262,37.49846],[-121.12392,37.49531],[-121.11998,37.49697],[-121.11773,37.49394],[-121.12163,37.49215],[-121.11483,37.48273],[-121.12169,37.4796],[-121.11949,37.47643],[-121.12038,37.47602],[-121.11809,37.4729],[-121.12312,37.47058],[-121.12037,37.46755],[-121.11977,37.46784],[-121.11668,37.46359],[-121.12107,37.46156],[-121.11772,37.45697],[-121.11965,37.45697],[-121.12408,37.46064],[-121.14097,37.46065],[-121.14107,37.4526],[-121.14451,37.4526],[-121.14448,37.45635],[-121.14671,37.45728],[-121.15918,37.45793],[-121.15933,37.45006],[-121.1624,37.45007],[-121.16517,37.45736],[-121.16797,37.45749],[-121.16938,37.45843],[-121.17325,37.45828],[-121.18601,37.47198],[-121.18851,37.47205],[-121.20288,37.48633],[-121.19812,37.4864],[-121.20681,37.4935]],[[-121.09797,37.50302],[-121.09442,37.50467],[-121.08956,37.4985],[-121.09346,37.49677],[-121.09797,37.50302]]]},"properties":{"GEOID":"0609992420","NAME":"Patterson","COUNTY":"099"}},{"type":"Feature","geometry":{"type":"Polygon","coordinates":[[[-120.91724946308724,37.6818],[-120.91126,37.66717],[-120.90302838453914,37.66704335976214],[-120.9029,37.6671],[-120.8997,37.6669],[-120.8936,37.6634],[-120.8908,37.6639],[-120.8805,37.6602],[-120.8754,37.66],[-120.8753,37.653],[-120.8936,37.653],[-120.8931,37.6312],[-120.9005,37.628],[-120.8992,37.623],[-120.8939,37.6245],[-120.8932,37.6218],[-120.8915,37.6208],[-120.8864,37.6215],[-120.8841,37.6231],[-120.8847,37.6254],[-120.8833,37.6272],[-120.8782,37.625],[-120.8759,37.626],[-120.8744,37.6295],[-120.87332805020921,37.62890760669456],[-120.87295,37.62902],[-120.87245812796209,37.62842686018957],[-120.8706,37.6274],[-120.8674,37.628],[-120.8661,37.6309],[-120.8637,37.6324],[-120.8582,37.623],[-120.8592,37.619],[-120.8573,37.6163],[-120.8538,37.6165],[-120.8536,37.6181],[-120.8518,37.6188],[-120.8463,37.6177],[-120.8381,37.6232],[-120.8301,37.62],[-120.8239,37.6193],[-120.8178,37.6157],[-120.7986,37.6147],[-120.7874,37.6197],[-120.7824,37.6247],[-120.7731,37.629],[-120.77173575596817,37.63121689655173],[-120.77372,37.62882],[-120.77379,37.6345],[-120.7786,37.63455],[-120.77863,37.63824],[-120.7762,37.63821],[-120.77621,37.64188],[-120.77387,37.64184],[-120.77391,37.64569],[-120.77104,37.64834],[-120.75796,37.64962],[-120.75594,37.64909],[-120.75599,37.65277],[-120.73176,37.65283],[-120.73211,37.65061],[-120.73745,37.64801],[-120.74134,37.64743],[-120.7414,37.64678],[-120.73993,37.6453],[-120.73818,37.64506],[-120.73817,37.64416],[-120.72821,37.64412],[-120.72829,37.64093],[-120.74341,37.63967],[-120.74336,37.63535],[-120.7451072705602,37.63501097735399],[-120.7374,37.6353],[-120.7194,37.6394],[-120.7147,37.6372],[-120.7099,37.6376],[-120.7063,37.6389],[-120.7,37.6441],[-120.6916,37.6438],[-120.682,37.6455],[-120.6737,37.6452],[-120.6717,37.642],[-120.6672,37.6404],[-120.6622,37.6424],[-120.6581,37.6409],[-120.6447,37.6399],[-120.639,37.6379],[-120.6346,37.6345],[-120.6199,37.6354],[-120.6104,37.6386],[-120.6048,37.6387],[-120.589,37.6319],[-120.5797,37.6319],[-120.5749,37.63],[-120.5675,37.6295],[-120.5622,37.6327],[-120.5486,37.6272],[-120.5362,37.6293],[-120.5286,37.628],[-120.5256,37.6262],[-120.5177,37.6312],[-120.5016,37.6381],[-120.4968,37.644],[-120.4935,37.6525],[-120.4879,37.6551],[-120.4872,37.6598],[-120.482,37.6628],[-120.4793,37.6662],[-120.4755,37.6671],[-120.4636,37.6665],[-120.4512,37.663],[-120.4425,37.6659],[-120.4425,37.6675],[-120.4453,37.6705],[-120.4436,37.6738],[-120.4414,37.6741],[-120.5586,37.763],[-120.5668,37.7557],[-120.5924,37.7443],[-120.5917,37.7359],[-120.5962,37.7359],[-120.5963,37.7324],[-120.6116,37.7322],[-120.6252,37.7239],[-120.6285,37.7255],[-120.6329,37.7323],[-120.6549,37.7324],[-120.6661,37.7341],[-120.6746,37.7319],[-120.6832,37.7326],[-120.6828,37.7181],[-120.6919,37.7172],[-120.6917,37.7109],[-120.7474,37.711],[-120.7473,37.7088],[-120.7487,37.7088],[-120.7571,37.711],[-120.894,37.711],[-120.8939,37.6818],[-120.91724946308724,37.6818]]]},"properties":{"GEOID":"0609993580","NAME":"Waterford","COUNTY":"099"}},{"type":"Feature","geometry":{"type":"MultiPolygon","coordinates":[[[[-121.1794,37.6001],[-121.1783,37.5976],[-121.1729,37.6001],[-121.1697,37.5983],[-121.1707,37.5973],[-121.1758,37.5973],[-121.1772,37.5949],[-121.1764,37.5934],[-121.1724,37.5932],[-121.1719,37.5874],[-121.1678,37.5864],[-121.1667,37.5849],[-121.1677,37.5826],[-121.1661,37.5809],[-121.1641,37.5808],[-121.1618,37.5832],[-121.1569,37.5827],[-121.1592,37.5757],[-121.1555,37.5694],[-121.1528,37.5674],[-121.1533,37.5578],[-121.1489,37.5546],[-121.1481,37.5555],[-121.1497,37.5584],[-121.1484,37.5607],[-121.1435,37.5593],[-121.1383,37.5611],[-121.1351,37.5588],[-121.1326,37.5594],[-121.1281,37.5581],[-121.1274,37.5541],[-121.123,37.5544],[-121.1227,37.5467],[-121.1148,37.5426],[-121.1159,37.5406],[-121.1145,37.5378],[-121.1107,37.5378],[-121.11247626625065,37.534469500780034],[-121.11104,37.53541],[-121.11026,37.53692],[-121.10942,37.53613],[-121.10857,37.53661],[-121.10761,37.5388],[-121.1042,37.54138],[-121.10036,37.54106],[-121.09413,37.54234],[-121.08971,37.53979],[-121.08546,37.54003],[-121.08126,37.537],[-121.06703,37.53693],[-121.06732,37.52238],[-121.05817,37.52237],[-121.05822,37.50816],[-121.04911,37.50782],[-121.04872,37.47885],[-121.05602,37.47886],[-121.05628,37.48094],[-121.05841649625935,37.48142718204489],[-121.0569,37.481],[-121.0558,37.4781],[-121.0517,37.4779],[-121.0484,37.4746],[-121.0501,37.4723],[-121.0497,37.4708],[-121.0415,37.4684],[-121.0394,37.4653],[-121.0335,37.4639],[-121.0332,37.462],[-121.0427,37.4594],[-121.0427,37.4559],[-121.0385,37.4542],[-121.0387,37.4512],[-121.0367,37.4492],[-121.0325,37.4506],[-121.0278,37.449],[-121.0262,37.4465],[-121.0286,37.4456],[-121.0289,37.4439],[-121.0214,37.4406],[-121.0233,37.4362],[-121.0224,37.4335],[-121.0163,37.4333],[-121.0134,37.4315],[-121.005,37.4394],[-121.0036,37.442],[-121.0034,37.4494],[-120.9945,37.4807],[-120.99371450693855,37.58037034179766],[-121.0119,37.58051],[-121.01188,37.58414],[-121.0118402584523,37.594949700976706],[-121.0303,37.595],[-121.0305,37.6087],[-121.0379,37.6128],[-121.0441,37.6126],[-121.0528,37.6072],[-121.0583,37.5951],[-121.0662,37.587],[-121.0722,37.5851],[-121.0793,37.5856],[-121.0817,37.5869],[-121.0833,37.5914],[-121.0888,37.5919],[-121.0924,37.5892],[-121.0947,37.584],[-121.1092,37.5821],[-121.1139,37.5785],[-121.1142,37.5757],[-121.1168,37.5783],[-121.1174,37.5839],[-121.1253,37.5861],[-121.1299,37.5852],[-121.1297,37.5887],[-121.127,37.5941],[-121.1283,37.5965],[-121.1332,37.5984],[-121.1304,37.6025],[-121.1339,37.6031],[-121.1406,37.6014],[-121.1437,37.6072],[-121.149,37.6065],[-121.156,37.6093],[-121.1552,37.6132],[-121.1567,37.6153],[-121.1671,37.6138],[-121.1693,37.6107],[-121.1674,37.6097],[-121.1677,37.6087],[-121.1728,37.6049],[-121.1782,37.6062],[-121.1762,37.6024],[-121.1794,37.6001]]],[[[-121.10882982998454,37.52580673879444],[-121.1077,37.5254],[-121.1037,37.5268],[-121.1017,37.5249],[-121.0977,37.5245],[-121.1002,37.5203],[-121.0999,37.5186],[-121.0976,37.5181],[-121.0977,37.516],[-121.0948,37.5129],[-121.0896,37.5119],[-121.088,37.507],[-121.0843,37.5049],[-121.0841,37.5003],[-121.0804,37.4933],[-121.0717,37.4893],[-121.07090064516129,37.48855774193549],[-121.07165,37.48947],[-121.08024,37.49336],[-121.08156,37.49704],[-121.08405,37.50037],[-121.08423,37.50507],[-121.08775,37.50699],[-121.08932,37.51192],[-121.09461,37.51301],[-121.09698,37.51569],[-121.09575,37.51728],[-121.09033,37.51679],[-121.09035,37.51879],[-121.09264,37.51928],[-121.0966,37.5181],[-121.09983,37.51867],[-121.09987,37.5207],[-121.09726,37.52383],[-121.09777,37.52471],[-121.09993,37.52545],[-121.10173,37.525],[-121.10371,37.52686],[-121.10774,37.52555],[-121.10882982998454,37.52580673879444]]],[[[-121.0636845117119,37.48291113005969],[-121.06046877257094,37.48200528804815],[-121.06024,37.48314],[-121.05842,37.48428],[-121.05867,37.48537],[-121.06013,37.4863],[-121.06242,37.48565],[-121.06361,37.48297],[-121.0636845117119,37.48291113005969]]]]},"properties":{"GEOID":"0609993650","NAME":"Westport","COUNTY":"099"}}]}