{"type":"FeatureCollection","features":[{"type":"Feature","properties":{"GEOID":"0610392560","NAME":"Red Bluff","COUNTY":"103"},"geometry":{"type":"MultiPolygon","coordinates":[[[[-122.5288,40.187],[-122.5195,40.1823],[-122.5053,40.1814],[-122.4928,40.1855],[-122.4781,40.1877],[-122.4744,40.1892],[-122.4662,40.1891],[-122.4632,40.188],[-122.4555,40.1893],[-122.4494,40.1882],[-122.442,40.1842],[-122.4342,40.1824],[-122.4152,40.1739],[-122.4098,40.1733],[-122.4051,40.1693],[-122.3923,40.1679],[-122.3731,40.159],[-122.368,40.1584],[-122.3565,40.1578],[-122.3517,40.1589],[-122.3489,40.1578],[-122.3393,40.1593],[-122.3082,40.1578],[-122.2851,40.1649],[-122.2754,40.1649],[-122.2693,40.1629],[-122.2567,40.1632],[-122.2571,40.1359],[-122.271,40.1358],[-122.2713,40.1286],[-122.2699,40.1264],[-122.2681,40.1263],[-122.2556,40.1334],[-122.2503,40.1302],[-122.2477,40.1306],[-122.2436,40.135],[-122.2438,40.1386],[-122.2408,40.1386],[-122.2396,40.1398],[-122.2323,40.1134],[-122.2336,40.0699],[-122.2199,40.046],[-122.225,40.044],[-122.2253,39.9762],[-122.2074,39.9749],[-122.203,39.9766],[-122.1925,39.9765],[-122.1903,39.9745],[-122.1908,39.9728],[-122.1871,39.9722],[-122.1794,39.9764],[-122.1774,39.9794],[-122.1623,39.9843],[-122.1549,39.9837],[-122.1479,39.9879],[-122.1424,39.9864],[-122.1385,39.9868],[-122.1326,39.9845],[-122.1227,39.9864],[-122.1187,39.9851],[-122.1167,39.9865],[-122.1126,39.9864],[-122.0954,39.9903],[-122.0988,39.9918],[-122.1068,39.9913],[-122.1103,39.9939],[-122.1103,39.9973],[-122.1059,40.0067],[-122.1178,40.0185],[-122.1194,40.0265],[-122.1176,40.0377],[-122.1153,40.0372],[-122.1139,40.035],[-122.112,40.0375],[-122.1054,40.0397],[-122.1026,40.0428],[-122.0998,40.0427],[-122.0935,40.0479],[-122.0909,40.0472],[-122.0861,40.0509],[-122.0809,40.0514],[-122.078,40.0533],[-122.0746,40.0526],[-122.0686,40.0545],[-122.065,40.0525],[-122.056,40.0518],[-122.0489,40.053],[-122.0436,40.0555],[-122.0263,40.0547],[-122.0639,40.0984],[-122.0607,40.0981],[-122.0529,40.1011],[-122.0542,40.1032],[-122.0538,40.107],[-122.0658,40.12],[-122.068,40.1262],[-122.0776,40.1314],[-122.082,40.1416],[-122.0905,40.1443],[-122.0923,40.1476],[-122.0986,40.1526],[-122.1004,40.1576],[-122.1146,40.1654],[-122.1197,40.1669],[-122.124,40.1712],[-122.1314,40.171],[-122.1336,40.1679],[-122.1362,40.167],[-122.1332,40.1699],[-122.1328,40.1729],[-122.1278,40.1794],[-122.1348,40.188],[-122.1323,40.1979],[-122.1555,40.2315],[-122.1661,40.2637],[-122.1875,40.2805],[-122.189,40.2867],[-122.1821,40.2948],[-122.1779,40.2976],[-122.166,40.3024],[-122.1588,40.3013],[-122.1558,40.3021],[-122.1495,40.3119],[-122.1496,40.3137],[-122.1551,40.318],[-122.1511,40.3219],[-122.151,40.3265],[-122.154,40.3298],[-122.1653,40.3265],[-122.1714,40.3193],[-122.1776,40.3166],[-122.1973,40.3175],[-122.2049,40.3192],[-122.2111,40.3264],[-122.2103,40.3348],[-122.2023,40.3424],[-122.1922,40.342],[-122.1841,40.3441],[-122.1815,40.3503],[-122.1769,40.3535],[-122.1764,40.356],[-122.1863,40.3662],[-122.1983,40.3759],[-122.1992,40.3779],[-122.2035,40.3782],[-122.2073,40.382],[-122.2145,40.3826],[-122.2177,40.3853],[-122.2232,40.3862],[-122.2262,40.3891],[-122.2303,40.3888],[-122.2314,40.3865],[-122.2355,40.3854],[-122.2518,40.3872],[-122.2549,40.3848],[-122.2556,40.3805],[-122.257,40.3794],[-122.2644,40.3798],[-122.2704,40.3775],[-122.2757,40.3778],[-122.2809,40.3758],[-122.2891,40.3774],[-122.2941,40.3805],[-122.2994,40.3755],[-122.3092,40.3712],[-122.321,40.3749],[-122.33,40.3728],[-122.3369,40.3742],[-122.3404,40.3713],[-122.344,40.3709],[-122.3649,40.3742],[-122.3715,40.3726],[-122.3742,40.3671],[-122.406,40.3673],[-122.4063,40.3623],[-122.4083,40.3599],[-122.4408,40.3597],[-122.4531,40.3547],[-122.4546,40.3452],[-122.4633,40.3452],[-122.4626,40.329],[-122.4649,40.3242],[-122.4613,40.3213],[-122.4635,40.3176],[-122.4613,40.3158],[-122.4628,40.3138],[-122.4628,40.3065],[-122.4812,40.2872],[-122.4923,40.2786],[-122.4888,40.2756],[-122.4895,40.2724],[-122.4878,40.2689],[-122.4865,40.2601],[-122.4804,40.2584],[-122.4743,40.2598],[-122.4627,40.2522],[-122.4615,40.243],[-122.4627,40.2409],[-122.4615,40.2386],[-122.4621,40.2273],[-122.4608,40.2264],[-122.4796,40.2257],[-122.487,40.2196],[-122.4941,40.209],[-122.499,40.206],[-122.513,40.201],[-122.5216,40.1922],[-122.5288,40.187]],[[-122.26641,40.2306],[-122.26555,40.23065],[-122.25497,40.23076],[-122.25376,40.22344],[-122.25059,40.21954],[-122.24708,40.20911],[-122.24223,40.20112],[-122.2374,40.20096],[-122.23734,40.19501],[-122.23067,40.18719],[-122.23687,40.18142],[-122.23288,40.17831],[-122.23155,40.1792],[-122.23356,40.18059],[-122.23257,40.18096],[-122.23021,40.17953],[-122.22857,40.1806],[-122.2289,40.18135],[-122.23172,40.18187],[-122.23211,40.1843],[-122.23003,40.18588],[-122.22785,40.18332],[-122.22715,40.18115],[-122.2236,40.18463],[-122.22349,40.18623],[-122.22027,40.18613],[-122.2202,40.18518],[-122.2189,40.18519],[-122.21828,40.18378],[-122.21253,40.18606],[-122.21135,40.18728],[-122.20925,40.18729],[-122.20857,40.1866],[-122.20681,40.18758],[-122.20682,40.18655],[-122.20087,40.18597],[-122.20089,40.18737],[-122.19684,40.1874],[-122.19677,40.18576],[-122.19967,40.18566],[-122.1997,40.18441],[-122.20615,40.18462],[-122.20612,40.1858],[-122.20897,40.18587],[-122.2092,40.1838],[-122.21072,40.18302],[-122.20997,40.18587],[-122.2116,40.18591],[-122.21815,40.18352],[-122.21537,40.18015],[-122.21734,40.18125],[-122.21894,40.181],[-122.21896,40.17838],[-122.21431,40.17861],[-122.21405,40.17519],[-122.21899,40.17515],[-122.21895,40.17158],[-122.22164,40.17152],[-122.22215,40.1673],[-122.22506,40.17043],[-122.22548,40.1716],[-122.2242,40.1716],[-122.22397,40.17264],[-122.22777,40.17885],[-122.23213,40.17755],[-122.22835,40.17321],[-122.22962,40.17151],[-122.22777,40.1716],[-122.21805,40.16065],[-122.22333,40.15861],[-122.21526,40.14795],[-122.21859,40.14804],[-122.21943,40.1468],[-122.22076,40.14689],[-122.21995,40.14478],[-122.22383,40.14481],[-122.22386,40.1426],[-122.22808,40.1427],[-122.22856,40.14347],[-122.23149,40.14419],[-122.23751,40.14439],[-122.23949,40.14404],[-122.24016,40.14257],[-122.24707,40.14277],[-122.2454,40.13592],[-122.25059,40.1351],[-122.25253,40.14276],[-122.25687,40.14284],[-122.25658,40.16111],[-122.25026,40.16064],[-122.25095,40.1611],[-122.25101,40.16288],[-122.24731,40.16478],[-122.24729,40.16543],[-122.25217,40.16428],[-122.25446,40.16483],[-122.25521,40.16588],[-122.25617,40.16588],[-122.25678,40.16472],[-122.2626,40.16475],[-122.26251,40.16742],[-122.2592,40.16677],[-122.2592,40.16837],[-122.26116,40.16839],[-122.26103,40.17204],[-122.26392,40.17208],[-122.26317,40.17337],[-122.26101,40.17339],[-122.26116,40.18268],[-122.26038,40.18287],[-122.2655,40.18315],[-122.26555,40.18794],[-122.26253,40.18799],[-122.26098,40.18682],[-122.25851,40.18679],[-122.25845,40.18464],[-122.25629,40.18463],[-122.25625,40.18166],[-122.25183,40.18165],[-122.25186,40.18278],[-122.24878,40.18274],[-122.24882,40.18344],[-122.2472,40.1828],[-122.24719,40.18363],[-122.24616,40.18369],[-122.2467,40.18675],[-122.25208,40.18688],[-122.25199,40.20103],[-122.2464,40.20096],[-122.24904,40.20215],[-122.25627,40.20783],[-122.25629,40.20989],[-122.25917,40.21139],[-122.25822,40.21785],[-122.25461,40.21988],[-122.25462,40.22104],[-122.25658,40.22407],[-122.25645,40.22571],[-122.25766,40.22623],[-122.25856,40.22631],[-122.25904,40.22367],[-122.26212,40.22478],[-122.2631,40.22417],[-122.26641,40.2306]],[[-122.13795,40.02044],[-122.13306,40.02524],[-122.13313,40.02651],[-122.13586,40.03041],[-122.13393,40.03038],[-122.13029,40.02856],[-122.12021,40.02945],[-122.12054,40.02451],[-122.11973,40.02135],[-122.11789,40.01707],[-122.11559,40.01495],[-122.12961,40.01484],[-122.13795,40.02044]]],[[[-122.24738,40.16779],[-122.24262,40.16773],[-122.24279,40.17143],[-122.24732,40.17158],[-122.24738,40.16779]]],[[[-122.22526,40.17555],[-122.22516,40.17495],[-122.22456,40.17405],[-122.22334,40.1747],[-122.22343,40.17619],[-122.22526,40.17555]]]]}},{"type":"Feature","properties":{"GEOID":"0610390840","NAME":"East Tehama","COUNTY":"103"},"geometry":{"type":"Polygon","coordinates":[[[-122.2116,40.3297],[-122.2108,40.3256],[-122.2049,40.3192],[-122.1973,40.3175],[-122.1802,40.3165],[-122.1734,40.3179],[-122.1653,40.3265],[-122.1529,40.3297],[-122.1508,40.3235],[-122.1551,40.318],[-122.1494,40.3128],[-122.1548,40.3032],[-122.1577,40.3013],[-122.166,40.3024],[-122.1779,40.2976],[-122.1821,40.2948],[-122.189,40.2867],[-122.1875,40.2805],[-122.1661,40.2637],[-122.1555,40.2315],[-122.1323,40.1979],[-122.1348,40.188],[-122.1278,40.1794],[-122.1328,40.1729],[-122.1332,40.1699],[-122.1362,40.167],[-122.1336,40.1679],[-122.1314,40.171],[-122.124,40.1712],[-122.1197,40.1669],[-122.1146,40.1654],[-122.1004,40.1576],[-122.0986,40.1526],[-122.0923,40.1476],[-122.0905,40.1443],[-122.082,40.1416],[-122.0776,40.1314],[-122.068,40.1262],[-122.0658,40.12],[-122.0538,40.107],[-122.0542,40.1032],[-122.0529,40.1011],[-122.0607,40.0981],[-122.0639,40.0984],[-122.0263,40.0547],[-122.0436,40.0555],[-122.0489,40.053],[-122.056,40.0518],[-122.065,40.0525],[-122.0686,40.0545],[-122.0746,40.0526],[-122.078,40.0533],[-122.0809,40.0514],[-122.0861,40.0509],[-122.0909,40.0472],[-122.0935,40.0479],[-122.0998,40.0427],[-122.1026,40.0428],[-122.1054,40.0397],[-122.112,40.0375],[-122.1139,40.035],[-122.1153,40.0372],[-122.1176,40.0377],[-122.119,40.0318],[-122.1193,40.0247],[-122.1178,40.0185],[-122.1059,40.0067],[-122.1103,39.9973],[-122.1097,39.9927],[-122.1068,39.9913],[-122.0977,39.9916],[-122.0954,39.9903],[-122.0933,39.9841],[-122.0939,39.9709],[-122.0922,39.9627],[-122.0892,39.9601],[-122.0794,39.9563],[-122.0765,39.9496],[-122.0772,39.945],[-122.086,39.9412],[-122.0951,39.9305],[-122.0939,39.9271],[-122.0848,39.9211],[-122.0926,39.91],[-122.0876,39.9062],[-122.0724,39.9007],[-122.0649,39.8941],[-122.0632,39.8914],[-122.0629,39.8859],[-122.0668,39.8776],[-122.0655,39.8751],[-122.0619,39.8746],[-122.0584,39.8773],[-122.0563,39.883],[-122.0505,39.8844],[-121.8845,39.8832],[-121.804,39.8843],[-121.8061,39.8882],[-121.7762,39.8889],[-121.7669,39.8974],[-121.7531,39.9043],[-121.7506,39.9068],[-121.7494,39.9257],[-121.747,39.931],[-121.7463,39.9385],[-121.7446,39.9418],[-121.7358,39.9535],[-121.7296,39.9561],[-121.725,39.9676],[-121.7212,39.9706],[-121.7149,39.9714],[-121.7075,39.9768],[-121.7041,39.9804],[-121.7032,39.9842],[-121.646,39.9825],[-121.6458,39.9971],[-121.6354,39.9968],[-121.6362,40.0258],[-121.6261,40.0256],[-121.6261,40.0395],[-121.6178,40.0394],[-121.6173,40.0471],[-121.6087,40.0467],[-121.6086,40.0551],[-121.5986,40.0551],[-121.5985,40.0576],[-121.5956,40.0577],[-121.5958,40.0935],[-121.5861,40.0933],[-121.5864,40.1005],[-121.5106,40.1005],[-121.5106,40.108],[-121.4909,40.108],[-121.4909,40.1153],[-121.481,40.1151],[-121.481,40.1224],[-121.4529,40.1221],[-121.4527,40.1297],[-121.4429,40.1296],[-121.4428,40.1487],[-121.4369,40.1519],[-121.4419,40.1521],[-121.4428,40.1541],[-121.4462,40.1559],[-121.4455,40.159],[-121.4429,40.1619],[-121.4437,40.164],[-121.4428,40.17],[-121.445,40.1742],[-121.4451,40.1777],[-121.4409,40.1787],[-121.4361,40.1819],[-121.4386,40.1839],[-121.4396,40.1878],[-121.4428,40.1885],[-121.4441,40.1907],[-121.4398,40.1948],[-121.4344,40.1959],[-121.4297,40.1947],[-121.424,40.1954],[-121.4127,40.1943],[-121.4074,40.1914],[-121.4016,40.1953],[-121.4008,40.1998],[-121.3936,40.2014],[-121.385,40.2103],[-121.3761,40.2105],[-121.3677,40.2127],[-121.3617,40.2256],[-121.3625,40.2283],[-121.3664,40.2324],[-121.3674,40.236],[-121.3648,40.2391],[-121.3672,40.2423],[-121.3673,40.2449],[-121.3569,40.2534],[-121.3552,40.2578],[-121.349,40.2645],[-121.3527,40.2685],[-121.3494,40.2734],[-121.3503,40.2759],[-121.3599,40.2775],[-121.3604,40.2802],[-121.363,40.2816],[-121.3632,40.2875],[-121.3703,40.288],[-121.3697,40.2897],[-121.3713,40.2932],[-121.3755,40.2949],[-121.3768,40.298],[-121.3667,40.3011],[-121.3584,40.297],[-121.3566,40.2975],[-121.3499,40.3059],[-121.343,40.3066],[-121.3423,40.3098],[-121.3448,40.3107],[-121.3475,40.3139],[-121.3535,40.3155],[-121.3563,40.3197],[-121.3609,40.3223],[-121.364,40.3231],[-121.3661,40.322],[-121.3675,40.3229],[-121.3689,40.3256],[-121.3673,40.331],[-121.3761,40.3362],[-121.3804,40.3403],[-121.3896,40.339],[-121.3941,40.3397],[-121.3975,40.3421],[-121.4034,40.3415],[-121.4121,40.3427],[-121.4286,40.3503],[-121.4387,40.3479],[-121.4594,40.3504],[-121.4684,40.3498],[-121.4724,40.3516],[-121.4745,40.357],[-121.4791,40.3604],[-121.481,40.3666],[-121.4735,40.3746],[-121.4828,40.3829],[-121.4841,40.3885],[-121.4827,40.3932],[-121.4843,40.3966],[-121.48,40.4112],[-121.4807,40.4138],[-121.4789,40.4179],[-121.4796,40.4195],[-121.4738,40.4246],[-121.4769,40.4269],[-121.4832,40.4275],[-121.4867,40.4296],[-121.4979,40.432],[-121.497,40.437],[-121.4944,40.4404],[-121.4976,40.4438],[-121.4976,40.4456],[-121.5651,40.4458],[-121.5771,40.4425],[-121.5826,40.4352],[-121.5886,40.4317],[-121.5931,40.4311],[-121.6004,40.4318],[-121.6061,40.435],[-121.6089,40.4384],[-121.614,40.4391],[-121.6211,40.4372],[-121.6263,40.4381],[-121.6382,40.4371],[-121.6463,40.4347],[-121.6554,40.4417],[-121.6585,40.4416],[-121.6619,40.4447],[-121.6705,40.4476],[-121.672,40.4504],[-121.6773,40.4502],[-121.6858,40.4531],[-121.6912,40.4519],[-121.6983,40.4483],[-121.7089,40.4508],[-121.7153,40.4485],[-121.7198,40.4486],[-121.7258,40.4417],[-121.7346,40.4356],[-121.765,40.4367],[-121.773,40.4385],[-121.7763,40.4376],[-121.7766,40.4387],[-121.7788,40.4383],[-121.7877,40.4437],[-121.79,40.4433],[-121.7903,40.4421],[-121.7926,40.4432],[-121.7963,40.4425],[-121.8043,40.4435],[-121.8067,40.445],[-121.8138,40.4413],[-121.8341,40.4373],[-121.8385,40.4376],[-121.8417,40.4401],[-121.8456,40.4395],[-121.8506,40.4425],[-121.8571,40.4419],[-121.8639,40.4405],[-121.8727,40.4362],[-121.8798,40.4361],[-121.8875,40.4289],[-121.8923,40.4269],[-121.8956,40.427],[-121.9007,40.421],[-121.9039,40.4226],[-121.9068,40.4217],[-121.911,40.4229],[-121.9148,40.426],[-121.9217,40.4231],[-121.927,40.4184],[-121.9354,40.4177],[-121.941,40.4153],[-121.9508,40.4189],[-121.9519,40.4178],[-121.9606,40.4193],[-121.9618,40.4208],[-121.967,40.4221],[-121.9743,40.4225],[-121.9775,40.421],[-121.9796,40.4227],[-121.9848,40.4228],[-121.9875,40.4246],[-121.9902,40.4233],[-121.9939,40.4257],[-121.9976,40.4228],[-122.005,40.4264],[-122.0079,40.4257],[-122.0099,40.4268],[-122.0136,40.4248],[-122.0148,40.421],[-122.0219,40.4241],[-122.0304,40.4208],[-122.0301,40.4177],[-122.031,40.4173],[-122.0353,40.4197],[-122.0419,40.4182],[-122.0521,40.4204],[-122.0574,40.4165],[-122.0721,40.4153],[-122.0802,40.4123],[-122.0891,40.4122],[-122.0912,40.4105],[-122.0919,40.4111],[-122.0903,40.414],[-122.0916,40.4143],[-122.0968,40.4099],[-122.0985,40.4105],[-122.099,40.4148],[-122.104,40.4105],[-122.1107,40.4078],[-122.1113,40.4054],[-122.1179,40.4066],[-122.1213,40.4034],[-122.129,40.4038],[-122.1294,40.3988],[-122.1336,40.3976],[-122.149,40.3981],[-122.1595,40.397],[-122.1634,40.3931],[-122.1715,40.3937],[-122.1779,40.3918],[-122.1829,40.3925],[-122.1841,40.392],[-122.185,40.3888],[-122.1885,40.3875],[-122.1866,40.3847],[-122.178,40.3838],[-122.1731,40.3791],[-122.182,40.3789],[-122.1873,40.3814],[-122.1921,40.386],[-122.1936,40.3923],[-122.1988,40.381],[-122.1983,40.3759],[-122.1784,40.3587],[-122.176,40.3545],[-122.1815,40.3503],[-122.1841,40.3441],[-122.1922,40.342],[-122.1994,40.3428],[-122.2038,40.3419],[-122.2103,40.3348],[-122.2116,40.3297]]]}},{"type":"Feature","properties":{"GEOID":"0610393690","NAME":"West Tehama","COUNTY":"103"},"geometry":{"type":"Polygon","coordinates":[[[-123.0659,40.286],[-123.0627,40.2839],[-123.0607,40.2794],[-123.0612,40.2778],[-123.0578,40.2742],[-123.0544,40.2723],[-123.051,40.2678],[-123.0442,40.2642],[-123.0395,40.2633],[-123.0366,40.2613],[-123.0315,40.2648],[-123.0186,40.2628],[-123.0125,40.2601],[-123.0032,40.2531],[-122.9857,40.2488],[-122.9775,40.2413],[-122.9768,40.2389],[-122.9787,40.2346],[-122.9751,40.2326],[-122.9768,40.2236],[-122.9794,40.2205],[-122.98,40.2147],[-122.9782,40.2065],[-122.9733,40.2031],[-122.9711,40.1972],[-122.9747,40.1915],[-122.9725,40.1906],[-122.9701,40.1863],[-122.974,40.1817],[-122.9802,40.1779],[-122.9806,40.1753],[-122.9839,40.172],[-122.9849,40.1675],[-122.9842,40.1641],[-122.9864,40.1594],[-122.9845,40.1534],[-122.9896,40.1451],[-122.9686,40.139],[-122.9737,40.13],[-122.9715,40.1271],[-122.9722,40.123],[-122.9694,40.1185],[-122.9707,40.1157],[-122.9655,40.1113],[-122.9661,40.11],[-122.9611,40.1],[-122.9637,40.0957],[-122.9614,40.0898],[-122.9673,40.0887],[-122.968,40.0845],[-122.9732,40.0776],[-122.9682,40.0738],[-122.9684,40.0688],[-122.9616,40.0669],[-122.9528,40.0597],[-122.9489,40.0497],[-122.9542,40.0454],[-122.9531,40.0423],[-122.9538,40.038],[-122.951,40.0352],[-122.9498,40.031],[-122.9506,40.0271],[-122.9549,40.0231],[-122.9564,40.0199],[-122.9553,40.0159],[-122.9539,40.0145],[-122.9516,40.0151],[-122.9494,40.0121],[-122.9519,39.9988],[-122.9485,39.9959],[-122.9437,39.9953],[-122.9416,39.9924],[-122.9388,39.9913],[-122.938,39.9884],[-122.935,39.9862],[-122.9371,39.9819],[-122.9339,39.9791],[-122.9352,39.9772],[-122.9273,39.9716],[-122.9255,39.9689],[-122.9267,39.9669],[-122.9248,39.9603],[-122.9274,39.9563],[-122.9268,39.9451],[-122.924,39.9442],[-122.9166,39.9373],[-122.9132,39.9358],[-122.9098,39.9364],[-122.9126,39.9315],[-122.9206,39.9289],[-122.9215,39.9223],[-122.9205,39.9165],[-122.9283,39.9125],[-122.9494,39.9081],[-122.951,39.9061],[-122.9485,39.9023],[-122.9488,39.897],[-122.9474,39.8924],[-122.9496,39.8897],[-122.9507,39.883],[-122.9499,39.8788],[-122.9533,39.8728],[-122.9505,39.8685],[-122.9527,39.8627],[-122.9558,39.8585],[-122.9554,39.8555],[-122.954,39.8547],[-122.9575,39.8518],[-122.9576,39.8488],[-122.9601,39.8452],[-122.9574,39.8423],[-122.9564,39.8392],[-122.9514,39.8375],[-122.9464,39.8329],[-122.9475,39.8268],[-122.9462,39.8161],[-122.9442,39.8112],[-122.9441,39.8035],[-122.9436,39.8017],[-122.9406,39.7994],[-122.9345,39.7981],[-122.8442,39.8005],[-122.275,39.7993],[-122.2754,39.97],[-122.2711,39.9709],[-122.2676,39.9743],[-122.2593,39.9765],[-122.2577,39.9796],[-122.2526,39.9795],[-122.2485,39.9815],[-122.2459,39.9815],[-122.245,39.9795],[-122.2402,39.9817],[-122.2395,39.9796],[-122.2364,39.9784],[-122.2322,39.9742],[-122.2288,39.9765],[-122.2258,39.9765],[-122.225,40.044],[-122.2199,40.046],[-122.2336,40.0699],[-122.2323,40.1134],[-122.2396,40.1399],[-122.2408,40.1386],[-122.2438,40.1386],[-122.2436,40.135],[-122.2477,40.1306],[-122.2503,40.1302],[-122.2556,40.1334],[-122.2676,40.1265],[-122.2701,40.1266],[-122.2713,40.1287],[-122.2711,40.1358],[-122.2571,40.1359],[-122.2566,40.162],[-122.2574,40.1633],[-122.2655,40.1626],[-122.2754,40.1649],[-122.2851,40.1649],[-122.3082,40.1578],[-122.3393,40.1593],[-122.3489,40.1578],[-122.3517,40.1589],[-122.3565,40.1578],[-122.368,40.1584],[-122.3731,40.159],[-122.3923,40.1679],[-122.4051,40.1693],[-122.4098,40.1733],[-122.4152,40.1739],[-122.4342,40.1824],[-122.442,40.1842],[-122.4494,40.1882],[-122.4555,40.1893],[-122.4632,40.188],[-122.4662,40.1891],[-122.4744,40.1892],[-122.4781,40.1877],[-122.4928,40.1855],[-122.5049,40.1814],[-122.5195,40.1823],[-122.5288,40.1869],[-122.5216,40.1922],[-122.5196,40.1954],[-122.5164,40.1968],[-122.513,40.201],[-122.499,40.206],[-122.4941,40.209],[-122.487,40.2196],[-122.4796,40.2257],[-122.4608,40.2264],[-122.4621,40.2273],[-122.4615,40.2386],[-122.4627,40.2409],[-122.4615,40.243],[-122.4627,40.2522],[-122.4743,40.2598],[-122.4804,40.2584],[-122.4865,40.2601],[-122.4878,40.2689],[-122.4895,40.2724],[-122.4888,40.2756],[-122.4923,40.2786],[-122.4812,40.2872],[-122.4627,40.3068],[-122.4628,40.3138],[-122.4613,40.3158],[-122.4635,40.3176],[-122.4613,40.3213],[-122.4649,40.3242],[-122.4626,40.329],[-122.4633,40.3452],[-122.4546,40.3452],[-122.4538,40.3541],[-122.4445,40.3588],[-122.4085,40.3599],[-122.4063,40.3623],[-122.4061,40.3673],[-122.3742,40.3671],[-122.3715,40.3726],[-122.377,40.3731],[-122.3799,40.3719],[-122.3834,40.374],[-122.3887,40.3743],[-122.3958,40.3721],[-122.4022,40.3743],[-122.4126,40.3745],[-122.4179,40.3797],[-122.4233,40.379],[-122.4289,40.3755],[-122.4409,40.3732],[-122.445,40.3734],[-122.4529,40.3785],[-122.4626,40.3755],[-122.4654,40.3804],[-122.4695,40.3836],[-122.4783,40.3845],[-122.4827,40.3805],[-122.4898,40.3836],[-122.5001,40.3825],[-122.5021,40.3838],[-122.5026,40.3868],[-122.505,40.3894],[-122.5138,40.3884],[-122.52,40.3937],[-122.5246,40.3945],[-122.526,40.3931],[-122.5233,40.3915],[-122.522,40.3878],[-122.5257,40.3876],[-122.5309,40.3842],[-122.5308,40.3815],[-122.5322,40.3798],[-122.5409,40.3824],[-122.5421,40.3818],[-122.5417,40.3765],[-122.5506,40.3784],[-122.5507,40.3749],[-122.5552,40.3725],[-122.5563,40.3697],[-122.5588,40.3693],[-122.564,40.3656],[-122.5676,40.3672],[-122.5813,40.3673],[-122.5825,40.3657],[-122.5821,40.3628],[-122.5858,40.3593],[-122.5969,40.3572],[-122.602,40.3512],[-122.6102,40.3464],[-122.6206,40.3482],[-122.6252,40.3475],[-122.6239,40.344],[-122.6213,40.3423],[-122.6219,40.3404],[-122.6321,40.3387],[-122.6344,40.3338],[-122.6459,40.3332],[-122.6506,40.3284],[-122.657,40.3293],[-122.6634,40.3322],[-122.6695,40.33],[-122.6737,40.3304],[-122.6754,40.3323],[-122.6753,40.335],[-122.6773,40.3363],[-122.6872,40.3369],[-122.6936,40.3416],[-122.7059,40.3452],[-122.7096,40.3482],[-122.7317,40.347],[-122.732,40.3553],[-122.7302,40.3583],[-122.7394,40.3647],[-122.7488,40.3657],[-122.7524,40.3632],[-122.7525,40.3605],[-122.7556,40.3609],[-122.7587,40.3633],[-122.7718,40.3607],[-122.7746,40.3587],[-122.7812,40.3586],[-122.7881,40.3553],[-122.8059,40.3559],[-122.8128,40.3513],[-122.8217,40.3496],[-122.8286,40.35],[-122.833,40.3479],[-122.8353,40.3487],[-122.8392,40.3455],[-122.8439,40.3455],[-122.8538,40.3428],[-122.856,40.3446],[-122.8626,40.3449],[-122.8647,40.3479],[-122.8699,40.3471],[-122.8727,40.3489],[-122.8781,40.3467],[-122.8782,40.3447],[-122.8807,40.344],[-122.8802,40.342],[-122.884,40.3422],[-122.883,40.3397],[-122.8936,40.331],[-122.898,40.3243],[-122.8996,40.3245],[-122.9013,40.3231],[-122.9007,40.322],[-122.9026,40.3217],[-122.9015,40.3194],[-122.9036,40.3162],[-122.9071,40.3178],[-122.9095,40.3127],[-122.9115,40.3133],[-122.9111,40.3115],[-122.9125,40.3117],[-122.9134,40.3102],[-122.915,40.3112],[-122.9167,40.3104],[-122.919,40.3066],[-122.9223,40.3066],[-122.9233,40.3078],[-122.9253,40.3062],[-122.9296,40.3075],[-122.9298,40.3098],[-122.9342,40.3109],[-122.9344,40.3132],[-122.9394,40.3116],[-122.9422,40.3125],[-122.9438,40.3101],[-122.9463,40.3107],[-122.9469,40.3082],[-122.9498,40.308],[-122.9515,40.3102],[-122.9704,40.3104],[-122.9727,40.3133],[-122.9769,40.3151],[-122.9797,40.3129],[-122.9837,40.3134],[-122.986,40.3113],[-122.9878,40.3119],[-122.9899,40.3099],[-122.9923,40.3105],[-122.9986,40.3075],[-122.9997,40.3084],[-123.0117,40.3066],[-123.0138,40.3031],[-123.0211,40.3026],[-123.0252,40.3037],[-123.0299,40.2999],[-123.0335,40.299],[-123.0413,40.291],[-123.0473,40.2917],[-123.0512,40.2875],[-123.0567,40.2854],[-123.0654,40.287],[-123.0659,40.286]]]}},{"type":"Feature","properties":{"GEOID":"0610390580","NAME":"Corning","COUNTY":"103"},"geometry":{"type":"Polygon","coordinates":[[[-122.2755,39.8301],[-122.275,39.7993],[-122.1795,39.7974],[-122.0465,39.7976],[-122.05,39.8033],[-122.0543,39.8041],[-122.0649,39.8115],[-122.0646,39.8146],[-122.0591,39.8191],[-122.0567,39.8273],[-122.0632,39.8322],[-122.0694,39.8405],[-122.0669,39.8446],[-122.0583,39.8507],[-122.0554,39.8572],[-122.0565,39.8621],[-122.0557,39.864],[-122.0466,39.8723],[-122.041,39.8795],[-122.0411,39.8821],[-122.0449,39.8838],[-122.0541,39.8841],[-122.0573,39.8815],[-122.0584,39.8773],[-122.0619,39.8746],[-122.0655,39.8751],[-122.0668,39.8776],[-122.0664,39.8797],[-122.0627,39.888],[-122.0649,39.8941],[-122.0724,39.9007],[-122.0876,39.9062],[-122.0926,39.91],[-122.0848,39.9211],[-122.0939,39.9271],[-122.0951,39.9305],[-122.086,39.9412],[-122.0772,39.945],[-122.0765,39.9496],[-122.0794,39.9563],[-122.0892,39.9601],[-122.0922,39.9627],[-122.0939,39.9709],[-122.0933,39.9841],[-122.0954,39.9903],[-122.1126,39.9864],[-122.1167,39.9865],[-122.1187,39.9851],[-122.1227,39.9864],[-122.1326,39.9845],[-122.1385,39.9868],[-122.1424,39.9864],[-122.1479,39.9879],[-122.1549,39.9837],[-122.1623,39.9843],[-122.1774,39.9794],[-122.1794,39.9764],[-122.1871,39.9722],[-122.1908,39.9728],[-122.1903,39.9745],[-122.1922,39.9764],[-122.1949,39.9758],[-122.1977,39.977],[-122.2074,39.9749],[-122.228,39.9766],[-122.2322,39.9742],[-122.2364,39.9784],[-122.2395,39.9796],[-122.2402,39.9817],[-122.245,39.9795],[-122.2459,39.9815],[-122.2485,39.9815],[-122.2526,39.9795],[-122.2577,39.9796],[-122.2593,39.9765],[-122.2676,39.9743],[-122.2711,39.9709],[-122.2754,39.97],[-122.2747,39.8656],[-122.2755,39.8301]],[[-122.20442,39.90812],[-122.20102,39.90838],[-122.20222,39.90668],[-122.19856,39.9067],[-122.19965,39.90805],[-122.19998,39.92495],[-122.19983,39.92681],[-122.19866,39.92791],[-122.2008,39.92793],[-122.20072,39.92452],[-122.20237,39.92454],[-122.20347,39.92814],[-122.20278,39.93175],[-122.20075,39.93173],[-122.20222,39.92834],[-122.19868,39.92833],[-122.19956,39.92996],[-122.19952,39.93532],[-122.19525,39.93529],[-122.19534,39.93703],[-122.19302,39.93714],[-122.19277,39.93528],[-122.1882,39.93516],[-122.18819,39.93702],[-122.18354,39.93708],[-122.1836,39.94065],[-122.17919,39.94066],[-122.17884,39.93843],[-122.17206,39.93837],[-122.17207,39.94044],[-122.17682,39.94053],[-122.17692,39.94739],[-122.1747,39.94725],[-122.17468,39.94559],[-122.17209,39.94561],[-122.17211,39.94905],[-122.17462,39.94905],[-122.17458,39.95716],[-122.16719,39.95713],[-122.1672,39.949],[-122.16976,39.94902],[-122.16986,39.94725],[-122.16727,39.94723],[-122.16728,39.94234],[-122.16963,39.94233],[-122.16953,39.93823],[-122.16438,39.93878],[-122.16431,39.93506],[-122.16712,39.93508],[-122.16702,39.93342],[-122.16483,39.9334],[-122.16476,39.9315],[-122.16252,39.9315],[-122.16242,39.92794],[-122.16005,39.92794],[-122.16004,39.92412],[-122.16257,39.92414],[-122.16254,39.92272],[-122.1649,39.92274],[-122.1649,39.91894],[-122.16704,39.91895],[-122.16706,39.91708],[-122.17464,39.91703],[-122.17471,39.91895],[-122.17951,39.91898],[-122.17951,39.9173],[-122.18042,39.9173],[-122.18265,39.91782],[-122.18265,39.91903],[-122.19241,39.91912],[-122.19289,39.90256],[-122.20004,39.90259],[-122.19975,39.90475],[-122.19854,39.90632],[-122.20184,39.90632],[-122.2007,39.90247],[-122.20437,39.90249],[-122.20442,39.90812]]]}}]}