{"type":"FeatureCollection","features":[{"type":"Feature","geometry":{"type":"Polygon","coordinates":[[[-123.5446,40.3312],[-123.5446,39.977],[-122.934,39.9781],[-122.9346,39.9801],[-122.9371,39.9819],[-122.935,39.9862],[-122.938,39.9884],[-122.9388,39.9913],[-122.9416,39.9924],[-122.9437,39.9953],[-122.9485,39.9959],[-122.9519,39.9988],[-122.9494,40.0121],[-122.9516,40.0151],[-122.9539,40.0145],[-122.9553,40.0159],[-122.9564,40.0199],[-122.9549,40.0231],[-122.9506,40.0271],[-122.9498,40.031],[-122.951,40.0352],[-122.9538,40.038],[-122.9531,40.0423],[-122.9542,40.0448],[-122.9489,40.0497],[-122.9507,40.0525],[-122.9509,40.0559],[-122.9528,40.0597],[-122.9616,40.0669],[-122.9684,40.0688],[-122.9682,40.0738],[-122.9732,40.0772],[-122.968,40.0845],[-122.9673,40.0887],[-122.9614,40.0898],[-122.9637,40.0957],[-122.9611,40.1],[-122.9661,40.11],[-122.9655,40.1113],[-122.9707,40.1157],[-122.9694,40.1185],[-122.9722,40.123],[-122.9715,40.1271],[-122.9737,40.13],[-122.9686,40.139],[-122.9896,40.1451],[-122.9845,40.1534],[-122.9864,40.1594],[-122.9842,40.1641],[-122.9849,40.1675],[-122.9839,40.172],[-122.9806,40.1753],[-122.9802,40.1779],[-122.974,40.1817],[-122.9701,40.1863],[-122.9725,40.1906],[-122.9747,40.1915],[-122.9711,40.1972],[-122.9733,40.2031],[-122.9782,40.2065],[-122.98,40.2147],[-122.9794,40.2205],[-122.9768,40.2236],[-122.9749,40.2306],[-122.9751,40.2326],[-122.9787,40.2346],[-122.9768,40.2389],[-122.9775,40.2413],[-122.9857,40.2488],[-123.0032,40.2531],[-123.0125,40.2601],[-123.0186,40.2628],[-123.0315,40.2648],[-123.0366,40.2613],[-123.0509,40.2677],[-123.0544,40.2723],[-123.0612,40.2778],[-123.0607,40.2794],[-123.0627,40.2839],[-123.066,40.2857],[-123.0654,40.287],[-123.0689,40.2913],[-123.072,40.2916],[-123.0764,40.2951],[-123.082,40.2961],[-123.0866,40.3034],[-123.0947,40.3063],[-123.1017,40.3112],[-123.108,40.3105],[-123.1135,40.314],[-123.1191,40.3149],[-123.1228,40.3181],[-123.1271,40.3179],[-123.1297,40.3208],[-123.1351,40.3221],[-123.1355,40.332],[-123.1328,40.3354],[-123.1323,40.3386],[-123.1408,40.343],[-123.1558,40.3482],[-123.1562,40.3535],[-123.1612,40.3551],[-123.1631,40.3584],[-123.1707,40.3607],[-123.1809,40.3602],[-123.1855,40.3624],[-123.1872,40.3649],[-123.1927,40.3649],[-123.1985,40.3693],[-123.1987,40.365],[-123.2003,40.3642],[-123.2014,40.3674],[-123.2059,40.3717],[-123.2089,40.377],[-123.2081,40.3814],[-123.2065,40.3822],[-123.207,40.3837],[-123.2088,40.3826],[-123.2099,40.3855],[-123.2198,40.3908],[-123.2195,40.3928],[-123.2211,40.3937],[-123.2397,40.3881],[-123.2515,40.3898],[-123.2578,40.3929],[-123.2667,40.392],[-123.2708,40.39],[-123.277,40.3909],[-123.2846,40.3878],[-123.2891,40.3882],[-123.2977,40.3833],[-123.2999,40.381],[-123.2999,40.3784],[-123.3061,40.3732],[-123.3127,40.3722],[-123.3133,40.3702],[-123.3102,40.3685],[-123.3112,40.3667],[-123.3163,40.369],[-123.3221,40.3677],[-123.3297,40.376],[-123.3346,40.3774],[-123.3369,40.3795],[-123.3411,40.3797],[-123.3562,40.3743],[-123.3581,40.376],[-123.3636,40.374],[-123.3756,40.3803],[-123.3968,40.3836],[-123.4034,40.3863],[-123.4177,40.3956],[-123.4276,40.3935],[-123.4336,40.3943],[-123.4394,40.4028],[-123.4397,40.4065],[-123.4453,40.4118],[-123.4453,40.4235],[-123.4506,40.4369],[-123.4546,40.4422],[-123.4654,40.4644],[-123.4687,40.4755],[-123.478,40.4846],[-123.4824,40.4865],[-123.4845,40.4889],[-123.4897,40.4902],[-123.4926,40.4932],[-123.4934,40.4968],[-123.4972,40.5017],[-123.5039,40.5152],[-123.5033,40.5238],[-123.5111,40.5394],[-123.512,40.5465],[-123.5152,40.5487],[-123.5154,40.5516],[-123.5219,40.5581],[-123.5228,40.5617],[-123.5263,40.5666],[-123.5391,40.581],[-123.5445,40.5925],[-123.5446,40.3312]]]},"properties":{"GEOID":"0610591860","NAME":"Mad River","COUNTY":"105"}},{"type":"Feature","geometry":{"type":"Polygon","coordinates":[[[-123.5446,40.594],[-123.5425,40.5867],[-123.5391,40.581],[-123.5263,40.5666],[-123.5228,40.5617],[-123.5219,40.5581],[-123.5154,40.5516],[-123.5152,40.5487],[-123.5119,40.5464],[-123.5111,40.5394],[-123.5033,40.5238],[-123.5039,40.5152],[-123.4972,40.5017],[-123.4934,40.4968],[-123.4926,40.4932],[-123.4897,40.4902],[-123.4845,40.4889],[-123.4824,40.4865],[-123.478,40.4846],[-123.4687,40.4755],[-123.4654,40.4644],[-123.4546,40.4422],[-123.4506,40.4369],[-123.4453,40.4235],[-123.4453,40.4118],[-123.4397,40.4065],[-123.4394,40.4028],[-123.4336,40.3943],[-123.4276,40.3935],[-123.4177,40.3956],[-123.4034,40.3863],[-123.3968,40.3836],[-123.3756,40.3803],[-123.3636,40.374],[-123.3581,40.376],[-123.3562,40.3743],[-123.3411,40.3797],[-123.3369,40.3795],[-123.3346,40.3774],[-123.3297,40.376],[-123.3221,40.3677],[-123.3163,40.369],[-123.3112,40.3667],[-123.3102,40.3685],[-123.3133,40.3702],[-123.3127,40.3722],[-123.3061,40.3732],[-123.2999,40.3784],[-123.2999,40.381],[-123.2977,40.3833],[-123.2891,40.3882],[-123.2846,40.3878],[-123.277,40.3909],[-123.2708,40.39],[-123.2667,40.392],[-123.2578,40.3929],[-123.2515,40.3898],[-123.2397,40.3881],[-123.2211,40.3937],[-123.2195,40.3928],[-123.2198,40.3908],[-123.2099,40.3855],[-123.2088,40.3826],[-123.207,40.3837],[-123.2065,40.3822],[-123.2081,40.3814],[-123.2089,40.377],[-123.2059,40.3717],[-123.2014,40.3674],[-123.2003,40.3642],[-123.1987,40.365],[-123.1985,40.3693],[-123.1927,40.3649],[-123.1872,40.3649],[-123.1855,40.3624],[-123.1809,40.3602],[-123.1707,40.3607],[-123.1628,40.3583],[-123.1612,40.3551],[-123.1562,40.3535],[-123.1558,40.3482],[-123.1408,40.343],[-123.1323,40.3386],[-123.1328,40.3354],[-123.1355,40.332],[-123.1351,40.3221],[-123.1297,40.3208],[-123.1271,40.3179],[-123.1228,40.3181],[-123.1191,40.3149],[-123.1135,40.314],[-123.108,40.3105],[-123.1018,40.3113],[-123.0947,40.3063],[-123.0892,40.305],[-123.0862,40.3031],[-123.082,40.2961],[-123.0764,40.2951],[-123.072,40.2916],[-123.0689,40.2913],[-123.0654,40.287],[-123.0645,40.2886],[-123.0663,40.2941],[-123.065,40.2988],[-123.0684,40.3035],[-123.0688,40.3083],[-123.0673,40.3108],[-123.065,40.3106],[-123.0617,40.3134],[-123.0646,40.3199],[-123.0627,40.322],[-123.0648,40.3237],[-123.067,40.3282],[-123.0667,40.3301],[-123.0688,40.3322],[-123.0664,40.3362],[-123.064,40.3375],[-123.0637,40.3424],[-123.0658,40.344],[-123.0655,40.3451],[-123.0569,40.3492],[-123.0531,40.3467],[-123.044,40.347],[-123.0442,40.3537],[-123.041,40.3577],[-123.0393,40.3627],[-123.0371,40.3644],[-123.0311,40.3636],[-123.0269,40.3668],[-123.0223,40.3682],[-123.0183,40.3724],[-123.0195,40.3736],[-123.0172,40.3808],[-123.0183,40.3825],[-123.0164,40.3856],[-123.0127,40.3881],[-123.0063,40.3897],[-122.9966,40.3964],[-122.9998,40.4036],[-122.9979,40.4065],[-122.9978,40.4098],[-122.9982,40.4182],[-123.0004,40.4226],[-122.9982,40.4294],[-122.999,40.4319],[-123.0034,40.435],[-123.0138,40.4374],[-123.0163,40.4419],[-123.0012,40.4476],[-122.9914,40.4591],[-122.9904,40.471],[-122.9869,40.4737],[-122.9696,40.4769],[-122.9641,40.4795],[-122.9593,40.4849],[-122.9575,40.4923],[-122.9641,40.4991],[-122.9647,40.5015],[-122.9726,40.502],[-122.9691,40.5044],[-122.9702,40.5075],[-122.9691,40.5083],[-122.9685,40.5154],[-122.9742,40.5241],[-122.9735,40.5305],[-122.9747,40.5329],[-122.9737,40.5358],[-122.9753,40.5406],[-122.9844,40.5535],[-122.9891,40.558],[-122.9988,40.5621],[-122.9975,40.5697],[-122.9986,40.5724],[-123.0054,40.5844],[-123.0095,40.5867],[-123.0118,40.5902],[-123.0106,40.5928],[-123.0122,40.594],[-123.0099,40.5947],[-123.0116,40.5965],[-123.0114,40.6004],[-123.0194,40.6076],[-123.0193,40.6117],[-123.0241,40.6117],[-123.0314,40.6143],[-123.0332,40.6135],[-123.0336,40.6165],[-123.0366,40.6159],[-123.0364,40.6201],[-123.0384,40.6207],[-123.0447,40.6275],[-123.044,40.6294],[-123.0453,40.6301],[-123.0465,40.6347],[-123.0517,40.6359],[-123.0492,40.6372],[-123.0622,40.6376],[-123.0669,40.639],[-123.0736,40.6338],[-123.0809,40.6333],[-123.0798,40.6293],[-123.0837,40.6331],[-123.0883,40.6326],[-123.0919,40.6339],[-123.0898,40.6348],[-123.0959,40.6412],[-123.1061,40.6398],[-123.1145,40.643],[-123.1189,40.6412],[-123.1195,40.6398],[-123.1222,40.643],[-123.1204,40.6481],[-123.1259,40.6462],[-123.1295,40.6467],[-123.1309,40.6453],[-123.1343,40.6458],[-123.1303,40.6484],[-123.1249,40.6484],[-123.1221,40.6528],[-123.1228,40.6545],[-123.1087,40.6571],[-123.1075,40.6603],[-123.1055,40.6616],[-123.1051,40.6644],[-123.1103,40.6684],[-123.1111,40.6714],[-123.1124,40.6722],[-123.1115,40.6753],[-123.109,40.6759],[-123.1111,40.6777],[-123.1082,40.678],[-123.1058,40.6805],[-123.1069,40.6903],[-123.1117,40.6993],[-123.1115,40.7061],[-123.1139,40.7079],[-123.1208,40.7072],[-123.1228,40.71],[-123.1271,40.7123],[-123.1351,40.7123],[-123.1366,40.7102],[-123.1435,40.7062],[-123.1453,40.6981],[-123.1473,40.6958],[-123.1558,40.6943],[-123.1602,40.6918],[-123.1615,40.6883],[-123.1722,40.6816],[-123.1745,40.6788],[-123.1796,40.6765],[-123.1822,40.6768],[-123.184,40.6747],[-123.1881,40.6737],[-123.191,40.6718],[-123.1932,40.6679],[-123.1954,40.6675],[-123.2022,40.6703],[-123.2026,40.6723],[-123.2073,40.6756],[-123.2112,40.6745],[-123.2179,40.6791],[-123.2202,40.6768],[-123.2226,40.6772],[-123.2232,40.6759],[-123.2263,40.6772],[-123.2308,40.6755],[-123.2304,40.6783],[-123.2334,40.6782],[-123.2328,40.6806],[-123.235,40.6824],[-123.2336,40.6836],[-123.2363,40.6875],[-123.244,40.6873],[-123.2471,40.6897],[-123.2504,40.69],[-123.2628,40.6999],[-123.2674,40.6971],[-123.2755,40.6995],[-123.2813,40.6986],[-123.2884,40.7089],[-123.2859,40.7122],[-123.2883,40.7115],[-123.2915,40.7079],[-123.3049,40.7061],[-123.3103,40.702],[-123.3321,40.7029],[-123.3426,40.7063],[-123.3492,40.7051],[-123.3538,40.7003],[-123.3578,40.7],[-123.3615,40.7018],[-123.3724,40.6943],[-123.3734,40.6978],[-123.376,40.6996],[-123.3727,40.7028],[-123.3746,40.7059],[-123.3798,40.7089],[-123.379,40.707],[-123.3803,40.7063],[-123.3858,40.7086],[-123.3887,40.7082],[-123.3948,40.7122],[-123.3944,40.7153],[-123.3925,40.7166],[-123.3931,40.7184],[-123.3984,40.7174],[-123.3997,40.7184],[-123.3994,40.7213],[-123.4022,40.7202],[-123.4029,40.7224],[-123.4064,40.7203],[-123.4103,40.7208],[-123.4126,40.7243],[-123.4167,40.7258],[-123.4182,40.7239],[-123.4223,40.725],[-123.4237,40.7269],[-123.4264,40.7262],[-123.4269,40.7249],[-123.4313,40.7248],[-123.4371,40.7307],[-123.4374,40.7359],[-123.4341,40.7382],[-123.4457,40.7397],[-123.446,40.7411],[-123.4591,40.7404],[-123.4616,40.7425],[-123.463,40.7404],[-123.4751,40.7409],[-123.4842,40.7455],[-123.486,40.7493],[-123.4922,40.7533],[-123.4925,40.7506],[-123.4897,40.748],[-123.4893,40.7446],[-123.4931,40.7412],[-123.4972,40.7396],[-123.4951,40.7352],[-123.4971,40.7331],[-123.4999,40.7324],[-123.5002,40.73],[-123.5037,40.7255],[-123.5078,40.7227],[-123.508,40.7199],[-123.5153,40.7205],[-123.5221,40.719],[-123.5287,40.7237],[-123.5358,40.7311],[-123.5384,40.7322],[-123.5422,40.731],[-123.5443,40.733],[-123.5446,40.594]]]},"properties":{"GEOID":"0610591250","NAME":"Hayfork","COUNTY":"105"}},{"type":"Feature","geometry":{"type":"Polygon","coordinates":[[[-123.0485,40.7063],[-123.0438,40.7001],[-123.0346,40.6957],[-123.0263,40.6937],[-123.0255,40.6914],[-123.028,40.6887],[-123.0269,40.6837],[-123.0294,40.6755],[-123.0292,40.6722],[-123.0169,40.667],[-123.0155,40.6632],[-123.0084,40.6663],[-123.0114,40.6579],[-123.0181,40.6518],[-123.0204,40.6412],[-123.0182,40.6344],[-123.0214,40.6407],[-123.0237,40.6403],[-123.0273,40.6421],[-123.0341,40.6378],[-123.0367,40.6328],[-123.0319,40.6337],[-123.0336,40.6321],[-123.032,40.6299],[-123.0329,40.6276],[-123.0346,40.6269],[-123.0335,40.6244],[-123.0284,40.6226],[-123.0298,40.6179],[-123.0276,40.6168],[-123.0275,40.6148],[-123.0244,40.6118],[-123.0193,40.6117],[-123.0194,40.6076],[-123.0114,40.6004],[-123.0116,40.5965],[-123.0099,40.5947],[-123.0122,40.594],[-123.0106,40.5928],[-123.012,40.5906],[-123.0095,40.5867],[-123.0054,40.5844],[-122.9986,40.5724],[-122.9975,40.5697],[-122.9988,40.5621],[-122.9891,40.558],[-122.9844,40.5535],[-122.9753,40.5406],[-122.9737,40.5358],[-122.9747,40.5329],[-122.9735,40.5305],[-122.9742,40.5241],[-122.9685,40.5154],[-122.9691,40.5083],[-122.9702,40.5075],[-122.9691,40.5044],[-122.9726,40.502],[-122.9647,40.5015],[-122.9641,40.4991],[-122.9575,40.4923],[-122.9593,40.4849],[-122.9641,40.4795],[-122.9696,40.4769],[-122.9869,40.4737],[-122.9904,40.471],[-122.9914,40.4591],[-123.0012,40.4476],[-123.0163,40.4419],[-123.0138,40.4374],[-123.0034,40.435],[-122.999,40.4319],[-122.9982,40.4294],[-123.0004,40.4226],[-122.9982,40.4182],[-122.9906,40.4194],[-122.9822,40.4183],[-122.9749,40.4196],[-122.966,40.4228],[-122.961,40.426],[-122.9578,40.4214],[-122.9542,40.4215],[-122.9511,40.424],[-122.9386,40.4289],[-122.9369,40.431],[-122.9381,40.4334],[-122.9378,40.4369],[-122.9309,40.4417],[-122.9313,40.4456],[-122.9279,40.4471],[-122.9202,40.4483],[-122.9177,40.4498],[-122.9052,40.4453],[-122.9011,40.4456],[-122.8944,40.4547],[-122.8955,40.4595],[-122.8926,40.4606],[-122.8893,40.4657],[-122.8901,40.4688],[-122.8853,40.4709],[-122.8836,40.4748],[-122.8772,40.4785],[-122.8765,40.4804],[-122.8573,40.4823],[-122.851,40.4859],[-122.8504,40.488],[-122.847,40.4908],[-122.8464,40.4935],[-122.8481,40.4974],[-122.8521,40.501],[-122.846,40.5052],[-122.8401,40.5067],[-122.8288,40.507],[-122.8195,40.511],[-122.8041,40.5105],[-122.7933,40.5145],[-122.7936,40.5234],[-122.789,40.5276],[-122.785,40.5287],[-122.7822,40.5319],[-122.7827,40.5346],[-122.7857,40.5365],[-122.7852,40.5409],[-122.7792,40.5465],[-122.7679,40.5533],[-122.7675,40.5552],[-122.7593,40.5565],[-122.757,40.5551],[-122.7496,40.5554],[-122.7439,40.5538],[-122.7413,40.5602],[-122.7413,40.5641],[-122.7327,40.5711],[-122.7231,40.5752],[-122.7199,40.5746],[-122.7163,40.5714],[-122.7111,40.5716],[-122.7079,40.5697],[-122.6988,40.5693],[-122.6953,40.5725],[-122.693,40.5755],[-122.6929,40.5805],[-122.7001,40.5857],[-122.701,40.5877],[-122.6998,40.59],[-122.7021,40.5933],[-122.7012,40.5958],[-122.7054,40.6002],[-122.7051,40.6042],[-122.7069,40.6055],[-122.7061,40.6102],[-122.7109,40.6132],[-122.7112,40.6244],[-122.7096,40.627],[-122.7097,40.6312],[-122.7162,40.6343],[-122.7324,40.6344],[-122.7362,40.6363],[-122.7333,40.6435],[-122.7292,40.6466],[-122.727,40.6505],[-122.7338,40.657],[-122.7336,40.6624],[-122.7412,40.6654],[-122.7407,40.6673],[-122.743,40.6727],[-122.7426,40.6788],[-122.7514,40.6851],[-122.7523,40.6896],[-122.7439,40.695],[-122.7417,40.6953],[-122.738,40.6928],[-122.73,40.6922],[-122.7224,40.6955],[-122.722,40.6997],[-122.7195,40.7021],[-122.7188,40.7078],[-122.7114,40.7107],[-122.7115,40.7149],[-122.7066,40.7253],[-122.7199,40.7394],[-122.7172,40.7447],[-122.7174,40.7472],[-122.7063,40.7496],[-122.7003,40.7554],[-122.7018,40.758],[-122.7005,40.7589],[-122.6928,40.7607],[-122.6882,40.7644],[-122.6705,40.7728],[-122.6656,40.7821],[-122.6581,40.7875],[-122.6617,40.7943],[-122.6614,40.8005],[-122.6575,40.8019],[-122.6552,40.8082],[-122.6612,40.8176],[-122.6617,40.8203],[-122.6654,40.8234],[-122.6661,40.8259],[-122.6572,40.8354],[-122.6554,40.8415],[-122.6397,40.845],[-122.6389,40.8534],[-122.6376,40.8558],[-122.6347,40.8571],[-122.6344,40.8613],[-122.6264,40.8671],[-122.6254,40.8792],[-122.6187,40.8798],[-122.6099,40.8846],[-122.6055,40.8906],[-122.6049,40.8972],[-122.6,40.9003],[-122.6037,40.9089],[-122.6097,40.9139],[-122.6098,40.9177],[-122.6128,40.9212],[-122.6074,40.9297],[-122.6071,40.9382],[-122.6032,40.9406],[-122.605,40.9441],[-122.6039,40.9457],[-122.6073,40.9546],[-122.6074,40.9577],[-122.6031,40.9594],[-122.601,40.9645],[-122.6017,40.9711],[-122.5985,40.9758],[-122.5944,40.9781],[-122.5914,40.9767],[-122.5896,40.9796],[-122.5892,40.9854],[-122.5808,40.9829],[-122.5692,40.985],[-122.5639,40.9886],[-122.563,40.9937],[-122.561,40.9966],[-122.5554,40.9995],[-122.5545,41.0036],[-122.5453,41.0051],[-122.5379,41.0024],[-122.5351,41.006],[-122.5351,41.0081],[-122.5304,41.0106],[-122.5278,41.0144],[-122.5287,41.0176],[-122.5271,41.0211],[-122.5283,41.0244],[-122.5289,41.0365],[-122.5268,41.0417],[-122.5273,41.0457],[-122.5224,41.0523],[-122.5232,41.0592],[-122.5276,41.0642],[-122.5379,41.065],[-122.5398,41.0726],[-122.5359,41.0759],[-122.5288,41.0768],[-122.5212,41.0831],[-122.5164,41.0849],[-122.5134,41.0882],[-122.5062,41.086],[-122.5,41.0876],[-122.4933,41.086],[-122.4806,41.0916],[-122.4766,41.092],[-122.4737,41.0946],[-122.4681,41.0968],[-122.4623,41.0977],[-122.4591,41.0962],[-122.4571,41.0966],[-122.4554,41.1032],[-122.4519,41.1082],[-122.4535,41.1135],[-122.4486,41.1182],[-122.4483,41.1307],[-122.446,41.1333],[-122.4481,41.1359],[-122.4506,41.1469],[-122.4455,41.1579],[-122.446,41.1592],[-122.4499,41.1592],[-122.454,41.1663],[-122.4574,41.1683],[-122.463,41.1672],[-122.4683,41.1692],[-122.4759,41.1765],[-122.4861,41.1771],[-122.491,41.1756],[-122.4977,41.1786],[-122.4988,41.1796],[-122.4989,41.1847],[-122.495,41.1924],[-122.4974,41.1956],[-122.5052,41.1991],[-122.5095,41.2031],[-122.5155,41.205],[-122.5226,41.2135],[-122.5195,41.219],[-122.5123,41.2265],[-122.5151,41.2326],[-122.5181,41.2359],[-122.5175,41.2398],[-122.5082,41.2453],[-122.5092,41.2491],[-122.5139,41.2552],[-122.5131,41.2631],[-122.5139,41.2668],[-122.5115,41.2698],[-122.513,41.2732],[-122.5124,41.2782],[-122.514,41.2802],[-122.5133,41.2837],[-122.5102,41.2887],[-122.5023,41.2899],[-122.4992,41.292],[-122.4983,41.2957],[-122.5019,41.3091],[-122.4788,41.3201],[-122.4833,41.3237],[-122.4908,41.3255],[-122.4956,41.33],[-122.5025,41.3329],[-122.5047,41.337],[-122.5039,41.343],[-122.5199,41.3438],[-122.5292,41.3414],[-122.5358,41.3415],[-122.541,41.3459],[-122.5406,41.3484],[-122.5427,41.3501],[-122.5404,41.3532],[-122.5517,41.3617],[-122.561,41.366],[-122.5657,41.3655],[-122.5696,41.3679],[-122.5727,41.368],[-122.5729,41.3657],[-122.58,41.3628],[-122.5858,41.3576],[-122.587,41.3497],[-122.5842,41.344],[-122.5811,41.3414],[-122.581,41.3377],[-122.5871,41.3333],[-122.5891,41.3268],[-122.5949,41.3251],[-122.5988,41.3258],[-122.5989,41.3245],[-122.6052,41.3292],[-122.6179,41.3275],[-122.6239,41.3295],[-122.6275,41.332],[-122.6323,41.3314],[-122.6421,41.3266],[-122.6477,41.3223],[-122.6482,41.3202],[-122.6456,41.3141],[-122.6456,41.3047],[-122.6515,41.2996],[-122.6533,41.2934],[-122.6529,41.2897],[-122.6583,41.2919],[-122.6635,41.2916],[-122.6773,41.285],[-122.6775,41.28],[-122.6791,41.279],[-122.6822,41.278],[-122.6874,41.2813],[-122.7003,41.2761],[-122.712,41.2748],[-122.716,41.2714],[-122.717,41.2687],[-122.7204,41.2669],[-122.7246,41.2611],[-122.7245,41.2563],[-122.7261,41.2529],[-122.7246,41.2496],[-122.7253,41.2475],[-122.7326,41.2438],[-122.74,41.2443],[-122.7465,41.2409],[-122.7536,41.2419],[-122.7583,41.2408],[-122.7637,41.2381],[-122.765,41.2352],[-122.777,41.2308],[-122.7781,41.2244],[-122.7812,41.2182],[-122.7867,41.217],[-122.7883,41.2126],[-122.7956,41.2114],[-122.7976,41.2098],[-122.7987,41.2054],[-122.8021,41.203],[-122.8113,41.2025],[-122.8168,41.2076],[-122.8252,41.21],[-122.8367,41.2067],[-122.8439,41.2002],[-122.8525,41.2007],[-122.8554,41.2021],[-122.8599,41.2015],[-122.8625,41.202],[-122.8636,41.2036],[-122.8707,41.2051],[-122.8808,41.2035],[-122.8859,41.2051],[-122.8887,41.2033],[-122.8945,41.2027],[-122.9011,41.1981],[-122.9069,41.1959],[-122.9088,41.1915],[-122.9121,41.1906],[-122.9154,41.1872],[-122.9248,41.1867],[-122.9292,41.1787],[-122.9356,41.1773],[-122.9384,41.1781],[-122.9513,41.1856],[-122.9564,41.1824],[-122.9613,41.1815],[-122.9626,41.1779],[-122.9609,41.1739],[-122.9547,41.1674],[-122.9573,41.1612],[-122.9547,41.1587],[-122.9547,41.1552],[-122.9517,41.1503],[-122.9529,41.147],[-122.9581,41.1457],[-122.9616,41.1401],[-122.9653,41.1383],[-122.9632,41.135],[-122.9599,41.124],[-122.9676,41.1179],[-122.969,41.115],[-122.9734,41.1121],[-122.9742,41.1096],[-122.9741,41.1058],[-122.9691,41.1034],[-122.97,41.1013],[-122.9688,41.0996],[-122.9692,41.0963],[-122.971,41.0902],[-122.9661,41.0809],[-122.9549,41.0763],[-122.9532,41.0743],[-122.9474,41.073],[-122.9421,41.0701],[-122.9233,41.072],[-122.922,41.0659],[-122.9164,41.0583],[-122.9166,41.0547],[-122.9134,41.0523],[-122.9111,41.0467],[-122.9094,41.0455],[-122.9092,41.0412],[-122.9063,41.0365],[-122.8982,41.0306],[-122.8974,41.0285],[-122.9024,41.0238],[-122.9007,41.02],[-122.9023,41.0175],[-122.9015,41.0146],[-122.903,41.0116],[-122.9059,41.0091],[-122.9129,41.0086],[-122.9145,41.0069],[-122.9153,41.0025],[-122.9139,40.999],[-122.9175,40.994],[-122.9247,40.9957],[-122.935,40.9924],[-122.9417,40.9926],[-122.9455,40.9952],[-122.952,41.0064],[-122.9548,41.0066],[-122.9596,41.0102],[-122.9646,41.012],[-122.9689,41.0116],[-122.9801,41.0143],[-122.9897,41.0124],[-122.9972,41.0133],[-123.0037,41.0125],[-123.0072,41.0085],[-123.0121,41.0068],[-123.0245,41.0041],[-123.0296,41.0053],[-123.0371,41.0042],[-123.0388,40.9994],[-123.0372,40.9964],[-123.0306,40.9906],[-123.0225,40.9883],[-123.0133,40.9892],[-123.0004,40.9848],[-123.0018,40.9768],[-123.0073,40.9669],[-123.0055,40.9632],[-123.0031,40.962],[-122.9953,40.9613],[-122.9906,40.9551],[-122.9917,40.9514],[-122.9952,40.9473],[-122.9996,40.9462],[-123.0009,40.9442],[-123.002,40.9401],[-122.9993,40.9325],[-123.0016,40.9276],[-122.9953,40.9183],[-122.9876,40.9156],[-122.9856,40.9091],[-122.9871,40.9048],[-122.9901,40.9026],[-122.9955,40.8903],[-122.99,40.8796],[-122.9891,40.875],[-122.9741,40.8626],[-122.9692,40.8511],[-122.9687,40.8442],[-122.9694,40.8425],[-122.9766,40.8392],[-122.9786,40.8365],[-122.9785,40.8318],[-122.9804,40.8289],[-122.9942,40.8165],[-122.9954,40.8123],[-122.999,40.8092],[-122.9997,40.8034],[-123.0049,40.7961],[-123,40.7876],[-122.9992,40.7838],[-122.9914,40.776],[-122.9905,40.7736],[-122.9917,40.7723],[-122.9868,40.7655],[-122.9881,40.7629],[-122.9865,40.7597],[-122.9863,40.7551],[-122.985,40.7548],[-122.9847,40.7533],[-122.9862,40.7519],[-122.9837,40.7503],[-122.9877,40.7445],[-122.9815,40.7404],[-122.983,40.7395],[-122.9822,40.7378],[-122.9836,40.7347],[-122.9855,40.7336],[-122.9869,40.7281],[-122.9864,40.7258],[-122.9879,40.7251],[-122.9868,40.7228],[-122.9882,40.721],[-122.9962,40.7188],[-122.9963,40.7148],[-122.9984,40.7134],[-123.0029,40.7135],[-123.0044,40.7105],[-123.0087,40.711],[-123.0169,40.7149],[-123.0155,40.7098],[-123.0131,40.7078],[-123.013,40.7048],[-123.027,40.7084],[-123.0363,40.7066],[-123.0462,40.7093],[-123.0477,40.7093],[-123.0485,40.7063]]]},"properties":{"GEOID":"0610593595","NAME":"Weaverville","COUNTY":"105"}},{"type":"Feature","geometry":{"type":"Polygon","coordinates":[[[-123.6238,40.9294],[-123.6212,40.9255],[-123.6168,40.9243],[-123.6134,40.9216],[-123.6133,40.9179],[-123.6158,40.9141],[-123.6111,40.908],[-123.6061,40.9048],[-123.6047,40.9004],[-123.6085,40.8949],[-123.5995,40.8878],[-123.5972,40.8841],[-123.6017,40.88],[-123.6102,40.879],[-123.598,40.8776],[-123.5911,40.8673],[-123.585,40.8697],[-123.5806,40.868],[-123.5805,40.8658],[-123.5832,40.8641],[-123.5844,40.8611],[-123.5872,40.8601],[-123.5875,40.8585],[-123.5758,40.858],[-123.5743,40.8555],[-123.5766,40.8534],[-123.5741,40.8502],[-123.5746,40.8471],[-123.5732,40.8435],[-123.5647,40.8424],[-123.5631,40.8404],[-123.5658,40.8377],[-123.5662,40.835],[-123.5618,40.8332],[-123.5596,40.8303],[-123.5652,40.8254],[-123.5656,40.823],[-123.5687,40.8197],[-123.5629,40.8127],[-123.5625,40.8097],[-123.5584,40.8101],[-123.5562,40.8088],[-123.5562,40.8005],[-123.5541,40.7963],[-123.5578,40.7937],[-123.5658,40.7962],[-123.5647,40.7923],[-123.5662,40.7883],[-123.5648,40.7877],[-123.56,40.7903],[-123.5576,40.7873],[-123.5593,40.7841],[-123.5583,40.7811],[-123.5499,40.7758],[-123.5496,40.7731],[-123.5539,40.7696],[-123.5545,40.7667],[-123.5502,40.7655],[-123.5502,40.7628],[-123.5542,40.7598],[-123.5509,40.7561],[-123.5507,40.7538],[-123.5527,40.7522],[-123.5502,40.7511],[-123.5518,40.7481],[-123.5484,40.7469],[-123.5459,40.7425],[-123.546,40.74],[-123.5437,40.739],[-123.5446,40.7356],[-123.5431,40.734],[-123.5437,40.7323],[-123.5422,40.731],[-123.5384,40.7322],[-123.5358,40.7311],[-123.5221,40.719],[-123.5153,40.7205],[-123.5076,40.7203],[-123.5078,40.7227],[-123.5037,40.7255],[-123.5002,40.73],[-123.4999,40.7324],[-123.4971,40.7331],[-123.4951,40.7352],[-123.4972,40.7396],[-123.4931,40.7412],[-123.4893,40.7446],[-123.4897,40.748],[-123.4925,40.7506],[-123.4918,40.7534],[-123.4846,40.7479],[-123.4842,40.7455],[-123.4751,40.7409],[-123.463,40.7404],[-123.4616,40.7425],[-123.4591,40.7404],[-123.446,40.7411],[-123.4457,40.7397],[-123.4341,40.7382],[-123.4374,40.7359],[-123.4371,40.7307],[-123.4313,40.7248],[-123.4269,40.7249],[-123.4264,40.7262],[-123.4237,40.7269],[-123.4223,40.725],[-123.4182,40.7239],[-123.4167,40.7258],[-123.4126,40.7243],[-123.4103,40.7208],[-123.4064,40.7203],[-123.4029,40.7224],[-123.4022,40.7202],[-123.3994,40.7213],[-123.3997,40.7184],[-123.3984,40.7174],[-123.3931,40.7184],[-123.3925,40.7166],[-123.3944,40.7153],[-123.3948,40.7122],[-123.3887,40.7082],[-123.3858,40.7086],[-123.3803,40.7063],[-123.379,40.707],[-123.3798,40.7089],[-123.3746,40.7059],[-123.3727,40.7028],[-123.376,40.6996],[-123.3734,40.6978],[-123.3724,40.6943],[-123.3615,40.7018],[-123.3578,40.7],[-123.3538,40.7003],[-123.3492,40.7051],[-123.3426,40.7063],[-123.3321,40.7029],[-123.3103,40.702],[-123.3049,40.7061],[-123.2915,40.7079],[-123.2883,40.7115],[-123.2859,40.7122],[-123.2884,40.7089],[-123.2813,40.6986],[-123.2755,40.6995],[-123.2674,40.6971],[-123.2628,40.6999],[-123.2504,40.69],[-123.2471,40.6897],[-123.244,40.6873],[-123.2363,40.6875],[-123.2336,40.6836],[-123.235,40.6824],[-123.2328,40.6806],[-123.2334,40.6782],[-123.2304,40.6783],[-123.2308,40.6755],[-123.2263,40.6772],[-123.2232,40.6759],[-123.2226,40.6772],[-123.2202,40.6768],[-123.2179,40.6791],[-123.2112,40.6745],[-123.2073,40.6756],[-123.2026,40.6723],[-123.2022,40.6703],[-123.1944,40.6674],[-123.1881,40.6737],[-123.1742,40.6791],[-123.1722,40.6816],[-123.1615,40.6883],[-123.1602,40.6918],[-123.1558,40.6943],[-123.1473,40.6958],[-123.1453,40.6981],[-123.1435,40.7062],[-123.1366,40.7102],[-123.1351,40.7123],[-123.126,40.7121],[-123.1208,40.7072],[-123.1139,40.7079],[-123.1115,40.7061],[-123.1117,40.6993],[-123.1069,40.6903],[-123.1058,40.6805],[-123.1082,40.678],[-123.1111,40.6777],[-123.109,40.6759],[-123.1115,40.6753],[-123.1124,40.6722],[-123.1111,40.6714],[-123.1103,40.6684],[-123.1051,40.6644],[-123.1055,40.6616],[-123.1075,40.6603],[-123.1087,40.6571],[-123.1228,40.6545],[-123.1221,40.6528],[-123.1249,40.6484],[-123.1303,40.6484],[-123.1343,40.6458],[-123.1309,40.6453],[-123.1295,40.6467],[-123.1259,40.6462],[-123.1204,40.6481],[-123.1222,40.643],[-123.1195,40.6398],[-123.1189,40.6412],[-123.1145,40.643],[-123.1061,40.6398],[-123.0959,40.6412],[-123.0898,40.6348],[-123.0919,40.6339],[-123.0883,40.6326],[-123.0837,40.6331],[-123.0798,40.6293],[-123.0809,40.6333],[-123.0736,40.6338],[-123.0669,40.639],[-123.0622,40.6376],[-123.0492,40.6372],[-123.0517,40.6359],[-123.0465,40.6347],[-123.0453,40.6301],[-123.044,40.6294],[-123.0447,40.6275],[-123.0384,40.6207],[-123.0364,40.6201],[-123.0366,40.6159],[-123.0336,40.6165],[-123.0332,40.6135],[-123.0314,40.6143],[-123.027,40.6136],[-123.0244,40.6118],[-123.0275,40.6148],[-123.0276,40.6168],[-123.0298,40.6179],[-123.0285,40.6227],[-123.0334,40.6243],[-123.0346,40.6269],[-123.0329,40.6276],[-123.032,40.6299],[-123.0336,40.6321],[-123.0319,40.6337],[-123.0365,40.6324],[-123.0366,40.6339],[-123.0329,40.639],[-123.027,40.6421],[-123.0237,40.6403],[-123.0214,40.6407],[-123.0182,40.6344],[-123.0204,40.6412],[-123.0181,40.6518],[-123.0114,40.6579],[-123.0084,40.6663],[-123.0155,40.6632],[-123.0169,40.667],[-123.0292,40.6722],[-123.0294,40.6755],[-123.0269,40.6837],[-123.028,40.6887],[-123.0255,40.6914],[-123.0263,40.6937],[-123.0346,40.6957],[-123.0438,40.7001],[-123.0481,40.7046],[-123.0483,40.7077],[-123.0477,40.7093],[-123.0464,40.7093],[-123.0363,40.7066],[-123.027,40.7084],[-123.013,40.7048],[-123.0131,40.7078],[-123.0155,40.7098],[-123.0169,40.7149],[-123.0087,40.711],[-123.0044,40.7105],[-123.0029,40.7135],[-122.9984,40.7134],[-122.9963,40.7148],[-122.9962,40.7188],[-122.9882,40.721],[-122.9868,40.7228],[-122.9879,40.7251],[-122.9864,40.7258],[-122.9869,40.7281],[-122.9855,40.7336],[-122.9836,40.7347],[-122.9822,40.7378],[-122.983,40.7395],[-122.9815,40.7404],[-122.9877,40.7445],[-122.9837,40.7503],[-122.9862,40.7519],[-122.9847,40.7533],[-122.985,40.7548],[-122.9863,40.7551],[-122.9865,40.7597],[-122.9881,40.7629],[-122.9868,40.7655],[-122.9917,40.7723],[-122.9905,40.7736],[-122.9914,40.776],[-122.9992,40.7838],[-123,40.7876],[-123.0049,40.7961],[-122.9997,40.8034],[-122.999,40.8092],[-122.9954,40.8123],[-122.9942,40.8165],[-122.9804,40.8289],[-122.9785,40.8318],[-122.9786,40.8365],[-122.9766,40.8392],[-122.9694,40.8425],[-122.9692,40.8511],[-122.9741,40.8626],[-122.9891,40.875],[-122.99,40.8796],[-122.9955,40.8903],[-122.9901,40.9026],[-122.9871,40.9048],[-122.9856,40.9091],[-122.9876,40.9156],[-122.9953,40.9183],[-123.0016,40.9276],[-122.9993,40.9325],[-123.002,40.9401],[-123.0009,40.9442],[-122.9996,40.9462],[-122.9952,40.9473],[-122.9917,40.9514],[-122.9906,40.9551],[-122.9953,40.9613],[-123.0031,40.962],[-123.0055,40.9632],[-123.0073,40.9669],[-123.0018,40.9768],[-123.0004,40.9848],[-123.0133,40.9892],[-123.0265,40.9888],[-123.0306,40.9906],[-123.0372,40.9964],[-123.0388,40.9994],[-123.0371,41.0042],[-123.044,41.0142],[-123.0434,41.0193],[-123.0476,41.0247],[-123.046,41.0335],[-123.0487,41.0358],[-123.0497,41.0394],[-123.054,41.0429],[-123.0552,41.0467],[-123.06,41.0474],[-123.0643,41.052],[-123.076,41.0548],[-123.0801,41.0576],[-123.0843,41.0574],[-123.09,41.0595],[-123.0963,41.0594],[-123.0983,41.063],[-123.1059,41.0658],[-123.1067,41.0696],[-123.1096,41.0726],[-123.1091,41.0754],[-123.1261,41.0773],[-123.1285,41.0765],[-123.1329,41.0786],[-123.1413,41.0792],[-123.1487,41.0784],[-123.1556,41.0747],[-123.1652,41.0781],[-123.1789,41.0756],[-123.1883,41.0776],[-123.1931,41.0774],[-123.2032,41.0718],[-123.2089,41.0747],[-123.2173,41.073],[-123.2221,41.0737],[-123.2252,41.0761],[-123.2311,41.0751],[-123.2395,41.0758],[-123.2416,41.0775],[-123.2452,41.078],[-123.2494,41.0872],[-123.2584,41.0936],[-123.2618,41.1012],[-123.2614,41.1058],[-123.2631,41.1086],[-123.2718,41.1156],[-123.2736,41.119],[-123.2734,41.1229],[-123.2839,41.1235],[-123.2848,41.1285],[-123.2943,41.1379],[-123.2951,41.1407],[-123.3035,41.1438],[-123.3105,41.1432],[-123.3154,41.1403],[-123.325,41.1415],[-123.3296,41.1517],[-123.3336,41.1547],[-123.3415,41.1558],[-123.3532,41.1631],[-123.3622,41.1616],[-123.3635,41.1597],[-123.3705,41.1563],[-123.373,41.1519],[-123.3812,41.1513],[-123.3841,41.1577],[-123.3927,41.1612],[-123.3941,41.1655],[-123.393,41.1678],[-123.3935,41.1707],[-123.3979,41.1741],[-123.404,41.1745],[-123.4077,41.1801],[-123.4102,41.1755],[-123.4104,41.1707],[-123.4153,41.1682],[-123.4169,41.1655],[-123.4217,41.1665],[-123.4326,41.1623],[-123.4326,41.1587],[-123.4288,41.1521],[-123.4315,41.1477],[-123.4294,41.1448],[-123.4304,41.1355],[-123.4287,41.1249],[-123.4293,41.118],[-123.4343,41.1117],[-123.4371,41.1041],[-123.4358,41.1024],[-123.4412,41.0948],[-123.4398,41.0925],[-123.4436,41.0896],[-123.4495,41.0891],[-123.4565,41.0905],[-123.4601,41.0936],[-123.4642,41.0944],[-123.4645,41.0925],[-123.4583,41.0838],[-123.464,41.0763],[-123.4596,41.0737],[-123.4606,41.0727],[-123.4579,41.0682],[-123.4525,41.0685],[-123.4456,41.0617],[-123.4367,41.0617],[-123.4352,41.0606],[-123.4307,41.0633],[-123.4233,41.0582],[-123.4247,41.0528],[-123.4229,41.0504],[-123.4238,41.0432],[-123.4201,41.0383],[-123.42,41.0351],[-123.4071,41.0297],[-123.4103,41.0207],[-123.406,41.0129],[-123.4099,41.0107],[-123.4201,41.0097],[-123.4258,41.0035],[-123.4256,41.0015],[-123.4278,41.0007],[-123.4265,40.9961],[-123.428,40.9909],[-123.4273,40.9883],[-123.4309,40.9837],[-123.4349,40.9826],[-123.4366,40.9737],[-123.447,40.9668],[-123.4533,40.9642],[-123.453,40.9601],[-123.4467,40.9581],[-123.4449,40.9562],[-123.4453,40.9484],[-123.448,40.9438],[-123.4537,40.9414],[-123.455,40.9426],[-123.4587,40.942],[-123.4644,40.9377],[-123.4677,40.9382],[-123.4701,40.9346],[-123.4749,40.9317],[-123.478,40.9281],[-123.4818,40.9149],[-123.49,40.9168],[-123.4967,40.9162],[-123.5118,40.9204],[-123.5149,40.9248],[-123.5178,40.9257],[-123.5232,40.9309],[-123.5276,40.9321],[-123.5297,40.9349],[-123.5339,40.9308],[-123.541,40.9323],[-123.5423,40.9331],[-123.5399,40.9379],[-123.5412,40.9397],[-123.5548,40.9457],[-123.5556,40.9487],[-123.5602,40.9503],[-123.5684,40.9483],[-123.57,40.9466],[-123.5677,40.9366],[-123.5717,40.9371],[-123.5816,40.9332],[-123.5879,40.9278],[-123.5916,40.9274],[-123.5942,40.9297],[-123.5993,40.9312],[-123.6043,40.9295],[-123.6114,40.9293],[-123.6224,40.9317],[-123.6238,40.9294]]]},"properties":{"GEOID":"0610592202","NAME":"Northwest Trinity","COUNTY":"105"}}]}