{"type":"FeatureCollection","features":[{"type":"Feature","geometry":{"type":"MultiPolygon","coordinates":[[[[-119.1615,36.0224],[-119.1075,36.0223],[-119.1074,35.9777],[-119.0999,35.9786],[-119.0904,35.9765],[-119.083,35.9822],[-119.0787,35.9838],[-119.0691,35.979],[-119.0605,35.982],[-119.0526,35.9802],[-119.0486,35.9821],[-119.0426,35.982],[-119.0281,35.9902],[-119.0142,35.9933],[-119.0038,35.9907],[-118.994,35.9931],[-118.9832,35.9916],[-118.9822,36.0078],[-118.962,36.0077],[-118.9563,36.0091],[-118.9462,36.006],[-118.9439,36.0002],[-118.9382,35.9968],[-118.9289,35.9859],[-118.9169,35.9849],[-118.9127,35.9863],[-118.9109,35.9889],[-118.9107,36.0256],[-118.899,36.0283],[-118.8929,36.0277],[-118.8858,36.0316],[-118.8777,36.03],[-118.8719,36.0307],[-118.8696,36.0332],[-118.8674,36.0336],[-118.8675,36.0325],[-118.8633,36.0318],[-118.858,36.0322],[-118.8583,36.0429],[-118.857,36.0453],[-118.8587,36.0506],[-118.8661,36.0583],[-118.8678,36.0655],[-118.8768,36.0659],[-118.8764,36.0728],[-118.8805,36.0729],[-118.8802,36.076],[-118.8787,36.0775],[-118.8795,36.0799],[-118.8989,36.0801],[-118.891,36.088],[-118.8804,36.0927],[-118.8763,36.0965],[-118.8711,36.099],[-118.8679,36.0991],[-118.8586,36.0957],[-118.8577,36.0937],[-118.8485,36.0937],[-118.8458,36.0953],[-118.8368,36.0937],[-118.8374,36.1006],[-118.859,36.1026],[-118.8594,36.1064],[-118.8623,36.1083],[-118.8853,36.109],[-118.8922,36.1136],[-118.8971,36.1153],[-118.9048,36.1144],[-118.92,36.1095],[-118.9526,36.1094],[-118.9555,36.1123],[-118.9556,36.1416],[-118.957,36.1441],[-119.0002,36.1455],[-118.9999,36.1115],[-119.004,36.107],[-119.0086,36.1043],[-119.0088,36.0965],[-119.02674061443096,36.09642823754228],[-119.02674,36.09635],[-119.02686025516572,36.09642775897934],[-119.03122,36.09641032],[-119.03122,36.09637],[-119.02605,36.09614],[-119.02599,36.09279],[-119.02666,36.09278],[-119.02549,36.09206],[-119.02599,36.09183],[-119.02541,36.09097],[-119.02216,36.09031],[-119.02215,36.08928],[-119.01968,36.08983],[-119.01895,36.08891],[-119.01772,36.08891],[-119.01773,36.09005],[-119.01506,36.09006],[-119.01507,36.09102],[-119.01774,36.091],[-119.0178,36.0964],[-119.01331,36.09645],[-119.01325,36.09102],[-119.0087,36.09104],[-119.00869,36.08743],[-119.01098,36.08742],[-119.01094,36.08378],[-119.00868,36.08379],[-119.00868,36.08518],[-119.00765,36.08562],[-119.00423,36.08564],[-119.00422,36.08383],[-118.99064,36.08384],[-118.99065,36.08021],[-118.97743,36.08026],[-118.97736,36.07614],[-118.98049,36.07618],[-118.98045,36.07368],[-118.96841,36.0732],[-118.96838,36.07136],[-118.96615,36.07138],[-118.96612,36.06956],[-118.96835,36.06955],[-118.9683,36.06597],[-118.98839,36.06581],[-118.98842,36.06939],[-118.9929,36.0694],[-118.99293,36.06571],[-118.99376,36.0657],[-118.99375,36.06682],[-118.99522,36.06682],[-118.99543,36.0657],[-118.99735,36.06568],[-118.99734,36.06441],[-118.99505,36.06444],[-118.99503,36.06335],[-118.99815,36.06326],[-118.99842,36.06236],[-119.0014,36.06283],[-118.99953,36.06116],[-119.00378,36.06054],[-119.00374,36.05786],[-119.00417,36.05846],[-119.00759,36.05842],[-119.00686,36.05698],[-119.00773,36.05697],[-119.00798,36.05373],[-119.00311,36.05402],[-119.00031,36.0514],[-119.0029,36.05487],[-118.99255,36.05488],[-118.99188,36.05434],[-118.99184,36.05146],[-118.99268,36.05146],[-118.9927,36.05235],[-118.99604,36.05233],[-118.99604,36.05152],[-118.9942,36.05134],[-118.97275,36.05146],[-118.97277,36.0533],[-118.97484,36.0533],[-118.97277,36.0541],[-118.97277,36.05497],[-118.96739,36.05395],[-118.96739,36.05254],[-118.96874,36.05254],[-118.96874,36.05141],[-118.97045,36.05193],[-118.97127,36.05142],[-118.97055,36.05098],[-118.97074,36.04384],[-118.97756,36.04391],[-118.97765,36.0332],[-118.9909,36.03318],[-118.99095,36.04037],[-118.98646,36.04038],[-118.98633,36.04398],[-118.99012,36.04402],[-118.99027,36.05096],[-118.99957,36.05079],[-118.99647,36.04818],[-119.00164,36.04816],[-119.00217,36.04818],[-119.00215,36.051],[-119.00814,36.05092],[-119.00843,36.04266],[-119.01012,36.04266],[-119.01016,36.04042],[-119.02417,36.04035],[-119.02419,36.03673],[-119.02638,36.03671],[-119.02865,36.03671],[-119.02863,36.04036],[-119.03926,36.04039],[-119.03929,36.02215],[-119.05116,36.02217],[-119.05117,36.01862],[-119.0534,36.01863],[-119.05338,36.02106],[-119.05493,36.02225],[-119.07556,36.02228],[-119.07552,36.02591],[-119.0846,36.02589],[-119.08456,36.02943],[-119.0799,36.02941],[-119.07993,36.044],[-119.07096,36.04408],[-119.07084,36.03842],[-119.06886,36.0368],[-119.06274,36.03679],[-119.06273,36.0387],[-119.05325,36.03862],[-119.05329,36.03676],[-119.06207,36.03679],[-119.0621,36.03316],[-119.05332,36.03315],[-119.05333,36.03133],[-119.05111,36.03132],[-119.05111,36.03042],[-119.05333,36.03042],[-119.05333,36.02941],[-119.04889,36.02944],[-119.0489,36.02588],[-119.05336,36.02588],[-119.05337,36.02232],[-119.04009,36.02243],[-119.04006,36.0295],[-119.04439,36.0295],[-119.04436,36.03674],[-119.0443,36.0404],[-119.0398,36.04039],[-119.03964,36.04956],[-119.04169,36.0513],[-119.04403,36.04992],[-119.04403,36.05174],[-119.04149,36.05195],[-119.03975,36.05342],[-119.03964,36.06092],[-119.04415,36.0609],[-119.04421,36.06227],[-119.04848,36.06224],[-119.04856,36.0586],[-119.0447,36.05861],[-119.04699,36.05629],[-119.05116,36.05501],[-119.05751,36.05476],[-119.06107,36.0556],[-119.06528,36.05857],[-119.06642,36.05857],[-119.06642,36.06002],[-119.07089,36.06056],[-119.07086,36.06219],[-119.07534,36.06219],[-119.0745,36.06512],[-119.07527,36.06512],[-119.07526,36.08035],[-119.07769,36.08035],[-119.07769,36.08241],[-119.07972,36.08242],[-119.07973,36.08347],[-119.07972,36.08477],[-119.07079,36.09149],[-119.0688,36.09482],[-119.05532,36.09475],[-119.05548,36.09837],[-119.05874,36.09839],[-119.05887,36.10201],[-119.05347,36.10238],[-119.05361952230417,36.10556980915584],[-119.071,36.1057],[-119.0712,36.1093],[-119.1075,36.1092],[-119.1075,36.0785],[-119.1206,36.0845],[-119.1343,36.0968],[-119.1395,36.0967],[-119.1431,36.0985],[-119.1432,36.0659],[-119.1611,36.0657],[-119.1615,36.025],[-119.1615,36.0224]],[[-119.09817,36.00774],[-119.09815,36.01781],[-119.09743,36.01899],[-119.09535,36.01895],[-119.09468,36.01714],[-119.09167,36.01665],[-119.09102,36.01501],[-119.08009,36.01501],[-119.08008,36.00777],[-119.09817,36.00774]],[[-119.09724,36.02271],[-119.09719,36.02593],[-119.09596,36.0259],[-119.09594,36.02954],[-119.08912,36.02952],[-119.08914,36.02624],[-119.09034,36.02624],[-119.09035,36.02553],[-119.08914,36.02553],[-119.08918,36.02221],[-119.09724,36.02271]],[[-118.98125,36.05922],[-118.98111,36.05933],[-118.98111,36.05922],[-118.98125,36.05922]],[[-118.96883,36.05673],[-118.96768,36.0569],[-118.96814,36.05674],[-118.96883,36.05673]],[[-118.96722,36.05184],[-118.96722,36.05392],[-118.96387,36.05206],[-118.96387,36.0514],[-118.96722,36.05184]]],[[[-119.06637,36.08757],[-119.06633,36.08031],[-119.06177,36.08032],[-119.0619,36.08757],[-119.06637,36.08757]]],[[[-119.05808,36.05858],[-119.05302,36.05858],[-119.05303,36.06593],[-119.05802,36.06593],[-119.05808,36.05858]]],[[[-119.04912986239246,36.105536178744515],[-119.049,36.10193],[-119.04454,36.10184],[-119.04455,36.10262],[-119.04344,36.1026],[-119.04348717514603,36.1041200880386],[-119.0443,36.1055],[-119.04912986239246,36.105536178744515]]],[[[-119.03941915789474,36.0982],[-119.0394,36.09729],[-119.03792,36.09719],[-119.03722,36.09571],[-119.03577,36.0957],[-119.03548,36.09464],[-119.0326,36.09245],[-119.03098,36.09267],[-119.03168,36.09358],[-119.0331,36.09341],[-119.0351,36.09546],[-119.03300615061748,36.09640317539753],[-119.0338,36.0964],[-119.0352,36.0982],[-119.03805382352941,36.0982],[-119.03752,36.09754],[-119.03931142857142,36.0982],[-119.03941915789474,36.0982]]],[[[-119.00412,36.0729],[-119.0041,36.07048],[-118.99969,36.07045],[-118.99972,36.0729],[-119.00412,36.0729]]]]},"properties":{"GEOID":"0610792520","NAME":"Porterville","COUNTY":"107"}},{"type":"Feature","geometry":{"type":"Polygon","coordinates":[[[-119.2465,36.5134],[-119.2376,36.5034],[-119.2309,36.5008],[-119.2141,36.5022],[-119.2111,36.5038],[-119.2038,36.5047],[-119.1845,36.5051],[-119.1806,36.5036],[-119.1769,36.4962],[-119.1715,36.4966],[-119.1687,36.4942],[-119.1631,36.4929],[-119.1569,36.4865],[-119.1549,36.476],[-119.1612,36.4723],[-119.167,36.4719],[-119.1699,36.4653],[-119.1693,36.4585],[-119.1649,36.4453],[-119.1551,36.4314],[-119.1465,36.4248],[-119.1399,36.4233],[-119.13955718201498,36.41379904441522],[-119.11683,36.41375],[-119.11672,36.41569],[-119.11552,36.41376],[-119.1105,36.41375],[-119.11062,36.42748],[-119.10985,36.42822],[-119.10554,36.42822],[-119.1056,36.43186],[-119.10334,36.43187],[-119.09894,36.42824],[-119.09657,36.42822],[-119.09656,36.4246],[-119.08991,36.42459],[-119.08997,36.42818],[-119.08513,36.42818],[-119.08511,36.42442],[-119.08678,36.42279],[-119.08091,36.42273],[-119.08091,36.42105],[-119.08582,36.42103],[-119.08577,36.41554],[-119.08649,36.41556],[-119.0865,36.4137],[-119.08088,36.41368],[-119.08094,36.40245],[-119.09153,36.40388],[-119.09388,36.40164],[-119.09391,36.39927],[-119.10582,36.39635],[-119.11198,36.39393],[-119.11274,36.39485],[-119.11263,36.39925],[-119.10789,36.39927],[-119.10787,36.40198],[-119.10335,36.40266],[-119.10336,36.40643],[-119.11019,36.40639],[-119.11017,36.40347],[-119.11687,36.4035],[-119.11683,36.41021],[-119.12098,36.41018],[-119.12101,36.4118],[-119.13469,36.41197],[-119.1347,36.41013],[-119.13558,36.41013],[-119.13553,36.41296],[-119.13952861265193,36.413007264924964],[-119.1392,36.4039],[-119.1372,36.4011],[-119.1348,36.4003],[-119.1346,36.3603],[-119.1304,36.3629],[-119.1272,36.3617],[-119.1207,36.3653],[-119.1092,36.367],[-119.0823,36.3803],[-119.0589,36.3835],[-119.0546,36.3862],[-119.0458,36.3888],[-119.0408,36.3885],[-119.0335,36.3926],[-119.0325,36.3964],[-119.029,36.4004],[-119.0218,36.3952],[-119.0222,36.3874],[-119.025,36.3856],[-119.0269,36.3755],[-119.04,36.3571],[-119.0438,36.3533],[-119.0659,36.3406],[-119.0764,36.3273],[-119.0793,36.3255],[-119.0754,36.3243],[-119.0654,36.2957],[-119.0636,36.2865],[-119.0503,36.2824],[-119.0474,36.2804],[-119.0443,36.278],[-119.0424,36.2734],[-119.0384,36.2689],[-118.9921,36.2679],[-118.9818,36.275],[-118.977,36.2758],[-118.972,36.2749],[-118.9656,36.2787],[-118.9535,36.2802],[-118.9466,36.2783],[-118.9433,36.2727],[-118.927,36.2718],[-118.9221,36.2696],[-118.9197,36.2702],[-118.9142,36.2623],[-118.9074,36.2583],[-118.8991,36.2378],[-118.8921,36.2368],[-118.8847,36.2312],[-118.8799,36.2327],[-118.878,36.2318],[-118.8757,36.2338],[-118.8637,36.2309],[-118.8657,36.227],[-118.8693,36.2243],[-118.8649,36.2255],[-118.861,36.2311],[-118.8596,36.2294],[-118.8607,36.2276],[-118.8599,36.2272],[-118.8565,36.2312],[-118.8527,36.2331],[-118.8516,36.2318],[-118.8471,36.2309],[-118.8499,36.228],[-118.844,36.2291],[-118.8317,36.2241],[-118.8207,36.2234],[-118.8164,36.22],[-118.8153,36.2231],[-118.8118,36.2245],[-118.8032,36.2332],[-118.7929,36.2371],[-118.7889,36.2347],[-118.7871,36.2358],[-118.7857,36.2411],[-118.7828,36.2458],[-118.7775,36.2506],[-118.7733,36.2588],[-118.7679,36.2619],[-118.7683,36.2641],[-118.7641,36.2686],[-118.758,36.2686],[-118.7525,36.2729],[-118.7465,36.2736],[-118.7414,36.2771],[-118.7333,36.2793],[-118.7315,36.2819],[-118.725,36.2859],[-118.7212,36.291],[-118.7113,36.2884],[-118.7064,36.2914],[-118.7051,36.2951],[-118.6961,36.2949],[-118.6946,36.302],[-118.6903,36.3018],[-118.6892,36.3139],[-118.6644,36.3105],[-118.6644,36.3087],[-118.6272,36.3074],[-118.6204,36.3124],[-118.6133,36.3144],[-118.6119,36.3083],[-118.6068,36.3037],[-118.5973,36.3047],[-118.5925,36.303],[-118.5912,36.2999],[-118.5829,36.299],[-118.5772,36.2988],[-118.572,36.3001],[-118.565,36.3052],[-118.5639,36.3079],[-118.5719,36.3224],[-118.5708,36.3271],[-118.5751,36.331],[-118.5852,36.3323],[-118.5917,36.3347],[-118.593,36.3388],[-118.5916,36.3415],[-118.5925,36.3452],[-118.5915,36.3467],[-118.5973,36.3532],[-118.5932,36.3651],[-118.5886,36.3659],[-118.5906,36.3673],[-118.5901,36.3703],[-118.5853,36.3724],[-118.58,36.3784],[-118.5841,36.3796],[-118.5872,36.3832],[-118.5921,36.3845],[-118.5849,36.3917],[-118.5813,36.3984],[-118.5667,36.4006],[-118.5621,36.4023],[-118.5594,36.4049],[-118.5514,36.4063],[-118.5507,36.4089],[-118.5441,36.4125],[-118.5425,36.4161],[-118.5427,36.4177],[-118.5487,36.4217],[-118.5509,36.4249],[-118.5534,36.4375],[-118.5593,36.44],[-118.559,36.4425],[-118.5558,36.4446],[-118.556,36.4586],[-118.5538,36.4677],[-118.5485,36.4756],[-118.5544,36.4822],[-118.566,36.4911],[-118.5673,36.4943],[-118.5675,36.5001],[-118.5651,36.5034],[-118.5686,36.5071],[-118.5639,36.5102],[-118.5628,36.5127],[-118.5638,36.5161],[-118.5694,36.5238],[-118.5686,36.5293],[-118.5707,36.5337],[-118.5678,36.536],[-118.5698,36.5384],[-118.5629,36.5411],[-118.5616,36.5432],[-118.5619,36.5472],[-118.5541,36.5531],[-118.5516,36.5612],[-118.5575,36.5618],[-118.5614,36.571],[-118.5571,36.5711],[-118.555,36.5669],[-118.5528,36.5655],[-118.5503,36.5659],[-118.5459,36.5699],[-118.5476,36.5728],[-118.54,36.5767],[-118.5389,36.5787],[-118.54,36.5782],[-118.5419,36.5797],[-118.5393,36.5804],[-118.5398,36.5818],[-118.5379,36.5838],[-118.5319,36.5822],[-118.531,36.5829],[-118.5296,36.5865],[-118.5321,36.5915],[-118.526,36.5905],[-118.528,36.5938],[-118.5249,36.5951],[-118.5262,36.5986],[-118.5179,36.6045],[-118.5173,36.6092],[-118.5138,36.6105],[-118.5113,36.6137],[-118.5066,36.6144],[-118.5031,36.6183],[-118.5009,36.6185],[-118.4969,36.6248],[-118.4915,36.6265],[-118.4886,36.6325],[-118.4844,36.6346],[-118.4838,36.6444],[-118.4865,36.6473],[-118.4847,36.6499],[-118.4791,36.652],[-118.474,36.6586],[-118.4757,36.6686],[-118.4721,36.668],[-118.4676,36.671],[-118.4643,36.6704],[-118.4624,36.6742],[-118.4527,36.6774],[-118.4493,36.6829],[-118.4501,36.6854],[-118.4426,36.686],[-118.4339,36.6834],[-118.4301,36.6861],[-118.4295,36.6927],[-118.4275,36.6979],[-118.4192,36.6959],[-118.4154,36.6978],[-118.4143,36.6963],[-118.41,36.698],[-118.4074,36.7008],[-118.4004,36.6984],[-118.3963,36.6994],[-118.3932,36.6987],[-118.3935,36.6976],[-118.3915,36.6966],[-118.3825,36.6985],[-118.3663,36.6917],[-118.3639,36.6942],[-118.3588,36.6956],[-118.3517,36.6948],[-118.3467,36.6965],[-118.3413,36.7021],[-118.3387,36.7024],[-118.3347,36.7053],[-118.336,36.7163],[-118.3396,36.729],[-118.3434,36.7314],[-118.3509,36.7407],[-118.3567,36.7422],[-118.3606,36.7448],[-118.5555,36.7447],[-118.555,36.7391],[-118.7509,36.7394],[-118.9824,36.7416],[-118.9848,36.6571],[-119.1748,36.6589],[-119.1739,36.6555],[-119.1753,36.6529],[-119.1724,36.6493],[-119.1716,36.6442],[-119.1761,36.6429],[-119.1793,36.6389],[-119.1837,36.6369],[-119.1891,36.6372],[-119.2014,36.634],[-119.2016,36.6306],[-119.2036,36.6283],[-119.2048,36.6174],[-119.2072,36.6147],[-119.2099,36.6017],[-119.212,36.5952],[-119.214,36.5929],[-119.2124,36.5919],[-119.217,36.5886],[-119.2212,36.5792],[-119.2198,36.5765],[-119.2208,36.5715],[-119.2223,36.5696],[-119.2353,36.5638],[-119.2373,36.5617],[-119.2332,36.5588],[-119.2309,36.5541],[-119.2269,36.5507],[-119.2149,36.5451],[-119.2145,36.5421],[-119.2263,36.533],[-119.2335,36.5318],[-119.2378,36.5254],[-119.2404,36.517],[-119.2465,36.5134]]]},"properties":{"GEOID":"0610793780","NAME":"Woodlake-Three Rivers","COUNTY":"107"}},{"type":"Feature","geometry":{"type":"Polygon","coordinates":[[[-119.3227,36.5453],[-119.3225,36.5161],[-119.3133,36.516],[-119.3136,36.487],[-119.2863,36.4867],[-119.2867,36.4577],[-119.2596,36.4575],[-119.2597,36.4503],[-119.2414,36.4502],[-119.2409,36.4862],[-119.1566,36.4851],[-119.1623,36.4925],[-119.1687,36.4942],[-119.1715,36.4966],[-119.1769,36.4962],[-119.1806,36.5036],[-119.1845,36.5051],[-119.2038,36.5047],[-119.2111,36.5038],[-119.2141,36.5022],[-119.2309,36.5008],[-119.2376,36.5034],[-119.2465,36.5128],[-119.2404,36.517],[-119.2378,36.5254],[-119.2335,36.5318],[-119.2263,36.533],[-119.2145,36.5421],[-119.2149,36.5451],[-119.2269,36.5507],[-119.2309,36.5541],[-119.2332,36.5588],[-119.2373,36.5617],[-119.2353,36.5638],[-119.2223,36.5696],[-119.2208,36.5715],[-119.2198,36.5765],[-119.2212,36.5792],[-119.217,36.5886],[-119.2124,36.5919],[-119.214,36.5929],[-119.212,36.5952],[-119.2099,36.6017],[-119.2072,36.6147],[-119.2048,36.6174],[-119.2036,36.6283],[-119.2016,36.6306],[-119.2014,36.634],[-119.1891,36.6372],[-119.1837,36.6369],[-119.1793,36.6389],[-119.1761,36.6429],[-119.1716,36.6442],[-119.1724,36.6493],[-119.1753,36.6529],[-119.1739,36.6555],[-119.1748,36.6589],[-119.2509,36.6612],[-119.3046,36.6606],[-119.3051,36.5737],[-119.3186,36.5739],[-119.3182,36.5452],[-119.3227,36.5453]]]},"properties":{"GEOID":"0610792290","NAME":"Orosi-Cutler","COUNTY":"107"}},{"type":"Feature","geometry":{"type":"Polygon","coordinates":[[[-119.5366,36.0711],[-119.5362,36.0508],[-119.5036,36.0508],[-119.5014,36.053],[-119.4989,36.0521],[-119.4971,36.054],[-119.4922,36.0542],[-119.4909,36.056],[-119.4875,36.0557],[-119.484,36.0591],[-119.4771,36.0627],[-119.4754,36.066],[-119.4703,36.0675],[-119.4679,36.07],[-119.4661,36.0694],[-119.4639,36.0711],[-119.4606,36.0705],[-119.4501,36.0747],[-119.4497,36.0799],[-119.4439,36.0839],[-119.4413,36.0885],[-119.433,36.0888],[-119.4286,36.0867],[-119.4177,36.0897],[-119.4168,36.0933],[-119.4138,36.0926],[-119.4032,36.094],[-119.394,36.0911],[-119.3663,36.093],[-119.3548,36.0978],[-119.3307,36.0969],[-119.3245,36.0956],[-119.3224,36.0939],[-119.3119,36.0945],[-119.2745,36.1016],[-119.2659,36.1055],[-119.2623,36.1087],[-119.2499,36.1095],[-119.2485,36.1113],[-119.2323,36.1119],[-119.233,36.1819],[-119.2173,36.1818],[-119.2174,36.1887],[-119.1988,36.2108],[-119.1992,36.2323],[-119.2066,36.2414],[-119.2069,36.2542],[-119.2426,36.2545],[-119.2785,36.2568],[-119.2963,36.2558],[-119.2966,36.2703],[-119.31115239544707,36.2700258575426],[-119.31115,36.26953],[-119.31336,36.26943],[-119.31336533588237,36.26998416949672],[-119.3603,36.2691],[-119.3639,36.2666],[-119.3856,36.2982],[-119.39003648336728,36.29818501188051],[-119.41917,36.29791],[-119.41917218000584,36.298086580472955],[-119.4654856119814,36.29793011617574],[-119.46548,36.29782],[-119.47437,36.29789],[-119.47437062771462,36.297900099230695],[-119.4744,36.2979],[-119.4746,36.269],[-119.5294,36.2699],[-119.5291,36.1379],[-119.5364,36.1379],[-119.5366,36.0711]],[[-119.39285,36.18169],[-119.38405,36.18178],[-119.38417,36.18877],[-119.36641,36.18916],[-119.36645,36.19638],[-119.38427,36.19629],[-119.3843,36.19808],[-119.3798,36.19809],[-119.37917,36.20363],[-119.37723,36.20365],[-119.37722,36.20537],[-119.37361,36.20796],[-119.37359,36.21033],[-119.38437,36.21072],[-119.38441,36.21444],[-119.38082,36.21447],[-119.38066,36.2219],[-119.37742,36.22195],[-119.37742,36.2248],[-119.37685,36.22561],[-119.37564,36.22561],[-119.37566,36.22777],[-119.37342,36.22773],[-119.37336,36.22565],[-119.36951,36.22566],[-119.36881,36.22748],[-119.36669,36.22748],[-119.36668,36.22646],[-119.36562,36.22647],[-119.36564,36.22769],[-119.36221,36.22769],[-119.36229,36.23112],[-119.36007,36.23113],[-119.36007,36.23293],[-119.35436,36.23297],[-119.35643,36.24497],[-119.34913,36.24518],[-119.34903,36.24742],[-119.34012,36.24746],[-119.33996,36.24034],[-119.33558,36.24037],[-119.33111,36.24041],[-119.3311,36.24148],[-119.32653,36.24152],[-119.32652,36.24391],[-119.32219,36.24398],[-119.3222,36.2476],[-119.31298,36.24766],[-119.31288,36.22597],[-119.30327,36.22609],[-119.30332,36.2111],[-119.29609,36.21088],[-119.29601,36.20366],[-119.28264,36.20368],[-119.28255,36.20004],[-119.28361,36.20006],[-119.28358,36.1964],[-119.27805,36.1964],[-119.27783,36.18163],[-119.29563,36.1817],[-119.2958,36.18937],[-119.30463,36.18944],[-119.30472,36.19269],[-119.30885,36.19268],[-119.30883,36.19125],[-119.31325,36.19132],[-119.31338,36.18639],[-119.31003,36.18762],[-119.30471,36.18343],[-119.31109,36.18062],[-119.30992,36.17929],[-119.3209,36.17297],[-119.31523,36.16717],[-119.31367,36.15995],[-119.31777,36.1599],[-119.31785,36.15633],[-119.32183,36.15637],[-119.32189,36.15285],[-119.31878,36.1528],[-119.31937,36.15129],[-119.32931,36.14483],[-119.32597,36.13326],[-119.32493,36.12349],[-119.32936,36.12361],[-119.34074,36.17388],[-119.34214,36.17386],[-119.34218,36.17466],[-119.35769,36.17481],[-119.35773,36.18562],[-119.3555,36.18564],[-119.3555,36.18651],[-119.35551,36.18922],[-119.35771,36.18924],[-119.35773,36.19644],[-119.36635,36.196],[-119.36648,36.16732],[-119.37521,36.1672],[-119.37528,36.17045],[-119.37751,36.1704],[-119.3775,36.17284],[-119.37528,36.17283],[-119.37531,36.17452],[-119.37973,36.17448],[-119.3797,36.16742],[-119.39272,36.16731],[-119.39285,36.18169]]]},"properties":{"GEOID":"0610793430","NAME":"Tulare","COUNTY":"107"}},{"type":"Feature","geometry":{"type":"Polygon","coordinates":[[[-119.091,36.2746],[-119.0908,36.2704],[-119.0884,36.2666],[-119.0903,36.2622],[-119.0836,36.2546],[-119.0772,36.2513],[-119.0734,36.2451],[-119.0715,36.2409],[-119.0714,36.2354],[-119.0734,36.2304],[-119.0723,36.227],[-119.0695,36.225],[-119.0661,36.2257],[-119.0645,36.2244],[-119.0603,36.2103],[-119.0567,36.2035],[-119.0538,36.2018],[-119.051,36.2023],[-119.0475,36.1999],[-119.0329,36.1999],[-119.0329,36.1963],[-119.0282,36.1963],[-119.0281,36.1891],[-119.0217,36.1894],[-119.015,36.1879],[-119.0058,36.1889],[-119.0053,36.1817],[-119.0011,36.1817],[-119.0002,36.1455],[-118.9595,36.1449],[-118.9563,36.1435],[-118.9555,36.1128],[-118.9541,36.1101],[-118.951,36.1092],[-118.92,36.1095],[-118.9048,36.1144],[-118.897,36.1153],[-118.8922,36.1136],[-118.8853,36.109],[-118.8623,36.1083],[-118.8594,36.1064],[-118.859,36.1026],[-118.8374,36.1006],[-118.8368,36.0937],[-118.8458,36.0953],[-118.8485,36.0937],[-118.8577,36.0937],[-118.8586,36.0957],[-118.8679,36.0991],[-118.8711,36.099],[-118.8763,36.0965],[-118.8804,36.0927],[-118.891,36.088],[-118.8989,36.0801],[-118.8795,36.0799],[-118.8787,36.0775],[-118.8802,36.076],[-118.8805,36.0729],[-118.8764,36.0728],[-118.8768,36.0659],[-118.8678,36.0655],[-118.8661,36.0583],[-118.8587,36.0506],[-118.857,36.0453],[-118.8583,36.0429],[-118.858,36.0322],[-118.8633,36.0318],[-118.8675,36.0325],[-118.8674,36.0336],[-118.8696,36.0332],[-118.8719,36.0307],[-118.8777,36.03],[-118.8858,36.0316],[-118.8929,36.0277],[-118.899,36.0283],[-118.9107,36.0256],[-118.9102,35.9962],[-118.911,35.9888],[-118.9127,35.9864],[-118.9175,35.9849],[-118.9289,35.9858],[-118.9382,35.9968],[-118.9439,36.0002],[-118.9462,36.006],[-118.9562,36.0091],[-118.962,36.0077],[-118.9822,36.0078],[-118.9833,35.9988],[-118.9824,35.9878],[-118.9809,35.985],[-118.961,35.9659],[-118.941,35.934],[-118.9353,35.9278],[-118.9336,35.9222],[-118.9253,35.9117],[-118.9221,35.897],[-118.9131,35.8873],[-118.9073,35.884],[-118.9029,35.8832],[-118.8946,35.8779],[-118.8852,35.8643],[-118.8769,35.8599],[-118.8708,35.8513],[-118.8661,35.8479],[-118.863,35.8327],[-118.8582,35.8276],[-118.8573,35.8226],[-118.8549,35.8185],[-118.8529,35.8199],[-118.8511,35.8158],[-118.8477,35.8151],[-118.8453,35.8161],[-118.8464,35.8138],[-118.8425,35.8096],[-118.831,35.8039],[-118.8208,35.8009],[-118.8154,35.7962],[-118.8044,35.7905],[-118.5708,35.7897],[-118.4322,35.7924],[-118.361,35.7903],[-118.0589,35.7915],[-118.0081,35.7889],[-118.0094,35.7953],[-118.0075,35.7999],[-118.0105,35.8044],[-118.0075,35.81],[-118.0089,35.8122],[-118.0077,35.8171],[-118.0005,35.8203],[-117.9986,35.823],[-118.0062,35.829],[-118.0045,35.8361],[-118.005,35.8391],[-118.0029,35.8413],[-118.0054,35.8433],[-118.0048,35.8513],[-118.0074,35.8582],[-118.0055,35.8627],[-118.0023,35.8639],[-117.9967,35.8695],[-117.9937,35.8696],[-117.9895,35.8657],[-117.9808,35.8675],[-117.9821,35.869],[-117.9832,35.8756],[-117.9888,35.8798],[-117.9891,35.8813],[-117.989,35.8841],[-117.9847,35.8877],[-117.982,35.8947],[-117.9871,35.8992],[-117.9877,35.9026],[-117.9854,35.9053],[-117.989,35.9079],[-117.9903,35.914],[-117.9833,35.9266],[-117.9864,35.9322],[-117.9854,35.9341],[-117.9897,35.9389],[-117.9919,35.9438],[-117.9959,35.9441],[-117.9993,35.9466],[-118.0069,35.9465],[-118.0095,35.9486],[-118.0095,35.9524],[-118.0111,35.9546],[-118.0168,35.9546],[-118.0167,35.959],[-118.018,35.96],[-118.018,35.9624],[-118.0125,35.9689],[-118.0146,35.9729],[-118.0114,35.9742],[-118.0096,35.9782],[-118.0045,35.9772],[-118.0039,35.9788],[-118.0053,35.9805],[-118.0036,35.9837],[-118.0064,35.9868],[-118.0062,35.9898],[-118.0107,35.9917],[-118.0121,35.9983],[-118.0143,35.9985],[-118.0145,35.9999],[-118.019,36.0033],[-118.0313,36.007],[-118.0336,36.0089],[-118.0354,36.013],[-118.0346,36.0143],[-118.0371,36.0291],[-118.0414,36.0298],[-118.0395,36.0342],[-118.0463,36.0422],[-118.044,36.0446],[-118.0427,36.0485],[-118.0486,36.0532],[-118.0479,36.0559],[-118.0517,36.0595],[-118.0512,36.0734],[-118.0498,36.0767],[-118.0516,36.0835],[-118.058,36.0919],[-118.0631,36.0892],[-118.0673,36.0934],[-118.0662,36.1039],[-118.0683,36.1085],[-118.0671,36.1103],[-118.066,36.1095],[-118.0646,36.1104],[-118.0663,36.1146],[-118.0663,36.1193],[-118.0682,36.1202],[-118.0683,36.1255],[-118.0716,36.1292],[-118.071,36.1337],[-118.0735,36.1403],[-118.0703,36.1444],[-118.0597,36.1508],[-118.059,36.1578],[-118.0626,36.1622],[-118.0595,36.1654],[-118.0605,36.1684],[-118.0593,36.1701],[-118.0616,36.1739],[-118.07,36.1786],[-118.0717,36.1865],[-118.0737,36.1894],[-118.0859,36.1975],[-118.0907,36.1973],[-118.0946,36.2049],[-118.1019,36.2088],[-118.1056,36.2134],[-118.1092,36.2255],[-118.1086,36.2276],[-118.1052,36.2286],[-118.1052,36.2336],[-118.1122,36.24],[-118.1144,36.2478],[-118.1194,36.2556],[-118.1172,36.2657],[-118.1174,36.2712],[-118.1197,36.2731],[-118.122,36.2777],[-118.1276,36.2803],[-118.1272,36.2839],[-118.125,36.2867],[-118.1257,36.2978],[-118.127,36.3002],[-118.1201,36.3022],[-118.1216,36.3068],[-118.1146,36.307],[-118.1118,36.3083],[-118.1104,36.3098],[-118.1126,36.3133],[-118.1116,36.3156],[-118.1142,36.3193],[-118.1125,36.322],[-118.1076,36.3256],[-118.103,36.3254],[-118.1032,36.327],[-118.0976,36.3311],[-118.0998,36.3333],[-118.1018,36.3393],[-118.1003,36.3461],[-118.1054,36.3482],[-118.1208,36.3502],[-118.1242,36.3519],[-118.1225,36.3547],[-118.1268,36.3626],[-118.1299,36.3658],[-118.1305,36.3703],[-118.141,36.3716],[-118.1431,36.3759],[-118.1473,36.3791],[-118.1531,36.3795],[-118.1571,36.3883],[-118.1629,36.3894],[-118.16,36.3938],[-118.1539,36.3968],[-118.1462,36.3986],[-118.1403,36.4035],[-118.1374,36.4153],[-118.1379,36.418],[-118.1412,36.4209],[-118.1444,36.4212],[-118.1486,36.4252],[-118.1516,36.4251],[-118.1546,36.4276],[-118.1568,36.4326],[-118.1642,36.4297],[-118.1711,36.429],[-118.1749,36.4265],[-118.1783,36.4276],[-118.1847,36.4266],[-118.1897,36.4277],[-118.1936,36.4265],[-118.1978,36.4282],[-118.1993,36.4301],[-118.2037,36.4312],[-118.2098,36.4303],[-118.2144,36.4343],[-118.2146,36.4366],[-118.211,36.4381],[-118.2096,36.4421],[-118.2102,36.4448],[-118.2142,36.4482],[-118.2156,36.4563],[-118.221,36.4598],[-118.2232,36.4633],[-118.2302,36.4645],[-118.2326,36.4663],[-118.2326,36.4688],[-118.237,36.4739],[-118.237,36.477],[-118.24,36.4773],[-118.2499,36.4824],[-118.2484,36.487],[-118.2391,36.4907],[-118.235,36.4937],[-118.2414,36.5],[-118.2381,36.5058],[-118.2393,36.51],[-118.2374,36.5115],[-118.2391,36.5128],[-118.2388,36.5236],[-118.2467,36.5214],[-118.2494,36.524],[-118.2509,36.5256],[-118.2509,36.5288],[-118.2486,36.5332],[-118.252,36.5421],[-118.2602,36.5441],[-118.2612,36.5474],[-118.2653,36.5515],[-118.2759,36.5508],[-118.2794,36.5551],[-118.2862,36.5566],[-118.2912,36.5593],[-118.2921,36.5627],[-118.2913,36.5647],[-118.2926,36.5674],[-118.2898,36.5732],[-118.2941,36.5774],[-118.2922,36.5788],[-118.2928,36.5799],[-118.288,36.5837],[-118.289,36.5907],[-118.278,36.5923],[-118.2746,36.5973],[-118.2816,36.6045],[-118.289,36.6033],[-118.2939,36.6051],[-118.297,36.6073],[-118.2979,36.6111],[-118.3024,36.6146],[-118.3019,36.6181],[-118.3028,36.619],[-118.3093,36.6214],[-118.311,36.6249],[-118.3213,36.6274],[-118.3203,36.6372],[-118.3188,36.6389],[-118.3222,36.6414],[-118.3252,36.6471],[-118.3364,36.653],[-118.3382,36.6554],[-118.3356,36.6616],[-118.3295,36.6654],[-118.3321,36.6704],[-118.3399,36.6727],[-118.3475,36.6723],[-118.3475,36.676],[-118.352,36.6829],[-118.361,36.686],[-118.3642,36.6879],[-118.3668,36.6922],[-118.3741,36.6946],[-118.3769,36.697],[-118.3836,36.6986],[-118.3915,36.6966],[-118.3935,36.6976],[-118.3932,36.6987],[-118.3963,36.6994],[-118.4004,36.6984],[-118.4074,36.7008],[-118.41,36.698],[-118.4143,36.6963],[-118.4154,36.6978],[-118.4201,36.6959],[-118.427,36.6982],[-118.4295,36.6927],[-118.4301,36.6861],[-118.432,36.6841],[-118.436,36.6836],[-118.4426,36.686],[-118.4496,36.6856],[-118.4493,36.6829],[-118.4527,36.6774],[-118.4624,36.6742],[-118.4643,36.6704],[-118.4676,36.671],[-118.4721,36.668],[-118.4753,36.669],[-118.4758,36.6664],[-118.4737,36.6593],[-118.4791,36.652],[-118.4855,36.6493],[-118.4865,36.6473],[-118.4837,36.6435],[-118.4844,36.6346],[-118.4886,36.6325],[-118.4904,36.6275],[-118.4955,36.626],[-118.5009,36.6185],[-118.5031,36.6183],[-118.5066,36.6144],[-118.5106,36.6141],[-118.5138,36.6105],[-118.5173,36.6092],[-118.5179,36.6045],[-118.5262,36.5986],[-118.5249,36.5951],[-118.528,36.5938],[-118.526,36.5905],[-118.5321,36.5915],[-118.5296,36.5865],[-118.531,36.5829],[-118.5319,36.5822],[-118.5379,36.5838],[-118.5398,36.5818],[-118.5393,36.5804],[-118.5419,36.5797],[-118.54,36.5782],[-118.5389,36.5787],[-118.54,36.5767],[-118.5476,36.5728],[-118.5459,36.5699],[-118.5475,36.5677],[-118.5528,36.5655],[-118.555,36.5669],[-118.5571,36.5711],[-118.5614,36.571],[-118.5575,36.5618],[-118.5516,36.5612],[-118.5541,36.5531],[-118.5619,36.5472],[-118.5616,36.5432],[-118.5629,36.5411],[-118.5698,36.5384],[-118.5678,36.536],[-118.5707,36.5337],[-118.5686,36.5293],[-118.5694,36.5238],[-118.5638,36.5161],[-118.5628,36.5127],[-118.5639,36.5102],[-118.5686,36.5071],[-118.5651,36.5034],[-118.5675,36.5001],[-118.5673,36.4943],[-118.566,36.4911],[-118.5544,36.4822],[-118.5485,36.4756],[-118.5538,36.4677],[-118.556,36.4586],[-118.5558,36.4446],[-118.559,36.4425],[-118.5593,36.44],[-118.5534,36.4375],[-118.5509,36.4249],[-118.5487,36.4217],[-118.5427,36.4177],[-118.5425,36.4161],[-118.5441,36.4125],[-118.5507,36.4089],[-118.5514,36.4063],[-118.5594,36.4049],[-118.5621,36.4023],[-118.5667,36.4006],[-118.5813,36.3984],[-118.5849,36.3917],[-118.5921,36.3845],[-118.5872,36.3832],[-118.5841,36.3796],[-118.58,36.3784],[-118.5853,36.3724],[-118.5901,36.3703],[-118.5906,36.3673],[-118.5886,36.3659],[-118.5932,36.3651],[-118.5973,36.3532],[-118.5915,36.3467],[-118.5925,36.3452],[-118.5916,36.3415],[-118.593,36.3388],[-118.5917,36.3347],[-118.5852,36.3323],[-118.5751,36.331],[-118.5707,36.3267],[-118.5719,36.3224],[-118.5639,36.3079],[-118.565,36.3052],[-118.572,36.3001],[-118.5772,36.2988],[-118.5893,36.2996],[-118.5916,36.3003],[-118.5925,36.303],[-118.5973,36.3047],[-118.6068,36.3037],[-118.6119,36.3083],[-118.6133,36.3144],[-118.6204,36.3124],[-118.6272,36.3074],[-118.6644,36.3087],[-118.6644,36.3105],[-118.6892,36.3139],[-118.6903,36.3018],[-118.6946,36.302],[-118.6961,36.2949],[-118.7051,36.2951],[-118.7064,36.2914],[-118.7113,36.2884],[-118.7212,36.291],[-118.725,36.2859],[-118.7315,36.2819],[-118.7333,36.2793],[-118.7414,36.2771],[-118.7465,36.2736],[-118.7525,36.2729],[-118.758,36.2686],[-118.7641,36.2686],[-118.7683,36.2641],[-118.7679,36.2619],[-118.7733,36.2588],[-118.7775,36.2506],[-118.7828,36.2458],[-118.7857,36.2411],[-118.7871,36.2358],[-118.7889,36.2347],[-118.7929,36.2371],[-118.8032,36.2332],[-118.8118,36.2245],[-118.8153,36.2231],[-118.8164,36.22],[-118.8207,36.2234],[-118.8317,36.2241],[-118.844,36.2291],[-118.8499,36.228],[-118.8471,36.2309],[-118.8516,36.2318],[-118.8527,36.2331],[-118.8565,36.2312],[-118.8599,36.2272],[-118.8607,36.2276],[-118.8596,36.2294],[-118.861,36.2311],[-118.8649,36.2255],[-118.8693,36.2243],[-118.8657,36.227],[-118.8637,36.2309],[-118.8757,36.2338],[-118.878,36.2318],[-118.8799,36.2327],[-118.8847,36.2312],[-118.8921,36.2368],[-118.8991,36.2378],[-118.9074,36.2583],[-118.9142,36.2623],[-118.9197,36.2702],[-118.9221,36.2696],[-118.927,36.2718],[-118.9433,36.2727],[-118.9466,36.2783],[-118.9536,36.2802],[-118.9656,36.2787],[-118.972,36.2749],[-118.977,36.2758],[-118.9818,36.275],[-118.9921,36.2679],[-119.038,36.2688],[-119.0424,36.2734],[-119.0445,36.2782],[-119.0499,36.2822],[-119.0636,36.2865],[-119.0637,36.2825],[-119.0754,36.2826],[-119.0813,36.2798],[-119.0803,36.2778],[-119.0846,36.2768],[-119.0839,36.2745],[-119.091,36.2746]]]},"properties":{"GEOID":"0610793220","NAME":"Springville-Johnsondale","COUNTY":"107"}},{"type":"Feature","geometry":{"type":"Polygon","coordinates":[[[-119.233,36.1819],[-119.2329,36.1673],[-119.0096,36.1673],[-119.0095,36.1601],[-119.0005,36.16],[-119.0011,36.1817],[-119.0053,36.1817],[-119.0058,36.1889],[-119.015,36.1879],[-119.0217,36.1894],[-119.0281,36.1891],[-119.0282,36.1963],[-119.0329,36.1963],[-119.0329,36.1999],[-119.0475,36.1999],[-119.051,36.2023],[-119.0538,36.2018],[-119.0567,36.2035],[-119.0603,36.2103],[-119.0645,36.2244],[-119.0661,36.2257],[-119.0695,36.225],[-119.0723,36.227],[-119.0734,36.2304],[-119.0714,36.2354],[-119.0715,36.2409],[-119.0772,36.2513],[-119.0807,36.2537],[-119.2069,36.2542],[-119.2066,36.2414],[-119.1992,36.2323],[-119.1988,36.2108],[-119.2174,36.1887],[-119.2173,36.1818],[-119.233,36.1819]],[[-119.14985,36.22161],[-119.14985,36.2241],[-119.14751,36.22429],[-119.14742,36.22614],[-119.14333,36.22605],[-119.1433,36.22424],[-119.14107,36.22419],[-119.14097,36.21895],[-119.13879,36.21894],[-119.13876,36.21804],[-119.1453,36.21803],[-119.14539,36.22149],[-119.14985,36.22161]],[[-119.11489,36.21086],[-119.11489,36.21235],[-119.1125,36.21236],[-119.11255,36.21411],[-119.09859,36.21426],[-119.09967,36.21626],[-119.096,36.21651],[-119.09619,36.22137],[-119.08725,36.22158],[-119.08715,36.21791],[-119.08273,36.21793],[-119.08273,36.2191],[-119.08389,36.21923],[-119.08388,36.21995],[-119.08276,36.22018],[-119.08178,36.22017],[-119.08261,36.21902],[-119.08194,36.21802],[-119.07829,36.21797],[-119.07827,36.21936],[-119.07496,36.21933],[-119.07494,36.21782],[-119.0764,36.21779],[-119.07642,36.21436],[-119.07752,36.21436],[-119.07756,36.21784],[-119.07821,36.21779],[-119.07806,36.21422],[-119.07965,36.21421],[-119.07961,36.21149],[-119.07885,36.21087],[-119.0735,36.21078],[-119.07356,36.21438],[-119.06456,36.21446],[-119.06449,36.21079],[-119.06934,36.21079],[-119.06915,36.20899],[-119.07353,36.209],[-119.07328,36.2001],[-119.08009,36.19998],[-119.07999,36.19625],[-119.08891,36.19614],[-119.08809,36.19465],[-119.09117,36.19458],[-119.09122,36.1963],[-119.09578,36.1962],[-119.0958,36.19853],[-119.1018,36.19863],[-119.10419,36.20232],[-119.10572,36.2019],[-119.10573,36.2033],[-119.10904,36.20336],[-119.10909,36.20515],[-119.10604,36.20511],[-119.10897,36.20971],[-119.11489,36.21086]]]},"properties":{"GEOID":"0610791640","NAME":"Lindsay","COUNTY":"107"}},{"type":"Feature","geometry":{"type":"Polygon","coordinates":[[[-119.5377,35.9351],[-119.4471,35.9346],[-119.4292,35.9204],[-119.4263,35.9201],[-119.4422,35.9419],[-119.3849,35.9425],[-119.3845,35.9497],[-119.3399,35.9498],[-119.3399,35.9208],[-119.3037,35.9208],[-119.3038,35.9124],[-119.289,35.9144],[-119.2776,35.9139],[-119.2745,35.9125],[-119.2667,35.9128],[-119.2598,35.9155],[-119.2551,35.9158],[-119.2505,35.9193],[-119.2504,35.8919],[-119.1079,35.8918],[-119.1075,36.0223],[-119.2146,36.0223],[-119.2147,36.0078],[-119.5361,36.0072],[-119.5362,35.9634],[-119.5374,35.9633],[-119.5377,35.9351]]]},"properties":{"GEOID":"0610792480","NAME":"Pixley","COUNTY":"107"}},{"type":"Feature","geometry":{"type":"Polygon","coordinates":[[[-119.1079,35.8918],[-119.0535,35.8917],[-119.0534,35.8721],[-119.052,35.8668],[-119.0537,35.8591],[-119.0534,35.7908],[-118.8024,35.7902],[-118.8154,35.7962],[-118.8208,35.8009],[-118.831,35.8039],[-118.8425,35.8096],[-118.8464,35.8138],[-118.8453,35.8161],[-118.8477,35.8151],[-118.8511,35.8158],[-118.8529,35.8199],[-118.8549,35.8185],[-118.8573,35.8226],[-118.8582,35.8276],[-118.863,35.8327],[-118.8661,35.8479],[-118.8708,35.8513],[-118.8769,35.8599],[-118.8852,35.8643],[-118.8946,35.8779],[-118.9029,35.8832],[-118.9073,35.884],[-118.9131,35.8873],[-118.9221,35.897],[-118.9253,35.9117],[-118.9336,35.9222],[-118.9351,35.9275],[-118.941,35.934],[-118.961,35.9659],[-118.9816,35.9858],[-118.9827,35.9917],[-118.994,35.9931],[-119.0038,35.9907],[-119.0142,35.9933],[-119.0281,35.9902],[-119.0426,35.982],[-119.0486,35.9821],[-119.0526,35.9802],[-119.0605,35.982],[-119.0691,35.979],[-119.0787,35.9838],[-119.083,35.9822],[-119.0904,35.9765],[-119.0999,35.9786],[-119.1074,35.9777],[-119.1078,35.8947],[-119.1079,35.8918]]]},"properties":{"GEOID":"0610793330","NAME":"Terra Bella","COUNTY":"107"}},{"type":"Feature","geometry":{"type":"MultiPolygon","coordinates":[[[[-119.4755,36.3418],[-119.4745811283678,36.305128668497034],[-119.46585,36.30508],[-119.46548559827976,36.29792984732719],[-119.41917215944005,36.29808491464473],[-119.41918,36.29872],[-119.42128,36.29872],[-119.42144,36.31251],[-119.39561,36.3126],[-119.38633,36.29822],[-119.39045423789332,36.29818106839991],[-119.3848,36.2982],[-119.3639,36.2666],[-119.3603,36.2691],[-119.31336533588237,36.26998416949672],[-119.31343,36.2767],[-119.31792,36.27668],[-119.318,36.28572],[-119.32247,36.28559],[-119.32248,36.29109],[-119.32713,36.29109],[-119.32711,36.28926],[-119.33139,36.28921],[-119.33143,36.29096],[-119.34935,36.29097],[-119.34937,36.2946],[-119.35385,36.29457],[-119.35393,36.30183],[-119.35841,36.30181],[-119.35846,36.30544],[-119.36743,36.3054],[-119.36753,36.31268],[-119.37885,36.31261],[-119.379,36.31031],[-119.37678,36.30902],[-119.37408,36.30903],[-119.37405,36.30639],[-119.37157,36.30492],[-119.37576,36.30151],[-119.37728,36.30316],[-119.38089,36.30315],[-119.38091,36.30543],[-119.38979,36.30539],[-119.39508,36.31625],[-119.39786,36.31624],[-119.40357,36.32494],[-119.40348,36.32836],[-119.40711,36.3308],[-119.39901,36.33083],[-119.39902,36.33446],[-119.39678,36.33446],[-119.39678,36.33663],[-119.39928,36.33663],[-119.39927,36.33446],[-119.40954,36.33432],[-119.41429,36.3417],[-119.40576,36.34186],[-119.40575,36.34246],[-119.40687,36.34246],[-119.40686,36.34448],[-119.40577,36.34448],[-119.40576,36.34356],[-119.40353,36.34362],[-119.40365,36.37086],[-119.38578,36.37085],[-119.38569,36.35639],[-119.36782,36.35649],[-119.36791,36.37094],[-119.35,36.37101],[-119.34996,36.36196],[-119.3455,36.36196],[-119.34551,36.36377],[-119.34103,36.36377],[-119.34104,36.36738],[-119.33209,36.36739],[-119.33209,36.36558],[-119.31879,36.36553],[-119.31878,36.37099],[-119.31343,36.37099],[-119.31345,36.36371],[-119.30261,36.36365],[-119.3026,36.36459],[-119.29914,36.36458],[-119.29913,36.36365],[-119.29705,36.36365],[-119.29705,36.36445],[-119.29427,36.36528],[-119.29159,36.36727],[-119.28867,36.36742],[-119.28833,36.36812],[-119.28791,36.35975],[-119.28517,36.35657],[-119.28318,36.35636],[-119.28321,36.35389],[-119.27326,36.35214],[-119.2693,36.34842],[-119.26097,36.34749],[-119.26106,36.34918],[-119.24316,36.34925],[-119.24313,36.34285],[-119.24144,36.34337],[-119.24096,36.34188],[-119.23752,36.34188],[-119.23751,36.33936],[-119.23574,36.33937],[-119.23563,36.33449],[-119.23392,36.33447],[-119.23381,36.32678],[-119.24513,36.32678],[-119.24507,36.32351],[-119.24283,36.32349],[-119.24261,36.31259],[-119.24734,36.31263],[-119.2475,36.30744],[-119.24279,36.3074],[-119.24281,36.30654],[-119.24426,36.30655],[-119.24428,36.30552],[-119.26058,36.30581],[-119.26095,36.29823],[-119.27208,36.29823],[-119.2768,36.29354],[-119.27833,36.29291],[-119.28309,36.29233],[-119.28286,36.29799],[-119.2875,36.29799],[-119.28784,36.29171],[-119.3088,36.29133],[-119.30875,36.28766],[-119.31267,36.28756],[-119.31266,36.28555],[-119.31344,36.28512],[-119.31266,36.28515],[-119.31264,36.28398],[-119.30559,36.2843],[-119.30546,36.27704],[-119.3086,36.27699],[-119.30857,36.27512],[-119.30984,36.27506],[-119.30984,36.27373],[-119.31117,36.27367],[-119.31115239544707,36.2700258575426],[-119.2966,36.2703],[-119.2963,36.2558],[-119.2785,36.2568],[-119.2787,36.2856],[-119.2619,36.2838],[-119.243,36.2837],[-119.2426,36.3126],[-119.2247,36.3125],[-119.2247,36.3264],[-119.2191,36.3271],[-119.2203,36.3271],[-119.2204,36.3491],[-119.2179,36.3494],[-119.2162,36.3512],[-119.2156,36.3705],[-119.2251,36.3708],[-119.2249,36.3852],[-119.2428,36.3853],[-119.2431,36.3709],[-119.2883,36.371],[-119.2863,36.4867],[-119.3308,36.4871],[-119.3315,36.4584],[-119.3422,36.4551],[-119.3447,36.4514],[-119.3563,36.4506],[-119.3605,36.4489],[-119.3634,36.4446],[-119.3738,36.4373],[-119.3808,36.4376],[-119.3837,36.4358],[-119.4036,36.4351],[-119.4106,36.4291],[-119.416,36.429],[-119.4172,36.427],[-119.4221,36.4258],[-119.4275,36.4188],[-119.4322,36.4164],[-119.433,36.4141],[-119.4368,36.4115],[-119.4416,36.4096],[-119.4466,36.4109],[-119.4529,36.4086],[-119.4584,36.4025],[-119.4586,36.3996],[-119.4641,36.3959],[-119.4686,36.3945],[-119.4706,36.3916],[-119.475,36.3905],[-119.4755,36.3418]]],[[[-119.38558,36.33442],[-119.38552,36.33088],[-119.38269,36.33088],[-119.38272,36.32822],[-119.37918,36.32868],[-119.38077,36.32739],[-119.36997,36.3275],[-119.36775,36.32879],[-119.36766,36.33689],[-119.37065,36.33686],[-119.37064,36.33549],[-119.37669,36.33547],[-119.3767,36.33821],[-119.38111,36.33818],[-119.38109,36.33445],[-119.38558,36.33442]]],[[[-119.38107,36.32656],[-119.38106,36.32427],[-119.38046,36.32358],[-119.37818,36.32359],[-119.37817,36.32177],[-119.37656,36.32129],[-119.37655,36.31995],[-119.38103,36.31994],[-119.38098,36.31272],[-119.36762,36.31284],[-119.3668,36.31333],[-119.36683,36.31502],[-119.3655,36.315],[-119.36551,36.31569],[-119.35859,36.31635],[-119.35862,36.3271],[-119.36627,36.32654],[-119.36732,36.32488],[-119.36817,36.32494],[-119.36874,36.32623],[-119.3716,36.32679],[-119.38107,36.32656]]],[[[-119.33478,36.35256],[-119.33477,36.34916],[-119.33195,36.34914],[-119.33202,36.35273],[-119.33478,36.35256]]],[[[-119.31014,36.29779],[-119.30882,36.29777],[-119.30882,36.29634],[-119.30783,36.2959],[-119.30649,36.29708],[-119.30649,36.29773],[-119.30843,36.29776],[-119.30844,36.29839],[-119.31006,36.29842],[-119.31014,36.29779]]],[[[-119.26071,36.33097],[-119.25675,36.33083],[-119.25484,36.33372],[-119.2564,36.33373],[-119.26071,36.33097]]],[[[-119.25105,36.34169],[-119.25104,36.34016],[-119.24756,36.34018],[-119.24754,36.33838],[-119.24969,36.33837],[-119.24967,36.33461],[-119.24538,36.33458],[-119.24533,36.34228],[-119.25105,36.34169]]]]},"properties":{"GEOID":"0610793560","NAME":"Visalia","COUNTY":"107"}},{"type":"Feature","geometry":{"type":"MultiPolygon","coordinates":[[[[-119.2329,36.1673],[-119.2323,36.1119],[-119.1947,36.1061],[-119.1721,36.1075],[-119.1625,36.1049],[-119.1568,36.1014],[-119.1395,36.0967],[-119.1351,36.0972],[-119.1206,36.0845],[-119.1075,36.0785],[-119.1075,36.1092],[-119.0712,36.1093],[-119.071,36.1057],[-119.05361952230417,36.10556980915584],[-119.05362,36.10558],[-119.04913,36.10554],[-119.04912986239246,36.105536178744515],[-119.0443,36.1055],[-119.04348717514603,36.1041200880386],[-119.04353,36.1055],[-119.04127,36.10508],[-119.04065,36.10566],[-119.04467,36.11272],[-119.04034,36.11276],[-119.0403,36.11635],[-119.0386,36.11627],[-119.03778,36.1152],[-119.03778,36.11636],[-119.03748,36.11573],[-119.03754,36.11636],[-119.03591,36.11636],[-119.03572,36.10543],[-119.03353,36.10177],[-119.03015,36.10178],[-119.02791,36.10446],[-119.02781,36.09923],[-119.02677,36.10017],[-119.02674061443096,36.09642823754228],[-119.0088,36.0965],[-119.0086,36.1043],[-119,36.1113],[-119.0005,36.16],[-119.0095,36.1601],[-119.0096,36.1673],[-119.2329,36.1673]]],[[[-119.03807,36.09822],[-119.03805382352941,36.0982],[-119.0352,36.0982],[-119.0338,36.0964],[-119.03300615061748,36.09640317539753],[-119.03288,36.09646],[-119.0341,36.09816],[-119.03122,36.09818],[-119.03122,36.09641032],[-119.02686025516572,36.09642775897934],[-119.02807,36.09721],[-119.02807,36.09867],[-119.02995,36.09831],[-119.03273,36.09993],[-119.03638,36.09997],[-119.03515,36.0982],[-119.03807,36.09822]]]]},"properties":{"GEOID":"0610793260","NAME":"Strathmore","COUNTY":"107"}},{"type":"Feature","geometry":{"type":"Polygon","coordinates":[[[-119.5362,36.0508],[-119.5361,36.0072],[-119.2147,36.0078],[-119.2146,36.0223],[-119.1615,36.0224],[-119.1611,36.0657],[-119.1432,36.0659],[-119.1431,36.0985],[-119.1568,36.1014],[-119.1625,36.1049],[-119.1721,36.1075],[-119.1947,36.1061],[-119.2321,36.1119],[-119.2485,36.1113],[-119.2499,36.1095],[-119.2623,36.1087],[-119.2659,36.1055],[-119.2745,36.1016],[-119.3119,36.0945],[-119.3224,36.0939],[-119.3245,36.0956],[-119.3307,36.0969],[-119.3548,36.0978],[-119.3663,36.093],[-119.394,36.0911],[-119.4032,36.094],[-119.4138,36.0926],[-119.4168,36.0933],[-119.4177,36.0897],[-119.4286,36.0867],[-119.433,36.0888],[-119.4417,36.0884],[-119.4439,36.0839],[-119.4497,36.0799],[-119.4501,36.0747],[-119.4606,36.0705],[-119.4639,36.0711],[-119.4661,36.0694],[-119.4679,36.07],[-119.4703,36.0675],[-119.4754,36.066],[-119.4771,36.0627],[-119.484,36.0591],[-119.4875,36.0557],[-119.4909,36.056],[-119.4922,36.0542],[-119.4971,36.054],[-119.4989,36.0521],[-119.5014,36.053],[-119.5036,36.0508],[-119.5362,36.0508]]]},"properties":{"GEOID":"0610793360","NAME":"Tipton","COUNTY":"107"}},{"type":"Feature","geometry":{"type":"Polygon","coordinates":[[[-119.2787,36.2856],[-119.2785,36.2568],[-119.2426,36.2545],[-119.0807,36.2537],[-119.0836,36.2546],[-119.0903,36.2622],[-119.0884,36.2666],[-119.0908,36.2704],[-119.091,36.2746],[-119.0839,36.2745],[-119.0846,36.2767],[-119.0803,36.2778],[-119.0815,36.279],[-119.0804,36.2805],[-119.0751,36.2827],[-119.0637,36.2825],[-119.0635,36.2855],[-119.0654,36.2957],[-119.0749,36.3232],[-119.0762,36.3251],[-119.0793,36.3255],[-119.0764,36.3273],[-119.0659,36.3406],[-119.0438,36.3533],[-119.04,36.3571],[-119.0269,36.3755],[-119.025,36.3856],[-119.0222,36.3874],[-119.0218,36.3952],[-119.029,36.4004],[-119.0325,36.3964],[-119.0335,36.3926],[-119.0408,36.3885],[-119.0458,36.3888],[-119.0546,36.3862],[-119.0589,36.3835],[-119.0823,36.3803],[-119.1092,36.367],[-119.1207,36.3653],[-119.1272,36.3617],[-119.1307,36.3628],[-119.1397,36.3578],[-119.1451,36.3507],[-119.1504,36.3484],[-119.1593,36.3478],[-119.1769,36.3568],[-119.1795,36.3566],[-119.1844,36.3592],[-119.1888,36.3567],[-119.1913,36.3583],[-119.2023,36.36],[-119.2113,36.3575],[-119.2161,36.3537],[-119.2171,36.3499],[-119.2204,36.3491],[-119.2203,36.3271],[-119.2191,36.3271],[-119.2247,36.3264],[-119.2247,36.3125],[-119.2426,36.3126],[-119.243,36.2837],[-119.2619,36.2838],[-119.2787,36.2856]],[[-119.2211,36.27973],[-119.22106,36.28107],[-119.21876,36.28105],[-119.21879,36.28649],[-119.2166,36.28651],[-119.21695,36.27689],[-119.21825,36.27676],[-119.2182,36.27958],[-119.2211,36.27973]],[[-119.22064,36.29786],[-119.22048,36.30531],[-119.21606,36.30531],[-119.21604,36.30892],[-119.21388,36.30893],[-119.21387,36.31241],[-119.21587,36.31243],[-119.21589,36.31964],[-119.21292,36.31966],[-119.21287,36.3247],[-119.21359,36.3247],[-119.21356,36.32672],[-119.21011,36.3265],[-119.20923,36.32533],[-119.20789,36.32564],[-119.20734,36.32493],[-119.20656,36.32641],[-119.2024,36.32652],[-119.20242,36.32128],[-119.20688,36.32132],[-119.20701,36.31582],[-119.20533,36.3158],[-119.20533,36.31245],[-119.19816,36.31243],[-119.19843,36.3078],[-119.19565,36.30514],[-119.19404,36.30512],[-119.19434,36.29749],[-119.20325,36.29752],[-119.20326,36.29053],[-119.20907,36.2905],[-119.20959,36.28794],[-119.21634,36.2882],[-119.21611,36.29779],[-119.22064,36.29786]],[[-119.16749,36.27079],[-119.16742,36.27227],[-119.16307,36.27228],[-119.16308,36.27562],[-119.16057,36.27564],[-119.16051,36.27077],[-119.16314,36.27077],[-119.16316,36.26842],[-119.16748,36.26846],[-119.16749,36.27079]],[[-119.16306,36.29755],[-119.16263,36.30485],[-119.15043,36.30455],[-119.14909,36.3071],[-119.14824,36.30694],[-119.1482,36.30586],[-119.15023,36.3045],[-119.14683,36.30259],[-119.14745,36.30448],[-119.1446,36.30449],[-119.14453,36.30626],[-119.13556,36.30618],[-119.13562,36.30523],[-119.13409,36.30523],[-119.13421,36.30345],[-119.13099,36.30342],[-119.13113,36.30087],[-119.12788,36.30082],[-119.12803,36.29701],[-119.12907,36.29703],[-119.12965,36.28978],[-119.13136,36.28981],[-119.13143,36.28711],[-119.13796,36.2869],[-119.13616,36.28353],[-119.14065,36.28357],[-119.14067,36.28265],[-119.14368,36.28268],[-119.14397,36.28633],[-119.14514,36.28631],[-119.14514,36.2827],[-119.15412,36.28276],[-119.15411,36.28629],[-119.15701,36.28634],[-119.15696,36.28996],[-119.15849,36.29001],[-119.15838,36.29561],[-119.15918,36.29561],[-119.15917,36.29739],[-119.16306,36.29755]]]},"properties":{"GEOID":"0610790940","NAME":"Exeter","COUNTY":"107"}},{"type":"Feature","geometry":{"type":"Polygon","coordinates":[[[-119.2882,36.3713],[-119.2431,36.3709],[-119.2428,36.3853],[-119.2249,36.3852],[-119.2251,36.3708],[-119.2156,36.3705],[-119.2161,36.3537],[-119.2113,36.3575],[-119.2023,36.36],[-119.1913,36.3583],[-119.1888,36.3567],[-119.1844,36.3592],[-119.1795,36.3566],[-119.1769,36.3568],[-119.1593,36.3478],[-119.1504,36.3484],[-119.1455,36.3504],[-119.1401,36.3574],[-119.1346,36.3603],[-119.1348,36.4003],[-119.1372,36.4011],[-119.1392,36.4039],[-119.13952861265193,36.413007264924964],[-119.13976,36.41301],[-119.14,36.4138],[-119.13955718201498,36.41379904441522],[-119.1399,36.4233],[-119.1465,36.4248],[-119.1508,36.4273],[-119.1623,36.4405],[-119.1693,36.4585],[-119.1698,36.4644],[-119.167,36.4719],[-119.1612,36.4723],[-119.1552,36.4754],[-119.1566,36.4851],[-119.2409,36.4862],[-119.2414,36.4502],[-119.2597,36.4503],[-119.2596,36.4575],[-119.2867,36.4577],[-119.2882,36.3713]]]},"properties":{"GEOID":"0610791420","NAME":"Ivanhoe","COUNTY":"107"}},{"type":"Feature","geometry":{"type":"Polygon","coordinates":[[[-119.573,36.4889],[-119.5272,36.4889],[-119.5283,36.4875],[-119.5288,36.4015],[-119.4749,36.401],[-119.475,36.3905],[-119.4736,36.3904],[-119.4703,36.3918],[-119.4686,36.3945],[-119.4641,36.3959],[-119.4586,36.3996],[-119.4584,36.4025],[-119.4532,36.4084],[-119.4466,36.4109],[-119.4416,36.4096],[-119.4368,36.4115],[-119.433,36.4141],[-119.4322,36.4164],[-119.4275,36.4188],[-119.4221,36.4258],[-119.4172,36.427],[-119.416,36.429],[-119.4106,36.4291],[-119.4036,36.4351],[-119.3837,36.4358],[-119.3808,36.4376],[-119.3738,36.4373],[-119.3634,36.4446],[-119.3605,36.4489],[-119.3563,36.4506],[-119.3447,36.4514],[-119.3422,36.4551],[-119.3315,36.4584],[-119.3308,36.4871],[-119.3136,36.487],[-119.3133,36.516],[-119.3225,36.5161],[-119.3227,36.5453],[-119.3182,36.5452],[-119.3186,36.5739],[-119.4663,36.5752],[-119.5372,36.5182],[-119.5463,36.5105],[-119.5463,36.5091],[-119.55,36.5079],[-119.5535,36.5049],[-119.5536,36.5034],[-119.5568,36.5034],[-119.5569,36.5021],[-119.573,36.4889]],[[-119.43962,36.53182],[-119.43956,36.53535],[-119.43947,36.54627],[-119.43027,36.54624],[-119.43031,36.54257],[-119.42395,36.54252],[-119.42402,36.53893],[-119.41729,36.53888],[-119.41728,36.5407],[-119.41266,36.54064],[-119.41267,36.5461],[-119.41732,36.5461],[-119.41731,36.55698],[-119.41278,36.55698],[-119.41297,36.5606],[-119.40387,36.56049],[-119.40385,36.56416],[-119.39961,36.5641],[-119.39964,36.56774],[-119.39747,36.56774],[-119.39743,36.57131],[-119.39263,36.57124],[-119.39217,36.56636],[-119.38627,36.5638],[-119.37697,36.5638],[-119.37694,36.55984],[-119.37302,36.5582],[-119.37303,36.55614],[-119.37698,36.55621],[-119.37694,36.5526],[-119.37316,36.55267],[-119.37316,36.54699],[-119.37203,36.547],[-119.37204,36.54633],[-119.36774,36.54636],[-119.36785,36.5419],[-119.36979,36.54189],[-119.36984,36.5383],[-119.37219,36.53827],[-119.3722,36.53112],[-119.3796,36.53107],[-119.37963,36.52915],[-119.38134,36.52922],[-119.38135,36.52749],[-119.3904,36.52775],[-119.39041,36.52634],[-119.39491,36.52641],[-119.39494,36.5277],[-119.40387,36.52785],[-119.40385,36.5315],[-119.43962,36.53182]]]},"properties":{"GEOID":"0610790690","NAME":"Dinuba","COUNTY":"107"}},{"type":"Feature","geometry":{"type":"Polygon","coordinates":[[[-119.5381,35.7899],[-119.0534,35.7908],[-119.0537,35.8591],[-119.052,35.8668],[-119.0534,35.8721],[-119.0535,35.8917],[-119.2504,35.8919],[-119.2505,35.9193],[-119.2551,35.9158],[-119.2598,35.9155],[-119.2667,35.9128],[-119.2745,35.9125],[-119.2776,35.9139],[-119.289,35.9144],[-119.3038,35.9124],[-119.3037,35.9208],[-119.3399,35.9208],[-119.3399,35.9498],[-119.3845,35.9497],[-119.3849,35.9425],[-119.4422,35.9419],[-119.4263,35.9201],[-119.4292,35.9204],[-119.4471,35.9346],[-119.5377,35.9348],[-119.5381,35.7971],[-119.5381,35.7899]]]},"properties":{"GEOID":"0610790760","NAME":"Earlimart","COUNTY":"107"}}]}