{"type":"FeatureCollection","features":[{"type":"Feature","geometry":{"type":"Polygon","coordinates":[[[-120.5711,37.772],[-120.3876,37.6337],[-120.385,37.6351],[-120.3832,37.6419],[-120.3811,37.6417],[-120.381,37.6438],[-120.3778,37.6469],[-120.3751,37.6522],[-120.3794,37.6568],[-120.3843,37.658],[-120.3892,37.6632],[-120.3906,37.6665],[-120.3941,37.6681],[-120.3927,37.6699],[-120.3954,37.6721],[-120.3944,37.675],[-120.3925,37.6754],[-120.3936,37.6795],[-120.3917,37.6798],[-120.3919,37.6836],[-120.3866,37.6848],[-120.3797,37.681],[-120.3765,37.682],[-120.3745,37.6803],[-120.3698,37.6796],[-120.3663,37.6808],[-120.365,37.6771],[-120.3626,37.6755],[-120.3625,37.6728],[-120.3572,37.6753],[-120.3529,37.6748],[-120.3451,37.6678],[-120.3433,37.6631],[-120.3353,37.659],[-120.3321,37.6528],[-120.3267,37.6492],[-120.3214,37.65],[-120.3098,37.656],[-120.3123,37.6629],[-120.3064,37.6658],[-120.3104,37.6731],[-120.3176,37.6814],[-120.3195,37.6864],[-120.3226,37.6873],[-120.3298,37.6973],[-120.3302,37.6996],[-120.3327,37.702],[-120.3318,37.7029],[-120.3333,37.7068],[-120.3381,37.7091],[-120.3406,37.7155],[-120.3398,37.7171],[-120.3431,37.721],[-120.3425,37.7228],[-120.3454,37.7248],[-120.3441,37.7265],[-120.3356,37.7265],[-120.3353,37.7278],[-120.3323,37.7296],[-120.3283,37.7283],[-120.3261,37.7261],[-120.3212,37.726],[-120.3155,37.7338],[-120.3096,37.7342],[-120.3077,37.7356],[-120.3057,37.7342],[-120.2959,37.7334],[-120.2865,37.7294],[-120.2838,37.7336],[-120.2868,37.7399],[-120.2824,37.7454],[-120.2761,37.739],[-120.2601,37.7337],[-120.2579,37.7352],[-120.2604,37.7367],[-120.2617,37.7407],[-120.2578,37.744],[-120.2572,37.7478],[-120.2533,37.7507],[-120.2476,37.7497],[-120.2397,37.7535],[-120.2389,37.7559],[-120.2409,37.7585],[-120.2382,37.7653],[-120.2358,37.7638],[-120.2307,37.7638],[-120.2268,37.7603],[-120.2242,37.7636],[-120.2229,37.7624],[-120.217,37.7628],[-120.216,37.7653],[-120.2119,37.765],[-120.2095,37.7632],[-120.2011,37.7632],[-120.1981,37.7653],[-120.1977,37.7696],[-120.1937,37.7698],[-120.1914,37.7675],[-120.1891,37.7679],[-120.1869,37.7723],[-120.1835,37.7749],[-120.1887,37.7802],[-120.1834,37.783],[-120.1806,37.7884],[-120.183,37.7932],[-120.1826,37.7952],[-120.1784,37.7947],[-120.1742,37.7994],[-120.173,37.7982],[-120.173,37.795],[-120.1618,37.7874],[-120.1538,37.7884],[-120.1469,37.7863],[-120.1421,37.783],[-120.1272,37.7816],[-120.1243,37.7855],[-120.1194,37.7859],[-120.12,37.7896],[-120.1181,37.7899],[-120.1158,37.7932],[-120.1114,37.7942],[-120.1062,37.799],[-120.1007,37.8007],[-120.1013,37.8025],[-120.0987,37.8047],[-120.0987,37.8077],[-120.0937,37.8082],[-120.0936,37.8099],[-120.0903,37.8107],[-120.0889,37.8125],[-120.092,37.8156],[-120.0907,37.816],[-120.0905,37.8221],[-120.0854,37.8235],[-120.0854,37.8267],[-120.0809,37.8285],[-120.0722,37.8267],[-120.0652,37.8229],[-120.0616,37.826],[-120.0586,37.8249],[-120.0557,37.8181],[-120.0387,37.8219],[-120.0293,37.8212],[-120.0228,37.8229],[-120.0203,37.8251],[-120.0166,37.8225],[-120.0134,37.8232],[-120.0163,37.8239],[-120.019,37.8284],[-120.0319,37.8249],[-120.0354,37.8266],[-120.0372,37.8259],[-120.0409,37.829],[-120.0413,37.8321],[-120.0439,37.8356],[-120.048,37.8383],[-120.0481,37.8406],[-120.0506,37.8399],[-120.0557,37.8354],[-120.0609,37.8389],[-120.0663,37.8356],[-120.0746,37.8418],[-120.0801,37.8384],[-120.0865,37.8379],[-120.0942,37.8404],[-120.1005,37.8394],[-120.1033,37.8375],[-120.1091,37.8466],[-120.1168,37.8543],[-120.1152,37.8588],[-120.1162,37.8631],[-120.1203,37.8662],[-120.1273,37.8662],[-120.1416,37.8765],[-120.1419,37.8815],[-120.145,37.8847],[-120.1472,37.8853],[-120.1532,37.8839],[-120.1604,37.8904],[-120.1699,37.8924],[-120.1738,37.8967],[-120.1765,37.8977],[-120.1854,37.8979],[-120.1952,37.8951],[-120.2056,37.8949],[-120.2139,37.8983],[-120.2184,37.8939],[-120.2227,37.8929],[-120.2259,37.9001],[-120.2316,37.902],[-120.2421,37.8956],[-120.2458,37.8949],[-120.2624,37.8978],[-120.2701,37.8894],[-120.2765,37.8866],[-120.2812,37.8828],[-120.2919,37.8804],[-120.2983,37.8735],[-120.3014,37.8737],[-120.3075,37.877],[-120.3118,37.8765],[-120.3136,37.8773],[-120.3151,37.8811],[-120.3171,37.8819],[-120.3298,37.8786],[-120.3405,37.8695],[-120.3394,37.8642],[-120.3344,37.8609],[-120.3331,37.8531],[-120.3395,37.8419],[-120.3449,37.8366],[-120.343,37.8332],[-120.3439,37.8307],[-120.3453,37.8292],[-120.3548,37.832],[-120.3689,37.8398],[-120.3768,37.839],[-120.3775,37.8335],[-120.3812,37.8297],[-120.3801,37.8283],[-120.3831,37.8276],[-120.3824,37.8269],[-120.3862,37.8242],[-120.3854,37.8239],[-120.3865,37.8216],[-120.3887,37.8235],[-120.3931,37.8209],[-120.3947,37.8151],[-120.3904,37.8169],[-120.3916,37.8141],[-120.3965,37.81],[-120.4029,37.8096],[-120.4038,37.8072],[-120.4023,37.8059],[-120.4047,37.8061],[-120.4067,37.8042],[-120.3993,37.8014],[-120.3984,37.7997],[-120.45,37.7896],[-120.5711,37.772]]]},"properties":{"GEOID":"0610991190","NAME":"Groveland","COUNTY":"109"}},{"type":"Feature","geometry":{"type":"Polygon","coordinates":[[[-120.6533,37.8321],[-120.5711,37.772],[-120.45,37.7896],[-120.3984,37.7997],[-120.3993,37.8014],[-120.4067,37.8042],[-120.4047,37.8061],[-120.4023,37.8059],[-120.4038,37.8072],[-120.4029,37.8096],[-120.3965,37.81],[-120.3916,37.8141],[-120.3904,37.8169],[-120.3947,37.8151],[-120.3931,37.8209],[-120.3887,37.8235],[-120.3865,37.8216],[-120.3854,37.8239],[-120.3862,37.8242],[-120.3824,37.8269],[-120.3831,37.8276],[-120.3801,37.8283],[-120.3812,37.8297],[-120.3775,37.8335],[-120.3768,37.839],[-120.3679,37.8395],[-120.3556,37.8323],[-120.3453,37.8292],[-120.3431,37.8321],[-120.3438,37.8351],[-120.3472,37.8395],[-120.3514,37.8422],[-120.3582,37.8499],[-120.3746,37.8569],[-120.3825,37.8642],[-120.3878,37.8726],[-120.3839,37.8751],[-120.3794,37.8748],[-120.3813,37.8788],[-120.377,37.8845],[-120.3722,37.8844],[-120.3629,37.8929],[-120.3612,37.9018],[-120.3505,37.906],[-120.3504,37.9121],[-120.3488,37.9162],[-120.3431,37.9182],[-120.343,37.9234],[-120.3414,37.9272],[-120.3388,37.9287],[-120.3383,37.9311],[-120.3351,37.9334],[-120.3323,37.9423],[-120.3303,37.9421],[-120.3288,37.9444],[-120.3281,37.9549],[-120.3213,37.9585],[-120.3365,37.9699],[-120.3462,37.9748],[-120.3577,37.9764],[-120.3628,37.9719],[-120.36336127647637,37.97172627156684],[-120.36385,37.97134],[-120.36603044042815,37.970900101772244],[-120.367,37.9706],[-120.36704475032882,37.97069546736814],[-120.37644,37.9688],[-120.38331,37.96512],[-120.39394,37.96516],[-120.39527,37.97077],[-120.39466,37.9735],[-120.3927,37.97654],[-120.39545,37.97702],[-120.39552,37.98425],[-120.39799,37.98442],[-120.40149,37.98748],[-120.40196,37.98953],[-120.39921,37.9895],[-120.39993,37.99176],[-120.3911,37.99159],[-120.3903,37.99347],[-120.39201,37.99622],[-120.39084,37.99668],[-120.39364,38.00012],[-120.39123,38.0017],[-120.39266,38.00225],[-120.39231,38.00521],[-120.3888,38.00518],[-120.38876,38.00441],[-120.38791,38.00441],[-120.38784,38.00252],[-120.38429,38.0027],[-120.38397,38.00211],[-120.38318,37.99365],[-120.37725,37.99382],[-120.37722,37.99178],[-120.37245,37.99218],[-120.37014,37.9895],[-120.36818,37.99045],[-120.36708,37.98832],[-120.36897,37.98715],[-120.36696,37.98587],[-120.36694993547346,37.985732056783355],[-120.3646,37.9878],[-120.3536,37.9878],[-120.3429,37.9845],[-120.3409,37.9859],[-120.3403,37.9886],[-120.3435,37.9914],[-120.3392,37.9931],[-120.3364,37.9928],[-120.3589,38.02],[-120.3789,38.0361],[-120.3777,38.0284],[-120.3799,38.0229],[-120.3875,38.0196],[-120.3958,38.0183],[-120.3963,38.015],[-120.3947,38.0137],[-120.4066,38.0108],[-120.4163,38.0117],[-120.4214,38.0103],[-120.435,37.994],[-120.4417,37.9881],[-120.4562,37.9917],[-120.4607,37.9916],[-120.4641,37.99],[-120.4689,37.9925],[-120.4689,37.9902],[-120.4725,37.9892],[-120.4878,37.9995],[-120.5002,38.0041],[-120.4994,37.9962],[-120.5045,37.9911],[-120.5069,37.991],[-120.51,37.992],[-120.514,37.9964],[-120.5095,37.9985],[-120.5111,38.0026],[-120.5135,38.0041],[-120.5168,38.0038],[-120.5189,38.0022],[-120.5217,37.9952],[-120.535,37.9909],[-120.5277,37.9839],[-120.5281,37.9822],[-120.5395,37.9793],[-120.5425,37.9776],[-120.5433,37.9757],[-120.5409,37.9743],[-120.5311,37.9763],[-120.528,37.9757],[-120.5277,37.9709],[-120.5264,37.9693],[-120.5176,37.9653],[-120.5158,37.9634],[-120.5134,37.9579],[-120.515,37.9534],[-120.5352,37.9444],[-120.5367,37.94],[-120.54,37.9358],[-120.5373,37.9301],[-120.5376,37.9269],[-120.5426,37.9202],[-120.5511,37.9217],[-120.556,37.9162],[-120.5622,37.9141],[-120.5641,37.9036],[-120.5708,37.8948],[-120.573,37.8941],[-120.5824,37.8961],[-120.5875,37.8952],[-120.5902,37.8917],[-120.5967,37.8881],[-120.5964,37.8829],[-120.6053,37.876],[-120.6047,37.8732],[-120.617,37.8701],[-120.6338,37.8606],[-120.6379,37.8527],[-120.6379,37.8478],[-120.6433,37.8445],[-120.6432,37.8408],[-120.6487,37.8376],[-120.6533,37.8321]]]},"properties":{"GEOID":"0610993080","NAME":"Sonora","COUNTY":"109"}},{"type":"Feature","geometry":{"type":"Polygon","coordinates":[[[-120.5004,38.0066],[-120.5002,38.0041],[-120.4878,37.9995],[-120.4726,37.9892],[-120.4689,37.9902],[-120.4689,37.9925],[-120.4641,37.99],[-120.4607,37.9916],[-120.4562,37.9917],[-120.4417,37.9881],[-120.435,37.994],[-120.4214,38.0103],[-120.4163,38.0117],[-120.4066,38.0108],[-120.3947,38.0137],[-120.3963,38.015],[-120.3958,38.0183],[-120.3875,38.0196],[-120.3799,38.0229],[-120.3777,38.0284],[-120.3789,38.0361],[-120.3592,38.0203],[-120.3485,38.0076],[-120.3407,38.0066],[-120.3354,38.011],[-120.3362,38.0145],[-120.3351,38.0165],[-120.3278,38.0188],[-120.3273,38.0208],[-120.3293,38.023],[-120.3308,38.0285],[-120.3321,38.0291],[-120.3312,38.0292],[-120.3319,38.032],[-120.3349,38.0378],[-120.3349,38.04291304347826],[-120.3385,38.0426],[-120.3432,38.0442],[-120.3392,38.0466],[-120.3352,38.0467],[-120.332,38.0493],[-120.3262,38.0496],[-120.3237,38.0518],[-120.3196,38.0517],[-120.3175,38.0534],[-120.3171,38.0491],[-120.3182,38.0464],[-120.3163,38.0458],[-120.3124,38.0494],[-120.3062,38.0512],[-120.3037,38.0538],[-120.3035,38.0566],[-120.3005,38.0569],[-120.3008,38.0555],[-120.2991,38.0548],[-120.2966,38.0553],[-120.297,38.0568],[-120.2949,38.0583],[-120.2934,38.0576],[-120.2933,38.0563],[-120.2954,38.0546],[-120.2931,38.0533],[-120.2937,38.0516],[-120.2891,38.0514],[-120.2881,38.053],[-120.2836,38.0541],[-120.2844,38.0549],[-120.2802,38.0559],[-120.2808,38.0611],[-120.2763,38.0589],[-120.273,38.06],[-120.2716,38.0591],[-120.2721,38.0609],[-120.271,38.0616],[-120.267,38.0611],[-120.2651,38.0564],[-120.2647,38.0466],[-120.2663,38.041],[-120.2694,38.0382],[-120.2719,38.0331],[-120.2646,38.0321],[-120.2644,38.031],[-120.2535,38.026],[-120.2565,38.0212],[-120.2577,38.0162],[-120.2613,38.0125],[-120.2583,38.0105],[-120.2591,38.0085],[-120.2622,38.0038],[-120.2702,37.9979],[-120.2646,37.9937],[-120.2638,37.9907],[-120.2652,37.9871],[-120.2639,37.9847],[-120.2652,37.9823],[-120.2764,37.9739],[-120.2712,37.9653],[-120.2752,37.9659],[-120.2807,37.965],[-120.2832,37.9633],[-120.2844,37.9639],[-120.2818,37.9507],[-120.2748,37.9456],[-120.2734,37.9431],[-120.273,37.9378],[-120.2715,37.9353],[-120.2722,37.9307],[-120.2794,37.9163],[-120.2837,37.9147],[-120.2854,37.9121],[-120.2927,37.9104],[-120.2927,37.9077],[-120.2961,37.9002],[-120.2921,37.8975],[-120.2924,37.889],[-120.2942,37.8835],[-120.2985,37.879],[-120.2992,37.8764],[-120.3035,37.8793],[-120.3011,37.8767],[-120.3021,37.8754],[-120.2983,37.8747],[-120.2898,37.8816],[-120.2802,37.8833],[-120.2765,37.8866],[-120.2701,37.8894],[-120.2617,37.898],[-120.2458,37.8949],[-120.2421,37.8956],[-120.2316,37.902],[-120.2259,37.9001],[-120.2236,37.8935],[-120.2224,37.8929],[-120.2181,37.8941],[-120.2139,37.8983],[-120.2056,37.8949],[-120.1952,37.8951],[-120.1854,37.8979],[-120.1754,37.8976],[-120.1699,37.8924],[-120.1604,37.8904],[-120.1532,37.8839],[-120.1472,37.8853],[-120.145,37.8847],[-120.1419,37.8815],[-120.1418,37.8767],[-120.133,37.8701],[-120.1259,37.8655],[-120.1193,37.8659],[-120.1162,37.8631],[-120.1155,37.8606],[-120.1165,37.8536],[-120.1091,37.8466],[-120.1033,37.8375],[-120.1005,37.8394],[-120.0942,37.8404],[-120.0865,37.8379],[-120.0801,37.8384],[-120.0746,37.8418],[-120.0663,37.8356],[-120.0609,37.8389],[-120.0557,37.8354],[-120.0506,37.8399],[-120.0481,37.8406],[-120.048,37.8383],[-120.0439,37.8356],[-120.0413,37.8321],[-120.0409,37.829],[-120.0372,37.8259],[-120.0354,37.8266],[-120.0319,37.8249],[-120.019,37.8284],[-120.0163,37.8239],[-120.0134,37.8232],[-120.0166,37.8225],[-120.0201,37.8252],[-120.0228,37.8229],[-120.0296,37.8211],[-120.0387,37.8219],[-120.0454,37.8197],[-120.0502,37.8198],[-120.0557,37.8181],[-120.0551,37.8128],[-120.0489,37.8112],[-120.0467,37.8132],[-120.0446,37.813],[-120.0382,37.8103],[-120.0363,37.8079],[-120.0319,37.8111],[-120.0254,37.8115],[-120.0131,37.8037],[-120.0068,37.8017],[-120.0036,37.7989],[-120.001,37.7987],[-119.9984,37.7962],[-119.9802,37.789],[-119.9718,37.784],[-119.9649,37.7828],[-119.955,37.7732],[-119.9506,37.7705],[-119.9476,37.7704],[-119.9448,37.7649],[-119.9362,37.7628],[-119.9304,37.7633],[-119.9291,37.7648],[-119.918,37.7622],[-119.9152,37.7626],[-119.907,37.7579],[-119.9012,37.7578],[-119.9001,37.7603],[-119.8943,37.7621],[-119.8849,37.7607],[-119.8811,37.763],[-119.8778,37.763],[-119.8729,37.7666],[-119.8731,37.7694],[-119.8757,37.7722],[-119.8719,37.7734],[-119.8645,37.7722],[-119.8606,37.7644],[-119.8539,37.7612],[-119.852,37.7577],[-119.8487,37.7585],[-119.8458,37.7626],[-119.8411,37.7642],[-119.8422,37.7691],[-119.8379,37.7702],[-119.8279,37.7682],[-119.8273,37.7644],[-119.8248,37.7619],[-119.8228,37.7619],[-119.8207,37.7598],[-119.8129,37.7583],[-119.8094,37.755],[-119.8078,37.755],[-119.805,37.7564],[-119.8052,37.7601],[-119.7979,37.7614],[-119.7915,37.7646],[-119.7861,37.7658],[-119.7845,37.7639],[-119.7811,37.7634],[-119.7779,37.7658],[-119.772,37.7667],[-119.772,37.7689],[-119.769,37.7711],[-119.7626,37.7703],[-119.7592,37.7727],[-119.7552,37.7721],[-119.751,37.7733],[-119.746,37.7829],[-119.7388,37.7845],[-119.7339,37.7879],[-119.7271,37.7869],[-119.7227,37.7876],[-119.7168,37.7917],[-119.7098,37.7935],[-119.6996,37.7891],[-119.6957,37.792],[-119.6914,37.7995],[-119.6897,37.8002],[-119.6706,37.8002],[-119.6672,37.8012],[-119.6599,37.8094],[-119.6539,37.8104],[-119.6509,37.8208],[-119.6535,37.8288],[-119.6573,37.8318],[-119.6577,37.8341],[-119.6524,37.8389],[-119.6486,37.845],[-119.6462,37.8468],[-119.6381,37.8491],[-119.6325,37.8475],[-119.625,37.8477],[-119.623,37.8485],[-119.6191,37.8532],[-119.6119,37.8542],[-119.6102,37.8532],[-119.6063,37.8571],[-119.5994,37.8599],[-119.592,37.8661],[-119.5849,37.8749],[-119.5845,37.8762],[-119.5873,37.8787],[-119.5858,37.8847],[-119.5864,37.8901],[-119.5816,37.8937],[-119.5709,37.8974],[-119.5659,37.9017],[-119.5586,37.9031],[-119.5567,37.9009],[-119.5357,37.9041],[-119.534,37.9029],[-119.5336,37.8971],[-119.5312,37.895],[-119.5298,37.8911],[-119.5238,37.8867],[-119.5153,37.8844],[-119.5082,37.8767],[-119.5038,37.8686],[-119.4996,37.8676],[-119.4923,37.8631],[-119.4869,37.8649],[-119.4841,37.8644],[-119.4812,37.8608],[-119.4769,37.8596],[-119.4743,37.8556],[-119.4703,37.863],[-119.466,37.8646],[-119.4628,37.8684],[-119.4515,37.871],[-119.4486,37.8685],[-119.4439,37.8692],[-119.442,37.8675],[-119.4427,37.8598],[-119.4393,37.8602],[-119.4342,37.8651],[-119.4268,37.8667],[-119.4249,37.8655],[-119.422,37.8577],[-119.4155,37.8546],[-119.4073,37.8549],[-119.4051,37.8482],[-119.4047,37.8372],[-119.4027,37.8352],[-119.4006,37.8347],[-119.3926,37.8379],[-119.3837,37.8365],[-119.3798,37.8409],[-119.3771,37.8397],[-119.3755,37.8409],[-119.3738,37.8397],[-119.3739,37.8352],[-119.3726,37.8329],[-119.3514,37.8255],[-119.3528,37.8175],[-119.3554,37.8138],[-119.355,37.8118],[-119.349,37.8108],[-119.3459,37.8056],[-119.3394,37.8055],[-119.3319,37.7992],[-119.327,37.7994],[-119.3218,37.794],[-119.3112,37.7935],[-119.3105,37.7856],[-119.3073,37.7828],[-119.3112,37.7786],[-119.3091,37.7783],[-119.3083,37.7757],[-119.2934,37.7679],[-119.2941,37.7597],[-119.2891,37.755],[-119.2896,37.7499],[-119.2907,37.7493],[-119.2884,37.745],[-119.2821,37.7438],[-119.2718,37.7392],[-119.2612,37.741],[-119.2604,37.7427],[-119.2559,37.745],[-119.2543,37.7481],[-119.2557,37.7538],[-119.255,37.7563],[-119.2502,37.7574],[-119.2431,37.7691],[-119.2366,37.7736],[-119.2308,37.7744],[-119.2292,37.7776],[-119.221,37.7793],[-119.2153,37.7899],[-119.2115,37.7921],[-119.2044,37.7932],[-119.2016,37.8005],[-119.2013,37.8043],[-119.2033,37.8061],[-119.205,37.8115],[-119.2077,37.8121],[-119.2169,37.8187],[-119.2133,37.825],[-119.2052,37.828],[-119.204,37.8298],[-119.2069,37.8399],[-119.2023,37.8429],[-119.1962,37.844],[-119.2018,37.8475],[-119.2105,37.8456],[-119.2155,37.847],[-119.2169,37.8496],[-119.216,37.8532],[-119.2134,37.8548],[-119.2126,37.8569],[-119.2141,37.8715],[-119.2091,37.8808],[-119.2064,37.8835],[-119.2008,37.8832],[-119.2008,37.8874],[-119.2077,37.8898],[-119.2107,37.8939],[-119.2097,37.8975],[-119.2108,37.8994],[-119.2199,37.8986],[-119.2267,37.9066],[-119.2345,37.9103],[-119.2398,37.9118],[-119.2417,37.9102],[-119.2479,37.9101],[-119.2639,37.9122],[-119.2657,37.9151],[-119.264,37.9265],[-119.2806,37.9338],[-119.2879,37.933],[-119.2939,37.9384],[-119.2959,37.9427],[-119.3084,37.9468],[-119.3097,37.9499],[-119.3131,37.953],[-119.3147,37.9581],[-119.3146,37.9641],[-119.322,37.969],[-119.3226,37.971],[-119.3186,37.9776],[-119.3147,37.9811],[-119.3143,37.9826],[-119.3184,37.9864],[-119.3099,38.0012],[-119.3106,38.0034],[-119.307,38.0123],[-119.3087,38.0152],[-119.3082,38.0195],[-119.3046,38.0239],[-119.3072,38.0275],[-119.3089,38.0332],[-119.314,38.0345],[-119.3106,38.0402],[-119.3112,38.0448],[-119.3226,38.0499],[-119.3242,38.0609],[-119.3279,38.0657],[-119.3341,38.0652],[-119.3358,38.0663],[-119.3373,38.0682],[-119.3367,38.0704],[-119.3459,38.0831],[-119.3498,38.0856],[-119.3571,38.083],[-119.3612,38.0864],[-119.3614,38.0883],[-119.3651,38.0902],[-119.3711,38.0886],[-119.374,38.0909],[-119.3746,38.0935],[-119.3802,38.0925],[-119.3828,38.0977],[-119.3899,38.0991],[-119.397,38.1068],[-119.4025,38.1056],[-119.4126,38.1079],[-119.4192,38.1067],[-119.424,38.1074],[-119.4257,38.1117],[-119.4305,38.1163],[-119.4356,38.1082],[-119.4416,38.1027],[-119.4405,38.0957],[-119.4459,38.0931],[-119.4493,38.0996],[-119.4544,38.0961],[-119.4598,38.0963],[-119.4637,38.0983],[-119.4645,38.1036],[-119.4591,38.1076],[-119.4574,38.1106],[-119.4621,38.1091],[-119.4668,38.114],[-119.4728,38.117],[-119.4695,38.1283],[-119.4747,38.1289],[-119.4791,38.1311],[-119.4885,38.1322],[-119.4891,38.1434],[-119.497,38.1493],[-119.4965,38.1567],[-119.5029,38.159],[-119.5045,38.1581],[-119.5056,38.1537],[-119.5078,38.1526],[-119.5063,38.1508],[-119.5052,38.1422],[-119.5065,38.1371],[-119.5155,38.1374],[-119.5167,38.1391],[-119.5255,38.1408],[-119.5312,38.1445],[-119.5419,38.1447],[-119.5468,38.1433],[-119.548,38.1481],[-119.5455,38.1531],[-119.5469,38.1544],[-119.5638,38.154],[-119.5667,38.1572],[-119.5765,38.1577],[-119.5813,38.1725],[-119.579,38.1738],[-119.5786,38.1769],[-119.5856,38.1844],[-119.5923,38.1851],[-119.5983,38.1816],[-119.6056,38.1884],[-119.6116,38.1908],[-119.6195,38.1911],[-119.6279,38.1949],[-119.6327,38.1989],[-119.6309,38.2039],[-119.6264,38.2047],[-119.625,38.2069],[-119.6271,38.2132],[-119.6254,38.2151],[-119.6267,38.2194],[-119.6235,38.2204],[-119.6248,38.2239],[-119.6238,38.2245],[-119.6244,38.2287],[-119.6191,38.2295],[-119.6148,38.2327],[-119.6093,38.2324],[-119.6049,38.2342],[-119.6046,38.2388],[-119.614,38.2428],[-119.6184,38.2494],[-119.6217,38.2519],[-119.6204,38.2549],[-119.6129,38.2591],[-119.6132,38.2614],[-119.6302,38.2687],[-119.6319,38.2726],[-119.6361,38.2755],[-119.6378,38.2784],[-119.6428,38.2785],[-119.6515,38.2865],[-119.6489,38.2891],[-119.6446,38.2909],[-119.6425,38.2938],[-119.6444,38.2996],[-119.6422,38.3064],[-119.6431,38.3099],[-119.6424,38.3156],[-119.6448,38.3169],[-119.6452,38.3206],[-119.6392,38.3269],[-119.6695,38.3483],[-119.7,38.3652],[-119.6936,38.3789],[-119.6985,38.4093],[-119.7041,38.4154],[-119.7129,38.4185],[-119.7506,38.4174],[-119.7629,38.4118],[-119.7706,38.4067],[-119.7799,38.4077],[-119.7845,38.4049],[-119.8014,38.4015],[-119.8147,38.3875],[-119.8376,38.3824],[-119.855,38.3725],[-119.8697,38.3676],[-119.8825,38.3593],[-119.8847,38.3562],[-120.02,38.4335],[-120.0299,38.4247],[-120.0364,38.4246],[-120.0406,38.4259],[-120.0428,38.423],[-120.0462,38.4221],[-120.049,38.4194],[-120.0554,38.4188],[-120.0571,38.4171],[-120.0623,38.4167],[-120.0643,38.4148],[-120.0679,38.4155],[-120.0703,38.4133],[-120.0736,38.4136],[-120.0735,38.4117],[-120.0757,38.4121],[-120.0808,38.4101],[-120.0879,38.4034],[-120.0955,38.4033],[-120.099,38.4015],[-120.1052,38.4009],[-120.1082,38.4021],[-120.1156,38.4012],[-120.1282,38.3958],[-120.1339,38.3968],[-120.1363,38.3956],[-120.137,38.3933],[-120.1419,38.3938],[-120.149,38.3889],[-120.158,38.3858],[-120.1612,38.3809],[-120.1668,38.3798],[-120.1705,38.3759],[-120.1736,38.3755],[-120.1741,38.3735],[-120.1765,38.3738],[-120.1766,38.3711],[-120.1822,38.3661],[-120.1848,38.3588],[-120.1895,38.3568],[-120.1909,38.3501],[-120.1937,38.349],[-120.1962,38.3429],[-120.1999,38.3392],[-120.2052,38.3296],[-120.214,38.3229],[-120.223,38.3196],[-120.2257,38.3154],[-120.2285,38.3147],[-120.2316,38.3075],[-120.2342,38.3061],[-120.2343,38.304],[-120.2373,38.3016],[-120.2367,38.2987],[-120.247,38.2902],[-120.2519,38.287],[-120.2561,38.2861],[-120.262,38.2764],[-120.2664,38.2722],[-120.2708,38.2707],[-120.274,38.2644],[-120.2724,38.2598],[-120.2759,38.2588],[-120.2822,38.2521],[-120.2851,38.251],[-120.2868,38.2475],[-120.2898,38.2459],[-120.2912,38.234],[-120.3015,38.2297],[-120.3073,38.2247],[-120.3102,38.2184],[-120.3156,38.2127],[-120.3173,38.2073],[-120.3219,38.2013],[-120.3251,38.1994],[-120.3264,38.1959],[-120.3303,38.1952],[-120.332,38.1886],[-120.3356,38.1879],[-120.3355,38.185],[-120.3395,38.1839],[-120.3372,38.1781],[-120.3405,38.1776],[-120.3405,38.1719],[-120.3448,38.1701],[-120.3499,38.1702],[-120.3536,38.1638],[-120.3595,38.1613],[-120.3603,38.1599],[-120.3579,38.1581],[-120.3575,38.1539],[-120.3676,38.1528],[-120.3715,38.1499],[-120.3726,38.1466],[-120.3762,38.1426],[-120.3712,38.1405],[-120.3714,38.1379],[-120.3787,38.1348],[-120.3782,38.1308],[-120.3836,38.1265],[-120.3872,38.116],[-120.3959,38.1099],[-120.4019,38.1078],[-120.4096,38.103],[-120.4105,38.1012],[-120.4094,38.0952],[-120.4106,38.0879],[-120.4146,38.084],[-120.4146,38.0819],[-120.4215,38.0787],[-120.4243,38.0757],[-120.4247,38.0729],[-120.4308,38.0734],[-120.4312,38.0605],[-120.4338,38.0594],[-120.4391,38.0608],[-120.4425,38.0587],[-120.4434,38.0517],[-120.4539,38.0413],[-120.4537,38.0384],[-120.461,38.0278],[-120.4621,38.0224],[-120.4688,38.0196],[-120.4693,38.0155],[-120.4673,38.0136],[-120.4639,38.0134],[-120.4628,38.0119],[-120.4637,38.0104],[-120.4669,38.0094],[-120.4738,38.0124],[-120.4828,38.0124],[-120.4882,38.0091],[-120.4928,38.0111],[-120.4967,38.0082],[-120.4998,38.0079],[-120.5004,38.0066]]]},"properties":{"GEOID":"0610993470","NAME":"Twain Harte-Tuolumne City","COUNTY":"109"}},{"type":"Feature","geometry":{"type":"Polygon","coordinates":[[[-120.3878,37.8727],[-120.3825,37.8642],[-120.3749,37.8571],[-120.3698,37.854],[-120.3587,37.8504],[-120.3449,37.8366],[-120.3395,37.8419],[-120.3331,37.8531],[-120.3344,37.8609],[-120.3394,37.8642],[-120.3406,37.8665],[-120.3391,37.8715],[-120.3298,37.8786],[-120.3195,37.8818],[-120.3151,37.8811],[-120.3136,37.8773],[-120.3118,37.8765],[-120.3069,37.8768],[-120.3008,37.8735],[-120.2975,37.8739],[-120.2955,37.8769],[-120.2978,37.8749],[-120.3004,37.8747],[-120.3021,37.8754],[-120.3011,37.8767],[-120.3035,37.8792],[-120.2993,37.8763],[-120.2985,37.879],[-120.2938,37.8845],[-120.292,37.8974],[-120.2961,37.9002],[-120.2927,37.9077],[-120.2927,37.9104],[-120.2854,37.9121],[-120.2837,37.9147],[-120.2794,37.9163],[-120.2723,37.9306],[-120.2715,37.9352],[-120.2746,37.9455],[-120.2816,37.9504],[-120.2827,37.9527],[-120.2844,37.9639],[-120.2832,37.9633],[-120.2807,37.965],[-120.2752,37.9659],[-120.2712,37.9653],[-120.2764,37.9739],[-120.2652,37.9823],[-120.2639,37.9847],[-120.2652,37.9871],[-120.2638,37.9907],[-120.2646,37.9937],[-120.2702,37.9979],[-120.2622,38.0038],[-120.2591,38.0085],[-120.2583,38.0105],[-120.2613,38.0125],[-120.2577,38.0162],[-120.2565,38.0212],[-120.2535,38.026],[-120.2644,38.031],[-120.2646,38.0321],[-120.2719,38.0331],[-120.2694,38.0382],[-120.2663,38.041],[-120.2647,38.0466],[-120.2651,38.0564],[-120.267,38.0611],[-120.271,38.0616],[-120.2721,38.0609],[-120.2716,38.0591],[-120.273,38.06],[-120.2763,38.0589],[-120.2808,38.0611],[-120.2802,38.0559],[-120.2844,38.0549],[-120.2836,38.0541],[-120.2881,38.053],[-120.2891,38.0514],[-120.2937,38.0516],[-120.2931,38.0533],[-120.2954,38.0546],[-120.2933,38.0563],[-120.2934,38.0576],[-120.2949,38.0583],[-120.297,38.0568],[-120.2966,38.0553],[-120.2991,38.0548],[-120.3008,38.0555],[-120.3005,38.0569],[-120.3035,38.0566],[-120.3037,38.0538],[-120.3062,38.0512],[-120.3124,38.0494],[-120.3163,38.0458],[-120.3182,38.0464],[-120.3171,38.0491],[-120.3175,38.0534],[-120.3196,38.0517],[-120.3237,38.0518],[-120.3262,38.0496],[-120.332,38.0493],[-120.3352,38.0467],[-120.3392,38.0466],[-120.3432,38.0442],[-120.3385,38.0426],[-120.3349,38.04291304347826],[-120.3349,38.0378],[-120.3319,38.032],[-120.3312,38.0292],[-120.3321,38.0291],[-120.3308,38.0285],[-120.3293,38.023],[-120.3273,38.021],[-120.3278,38.0188],[-120.3351,38.0165],[-120.3362,38.0145],[-120.3354,38.011],[-120.339,38.0073],[-120.3485,38.0076],[-120.3364,37.9928],[-120.3392,37.9931],[-120.3435,37.9914],[-120.3403,37.9886],[-120.3409,37.9859],[-120.3429,37.9845],[-120.3536,37.9878],[-120.3644,37.9879],[-120.36694964531577,37.98572807991619],[-120.36679,37.98354],[-120.36956776859505,37.97807553719008],[-120.3698336749634,37.97753486090776],[-120.36888,37.97676],[-120.36719,37.97734],[-120.36713,37.97579],[-120.36107,37.97573],[-120.36114,37.97461],[-120.36032,37.97413],[-120.36336127647637,37.97172627156684],[-120.3628,37.9719],[-120.3577,37.9764],[-120.3521,37.9749],[-120.349,37.9755],[-120.3417,37.9732],[-120.3213,37.9585],[-120.3281,37.9549],[-120.3288,37.9444],[-120.3303,37.9421],[-120.3323,37.9423],[-120.3351,37.9334],[-120.3383,37.9311],[-120.3388,37.9287],[-120.3414,37.9272],[-120.343,37.9234],[-120.3431,37.9182],[-120.3488,37.9162],[-120.3504,37.9121],[-120.3505,37.906],[-120.3613,37.9017],[-120.3629,37.8929],[-120.3722,37.8844],[-120.377,37.8845],[-120.3813,37.8788],[-120.3795,37.8747],[-120.3839,37.8751],[-120.3878,37.8727]]]},"properties":{"GEOID":"0610990835","NAME":"East Sonora-Phoenix Lake","COUNTY":"109"}}]}