{"type":"FeatureCollection","features":[{"type":"Feature","properties":{"GEOID":"0611192310","NAME":"Oxnard","COUNTY":"111"},"geometry":{"type":"MultiPolygon","coordinates":[[[[-119.6363,33.273],[-119.631,33.2555],[-119.6313,33.245],[-119.6252,33.2325],[-119.6199,33.2268],[-119.6148,33.2173],[-119.6053,33.2069],[-119.5742,33.1865],[-119.5622,33.1825],[-119.5532,33.1813],[-119.5413,33.1765],[-119.512,33.1678],[-119.4914,33.167],[-119.4765,33.1635],[-119.445,33.1653],[-119.4337,33.167],[-119.3945,33.1808],[-119.3759,33.1922],[-119.3685,33.2026],[-119.3624,33.2148],[-119.3607,33.2215],[-119.3601,33.2349],[-119.3621,33.2452],[-119.3672,33.2534],[-119.3759,33.2632],[-119.3759,33.2648],[-119.3797,33.2676],[-119.4054,33.2835],[-119.43,33.301],[-119.4951,33.3272],[-119.5191,33.3337],[-119.5297,33.3352],[-119.5435,33.3342],[-119.5649,33.3276],[-119.5827,33.3278],[-119.5992,33.3233],[-119.6145,33.3148],[-119.6259,33.305],[-119.6338,33.2893],[-119.6361,33.2807],[-119.6363,33.273]]],[[[-119.4923,33.9832],[-119.4853,33.9777],[-119.4726,33.9706],[-119.433,33.9559],[-119.417,33.9538],[-119.4113,33.9554],[-119.4029,33.9538],[-119.3934,33.9547],[-119.3894,33.9533],[-119.3805,33.9536],[-119.3628,33.9588],[-119.3519,33.9645],[-119.3328,33.9677],[-119.3184,33.9749],[-119.3116,33.98],[-119.3041,33.9865],[-119.2962,33.9972],[-119.2931,34.0202],[-119.2976,34.0366],[-119.3052,34.0474],[-119.3121,34.0544],[-119.3211,34.0606],[-119.3425,34.069],[-119.3564,34.0708],[-119.3679,34.0704],[-119.397,34.0638],[-119.4094,34.0668],[-119.4237,34.0677],[-119.4513,34.0664],[-119.4681,34.0631],[-119.4865,34],[-119.4923,33.9832]]],[[[-119.3292,34.2278],[-119.2976,34.1603],[-119.2857,34.1408],[-119.2677,34.1213],[-119.2509,34.1062],[-119.218,34.0625],[-119.159,34.0403],[-119.1168,34.0298],[-119.0579,34.0194],[-119.0609,34.0843],[-119.0668,34.0923],[-119.0809,34.101],[-119.0793,34.1068],[-119.0799,34.1097],[-119.0986,34.1332],[-119.0968,34.1352],[-119.0964,34.1704],[-119.1067,34.1849],[-119.1098,34.1969],[-119.1112,34.2095],[-119.1147,34.2097],[-119.1201,34.2175],[-119.12008574126534,34.21811312559018],[-119.12019,34.21725],[-119.12455,34.21727],[-119.1248,34.19679],[-119.15977,34.19701],[-119.16,34.18695],[-119.15877,34.18695],[-119.15878,34.1862],[-119.16001,34.18618],[-119.16003,34.18256],[-119.14829,34.1824],[-119.1484,34.17383],[-119.147,34.17383],[-119.14707,34.16737],[-119.14393,34.16571],[-119.14182,34.16654],[-119.14202,34.16481],[-119.14006,34.1636],[-119.14002,34.16623],[-119.13615,34.1662],[-119.1362,34.16171],[-119.14446,34.16175],[-119.14447,34.15917],[-119.14884,34.15921],[-119.14886,34.15452],[-119.16624,34.15459],[-119.16665,34.14739],[-119.1655,34.14737],[-119.16556,34.14007],[-119.16676,34.14007],[-119.16676,34.13282],[-119.16063,34.13277],[-119.16175,34.12551],[-119.16004,34.1255],[-119.15621,34.12312],[-119.15387,34.12542],[-119.15375,34.12656],[-119.15645,34.12658],[-119.15644,34.12729],[-119.15358,34.12727],[-119.15362,34.12537],[-119.16128,34.11793],[-119.19035,34.13783],[-119.19521,34.14093],[-119.20196,34.14343],[-119.2104,34.14286],[-119.21633,34.14375],[-119.2158,34.14727],[-119.213,34.14894],[-119.22074,34.1569],[-119.21599,34.15685],[-119.22144,34.16133],[-119.22144317859532,34.165948498996656],[-119.22148,34.16047],[-119.22196,34.15863],[-119.22386,34.15793],[-119.22281,34.15904],[-119.22234,34.16169],[-119.22287,34.16251],[-119.22264,34.17558],[-119.22401,34.17559],[-119.22454,34.16747],[-119.226,34.16726],[-119.22723,34.1697],[-119.2265,34.17029],[-119.22643,34.17527],[-119.22941,34.17529],[-119.22942,34.17437],[-119.23045,34.17416],[-119.2288,34.16874],[-119.22805,34.16886],[-119.22772,34.16816],[-119.22832,34.16795],[-119.22689,34.1652],[-119.22616,34.16544],[-119.22571,34.16457],[-119.22646,34.16428],[-119.22433,34.1611],[-119.22471,34.15892],[-119.22571,34.15964],[-119.22465,34.16022],[-119.22467,34.16113],[-119.22629,34.1617],[-119.23311,34.17273],[-119.23173,34.17327],[-119.2325,34.17463],[-119.23383,34.17392],[-119.23496,34.17597],[-119.23869,34.1755],[-119.25014,34.19685],[-119.2716,34.1875],[-119.31018,34.18748],[-119.32865,34.22691],[-119.32918825700375,34.22780122760346],[-119.3292,34.2278]]],[[[-119.25925,34.2221],[-119.25584,34.2131],[-119.25535,34.21362],[-119.25602,34.21656],[-119.25298,34.21527],[-119.25194,34.21235],[-119.2506,34.21273],[-119.2503,34.21218],[-119.25285,34.21154],[-119.25347,34.20877],[-119.24284,34.2087],[-119.24286,34.20474],[-119.23934,34.20371],[-119.239,34.19989],[-119.23649,34.19773],[-119.22546,34.19765],[-119.22539,34.20312],[-119.20139,34.20293],[-119.2014,34.20158],[-119.19775,34.20159],[-119.19774,34.2029],[-119.19533,34.20288],[-119.19526,34.20838],[-119.20788,34.20847],[-119.20706,34.21937],[-119.22081,34.21945],[-119.2205,34.22745],[-119.21584,34.23291],[-119.19404,34.23537],[-119.19076,34.2375],[-119.18712,34.24191],[-119.17677,34.25014],[-119.16173,34.261],[-119.15877,34.25933],[-119.16747,34.25398],[-119.1611,34.25039],[-119.16208,34.24856],[-119.16105,34.248],[-119.16989,34.23635],[-119.16756,34.23475],[-119.16945,34.23286],[-119.16871,34.23247],[-119.17022,34.22942],[-119.16902,34.22861],[-119.1682,34.22943],[-119.16515,34.22805],[-119.16325,34.22995],[-119.16219,34.22922],[-119.1628,34.22861],[-119.16034,34.22801],[-119.15974,34.22938],[-119.1579,34.22814],[-119.15652,34.23074],[-119.15054,34.22859],[-119.14852,34.23061],[-119.14597,34.22941],[-119.14431,34.22772],[-119.14485,34.22718],[-119.1411,34.22461],[-119.13941,34.22527],[-119.1389,34.22398],[-119.13988,34.2248],[-119.1405,34.22417],[-119.13956,34.22277],[-119.13873,34.22361],[-119.1383,34.2227],[-119.13798,34.22358],[-119.13713,34.22264],[-119.13706,34.22353],[-119.13573,34.22328],[-119.13499,34.22402],[-119.13415,34.22344],[-119.13499,34.22343],[-119.13505,34.22254],[-119.13208,34.22241],[-119.13203,34.22329],[-119.13155,34.22238],[-119.12697,34.22311],[-119.11958,34.2223],[-119.11958567821617,34.222252991816994],[-119.1125,34.23],[-119.1613,34.264],[-119.1818,34.2504],[-119.1897,34.2423],[-119.19422043622873,34.23955157477293],[-119.19422,34.23947],[-119.1956655124267,34.23867296844457],[-119.2022,34.2347],[-119.2565,34.2354],[-119.25650257760063,34.23539973053969],[-119.25586,34.22293],[-119.25925,34.2221]]],[[[-119.23651,34.19702],[-119.23494,34.19046],[-119.22123,34.19035],[-119.22117,34.19699],[-119.23651,34.19702]]],[[[-119.22072,34.20173],[-119.22071,34.20087],[-119.21453,34.20081],[-119.21453,34.20169],[-119.21672,34.20208],[-119.22072,34.20173]]],[[[-119.1364,34.22261],[-119.13577,34.2227],[-119.136,34.22301],[-119.1364,34.22261]]]]}},{"type":"Feature","properties":{"GEOID":"0611193550","NAME":"Ventura","COUNTY":"111"},"geometry":{"type":"MultiPolygon","coordinates":[[[[-119.501,34.3269],[-119.4842,34.3068],[-119.467,34.2937],[-119.449,34.2847],[-119.4286,34.2778],[-119.402,34.2723],[-119.3863,34.2571],[-119.3762,34.25],[-119.3507,34.2401],[-119.3359,34.2375],[-119.3292,34.2278],[-119.32918825700375,34.22780122760346],[-119.33446,34.23653],[-119.33582,34.23748],[-119.32806,34.23397],[-119.33677,34.23791],[-119.34877,34.24495],[-119.31639,34.28105],[-119.32218,34.28458],[-119.32233,34.28651],[-119.31796,34.2835],[-119.3148,34.28285],[-119.31327,34.28631],[-119.31144,34.28762],[-119.31107,34.29013],[-119.30714,34.29017],[-119.29872,34.30783],[-119.29425,34.30695],[-119.29403,34.3077],[-119.29533,34.30772],[-119.29507,34.3085],[-119.29239,34.30907],[-119.29148,34.31017],[-119.29192,34.3118],[-119.28994,34.31263],[-119.28905,34.31171],[-119.28823,34.31249],[-119.2855,34.31202],[-119.28537,34.31005],[-119.28714,34.30897],[-119.29267,34.30814],[-119.28891,34.30845],[-119.28906,34.30797],[-119.28499,34.30712],[-119.28538,34.30963],[-119.28271,34.31034],[-119.27696,34.30608],[-119.27621,34.3037],[-119.28325,34.29851],[-119.28933,34.29977],[-119.28967,34.29885],[-119.29195,34.29928],[-119.29222,34.29835],[-119.28986,34.29783],[-119.29337,34.28975],[-119.29111,34.28977],[-119.28907,34.29206],[-119.28854,34.28984],[-119.2565,34.28984],[-119.25672,34.28715],[-119.25584,34.28538],[-119.25183,34.28572],[-119.25115,34.28271],[-119.24973,34.28312],[-119.24944,34.28197],[-119.23162,34.2834],[-119.23107,34.28417],[-119.23122,34.28331],[-119.23038,34.28349],[-119.23053,34.28423],[-119.22778,34.28469],[-119.22702,34.28834],[-119.22755,34.29111],[-119.23016,34.29321],[-119.22758,34.29721],[-119.22601,34.29797],[-119.22029,34.29114],[-119.22033,34.2848],[-119.21753,34.28491],[-119.21761,34.28639],[-119.21579,34.29015],[-119.2184,34.29701],[-119.21687,34.29782],[-119.2167,34.29934],[-119.21549,34.3],[-119.21335,34.30048],[-119.21304,34.29937],[-119.21105,34.29996],[-119.21257,34.30248],[-119.21204,34.3045],[-119.21335,34.30482],[-119.20997,34.30753],[-119.20758,34.30288],[-119.20818,34.30216],[-119.20754,34.30046],[-119.20471,34.30156],[-119.20248,34.3003],[-119.20331,34.29987],[-119.20178,34.29801],[-119.19991,34.29119],[-119.19735,34.29112],[-119.19799,34.28829],[-119.19638,34.28799],[-119.19577,34.29002],[-119.19527,34.28995],[-119.19618,34.28804],[-119.18468,34.29171],[-119.17878,34.2848],[-119.17516,34.28698],[-119.1775,34.28977],[-119.17405,34.29183],[-119.17153,34.28898],[-119.16821,34.29099],[-119.17328,34.29695],[-119.16591,34.30033],[-119.16126,34.2951],[-119.15446,34.29903],[-119.14526,34.28873],[-119.15201,34.28466],[-119.15057,34.28345],[-119.15105,34.28298],[-119.15036,34.28158],[-119.14931,34.28264],[-119.14794,34.28223],[-119.14989,34.28067],[-119.14668254205267,34.27635467356948],[-119.14749,34.27523],[-119.15342,34.27375],[-119.15978,34.26927],[-119.16362,34.26536],[-119.16402,34.26581],[-119.1657,34.26396],[-119.17039,34.26172],[-119.17678,34.25991],[-119.17868,34.26704],[-119.18415,34.26627],[-119.18477,34.26915],[-119.19325,34.26791],[-119.19198,34.26179],[-119.19049,34.26201],[-119.19013,34.26013],[-119.18805,34.26044],[-119.18732,34.25709],[-119.18509,34.25748],[-119.19434,34.25191],[-119.1916,34.2456],[-119.19423,34.24134],[-119.19422043622873,34.23955157477293],[-119.1897,34.2423],[-119.1818,34.2504],[-119.1613,34.264],[-119.1558,34.2695],[-119.1332,34.2802],[-119.1291,34.2887],[-119.1346,34.296],[-119.134,34.2987],[-119.1413,34.3068],[-119.1427,34.3103],[-119.1451,34.3119],[-119.1439,34.3136],[-119.1451,34.3147],[-119.1441,34.3165],[-119.1455,34.3151],[-119.1527,34.3301],[-119.1597,34.3396],[-119.1648,34.3431],[-119.1658,34.3516],[-119.1698,34.3572],[-119.1726,34.3642],[-119.1709,34.3679],[-119.17,34.3784],[-119.1727,34.385],[-119.1719,34.3883],[-119.1729,34.3908],[-119.1774,34.3934],[-119.1786,34.3959],[-119.185,34.3986],[-119.1838,34.4026],[-119.1845,34.408],[-119.183,34.412],[-119.1811,34.4127],[-119.1864,34.4146],[-119.195,34.4151],[-119.1999,34.4125],[-119.2025,34.4087],[-119.226,34.4027],[-119.2297,34.4033],[-119.2354,34.4007],[-119.2382,34.4025],[-119.2416,34.4017],[-119.2423,34.4031],[-119.248,34.4014],[-119.251,34.4031],[-119.2531,34.4014],[-119.2549,34.4035],[-119.262,34.4002],[-119.2633,34.3974],[-119.2652,34.3982],[-119.268,34.397],[-119.2701,34.3946],[-119.2686,34.3933],[-119.2721,34.3896],[-119.2744,34.3926],[-119.276,34.3901],[-119.2792,34.39],[-119.2821,34.3882],[-119.2835,34.3897],[-119.285,34.3885],[-119.2815,34.3833],[-119.2811,34.3789],[-119.2953,34.3714],[-119.2953,34.3702],[-119.3013,34.3654],[-119.3085,34.3631],[-119.3095,34.3597],[-119.3082,34.3547],[-119.3064,34.3528],[-119.3089,34.3522],[-119.3128,34.3547],[-119.3148,34.3577],[-119.3171,34.3583],[-119.3204,34.3626],[-119.3287,34.3656],[-119.3313,34.3707],[-119.3329,34.3708],[-119.3321,34.3721],[-119.3331,34.3734],[-119.3355,34.372],[-119.3409,34.3744],[-119.3458,34.3805],[-119.3501,34.3835],[-119.365,34.383],[-119.3693,34.3849],[-119.3637,34.3857],[-119.3654,34.3873],[-119.373,34.3871],[-119.3792,34.3891],[-119.381,34.3863],[-119.3869,34.3838],[-119.3898,34.3838],[-119.3891,34.3859],[-119.4058,34.3815],[-119.411,34.3852],[-119.4152,34.3858],[-119.4136,34.3885],[-119.4161,34.3908],[-119.4202,34.3906],[-119.421,34.3922],[-119.4242,34.3934],[-119.4271,34.3926],[-119.4401,34.3945],[-119.4514,34.3981],[-119.4594,34.392],[-119.4648,34.389],[-119.4687,34.3884],[-119.4684,34.3866],[-119.4727,34.3837],[-119.4731,34.3794],[-119.4777,34.3796],[-119.4782,34.3765],[-119.476,34.3751],[-119.4767,34.3732],[-119.501,34.3269]],[[-119.14668254205267,34.27635467356948],[-119.14665,34.2764],[-119.1463,34.27584],[-119.14668254205267,34.27635467356948]],[[-119.2971,34.34463],[-119.29438,34.34465],[-119.29397,34.34293],[-119.29683,34.34257],[-119.2971,34.34463]]],[[[-119.26482,34.26233],[-119.25857,34.2528],[-119.2566,34.24454],[-119.25032,34.24326],[-119.24182,34.24419],[-119.2411,34.2431],[-119.23951,34.24308],[-119.23907,34.23661],[-119.25653823973852,34.236091782751885],[-119.25650257760063,34.23539973053969],[-119.2565,34.2354],[-119.2022,34.2347],[-119.1956655124267,34.23867296844457],[-119.19928,34.23668],[-119.19926,34.23826],[-119.20133,34.23876],[-119.21232,34.23694],[-119.2126,34.24311],[-119.21188,34.24309],[-119.21574,34.24408],[-119.21332,34.24895],[-119.22117,34.24802],[-119.22163,34.25742],[-119.22477,34.25739],[-119.22423,34.24745],[-119.22706,34.24819],[-119.22687,34.24487],[-119.22812,34.24475],[-119.22839,34.24882],[-119.25022,34.25942],[-119.25482,34.25877],[-119.26482,34.26233]]],[[[-119.26391,34.26285],[-119.25547,34.25965],[-119.25076,34.25969],[-119.26233,34.26478],[-119.26391,34.26285]]],[[[-119.23295,34.26682],[-119.23221,34.26358],[-119.22977,34.26314],[-119.23085,34.2679],[-119.23295,34.26682]]],[[[-119.21626,34.28805],[-119.2144,34.28831],[-119.21356,34.28961],[-119.21568,34.28984],[-119.21626,34.28805]]],[[[-119.2106,34.28615],[-119.20889,34.27893],[-119.19971,34.28025],[-119.19726,34.2879],[-119.20925,34.2869],[-119.2106,34.28615]]],[[[-119.20874,34.27805],[-119.20756,34.27258],[-119.19844,34.27388],[-119.19985,34.27953],[-119.20874,34.27805]]],[[[-119.17838,34.28457],[-119.174,34.27946],[-119.16452,34.28527],[-119.16475,34.2867],[-119.16677,34.2891],[-119.17208,34.28514],[-119.1725,34.28572],[-119.17351,34.28512],[-119.17487,34.28667],[-119.17838,34.28457]]],[[[-119.15525,34.28953],[-119.15348,34.28669],[-119.15045,34.2885],[-119.15289,34.29133],[-119.15525,34.28953]]]]}},{"type":"Feature","properties":{"GEOID":"0611191770","NAME":"Los Padres","COUNTY":"111"},"geometry":{"type":"Polygon","coordinates":[[[-119.4546,34.4216],[-119.4537,34.4195],[-119.4544,34.4183],[-119.4453,34.4083],[-119.4469,34.402],[-119.4491,34.4017],[-119.4514,34.3981],[-119.4401,34.3945],[-119.4271,34.3926],[-119.4242,34.3934],[-119.4209,34.3921],[-119.3775,34.3918],[-119.3702,34.4172],[-119.358,34.423],[-119.3571,34.4281],[-119.3504,34.4323],[-119.3445,34.4388],[-119.3341,34.4412],[-119.2888,34.4668],[-119.2868,34.4637],[-119.2845,34.4637],[-119.2862,34.4676],[-119.2851,34.4687],[-119.2811,34.4703],[-119.2781,34.4698],[-119.2681,34.4758],[-119.2648,34.4823],[-119.2639,34.4883],[-119.2604,34.4886],[-119.252,34.4966],[-119.249,34.4977],[-119.249,34.4957],[-119.2435,34.4969],[-119.2358,34.5007],[-119.2361,34.5034],[-119.2331,34.5066],[-119.2295,34.5076],[-119.2271,34.5109],[-119.2187,34.515],[-119.2161,34.5143],[-119.2082,34.5166],[-119.2005,34.5171],[-119.1971,34.5192],[-119.1854,34.5172],[-119.1786,34.5185],[-119.176,34.5176],[-119.172,34.5138],[-119.1652,34.5124],[-119.1625,34.5096],[-119.1625,34.5085],[-119.1655,34.507],[-119.1678,34.5072],[-119.1711,34.5055],[-119.171,34.5028],[-119.165,34.5034],[-119.1641,34.5024],[-119.1606,34.504],[-119.1594,34.5018],[-119.1559,34.5046],[-119.1552,34.5006],[-119.1516,34.5028],[-119.1505,34.5006],[-119.1483,34.5004],[-119.1469,34.4984],[-119.1436,34.4986],[-119.1413,34.4949],[-119.1401,34.4964],[-119.1236,34.5016],[-119.121,34.4999],[-119.1186,34.5],[-119.1184,34.5011],[-119.1172,34.4994],[-119.1126,34.5016],[-119.1074,34.5009],[-119.1063,34.5041],[-119.1031,34.505],[-119.1025,34.5083],[-119.1004,34.5102],[-119.093,34.5115],[-119.0895,34.5108],[-119.0856,34.5132],[-119.0873,34.5109],[-119.0835,34.5098],[-119.081,34.505],[-119.0808,34.5016],[-119.0781,34.4984],[-119.0741,34.4988],[-119.0668,34.4969],[-119.0614,34.4917],[-119.056,34.4904],[-119.054,34.4881],[-119.0579,34.486],[-119.0559,34.482],[-119.0557,34.477],[-119.0571,34.475],[-119.0543,34.4668],[-119.0562,34.4624],[-119.0585,34.4615],[-119.0573,34.4562],[-119.0557,34.4547],[-119.0557,34.4531],[-119.0574,34.4527],[-119.0559,34.4512],[-119.0567,34.4487],[-119.0586,34.4495],[-119.0628,34.4477],[-119.0649,34.4448],[-119.069,34.4448],[-119.0722,34.442],[-119.0766,34.442],[-119.077,34.4398],[-119.0835,34.4393],[-119.0861,34.4368],[-119.0771,34.4367],[-119.0772,34.4296],[-119.0597,34.4295],[-119.0596,34.4223],[-118.9555,34.4225],[-118.9553,34.4442],[-118.9376,34.4442],[-118.9374,34.4682],[-118.771,34.4677],[-118.7659,34.4823],[-118.7386,34.499],[-118.8804,34.7887],[-118.978,34.7898],[-118.9779,34.8117],[-119.2425,34.8143],[-119.2426,34.8576],[-119.2772,34.8573],[-119.2764,34.8725],[-119.3555,34.8725],[-119.3555,34.8737],[-119.3819,34.874],[-119.3837,34.9008],[-119.4437,34.9012],[-119.4416,34.4519],[-119.4433,34.4495],[-119.4415,34.4479],[-119.4404,34.4418],[-119.4437,34.4367],[-119.4431,34.4343],[-119.4445,34.4336],[-119.4447,34.4295],[-119.4531,34.4289],[-119.453,34.423],[-119.4546,34.4216]]]}},{"type":"Feature","properties":{"GEOID":"0611190988","NAME":"Fillmore","COUNTY":"111"},"geometry":{"type":"MultiPolygon","coordinates":[[[[-119.0234,34.4222],[-119.0173,34.4202],[-119.0168,34.4139],[-119.0143,34.4125],[-119.01,34.406],[-119.011,34.3936],[-119.0099,34.3858],[-119.0078,34.3858],[-119.0082,34.3636],[-118.9938,34.3667],[-118.9815,34.3716],[-118.9808,34.3475],[-118.979,34.3462],[-118.979,34.3433],[-118.9764,34.3386],[-118.9777,34.3374],[-118.9782,34.3341],[-118.9772,34.332],[-118.9784,34.3297],[-118.972,34.3326],[-118.9682,34.3375],[-118.9639,34.3395],[-118.9587,34.3394],[-118.9553,34.3357],[-118.9536,34.3357],[-118.9503,34.3428],[-118.9468,34.3455],[-118.9401,34.3456],[-118.9282,34.336],[-118.9221,34.3371],[-118.9094,34.3367],[-118.8969,34.3413],[-118.8911,34.341],[-118.8877,34.3456],[-118.8863,34.3545],[-118.8843,34.356],[-118.8782,34.3557],[-118.8724,34.3528],[-118.857,34.3587],[-118.8446,34.3573],[-118.8368,34.3595],[-118.8212,34.3578],[-118.8137,34.3605],[-118.8115,34.3631],[-118.8118,34.365],[-118.8089,34.365],[-118.8086,34.3673],[-118.8052,34.367],[-118.8016,34.3648],[-118.799,34.3653],[-118.7987,34.3619],[-118.7877,34.3663],[-118.7815,34.3655],[-118.7793,34.3673],[-118.7698,34.3705],[-118.7673,34.3695],[-118.7629,34.3727],[-118.7614,34.3712],[-118.7563,34.3735],[-118.7501,34.3705],[-118.7502,34.3689],[-118.7486,34.3696],[-118.7467,34.3672],[-118.745,34.3686],[-118.7426,34.3678],[-118.7396,34.3688],[-118.7352,34.3662],[-118.728,34.3651],[-118.7245,34.3586],[-118.7188,34.3553],[-118.7144,34.356],[-118.7119,34.3541],[-118.7043,34.3549],[-118.7019,34.3589],[-118.6915,34.3615],[-118.6918,34.3634],[-118.6886,34.3618],[-118.6811,34.361],[-118.6784,34.3632],[-118.6754,34.3636],[-118.6723,34.363],[-118.673,34.3619],[-118.6706,34.3607],[-118.7386,34.499],[-118.7659,34.4823],[-118.771,34.4677],[-118.9374,34.4682],[-118.9376,34.4442],[-118.9553,34.4442],[-118.9555,34.4225],[-119.0234,34.4222]],[[-118.94204,34.38983],[-118.94131,34.392],[-118.94003,34.39347],[-118.93721,34.39353],[-118.93727,34.39487],[-118.9312,34.4001],[-118.93079,34.4041],[-118.9277,34.40928],[-118.9264,34.41419],[-118.92394,34.41733],[-118.92382,34.41677],[-118.92266,34.41694],[-118.92156,34.41477],[-118.91514,34.41519],[-118.9047,34.41172],[-118.90474,34.40806],[-118.90749,34.40805],[-118.90394,34.40002],[-118.8974,34.39973],[-118.88976,34.39557],[-118.89064,34.39141],[-118.89828,34.39195],[-118.89822,34.38986],[-118.90705,34.38978],[-118.90702,34.39271],[-118.91727,34.39349],[-118.91655,34.3897],[-118.92022,34.38969],[-118.91994,34.38602],[-118.9334,34.38598],[-118.93343,34.38947],[-118.93118,34.39067],[-118.93353,34.39018],[-118.93391,34.39212],[-118.93623,34.3918],[-118.93815,34.38983],[-118.94204,34.38983]],[[-118.94089,34.38278],[-118.94087,34.38585],[-118.9334,34.38598],[-118.93337,34.38236],[-118.94089,34.38278]],[[-118.91655,34.3897],[-118.91141,34.38973],[-118.91141,34.38604],[-118.91583,34.38603],[-118.91655,34.3897]]],[[[-118.9211,34.413],[-118.92088,34.41129],[-118.91739,34.41173],[-118.91943,34.41331],[-118.9211,34.413]]]]}},{"type":"Feature","properties":{"GEOID":"0611192245","NAME":"Ojai-Mira Monte","COUNTY":"111"},"geometry":{"type":"MultiPolygon","coordinates":[[[[-119.4209,34.3921],[-119.4204,34.3907],[-119.4162,34.3908],[-119.4138,34.3888],[-119.4151,34.3857],[-119.411,34.3852],[-119.4057,34.3815],[-119.3891,34.3859],[-119.3898,34.3838],[-119.3869,34.3838],[-119.381,34.3863],[-119.3792,34.3891],[-119.373,34.3871],[-119.3654,34.3873],[-119.3637,34.3857],[-119.3693,34.3849],[-119.365,34.383],[-119.3501,34.3835],[-119.3458,34.3805],[-119.3409,34.3744],[-119.3355,34.372],[-119.3331,34.3734],[-119.3321,34.3721],[-119.3329,34.3708],[-119.3313,34.3707],[-119.3287,34.3656],[-119.3204,34.3626],[-119.3171,34.3583],[-119.3148,34.3577],[-119.3094,34.3523],[-119.3064,34.3528],[-119.3082,34.3547],[-119.3095,34.3597],[-119.3087,34.3629],[-119.3013,34.3654],[-119.2953,34.3702],[-119.2953,34.3714],[-119.2811,34.3789],[-119.2807,34.3814],[-119.285,34.3888],[-119.2832,34.3897],[-119.282,34.3882],[-119.2792,34.39],[-119.2759,34.3901],[-119.2745,34.3926],[-119.2721,34.3896],[-119.2686,34.3933],[-119.2701,34.3946],[-119.2681,34.3969],[-119.2652,34.3982],[-119.2633,34.3974],[-119.262,34.4002],[-119.2565,34.4031],[-119.2546,34.4035],[-119.2531,34.4014],[-119.2508,34.4031],[-119.248,34.4014],[-119.2423,34.4031],[-119.2416,34.4017],[-119.2382,34.4025],[-119.2354,34.4007],[-119.2297,34.4033],[-119.226,34.4027],[-119.2025,34.4087],[-119.1999,34.4125],[-119.1949,34.4151],[-119.1814,34.4142],[-119.1787,34.412],[-119.1744,34.4115],[-119.1589,34.4169],[-119.146,34.4154],[-119.1448,34.4173],[-119.1365,34.4186],[-119.134,34.421],[-119.1283,34.4228],[-119.1249,34.4216],[-119.1216,34.4225],[-119.1129,34.4215],[-119.11,34.42],[-119.1091,34.4213],[-119.1001,34.4226],[-119.0979,34.424],[-119.0891,34.4244],[-119.0913,34.4286],[-119.0913,34.4324],[-119.0868,34.4353],[-119.0849,34.4386],[-119.0773,34.4397],[-119.0767,34.442],[-119.0722,34.442],[-119.069,34.4448],[-119.0645,34.445],[-119.0626,34.4478],[-119.0586,34.4495],[-119.0567,34.4487],[-119.0559,34.4512],[-119.0574,34.4527],[-119.0557,34.4531],[-119.0557,34.4547],[-119.0573,34.4562],[-119.0585,34.4615],[-119.0562,34.4624],[-119.0543,34.4668],[-119.0571,34.475],[-119.0557,34.477],[-119.0559,34.482],[-119.0579,34.486],[-119.054,34.4881],[-119.056,34.4904],[-119.0614,34.4917],[-119.0668,34.4969],[-119.0741,34.4988],[-119.0781,34.4984],[-119.0808,34.5016],[-119.081,34.505],[-119.0835,34.5098],[-119.0873,34.5109],[-119.0856,34.5132],[-119.0895,34.5108],[-119.093,34.5115],[-119.1004,34.5102],[-119.1025,34.5083],[-119.1031,34.505],[-119.1063,34.5041],[-119.1074,34.5009],[-119.1126,34.5016],[-119.1172,34.4994],[-119.1184,34.5011],[-119.1186,34.5],[-119.121,34.4999],[-119.1236,34.5016],[-119.1401,34.4964],[-119.1413,34.4949],[-119.1436,34.4986],[-119.1469,34.4984],[-119.1483,34.5004],[-119.1505,34.5006],[-119.1516,34.5028],[-119.1552,34.5006],[-119.1559,34.5046],[-119.1594,34.5018],[-119.1606,34.504],[-119.1641,34.5024],[-119.165,34.5034],[-119.171,34.5028],[-119.1711,34.5055],[-119.1678,34.5072],[-119.1655,34.507],[-119.1625,34.5085],[-119.1626,34.5097],[-119.1651,34.5124],[-119.172,34.5138],[-119.1747,34.517],[-119.1785,34.5185],[-119.1854,34.5172],[-119.1971,34.5192],[-119.2005,34.5171],[-119.2082,34.5166],[-119.2161,34.5143],[-119.2187,34.515],[-119.2272,34.5108],[-119.2295,34.5076],[-119.2331,34.5066],[-119.2362,34.5034],[-119.2358,34.5007],[-119.2435,34.4969],[-119.249,34.4957],[-119.249,34.4977],[-119.252,34.4966],[-119.2604,34.4886],[-119.2639,34.4883],[-119.2648,34.4823],[-119.2681,34.4758],[-119.2781,34.4698],[-119.2811,34.4703],[-119.2851,34.4687],[-119.2862,34.4676],[-119.2845,34.4637],[-119.2868,34.4637],[-119.2888,34.4668],[-119.3341,34.4412],[-119.3445,34.4388],[-119.3504,34.4323],[-119.3571,34.4281],[-119.358,34.423],[-119.3702,34.4172],[-119.3775,34.3918],[-119.4209,34.3921]],[[-119.3134,34.36233],[-119.3126,34.36284],[-119.31171,34.36594],[-119.312,34.36832],[-119.30687,34.37149],[-119.31053,34.36316],[-119.30928,34.35779],[-119.31215,34.35758],[-119.31222,34.36097],[-119.3134,34.36233]],[[-119.27457,34.43613],[-119.27055,34.44805],[-119.26849,34.44769],[-119.26887,34.44664],[-119.2632,34.44526],[-119.26243,34.44733],[-119.26138,34.44719],[-119.26026,34.44661],[-119.26019,34.44484],[-119.25693,34.44708],[-119.25834,34.44983],[-119.25797,34.45124],[-119.25893,34.45124],[-119.25863,34.45335],[-119.26027,34.45808],[-119.24716,34.46182],[-119.24773,34.46251],[-119.24691,34.46255],[-119.24715,34.46314],[-119.2507,34.46338],[-119.2506,34.47058],[-119.2368,34.47066],[-119.23686,34.46486],[-119.23363,34.46578],[-119.23303,34.45437],[-119.22048,34.4545],[-119.22131,34.45262],[-119.22209,34.45283],[-119.22351,34.44912],[-119.22079,34.44857],[-119.22061,34.44649],[-119.22522,34.44596],[-119.2249,34.4441],[-119.22276,34.44481],[-119.22243,34.44279],[-119.22792,34.44213],[-119.22747,34.43959],[-119.23392,34.43805],[-119.23508,34.43866],[-119.24696,34.4346],[-119.24841,34.43615],[-119.24815,34.43774],[-119.25349,34.43783],[-119.25436,34.43691],[-119.25424,34.43573],[-119.25281,34.43496],[-119.25344,34.43442],[-119.2555,34.43484],[-119.25559,34.43088],[-119.25841,34.42924],[-119.26397,34.43476],[-119.26563,34.43242],[-119.27058,34.43191],[-119.273,34.43539],[-119.27457,34.43613]]],[[[-119.22351,34.44912],[-119.2256,34.44905],[-119.2253,34.44731],[-119.22326,34.44755],[-119.22351,34.44912]]]]}},{"type":"Feature","properties":{"GEOID":"0611192930","NAME":"Santa Paula","COUNTY":"111"},"geometry":{"type":"Polygon","coordinates":[[[-119.185,34.3988],[-119.1786,34.3959],[-119.1774,34.3934],[-119.1727,34.3906],[-119.1717,34.3874],[-119.1727,34.385],[-119.17,34.3784],[-119.1709,34.3679],[-119.1726,34.3642],[-119.1698,34.3572],[-119.1658,34.3516],[-119.1649,34.3433],[-119.1597,34.3396],[-119.1527,34.3301],[-119.1455,34.3151],[-119.1441,34.3165],[-119.1451,34.3147],[-119.1439,34.3136],[-119.1451,34.3119],[-119.1427,34.3103],[-119.1413,34.3068],[-119.134,34.2987],[-119.1346,34.296],[-119.1291,34.2887],[-119.132,34.2812],[-119.1398,34.2773],[-119.1337,34.2729],[-119.1283,34.2787],[-119.1138,34.2899],[-119.1083,34.2911],[-119.1011,34.2907],[-119.0976,34.2962],[-119.0896,34.295],[-119.0825,34.2971],[-119.082,34.3024],[-119.0748,34.3086],[-119.0741,34.3142],[-119.0721,34.3173],[-119.0701,34.3181],[-119.0579,34.3171],[-119.038,34.3261],[-119.0293,34.3278],[-119.0225,34.3322],[-119.0126,34.3341],[-119.0134,34.3307],[-119.0087,34.3321],[-119.0047,34.3305],[-118.9985,34.3312],[-118.9935,34.3271],[-118.9832,34.3258],[-118.9772,34.3318],[-118.9782,34.3342],[-118.9764,34.3387],[-118.979,34.3433],[-118.979,34.3462],[-118.9808,34.3476],[-118.9815,34.3716],[-118.9938,34.3667],[-119.0082,34.3636],[-119.0078,34.3858],[-119.0099,34.3858],[-119.011,34.3936],[-119.01,34.406],[-119.0143,34.4125],[-119.0168,34.4139],[-119.0173,34.4202],[-119.0201,34.4217],[-119.0596,34.4223],[-119.0597,34.4295],[-119.0772,34.4296],[-119.0771,34.4367],[-119.0861,34.4368],[-119.0913,34.4324],[-119.0913,34.4286],[-119.0889,34.4249],[-119.0915,34.4236],[-119.0979,34.424],[-119.1001,34.4226],[-119.1091,34.4213],[-119.11,34.4199],[-119.1129,34.4215],[-119.1216,34.4225],[-119.1249,34.4216],[-119.1283,34.4228],[-119.134,34.421],[-119.1365,34.4186],[-119.1448,34.4173],[-119.146,34.4154],[-119.1589,34.4169],[-119.1744,34.4115],[-119.1836,34.414],[-119.1811,34.4126],[-119.183,34.412],[-119.1845,34.408],[-119.1838,34.4026],[-119.185,34.3988]],[[-119.09708,34.33826],[-119.09162,34.34128],[-119.09024,34.33968],[-119.08909,34.34057],[-119.08828,34.3432],[-119.08646,34.34104],[-119.08599,34.34133],[-119.09531,34.35211],[-119.09007,34.35414],[-119.0879,34.35156],[-119.08566,34.35291],[-119.08477,34.35193],[-119.08106,34.35415],[-119.08214,34.35691],[-119.08177,34.35801],[-119.08009,34.35823],[-119.08037,34.35912],[-119.0742,34.36011],[-119.07199,34.36137],[-119.06748,34.36687],[-119.06822,34.36907],[-119.06631,34.36992],[-119.06698,34.37168],[-119.0691,34.37108],[-119.06975,34.37488],[-119.0667,34.37544],[-119.06889,34.37799],[-119.06719,34.37831],[-119.06771,34.37961],[-119.06958,34.37914],[-119.07163,34.38287],[-119.0701,34.38364],[-119.06831,34.38306],[-119.06715,34.38182],[-119.0684,34.38125],[-119.06711,34.38109],[-119.06796,34.38016],[-119.06588,34.38017],[-119.06754,34.37974],[-119.06731,34.37924],[-119.0653,34.37976],[-119.06435,34.37904],[-119.0606,34.37347],[-119.05937,34.37364],[-119.06046,34.37489],[-119.03826,34.37462],[-119.0383,34.36121],[-119.03538,34.3601],[-119.04213,34.35583],[-119.04369,34.35427],[-119.04369,34.35305],[-119.04761,34.35308],[-119.04659,34.35146],[-119.05047,34.35114],[-119.05738,34.34823],[-119.0558,34.34461],[-119.05852,34.3436],[-119.06316,34.34017],[-119.06415,34.34068],[-119.06543,34.33848],[-119.07378,34.33137],[-119.07615,34.32994],[-119.08006,34.33453],[-119.08429,34.32957],[-119.08539,34.3269],[-119.08794,34.32987],[-119.08709,34.33036],[-119.08888,34.33247],[-119.0873,34.33394],[-119.08828,34.33499],[-119.08996,34.33376],[-119.09206,34.33618],[-119.09492,34.33446],[-119.0952,34.33626],[-119.09708,34.33826]]]}},{"type":"Feature","properties":{"GEOID":"0611193422","NAME":"Triunfo Pass-Point Mugu","COUNTY":"111"},"geometry":{"type":"Polygon","coordinates":[[[-119.0683,34.0946],[-119.0624,34.0875],[-119.0604,34.0817],[-119.0579,34.0194],[-119.0274,34.0149],[-119.0004,34.0075],[-118.9853,34],[-118.964,33.9968],[-118.9517,33.9929],[-118.941,34.0748],[-118.8565,34.1268],[-118.85624011729334,34.12744970676664],[-118.86047,34.12489],[-118.86252,34.12511],[-118.86252,34.12656],[-118.8646,34.12711],[-118.86518,34.12821],[-118.86119,34.13049],[-118.86296,34.13597],[-118.85866,34.13651],[-118.85667,34.13934],[-118.85982,34.14057],[-118.85943628583654,34.143010028526604],[-118.85973626168224,34.14290003738318],[-118.86088,34.14234],[-118.86106312176166,34.142413522020725],[-118.8611,34.1424],[-118.8615,34.141],[-118.867,34.1424],[-118.8708,34.1411],[-118.8726,34.1435],[-118.8745,34.1399],[-118.8773,34.1419],[-118.878,34.141],[-118.8793,34.1455],[-118.8786,34.1481],[-118.8759,34.1501],[-118.8781,34.1509],[-118.877,34.1548],[-118.8848,34.1595],[-118.88401314879074,34.16215562283126],[-118.90345,34.16219],[-118.90344996546962,34.1622],[-118.9199,34.1622],[-118.9339,34.1595],[-118.9383,34.156],[-118.93867997479671,34.15592575205122],[-118.93868,34.15591],[-118.94674,34.15428],[-118.95081,34.15457],[-118.9511773512252,34.15474439906651],[-118.9517,34.1548],[-118.95236857312723,34.15530992865636],[-118.95477,34.15645],[-118.95748365227539,34.159211260210036],[-118.9576,34.1593],[-118.96174638743456,34.15714706806283],[-118.96264,34.15667],[-118.96266006944444,34.15667265625],[-118.9628,34.1566],[-118.96745366213821,34.157050354400475],[-118.96763,34.15623],[-118.97479,34.15617],[-118.97484,34.14787],[-118.98919,34.14765],[-118.99097,34.14852],[-118.99201,34.15013],[-118.99169,34.15198],[-118.98724,34.15425],[-118.98616,34.15628],[-118.98810023238268,34.15629581711182],[-118.9882,34.1545],[-118.99,34.1535],[-119.001,34.1519],[-119.0042,34.1483],[-119.0195,34.1471],[-119.019,34.1454],[-119.0279,34.1353],[-119.0342,34.1323],[-119.0423,34.1261],[-119.0416,34.1235],[-119.045,34.1177],[-119.0619,34.1127],[-119.0626,34.1104],[-119.065,34.1099],[-119.0671,34.1073],[-119.063,34.1038],[-119.0638,34.1017],[-119.0614,34.1005],[-119.0613,34.0985],[-119.0662,34.0968],[-119.0683,34.0946]]]}},{"type":"Feature","properties":{"GEOID":"0611191560","NAME":"Las Posas","COUNTY":"111"},"geometry":{"type":"Polygon","coordinates":[[[-119.1613,34.264],[-119.1124,34.23],[-119.1007,34.2414],[-119.09789105716425,34.24253876060909],[-119.0960688383316,34.24456278869356],[-119.09454729520866,34.24727982998454],[-119.09442,34.24771],[-119.09424787878788,34.2478145021645],[-119.0942,34.2479],[-119.0866,34.2525],[-119.0825,34.2526],[-119.0806,34.2543],[-119.0749,34.2552],[-119.0715,34.2544],[-119.0647,34.256],[-119.0607,34.2594],[-119.0608,34.2637],[-118.9911,34.2634],[-118.98,34.2651],[-118.9804,34.2628],[-118.9737,34.2634],[-118.9652,34.2606],[-118.9489,34.2683],[-118.9335,34.2687],[-118.9306,34.2702],[-118.933,34.2731],[-118.9306,34.2742],[-118.9362,34.2839],[-118.9353,34.2877],[-118.9241,34.293],[-118.92052,34.29553301886792],[-118.92052,34.29577],[-118.91966630766704,34.29613704646199],[-118.91352952226062,34.30047911160805],[-118.91348364436067,34.30052625510525],[-118.90972950164745,34.30655264209226],[-118.90971,34.30783],[-118.9097,34.30783000685401],[-118.9097,34.3152],[-118.9151,34.3152],[-118.9146,34.3239],[-118.9161,34.325],[-118.9148,34.3286],[-118.9192,34.3372],[-118.9287,34.3362],[-118.9411,34.346],[-118.9486,34.3446],[-118.9524,34.3396],[-118.9536,34.3357],[-118.9553,34.3357],[-118.9604,34.3399],[-118.9671,34.3381],[-118.972,34.3326],[-118.9807,34.3287],[-118.9831,34.3258],[-118.9935,34.3271],[-118.9985,34.3312],[-119.0047,34.3305],[-119.0087,34.3321],[-119.0134,34.3307],[-119.0126,34.3341],[-119.0225,34.3322],[-119.0293,34.3278],[-119.038,34.3261],[-119.0557,34.3178],[-119.0597,34.3171],[-119.0665,34.3184],[-119.0718,34.3175],[-119.0744,34.3137],[-119.0748,34.3086],[-119.0813,34.3034],[-119.0819,34.2976],[-119.0838,34.2962],[-119.0896,34.295],[-119.0976,34.2962],[-119.1011,34.2907],[-119.1083,34.2911],[-119.1138,34.2899],[-119.1283,34.2787],[-119.1337,34.2729],[-119.1398,34.2773],[-119.1462,34.2733],[-119.1558,34.2695],[-119.1613,34.264]]]}},{"type":"Feature","properties":{"GEOID":"0611190350","NAME":"Camarillo","COUNTY":"111"},"geometry":{"type":"MultiPolygon","coordinates":[[[[-119.1201,34.2175],[-119.1147,34.2097],[-119.1112,34.2095],[-119.1098,34.1969],[-119.1067,34.1849],[-119.0964,34.1704],[-119.0968,34.1352],[-119.0986,34.1332],[-119.0799,34.1097],[-119.0793,34.1068],[-119.0809,34.101],[-119.068,34.0932],[-119.0682,34.0952],[-119.0669,34.0964],[-119.0619,34.0975],[-119.0613,34.0989],[-119.0614,34.1005],[-119.0638,34.1017],[-119.063,34.1038],[-119.0671,34.1076],[-119.0645,34.1103],[-119.0626,34.1104],[-119.0619,34.1127],[-119.045,34.1177],[-119.0416,34.1235],[-119.0423,34.1261],[-119.0342,34.1323],[-119.0279,34.1353],[-119.019,34.1454],[-119.0195,34.1471],[-119.0042,34.1483],[-119.001,34.1519],[-118.9883,34.1544],[-118.98810044012575,34.156295818805376],[-118.98861333333333,34.1563],[-118.9898,34.1563],[-118.98980820276498,34.15630974078341],[-118.98984,34.15631],[-118.99122,34.15735],[-118.99143,34.15817],[-118.99138925373134,34.158217462686565],[-118.98991601698914,34.16061147239264],[-118.99037332089553,34.161091872455906],[-118.99148263248848,34.16165661290323],[-118.99514,34.16301],[-118.9952472674976,34.16357315436242],[-118.9953,34.1636],[-118.9989,34.1636],[-118.99902214285714,34.16374928571429],[-118.99979,34.16466],[-118.99978111675127,34.164676920473774],[-118.9998,34.1647],[-118.999335,34.165526666666665],[-118.99895,34.16626],[-119.00071,34.16707],[-119.00166,34.1691],[-119.00133749928958,34.169741068485365],[-119.0014,34.17],[-119.0011958267148,34.17002268592058],[-119.00084,34.17073],[-118.99873,34.17033],[-118.99677041916168,34.172686586826345],[-118.9949,34.175],[-118.9920409090909,34.17442818181818],[-118.99141,34.17431],[-118.99222,34.17721],[-118.99135,34.17813],[-118.98934,34.17791],[-118.9898,34.17985],[-118.9903,34.1818],[-118.98805,34.1827],[-118.98635,34.1834],[-118.98562077087794,34.18596017130621],[-118.985,34.1883],[-118.98496414996842,34.188265430326695],[-118.98496,34.18828],[-118.98405,34.18812],[-118.98289737129012,34.18627246517262],[-118.97975255010972,34.18323995903438],[-118.97885276138851,34.18298074012301],[-118.9733,34.1838],[-118.96670966885397,34.18769428658629],[-118.96664,34.1907],[-118.96432,34.19102],[-118.96431021424614,34.19869203103117],[-119.01181,34.19137],[-119.0118,34.2053],[-119.08719,34.2057],[-119.08718,34.20882],[-119.08839,34.20984],[-119.10715,34.20994],[-119.10707,34.21592],[-119.09603,34.21583],[-119.09608,34.22089],[-119.10268,34.22081],[-119.10397,34.22155],[-119.10942,34.22176],[-119.10947,34.22243],[-119.10619,34.22571],[-119.10381,34.22405],[-119.10218,34.22519],[-119.10278,34.22676],[-119.10197,34.22825],[-119.10235,34.22982],[-119.10107,34.23185],[-119.09754,34.23316],[-119.09598,34.23493],[-119.09238,34.23469],[-119.09086,34.23547],[-119.09007,34.23684],[-119.09807,34.24234],[-119.09789105716425,34.24253876060909],[-119.1007,34.2414],[-119.1046,34.2378],[-119.11958878988384,34.222227231289516],[-119.12008574126534,34.21811312559018],[-119.1201,34.2175]]],[[[-119.0960688383316,34.24456278869356],[-119.095,34.24575],[-119.09454729520866,34.24727982998454],[-119.0960688383316,34.24456278869356]]],[[[-119.09424787878788,34.2478145021645],[-119.08658,34.25247],[-119.07566,34.25168],[-119.07425,34.25168],[-119.07352,34.25253],[-119.07137,34.25233],[-119.07445,34.25092],[-119.07715,34.25104],[-119.07737,34.24977],[-119.08089,34.2506],[-119.08941,34.23763],[-119.08478,34.23537],[-119.08462,34.23668],[-119.08337,34.23429],[-119.08075,34.2333],[-119.08092,34.23183],[-119.08229,34.23117],[-119.07761,34.23149],[-119.07781,34.23295],[-119.07896,34.23219],[-119.08096,34.23441],[-119.0797,34.23501],[-119.0801,34.23611],[-119.07536,34.23646],[-119.07199,34.23574],[-119.07231,34.23466],[-119.07421,34.23536],[-119.0745,34.23173],[-119.07245,34.23176],[-119.07281,34.23247],[-119.07211,34.23325],[-119.06991,34.23248],[-119.06726,34.2337],[-119.06683,34.23435],[-119.0685,34.23517],[-119.06889,34.23765],[-119.0705,34.2375],[-119.07149,34.23848],[-119.07424,34.23814],[-119.07413,34.23907],[-119.07686,34.23832],[-119.0745,34.24042],[-119.0736,34.24012],[-119.07398,34.2394],[-119.07239,34.23893],[-119.06885,34.23994],[-119.06815,34.23855],[-119.06689,34.24076],[-119.06589,34.24009],[-119.06702,34.23943],[-119.06651,34.23905],[-119.06525,34.2398],[-119.06396,34.23891],[-119.06136,34.2395],[-119.061,34.23877],[-119.05881,34.24057],[-119.05487,34.24195],[-119.05519,34.24287],[-119.0543,34.24308],[-119.05286,34.24066],[-119.04996,34.24136],[-119.04955,34.24019],[-119.047,34.241],[-119.04667,34.24007],[-119.04539,34.24038],[-119.04393,34.2362],[-119.0428,34.23647],[-119.04345,34.23832],[-119.04,34.23895],[-119.04156,34.24335],[-119.04058,34.24359],[-119.04105,34.24497],[-119.03792,34.24571],[-119.03745,34.24434],[-119.03527,34.24487],[-119.03561,34.24584],[-119.03419,34.24598],[-119.0325,34.2442],[-119.03203,34.2413],[-119.02958,34.24139],[-119.02872,34.23909],[-119.02819,34.23921],[-119.02853,34.24014],[-119.0275,34.24071],[-119.02792,34.24245],[-119.025,34.24333],[-119.02507,34.24739],[-119.02434,34.24792],[-119.02332,34.24402],[-119.01747,34.24484],[-119.017,34.24376],[-119.01621,34.24394],[-119.01677,34.24555],[-119.01179,34.24674],[-119.01103,34.24455],[-119.01015,34.24476],[-119.00963,34.24367],[-119.00825,34.24503],[-119.00806012987013,34.24493727272727],[-119.0061,34.2474],[-118.98,34.2651],[-118.9911,34.2634],[-119.0608,34.2637],[-119.0607,34.2594],[-119.0647,34.256],[-119.0715,34.2544],[-119.0749,34.2552],[-119.0806,34.2543],[-119.0825,34.2526],[-119.0866,34.2525],[-119.0942,34.2479],[-119.09424787878788,34.2478145021645]]],[[[-119.06775,34.23866],[-119.06568,34.23852],[-119.06702,34.23927],[-119.06775,34.23866]]],[[[-119.05554,34.23547],[-119.05462,34.23285],[-119.05309,34.23322],[-119.05344,34.23419],[-119.05226,34.23447],[-119.05438,34.24055],[-119.05554,34.23547]]],[[[-119.04885,34.23821],[-119.04844,34.23702],[-119.04465,34.23767],[-119.04513,34.2391],[-119.04717,34.23806],[-119.04762,34.23896],[-119.04885,34.23821]]]]}},{"type":"Feature","properties":{"GEOID":"0611192020","NAME":"Moorpark","COUNTY":"111"},"geometry":{"type":"MultiPolygon","coordinates":[[[[-118.9362,34.2842],[-118.9306,34.2742],[-118.933,34.2731],[-118.9306,34.2702],[-118.9248,34.2718],[-118.9229,34.2698],[-118.9329,34.2577],[-118.9332,34.2551],[-118.9302,34.2522],[-118.9279,34.2522],[-118.9272,34.2542],[-118.9162,34.2557],[-118.9108,34.2548],[-118.8967,34.2567],[-118.8923,34.2554],[-118.8818,34.2565],[-118.8793,34.255],[-118.865,34.2563],[-118.8659,34.2499],[-118.844596,34.2499],[-118.84010114016847,34.249906314779196],[-118.8414,34.2571],[-118.8489,34.2637],[-118.85132495088973,34.266680283154564],[-118.85585,34.26378],[-118.86287,34.26351],[-118.86603,34.2625],[-118.86602,34.26087],[-118.91298,34.26075],[-118.91225,34.26467],[-118.91307,34.26813],[-118.91482,34.26923],[-118.91463,34.26972],[-118.91078,34.2691],[-118.90956,34.26997],[-118.90719,34.26926],[-118.90721,34.27887],[-118.91669,34.27885],[-118.91662,34.28021],[-118.90989,34.28159],[-118.91066,34.28851],[-118.91005,34.28976],[-118.92049,34.28964],[-118.92052,34.29195],[-118.92052,34.29544510638298],[-118.9351,34.288],[-118.9362,34.2842]]],[[[-118.9192,34.3372],[-118.9148,34.3286],[-118.9161,34.325],[-118.9146,34.3239],[-118.9151,34.3152],[-118.9097,34.3152],[-118.9097,34.30783000685401],[-118.86594,34.30786],[-118.86593,34.30075],[-118.85545,34.30057],[-118.84676,34.30063],[-118.84957,34.30359],[-118.84483,34.30588],[-118.84402,34.30783],[-118.83324,34.30785],[-118.83328,34.30272],[-118.83086,34.30073],[-118.82261,34.30074],[-118.82259,34.30256],[-118.82048,34.30256],[-118.82111,34.30007],[-118.8198,34.29708],[-118.82244,34.29505],[-118.82144870975121,34.292259997606216],[-118.81606,34.29225],[-118.81605,34.29542],[-118.81221478470202,34.29494253584811],[-118.811,34.2984],[-118.802,34.3027],[-118.7959,34.3091],[-118.7868,34.3105],[-118.782,34.3142],[-118.7745,34.3132],[-118.7668,34.3168],[-118.7677,34.3191],[-118.7667,34.3228],[-118.7623,34.3282],[-118.7621,34.3314],[-118.7706,34.3328],[-118.7708,34.3358],[-118.769,34.3394],[-118.7584,34.3396],[-118.7404,34.3342],[-118.7393,34.3347],[-118.739,34.3379],[-118.7364,34.3388],[-118.7373,34.3412],[-118.7423,34.344],[-118.7555,34.3475],[-118.7638,34.3526],[-118.7673,34.3572],[-118.7668,34.3686],[-118.7697,34.3705],[-118.7793,34.3673],[-118.7815,34.3655],[-118.7872,34.3664],[-118.7987,34.3619],[-118.799,34.3653],[-118.8016,34.3648],[-118.8052,34.367],[-118.8086,34.3673],[-118.8089,34.365],[-118.8118,34.365],[-118.8115,34.3631],[-118.8137,34.3605],[-118.8216,34.3577],[-118.8368,34.3595],[-118.8446,34.3573],[-118.857,34.3587],[-118.8724,34.3528],[-118.8782,34.3557],[-118.8843,34.356],[-118.8863,34.3545],[-118.8877,34.3456],[-118.8911,34.341],[-118.8969,34.3413],[-118.9094,34.3367],[-118.9192,34.3372]]],[[[-118.91649338853503,34.29750124840764],[-118.91638,34.29755],[-118.91636230201533,34.29756818620494],[-118.91649338853503,34.29750124840764]]],[[[-118.91620416044776,34.29773069029851],[-118.91348,34.30053],[-118.90973,34.30652],[-118.90972939050319,34.3065599220411],[-118.91620416044776,34.29773069029851]]],[[[-118.84252220326371,34.29177000813332],[-118.8383,34.2906],[-118.8375,34.2886],[-118.83501971223022,34.2876273381295],[-118.8375,34.28864],[-118.83831,34.29063],[-118.8424,34.29181],[-118.84252220326371,34.29177000813332]]],[[[-118.83238131672599,34.28660577483015],[-118.83111,34.286998727272724],[-118.83111,34.28754],[-118.83238131672599,34.28660577483015]]]]}},{"type":"Feature","properties":{"GEOID":"0611193020","NAME":"Simi Valley","COUNTY":"111"},"geometry":{"type":"MultiPolygon","coordinates":[[[[-118.85777,34.27505],[-118.85281,34.26888],[-118.84989,34.2676],[-118.85132495088973,34.266680283154564],[-118.8489,34.2637],[-118.8414,34.2571],[-118.84010114016847,34.249906314779196],[-118.83998704602189,34.24990647506881],[-118.82445192539052,34.25079702338525],[-118.82448,34.26446],[-118.82225,34.26446],[-118.82072,34.26298],[-118.81611,34.26111],[-118.81637,34.25834],[-118.81755,34.25745],[-118.81687,34.25736],[-118.81341,34.25897],[-118.81349,34.26448],[-118.81488,34.26454],[-118.81535,34.27622],[-118.83111,34.27613],[-118.83111,34.286998727272724],[-118.83238131672599,34.28660577483015],[-118.83243,34.28657],[-118.83501971223022,34.2876273381295],[-118.8375,34.2886],[-118.8383,34.2906],[-118.8426783437593,34.29171891007182],[-118.85392,34.28804],[-118.85385,34.28643],[-118.84859,34.28659],[-118.84861,34.2779],[-118.85363,34.27705],[-118.85777,34.27505]]],[[[-118.83515,34.23259],[-118.8305,34.22913],[-118.83022979854505,34.22822622271964],[-118.8302,34.2282],[-118.8235,34.2262],[-118.81371489275597,34.22678710643464],[-118.81608,34.2271],[-118.81691,34.23036],[-118.81763,34.23396],[-118.81538,34.23957],[-118.82879,34.24621],[-118.82445,34.24986],[-118.82909,34.24597],[-118.8323,34.2458813803681],[-118.8323,34.24484],[-118.83120676923077,34.24485753846154],[-118.8304,34.2449],[-118.83043695512026,34.24486988842053],[-118.83043,34.24487],[-118.83311,34.24265],[-118.83515,34.23259]]],[[[-118.81221478470202,34.29494253584811],[-118.80368,34.29388],[-118.80364,34.29117],[-118.80147,34.29012],[-118.80175,34.28907],[-118.80048,34.28868],[-118.79729,34.28868],[-118.79558,34.29013],[-118.79154,34.28811],[-118.79028,34.29059],[-118.78512,34.2906],[-118.78511,34.28624],[-118.76742,34.28624],[-118.7664,34.28901],[-118.7664,34.29497],[-118.76144,34.30437],[-118.76145,34.31164],[-118.74008,34.32265],[-118.727,34.31956],[-118.72451,34.32065],[-118.72158,34.32031],[-118.71852,34.31857],[-118.71758,34.3166],[-118.7199,34.31309],[-118.72012,34.31053],[-118.71916,34.30815],[-118.72011,34.30618],[-118.71889,34.3001],[-118.71158,34.30204],[-118.71075,34.30467],[-118.70642,34.30466],[-118.70555,34.30532],[-118.70445,34.30431],[-118.6967,34.30451],[-118.69617,34.30527],[-118.69686,34.30641],[-118.69624,34.3065],[-118.69476,34.30617],[-118.68989,34.30041],[-118.6902,34.29708],[-118.68053,34.29707],[-118.6805,34.2989],[-118.67397,34.29933],[-118.67398,34.29352],[-118.65964,34.29347],[-118.65971,34.28994],[-118.65653,34.28992],[-118.65653,34.28893],[-118.65282,34.2889],[-118.65289,34.28159],[-118.65698,34.28162],[-118.65701,34.27858],[-118.65856,34.27791],[-118.65535,34.27404],[-118.65554,34.27311],[-118.651,34.27291],[-118.65052,34.27232],[-118.65166,34.2708],[-118.64619,34.27045],[-118.64384,34.26795],[-118.64206,34.268],[-118.64002,34.26694],[-118.63636,34.2682],[-118.63354,34.27024],[-118.63255,34.26335],[-118.63725,34.2653],[-118.64115,34.26472],[-118.64242,34.26545],[-118.64697,34.26523],[-118.64884,34.26589],[-118.65516,34.26181],[-118.66257,34.26092],[-118.67411,34.26516],[-118.68008,34.26546],[-118.67891,34.26243],[-118.67614,34.26147],[-118.67491,34.25975],[-118.68548,34.25976],[-118.6855,34.26452],[-118.71101,34.2645],[-118.7135,34.26228],[-118.71697,34.26139],[-118.71955,34.26319],[-118.71954,34.26447],[-118.72114,34.26448],[-118.72108,34.25674],[-118.72707,34.23342],[-118.71672,34.22412],[-118.74130710627863,34.21816888431761],[-118.7406,34.2175],[-118.7424,34.2175],[-118.7433,34.2152],[-118.7384,34.2141],[-118.7448,34.2133],[-118.7331,34.2091],[-118.7292,34.2059],[-118.7321,34.2053],[-118.7144,34.2035],[-118.7094,34.1987],[-118.7099,34.201],[-118.7081,34.2014],[-118.7088,34.203],[-118.7049,34.204],[-118.704,34.2024],[-118.7049,34.1972],[-118.7032,34.1947],[-118.6998,34.1955],[-118.6917,34.1944],[-118.668,34.1992],[-118.6677,34.2403],[-118.6325,34.2404],[-118.6325,34.2634],[-118.6368,34.2918],[-118.6706,34.3607],[-118.673,34.362],[-118.6725,34.3631],[-118.6783,34.3632],[-118.6811,34.361],[-118.6886,34.3618],[-118.6918,34.3634],[-118.6915,34.3615],[-118.7019,34.3589],[-118.7043,34.3549],[-118.7119,34.3541],[-118.7144,34.356],[-118.7188,34.3553],[-118.7245,34.3586],[-118.728,34.3651],[-118.7352,34.3662],[-118.7396,34.3688],[-118.7426,34.3678],[-118.745,34.3686],[-118.7467,34.3672],[-118.7486,34.3696],[-118.7502,34.3689],[-118.7501,34.3705],[-118.7561,34.3735],[-118.7614,34.3712],[-118.7629,34.3727],[-118.7678,34.3692],[-118.7664,34.3664],[-118.7667,34.356],[-118.7611,34.3504],[-118.7555,34.3475],[-118.7423,34.344],[-118.7374,34.3413],[-118.7364,34.3388],[-118.7391,34.3378],[-118.7394,34.3346],[-118.7419,34.3344],[-118.7584,34.3396],[-118.769,34.3394],[-118.7708,34.3358],[-118.7706,34.3328],[-118.7621,34.3314],[-118.7623,34.3282],[-118.7667,34.3228],[-118.7677,34.3191],[-118.7668,34.3168],[-118.7745,34.3132],[-118.782,34.3142],[-118.7868,34.3105],[-118.7959,34.3091],[-118.802,34.3027],[-118.811,34.2984],[-118.81221478470202,34.29494253584811]]],[[[-118.79937,34.25734],[-118.79802,34.25608],[-118.79609,34.25775],[-118.79937,34.25899],[-118.79937,34.25734]]],[[[-118.79482,34.25447],[-118.79404,34.25439],[-118.79348,34.253],[-118.79127,34.25309],[-118.78972,34.25179],[-118.78757,34.25157],[-118.78759,34.26185],[-118.78878,34.26317],[-118.7899,34.26324],[-118.78999,34.26216],[-118.7931,34.26219],[-118.79215,34.25955],[-118.79345,34.25909],[-118.79259,34.25794],[-118.79482,34.25447]]],[[[-118.7786,34.2131],[-118.77853475905118,34.21309325093633],[-118.77647,34.21612],[-118.77653919541697,34.21639049117544],[-118.77836239796915,34.21358770943175],[-118.7786,34.2131]]],[[[-118.77691057907097,34.21656775874907],[-118.77654960969961,34.21643120155303],[-118.77669,34.21698],[-118.77670766908213,34.21698425819985],[-118.77691057907097,34.21656775874907]]],[[[-118.7663123329514,34.21211656588259],[-118.757,34.2119],[-118.7529,34.2149],[-118.74883541753438,34.216346715792845],[-118.7663123329514,34.21211656588259]]],[[[-118.74671,34.28988],[-118.74464,34.28987],[-118.74544,34.29282],[-118.74625,34.29258],[-118.74671,34.28988]]],[[[-118.74232,34.29183],[-118.74073,34.29182],[-118.74076,34.28987],[-118.73806,34.28988],[-118.73734,34.29331],[-118.73847,34.29321],[-118.73865,34.29487],[-118.74178,34.29394],[-118.74086,34.29315],[-118.74232,34.29183]]],[[[-118.73775,34.29514],[-118.73724,34.29335],[-118.73457,34.2935],[-118.73457,34.29458],[-118.72935,34.296],[-118.72804,34.29713],[-118.72646,34.29596],[-118.72653,34.29851],[-118.73775,34.29514]]],[[[-118.73418,34.2935],[-118.73412,34.29031],[-118.73323,34.29029],[-118.73249,34.2935],[-118.73418,34.2935]]],[[[-118.7265,34.2935],[-118.72076,34.2935],[-118.72087,34.297],[-118.71767,34.29721],[-118.71901,34.30015],[-118.72008,34.30005],[-118.72118,34.29694],[-118.72485,34.29688],[-118.7265,34.29435],[-118.7265,34.2935]]],[[[-118.66079,34.27517],[-118.65936,34.27508],[-118.65856,34.27654],[-118.66044,34.27711],[-118.66079,34.27517]]]]}},{"type":"Feature","properties":{"GEOID":"0611193350","NAME":"Thousand Oaks","COUNTY":"111"},"geometry":{"type":"MultiPolygon","coordinates":[[[[-119.0080333670886,34.24492420253164],[-119.00739,34.24461],[-119.00513,34.24593],[-119.0048,34.24515],[-119.00266,34.24535],[-118.99712,34.24725],[-118.99684,34.24619],[-118.99562,34.24571],[-118.99708,34.24563],[-118.99735,34.24496],[-118.96847,34.24649],[-118.9647,34.23752],[-118.96746,34.23731],[-118.96904,34.23554],[-118.97319,34.23314],[-118.97097,34.23046],[-118.97161,34.22852],[-118.97311,34.22751],[-118.97638,34.227],[-118.98904,34.21352],[-118.98583,34.21084],[-118.98346,34.20627],[-118.98204,34.20572],[-118.98306,34.20552],[-118.97814,34.20193],[-118.96911,34.20144],[-118.96709,34.20216],[-118.9662,34.20139],[-118.96498,34.2019],[-118.96416,34.20111],[-118.96214,34.20152],[-118.9609,34.20057],[-118.95784329700233,34.20050030318898],[-118.94165,34.22578],[-118.93077,34.2258],[-118.93076,34.22683],[-118.92973,34.22581],[-118.92066,34.22582],[-118.92067,34.22762],[-118.91711,34.22764],[-118.91776,34.22591],[-118.9169,34.22583],[-118.91295,34.22723],[-118.91023,34.22705],[-118.90942,34.22821],[-118.90945,34.23109],[-118.91004,34.23142],[-118.90103,34.23438],[-118.89728,34.23461],[-118.89528,34.23625],[-118.8926,34.23544],[-118.89145,34.2371],[-118.88914,34.23694],[-118.88864,34.23828],[-118.87803,34.23539],[-118.87393,34.2373],[-118.86598,34.23733],[-118.86591,34.24611],[-118.86846,34.24622],[-118.86808,34.24845],[-118.86595,34.24987],[-118.83036,34.24992],[-118.82445188092653,34.250775384242964],[-118.82445192919279,34.250798873824735],[-118.8659,34.2499],[-118.865,34.2563],[-118.8793,34.255],[-118.8818,34.2565],[-118.8923,34.2554],[-118.8967,34.2567],[-118.9108,34.2548],[-118.9162,34.2557],[-118.9272,34.2542],[-118.9279,34.2522],[-118.9302,34.2522],[-118.9332,34.2551],[-118.9329,34.2577],[-118.9231,34.2694],[-118.9248,34.2718],[-118.9343,34.2685],[-118.9489,34.2683],[-118.9643,34.2607],[-118.9685,34.2609],[-118.9737,34.2634],[-118.9804,34.2628],[-118.9805,34.2638],[-119.0056,34.2478],[-119.0080333670886,34.24492420253164]]],[[[-119.0017,34.1691],[-119.00162481481482,34.16902481481481],[-119.00166,34.1691],[-119.00132141935484,34.169773032258064],[-119.0017,34.1691]]],[[[-118.9998,34.1647],[-118.99978111675127,34.164676920473774],[-118.999335,34.165526666666665],[-118.9998,34.1647]]],[[[-118.99902214285714,34.16374928571429],[-118.9989,34.1636],[-118.9953,34.1636],[-118.9952472674976,34.16357315436242],[-118.99526,34.16364],[-118.99893,34.16364],[-118.99902214285714,34.16374928571429]]],[[[-118.99677041916168,34.172686586826345],[-118.99488,34.17496],[-118.9920409090909,34.17442818181818],[-118.9949,34.175],[-118.99677041916168,34.172686586826345]]],[[[-118.99148263248848,34.16165661290323],[-118.99037332089553,34.161091872455906],[-118.9906,34.16133],[-118.99148263248848,34.16165661290323]]],[[[-118.9912,34.1573],[-118.99031210526316,34.156665789473685],[-118.99118926503341,34.157326837416484],[-118.9912,34.1573]]],[[[-118.99034773662551,34.159430658436214],[-118.98961,34.16029],[-118.98988742532006,34.16058143669986],[-118.99034773662551,34.159430658436214]]],[[[-118.9903,34.1818],[-118.9898,34.17985],[-118.99026,34.18179],[-118.98805,34.1827],[-118.9903,34.1818]]],[[[-118.98981369983507,34.156309785596484],[-118.9898,34.1563],[-118.98861333333333,34.1563],[-118.98981369983507,34.156309785596484]]],[[[-118.98562077087794,34.18596017130621],[-118.98496414996842,34.188265430326695],[-118.985,34.1883],[-118.98562077087794,34.18596017130621]]],[[[-118.98289737129012,34.18627246517262],[-118.98128,34.18368],[-118.97975255010972,34.18323995903438],[-118.98289737129012,34.18627246517262]]],[[[-118.97885276138851,34.18298074012301],[-118.97767,34.18264],[-118.97331,34.18378],[-118.96671,34.18768],[-118.96670966885397,34.18769428658629],[-118.9733,34.1838],[-118.97885276138851,34.18298074012301]]],[[[-118.96745574215608,34.157040677795656],[-118.963,34.1566],[-118.96281395348838,34.15669302325581],[-118.9674,34.1573],[-118.96745574215608,34.157040677795656]]],[[[-118.95939176470588,34.15840411764706],[-118.9576,34.1593],[-118.95748365227539,34.159211260210036],[-118.95762,34.15935],[-118.95939176470588,34.15840411764706]]],[[[-118.95236857312723,34.15530992865636],[-118.9517,34.1548],[-118.9511773512252,34.15474439906651],[-118.95236857312723,34.15530992865636]]],[[[-118.95067,34.19157],[-118.94915,34.1796],[-118.93858,34.1786],[-118.93856,34.18801],[-118.94015,34.18824],[-118.94184,34.18721],[-118.94217,34.18778],[-118.94348,34.18652],[-118.9425,34.18773],[-118.94229,34.19003],[-118.95067,34.19157]]],[[[-118.93867997479671,34.15592575205122],[-118.9383,34.156],[-118.9339,34.1595],[-118.9199,34.1622],[-118.90344996546962,34.1622],[-118.9034,34.17667],[-118.90781,34.17644],[-118.90745,34.17423],[-118.90832,34.17251],[-118.90754,34.17179],[-118.90822,34.17153],[-118.91118,34.17645],[-118.91289,34.17662],[-118.91271,34.17547],[-118.9143,34.17583],[-118.91353,34.17353],[-118.9141,34.16711],[-118.91573,34.16544],[-118.921,34.16442],[-118.921,34.1697],[-118.92585,34.16969],[-118.92648,34.17134],[-118.92876,34.17143],[-118.92816,34.16215],[-118.93867,34.16216],[-118.93867997479671,34.15592575205122]],[[-118.91144,34.17185],[-118.90924,34.17183],[-118.91095,34.17084],[-118.91144,34.17185]]],[[[-118.93862,34.17139],[-118.93571,34.17301],[-118.93778,34.17344],[-118.93862,34.17139]]],[[[-118.93629,34.1742],[-118.93571,34.1734],[-118.93257,34.17314],[-118.93257,34.17417],[-118.93513,34.17414],[-118.93533,34.17511],[-118.93629,34.17498],[-118.93629,34.1742]]],[[[-118.93417,34.17619],[-118.93313,34.17635],[-118.93363,34.17454],[-118.93216,34.17511],[-118.93215,34.17646],[-118.93313,34.17646],[-118.93313,34.17738],[-118.93416,34.17738],[-118.93417,34.17619]]],[[[-118.92662,34.17544],[-118.92586,34.17544],[-118.92586,34.17667],[-118.92655,34.17667],[-118.92662,34.17544]]],[[[-118.9128,34.2049],[-118.91208,34.20449],[-118.9125,34.20197],[-118.91025,34.20222],[-118.91025,34.20301],[-118.90827,34.20385],[-118.90696,34.2037],[-118.90596,34.20196],[-118.90453,34.20257],[-118.90064,34.20099],[-118.90045,34.19943],[-118.90275,34.20087],[-118.90662,34.20099],[-118.90665,34.19895],[-118.9085,34.19839],[-118.9089,34.19713],[-118.9071,34.19509],[-118.90785,34.1934],[-118.90931,34.19258],[-118.90916,34.18971],[-118.90226,34.18875],[-118.90147,34.1862],[-118.90034,34.1867],[-118.89782,34.18516],[-118.89568,34.18592],[-118.89393,34.18514],[-118.8926,34.18616],[-118.89397,34.18891],[-118.89399,34.193],[-118.89056,34.19688],[-118.89026,34.19982],[-118.89414,34.19895],[-118.90047,34.20328],[-118.90939,34.20583],[-118.90997,34.2071],[-118.9128,34.2049]]],[[[-118.8848,34.1595],[-118.877,34.1548],[-118.8781,34.1509],[-118.8759,34.1501],[-118.8786,34.1481],[-118.8793,34.1455],[-118.878,34.141],[-118.8773,34.1419],[-118.8745,34.1399],[-118.8726,34.1435],[-118.8708,34.1411],[-118.867,34.1424],[-118.8615,34.141],[-118.8611,34.1424],[-118.86106312176166,34.142413522020725],[-118.86758,34.14503],[-118.86699,34.14887],[-118.86535,34.15097],[-118.86781,34.15467],[-118.8693,34.15467],[-118.86968,34.15227],[-118.87522,34.15486],[-118.87518,34.16214],[-118.88401314879074,34.16215562283126],[-118.8848,34.1595]]],[[[-118.86844,34.16602],[-118.86504,34.16542],[-118.86464,34.1668],[-118.86151,34.16654],[-118.86113,34.16838],[-118.8597,34.16867],[-118.86095,34.16976],[-118.86056,34.17031],[-118.86163,34.17061],[-118.8609,34.17169],[-118.86195,34.17236],[-118.86157,34.1743],[-118.86837,34.17603],[-118.86844,34.16602]]],[[[-118.85973626168224,34.14290003738318],[-118.85943628583654,34.143010028526604],[-118.85943,34.14305],[-118.85973626168224,34.14290003738318]]],[[[-118.8565,34.1268],[-118.7889,34.1682],[-118.6682,34.1682],[-118.668,34.1992],[-118.6917,34.1944],[-118.6998,34.1955],[-118.7032,34.1947],[-118.7049,34.1972],[-118.704,34.2024],[-118.7049,34.204],[-118.7088,34.203],[-118.7081,34.2014],[-118.7099,34.201],[-118.7094,34.1987],[-118.7144,34.2035],[-118.7321,34.2053],[-118.7292,34.2059],[-118.7331,34.2091],[-118.7448,34.2133],[-118.7384,34.2141],[-118.7433,34.2152],[-118.7424,34.2175],[-118.7406,34.2175],[-118.74130710627863,34.21816888431761],[-118.74883541753438,34.216346715792845],[-118.7529,34.2149],[-118.757,34.2119],[-118.7663123329514,34.21211656588259],[-118.78175,34.20838],[-118.78818,34.17078],[-118.78938,34.16791],[-118.85624011729334,34.12744970676664],[-118.8565,34.1268]]],[[[-118.83235,34.24588],[-118.8323,34.24484],[-118.8323,34.2458813803681],[-118.83235,34.24588]]],[[[-118.83120676923077,34.24485753846154],[-118.83043695512026,34.24486988842053],[-118.8304,34.2449],[-118.83120676923077,34.24485753846154]]],[[[-118.83022979854505,34.22822622271964],[-118.83021,34.22816],[-118.82975286792453,34.22802550943396],[-118.8302,34.2282],[-118.83022979854505,34.22822622271964]]],[[[-118.8249686164144,34.22661795846961],[-118.82348,34.22618],[-118.81351,34.22676],[-118.81377889120466,34.226795573155485],[-118.8249686164144,34.22661795846961]]],[[[-118.78175,34.20838],[-118.77853475905118,34.21309325093633],[-118.7786,34.2131],[-118.77836239796915,34.21358770943175],[-118.78175,34.20838]]],[[[-118.7803,34.21785],[-118.77691057907097,34.21656775874907],[-118.77670766908213,34.21698425819985],[-118.7803,34.21785]]]]}}]}