{"type":"FeatureCollection","features":[{"type":"Feature","geometry":{"type":"MultiPolygon","coordinates":[[[[-121.8588,38.5492],[-121.8565,38.5486],[-121.8512,38.5368],[-121.8441,38.5352],[-121.8326,38.5298],[-121.8251,38.5293],[-121.8133,38.526],[-121.7959,38.527],[-121.7865,38.5231],[-121.7836,38.5233],[-121.783,38.527],[-121.7813,38.5287],[-121.7717,38.5323],[-121.7685,38.5308],[-121.7677,38.5266],[-121.7651,38.5259],[-121.7572,38.5295],[-121.74853762345136,38.53137957226999],[-121.74102,38.53993],[-121.74374,38.54003],[-121.74409,38.54131],[-121.74705,38.54079],[-121.74743,38.54213],[-121.74665,38.54227],[-121.74777,38.54621],[-121.79394,38.54679],[-121.79393,38.5481],[-121.7939,38.56132],[-121.777,38.56094],[-121.77677,38.5683],[-121.76719,38.56812],[-121.76715,38.57141],[-121.75831,38.57187],[-121.75824,38.57556],[-121.74761,38.57549],[-121.74548,38.56868],[-121.7401,38.56862],[-121.73762,38.56074],[-121.73121,38.56267],[-121.73058,38.57476],[-121.71272,38.57469],[-121.71291,38.56386],[-121.69908,38.56504],[-121.69925,38.56033],[-121.69385,38.5604],[-121.69396,38.55674],[-121.69327,38.55658],[-121.69382,38.55641],[-121.69389,38.55347],[-121.68967,38.55443],[-121.68894,38.55371],[-121.67578,38.55677],[-121.67582,38.54821],[-121.69437,38.54829],[-121.69455,38.53861],[-121.70257,38.53866],[-121.70246,38.54333],[-121.71133,38.54119],[-121.71335,38.5414],[-121.71336,38.53771],[-121.71575517341742,38.53685872180451],[-121.712,38.538],[-121.7098,38.5354],[-121.7074,38.5349],[-121.7061,38.532],[-121.7047,38.5322],[-121.7044,38.5304],[-121.7007,38.5274],[-121.6947,38.5271],[-121.6958,38.4876],[-121.6936,38.4876],[-121.6938,38.4231],[-121.6524,38.468],[-121.5845,38.4739],[-121.58459099110569,38.5026986849491],[-121.58768,38.50271],[-121.58831,38.52058],[-121.58811,38.54289],[-121.58642,38.5471],[-121.5829,38.551],[-121.58274589378593,38.5753573432795],[-121.5835,38.5786],[-121.6369,38.5666],[-121.633,38.5677],[-121.6343,38.5735],[-121.6314,38.5767],[-121.6307,38.5826],[-121.629,38.5845],[-121.6292,38.596],[-121.6314,38.6024],[-121.6656,38.6465],[-121.6673,38.6526],[-121.6752,38.6543],[-121.6776,38.653],[-121.6807,38.6548],[-121.6873,38.6539],[-121.6888,38.6476],[-121.6991,38.643],[-121.7073,38.6424],[-121.7117,38.6437],[-121.7184,38.6399],[-121.721,38.6369],[-121.7199,38.6352],[-121.7236,38.6352],[-121.7269,38.6326],[-121.7295,38.6298],[-121.7298,38.6267],[-121.736,38.6259],[-121.7408,38.6234],[-121.7432,38.6219],[-121.7433,38.6191],[-121.8028,38.6197],[-121.803,38.5899],[-121.8585,38.5907],[-121.8588,38.5508],[-121.8588,38.5492]]],[[[-121.73148,38.5389],[-121.73101330966003,38.53634217794437],[-121.7222,38.5349],[-121.7216936900814,38.53505387850467],[-121.72569,38.53616],[-121.72839,38.53603],[-121.72872,38.53871],[-121.73148,38.5389]]]]},"properties":{"GEOID":"0611390640","NAME":"Davis","COUNTY":"113"}},{"type":"Feature","geometry":{"type":"MultiPolygon","coordinates":[[[[-122.0614,38.912],[-122.0246,38.9118],[-122.0246,38.8861],[-122.0261,38.8845],[-122.0268,38.8637],[-122.0432,38.8614],[-122.0457,38.857],[-122.0456,38.8545],[-122.0435,38.8521],[-122.0439,38.781],[-121.9809,38.7806],[-121.9765,38.7782],[-121.9657,38.7785],[-121.9573,38.7762],[-121.9459,38.7772],[-121.9588,38.7211],[-121.9546,38.6959],[-121.9537,38.6955],[-121.9505,38.6945],[-121.9432,38.6961],[-121.9355,38.6954],[-121.9272,38.692],[-121.9076,38.6887],[-121.9033,38.6876],[-121.9028,38.6862],[-121.8985,38.6875],[-121.898,38.6861],[-121.8915,38.6835],[-121.8866,38.6835],[-121.8761,38.6864],[-121.8731,38.6888],[-121.8648,38.6887],[-121.8573,38.6972],[-121.8483,38.6995],[-121.8465,38.7043],[-121.8418,38.7037],[-121.8317,38.707],[-121.8199,38.718],[-121.8173,38.7156],[-121.8156,38.7157],[-121.8147,38.7191],[-121.8077,38.722],[-121.8059,38.7308],[-121.8039,38.7334],[-121.7973,38.7324],[-121.7855,38.7349],[-121.7857,38.7313],[-121.7826,38.7282],[-121.7733,38.7262],[-121.7678,38.7223],[-121.7612,38.7199],[-121.7594,38.7239],[-121.7546,38.7228],[-121.7492,38.7273],[-121.7408,38.7285],[-121.7299,38.7265],[-121.7294,38.7487],[-121.6781,38.7487],[-121.6766,38.7449],[-121.674,38.7423],[-121.6724639374425,38.74323725850966],[-121.6745,38.7437],[-121.6768,38.7467],[-121.6772,38.7509],[-121.67,38.7593],[-121.6767,38.7602],[-121.6809,38.7636],[-121.6872,38.7637],[-121.6926,38.7677],[-121.6921,38.7696],[-121.6894,38.7712],[-121.6864,38.7754],[-121.6876,38.7804],[-121.6912,38.7842],[-121.691,38.7861],[-121.6934,38.7898],[-121.6907,38.7956],[-121.6958,38.7967],[-121.6983,38.8013],[-121.7013,38.803],[-121.709,38.801],[-121.7162,38.8027],[-121.7219,38.8022],[-121.7233,38.8038],[-121.7244,38.8184],[-121.7234,38.8256],[-121.731,38.8358],[-121.7297,38.8396],[-121.726,38.8413],[-121.7287,38.8447],[-121.7287,38.8466],[-121.7231,38.8513],[-121.7245,38.8528],[-121.7282,38.8534],[-121.7285,38.8573],[-121.7305,38.8591],[-121.7378,38.8608],[-121.7448,38.8642],[-121.7486,38.8713],[-121.7593,38.8684],[-121.7602,38.8672],[-121.7584,38.8624],[-121.7653,38.8642],[-121.77,38.8615],[-121.7767,38.8613],[-121.7839,38.8564],[-121.7845,38.8613],[-121.7867,38.8637],[-121.793,38.863],[-121.796,38.8667],[-121.8017,38.8643],[-121.8029,38.8652],[-121.8039,38.87],[-121.8116,38.8734],[-121.8152,38.8771],[-121.8172,38.8818],[-121.8167,38.8845],[-121.8092,38.8877],[-121.8068,38.8903],[-121.8031,38.8974],[-121.804,38.9017],[-121.7946,38.9005],[-121.7911,38.9033],[-121.7926,38.9064],[-121.7972,38.9055],[-121.8053,38.9064],[-121.8151,38.9108],[-121.814,38.9117],[-121.8083,38.9101],[-121.8058,38.9108],[-121.8043,38.913],[-121.8055,38.9151],[-121.8132,38.9154],[-121.8208,38.9179],[-121.8289,38.9185],[-121.8355,38.9245],[-122.0611,38.9259],[-122.0614,38.9135],[-122.0614,38.912]]],[[[-121.67162914110429,38.743746625766875],[-121.6681,38.7459],[-121.6638,38.7462],[-121.6601,38.7496],[-121.6556,38.7517],[-121.6344,38.7485],[-121.6356,38.7641],[-121.659,38.7642],[-121.6619,38.7629],[-121.6593,38.7597],[-121.6585,38.7549],[-121.6647,38.7557],[-121.668,38.7545],[-121.6693,38.7524],[-121.6685,38.7485],[-121.6696,38.7454],[-121.67162914110429,38.743746625766875]]]]},"properties":{"GEOID":"0611391500","NAME":"Knights Landing","COUNTY":"113"}},{"type":"Feature","geometry":{"type":"MultiPolygon","coordinates":[[[[-121.6642,38.7658],[-121.6619,38.7629],[-121.6586,38.7642],[-121.6355,38.764],[-121.6343,38.7214],[-121.6456,38.6908],[-121.6443,38.6775],[-121.6421,38.6694],[-121.63,38.6552],[-121.6127,38.6277],[-121.5871,38.5947],[-121.58274568982176,38.5753895809487],[-121.58272,38.57945],[-121.57049,38.58263],[-121.57282,38.58971],[-121.57087,38.59063],[-121.57617,38.59767],[-121.55364337169608,38.60332162749114],[-121.5583,38.6082],[-121.5616,38.6186],[-121.5651,38.6423],[-121.5669,38.6451],[-121.5705,38.6476],[-121.5761,38.6486],[-121.5872,38.6427],[-121.5898,38.6424],[-121.5941,38.6441],[-121.6096,38.6611],[-121.628,38.6748],[-121.6311,38.679],[-121.6341,38.689],[-121.6324,38.695],[-121.6142,38.709],[-121.6065,38.7171],[-121.6026,38.7369],[-121.5934,38.754],[-121.5926,38.7629],[-121.5998,38.7749],[-121.6067,38.7803],[-121.6264,38.7852],[-121.631,38.7829],[-121.628,38.7789],[-121.6315,38.7761],[-121.6328,38.7699],[-121.6344,38.7679],[-121.6363,38.7674],[-121.637,38.7698],[-121.6404,38.7728],[-121.6467,38.7741],[-121.6486,38.7728],[-121.6389,38.7672],[-121.6541,38.7645],[-121.6567,38.7656],[-121.6581,38.7688],[-121.6607,38.7701],[-121.6634,38.769],[-121.6642,38.7658]]],[[[-121.58459081862125,38.502698684317295],[-121.5845,38.474],[-121.5482,38.4809],[-121.5473,38.4813],[-121.5585,38.4969],[-121.5585840056882,38.50219235835641],[-121.5587,38.50194],[-121.58253,38.50542],[-121.58222,38.50269],[-121.58459081862125,38.502698684317295]]],[[[-121.5511200306387,38.514026686306856],[-121.53550943951274,38.51693512343679],[-121.54204,38.51632],[-121.5511200306387,38.514026686306856]]]]},"properties":{"GEOID":"0611390850","NAME":"East Yolo","COUNTY":"113"}},{"type":"Feature","geometry":{"type":"MultiPolygon","coordinates":[[[[-121.9223,38.6754],[-121.895,38.6715],[-121.8954,38.6199],[-121.8768,38.6198],[-121.8771,38.5907],[-121.803,38.5899],[-121.8028,38.6197],[-121.7433,38.6191],[-121.7432,38.6219],[-121.7408,38.6234],[-121.736,38.6259],[-121.7298,38.6267],[-121.7294,38.6301],[-121.7238,38.6351],[-121.7199,38.6352],[-121.7209,38.6372],[-121.7164,38.6412],[-121.7112,38.6438],[-121.7073,38.6424],[-121.6991,38.643],[-121.6888,38.6476],[-121.6873,38.6539],[-121.6807,38.6548],[-121.6776,38.653],[-121.6752,38.6543],[-121.6673,38.6526],[-121.6656,38.6465],[-121.6314,38.6024],[-121.6292,38.596],[-121.629,38.5845],[-121.6307,38.5826],[-121.6314,38.5767],[-121.6343,38.5735],[-121.633,38.5677],[-121.6369,38.5666],[-121.5835,38.5786],[-121.5872,38.5949],[-121.6127,38.6277],[-121.63,38.6552],[-121.6421,38.6694],[-121.6443,38.6775],[-121.6456,38.6908],[-121.6343,38.7214],[-121.6343,38.7473],[-121.6355,38.7495],[-121.6556,38.7517],[-121.6601,38.7496],[-121.6638,38.7462],[-121.6681,38.7459],[-121.674,38.7423],[-121.6766,38.7449],[-121.6781,38.7487],[-121.7294,38.7487],[-121.7299,38.7265],[-121.7408,38.7285],[-121.7492,38.7273],[-121.7546,38.7228],[-121.7594,38.7239],[-121.7612,38.7199],[-121.7678,38.7223],[-121.7733,38.7262],[-121.7826,38.7282],[-121.7857,38.7313],[-121.7855,38.7349],[-121.7973,38.7324],[-121.8039,38.7334],[-121.8059,38.7308],[-121.8077,38.722],[-121.8147,38.7191],[-121.8156,38.7157],[-121.8173,38.7156],[-121.8199,38.718],[-121.8317,38.707],[-121.8418,38.7037],[-121.8465,38.7043],[-121.8483,38.6995],[-121.8573,38.6972],[-121.8648,38.6887],[-121.8731,38.6888],[-121.8761,38.6864],[-121.8902,38.6833],[-121.898,38.6861],[-121.8985,38.6875],[-121.9028,38.6862],[-121.9033,38.6876],[-121.9114,38.6888],[-121.9201,38.678],[-121.9223,38.6754]],[[-121.80275,38.66171],[-121.80244,38.69445],[-121.79317,38.69388],[-121.79315,38.69207],[-121.7885,38.69204],[-121.78854,38.69565],[-121.78619,38.69563],[-121.78573,38.69203],[-121.77573,38.69193],[-121.77572,38.69811],[-121.77634,38.69871],[-121.76987,38.6974],[-121.76987,38.69903],[-121.76521,38.69897],[-121.76517,38.70931],[-121.76203,38.7093],[-121.76498,38.70153],[-121.76294,38.69876],[-121.71874,38.69827],[-121.7189,38.69118],[-121.71046,38.67757],[-121.70984,38.67757],[-121.70936,38.67345],[-121.72138,38.67348],[-121.72144,38.671],[-121.72247,38.67102],[-121.7225,38.66983],[-121.7285,38.67003],[-121.72847,38.66285],[-121.71937,38.66273],[-121.71928,38.66979],[-121.6853,38.66933],[-121.68593,38.65411],[-121.71024,38.65446],[-121.71034,38.6478],[-121.71973,38.64784],[-121.71997,38.64059],[-121.75205,38.641],[-121.7521,38.63743],[-121.76116,38.6375],[-121.75779,38.64101],[-121.75821,38.64423],[-121.7536,38.65532],[-121.75656,38.65542],[-121.75665,38.65198],[-121.76604,38.65204],[-121.7659,38.65572],[-121.80268,38.65606],[-121.80275,38.66171]]],[[[-121.71973,38.64784],[-121.71937,38.66247],[-121.72848,38.66254],[-121.72889,38.64789],[-121.71973,38.64784]]],[[[-121.76561,38.66287],[-121.76113,38.66284],[-121.76095,38.66648],[-121.76556,38.66653],[-121.76561,38.66287]]]]},"properties":{"GEOID":"0611393790","NAME":"Woodland","COUNTY":"113"}},{"type":"Feature","geometry":{"type":"Polygon","coordinates":[[[-121.6945,38.3297],[-121.6937,38.3137],[-121.5933,38.3131],[-121.5903,38.3175],[-121.5898,38.3227],[-121.5852,38.3255],[-121.5857,38.3288],[-121.584,38.3317],[-121.5809,38.3311],[-121.5756,38.327],[-121.5594,38.3426],[-121.5411,38.3463],[-121.5349,38.3491],[-121.521,38.3612],[-121.521,38.3669],[-121.5243,38.379],[-121.5148,38.3872],[-121.5131,38.396],[-121.5165,38.4072],[-121.5318,38.4282],[-121.5326,38.4315],[-121.5303,38.4339],[-121.527,38.4348],[-121.5118,38.4352],[-121.5066,38.4373],[-121.503,38.4407],[-121.501,38.4501],[-121.5056,38.4704],[-121.5089,38.4728],[-121.5151,38.4743],[-121.5383,38.4745],[-121.5437,38.4771],[-121.5473,38.4813],[-121.5845,38.4739],[-121.65,38.4687],[-121.6548,38.4665],[-121.6938,38.4231],[-121.6945,38.3297]]]},"properties":{"GEOID":"0611390500","NAME":"Clarksburg","COUNTY":"113"}},{"type":"Feature","geometry":{"type":"Polygon","coordinates":[[[-122.1687,38.6299],[-122.1662,38.625],[-122.1665,38.6197],[-122.164,38.6179],[-122.1595,38.6193],[-122.1558,38.6227],[-122.1492,38.6254],[-122.1484,38.6246],[-122.1494,38.6223],[-122.1437,38.6164],[-122.1417,38.6117],[-122.14,38.6101],[-122.138,38.6103],[-122.1344,38.6046],[-122.1316,38.5947],[-122.127,38.5874],[-122.126,38.5838],[-122.1268,38.5814],[-122.1216,38.5689],[-122.1213,38.5669],[-122.1233,38.565],[-122.1142,38.5394],[-122.115,38.5339],[-122.1116,38.5309],[-122.1132,38.5293],[-122.113,38.5272],[-122.1116,38.5241],[-122.11,38.5241],[-122.1096,38.5214],[-122.1046,38.5169],[-122.1041,38.5134],[-122.095,38.5131],[-122.0908,38.516],[-122.0869,38.5145],[-122.0714,38.5138],[-122.0574,38.5174],[-122.0416,38.5057],[-122.0384,38.4991],[-122.0356,38.4961],[-122.0189,38.4893],[-122.0134,38.4887],[-122.0052,38.4938],[-122.0031,38.4939],[-121.9959,38.5004],[-121.9866,38.503],[-121.9854,38.5057],[-121.9781,38.5083],[-121.9747,38.5137],[-121.97462014621584,38.51374192323669],[-121.97638,38.51581],[-121.97619,38.51717],[-121.97981,38.51679],[-121.98206,38.51793],[-121.98211,38.51874],[-121.98599,38.51914],[-121.98738,38.51794],[-121.98953,38.51817],[-121.99062,38.52083],[-121.99279,38.52129],[-121.99192,38.52167],[-121.99244,38.52368],[-121.99076,38.52336],[-121.9917,38.52443],[-121.98981,38.52521],[-121.98958,38.53621],[-121.98604,38.5361],[-121.98609,38.53263],[-121.98125,38.53263],[-121.98143,38.53888],[-121.97112,38.53894],[-121.97082,38.54175],[-121.96906,38.5413],[-121.96901,38.53846],[-121.9699,38.53851],[-121.96903,38.53274],[-121.96746,38.53277],[-121.96741,38.53374],[-121.95575,38.53415],[-121.95624,38.53934],[-121.95315,38.53941],[-121.95338,38.5341],[-121.95533,38.53161],[-121.95343,38.52866],[-121.95312,38.52564],[-121.95340683181226,38.52552239895697],[-121.9475,38.5271],[-121.9411,38.5333],[-121.9253,38.5297],[-121.909,38.5296],[-121.8938,38.5334],[-121.8884,38.5378],[-121.8844,38.539],[-121.8667,38.5374],[-121.8601,38.5385],[-121.8512,38.5368],[-121.8565,38.5486],[-121.8588,38.5492],[-121.8585,38.5907],[-121.8771,38.5907],[-121.8768,38.6198],[-121.9972,38.6206],[-121.9947,38.6244],[-121.9981,38.6344],[-122.0029,38.6364],[-122.0045,38.6386],[-121.9991,38.6428],[-121.9987,38.6445],[-122.0026,38.6466],[-122.0039,38.6496],[-122.0343,38.6495],[-122.0342,38.6505],[-122.0483,38.6507],[-122.0671,38.6489],[-122.0643,38.6475],[-122.0664,38.6468],[-122.0667,38.6419],[-122.0699,38.6418],[-122.0695,38.6406],[-122.0714,38.6394],[-122.0722,38.6356],[-122.0787,38.6358],[-122.0872,38.6308],[-122.0965,38.6297],[-122.101,38.6268],[-122.1074,38.6276],[-122.1131,38.6236],[-122.1158,38.6237],[-122.1236,38.6295],[-122.135,38.6272],[-122.1426,38.632],[-122.148,38.6315],[-122.1501,38.6326],[-122.151,38.6348],[-122.1605,38.6411],[-122.1642,38.6414],[-122.1593,38.6359],[-122.1603,38.6333],[-122.1687,38.6299]],[[-122.0006,38.55217],[-121.98536,38.55207],[-121.98521,38.53982],[-122.00056,38.53988],[-122.0006,38.55217]]]},"properties":{"GEOID":"0611393770","NAME":"Winters","COUNTY":"113"}},{"type":"Feature","geometry":{"type":"Polygon","coordinates":[[[-122.4219,38.9017],[-122.4199,38.8987],[-122.4156,38.8971],[-122.4111,38.8894],[-122.4055,38.8837],[-122.4057,38.8799],[-122.4018,38.8762],[-122.3964,38.8741],[-122.3954,38.8707],[-122.3912,38.8687],[-122.3911,38.8673],[-122.3953,38.864],[-122.3921,38.8586],[-122.3881,38.8563],[-122.3849,38.8535],[-122.3852,38.8525],[-122.38,38.8494],[-122.3753,38.8486],[-122.3716,38.8447],[-122.3507,38.8359],[-122.3477,38.8364],[-122.3422,38.8422],[-122.3385,38.842],[-122.3346,38.8438],[-122.3303,38.8423],[-122.324,38.8463],[-122.3187,38.8433],[-122.3154,38.8396],[-122.3029,38.8426],[-122.3017,38.8395],[-122.2953,38.8388],[-122.2876,38.84],[-122.2848,38.8354],[-122.2817,38.8259],[-122.276,38.8194],[-122.2734,38.8097],[-122.2697,38.8033],[-122.2658,38.8007],[-122.2644,38.7963],[-122.2613,38.794],[-122.2606,38.7909],[-122.2585,38.7895],[-122.2587,38.7864],[-122.2545,38.7816],[-122.2503,38.7667],[-122.2487,38.7551],[-122.2459,38.7511],[-122.2427,38.7497],[-122.2403,38.7433],[-122.234,38.7404],[-122.2341,38.7389],[-122.2321,38.7381],[-122.2331,38.7368],[-122.229,38.7325],[-122.2285,38.7296],[-122.2251,38.7274],[-122.2256,38.7257],[-122.2237,38.7223],[-122.2268,38.7196],[-122.2246,38.716],[-122.2236,38.7079],[-122.2215,38.7047],[-122.2229,38.7003],[-122.2222,38.6986],[-122.2184,38.6952],[-122.2127,38.6933],[-122.2105,38.6947],[-122.2111,38.696],[-122.2063,38.6957],[-122.2056,38.6938],[-122.2013,38.6906],[-122.2006,38.687],[-122.198,38.6836],[-122.1992,38.6805],[-122.2021,38.6777],[-122.1966,38.6698],[-122.1923,38.6669],[-122.1901,38.6635],[-122.1809,38.6572],[-122.1743,38.6589],[-122.1664,38.6555],[-122.1613,38.6476],[-122.1603,38.644],[-122.1642,38.6414],[-122.1572,38.6394],[-122.1504,38.6343],[-122.1495,38.6323],[-122.1426,38.632],[-122.135,38.6272],[-122.1236,38.6295],[-122.1158,38.6237],[-122.1131,38.6236],[-122.1074,38.6276],[-122.101,38.6268],[-122.0965,38.6297],[-122.0872,38.6308],[-122.0787,38.6358],[-122.0722,38.6356],[-122.0714,38.6394],[-122.0695,38.6406],[-122.0699,38.6418],[-122.0667,38.6419],[-122.0664,38.6468],[-122.0643,38.6475],[-122.0671,38.6489],[-122.0483,38.6507],[-122.0342,38.6505],[-122.0343,38.6495],[-122.0039,38.6496],[-122.0026,38.6466],[-121.9987,38.6445],[-121.9991,38.6428],[-122.0045,38.6386],[-122.0029,38.6364],[-121.9981,38.6344],[-121.9947,38.6244],[-121.9972,38.6206],[-121.8954,38.6199],[-121.895,38.6715],[-121.9223,38.6754],[-121.9114,38.6888],[-121.9272,38.692],[-121.9355,38.6954],[-121.9432,38.6961],[-121.9505,38.6945],[-121.9546,38.6959],[-121.9588,38.7211],[-121.9459,38.7772],[-121.9573,38.7762],[-121.9657,38.7785],[-121.9765,38.7782],[-121.9809,38.7806],[-122.0439,38.781],[-122.0435,38.8521],[-122.0456,38.8545],[-122.0457,38.857],[-122.0432,38.8614],[-122.0268,38.8637],[-122.0261,38.8845],[-122.0246,38.8861],[-122.0246,38.9118],[-122.0614,38.912],[-122.0611,38.9259],[-122.2078,38.9254],[-122.2473,38.9239],[-122.404,38.9253],[-122.4047,38.9231],[-122.4099,38.9186],[-122.4124,38.9125],[-122.4165,38.9096],[-122.4158,38.9074],[-122.4219,38.9038],[-122.4219,38.9017]]]},"properties":{"GEOID":"0611390910","NAME":"Esparto","COUNTY":"113"}}]}